{"type": "FeatureCollection", "features": [{"type": "Feature", "properties": {"name": "Hobscheid"}, "geometry": {"type": "MultiPolygon", "coordinates": [[[[5.861814, 49.681065], [5.86194, 49.68117], [5.862001, 49.68122], [5.862101, 49.68131], [5.86223, 49.681442], [5.862349, 49.681576], [5.862261, 49.68188], [5.862326, 49.681957], [5.862398, 49.68204], [5.862474, 49.682102], [5.862349, 49.682182], [5.862467, 49.68237], [5.862574, 49.682537], [5.862642, 49.682648], [5.862734, 49.6828], [5.862768, 49.682858], [5.862844, 49.683002], [5.862871, 49.683056], [5.862802, 49.683235], [5.862749, 49.68338], [5.862673, 49.68358], [5.862513, 49.68398], [5.862543, 49.684135], [5.862581, 49.68431], [5.862646, 49.684555], [5.862993, 49.68516], [5.863176, 49.685444], [5.863356, 49.685696], [5.863413, 49.685772], [5.863577, 49.685997], [5.863649, 49.686104], [5.863752, 49.686268], [5.863833, 49.686398], [5.863882, 49.68646], [5.864267, 49.686584], [5.864252, 49.686623], [5.864241, 49.686687], [5.864183, 49.68687], [5.864176, 49.686886], [5.864084, 49.687157], [5.864546, 49.687355], [5.864496, 49.687454], [5.864367, 49.687725], [5.864283, 49.687897], [5.864248, 49.687977], [5.86426, 49.688038], [5.864305, 49.688255], [5.864157, 49.68828], [5.864092, 49.68829], [5.864046, 49.688293], [5.863943, 49.688316], [5.863863, 49.68834], [5.863829, 49.688347], [5.863771, 49.688366], [5.863672, 49.688396], [5.863596, 49.688423], [5.863554, 49.68844], [5.863485, 49.688465], [5.863405, 49.6885], [5.863943, 49.688908], [5.864229, 49.68912], [5.864473, 49.689312], [5.864569, 49.68939], [5.864683, 49.689487], [5.864878, 49.689667], [5.865053, 49.68983], [5.865152, 49.68993], [5.865252, 49.690037], [5.865278, 49.690098], [5.865316, 49.690243], [5.865328, 49.69027], [5.865335, 49.690285], [5.865362, 49.69033], [5.865404, 49.690395], [5.865438, 49.69045], [5.865484, 49.690514], [5.865545, 49.690605], [5.865576, 49.690643], [5.865648, 49.69074], [5.865686, 49.690777], [5.865717, 49.6908], [5.86574, 49.690815], [5.865767, 49.690838], [5.865801, 49.690865], [5.865927, 49.690952], [5.86598, 49.690994], [5.866095, 49.691074], [5.866148, 49.691116], [5.866213, 49.691162], [5.866274, 49.691204], [5.866304, 49.691227], [5.866442, 49.691334], [5.866632, 49.69149], [5.86669, 49.691536], [5.866747, 49.69158], [5.866842, 49.691658], [5.866884, 49.69169], [5.866899, 49.691723], [5.866911, 49.691757], [5.86693, 49.69183], [5.866957, 49.69198], [5.86698, 49.692146], [5.866919, 49.692226], [5.866781, 49.69243], [5.866754, 49.692463], [5.866701, 49.69251], [5.86664, 49.692566], [5.866484, 49.69268], [5.866056, 49.692863], [5.865728, 49.693], [5.865778, 49.693066], [5.865812, 49.693115], [5.865938, 49.69329], [5.866053, 49.693455], [5.866075, 49.693485], [5.866091, 49.693504], [5.866243, 49.693707], [5.866339, 49.693832], [5.866388, 49.693817], [5.866499, 49.694004], [5.866705, 49.694363], [5.866915, 49.694332], [5.867102, 49.69431], [5.867369, 49.69442], [5.867468, 49.694458], [5.868158, 49.694397], [5.86873, 49.694405], [5.868856, 49.694542], [5.869123, 49.694744], [5.869253, 49.694866], [5.86978, 49.695663], [5.869978, 49.69593], [5.870264, 49.696224], [5.870382, 49.69666], [5.870428, 49.6968], [5.870531, 49.697], [5.870619, 49.69715], [5.870771, 49.697357], [5.870939, 49.697517], [5.871267, 49.697773], [5.871386, 49.697884], [5.871473, 49.697987], [5.871553, 49.698093], [5.871626, 49.69821], [5.871679, 49.69832], [5.87179, 49.69844], [5.871988, 49.698433], [5.872126, 49.698406], [5.872244, 49.698376], [5.872431, 49.698368], [5.872587, 49.69838], [5.872721, 49.698414], [5.873186, 49.698566], [5.873297, 49.698627], [5.873472, 49.69872], [5.873926, 49.69895], [5.874197, 49.699085], [5.874514, 49.699238], [5.87459, 49.699272], [5.87472, 49.69935], [5.875223, 49.699688], [5.875433, 49.699814], [5.875746, 49.700005], [5.875952, 49.700123], [5.876139, 49.70022], [5.876669, 49.700493], [5.877085, 49.70071], [5.877264, 49.70081], [5.877512, 49.700954], [5.877584, 49.701], [5.877878, 49.70117], [5.877909, 49.701202], [5.877989, 49.701283], [5.878225, 49.70152], [5.878488, 49.70176], [5.878511, 49.701782], [5.878591, 49.701878], [5.878717, 49.702003], [5.87895, 49.702194], [5.879187, 49.702385], [5.879347, 49.702545], [5.879549, 49.70274], [5.879683, 49.702873], [5.87985, 49.70306], [5.879995, 49.703236], [5.880045, 49.703312], [5.880136, 49.70343], [5.880205, 49.70356], [5.880255, 49.703625], [5.880472, 49.70386], [5.880548, 49.70397], [5.880621, 49.704037], [5.880705, 49.70412], [5.880758, 49.704197], [5.880903, 49.704346], [5.881071, 49.704487], [5.881155, 49.704548], [5.8813, 49.704685], [5.881407, 49.704807], [5.881563, 49.704994], [5.881731, 49.705204], [5.881907, 49.705414], [5.882071, 49.70557], [5.882242, 49.705727], [5.882578, 49.70602], [5.882731, 49.70615], [5.882887, 49.706264], [5.88315, 49.70645], [5.883421, 49.706635], [5.883589, 49.70674], [5.883944, 49.706963], [5.884298, 49.707188], [5.884489, 49.707325], [5.884764, 49.70752], [5.88489, 49.70761], [5.884993, 49.707695], [5.88521, 49.70787], [5.885366, 49.708008], [5.885504, 49.708134], [5.885725, 49.708317], [5.88595, 49.70853], [5.886061, 49.70864], [5.886343, 49.708908], [5.886431, 49.708992], [5.886686, 49.70914], [5.886904, 49.709267], [5.886934, 49.709282], [5.886946, 49.70929], [5.887289, 49.70949], [5.88764, 49.70969], [5.887873, 49.709827], [5.887918, 49.70986], [5.888288, 49.71005], [5.888529, 49.710167], [5.888655, 49.710224], [5.888796, 49.71027], [5.888993, 49.710324], [5.889364, 49.710426], [5.889578, 49.71045], [5.889803, 49.71047], [5.890078, 49.71047], [5.89031, 49.710457], [5.890486, 49.71045], [5.890715, 49.710426], [5.89102, 49.71039], [5.891294, 49.710365], [5.89147, 49.71035], [5.891668, 49.710342], [5.891729, 49.710342], [5.891897, 49.710335], [5.89213, 49.710342], [5.892447, 49.710354], [5.892771, 49.71044], [5.893217, 49.710556], [5.893522, 49.710712], [5.893923, 49.710938], [5.89427, 49.711143], [5.894598, 49.71133], [5.894693, 49.7114], [5.894892, 49.711555], [5.895063, 49.711693], [5.89517, 49.711773], [5.895304, 49.711853], [5.895422, 49.711918], [5.895571, 49.711998], [5.895777, 49.712097], [5.895929, 49.71216], [5.896135, 49.712234], [5.896357, 49.71231], [5.896532, 49.712364], [5.896898, 49.712456], [5.897627, 49.71269], [5.898279, 49.712822], [5.898645, 49.712883], [5.898985, 49.712765], [5.899298, 49.712616], [5.899553, 49.71248], [5.900141, 49.71215], [5.900335, 49.71197], [5.900358, 49.711945], [5.900282, 49.71174], [5.900202, 49.711514], [5.900125, 49.71128], [5.900053, 49.7111], [5.899992, 49.710934], [5.899946, 49.710823], [5.899973, 49.710827], [5.900435, 49.710827], [5.900442, 49.71086], [5.900969, 49.71086], [5.90119, 49.710865], [5.901499, 49.710865], [5.901758, 49.71087], [5.902208, 49.71087], [5.902357, 49.710865], [5.902548, 49.710857], [5.903028, 49.710842], [5.903349, 49.710823], [5.90399, 49.710808], [5.904402, 49.7109], [5.90489, 49.711006], [5.905237, 49.711136], [5.905611, 49.71128], [5.905916, 49.7114], [5.906538, 49.711586], [5.906862, 49.71168], [5.907232, 49.71179], [5.907789, 49.71186], [5.908239, 49.711914], [5.90827, 49.71189], [5.908441, 49.711796], [5.908705, 49.711647], [5.908865, 49.711555], [5.909037, 49.711433], [5.909338, 49.711224], [5.909525, 49.71109], [5.909697, 49.710964], [5.909822, 49.710854], [5.910063, 49.71065], [5.910395, 49.710365], [5.910395, 49.710217], [5.910437, 49.71021], [5.910376, 49.71001], [5.910219, 49.709568], [5.910089, 49.709167], [5.910044, 49.709175], [5.909983, 49.70908], [5.909918, 49.708973], [5.909861, 49.708874], [5.909822, 49.708797], [5.909792, 49.708717], [5.909777, 49.708656], [5.909761, 49.708565], [5.909754, 49.708454], [5.90975, 49.708378], [5.909754, 49.7083], [5.909811, 49.708294], [5.909738, 49.707966], [5.909716, 49.70765], [5.909723, 49.707562], [5.909754, 49.707397], [5.9098, 49.707146], [5.909868, 49.70694], [5.909941, 49.706806], [5.91012, 49.70659], [5.910917, 49.705746], [5.911264, 49.705418], [5.911741, 49.704933], [5.911978, 49.70494], [5.912069, 49.70487], [5.912184, 49.70479], [5.912222, 49.704758], [5.912302, 49.704697], [5.912344, 49.704662], [5.912359, 49.704647], [5.912481, 49.704544], [5.912611, 49.70442], [5.912687, 49.704346], [5.912836, 49.7042], [5.912924, 49.70412], [5.912981, 49.704067], [5.913153, 49.703896], [5.913446, 49.70361], [5.913732, 49.70333], [5.913927, 49.70329], [5.914526, 49.703182], [5.914648, 49.703217], [5.915133, 49.703335], [5.91527, 49.703377], [5.915483, 49.70344], [5.915918, 49.703625], [5.916178, 49.703754], [5.91646, 49.703976], [5.916594, 49.704094], [5.916616, 49.70413], [5.916723, 49.70437], [5.916929, 49.704353], [5.917231, 49.704315], [5.917646, 49.70426], [5.918005, 49.704197], [5.918058, 49.704193], [5.918448, 49.70421], [5.918844, 49.704243], [5.919268, 49.704338], [5.919393, 49.70437], [5.919645, 49.704384], [5.920191, 49.704403], [5.920656, 49.70442], [5.921194, 49.70435], [5.921648, 49.704636], [5.921736, 49.704685], [5.921808, 49.70475], [5.922163, 49.705048], [5.922426, 49.705204], [5.922483, 49.70524], [5.922556, 49.705284], [5.922598, 49.705303], [5.922648, 49.705265], [5.922689, 49.705235], [5.922762, 49.70518], [5.922815, 49.705036], [5.92285, 49.704918], [5.922789, 49.704845], [5.922667, 49.704685], [5.922655, 49.70434], [5.922594, 49.704044], [5.922579, 49.703964], [5.922659, 49.703773], [5.922758, 49.70356], [5.922762, 49.703545], [5.922861, 49.70348], [5.9233, 49.703194], [5.923445, 49.70309], [5.923723, 49.702885], [5.924135, 49.702732], [5.924486, 49.702663], [5.924623, 49.702637], [5.925035, 49.70271], [5.925478, 49.702835], [5.925779, 49.702934], [5.926054, 49.70302], [5.926573, 49.703205], [5.927175, 49.703415], [5.927206, 49.703426], [5.927469, 49.703518], [5.927519, 49.703533], [5.92779, 49.70357], [5.92787, 49.70341], [5.927992, 49.70317], [5.928099, 49.702988], [5.92816, 49.70288], [5.928217, 49.7028], [5.928637, 49.70238], [5.928965, 49.70207], [5.928976, 49.702057], [5.929064, 49.701977], [5.929155, 49.701885], [5.929167, 49.701874], [5.929327, 49.701912], [5.929361, 49.701855], [5.929384, 49.70181], [5.929403, 49.701767], [5.929442, 49.701656], [5.929472, 49.701553], [5.929502, 49.701405], [5.929636, 49.700893], [5.929705, 49.700573], [5.929724, 49.700474], [5.929743, 49.70042], [5.929762, 49.700382], [5.929842, 49.700294], [5.929899, 49.70025], [5.929979, 49.700184], [5.930361, 49.699966], [5.930555, 49.699856], [5.930754, 49.69975], [5.930963, 49.699635], [5.931177, 49.69952], [5.931463, 49.699375], [5.931551, 49.699333], [5.931639, 49.699295], [5.931711, 49.69927], [5.931799, 49.699234], [5.931913, 49.699207], [5.932096, 49.69918], [5.932222, 49.69916], [5.932737, 49.698956], [5.932852, 49.69891], [5.932879, 49.6989], [5.933077, 49.698807], [5.933096, 49.698795], [5.933454, 49.69861], [5.933672, 49.698494], [5.933699, 49.698475], [5.933744, 49.698452], [5.933943, 49.69834], [5.934076, 49.69827], [5.934042, 49.698215], [5.933771, 49.697796], [5.933554, 49.697453], [5.933515, 49.6974], [5.933489, 49.697357], [5.933737, 49.697075], [5.933806, 49.696995], [5.93387, 49.696922], [5.933962, 49.696815], [5.934084, 49.69668], [5.934137, 49.696613], [5.934233, 49.696503], [5.934259, 49.696476], [5.934481, 49.696217], [5.934599, 49.69608], [5.93461, 49.696064], [5.93466, 49.69599], [5.934736, 49.695885], [5.934812, 49.695766], [5.9349, 49.695618], [5.934938, 49.695557], [5.935003, 49.695435], [5.935038, 49.695366], [5.935087, 49.69528], [5.935171, 49.695126], [5.935282, 49.69466], [5.935347, 49.694427], [5.935438, 49.694035], [5.935442, 49.69402], [5.935568, 49.69383], [5.935678, 49.69368], [5.935736, 49.693607], [5.935747, 49.69359], [5.935862, 49.69343], [5.935968, 49.693283], [5.935984, 49.69326], [5.935999, 49.69324], [5.93619, 49.69298], [5.936197, 49.69297], [5.936247, 49.69291], [5.936262, 49.692883], [5.936338, 49.692776], [5.936476, 49.692593], [5.936575, 49.692455], [5.936647, 49.69236], [5.93685, 49.692078], [5.936869, 49.692043], [5.936968, 49.69191], [5.937113, 49.69171], [5.937216, 49.691566], [5.937254, 49.691338], [5.93733, 49.6909], [5.937387, 49.690582], [5.937422, 49.690403], [5.937449, 49.69022], [5.937452, 49.690205], [5.937487, 49.690006], [5.937525, 49.68979], [5.937571, 49.68952], [5.937597, 49.689354], [5.937616, 49.689247], [5.937704, 49.688705], [5.93775, 49.68845], [5.937758, 49.68842], [5.937784, 49.688267], [5.937853, 49.68797], [5.937861, 49.687637], [5.937876, 49.687496], [5.937925, 49.687252], [5.937971, 49.687057], [5.93804, 49.686817], [5.938097, 49.686638], [5.938002, 49.68651], [5.937948, 49.686424], [5.937872, 49.686264], [5.937811, 49.686172], [5.937708, 49.68604], [5.937635, 49.68595], [5.937593, 49.685905], [5.937449, 49.68576], [5.937311, 49.68562], [5.937128, 49.685455], [5.937113, 49.685425], [5.937079, 49.685352], [5.93704, 49.685246], [5.937017, 49.68516], [5.937006, 49.68507], [5.937014, 49.684994], [5.937029, 49.684917], [5.937063, 49.68484], [5.937105, 49.68474], [5.937239, 49.684376], [5.937307, 49.684177], [5.937361, 49.68401], [5.937384, 49.683937], [5.937437, 49.68382], [5.937498, 49.683693], [5.93762, 49.68349], [5.937708, 49.683334], [5.937735, 49.683277], [5.937773, 49.68323], [5.937788, 49.68321], [5.937811, 49.683186], [5.937861, 49.683147], [5.937921, 49.683105], [5.937979, 49.683064], [5.938036, 49.68302], [5.93825, 49.682842], [5.938372, 49.682735], [5.938593, 49.68252], [5.938616, 49.682487], [5.938643, 49.682446], [5.938662, 49.682404], [5.938681, 49.682373], [5.938742, 49.682293], [5.938814, 49.68221], [5.938913, 49.682114], [5.939077, 49.681957], [5.939348, 49.68175], [5.939524, 49.68162], [5.939913, 49.68131], [5.940092, 49.68117], [5.940145, 49.68112], [5.940542, 49.68083], [5.94066, 49.680737], [5.940775, 49.680653], [5.940988, 49.68047], [5.941091, 49.68037], [5.941179, 49.68027], [5.941233, 49.680187], [5.941454, 49.679867], [5.941656, 49.679592], [5.941835, 49.679325], [5.941923, 49.679207], [5.942018, 49.679092], [5.94208, 49.67903], [5.942183, 49.678944], [5.942419, 49.678745], [5.94253, 49.678654], [5.94261, 49.6786], [5.942701, 49.678562], [5.942766, 49.678547], [5.942827, 49.67853], [5.942953, 49.67852], [5.943117, 49.67852], [5.943541, 49.678528], [5.943609, 49.67853], [5.943937, 49.678528], [5.944159, 49.678524], [5.944223, 49.678524], [5.94401, 49.67832], [5.943846, 49.678192], [5.943689, 49.67809], [5.943472, 49.67799], [5.94338, 49.677937], [5.943335, 49.67789], [5.9433, 49.67783], [5.943285, 49.677784], [5.943281, 49.67776], [5.94327, 49.677727], [5.942915, 49.677742], [5.942183, 49.67779], [5.94211, 49.6778], [5.941961, 49.67783], [5.941755, 49.677876], [5.941675, 49.677902], [5.941637, 49.677925], [5.941576, 49.67797], [5.941389, 49.678185], [5.941175, 49.678406], [5.941103, 49.67848], [5.941046, 49.67852], [5.940954, 49.678623], [5.940878, 49.678707], [5.940805, 49.67881], [5.94076, 49.678886], [5.940725, 49.679028], [5.940691, 49.67919], [5.940672, 49.67925], [5.940626, 49.67928], [5.940546, 49.679325], [5.940435, 49.679363], [5.94029, 49.679398], [5.940084, 49.679432], [5.939959, 49.67946], [5.93981, 49.67951], [5.939646, 49.679573], [5.939485, 49.679604], [5.939356, 49.679615], [5.93918, 49.679626], [5.939077, 49.679634], [5.938944, 49.679653], [5.938806, 49.679688], [5.938673, 49.679718], [5.938581, 49.67975], [5.938528, 49.679775], [5.93849, 49.67981], [5.938475, 49.679867], [5.938475, 49.679935], [5.938471, 49.68003], [5.938459, 49.68011], [5.938429, 49.6802], [5.938372, 49.680286], [5.938303, 49.680367], [5.93825, 49.68041], [5.938158, 49.680447], [5.938078, 49.68046], [5.937971, 49.680466], [5.937887, 49.68047], [5.937716, 49.68045], [5.93767, 49.68044], [5.937548, 49.68044], [5.93746, 49.680454], [5.937216, 49.68052], [5.937128, 49.680534], [5.937056, 49.68053], [5.936998, 49.6805], [5.936937, 49.680458], [5.936853, 49.680393], [5.936773, 49.680332], [5.936586, 49.68022], [5.9364, 49.680115], [5.936087, 49.679943], [5.936022, 49.67992], [5.935968, 49.67991], [5.935896, 49.67991], [5.935858, 49.679913], [5.935804, 49.67992], [5.935732, 49.679935], [5.935663, 49.67996], [5.935575, 49.679993], [5.935427, 49.68006], [5.935308, 49.68009], [5.935247, 49.680103], [5.93519, 49.680096], [5.935137, 49.680073], [5.935068, 49.680027], [5.934954, 49.67996], [5.934744, 49.679855], [5.93453, 49.679764], [5.93429, 49.67969], [5.934114, 49.67965], [5.934038, 49.679634], [5.933866, 49.679596], [5.933584, 49.679546], [5.933348, 49.679523], [5.933207, 49.679523], [5.933146, 49.679527], [5.932989, 49.67955], [5.932844, 49.679585], [5.932749, 49.6796], [5.932676, 49.679596], [5.932619, 49.67958], [5.93255, 49.679546], [5.932451, 49.67948], [5.932394, 49.679466], [5.932302, 49.679466], [5.932184, 49.67948], [5.932013, 49.679504], [5.931948, 49.679504], [5.93189, 49.679485], [5.931837, 49.679443], [5.931791, 49.679375], [5.931757, 49.67934], [5.931704, 49.679314], [5.931627, 49.679287], [5.931559, 49.679276], [5.931448, 49.679283], [5.931356, 49.679295], [5.931223, 49.679317], [5.931127, 49.679344], [5.931044, 49.679356], [5.930963, 49.679356], [5.930819, 49.67936], [5.93062, 49.679394], [5.930407, 49.679443], [5.930284, 49.679474], [5.930223, 49.679504], [5.930166, 49.679565], [5.930086, 49.67964], [5.93001, 49.679703], [5.929937, 49.679752], [5.929865, 49.67979], [5.929804, 49.67983], [5.929697, 49.67993], [5.929598, 49.680027], [5.929495, 49.6801], [5.929388, 49.68016], [5.929308, 49.6802], [5.929117, 49.68028], [5.928976, 49.680355], [5.928892, 49.680416], [5.928816, 49.680454], [5.928743, 49.680492], [5.92869, 49.68054], [5.928625, 49.680645], [5.928537, 49.680817], [5.928492, 49.680897], [5.9284, 49.68098], [5.928305, 49.681038], [5.928156, 49.68109], [5.927977, 49.681133], [5.927877, 49.681145], [5.927664, 49.681164], [5.927431, 49.681187], [5.92742, 49.68116], [5.927278, 49.680977], [5.927233, 49.680916], [5.926985, 49.68061], [5.926954, 49.680576], [5.926897, 49.6805], [5.926703, 49.680264], [5.926641, 49.680183], [5.926592, 49.680126], [5.92642, 49.679913], [5.92639, 49.679874], [5.926329, 49.679802], [5.92618, 49.679615], [5.926138, 49.679554], [5.92605, 49.679436], [5.926001, 49.679367], [5.925978, 49.679337], [5.925932, 49.67928], [5.925852, 49.679176], [5.925783, 49.679092], [5.925745, 49.679054], [5.925661, 49.67908], [5.925501, 49.679123], [5.925249, 49.67898], [5.925013, 49.67885], [5.924902, 49.67878], [5.924776, 49.678696], [5.924696, 49.67864], [5.924673, 49.678623], [5.924417, 49.678448], [5.924192, 49.678284], [5.923952, 49.6781], [5.923887, 49.678047], [5.923834, 49.678005], [5.923624, 49.677513], [5.923563, 49.677372], [5.923517, 49.677273], [5.92341, 49.67704], [5.923307, 49.676884], [5.92322, 49.67677], [5.923094, 49.67664], [5.922968, 49.676548], [5.92293, 49.676563], [5.922232, 49.676205], [5.921747, 49.675953], [5.921507, 49.67581], [5.921343, 49.67571], [5.921293, 49.675667], [5.921068, 49.67546], [5.920946, 49.67536], [5.920816, 49.67529], [5.920557, 49.675182], [5.920012, 49.67497], [5.91934, 49.674683], [5.919123, 49.674603], [5.919046, 49.674633], [5.918627, 49.674374], [5.918406, 49.67422], [5.918253, 49.674103], [5.917993, 49.673893], [5.917841, 49.67369], [5.917788, 49.673534], [5.917749, 49.673103], [5.917738, 49.67274], [5.917726, 49.67268], [5.917715, 49.67265], [5.917711, 49.67262], [5.917704, 49.672596], [5.917696, 49.67256], [5.917692, 49.672546], [5.917688, 49.672527], [5.917673, 49.672554], [5.917658, 49.67257], [5.917646, 49.672577], [5.917635, 49.67259], [5.917608, 49.672604], [5.917593, 49.67261], [5.917501, 49.67263], [5.917341, 49.67266], [5.917196, 49.67269], [5.91712, 49.67271], [5.917055, 49.672745], [5.916254, 49.673096], [5.916166, 49.673134], [5.915918, 49.673218], [5.915789, 49.673252], [5.915335, 49.673317], [5.914572, 49.673416], [5.914038, 49.67348], [5.913637, 49.67354], [5.912882, 49.673725], [5.912603, 49.673843], [5.911509, 49.6744], [5.910273, 49.6751], [5.909666, 49.675423], [5.909361, 49.675552], [5.908987, 49.675674], [5.908846, 49.675705], [5.908705, 49.67574], [5.908308, 49.675816], [5.907869, 49.675873], [5.907366, 49.67591], [5.905527, 49.67601], [5.904753, 49.676067], [5.904108, 49.676136], [5.903742, 49.67618], [5.903723, 49.67612], [5.903627, 49.67585], [5.903578, 49.675705], [5.903566, 49.675663], [5.903559, 49.675625], [5.903379, 49.67561], [5.903273, 49.675617], [5.903082, 49.675632], [5.902872, 49.67565], [5.90259, 49.67569], [5.902365, 49.675724], [5.902079, 49.67578], [5.90138, 49.675934], [5.90133, 49.675943], [5.901236, 49.67596], [5.901022, 49.675987], [5.900789, 49.67601], [5.900606, 49.67602], [5.900354, 49.67603], [5.899992, 49.676037], [5.899752, 49.676033], [5.899713, 49.676033], [5.899637, 49.67603], [5.899446, 49.67601], [5.898623, 49.675938], [5.898462, 49.675934], [5.89826, 49.67593], [5.898104, 49.675926], [5.897924, 49.675915], [5.897741, 49.675896], [5.897608, 49.675873], [5.897383, 49.67582], [5.896887, 49.675694], [5.896917, 49.675392], [5.896955, 49.67516], [5.896971, 49.67506], [5.896982, 49.674976], [5.896998, 49.674877], [5.897005, 49.674664], [5.897005, 49.674572], [5.897001, 49.674477], [5.896994, 49.674408], [5.896982, 49.674286], [5.896948, 49.673893], [5.896933, 49.67378], [5.896895, 49.67339], [5.896833, 49.673004], [5.89681, 49.67285], [5.896784, 49.67269], [5.896776, 49.67266], [5.896753, 49.67261], [5.896715, 49.672523], [5.896681, 49.67246], [5.896639, 49.67238], [5.896547, 49.672195], [5.896494, 49.672085], [5.896467, 49.671967], [5.896456, 49.671864], [5.896437, 49.67165], [5.896399, 49.671257], [5.896387, 49.671165], [5.896383, 49.671097], [5.896433, 49.671005], [5.896483, 49.67092], [5.896513, 49.67086], [5.896543, 49.67079], [5.896566, 49.67073], [5.896574, 49.670677], [5.896582, 49.670578], [5.896578, 49.67054], [5.896524, 49.670425], [5.896425, 49.670227], [5.896341, 49.670216], [5.896227, 49.67009], [5.896204, 49.670074], [5.896193, 49.67007], [5.895868, 49.669903], [5.895774, 49.669854], [5.895582, 49.669754], [5.895201, 49.669685], [5.894834, 49.669624], [5.894712, 49.66961], [5.894552, 49.66961], [5.893911, 49.669594], [5.893515, 49.66959], [5.893198, 49.66942], [5.892752, 49.669178], [5.89261, 49.6691], [5.892408, 49.668995], [5.892321, 49.66895], [5.891844, 49.669075], [5.891542, 49.66915], [5.891413, 49.66927], [5.891405, 49.66928], [5.89131, 49.66937], [5.891287, 49.669395], [5.891134, 49.66967], [5.891085, 49.669754], [5.891024, 49.66986], [5.890943, 49.66999], [5.890924, 49.670017], [5.890856, 49.67012], [5.890814, 49.670174], [5.89076, 49.670223], [5.890703, 49.670258], [5.890619, 49.670296], [5.890547, 49.670322], [5.890161, 49.670334], [5.890116, 49.670334], [5.890154, 49.670425], [5.890154, 49.670467], [5.890097, 49.670486], [5.889997, 49.670506], [5.889814, 49.670517], [5.889688, 49.6705], [5.889467, 49.67043], [5.889246, 49.670387], [5.889135, 49.670345], [5.889067, 49.67026], [5.888971, 49.670193], [5.888834, 49.67015], [5.888479, 49.670048], [5.888338, 49.670017], [5.88809, 49.669968], [5.887915, 49.669914], [5.887804, 49.66985], [5.887693, 49.669807], [5.887579, 49.669773], [5.887476, 49.66972], [5.887381, 49.66957], [5.887346, 49.669495], [5.887358, 49.66944], [5.887396, 49.669403], [5.887449, 49.669365], [5.887415, 49.669277], [5.887194, 49.66903], [5.887079, 49.668877], [5.887045, 49.668804], [5.887026, 49.668743], [5.887045, 49.668686], [5.887297, 49.66845], [5.887331, 49.668392], [5.887327, 49.668346], [5.887301, 49.668297], [5.887266, 49.668266], [5.887205, 49.668205], [5.88722, 49.668064], [5.887167, 49.667957], [5.887106, 49.667896], [5.88703, 49.66789], [5.886889, 49.667915], [5.886774, 49.667896], [5.886644, 49.667908], [5.886572, 49.66789], [5.886499, 49.66789], [5.886427, 49.667976], [5.88632, 49.668087], [5.886221, 49.668137], [5.886084, 49.668163], [5.885893, 49.66822], [5.885797, 49.668266], [5.885702, 49.668335], [5.885592, 49.668427], [5.8855, 49.668484], [5.885366, 49.668552], [5.885233, 49.668606], [5.885092, 49.668667], [5.884974, 49.668747], [5.884829, 49.66888], [5.884726, 49.669033], [5.884687, 49.66916], [5.884653, 49.66923], [5.884642, 49.6693], [5.884626, 49.669426], [5.884703, 49.66951], [5.884767, 49.66955], [5.884821, 49.669594], [5.884844, 49.669674], [5.884893, 49.669735], [5.885008, 49.669846], [5.885042, 49.66991], [5.885069, 49.670006], [5.885122, 49.67013], [5.885141, 49.670235], [5.885149, 49.67034], [5.88513, 49.670414], [5.885065, 49.670483], [5.884939, 49.670525], [5.88471, 49.670567], [5.884539, 49.670574], [5.884317, 49.67054], [5.8841, 49.670456], [5.883932, 49.67041], [5.883772, 49.670403], [5.883734, 49.670403], [5.883612, 49.67039], [5.883451, 49.670288], [5.883326, 49.670216], [5.883238, 49.670197], [5.883169, 49.6702], [5.882986, 49.67026], [5.882922, 49.670276], [5.882723, 49.67029], [5.882509, 49.670296], [5.882395, 49.6703], [5.882288, 49.670334], [5.882242, 49.670403], [5.882238, 49.670456], [5.882257, 49.6706], [5.882273, 49.670662], [5.882372, 49.67079], [5.882437, 49.670887], [5.882437, 49.67096], [5.882391, 49.671062], [5.88233, 49.671177], [5.88233, 49.67125], [5.882379, 49.6714], [5.882402, 49.671482], [5.882406, 49.671562], [5.882406, 49.671616], [5.882418, 49.67169], [5.882341, 49.671738], [5.882177, 49.671806], [5.882074, 49.67181], [5.881903, 49.67181], [5.881788, 49.671875], [5.881678, 49.67194], [5.881468, 49.671993], [5.881243, 49.672], [5.881033, 49.672012], [5.880888, 49.67204], [5.880621, 49.672153], [5.880358, 49.672245], [5.880209, 49.672314], [5.880056, 49.672405], [5.8799, 49.672558], [5.87982, 49.672604], [5.879663, 49.672653], [5.879557, 49.672676], [5.87945, 49.67271], [5.879366, 49.672794], [5.879293, 49.67283], [5.879171, 49.672882], [5.879046, 49.672886], [5.878965, 49.67286], [5.878893, 49.672813], [5.878836, 49.672806], [5.878779, 49.672855], [5.878641, 49.67288], [5.878534, 49.672894], [5.878466, 49.672924], [5.878412, 49.672977], [5.878382, 49.67307], [5.878336, 49.67312], [5.87826, 49.67315], [5.878119, 49.673195], [5.87808, 49.673218], [5.878027, 49.67329], [5.878008, 49.673306], [5.877874, 49.67329], [5.877852, 49.67332], [5.877794, 49.673298], [5.877615, 49.673233], [5.876944, 49.673428], [5.876154, 49.673386], [5.874956, 49.67332], [5.873911, 49.673264], [5.87351, 49.67349], [5.872982, 49.673714], [5.872492, 49.67408], [5.871897, 49.674458], [5.871633, 49.67462], [5.871324, 49.674797], [5.871073, 49.67494], [5.870771, 49.67509], [5.870531, 49.675213], [5.870413, 49.67527], [5.870306, 49.675312], [5.870199, 49.67535], [5.869844, 49.6753], [5.869093, 49.67519], [5.868918, 49.67518], [5.868685, 49.675205], [5.868467, 49.67523], [5.868177, 49.675205], [5.867994, 49.675194], [5.867865, 49.67518], [5.867498, 49.675144], [5.86735, 49.675194], [5.867189, 49.67524], [5.866945, 49.675316], [5.866907, 49.67533], [5.866732, 49.67541], [5.866613, 49.675472], [5.866526, 49.675514], [5.866346, 49.675602], [5.866152, 49.6757], [5.866056, 49.67576], [5.865969, 49.6758], [5.865896, 49.675835], [5.865744, 49.67591], [5.865679, 49.675945], [5.865564, 49.676003], [5.865389, 49.67609], [5.865309, 49.676186], [5.865217, 49.6763], [5.865042, 49.676506], [5.864771, 49.676846], [5.864344, 49.677376], [5.863893, 49.67792], [5.863504, 49.6784], [5.863401, 49.678524], [5.863394, 49.678535], [5.863199, 49.67876], [5.863157, 49.67882], [5.862898, 49.679134], [5.862455, 49.67966], [5.862429, 49.67979], [5.862379, 49.67985], [5.862345, 49.679893], [5.862303, 49.679962], [5.862246, 49.680077], [5.862112, 49.680325], [5.862047, 49.68045], [5.86212, 49.68067], [5.861975, 49.68086], [5.861814, 49.681065]]]]}}]}