{"type": "FeatureCollection", "features": [{"type": "Feature", "properties": {"name": "Buschrodt"}, "geometry": {"type": "Polygon", "coordinates": [[[5.9279957, 49.840294], [5.9281254, 49.840317], [5.9282856, 49.840332], [5.9284916, 49.840336], [5.928644, 49.840347], [5.928957, 49.840374], [5.9290676, 49.840374], [5.9293575, 49.84035], [5.9296093, 49.840324], [5.929743, 49.8403], [5.9302654, 49.84019], [5.93038, 49.840088], [5.9305096, 49.839985], [5.9306507, 49.839874], [5.930784, 49.839794], [5.9309483, 49.839718], [5.9310894, 49.839664], [5.931246, 49.839626], [5.9315243, 49.839573], [5.931841, 49.83951], [5.932001, 49.839462], [5.932287, 49.839344], [5.932623, 49.83922], [5.932768, 49.839176], [5.9328938, 49.83915], [5.933222, 49.83911], [5.93342, 49.83908], [5.9335423, 49.83905], [5.933672, 49.839005], [5.9341526, 49.838787], [5.9343624, 49.8387], [5.934805, 49.838554], [5.9350147, 49.838467], [5.935446, 49.838253], [5.935629, 49.83813], [5.9357853, 49.838013], [5.9358616, 49.837944], [5.935938, 49.837852], [5.9360256, 49.83771], [5.936075, 49.837612], [5.936102, 49.837532], [5.9361324, 49.837387], [5.9361553, 49.837215], [5.936178, 49.83714], [5.9362125, 49.837055], [5.936289, 49.836933], [5.936674, 49.83643], [5.9367466, 49.83633], [5.9369373, 49.83607], [5.9370327, 49.835922], [5.9370937, 49.83582], [5.9371433, 49.835697], [5.9373226, 49.83518], [5.937441, 49.8348], [5.9374676, 49.834682], [5.937479, 49.834454], [5.9374866, 49.83436], [5.9375362, 49.8342], [5.9375935, 49.83402], [5.9376163, 49.833916], [5.9376316, 49.833797], [5.937639, 49.833454], [5.9376354, 49.833355], [5.9376507, 49.833256], [5.937723, 49.833042], [5.9377583, 49.8329402], [5.9378643, 49.832634], [5.9380054, 49.83223], [5.93812, 49.831875], [5.938261, 49.831425], [5.93828, 49.831337], [5.938265, 49.83126], [5.9382343, 49.83113], [5.9382305, 49.831055], [5.938246, 49.83101], [5.9382954, 49.83095], [5.938513, 49.830814], [5.939085, 49.83046], [5.9391613, 49.830414], [5.939245, 49.830345], [5.939329, 49.83027], [5.9395123, 49.83008], [5.9398518, 49.829712], [5.94005, 49.829487], [5.940153, 49.82935], [5.940218, 49.82923], [5.940275, 49.829105], [5.940344, 49.82891], [5.940405, 49.82863], [5.9404316, 49.82845], [5.9404583, 49.82824], [5.9404697, 49.828163], [5.9405003, 49.828117], [5.9406605, 49.827957], [5.9407444, 49.827885], [5.940756, 49.82785], [5.9411526, 49.82752], [5.9416027, 49.827156], [5.941889, 49.82693], [5.9420376, 49.826824], [5.9421597, 49.826744], [5.9422398, 49.82671], [5.942297, 49.82669], [5.9429226, 49.826557], [5.9430447, 49.826527], [5.943136, 49.82649], [5.9431973, 49.826458], [5.943266, 49.82641], [5.943323, 49.82636], [5.9434986, 49.82615], [5.943533, 49.826115], [5.943674, 49.825977], [5.943857, 49.8258], [5.9440365, 49.825623], [5.94433, 49.825314], [5.944372, 49.825035], [5.944418, 49.82472], [5.944456, 49.82449], [5.944475, 49.82439], [5.9445477, 49.824043], [5.944536, 49.823994], [5.944643, 49.82361], [5.9446545, 49.823563], [5.9446697, 49.823513], [5.944708, 49.823433], [5.94475, 49.823364], [5.9448643, 49.82321], [5.946062, 49.82332], [5.9462964, 49.8233402], [5.946642, 49.82337], [5.9469433, 49.82344], [5.94718, 49.823463], [5.94756, 49.8235052], [5.94763, 49.823513], [5.9484158, 49.82361], [5.9484386, 49.823456], [5.9484425, 49.823376], [5.9485188, 49.82289], [5.948591, 49.82242], [5.9486103, 49.822273], [5.9486485, 49.82221], [5.9487247, 49.82206], [5.9488087, 49.821907], [5.948885, 49.82176], [5.949049, 49.821453], [5.9492016, 49.82096], [5.9481913, 49.8201447], [5.9480495, 49.82003], [5.94779, 49.81983], [5.947275, 49.819435], [5.9466, 49.818924], [5.9470387, 49.818684], [5.947069, 49.818665], [5.94718, 49.81861], [5.9474087, 49.818504], [5.9478283, 49.818314], [5.947588, 49.818207], [5.947691, 49.818047], [5.9478397, 49.817825], [5.947893, 49.817738], [5.9479733, 49.817604], [5.947794, 49.817505], [5.9474735, 49.81733], [5.947218, 49.817192], [5.947054, 49.8171], [5.946863, 49.81702], [5.9461308, 49.816742], [5.9461536, 49.816628], [5.946188, 49.816544], [5.9462337, 49.81648], [5.9462833, 49.81642], [5.946356, 49.816353], [5.9465466, 49.816216], [5.9467228, 49.8155335], [5.9467458, 49.8154502], [5.9465362, 49.8154183], [5.9461887, 49.8153655], [5.946173, 49.8153642], [5.9461643, 49.8154012], [5.9461455, 49.8154362], [5.9460805, 49.8155191], [5.9460157, 49.815564], [5.9459543, 49.8156149], [5.9459185, 49.8156359], [5.9458674, 49.8156568], [5.9458044, 49.8156707], [5.9457584, 49.8156816], [5.945721, 49.8157156], [5.9452521, 49.8157234], [5.944745, 49.8157318], [5.9446161, 49.8156718], [5.9445156, 49.815625], [5.9441472, 49.8155954], [5.9438684, 49.8155749], [5.9436679, 49.8155605], [5.9434959, 49.8155496], [5.9434382, 49.8155459], [5.9431461, 49.8155275], [5.9427365, 49.8155077], [5.9425411, 49.8155011], [5.9422268, 49.8154905], [5.9420413, 49.8154843], [5.9420002, 49.8155543], [5.9419674, 49.8156522], [5.941933, 49.8157482], [5.9420085, 49.8159605], [5.9418741, 49.8159647], [5.9417398, 49.815969], [5.9410801, 49.8159837], [5.940956, 49.8159835], [5.9407062, 49.815973], [5.9402694, 49.8159441], [5.9392054, 49.815872], [5.9391627, 49.8162851], [5.9391658, 49.8163192], [5.9391188, 49.8165121], [5.9391014, 49.8165724], [5.9390019, 49.8166617], [5.9388647, 49.8167891], [5.9387073, 49.816835], [5.9385294, 49.8168849], [5.9378589, 49.8170756], [5.9376794, 49.8171145], [5.9369255, 49.8172487], [5.936163, 49.8173769], [5.9350706, 49.8175566], [5.9346279, 49.8176291], [5.9344603, 49.8176569], [5.9344073, 49.8176709], [5.9337911, 49.8179431], [5.9330361, 49.8182784], [5.9326373, 49.8184535], [5.9322693, 49.8186015], [5.9318996, 49.8187485], [5.9310216, 49.8190976], [5.9301864, 49.8194307], [5.9298971, 49.8195417], [5.9295163, 49.8198575], [5.9294853, 49.8199077], [5.9288059, 49.8205136], [5.9281298, 49.8211184], [5.9280012, 49.8212287], [5.9277953, 49.8214162], [5.9271741, 49.8219608], [5.926692, 49.8223931], [5.9266044, 49.8224713], [5.9265317, 49.8225417], [5.9264293, 49.8226409], [5.9262336, 49.8228295], [5.9261736, 49.8228836], [5.9258989, 49.8231525], [5.9255487, 49.8235076], [5.9253048, 49.8237584], [5.9251313, 49.823938], [5.9241719, 49.8241521], [5.9223931, 49.8245596], [5.9211804, 49.8248385], [5.9195904, 49.8252076], [5.9195567, 49.8252204], [5.9193413, 49.8251943], [5.9192122, 49.8251876], [5.9189701, 49.8252074], [5.9186334, 49.8252377], [5.9182977, 49.8252509], [5.9181613, 49.8252442], [5.9178286, 49.8252135], [5.9177068, 49.8252036], [5.9175849, 49.8252033], [5.9173065, 49.8252199], [5.9171527, 49.8252249], [5.9168965, 49.8251762], [5.9167674, 49.8251609], [5.9162801, 49.8251117], [5.916041, 49.8250908], [5.9159337, 49.8250906], [5.9156953, 49.8251147], [5.9154059, 49.8251397], [5.9152421, 49.8251522], [5.9150965, 49.8251562], [5.9149902, 49.8251517], [5.9148702, 49.8251407], [5.9147139, 49.8251083], [5.9145176, 49.8250725], [5.9143376, 49.8250518], [5.9141321, 49.8250385], [5.9139703, 49.825021], [5.9138367, 49.8249982], [5.9137132, 49.8249701], [5.9135297, 49.8249237], [5.9133135, 49.8248665], [5.9131136, 49.8248318], [5.9127654, 49.8247882], [5.9126473, 49.8247751], [5.9124218, 49.82475], [5.9121982, 49.8247324], [5.9119199, 49.8247243], [5.9117234, 49.8247239], [5.911537, 49.824732], [5.9113659, 49.8247423], [5.9112221, 49.8247602], [5.911111, 49.8247899], [5.9108414, 49.8248482], [5.9107449, 49.8248673], [5.9107083, 49.8249175], [5.9105462, 49.8251269], [5.9102931, 49.8255139], [5.910321, 49.8255154], [5.9103856, 49.8255259], [5.9102803, 49.8257172], [5.9103855, 49.8257755], [5.9106742, 49.8259354], [5.9107939, 49.8259916], [5.9114545, 49.8262467], [5.9115442, 49.8262961], [5.9116639, 49.8263717], [5.9123692, 49.826828], [5.9127967, 49.8271066], [5.9128437, 49.8271367], [5.913284, 49.8274184], [5.9136674, 49.8276718], [5.9137711, 49.8277543], [5.9137887, 49.8277671], [5.9136526, 49.8278137], [5.9134384, 49.8279321], [5.9132702, 49.8280185], [5.9130614, 49.8281312], [5.9128684, 49.8282473], [5.9128311, 49.8282769], [5.9128211, 49.8285031], [5.9127815, 49.8286584], [5.9128079, 49.8286768], [5.9129275, 49.828741], [5.9130627, 49.8292211], [5.9132835, 49.8291988], [5.9148128, 49.8290604], [5.9148184, 49.8290849], [5.9148438, 49.8291965], [5.9148281, 49.8292097], [5.9146736, 49.8293401], [5.9146346, 49.8293823], [5.9145525, 49.8295626], [5.9145432, 49.8296391], [5.9145744, 49.829758], [5.9145979, 49.8298366], [5.9146293, 49.8299415], [5.914675, 49.8300941], [5.9150813, 49.8300261], [5.9155054, 49.829947], [5.916032, 49.8298419], [5.9160876, 49.8300131], [5.9158067, 49.8300448], [5.915699, 49.8300605], [5.9155752, 49.8301014], [5.9154903, 49.8301412], [5.915262, 49.8302561], [5.9153088, 49.8302781], [5.9153183, 49.8302825], [5.9155475, 49.8303458], [5.9157767, 49.8303898], [5.9158808, 49.8304048], [5.9160749, 49.830403], [5.9162639, 49.830392], [5.9165835, 49.8303595], [5.9168202, 49.8303292], [5.9169209, 49.8303248], [5.9171132, 49.8303355], [5.9172282, 49.8302901], [5.9172865, 49.8302719], [5.9174296, 49.8302528], [5.9177934, 49.8302102], [5.9181272, 49.8301732], [5.9183144, 49.8301576], [5.9187524, 49.8301197], [5.9188689, 49.8301165], [5.9189947, 49.8300299], [5.9190265, 49.830022], [5.9192737, 49.8300031], [5.9194027, 49.8299714], [5.9196201, 49.8299159], [5.9197527, 49.8298853], [5.9198604, 49.8298695], [5.919984, 49.8298595], [5.9201323, 49.8298495], [5.9202207, 49.8298383], [5.9203532, 49.82981], [5.920514, 49.8297681], [5.9206625, 49.8297239], [5.9207863, 49.8296796], [5.9208765, 49.829642], [5.9210216, 49.8295772], [5.9210941, 49.82955], [5.9211666, 49.829533], [5.9215796, 49.8295046], [5.9218506, 49.8294683], [5.922175, 49.829422], [5.9225705, 49.8293509], [5.9227984, 49.8293124], [5.9232015, 49.8292483], [5.9233869, 49.8292247], [5.9241246, 49.829174], [5.924215, 49.8292265], [5.9241239, 49.8292303], [5.92416, 49.8292821], [5.9242013, 49.8293621], [5.9242325, 49.8294215], [5.9241868, 49.8298905], [5.9239587, 49.8302797], [5.9237497, 49.83056], [5.9234774, 49.8308502], [5.9234199, 49.830924], [5.9233833, 49.8309888], [5.923363, 49.8310308], [5.923335, 49.8310687], [5.9233086, 49.8311036], [5.9232621, 49.8311534], [5.9232403, 49.8311804], [5.9232385, 49.8312223], [5.9232421, 49.8312923], [5.9232311, 49.8313312], [5.923203, 49.8313791], [5.9231828, 49.831414], [5.9231363, 49.8314559], [5.9230777, 49.831504], [5.9229675, 49.8315605], [5.9228227, 49.8316501], [5.9226988, 49.8317377], [5.9225222, 49.8318612], [5.9223032, 49.8319777], [5.9221935, 49.8319914], [5.9220667, 49.8320491], [5.9219337, 49.8320848], [5.9217729, 49.8321394], [5.9217271, 49.8321953], [5.9216929, 49.8322511], [5.9219555, 49.8325035], [5.9217336, 49.8325759], [5.9223095, 49.8330137], [5.922647, 49.8332742], [5.9226414, 49.8333082], [5.9226872, 49.833575], [5.9227425, 49.833772], [5.9227667, 49.8338789], [5.9227928, 49.8340648], [5.922812, 49.8342237], [5.922832, 49.8344313], [5.9228487, 49.8346054], [5.9228322, 49.8346531], [5.9228188, 49.8348711], [5.9228314, 49.8351349], [5.9228473, 49.8354946], [5.9228779, 49.8361541], [5.9231642, 49.8361905], [5.9241322, 49.8363136], [5.9242356, 49.8364432], [5.9244091, 49.8366608], [5.9245514, 49.8366365], [5.9245651, 49.8366342], [5.9252024, 49.8365336], [5.9251569, 49.8363876], [5.9259209, 49.8364152], [5.9260121, 49.8366921], [5.9258815, 49.8366979], [5.9259472, 49.8368299], [5.9261558, 49.8368222], [5.9262069, 49.8368203], [5.9262264, 49.8368196], [5.9266543, 49.8368039], [5.9268668, 49.8367961], [5.926892, 49.8367952], [5.9270535, 49.8367892], [5.9271904, 49.8368734], [5.9269366, 49.8371144], [5.9267724, 49.8372702], [5.9267167, 49.8372981], [5.9266345, 49.8373271], [5.9266239, 49.8373308], [5.9264559, 49.8374514], [5.9260707, 49.8377513], [5.9262468, 49.8378915], [5.9264344, 49.8380508], [5.9265051, 49.8381039], [5.9266124, 49.8381621], [5.926773, 49.8382433], [5.9269086, 49.8383065], [5.92711, 49.8386177], [5.9273194, 49.8389028], [5.9279144, 49.8393876], [5.9279553, 49.8394274], [5.9280225, 49.8396326], [5.9280033, 49.8396865], [5.9279957, 49.840294]]]}}]}