{"type": "FeatureCollection", "features": [{"type": "Feature", "properties": {"name": "Grevels, Brattert et Rindschleiden"}, "geometry": {"type": "Polygon", "coordinates": [[[5.914995, 49.849854], [5.9149461, 49.8499303], [5.9148726, 49.8500853], [5.9148031, 49.8502408], [5.9147345, 49.8504065], [5.9146611, 49.8505144], [5.9145972, 49.8505779], [5.9144661, 49.8506611], [5.9142437, 49.8507666], [5.9142257, 49.8507751], [5.9140823, 49.8508416], [5.9138374, 49.8508828], [5.9134337, 49.8509312], [5.9130773, 49.8509395], [5.9128574, 49.8509197], [5.9123932, 49.8508342], [5.9122008, 49.8507904], [5.911658, 49.8505635], [5.9111109, 49.8503531], [5.9108388, 49.8502262], [5.9103796, 49.8499732], [5.9102938, 49.8499388], [5.9101914, 49.8499172], [5.9100261, 49.8499082], [5.9098608, 49.8498972], [5.9098178, 49.8498853], [5.9090939, 49.8491534], [5.9083418, 49.8485563], [5.9073893, 49.847811], [5.9071168, 49.8475938], [5.9067839, 49.8473811], [5.9065029, 49.8472216], [5.9061235, 49.8470517], [5.9054807, 49.8468218], [5.9051523, 49.8467066], [5.9037435, 49.8464092], [5.9029102, 49.8462526], [5.9023262, 49.846162], [5.9019891, 49.846127], [5.9016155, 49.8461143], [5.9008426, 49.8461002], [5.9004772, 49.8461069], [5.8999504, 49.8461426], [5.8989635, 49.8462468], [5.8984872, 49.8462703], [5.8979763, 49.8462723], [5.8976724, 49.8462763], [5.8973868, 49.8462718], [5.8968864, 49.8462376], [5.8965589, 49.8462175], [5.895545, 49.8462131], [5.8948107, 49.8462289], [5.8945097, 49.8462501], [5.8944029, 49.8462577], [5.894127, 49.8463036], [5.8937007, 49.8463421], [5.8934605, 49.8463349], [5.8931368, 49.8463342], [5.8926941, 49.8463687], [5.8924082, 49.8463939], [5.8920963, 49.8464397], [5.8917722, 49.84651], [5.891433, 49.8466029], [5.8910705, 49.8467547], [5.8896043, 49.8474067], [5.8884696, 49.8478998], [5.887971, 49.8480886], [5.8877158, 49.8481753], [5.8873557, 49.8482507], [5.8870738, 49.8482798], [5.88687, 49.8482793], [5.8865386, 49.8482371], [5.8860179, 49.8481053], [5.8859773, 49.848048], [5.8859525, 49.8481556], [5.8857579, 49.8485793], [5.8856822, 49.8487442], [5.8863839, 49.8489099], [5.8866377, 49.8489591], [5.8868066, 49.8489918], [5.8871478, 49.8490533], [5.8875948, 49.8491287], [5.8877308, 49.8491508], [5.8883345, 49.849249], [5.8884192, 49.8492682], [5.8878695, 49.8495446], [5.8873271, 49.8497683], [5.8870564, 49.8498928], [5.8866582, 49.8500939], [5.886003, 49.8504966], [5.8860506, 49.8505341], [5.8863303, 49.8507073], [5.885575, 49.8511562], [5.8856508, 49.8512079], [5.8852116, 49.8515108], [5.8849409, 49.8516974], [5.8847092, 49.8518744], [5.88529, 49.8521176], [5.885415, 49.8521603], [5.8857197, 49.8522661], [5.8861458, 49.8523962], [5.8863091, 49.8524461], [5.886885, 49.8526186], [5.8871631, 49.8527018], [5.8876194, 49.8528339], [5.8878673, 49.8529056], [5.888038, 49.852958], [5.8880664, 49.8529662], [5.8880892, 49.8528983], [5.888147, 49.8528224], [5.8882046, 49.8527782], [5.8882924, 49.8527272], [5.8884117, 49.8526705], [5.8885477, 49.8526273], [5.8888974, 49.8525354], [5.8892956, 49.8524068], [5.8895389, 49.8523273], [5.8895604, 49.8523435], [5.8899104, 49.8525722], [5.8897673, 49.8527607], [5.8896938, 49.8528782], [5.8896471, 49.8529723], [5.8895954, 49.8530904], [5.8895372, 49.8532233], [5.8897234, 49.8533311], [5.8897959, 49.8533792], [5.8899674, 49.8535064], [5.8899973, 49.8535287], [5.8902024, 49.8537194], [5.8903365, 49.8538228], [5.8905439, 49.8539682], [5.8906738, 49.8540529], [5.8908708, 49.8541733], [5.8909219, 49.8542], [5.8910365, 49.8542598], [5.8912381, 49.8543593], [5.8913655, 49.854414], [5.8915297, 49.8544721], [5.8918004, 49.8545588], [5.8919868, 49.8546134], [5.8920694, 49.8546376], [5.8920509, 49.8546698], [5.8918986, 49.8546683], [5.8917804, 49.8548503], [5.8922734, 49.8549228], [5.8925217, 49.8549573], [5.8930238, 49.8551323], [5.893132, 49.8551699], [5.8932996, 49.8552451], [5.8936949, 49.8554345], [5.8941188, 49.8556676], [5.8943918, 49.8558171], [5.8946884, 49.8559594], [5.8949616, 49.8560874], [5.8951593, 49.856098], [5.8955521, 49.8561074], [5.8955803, 49.856069], [5.8956181, 49.8560032], [5.8956421, 49.8559616], [5.8957024, 49.8558202], [5.8957614, 49.8555905], [5.8958141, 49.8554123], [5.8958639, 49.8552618], [5.8960748, 49.8549346], [5.8962592, 49.8549774], [5.8961356, 49.8551775], [5.8963252, 49.8552193], [5.8960745, 49.8559354], [5.8964628, 49.8559578], [5.8963851, 49.8561367], [5.8963636, 49.8561863], [5.896283, 49.8561985], [5.8962307, 49.8563179], [5.8961379, 49.8563256], [5.8960851, 49.8563855], [5.8960429, 49.8564261], [5.8959181, 49.8565119], [5.8957294, 49.8566128], [5.895347, 49.856793], [5.8952548, 49.8568398], [5.8949572, 49.8570457], [5.8949351, 49.8570609], [5.894798, 49.8571795], [5.8946334, 49.8573495], [5.8945453, 49.8574535], [5.8944765, 49.8575507], [5.8944248, 49.8575556], [5.894363, 49.8576562], [5.8942958, 49.8577908], [5.8942594, 49.8578762], [5.8942539, 49.8579031], [5.894245, 49.8579464], [5.8942285, 49.8580845], [5.8942282, 49.8581377], [5.894228, 49.858183], [5.8942357, 49.8582979], [5.894244, 49.8583612], [5.8942499, 49.8583865], [5.8942541, 49.8584042], [5.8942723, 49.8584816], [5.8943045, 49.8585947], [5.8943548, 49.8587252], [5.8944058, 49.8588359], [5.8944419, 49.8588978], [5.8944808, 49.8589644], [5.8945245, 49.8590354], [5.8946276, 49.8591626], [5.8947969, 49.8593371], [5.8948119, 49.8593526], [5.8947267, 49.859415], [5.8946741, 49.8596327], [5.8946394, 49.8597488], [5.8945946, 49.8598653], [5.8945602, 49.8599273], [5.8944979, 49.8599993], [5.8944076, 49.8600812], [5.894197, 49.8602335], [5.8940354, 49.8603402], [5.8938933, 49.8604205], [5.8937691, 49.8604753], [5.8936342, 49.8605231], [5.8934992, 49.8605708], [5.8933937, 49.8606137], [5.8933021, 49.8606655], [5.89325, 49.8606979], [5.8931676, 49.8607588], [5.89311, 49.8608168], [5.8930727, 49.8608707], [5.8930413, 49.8609158], [5.8930046, 49.8609873], [5.89297, 49.8610754], [5.8929048, 49.8612966], [5.8928808, 49.8613781], [5.8927354, 49.8618226], [5.8927304, 49.861838], [5.8923499, 49.861765], [5.8923982, 49.8619702], [5.8924234, 49.8623275], [5.892474, 49.8623533], [5.8926519, 49.8623325], [5.8936183, 49.8621742], [5.8945195, 49.8620066], [5.8945809, 49.8621029], [5.8946409, 49.8621711], [5.8947134, 49.8622264], [5.8947384, 49.8622422], [5.8948298, 49.8623003], [5.8949765, 49.8623707], [5.8951388, 49.8624272], [5.8952377, 49.8624494], [5.8954371, 49.862494], [5.8955949, 49.8625294], [5.8956877, 49.8625515], [5.8957456, 49.8625653], [5.8958924, 49.8626177], [5.8960073, 49.8626675], [5.8960195, 49.8626727], [5.8962507, 49.8627728], [5.8963677, 49.8626556], [5.8966392, 49.8623836], [5.8975172, 49.8627697], [5.8977906, 49.8628846], [5.8981729, 49.8630332], [5.8985252, 49.8631632], [5.8987987, 49.863258], [5.8989401, 49.8633028], [5.8990746, 49.8633392], [5.8992648, 49.8633727], [5.8995989, 49.8634286], [5.8997767, 49.863471], [5.9001177, 49.8635554], [5.9007337, 49.8637127], [5.9009906, 49.8636927], [5.9010955, 49.8636846], [5.9012287, 49.8636742], [5.9013156, 49.863665], [5.9015671, 49.8636383], [5.9017715, 49.8636141], [5.9019249, 49.863596], [5.9022563, 49.8635569], [5.9026125, 49.8633099], [5.9027439, 49.8632189], [5.9031347, 49.8633468], [5.9033228, 49.8633927], [5.903545, 49.8634372], [5.9038466, 49.863482], [5.904233, 49.8635248], [5.904325, 49.8635413], [5.9044465, 49.8635575], [5.9044839, 49.8635671], [5.9044903, 49.8636464], [5.9045132, 49.8638102], [5.9045418, 49.8639835], [5.9045805, 49.8639827], [5.9046619, 49.8639726], [5.9050063, 49.86393], [5.9051152, 49.8639165], [5.9051649, 49.8641757], [5.9052181, 49.8643961], [5.9052516, 49.86451], [5.905275, 49.8645893], [5.9053353, 49.8647612], [5.9053896, 49.8648962], [5.905426, 49.8649868], [5.9054618, 49.8650955], [5.9055106, 49.8653026], [5.9055735, 49.8656324], [5.9056002, 49.8659356], [5.905609, 49.8661842], [5.9059678, 49.8661589], [5.9061971, 49.8661432], [5.9064447, 49.8661188], [5.9068418, 49.8660732], [5.9070772, 49.8660461], [5.9071815, 49.866038], [5.9073338, 49.8660261], [5.9075039, 49.8660178], [5.9075926, 49.8660135], [5.9077992, 49.8659934], [5.9079787, 49.865963], [5.9081605, 49.8659237], [5.9083457, 49.865875], [5.9085072, 49.8658195], [5.9086778, 49.865745], [5.9085786, 49.8656141], [5.9088945, 49.8653263], [5.909134, 49.8651067], [5.9091431, 49.8650973], [5.9092321, 49.8650056], [5.9093349, 49.8648825], [5.9094421, 49.864737], [5.9094619, 49.8647102], [5.9109082, 49.8648622], [5.9120878, 49.8649884], [5.9120995, 49.8649645], [5.9121828, 49.8648248], [5.9122866, 49.8646506], [5.9125347, 49.8645039], [5.9132095, 49.8646827], [5.913463, 49.8644473], [5.9134509, 49.8644108], [5.9134375, 49.8644021], [5.9133886, 49.8643924], [5.9133274, 49.8643828], [5.913298, 49.8643827], [5.9132294, 49.8643937], [5.9131829, 49.864392], [5.9131413, 49.8643824], [5.9130925, 49.8643554], [5.9130437, 49.8643267], [5.9130045, 49.8643203], [5.9129678, 49.864325], [5.9129555, 49.8643329], [5.9129529, 49.8643551], [5.9129357, 49.8643598], [5.9129113, 49.8643565], [5.9128893, 49.8643422], [5.9128747, 49.8643185], [5.9128552, 49.8643073], [5.9127965, 49.8642898], [5.9127672, 49.8642802], [5.9126328, 49.8642292], [5.9125082, 49.8641735], [5.9123605, 49.8640979], [5.9122164, 49.8640216], [5.9120651, 49.8639231], [5.911537, 49.8635473], [5.9110125, 49.8631834], [5.9109399, 49.8631354], [5.9108902, 49.8631025], [5.9108526, 49.8630777], [5.9105719, 49.8629108], [5.9100654, 49.8626269], [5.9098945, 49.8625267], [5.909819, 49.8624553], [5.9097532, 49.8623902], [5.9096998, 49.8623109], [5.9096611, 49.8622253], [5.9096394, 49.8621587], [5.9096165, 49.8620961], [5.9095754, 49.8619851], [5.9095564, 49.8618726], [5.9095519, 49.8617981], [5.9095657, 49.8617356], [5.9095685, 49.8616738], [5.9095589, 49.861639], [5.9095836, 49.8616073], [5.9096057, 49.8615931], [5.9096279, 49.8615568], [5.9096477, 49.861514], [5.909648, 49.8614649], [5.9096507, 49.8614032], [5.9096633, 49.8613367], [5.9096931, 49.8612734], [5.9097473, 49.8612006], [5.9097891, 49.8611627], [5.9098691, 49.861094], [5.909917, 49.8610599], [5.9100092, 49.8609945], [5.9101321, 49.8608966], [5.9101723, 49.8608654], [5.9102034, 49.8608413], [5.9102304, 49.8608382], [5.910267, 49.8608509], [5.9102988, 49.8608494], [5.9103381, 49.8608384], [5.9103553, 49.8608258], [5.9103871, 49.8608227], [5.9104263, 49.8608148], [5.9104289, 49.8607943], [5.9104071, 49.860753], [5.9104072, 49.8607245], [5.9104269, 49.8607087], [5.910444, 49.8607088], [5.9104685, 49.8607199], [5.9105003, 49.8607231], [5.9105199, 49.8607168], [5.910542, 49.8606963], [5.9105984, 49.8607327], [5.9106358, 49.8607569], [5.9106891, 49.8607913], [5.9107772, 49.8608483], [5.9108739, 49.8609109], [5.9111734, 49.8607626], [5.9112655, 49.8607114], [5.9113736, 49.8606356], [5.9114989, 49.8605456], [5.911666, 49.8604335], [5.9117803, 49.8603569], [5.9119498, 49.8602369], [5.9121466, 49.8600789], [5.9122249, 49.8600128], [5.9123286, 49.8599253], [5.9123539, 49.8599039], [5.9124134, 49.8598538], [5.9124726, 49.8598004], [5.9125954, 49.8596895], [5.9126747, 49.8596134], [5.9127036, 49.859588], [5.9127775, 49.8595188], [5.9128214, 49.8594744], [5.9129399, 49.8593544], [5.9130605, 49.8592422], [5.9131454, 49.8591672], [5.9131994, 49.859134], [5.9132412, 49.8590961], [5.9132954, 49.8590424], [5.9133864, 49.8589523], [5.9134528, 49.8589001], [5.9135804, 49.8588386], [5.9137497, 49.8587741], [5.9139369, 49.8587123], [5.9152392, 49.8595138], [5.9152562, 49.8595025], [5.9175768, 49.8603544], [5.9175994, 49.8604709], [5.9176185, 49.8605428], [5.9176607, 49.8607015], [5.9176704, 49.8607281], [5.917709, 49.8608331], [5.917731, 49.8608866], [5.9178045, 49.8610653], [5.9178291, 49.8611077], [5.9178353, 49.8611184], [5.9179307, 49.8612826], [5.9179964, 49.8613556], [5.9180282, 49.8613763], [5.9180843, 49.8614128], [5.9181494, 49.8614452], [5.9182894, 49.8615147], [5.9184327, 49.8615756], [5.9187191, 49.8616974], [5.9190357, 49.861832], [5.9194291, 49.8619994], [5.9194706, 49.8620328], [5.920271, 49.8618452], [5.921644, 49.8615316], [5.921746, 49.8615037], [5.9219888, 49.8613444], [5.9225918, 49.8609488], [5.9234062, 49.8603969], [5.9242133, 49.8598387], [5.9249393, 49.8593392], [5.9250879, 49.8592414], [5.9249683, 49.8591796], [5.9250117, 49.8591539], [5.924532, 49.859123], [5.924124, 49.859108], [5.9234676, 49.85911], [5.923174, 49.859188], [5.9230137, 49.85917], [5.9227695, 49.859123], [5.922674, 49.859104], [5.922598, 49.85909], [5.9224873, 49.85906], [5.9223347, 49.859013], [5.9222736, 49.858994], [5.922003, 49.858906], [5.921793, 49.85885], [5.9216137, 49.8588], [5.921488, 49.85874], [5.921385, 49.858685], [5.9211864, 49.858547], [5.9210033, 49.8584], [5.9208317, 49.858242], [5.9207096, 49.85811], [5.920496, 49.85786], [5.920454, 49.857815], [5.920439, 49.857784], [5.9203663, 49.857666], [5.9203205, 49.857597], [5.9202557, 49.857494], [5.9202023, 49.857407], [5.9201183, 49.857277], [5.9200541, 49.8571748], [5.920046, 49.857162], [5.920023, 49.857132], [5.9198937, 49.8569381], [5.9198856, 49.856926], [5.919695, 49.856667], [5.9197182, 49.8566449], [5.9201107, 49.85627], [5.9202557, 49.856125], [5.9206104, 49.855785], [5.9206448, 49.855755], [5.9206944, 49.855705], [5.920664, 49.855698], [5.920683, 49.855663], [5.920702, 49.855625], [5.9208508, 49.855362], [5.9213085, 49.854507], [5.92132, 49.854492], [5.9215717, 49.854492], [5.9215794, 49.854084], [5.9215984, 49.853493], [5.9214744, 49.853534], [5.921438, 49.853546], [5.921339, 49.853565], [5.921255, 49.853577], [5.9211597, 49.853577], [5.921091, 49.8535239], [5.9210231, 49.8534714], [5.921011, 49.853462], [5.9208164, 49.85331], [5.9206486, 49.853184], [5.9205036, 49.85306], [5.920252, 49.85277], [5.919573, 49.852474], [5.9194126, 49.852406], [5.9193287, 49.852367], [5.9190884, 49.85226], [5.9189434, 49.852184], [5.918539, 49.85199], [5.9182873, 49.851856], [5.9179707, 49.851696], [5.917547, 49.851475], [5.9175167, 49.85146], [5.917986, 49.85119], [5.9173985, 49.85083], [5.916685, 49.850388], [5.9166355, 49.850327], [5.915964, 49.85009], [5.915064, 49.849873], [5.914995, 49.849854]]]}}]}