{"type": "FeatureCollection", "features": [{"type": "Feature", "properties": {"name": "Heispelt"}, "geometry": {"type": "Polygon", "coordinates": [[[5.8924234, 49.8623275], [5.8923982, 49.8619702], [5.8923499, 49.861765], [5.8927304, 49.861838], [5.8927354, 49.8618226], [5.8928808, 49.8613781], [5.8929048, 49.8612966], [5.89297, 49.8610754], [5.8930046, 49.8609873], [5.8930413, 49.8609158], [5.8930727, 49.8608707], [5.89311, 49.8608168], [5.8931676, 49.8607588], [5.89325, 49.8606979], [5.8933021, 49.8606655], [5.8933937, 49.8606137], [5.8934992, 49.8605708], [5.8936342, 49.8605231], [5.8937691, 49.8604753], [5.8938933, 49.8604205], [5.8940354, 49.8603402], [5.894197, 49.8602335], [5.8944076, 49.8600812], [5.8944979, 49.8599993], [5.8945602, 49.8599273], [5.8945946, 49.8598653], [5.8946394, 49.8597488], [5.8946741, 49.8596327], [5.8947267, 49.859415], [5.8948119, 49.8593526], [5.8947969, 49.8593371], [5.8946276, 49.8591626], [5.8945245, 49.8590354], [5.8944808, 49.8589644], [5.8944419, 49.8588978], [5.8944058, 49.8588359], [5.8943548, 49.8587252], [5.8943045, 49.8585947], [5.8942723, 49.8584816], [5.8942541, 49.8584042], [5.8942499, 49.8583865], [5.894244, 49.8583612], [5.8942357, 49.8582979], [5.894228, 49.858183], [5.8942282, 49.8581377], [5.8942285, 49.8580845], [5.894245, 49.8579464], [5.8942539, 49.8579031], [5.8942594, 49.8578762], [5.8942958, 49.8577908], [5.894363, 49.8576562], [5.8944248, 49.8575556], [5.8944765, 49.8575507], [5.8945453, 49.8574535], [5.8946334, 49.8573495], [5.894798, 49.8571795], [5.8949351, 49.8570609], [5.8949572, 49.8570457], [5.8952548, 49.8568398], [5.895347, 49.856793], [5.8957294, 49.8566128], [5.8959181, 49.8565119], [5.8960429, 49.8564261], [5.8960851, 49.8563855], [5.8961379, 49.8563256], [5.8962307, 49.8563179], [5.896283, 49.8561985], [5.8963636, 49.8561863], [5.8963851, 49.8561367], [5.8964628, 49.8559578], [5.8960745, 49.8559354], [5.8963252, 49.8552193], [5.8961356, 49.8551775], [5.8962592, 49.8549774], [5.8960748, 49.8549346], [5.8958639, 49.8552618], [5.8958141, 49.8554123], [5.8957614, 49.8555905], [5.8957024, 49.8558202], [5.8956421, 49.8559616], [5.8956181, 49.8560032], [5.8955803, 49.856069], [5.8955521, 49.8561074], [5.8951593, 49.856098], [5.8949616, 49.8560874], [5.8946884, 49.8559594], [5.8943918, 49.8558171], [5.8941188, 49.8556676], [5.8936949, 49.8554345], [5.8932996, 49.8552451], [5.893132, 49.8551699], [5.8930238, 49.8551323], [5.8925217, 49.8549573], [5.8922734, 49.8549228], [5.8917804, 49.8548503], [5.8918986, 49.8546683], [5.8920509, 49.8546698], [5.8920694, 49.8546376], [5.8919868, 49.8546134], [5.8918004, 49.8545588], [5.8915297, 49.8544721], [5.8913655, 49.854414], [5.8912381, 49.8543593], [5.8910365, 49.8542598], [5.8909219, 49.8542], [5.8908708, 49.8541733], [5.8906738, 49.8540529], [5.8905439, 49.8539682], [5.8903365, 49.8538228], [5.8902024, 49.8537194], [5.8899973, 49.8535287], [5.8899674, 49.8535064], [5.8897959, 49.8533792], [5.8897234, 49.8533311], [5.8895372, 49.8532233], [5.8895954, 49.8530904], [5.8896471, 49.8529723], [5.8896938, 49.8528782], [5.8897673, 49.8527607], [5.8899104, 49.8525722], [5.8895604, 49.8523435], [5.8895389, 49.8523273], [5.8892956, 49.8524068], [5.8888974, 49.8525354], [5.8885477, 49.8526273], [5.8884117, 49.8526705], [5.8882924, 49.8527272], [5.8882046, 49.8527782], [5.888147, 49.8528224], [5.8880892, 49.8528983], [5.8880664, 49.8529662], [5.888038, 49.852958], [5.8878673, 49.8529056], [5.8876194, 49.8528339], [5.8871631, 49.8527018], [5.886885, 49.8526186], [5.8863091, 49.8524461], [5.8861458, 49.8523962], [5.8857197, 49.8522661], [5.885415, 49.8521603], [5.88529, 49.8521176], [5.8847092, 49.8518744], [5.8849409, 49.8516974], [5.8852116, 49.8515108], [5.8856508, 49.8512079], [5.885575, 49.8511562], [5.8863303, 49.8507073], [5.8860506, 49.8505341], [5.886003, 49.8504966], [5.8866582, 49.8500939], [5.8870564, 49.8498928], [5.8873271, 49.8497683], [5.8878695, 49.8495446], [5.8884192, 49.8492682], [5.8883345, 49.849249], [5.8877308, 49.8491508], [5.8875948, 49.8491287], [5.8871478, 49.8490533], [5.8868066, 49.8489918], [5.8866377, 49.8489591], [5.8863839, 49.8489099], [5.8856822, 49.8487442], [5.8854472, 49.8487932], [5.8852028, 49.8488441], [5.8849914, 49.8488593], [5.8848053, 49.8488726], [5.8845942, 49.8488878], [5.884392, 49.8489023], [5.8841131, 49.848914], [5.8838338, 49.8489258], [5.8838002, 49.8489258], [5.8835141, 49.8489389], [5.8832544, 49.8489576], [5.8830494, 49.8489846], [5.8828709, 49.8490115], [5.8826906, 49.8490431], [5.8825138, 49.8490769], [5.8823689, 49.8490857], [5.8822207, 49.8490762], [5.8820548, 49.8490575], [5.882023, 49.8490517], [5.8820337, 49.8490335], [5.8820037, 49.8490288], [5.8810736, 49.8489443], [5.8806447, 49.8489226], [5.8798973, 49.8488784], [5.8795152, 49.8488549], [5.8787878, 49.8488006], [5.8784094, 49.8487682], [5.8783307, 49.848759], [5.8779341, 49.848678], [5.8776132, 49.8485898], [5.8773279, 49.8485091], [5.877152, 49.8484627], [5.8769483, 49.8484152], [5.8768156, 49.8483913], [5.8766288, 49.8483629], [5.8764374, 49.8483364], [5.8762984, 49.8483171], [5.8761176, 49.8483286], [5.8758825, 49.8483625], [5.8756969, 49.848404], [5.8754447, 49.8484569], [5.8749356, 49.8485613], [5.8749315, 49.8486538], [5.8749291, 49.8487577], [5.8749116, 49.8488809], [5.8748809, 49.8490042], [5.8748055, 49.8492038], [5.8748009, 49.8492143], [5.8746775, 49.8494927], [5.8742614, 49.8494525], [5.8740621, 49.849428], [5.8736554, 49.8494315], [5.8733201, 49.849433], [5.873066, 49.8494243], [5.8725852, 49.8494151], [5.8721564, 49.849406], [5.8717658, 49.849393], [5.8715256, 49.849385], [5.8704846, 49.8492157], [5.870132, 49.8491588], [5.8697913, 49.8490438], [5.8694919, 49.8489414], [5.8691714, 49.8488332], [5.868982, 49.8487756], [5.8688437, 49.8488849], [5.8685707, 49.8490886], [5.8682968, 49.8492934], [5.8682872, 49.8493072], [5.8679678, 49.8497642], [5.8679033, 49.8498564], [5.8678321, 49.8499636], [5.8678122, 49.8500298], [5.8678173, 49.8500572], [5.8679415, 49.8503863], [5.8679817, 49.8504412], [5.8680361, 49.850503], [5.8681265, 49.8505741], [5.8683905, 49.8506889], [5.8689103, 49.8508869], [5.8691995, 49.850997], [5.8697172, 49.851197], [5.8701705, 49.8513752], [5.8705137, 49.8515233], [5.8707249, 49.8516129], [5.870909, 49.8516785], [5.8710939, 49.8517349], [5.871323, 49.8517903], [5.871658, 49.8518483], [5.8718845, 49.8518865], [5.8721737, 49.8519318], [5.8723623, 49.8519574], [5.8727098, 49.8519902], [5.8731781, 49.8520337], [5.8735291, 49.8520711], [5.8739532, 49.8521235], [5.8742177, 49.8521528], [5.8745793, 49.8521868], [5.8743142, 49.8526919], [5.8745098, 49.8527347], [5.8743603, 49.8530951], [5.8742726, 49.853152], [5.8741875, 49.8532066], [5.8740766, 49.8533082], [5.8739573, 49.8534497], [5.8738147, 49.8536472], [5.8736301, 49.8539257], [5.8737711, 49.8539981], [5.8736414, 49.8541065], [5.8735951, 49.8541624], [5.8734781, 49.8543542], [5.8734085, 49.8544661], [5.8733273, 49.8545997], [5.8732731, 49.8547802], [5.8731905, 49.8550644], [5.8731266, 49.8552561], [5.8733327, 49.8553365], [5.8736444, 49.8554791], [5.8737269, 49.8555168], [5.8736155, 49.8556992], [5.8735287, 49.8557424], [5.8733958, 49.8558299], [5.8732347, 49.8559129], [5.8730658, 49.8559787], [5.8729225, 49.8560263], [5.8727511, 49.8560647], [5.8726539, 49.856077], [5.8724264, 49.856049], [5.8722766, 49.8560258], [5.8721136, 49.8559706], [5.8719481, 49.8559165], [5.8718458, 49.8558945], [5.8717277, 49.8558737], [5.871576, 49.855863], [5.8714666, 49.8558616], [5.8713253, 49.8558681], [5.8709908, 49.8558866], [5.870657, 49.855912], [5.8706863, 49.8560286], [5.870716, 49.8560869], [5.8707771, 49.8561864], [5.8707303, 49.8561942], [5.8707481, 49.8562462], [5.8708465, 49.8565337], [5.8709271, 49.8567816], [5.8709898, 49.857065], [5.8710171, 49.8572158], [5.8710643, 49.8574374], [5.8711144, 49.8576077], [5.8711967, 49.8578636], [5.8712297, 49.8579516], [5.8712917, 49.8580614], [5.8714841, 49.8583348], [5.8717059, 49.8586564], [5.8718574, 49.8588356], [5.8719968, 49.8589838], [5.8721995, 49.8591623], [5.8723365, 49.8592688], [5.8725263, 49.8593926], [5.8728263, 49.8595412], [5.8731128, 49.8596828], [5.8732257, 49.8597385], [5.8730329, 49.8598844], [5.8732324, 49.8599789], [5.8732489, 49.8599862], [5.8736229, 49.8601502], [5.8740237, 49.8602969], [5.8743375, 49.8603998], [5.8748169, 49.8605434], [5.8762647, 49.8609285], [5.87623, 49.8610017], [5.8762287, 49.8610201], [5.8760339, 49.8610584], [5.875847, 49.8611114], [5.8755609, 49.8612103], [5.8752164, 49.861335], [5.8748298, 49.861501], [5.8745493, 49.8616865], [5.8743705, 49.8618257], [5.8741633, 49.8620256], [5.8740169, 49.8621649], [5.8738942, 49.8622819], [5.8739761, 49.8622755], [5.874573, 49.8622308], [5.8749772, 49.8622124], [5.8749863, 49.8622713], [5.8751576, 49.8628835], [5.8752899, 49.8633308], [5.8754412, 49.8637559], [5.8753316, 49.863781], [5.8749677, 49.8638532], [5.8749915, 49.863987], [5.8743949, 49.8642689], [5.874165, 49.8643776], [5.874158, 49.8643843], [5.8741429, 49.8643989], [5.8737905, 49.8647379], [5.8735969, 49.8649428], [5.8735294, 49.8650077], [5.8735028, 49.8650374], [5.8734459, 49.865092], [5.8733837, 49.865166], [5.873313, 49.8653319], [5.8732772, 49.8654118], [5.8731887, 49.865605], [5.8731578, 49.8656593], [5.8731387, 49.8656928], [5.8731085, 49.8657327], [5.8730818, 49.8657646], [5.8730641, 49.8657828], [5.8730781, 49.8657897], [5.8736278, 49.8660817], [5.8742215, 49.8664023], [5.8744493, 49.8665301], [5.8745688, 49.8666103], [5.874769, 49.8667672], [5.8749722, 49.8669405], [5.8749859, 49.8669521], [5.875106, 49.867336], [5.8752835, 49.8677542], [5.8752962, 49.8679746], [5.8752849, 49.8681081], [5.87523, 49.8684162], [5.8751978, 49.8684983], [5.8751226, 49.8686796], [5.8750239, 49.8688009], [5.8747813, 49.8690753], [5.8746339, 49.8692699], [5.8746078, 49.8693033], [5.8754645, 49.8694904], [5.8757122, 49.8695468], [5.876107, 49.8696392], [5.8764976, 49.8696875], [5.8771503, 49.8697451], [5.8779098, 49.8698069], [5.8779398, 49.8698109], [5.8779424, 49.8697017], [5.8779964, 49.8692656], [5.8780218, 49.8688185], [5.8780694, 49.8684507], [5.8781908, 49.8677624], [5.8782704, 49.8676925], [5.8787515, 49.8670313], [5.8789363, 49.8667738], [5.8789532, 49.8667499], [5.8790595, 49.866599], [5.8791628, 49.8664526], [5.879062, 49.8663388], [5.8789893, 49.8662409], [5.8789604, 49.8661669], [5.8788889, 49.8659832], [5.8788436, 49.865846], [5.8788075, 49.865754], [5.8787479, 49.8656552], [5.8786774, 49.8655531], [5.8785289, 49.8653867], [5.8787349, 49.8652592], [5.8790107, 49.865102], [5.8789145, 49.8650116], [5.8789469, 49.864989], [5.8789983, 49.8649673], [5.8790864, 49.8649438], [5.8791738, 49.864917], [5.8792165, 49.8648953], [5.8792504, 49.864866], [5.8792696, 49.8648357], [5.8792874, 49.8647959], [5.8793023, 49.8647542], [5.8793129, 49.8647049], [5.8793203, 49.8646907], [5.8793483, 49.8646699], [5.8793836, 49.8646529], [5.8794166, 49.8646421], [5.8794901, 49.8646053], [5.8795637, 49.8645561], [5.8796491, 49.8644947], [5.8797419, 49.8644191], [5.8798515, 49.8643515], [5.8799472, 49.8642958], [5.8800692, 49.8642307], [5.8801716, 49.8641816], [5.8802266, 49.8641552], [5.8804654, 49.8640548], [5.880768, 49.8639408], [5.8808652, 49.8640105], [5.8809111, 49.8640435], [5.8810079, 49.8640352], [5.8811869, 49.8640138], [5.8813219, 49.8639933], [5.8814114, 49.8639821], [5.8815353, 49.8639772], [5.881679, 49.8639671], [5.8817905, 49.8639627], [5.8818491, 49.8639713], [5.8818988, 49.8639876], [5.8819486, 49.8639934], [5.8820233, 49.8640106], [5.8821081, 49.864044], [5.8821476, 49.8640603], [5.8822273, 49.864096], [5.8823268, 49.8641352], [5.8824116, 49.8641733], [5.8824642, 49.8641952], [5.882533, 49.8642106], [5.8826003, 49.8642326], [5.8826339, 49.8642535], [5.8826749, 49.8642754], [5.8827305, 49.8642945], [5.8827743, 49.864325], [5.8828327, 49.864364], [5.8828971, 49.864385], [5.8829534, 49.8643989], [5.8829973, 49.864419], [5.8830074, 49.864436], [5.8830249, 49.8644607], [5.8830687, 49.8644855], [5.8831082, 49.8644998], [5.883155, 49.8645284], [5.8832398, 49.8645694], [5.8833274, 49.8646265], [5.8833866, 49.8646651], [5.8834362, 49.8646993], [5.8834785, 49.8647336], [5.8835222, 49.8647782], [5.8835458, 49.8647954], [5.8835602, 49.8648058], [5.8836508, 49.8648573], [5.883894, 49.8650006], [5.8840767, 49.8651063], [5.8841665, 49.8651582], [5.88426, 49.8652182], [5.8843536, 49.8652649], [5.8844282, 49.8652926], [5.8845102, 49.8653108], [5.8845892, 49.8653423], [5.8846418, 49.8653718], [5.8846943, 49.8654193], [5.8847497, 49.8654641], [5.8848075, 49.8654912], [5.8849128, 49.8655266], [5.8850079, 49.8655581], [5.8851074, 49.8656067], [5.8851512, 49.8656372], [5.8852155, 49.8656591], [5.8853283, 49.8656812], [5.8853913, 49.865688], [5.8854338, 49.8656824], [5.8854882, 49.8656664], [5.8855557, 49.8656533], [5.8856371, 49.8656464], [5.8857177, 49.865657], [5.8858012, 49.8656743], [5.8858715, 49.8656849], [5.8859389, 49.865686], [5.8860034, 49.8656966], [5.8860517, 49.8656996], [5.8860898, 49.8657035], [5.886122, 49.8657206], [5.8861306, 49.8657443], [5.8861569, 49.8657624], [5.8861979, 49.865773], [5.8864256, 49.8658186], [5.8865603, 49.8658511], [5.8866217, 49.8658769], [5.8866743, 49.8659064], [5.886727, 49.8659274], [5.8868105, 49.8659447], [5.8868983, 49.8659629], [5.8869554, 49.8659792], [5.887049, 49.8660202], [5.8870986, 49.8660592], [5.8871635, 49.86613], [5.8872262, 49.8661738], [5.8872949, 49.8662138], [5.8873315, 49.8662357], [5.8875441, 49.8663542], [5.887658, 49.8664256], [5.8877106, 49.8664684], [5.8877485, 49.8665008], [5.8877806, 49.8665341], [5.8878214, 49.8665711], [5.8878637, 49.8666016], [5.8879785, 49.8666526], [5.8880136, 49.8666688], [5.8881609, 49.8667483], [5.8882095, 49.8667745], [5.8882664, 49.8668221], [5.8883095, 49.8668559], [5.8883781, 49.8669006], [5.8884263, 49.8669263], [5.8884418, 49.8669315], [5.8884595, 49.8669106], [5.8884875, 49.8668908], [5.8885286, 49.8668729], [5.8885507, 49.8668568], [5.888564, 49.8668388], [5.888567, 49.866818], [5.8885702, 49.8667876], [5.8885835, 49.8667639], [5.8886092, 49.8667314], [5.8883663, 49.8666379], [5.8882999, 49.8666097], [5.8883403, 49.8665828], [5.8883901, 49.8665428], [5.8884384, 49.8664899], [5.8884822, 49.8664189], [5.8885144, 49.8663333], [5.8885303, 49.8662642], [5.8884545, 49.866241], [5.8886038, 49.8660005], [5.8888399, 49.8657212], [5.889292, 49.8653241], [5.8897061, 49.8650722], [5.8897497, 49.8650464], [5.8901108, 49.8648323], [5.8905542, 49.8645835], [5.8909347, 49.8643821], [5.8910045, 49.8643632], [5.8910991, 49.8643354], [5.8911773, 49.8643331], [5.8913459, 49.8643475], [5.8914264, 49.8643517], [5.8915007, 49.8643529], [5.8915735, 49.8643491], [5.8916293, 49.8643392], [5.8917115, 49.8643144], [5.8918869, 49.8642326], [5.8919964, 49.8641723], [5.8921051, 49.8641165], [5.8922371, 49.8640537], [5.8922557, 49.8640397], [5.8922869, 49.8640047], [5.8923213, 49.8639357], [5.8923344, 49.8638156], [5.8922872, 49.8638109], [5.8922802, 49.8636777], [5.8926977, 49.8636291], [5.8925873, 49.8634496], [5.8924952, 49.8633082], [5.8924423, 49.8632244], [5.8924704, 49.8631824], [5.8924736, 49.8631644], [5.8924598, 49.8631423], [5.892432, 49.8631192], [5.8924571, 49.8630602], [5.8924605, 49.8630111], [5.8924726, 49.8629245], [5.8924795, 49.8628044], [5.892472, 49.8627503], [5.8924234, 49.8623275]]]}}]}