{"type": "FeatureCollection", "features": [{"type": "Feature", "properties": {"name": "Kuborn"}, "geometry": {"type": "Polygon", "coordinates": [[[5.9021497, 49.8870784], [5.9021863, 49.886982], [5.9022396, 49.8868037], [5.9023283, 49.8865704], [5.902403, 49.886303], [5.9024761, 49.8861848], [5.9025561, 49.8860687], [5.902629, 49.8859791], [5.9027281, 49.8858805], [5.902821, 49.8858079], [5.9029512, 49.8857192], [5.9030078, 49.8856634], [5.9030403, 49.885605], [5.9030727, 49.8855504], [5.9031151, 49.8855206], [5.9031837, 49.8854909], [5.9032261, 49.8854545], [5.9032646, 49.8853922], [5.903293, 49.8853533], [5.9033304, 49.8853189], [5.9033989, 49.8852931], [5.9034533, 49.8852646], [5.9034736, 49.8852269], [5.9034602, 49.8851138], [5.9034665, 49.8850605], [5.9034888, 49.8850358], [5.9035331, 49.885019], [5.9035976, 49.8849919], [5.9036279, 49.8849685], [5.9036521, 49.8849413], [5.9036945, 49.8849141], [5.9037289, 49.8848738], [5.9037522, 49.884873], [5.9037964, 49.8848682], [5.9038529, 49.8848427], [5.9039109, 49.8848015], [5.9039453, 49.8847736], [5.9040066, 49.8846989], [5.9040312, 49.8846439], [5.9040407, 49.8845809], [5.9040349, 49.8845277], [5.9040271, 49.884418], [5.9040431, 49.8842871], [5.9041057, 49.8840988], [5.9041492, 49.8839493], [5.9041626, 49.8838544], [5.9042001, 49.88354], [5.9042056, 49.8834905], [5.9042393, 49.8831853], [5.9042567, 49.8830785], [5.9042984, 49.8828218], [5.9043072, 49.8826053], [5.9042413, 49.8825748], [5.9042231, 49.8825663], [5.904199, 49.8825549], [5.9042475, 49.8825068], [5.9043686, 49.8824122], [5.9044456, 49.8823542], [5.9044984, 49.8823175], [5.90455, 49.8822971], [5.9046225, 49.882276], [5.9047738, 49.8822536], [5.9049098, 49.8822369], [5.9050414, 49.8822231], [5.9051555, 49.8821851], [5.9054608, 49.8820582], [5.9056827, 49.8819694], [5.9057717, 49.8819221], [5.905941, 49.8818162], [5.906128, 49.8816919], [5.9063501, 49.8815493], [5.9065072, 49.8814682], [5.9066282, 49.8813848], [5.9066855, 49.8813268], [5.9067076, 49.8812915], [5.9067255, 49.8812348], [5.9067017, 49.8811724], [5.9067138, 49.8811547], [5.9068128, 49.8810912], [5.9068942, 49.881029], [5.9069383, 49.8809823], [5.9069671, 49.8809356], [5.9069849, 49.8808804], [5.9069917, 49.8808436], [5.906983, 49.8808237], [5.9069568, 49.880808], [5.9069327, 49.8807995], [5.9068867, 49.8807951], [5.9068429, 49.8808021], [5.9067242, 49.8808571], [5.9065176, 49.8809658], [5.9063275, 49.8808676], [5.9063177, 49.8808583], [5.9063506, 49.8808428], [5.9063837, 49.8808131], [5.9064059, 49.8807565], [5.9064148, 49.8807211], [5.9064413, 49.880697], [5.9064787, 49.8806716], [5.9064963, 49.8806518], [5.9065052, 49.8806292], [5.9065083, 49.8806143], [5.9065275, 49.880547], [5.9065346, 49.8804592], [5.9065285, 49.880377], [5.9065114, 49.8802947], [5.9064822, 49.8802273], [5.9064387, 49.8801606], [5.9063973, 49.880118], [5.906382, 49.8801067], [5.9063825, 49.8800089], [5.906383, 49.8799139], [5.9064009, 49.8798502], [5.9064308, 49.8797886], [5.9064994, 49.8796782], [5.9065789, 49.8795551], [5.906621, 49.8794772], [5.9066499, 49.8793912], [5.9066657, 49.8794005], [5.906691, 49.8794153], [5.9067395, 49.8794437], [5.9069856, 49.8795877], [5.9074113, 49.8798369], [5.9075716, 49.8797706], [5.9076681, 49.8797524], [5.9078019, 49.8797428], [5.9081032, 49.8797343], [5.9085094, 49.8797188], [5.9086103, 49.8795113], [5.9086846, 49.8793515], [5.9087489, 49.8792439], [5.9089698, 49.8789237], [5.9090481, 49.878801], [5.9091032, 49.8787149], [5.909165, 49.8786136], [5.9091959, 49.878548], [5.9092407, 49.8784245], [5.9092469, 49.8783934], [5.9092608, 49.8783248], [5.9092837, 49.8781617], [5.90932, 49.8780057], [5.9093632, 49.8778653], [5.9093799, 49.877811], [5.9094285, 49.8776535], [5.9095235, 49.8772926], [5.9095496, 49.8772032], [5.9095769, 49.8771462], [5.9096089, 49.8771098], [5.909668, 49.8770609], [5.909786, 49.8769788], [5.9099809, 49.8768658], [5.910012, 49.8768478], [5.9102932, 49.8767035], [5.9104553, 49.8766215], [5.9105559, 49.8765853], [5.910941, 49.8764752], [5.9108464, 49.8763436], [5.9107003, 49.8761405], [5.9108786, 49.8760055], [5.910967, 49.875935], [5.9110991, 49.8758297], [5.9112367, 49.87572], [5.9113988, 49.8755908], [5.9114083, 49.8755843], [5.9115031, 49.875519], [5.9117048, 49.87538], [5.9119629, 49.8752095], [5.912232, 49.8749972], [5.9124683, 49.8748107], [5.9122754, 49.8746946], [5.9123224, 49.8746617], [5.9126872, 49.8744065], [5.9127732, 49.874356], [5.912837, 49.8743197], [5.9129769, 49.8742629], [5.913102, 49.8742205], [5.913259, 49.8741764], [5.9135263, 49.8741073], [5.9137519, 49.8740508], [5.9138671, 49.8740336], [5.9139431, 49.8740306], [5.9139514, 49.8738501], [5.9137064, 49.873859], [5.9136084, 49.8738747], [5.9135593, 49.8738841], [5.9134564, 49.873906], [5.9133534, 49.8739311], [5.9130901, 49.8740065], [5.9131034, 49.8737736], [5.9131072, 49.8737072], [5.9131285, 49.8735299], [5.9131341, 49.8734831], [5.9131418, 49.8734103], [5.9131743, 49.87329], [5.9131984, 49.8732155], [5.9132228, 49.8731404], [5.9132699, 49.8730375], [5.9133832, 49.8729174], [5.9134964, 49.8728147], [5.9135752, 49.8727357], [5.9136688, 49.8726282], [5.9137267, 49.8725531], [5.9137959, 49.8724482], [5.9138353, 49.8723886], [5.913899, 49.872285], [5.9139267, 49.8722399], [5.9139923, 49.8721172], [5.9140888, 49.8719258], [5.9141669, 49.8717399], [5.9143332, 49.8713157], [5.914562, 49.871293], [5.915075, 49.871242], [5.915339, 49.8712157], [5.9160018, 49.8711514], [5.9161418, 49.8711412], [5.9162762, 49.8711314], [5.9164329, 49.871127], [5.9165495, 49.8711341], [5.9166508, 49.8711402], [5.9169611, 49.8710577], [5.9169684, 49.8710561], [5.9169637, 49.8710276], [5.9169565, 49.870988], [5.9169322, 49.8709499], [5.9169006, 49.8709134], [5.9168615, 49.8708864], [5.9167955, 49.8708609], [5.916661, 49.8708274], [5.9165167, 49.8707922], [5.9163945, 49.8707523], [5.9161174, 49.8708151], [5.9159589, 49.8708481], [5.9157252, 49.8708966], [5.9159344, 49.8706848], [5.9158238, 49.8705381], [5.9157388, 49.8704017], [5.9156951, 49.8703113], [5.915659, 49.8702066], [5.9157002, 49.8700396], [5.9157101, 49.8699888], [5.9157254, 49.8699098], [5.915763, 49.8697451], [5.9157664, 49.8697332], [5.9157954, 49.8696328], [5.915854, 49.8694793], [5.9159481, 49.8692331], [5.9159819, 49.8690835], [5.9160104, 49.8689551], [5.916017, 49.8689252], [5.9160202, 49.8688951], [5.9160218, 49.8688799], [5.916035, 49.8687557], [5.9160627, 49.868618], [5.9160776, 49.8685581], [5.9161139, 49.8684114], [5.9161877, 49.8681272], [5.9161976, 49.8680972], [5.9162643, 49.8679864], [5.9163331, 49.8678709], [5.9163755, 49.8677998], [5.9163406, 49.8672143], [5.9163394, 49.8671946], [5.9163204, 49.8670869], [5.9165335, 49.8670667], [5.9167125, 49.8670339], [5.9170108, 49.8669748], [5.9170533, 49.866957], [5.9172368, 49.8669843], [5.9174349, 49.8670196], [5.9175401, 49.8670515], [5.9176524, 49.8671119], [5.9177354, 49.8671307], [5.9179961, 49.8671816], [5.9179963, 49.8671309], [5.9184919, 49.8671961], [5.9189446, 49.8672668], [5.9191648, 49.8672926], [5.9192725, 49.8672991], [5.9193509, 49.867293], [5.9194244, 49.867282], [5.9194956, 49.8672569], [5.9195497, 49.8672095], [5.9195855, 49.8671533], [5.9196963, 49.8670268], [5.9197678, 49.8669414], [5.9198074, 49.8668449], [5.9198274, 49.8667642], [5.9198546, 49.8667262], [5.9198903, 49.8666875], [5.9199517, 49.8666416], [5.9200328, 49.8665959], [5.9202218, 49.8665013], [5.9203864, 49.866405], [5.9206701, 49.8662321], [5.9207659, 49.8661626], [5.9208029, 49.8661215], [5.9208227, 49.8660788], [5.9208132, 49.8660234], [5.9207867, 49.8659346], [5.9207626, 49.8658443], [5.9207312, 49.8657729], [5.920696, 49.8657103], [5.9206328, 49.8656183], [5.920566, 49.865546], [5.9204964, 49.8654707], [5.9204477, 49.865412], [5.9204406, 49.8653771], [5.9204335, 49.8653153], [5.9204449, 49.8652527], [5.9204772, 49.8651562], [5.9204998, 49.8650549], [5.9205221, 49.8649995], [5.9205566, 49.8649473], [5.9206306, 49.8648524], [5.9206874, 49.8647607], [5.9207552, 49.8646697], [5.9209005, 49.8645005], [5.9206708, 49.8644003], [5.9206558, 49.8643304], [5.9206493, 49.8643004], [5.9206102, 49.8642861], [5.9203652, 49.8643109], [5.9199561, 49.8643465], [5.9197283, 49.8643587], [5.9194246, 49.8643675], [5.9194013, 49.864381], [5.9193932, 49.8645267], [5.9189315, 49.8645744], [5.9188224, 49.8645856], [5.9184145, 49.8646236], [5.9179001, 49.8646589], [5.9176895, 49.8646679], [5.9173907, 49.8646736], [5.917048, 49.8646666], [5.9166892, 49.8646713], [5.9166011, 49.8646711], [5.9164472, 49.8645916], [5.9162023, 49.8646053], [5.9162001, 49.8645562], [5.9161586, 49.8645356], [5.9157962, 49.8645268], [5.9155856, 49.8645311], [5.9153994, 49.8645513], [5.9152817, 49.8645748], [5.9151272, 49.8646331], [5.9149209, 49.8647546], [5.9145338, 49.8650175], [5.9144874, 49.8649905], [5.9144118, 49.8649419], [5.914125, 49.8647576], [5.9139346, 49.8646448], [5.913832, 49.8645954], [5.9135241, 49.8644728], [5.913463, 49.8644473], [5.9132095, 49.8646827], [5.9125347, 49.8645039], [5.9122866, 49.8646506], [5.9121828, 49.8648248], [5.9120995, 49.8649645], [5.9120878, 49.8649884], [5.9109082, 49.8648622], [5.9094619, 49.8647102], [5.9094421, 49.864737], [5.9093349, 49.8648825], [5.9092321, 49.8650056], [5.9091431, 49.8650973], [5.909134, 49.8651067], [5.9088945, 49.8653263], [5.9085786, 49.8656141], [5.9086778, 49.865745], [5.9085072, 49.8658195], [5.9083457, 49.865875], [5.9081605, 49.8659237], [5.9079787, 49.865963], [5.9077992, 49.8659934], [5.9075926, 49.8660135], [5.9075039, 49.8660178], [5.9073338, 49.8660261], [5.9071815, 49.866038], [5.9070772, 49.8660461], [5.9068418, 49.8660732], [5.9064447, 49.8661188], [5.9061971, 49.8661432], [5.9059678, 49.8661589], [5.905609, 49.8661842], [5.9056002, 49.8659356], [5.9055735, 49.8656324], [5.9055106, 49.8653026], [5.9054618, 49.8650955], [5.905426, 49.8649868], [5.9053896, 49.8648962], [5.9053353, 49.8647612], [5.905275, 49.8645893], [5.9052516, 49.86451], [5.9052181, 49.8643961], [5.9051649, 49.8641757], [5.9051152, 49.8639165], [5.9050063, 49.86393], [5.9046619, 49.8639726], [5.9045805, 49.8639827], [5.9045418, 49.8639835], [5.9045132, 49.8638102], [5.9044903, 49.8636464], [5.9044839, 49.8635671], [5.9044465, 49.8635575], [5.904325, 49.8635413], [5.904233, 49.8635248], [5.9038466, 49.863482], [5.903545, 49.8634372], [5.9033228, 49.8633927], [5.9031347, 49.8633468], [5.9027439, 49.8632189], [5.9026125, 49.8633099], [5.9022563, 49.8635569], [5.9019249, 49.863596], [5.9017715, 49.8636141], [5.9015671, 49.8636383], [5.9013156, 49.863665], [5.9012287, 49.8636742], [5.9010955, 49.8636846], [5.9009906, 49.8636927], [5.9007337, 49.8637127], [5.9001177, 49.8635554], [5.8997767, 49.863471], [5.8995989, 49.8634286], [5.8992648, 49.8633727], [5.8990746, 49.8633392], [5.8989401, 49.8633028], [5.8987987, 49.863258], [5.8985252, 49.8631632], [5.8981729, 49.8630332], [5.8977906, 49.8628846], [5.8975172, 49.8627697], [5.8966392, 49.8623836], [5.8963677, 49.8626556], [5.8962507, 49.8627728], [5.8960195, 49.8626727], [5.8960073, 49.8626675], [5.8958924, 49.8626177], [5.8957456, 49.8625653], [5.8956877, 49.8625515], [5.8955949, 49.8625294], [5.8954371, 49.862494], [5.8952377, 49.8624494], [5.8951388, 49.8624272], [5.8949765, 49.8623707], [5.8948298, 49.8623003], [5.8947384, 49.8622422], [5.8947134, 49.8622264], [5.8946409, 49.8621711], [5.8945809, 49.8621029], [5.8945195, 49.8620066], [5.8936183, 49.8621742], [5.8926519, 49.8623325], [5.892474, 49.8623533], [5.8924234, 49.8623275], [5.892472, 49.8627503], [5.8924795, 49.8628044], [5.8924726, 49.8629245], [5.8924605, 49.8630111], [5.8924571, 49.8630602], [5.892432, 49.8631192], [5.8924598, 49.8631423], [5.8924736, 49.8631644], [5.8924704, 49.8631824], [5.8924423, 49.8632244], [5.8924952, 49.8633082], [5.8925873, 49.8634496], [5.8926977, 49.8636291], [5.8922802, 49.8636777], [5.8922872, 49.8638109], [5.8923344, 49.8638156], [5.8923213, 49.8639357], [5.8922869, 49.8640047], [5.8922557, 49.8640397], [5.8922371, 49.8640537], [5.8921051, 49.8641165], [5.8919964, 49.8641723], [5.8918869, 49.8642326], [5.8917115, 49.8643144], [5.8916293, 49.8643392], [5.8915735, 49.8643491], [5.8915007, 49.8643529], [5.8914264, 49.8643517], [5.8913459, 49.8643475], [5.8911773, 49.8643331], [5.8910991, 49.8643354], [5.8910045, 49.8643632], [5.8909347, 49.8643821], [5.8905542, 49.8645835], [5.8901108, 49.8648323], [5.8897497, 49.8650464], [5.8897061, 49.8650722], [5.889292, 49.8653241], [5.8888399, 49.8657212], [5.8886038, 49.8660005], [5.8884545, 49.866241], [5.8885303, 49.8662642], [5.8885144, 49.8663333], [5.8884822, 49.8664189], [5.8884384, 49.8664899], [5.8883901, 49.8665428], [5.8883403, 49.8665828], [5.8882999, 49.8666097], [5.8883663, 49.8666379], [5.8886092, 49.8667314], [5.8885835, 49.8667639], [5.8885702, 49.8667876], [5.888567, 49.866818], [5.888564, 49.8668388], [5.8885507, 49.8668568], [5.8885286, 49.8668729], [5.8884875, 49.8668908], [5.8884595, 49.8669106], [5.8884418, 49.8669315], [5.8884387, 49.8669523], [5.8884349, 49.866986], [5.888439, 49.8670211], [5.8884637, 49.8670771], [5.888475, 49.867135], [5.8884705, 49.8671605], [5.8884334, 49.8672354], [5.8884134, 49.8672804], [5.8884073, 49.8673136], [5.88841, 49.8673534], [5.8884084, 49.8673809], [5.8883921, 49.8674074], [5.8883257, 49.8674793], [5.8883079, 49.8675134], [5.8882552, 49.8676257], [5.8881698, 49.8678213], [5.8881149, 49.8679312], [5.8880705, 49.8679965], [5.8879941, 49.8681495], [5.8879186, 49.8682887], [5.88788, 49.8683655], [5.8878524, 49.8684512], [5.8878388, 49.8685233], [5.8878338, 49.868619], [5.8878413, 49.8687125], [5.8878801, 49.8688624], [5.8879125, 49.8689521], [5.8879532, 49.8690262], [5.8880214, 49.8691364], [5.8881204, 49.8692694], [5.888188, 49.8693629], [5.8883314, 49.8695449], [5.8884405, 49.8696808], [5.8885885, 49.8698381], [5.8886935, 49.8699285], [5.8887928, 49.8700055], [5.888951, 49.8701458], [5.8890095, 49.8701829], [5.8890943, 49.8702277], [5.8892331, 49.8703001], [5.8892464, 49.8702935], [5.8893318, 49.870249], [5.8893834, 49.870214], [5.8894143, 49.870197], [5.8895201, 49.8701575], [5.8895583, 49.8701338], [5.8896083, 49.8701046], [5.8896304, 49.8700949], [5.889657, 49.8700851], [5.8897191, 49.8700714], [5.8897549, 49.8700564], [5.8899152, 49.8699731], [5.8900078, 49.8699924], [5.8900917, 49.8700094], [5.8901985, 49.8700215], [5.8903105, 49.8700245], [5.8903879, 49.870024], [5.8904601, 49.8700216], [5.8905712, 49.8700178], [5.8909048, 49.8700005], [5.8911563, 49.8699873], [5.8912246, 49.8699815], [5.8914339, 49.8699659], [5.8917568, 49.8699436], [5.8919488, 49.8699306], [5.8921739, 49.8699179], [5.89245, 49.8698995], [5.8924431, 49.8699426], [5.89244, 49.8699739], [5.8924456, 49.8700128], [5.8924674, 49.8700517], [5.8925111, 49.8700974], [5.8925813, 49.870143], [5.8926829, 49.870195], [5.8929872, 49.8703161], [5.8937268, 49.8705877], [5.8935943, 49.8706784], [5.893902, 49.8708579], [5.8941226, 49.8709922], [5.8942899, 49.8711002], [5.8946426, 49.8713405], [5.8947872, 49.8714404], [5.8946746, 49.8715232], [5.8945759, 49.871595], [5.894461, 49.8716867], [5.8943874, 49.8717539], [5.8946758, 49.8719513], [5.8948913, 49.8720917], [5.8951499, 49.8722612], [5.8955044, 49.8724502], [5.8957091, 49.8725532], [5.89587, 49.8726247], [5.8959658, 49.8726614], [5.8963097, 49.8727969], [5.8966089, 49.8729033], [5.8967815, 49.8729777], [5.8969497, 49.8730634], [5.8971828, 49.8731972], [5.8973728, 49.8733105], [5.8975562, 49.8734262], [5.8976379, 49.8734928], [5.8977051, 49.8735527], [5.8976699, 49.8735516], [5.8976622, 49.8736142], [5.8976516, 49.873672], [5.8976256, 49.8737417], [5.8975916, 49.8737843], [5.89754, 49.8738392], [5.8974355, 49.8739148], [5.897303, 49.8739951], [5.8972066, 49.8740598], [5.8971153, 49.8741279], [5.8970225, 49.8742149], [5.8969627, 49.8742788], [5.8970171, 49.8743341], [5.8969616, 49.8744704], [5.8969029, 49.8746068], [5.8968646, 49.8746791], [5.8968223, 49.8747457], [5.8967445, 49.8748309], [5.8966312, 49.8749296], [5.8964639, 49.8750287], [5.8963267, 49.8750795], [5.8961767, 49.8751177], [5.8960574, 49.8751434], [5.8959139, 49.8751566], [5.8958413, 49.8751836], [5.8951769, 49.8751513], [5.8949225, 49.8751246], [5.8935028, 49.8749677], [5.8935462, 49.875024], [5.8937891, 49.875325], [5.8939148, 49.8754474], [5.8942454, 49.8757496], [5.8944887, 49.8759689], [5.894831, 49.8763], [5.8949204, 49.8764026], [5.8947135, 49.8764806], [5.8946924, 49.8764886], [5.8945344, 49.8765594], [5.8945141, 49.8765702], [5.8943503, 49.8766575], [5.8942518, 49.8767121], [5.8939454, 49.8768839], [5.893957, 49.8768942], [5.8940578, 49.8769832], [5.8943958, 49.8772932], [5.8946272, 49.8775115], [5.8947189, 49.8775953], [5.894818, 49.877686], [5.8949934, 49.8778215], [5.8952673, 49.8780269], [5.8955004, 49.878214], [5.8953415, 49.8783194], [5.89507, 49.8784745], [5.8948054, 49.8786061], [5.8947159, 49.878652], [5.8945446, 49.8787112], [5.8937439, 49.8789809], [5.8933238, 49.8791223], [5.8923705, 49.8794473], [5.8923535, 49.8794538], [5.8925938, 49.8796791], [5.8926728, 49.8797532], [5.8928943, 49.8799652], [5.8929194, 49.8799917], [5.8929382, 49.8800424], [5.8929689, 49.8801561], [5.893003, 49.8802642], [5.893052, 49.8803796], [5.8930776, 49.8804685], [5.8930942, 49.8805934], [5.8930947, 49.880675], [5.8930786, 49.8807458], [5.893045, 49.8808357], [5.8929597, 49.8810049], [5.8929334, 49.8810464], [5.8928984, 49.8810767], [5.89286, 49.8811025], [5.8928249, 49.8811587], [5.8927846, 49.8812103], [5.8927512, 49.8812642], [5.8927457, 49.8813115], [5.8927598, 49.8814403], [5.8927729, 49.8815731], [5.8927959, 49.8816682], [5.8928302, 49.8817594], [5.892887, 49.8818608], [5.8930191, 49.8820394], [5.8931191, 49.8821994], [5.8931603, 49.8822985], [5.8931851, 49.8823587], [5.8932318, 49.8824151], [5.8932835, 49.8824928], [5.893413, 49.8828245], [5.8934954, 49.8830226], [5.8935684, 49.883182], [5.8936269, 49.8833059], [5.89367, 49.8833679], [5.8937263, 49.8834214], [5.8939064, 49.8835726], [5.8940387, 49.8837062], [5.8940923, 49.8837637], [5.8941664, 49.8838978], [5.8942442, 49.8839823], [5.8943021, 49.8840449], [5.8943106, 49.884082], [5.8942877, 49.8841292], [5.8942805, 49.8841686], [5.8942978, 49.8841967], [5.8943671, 49.8842464], [5.8944468, 49.8843017], [5.8944951, 49.8843806], [5.8945573, 49.8844493], [5.8946994, 49.8845599], [5.8947133, 49.8845532], [5.8949096, 49.8844812], [5.8949997, 49.8844482], [5.8952011, 49.8843743], [5.895361, 49.8843156], [5.895843, 49.8841418], [5.8959177, 49.8842086], [5.8961676, 49.8844323], [5.8964898, 49.8846918], [5.8967632, 49.8849231], [5.8969599, 49.8850894], [5.8973587, 49.8854215], [5.8973833, 49.885442], [5.8974801, 49.8855178], [5.8978943, 49.8858425], [5.8973275, 49.8862883], [5.8972046, 49.8863849], [5.89716, 49.88642], [5.8971026, 49.8864651], [5.8970689, 49.8864916], [5.8970525, 49.8865046], [5.8969596, 49.8865776], [5.8969516, 49.8865844], [5.8970414, 49.886696], [5.8970986, 49.8867366], [5.8972476, 49.8868517], [5.8973352, 49.8869009], [5.8975589, 49.8870218], [5.897696, 49.887093], [5.897741, 49.8871313], [5.8977843, 49.8871753], [5.8978701, 49.8872233], [5.8980541, 49.8873149], [5.8981269, 49.8873567], [5.8981979, 49.8874119], [5.8982656, 49.8874537], [5.8983194, 49.8874763], [5.898408, 49.8874979], [5.8984445, 49.8875093], [5.8984956, 49.8875347], [5.8985986, 49.8875988], [5.8987199, 49.8876833], [5.8988196, 49.8877842], [5.8988633, 49.8878179], [5.8989721, 49.887872], [5.8990841, 49.887934], [5.8991612, 49.887989], [5.8992275, 49.8880522], [5.8993004, 49.8881293], [5.8993762, 49.8882242], [5.8994521, 49.8883268], [5.899495, 49.8883709], [5.8995276, 49.8883913], [5.8995578, 49.8883951], [5.8995924, 49.8883863], [5.8996356, 49.8883585], [5.8997591, 49.888259], [5.8997931, 49.8882346], [5.8998736, 49.8881709], [5.8999464, 49.8880605], [5.9001065, 49.8878689], [5.9001658, 49.8878142], [5.9003107, 49.8876855], [5.9004725, 49.8875807], [5.9006687, 49.8874734], [5.9008791, 49.8873828], [5.9009991, 49.8873237], [5.9010953, 49.8872667], [5.9012286, 49.8872258], [5.9013788, 49.8871865], [5.9014915, 49.887174], [5.9015934, 49.8871678], [5.9017746, 49.8871698], [5.9019518, 49.8871795], [5.9020155, 49.8871742], [5.9020614, 49.8871634], [5.9021054, 49.8871409], [5.9021255, 49.8871167], [5.9021497, 49.8870784]]]}}]}