{"type": "FeatureCollection", "features": [{"type": "Feature", "properties": {"name": "Vichten"}, "geometry": {"type": "MultiPolygon", "coordinates": [[[[5.966082, 49.80967], [5.966108, 49.80969], [5.966146, 49.8097], [5.966173, 49.80971], [5.966188, 49.809734], [5.966219, 49.80975], [5.966249, 49.80975], [5.966284, 49.80976], [5.966314, 49.809784], [5.966337, 49.80981], [5.966345, 49.80984], [5.96636, 49.809856], [5.966383, 49.809868], [5.96641, 49.809868], [5.966456, 49.809864], [5.96649, 49.80986], [5.966513, 49.809864], [5.966577, 49.809895], [5.966612, 49.809902], [5.96668, 49.80991], [5.966753, 49.809906], [5.966783, 49.80991], [5.966948, 49.80996], [5.967012, 49.80997], [5.967085, 49.809975], [5.967279, 49.809963], [5.96734, 49.80995], [5.967367, 49.80995], [5.967405, 49.80996], [5.967447, 49.80997], [5.967508, 49.80999], [5.967543, 49.809998], [5.967569, 49.809994], [5.9676, 49.809982], [5.967623, 49.80997], [5.967642, 49.809956], [5.967657, 49.809948], [5.967676, 49.809944], [5.96771, 49.809948], [5.967733, 49.809956], [5.967745, 49.809982], [5.967749, 49.810005], [5.967756, 49.810017], [5.967798, 49.810028], [5.967859, 49.810036], [5.967901, 49.81006], [5.967977, 49.81006], [5.968004, 49.810047], [5.968035, 49.810028], [5.968061, 49.810024], [5.968107, 49.810028], [5.968157, 49.810036], [5.968195, 49.810043], [5.968222, 49.81004], [5.968298, 49.81002], [5.968336, 49.810028], [5.968401, 49.810047], [5.96847, 49.810078], [5.968496, 49.810085], [5.968534, 49.81008], [5.96858, 49.810093], [5.968626, 49.81011], [5.968664, 49.81011], [5.968695, 49.810104], [5.968706, 49.810093], [5.968725, 49.810078], [5.968756, 49.81006], [5.968775, 49.81005], [5.968836, 49.81004], [5.96887, 49.810036], [5.968943, 49.810036], [5.969038, 49.810024], [5.969049, 49.810127], [5.969061, 49.81019], [5.969114, 49.810616], [5.969118, 49.810658], [5.969118, 49.81069], [5.969133, 49.811], [5.96913, 49.81124], [5.969133, 49.811344], [5.969149, 49.811638], [5.969145, 49.81178], [5.969118, 49.811886], [5.969107, 49.81196], [5.969091, 49.812084], [5.969084, 49.81215], [5.969122, 49.812332], [5.968973, 49.812637], [5.969542, 49.81305], [5.969946, 49.81318], [5.970251, 49.81328], [5.970419, 49.81333], [5.970842, 49.81346], [5.971174, 49.813522], [5.971537, 49.813583], [5.971765, 49.81366], [5.972128, 49.813774], [5.972315, 49.813835], [5.972593, 49.813927], [5.972849, 49.814003], [5.97307, 49.81407], [5.973398, 49.813934], [5.973452, 49.81391], [5.973848, 49.813736], [5.974466, 49.813576], [5.974565, 49.813557], [5.974935, 49.813507], [5.974997, 49.813496], [5.975256, 49.81346], [5.975283, 49.813454], [5.975542, 49.81342], [5.975756, 49.8134], [5.975897, 49.81337], [5.976095, 49.81333], [5.976248, 49.813293], [5.976629, 49.813267], [5.976969, 49.81324], [5.977434, 49.813198], [5.977537, 49.813194], [5.977571, 49.813187], [5.977613, 49.813194], [5.977663, 49.81321], [5.977739, 49.81324], [5.977758, 49.813248], [5.977827, 49.813248], [5.977854, 49.813232], [5.977881, 49.81322], [5.977915, 49.813187], [5.977945, 49.813145], [5.977972, 49.813126], [5.977991, 49.813118], [5.978029, 49.81311], [5.978125, 49.813103], [5.978178, 49.813095], [5.978254, 49.81307], [5.978281, 49.81305], [5.978319, 49.813004], [5.978338, 49.812992], [5.97838, 49.81298], [5.978396, 49.812965], [5.978434, 49.812912], [5.978449, 49.812904], [5.978472, 49.812897], [5.978556, 49.812897], [5.978575, 49.81289], [5.97862, 49.81285], [5.978663, 49.812817], [5.978678, 49.81281], [5.978697, 49.812805], [5.978727, 49.812798], [5.978746, 49.812805], [5.978804, 49.812836], [5.978827, 49.812847], [5.978861, 49.81285], [5.978945, 49.812855], [5.978979, 49.81285], [5.979063, 49.81283], [5.979151, 49.812813], [5.979193, 49.812813], [5.979235, 49.812817], [5.979319, 49.812843], [5.979361, 49.812843], [5.979406, 49.81283], [5.979425, 49.812836], [5.979502, 49.81285], [5.979528, 49.81285], [5.979593, 49.812843], [5.97962, 49.812843], [5.979685, 49.812855], [5.979708, 49.81286], [5.979765, 49.812843], [5.979841, 49.812828], [5.979937, 49.812828], [5.980028, 49.812813], [5.980124, 49.812805], [5.980246, 49.812805], [5.980322, 49.81281], [5.980383, 49.81282], [5.980467, 49.81281], [5.98052, 49.812805], [5.980585, 49.81281], [5.980722, 49.812836], [5.98078, 49.812828], [5.980818, 49.812817], [5.980871, 49.812813], [5.98094, 49.81282], [5.980986, 49.81281], [5.98107, 49.812798], [5.981108, 49.81279], [5.98115, 49.81279], [5.981188, 49.812805], [5.981237, 49.812836], [5.981279, 49.81285], [5.981318, 49.81286], [5.981371, 49.812862], [5.981409, 49.812874], [5.981432, 49.81288], [5.981497, 49.812965], [5.981512, 49.812973], [5.981539, 49.81299], [5.981562, 49.812992], [5.981588, 49.81299], [5.981649, 49.81298], [5.98168, 49.812965], [5.981703, 49.812965], [5.981737, 49.81297], [5.981779, 49.812984], [5.981855, 49.813004], [5.981905, 49.81302], [5.981951, 49.81304], [5.982, 49.81304], [5.982874, 49.81295], [5.983137, 49.812916], [5.983828, 49.812836], [5.984247, 49.812786], [5.984293, 49.812843], [5.984316, 49.81289], [5.984331, 49.812958], [5.984354, 49.81311], [5.984366, 49.813255], [5.984434, 49.81336], [5.984461, 49.813416], [5.984491, 49.813515], [5.984518, 49.81357], [5.984564, 49.81368], [5.98461, 49.81373], [5.984632, 49.81375], [5.98464, 49.81383], [5.984644, 49.813858], [5.984655, 49.813873], [5.984678, 49.813896], [5.98469, 49.81391], [5.984671, 49.813957], [5.984659, 49.814003], [5.984655, 49.814034], [5.984655, 49.814068], [5.984644, 49.814102], [5.984621, 49.814125], [5.98461, 49.814163], [5.98461, 49.814194], [5.984625, 49.81424], [5.984625, 49.814285], [5.98461, 49.814323], [5.984606, 49.81436], [5.984617, 49.8144], [5.98464, 49.814453], [5.98464, 49.8145], [5.984625, 49.81456], [5.984625, 49.814594], [5.98464, 49.814644], [5.984659, 49.81469], [5.984693, 49.814728], [5.984716, 49.814774], [5.984713, 49.81482], [5.984693, 49.814884], [5.984667, 49.814934], [5.984636, 49.81498], [5.984579, 49.815056], [5.984537, 49.81512], [5.984533, 49.815155], [5.984549, 49.8152], [5.984549, 49.815224], [5.984552, 49.81527], [5.984545, 49.8153], [5.984514, 49.815346], [5.984522, 49.81539], [5.984552, 49.815422], [5.984701, 49.81553], [5.984728, 49.815567], [5.984739, 49.815643], [5.984751, 49.815674], [5.984789, 49.81575], [5.984819, 49.81582], [5.984842, 49.81585], [5.984907, 49.815865], [5.984926, 49.81588], [5.984941, 49.815907], [5.984953, 49.81595], [5.984976, 49.815964], [5.985041, 49.81599], [5.98527, 49.816086], [5.985327, 49.816128], [5.98535, 49.816147], [5.985365, 49.816162], [5.985373, 49.8162], [5.98538, 49.816223], [5.985399, 49.816246], [5.985426, 49.816257], [5.985483, 49.816284], [5.985502, 49.81629], [5.985525, 49.81631], [5.985571, 49.81637], [5.985575, 49.816376], [5.985578, 49.816406], [5.985582, 49.81646], [5.985582, 49.816475], [5.985594, 49.81649], [5.985613, 49.816505], [5.985624, 49.816513], [5.985632, 49.816532], [5.98564, 49.816544], [5.985663, 49.81656], [5.985678, 49.816566], [5.985697, 49.81659], [5.985708, 49.816605], [5.985746, 49.816628], [5.985788, 49.816643], [5.9858, 49.816658], [5.985815, 49.81668], [5.98583, 49.816727], [5.985842, 49.816765], [5.985849, 49.816772], [5.985903, 49.8168], [5.985922, 49.816807], [5.98593, 49.81682], [5.985933, 49.81684], [5.985937, 49.81688], [5.985945, 49.816925], [5.985952, 49.816944], [5.986193, 49.817192], [5.986284, 49.817245], [5.986605, 49.817375], [5.986971, 49.817543], [5.987143, 49.817574], [5.987719, 49.817642], [5.988253, 49.81771], [5.988604, 49.817802], [5.98929, 49.817986], [5.989515, 49.81807], [5.990023, 49.81828], [5.990377, 49.81828], [5.990423, 49.81825], [5.991133, 49.818268], [5.991274, 49.818275], [5.991354, 49.818287], [5.99148, 49.81831], [5.991594, 49.818314], [5.992029, 49.81832], [5.992365, 49.81833], [5.99301, 49.81833], [5.99349, 49.818336], [5.994158, 49.81835], [5.994593, 49.818367], [5.994696, 49.81838], [5.994993, 49.81839], [5.995256, 49.818405], [5.995672, 49.818424], [5.995707, 49.818428], [5.995947, 49.818443], [5.996, 49.818443], [5.996073, 49.81845], [5.996225, 49.818462], [5.996508, 49.81849], [5.996641, 49.8185], [5.996771, 49.818512], [5.997076, 49.81855], [5.997164, 49.818558], [5.997518, 49.8186], [5.997622, 49.81861], [5.997965, 49.818657], [5.998064, 49.818665], [5.998125, 49.818672], [5.99822, 49.818684], [5.998335, 49.818695], [5.998426, 49.8187], [5.998568, 49.81871], [5.998613, 49.81871], [5.999067, 49.818737], [5.999769, 49.81878], [5.999968, 49.818775], [6.000258, 49.818775], [6.000669, 49.818787], [6.000746, 49.818787], [6.000566, 49.819], [6.000509, 49.819077], [6.000471, 49.81914], [6.00046, 49.81916], [6.000452, 49.819187], [6.000452, 49.819206], [6.00046, 49.819244], [6.000464, 49.819313], [6.00046, 49.819454], [6.00041, 49.819542], [6.000898, 49.819683], [6.001314, 49.819805], [6.001867, 49.81996], [6.002077, 49.820026], [6.002211, 49.82007], [6.00231, 49.8201], [6.00242, 49.820145], [6.002508, 49.820183], [6.00268, 49.820267], [6.002817, 49.820335], [6.002871, 49.820366], [6.002928, 49.82041], [6.00305, 49.820526], [6.003218, 49.820694], [6.003305, 49.820778], [6.003435, 49.820904], [6.003595, 49.821053], [6.003691, 49.821133], [6.003752, 49.821182], [6.003771, 49.821198], [6.003901, 49.82129], [6.004282, 49.82147], [6.004488, 49.821568], [6.005129, 49.821724], [6.005735, 49.821896], [6.005491, 49.82202], [6.005499, 49.822193], [6.005522, 49.82228], [6.00556, 49.82238], [6.005632, 49.822536], [6.00567, 49.822613], [6.005701, 49.822662], [6.005808, 49.82281], [6.005835, 49.822845], [6.005846, 49.822865], [6.005873, 49.822903], [6.005922, 49.822884], [6.005968, 49.822872], [6.006006, 49.82287], [6.006082, 49.822857], [6.006117, 49.822857], [6.006163, 49.82287], [6.006197, 49.82287], [6.00625, 49.822865], [6.006296, 49.822865], [6.00635, 49.822884], [6.006456, 49.822906], [6.006491, 49.822906], [6.006544, 49.822903], [6.006586, 49.8229], [6.006636, 49.8229], [6.006678, 49.822903], [6.006712, 49.822903], [6.006746, 49.82289], [6.006788, 49.822895], [6.00688, 49.822903], [6.006933, 49.822906], [6.006956, 49.822903], [6.006975, 49.822895], [6.006998, 49.822887], [6.007036, 49.822884], [6.007067, 49.82289], [6.007116, 49.822906], [6.007155, 49.822914], [6.007189, 49.822918], [6.007223, 49.822914], [6.007338, 49.822906], [6.007391, 49.822914], [6.007471, 49.822914], [6.007513, 49.82292], [6.007547, 49.822926], [6.007624, 49.82292], [6.007685, 49.82294], [6.007784, 49.82294], [6.008364, 49.822933], [6.00839, 49.822918], [6.008406, 49.822903], [6.008436, 49.82289], [6.00847, 49.822884], [6.008501, 49.82287], [6.008528, 49.822845], [6.008543, 49.822838], [6.008558, 49.82283], [6.008585, 49.822826], [6.008616, 49.82282], [6.008646, 49.822823], [6.008692, 49.82283], [6.008745, 49.822845], [6.008764, 49.822857], [6.008787, 49.822853], [6.008818, 49.822865], [6.008879, 49.822914], [6.008905, 49.822926], [6.008936, 49.822937], [6.008966, 49.82294], [6.009001, 49.82295], [6.009028, 49.822952], [6.00905, 49.822952], [6.009066, 49.82295], [6.009111, 49.82295], [6.009134, 49.82294], [6.009146, 49.82293], [6.009161, 49.82293], [6.009199, 49.822933], [6.009226, 49.82293], [6.009264, 49.822914], [6.009287, 49.822914], [6.009314, 49.822926], [6.009352, 49.82293], [6.009375, 49.82293], [6.00939, 49.822918], [6.009417, 49.822895], [6.009436, 49.822884], [6.009455, 49.82288], [6.009478, 49.822884], [6.009516, 49.822887], [6.009569, 49.822884], [6.00963, 49.822884], [6.009657, 49.822895], [6.00968, 49.82291], [6.009714, 49.822952], [6.009775, 49.822983], [6.009951, 49.823006], [6.009981, 49.822956], [6.010241, 49.823], [6.010538, 49.823067], [6.010725, 49.823116], [6.010771, 49.823135], [6.011297, 49.823326], [6.011328, 49.82334], [6.011698, 49.823563], [6.011713, 49.823574], [6.012003, 49.823746], [6.01203, 49.823765], [6.012716, 49.824173], [6.013002, 49.82434], [6.013262, 49.824493], [6.013331, 49.824528], [6.013582, 49.82463], [6.013998, 49.824806], [6.014234, 49.824905], [6.014357, 49.824814], [6.014555, 49.824944], [6.014643, 49.825], [6.014963, 49.82523], [6.015249, 49.825447], [6.015509, 49.825558], [6.016104, 49.82567], [6.016211, 49.825695], [6.016451, 49.825745], [6.016558, 49.825768], [6.016748, 49.825806], [6.016867, 49.825825], [6.017439, 49.825863], [6.017885, 49.825905], [6.018236, 49.8264], [6.01832, 49.826523], [6.018526, 49.82684], [6.018461, 49.827076], [6.019117, 49.82708], [6.019751, 49.827065], [6.02006, 49.827057], [6.020597, 49.827045], [6.020876, 49.82704], [6.021948, 49.827118], [6.023176, 49.826942], [6.023519, 49.826366], [6.023867, 49.825787], [6.024065, 49.825443], [6.024176, 49.825264], [6.024744, 49.825676], [6.025061, 49.825897], [6.025339, 49.82611], [6.02556, 49.82629], [6.025835, 49.826515], [6.025854, 49.82653], [6.026106, 49.82643], [6.026274, 49.826344], [6.026483, 49.826214], [6.026926, 49.825905], [6.027002, 49.825874], [6.027868, 49.825703], [6.028723, 49.825542], [6.028833, 49.82556], [6.029974, 49.825344], [6.030039, 49.8254], [6.030558, 49.825836], [6.030348, 49.82621], [6.030092, 49.826485], [6.029882, 49.82669], [6.029738, 49.826828], [6.029631, 49.82697], [6.029543, 49.827084], [6.029489, 49.827156], [6.029478, 49.82717], [6.02944, 49.82722], [6.02936, 49.827316], [6.029283, 49.82738], [6.029196, 49.827446], [6.029051, 49.82758], [6.028662, 49.827953], [6.028494, 49.82813], [6.028307, 49.828323], [6.028112, 49.828552], [6.027868, 49.828827], [6.027693, 49.829006], [6.027533, 49.82915], [6.027227, 49.829407], [6.027098, 49.829517], [6.026937, 49.82979], [6.026754, 49.83009], [6.026751, 49.8301], [6.026926, 49.83013], [6.027166, 49.83018], [6.02804, 49.83036], [6.0282, 49.83039], [6.029764, 49.83069], [6.030184, 49.83076], [6.030363, 49.8308], [6.031019, 49.830956], [6.031488, 49.831074], [6.031847, 49.831154], [6.032358, 49.831257], [6.032629, 49.83131], [6.033091, 49.831398], [6.033415, 49.83145], [6.033865, 49.831512], [6.034391, 49.83157], [6.034052, 49.83065], [6.03393, 49.830364], [6.033915, 49.83024], [6.033854, 49.829792], [6.033835, 49.82969], [6.033831, 49.82957], [6.033854, 49.829285], [6.03377, 49.828922], [6.033747, 49.82863], [6.033579, 49.828403], [6.033487, 49.828156], [6.033369, 49.827824], [6.033079, 49.827225], [6.033117, 49.82654], [6.033129, 49.826458], [6.033285, 49.8261], [6.033983, 49.82635], [6.034395, 49.826103], [6.034895, 49.825806], [6.035116, 49.825676], [6.035223, 49.825615], [6.03591, 49.82522], [6.036482, 49.82489], [6.036661, 49.824783], [6.036959, 49.824615], [6.037115, 49.82453], [6.037203, 49.824486], [6.037493, 49.82459], [6.037714, 49.824665], [6.03789, 49.824764], [6.038199, 49.82493], [6.038412, 49.82504], [6.038721, 49.825203], [6.039091, 49.825397], [6.039473, 49.8256], [6.04035, 49.82609], [6.040777, 49.825466], [6.040998, 49.8247], [6.041159, 49.824158], [6.041124, 49.824066], [6.041101, 49.823997], [6.04104, 49.823772], [6.040983, 49.823586], [6.040972, 49.823544], [6.040766, 49.822823], [6.040007, 49.822723], [6.039103, 49.822594], [6.038954, 49.822567], [6.038851, 49.822544], [6.038027, 49.822388], [6.037645, 49.822304], [6.037287, 49.82222], [6.037119, 49.822178], [6.036863, 49.82212], [6.036478, 49.82203], [6.03591, 49.821796], [6.03541, 49.821526], [6.035284, 49.821438], [6.035181, 49.82137], [6.035021, 49.821274], [6.034784, 49.8211], [6.03454, 49.82094], [6.033724, 49.820526], [6.033079, 49.820213], [6.032778, 49.82004], [6.032263, 49.81974], [6.032145, 49.81929], [6.03211, 49.819168], [6.032061, 49.818962], [6.032049, 49.818924], [6.032026, 49.81881], [6.031988, 49.81858], [6.031927, 49.818222], [6.031885, 49.818207], [6.031748, 49.81742], [6.031755, 49.817326], [6.031599, 49.816902], [6.031256, 49.816345], [6.030939, 49.815834], [6.030626, 49.815315], [6.030554, 49.815193], [6.030477, 49.815056], [6.030214, 49.814606], [6.030062, 49.81436], [6.029776, 49.81391], [6.029516, 49.81364], [6.029379, 49.813507], [6.029238, 49.813343], [6.029036, 49.813137], [6.028933, 49.81304], [6.028597, 49.8127], [6.028547, 49.812355], [6.028593, 49.81227], [6.028665, 49.812157], [6.028768, 49.811947], [6.028872, 49.81157], [6.028772, 49.811455], [6.02841, 49.811047], [6.028204, 49.81076], [6.027918, 49.810364], [6.028009, 49.810173], [6.02833, 49.809666], [6.028345, 49.80964], [6.028646, 49.80953], [6.029223, 49.809315], [6.030043, 49.80912], [6.030146, 49.809074], [6.030592, 49.80887], [6.029947, 49.808197], [6.030008, 49.808167], [6.030138, 49.808067], [6.030436, 49.807835], [6.030508, 49.807774], [6.030603, 49.807697], [6.030996, 49.807514], [6.031069, 49.807484], [6.031393, 49.807327], [6.031447, 49.8073], [6.031568, 49.80724], [6.031664, 49.8072], [6.032469, 49.80682], [6.033125, 49.806522], [6.033247, 49.80647], [6.033567, 49.806324], [6.034143, 49.806053], [6.034479, 49.8059], [6.034731, 49.805782], [6.035582, 49.80538], [6.035837, 49.805264], [6.036741, 49.80484], [6.036901, 49.804768], [6.036917, 49.804756], [6.037062, 49.804676], [6.037893, 49.80417], [6.037905, 49.80416], [6.038572, 49.80377], [6.038168, 49.803722], [6.037542, 49.803654], [6.037382, 49.803635], [6.036806, 49.803585], [6.035933, 49.803513], [6.035105, 49.80344], [6.035063, 49.80344], [6.034594, 49.803284], [6.033716, 49.802994], [6.033457, 49.802864], [6.033304, 49.80279], [6.033045, 49.802685], [6.032801, 49.802597], [6.032549, 49.802517], [6.032457, 49.80249], [6.031969, 49.80234], [6.031828, 49.80229], [6.03171, 49.802258], [6.031282, 49.802105], [6.031107, 49.80204], [6.030989, 49.802002], [6.030691, 49.801895], [6.030336, 49.801773], [6.030188, 49.80172], [6.029844, 49.801582], [6.029108, 49.80128], [6.028795, 49.800877], [6.028746, 49.800793], [6.028708, 49.80079], [6.028677, 49.80078], [6.02865, 49.80077], [6.028597, 49.80076], [6.02854, 49.800747], [6.02849, 49.800747], [6.028452, 49.80074], [6.028376, 49.80072], [6.028284, 49.8007], [6.028208, 49.800682], [6.028143, 49.800674], [6.028063, 49.800674], [6.028017, 49.80068], [6.027983, 49.800674], [6.027777, 49.800636], [6.02767, 49.800625], [6.02759, 49.80061], [6.027494, 49.800602], [6.027437, 49.8006], [6.027391, 49.8006], [6.027357, 49.800594], [6.02733, 49.800583], [6.027304, 49.80057], [6.027277, 49.80056], [6.02725, 49.800556], [6.027204, 49.80055], [6.02717, 49.80055], [6.027124, 49.800545], [6.027082, 49.800533], [6.027002, 49.800507], [6.026819, 49.80055], [6.026716, 49.800507], [6.026636, 49.800495], [6.026625, 49.800488], [6.026575, 49.800446], [6.026396, 49.80048], [6.026354, 49.800453], [6.026339, 49.800446], [6.025915, 49.800156], [6.025854, 49.79996], [6.025847, 49.799934], [6.025526, 49.80002], [6.025476, 49.800003], [6.024988, 49.799877], [6.024569, 49.799778], [6.024286, 49.799713], [6.024126, 49.79968], [6.023828, 49.799606], [6.023371, 49.79949], [6.022844, 49.799328], [6.022661, 49.79927], [6.022333, 49.799168], [6.021917, 49.79905], [6.021761, 49.799015], [6.021315, 49.7989], [6.02112, 49.798855], [6.021028, 49.79883], [6.020414, 49.79867], [6.019983, 49.798576], [6.019503, 49.798466], [6.01972, 49.797897], [6.019941, 49.797653], [6.020361, 49.797207], [6.020578, 49.796967], [6.0207, 49.796818], [6.020632, 49.79679], [6.020563, 49.796764], [6.020502, 49.796745], [6.020449, 49.796734], [6.020361, 49.79671], [6.020323, 49.796703], [6.020285, 49.796688], [6.020239, 49.796665], [6.020136, 49.79662], [6.020021, 49.796577], [6.019873, 49.796535], [6.019781, 49.796513], [6.019705, 49.796486], [6.019671, 49.796467], [6.019606, 49.79644], [6.019323, 49.796356], [6.019186, 49.796314], [6.019083, 49.796288], [6.018988, 49.796265], [6.018843, 49.79624], [6.018744, 49.79622], [6.018686, 49.79621], [6.018614, 49.796207], [6.018545, 49.796192], [6.018446, 49.79616], [6.0184, 49.79615], [6.018347, 49.79614], [6.018286, 49.79613], [6.018232, 49.796112], [6.018171, 49.796093], [6.018099, 49.79608], [6.018026, 49.79607], [6.0179, 49.796036], [6.017851, 49.796024], [6.017775, 49.796013], [6.017668, 49.795986], [6.017588, 49.795967], [6.017504, 49.795956], [6.017279, 49.795925], [6.016981, 49.79585], [6.016768, 49.79582], [6.016687, 49.795807], [6.016546, 49.7958], [6.01642, 49.795776], [6.016317, 49.795757], [6.016253, 49.795734], [6.016153, 49.79568], [6.016096, 49.79566], [6.015986, 49.79563], [6.015917, 49.795597], [6.015886, 49.795586], [6.015791, 49.795563], [6.01568, 49.795532], [6.015631, 49.795525], [6.015501, 49.79551], [6.015425, 49.795498], [6.015345, 49.795475], [6.015226, 49.79544], [6.015257, 49.79533], [6.015268, 49.7953], [6.015345, 49.79505], [6.01536, 49.79499], [6.015448, 49.794636], [6.015543, 49.794132], [6.015551, 49.794083], [6.015589, 49.793743], [6.015593, 49.793625], [6.015535, 49.793365], [6.015467, 49.79308], [6.015337, 49.792664], [6.015234, 49.79248], [6.01515, 49.79235], [6.014864, 49.791924], [6.014811, 49.791843], [6.014689, 49.791668], [6.014532, 49.791435], [6.014536, 49.7913], [6.014536, 49.79114], [6.01454, 49.79095], [6.013994, 49.790752], [6.013239, 49.79047], [6.012609, 49.79024], [6.013029, 49.789753], [6.01314, 49.789627], [6.013304, 49.789417], [6.013445, 49.789154], [6.013502, 49.788994], [6.01354, 49.788868], [6.013575, 49.788696], [6.013582, 49.78851], [6.013582, 49.788334], [6.013578, 49.78816], [6.013567, 49.787983], [6.013285, 49.787983], [6.013262, 49.78798], [6.013266, 49.787914], [6.013262, 49.787827], [6.013258, 49.787766], [6.01325, 49.787724], [6.013201, 49.78768], [6.013155, 49.787655], [6.013124, 49.78762], [6.013117, 49.787598], [6.01314, 49.78753], [6.013151, 49.787502], [6.013159, 49.787476], [6.013159, 49.787445], [6.013155, 49.78738], [6.013151, 49.78736], [6.013159, 49.78733], [6.01317, 49.787308], [6.013201, 49.78727], [6.013281, 49.787163], [6.0133, 49.787148], [6.013311, 49.78714], [6.013334, 49.78713], [6.013376, 49.78711], [6.013407, 49.78709], [6.013433, 49.78708], [6.01346, 49.787075], [6.013483, 49.787075], [6.013517, 49.78708], [6.01354, 49.78708], [6.013563, 49.787075], [6.013586, 49.78706], [6.013598, 49.787037], [6.013605, 49.787003], [6.013605, 49.786983], [6.013609, 49.78697], [6.013594, 49.78696], [6.013536, 49.786926], [6.013262, 49.78697], [6.013143, 49.786983], [6.012968, 49.786995], [6.012835, 49.786995], [6.012739, 49.786987], [6.012304, 49.786926], [6.012056, 49.786907], [6.011824, 49.78688], [6.011686, 49.78687], [6.01148, 49.786858], [6.011141, 49.786835], [6.011076, 49.786793], [6.010965, 49.786736], [6.010481, 49.78681], [6.01037, 49.78679], [6.010279, 49.78678], [6.01008, 49.786774], [6.009878, 49.786777], [6.009638, 49.786804], [6.009279, 49.78685], [6.009138, 49.786877], [6.008955, 49.786922], [6.008711, 49.786995], [6.008589, 49.787025], [6.008444, 49.78705], [6.008154, 49.78709], [6.008104, 49.7871], [6.008024, 49.78713], [6.00794, 49.787163], [6.007765, 49.78725], [6.00773, 49.78727], [6.007677, 49.787296], [6.007563, 49.787304], [6.007448, 49.78731], [6.006445, 49.78739], [6.006395, 49.78738], [6.006025, 49.787285], [6.005949, 49.78727], [6.005674, 49.7872], [6.005613, 49.787186], [6.005358, 49.78712], [6.005285, 49.78735], [6.005251, 49.78743], [6.005209, 49.787502], [6.005159, 49.78757], [6.005076, 49.78766], [6.004973, 49.78775], [6.004854, 49.787857], [6.004664, 49.788025], [6.004534, 49.78814], [6.004084, 49.788513], [6.003588, 49.78889], [6.003305, 49.788773], [6.002939, 49.78861], [6.00284, 49.788567], [6.002363, 49.788353], [6.002226, 49.788292], [6.001932, 49.78813], [6.001673, 49.787994], [6.001528, 49.787926], [6.001425, 49.787876], [6.000971, 49.787663], [6.0007, 49.787537], [6.000635, 49.787514], [6.000532, 49.787678], [6.000372, 49.787876], [6.000048, 49.78823], [5.999693, 49.78862], [5.99914, 49.789223], [5.998964, 49.789425], [5.998476, 49.78998], [5.998083, 49.790424], [5.997923, 49.79056], [5.997751, 49.790676], [5.996557, 49.791397], [5.99663, 49.791557], [5.996649, 49.791595], [5.996679, 49.791733], [5.996695, 49.791946], [5.996359, 49.79214], [5.995634, 49.792583], [5.994993, 49.793003], [5.994383, 49.793392], [5.994261, 49.793472], [5.993982, 49.793636], [5.993719, 49.79379], [5.99333, 49.79401], [5.99225, 49.794617], [5.992056, 49.79473], [5.991667, 49.794983], [5.991518, 49.79509], [5.991365, 49.795204], [5.991232, 49.7953], [5.991114, 49.795387], [5.991053, 49.79541], [5.99095, 49.795437], [5.990847, 49.79547], [5.990694, 49.795525], [5.990507, 49.7956], [5.990416, 49.795647], [5.990282, 49.795727], [5.990118, 49.795834], [5.989882, 49.796005], [5.989675, 49.796177], [5.989439, 49.79637], [5.989233, 49.796555], [5.98897, 49.79679], [5.988195, 49.797535], [5.988134, 49.797596], [5.987936, 49.797787], [5.987875, 49.79785], [5.987753, 49.79797], [5.987181, 49.797783], [5.986445, 49.797546], [5.985849, 49.797348], [5.985807, 49.797333], [5.985243, 49.79717], [5.985018, 49.797283], [5.984636, 49.797478], [5.984045, 49.797775], [5.983709, 49.79801], [5.98348, 49.798172], [5.983007, 49.7985], [5.982439, 49.798695], [5.981935, 49.798744], [5.981825, 49.79875], [5.981516, 49.798782], [5.981283, 49.798958], [5.981203, 49.79902], [5.980715, 49.799606], [5.980635, 49.799706], [5.980513, 49.799892], [5.980272, 49.800224], [5.979887, 49.800777], [5.979841, 49.801292], [5.979803, 49.80163], [5.979383, 49.801373], [5.979219, 49.80128], [5.978727, 49.80101], [5.978605, 49.80094], [5.978361, 49.80101], [5.97806, 49.801105], [5.977819, 49.801197], [5.976698, 49.801647], [5.976393, 49.801777], [5.976137, 49.801888], [5.97563, 49.802105], [5.975485, 49.802185], [5.975138, 49.80238], [5.975069, 49.802418], [5.974798, 49.80257], [5.974653, 49.80265], [5.97423, 49.802887], [5.974142, 49.802933], [5.973856, 49.803104], [5.973631, 49.80325], [5.973581, 49.80328], [5.973738, 49.803528], [5.974134, 49.80416], [5.974199, 49.80465], [5.974215, 49.80474], [5.974256, 49.80497], [5.97431, 49.805275], [5.974356, 49.805523], [5.974436, 49.805912], [5.974462, 49.806034], [5.974546, 49.806446], [5.974588, 49.806496], [5.974749, 49.806675], [5.974829, 49.80676], [5.975119, 49.807053], [5.975172, 49.807102], [5.97537, 49.807304], [5.975405, 49.807327], [5.975649, 49.80744], [5.975695, 49.807472], [5.97579, 49.80755], [5.976095, 49.807816], [5.976172, 49.807884], [5.976377, 49.808064], [5.976481, 49.808147], [5.976847, 49.808643], [5.976507, 49.808666], [5.976214, 49.808685], [5.975958, 49.8087], [5.975527, 49.808723], [5.975496, 49.808727], [5.975458, 49.808727], [5.974447, 49.808792], [5.973528, 49.80887], [5.973223, 49.808887], [5.972876, 49.80891], [5.972609, 49.808926], [5.972483, 49.808937], [5.971582, 49.808987], [5.971479, 49.808994], [5.970507, 49.80905], [5.969515, 49.809113], [5.969107, 49.809135], [5.968592, 49.809166], [5.967718, 49.809235], [5.967558, 49.809246], [5.966223, 49.80935], [5.966116, 49.809357], [5.966082, 49.80967]]]]}}]}