{"type": "FeatureCollection", "features": [{"type": "Feature", "properties": {"name": "Ell"}, "geometry": {"type": "MultiPolygon", "coordinates": [[[[5.791628, 49.787834], [5.791639, 49.787903], [5.791685, 49.78807], [5.791773, 49.788376], [5.791845, 49.788555], [5.791914, 49.788673], [5.792006, 49.7888], [5.792261, 49.78915], [5.792513, 49.789524], [5.792658, 49.789738], [5.792875, 49.79003], [5.793299, 49.790575], [5.793802, 49.791235], [5.793901, 49.791288], [5.794428, 49.79159], [5.795088, 49.791964], [5.795496, 49.792192], [5.796122, 49.79254], [5.796183, 49.792555], [5.796408, 49.792616], [5.796541, 49.792646], [5.796564, 49.79265], [5.796843, 49.792711], [5.797022, 49.792749], [5.797037, 49.792753], [5.797174, 49.79278], [5.797392, 49.79283], [5.797579, 49.792669], [5.797762, 49.792521], [5.797869, 49.792429], [5.798159, 49.792196], [5.798281, 49.79209], [5.798384, 49.79199], [5.798395, 49.791979], [5.798533, 49.791822], [5.79867, 49.791662], [5.798716, 49.791605], [5.798952, 49.7913], [5.79912, 49.791384], [5.799326, 49.791472], [5.799597, 49.791571], [5.799696, 49.791597], [5.79973, 49.791567], [5.799768, 49.791574], [5.800661, 49.791811], [5.80129, 49.791971], [5.801943, 49.792128], [5.802206, 49.792196], [5.802286, 49.792212], [5.802477, 49.792265], [5.80263, 49.792307], [5.802786, 49.792364], [5.802992, 49.792452], [5.803442, 49.792101], [5.803675, 49.792223], [5.804419, 49.792616], [5.804182, 49.792795], [5.804045, 49.792921], [5.803896, 49.793078], [5.803881, 49.793096], [5.803827, 49.793222], [5.803812, 49.793287], [5.803801, 49.793367], [5.803801, 49.79344], [5.803816, 49.793547], [5.803862, 49.793669], [5.803911, 49.793791], [5.804121, 49.794252], [5.804155, 49.794344], [5.804193, 49.794474], [5.804205, 49.794561], [5.804182, 49.794619], [5.803942, 49.794882], [5.803774, 49.795073], [5.803724, 49.79513], [5.803637, 49.795252], [5.803617, 49.795298], [5.80361, 49.795351], [5.80361, 49.795401], [5.803629, 49.795443], [5.803671, 49.795492], [5.803739, 49.795553], [5.803824, 49.795614], [5.803873, 49.795649], [5.804041, 49.79574], [5.804552, 49.795996], [5.804689, 49.796068], [5.80475, 49.796106], [5.804873, 49.796186], [5.804995, 49.796274], [5.805033, 49.796305], [5.805273, 49.796511], [5.805277, 49.796541], [5.805357, 49.796629], [5.805418, 49.796709], [5.805479, 49.796801], [5.805494, 49.79685], [5.805502, 49.796888], [5.805506, 49.796942], [5.80551, 49.797022], [5.805502, 49.797075], [5.805471, 49.797152], [5.805418, 49.797277], [5.805433, 49.797289], [5.805368, 49.797426], [5.805345, 49.797529], [5.805342, 49.797789], [5.805357, 49.79785], [5.805368, 49.797872], [5.805388, 49.797918], [5.805471, 49.798094], [5.805529, 49.798189], [5.805586, 49.798265], [5.805647, 49.798315], [5.805738, 49.798391], [5.805883, 49.798498], [5.805994, 49.798582], [5.806055, 49.798647], [5.806067, 49.798666], [5.806089, 49.7987], [5.80615, 49.7988], [5.806166, 49.798826], [5.806189, 49.798872], [5.806223, 49.798967], [5.806242, 49.799135], [5.805792, 49.799162], [5.80546, 49.799181], [5.805452, 49.799322], [5.805433, 49.799383], [5.80541, 49.799448], [5.80538, 49.799509], [5.805307, 49.799635], [5.805506, 49.799704], [5.805651, 49.799757], [5.805605, 49.79981], [5.805365, 49.800085], [5.805323, 49.800123], [5.805174, 49.800264], [5.805098, 49.800345], [5.805029, 49.800409], [5.804964, 49.800493], [5.804865, 49.800657], [5.804785, 49.800665], [5.80459, 49.800688], [5.804602, 49.800718], [5.804647, 49.800909], [5.804666, 49.801001], [5.804701, 49.801134], [5.804815, 49.801626], [5.805063, 49.801622], [5.805162, 49.801622], [5.805319, 49.801619], [5.805571, 49.801615], [5.805632, 49.801638], [5.805647, 49.801657], [5.805681, 49.801691], [5.805723, 49.801752], [5.805765, 49.801847], [5.805784, 49.801905], [5.805784, 49.801989], [5.805754, 49.802069], [5.805738, 49.802111], [5.805731, 49.802122], [5.805693, 49.802202], [5.805677, 49.802229], [5.805605, 49.802343], [5.80625, 49.802584], [5.80683, 49.802793], [5.806845, 49.802797], [5.806959, 49.802839], [5.807161, 49.802862], [5.807177, 49.802866], [5.807566, 49.802912], [5.807585, 49.802916], [5.808077, 49.802969], [5.807875, 49.803064], [5.807573, 49.803205], [5.807112, 49.803423], [5.807089, 49.803434], [5.807001, 49.80348], [5.806799, 49.803591], [5.806757, 49.80361], [5.806627, 49.803682], [5.806372, 49.803808], [5.806215, 49.803865], [5.805963, 49.803953], [5.805613, 49.804041], [5.805513, 49.804068], [5.805388, 49.804106], [5.805464, 49.80414], [5.805746, 49.804285], [5.80596, 49.804388], [5.806021, 49.804411], [5.806135, 49.804472], [5.806418, 49.804651], [5.806555, 49.804743], [5.806787, 49.804907], [5.806822, 49.80493], [5.806833, 49.804941], [5.806925, 49.805002], [5.80723, 49.805159], [5.807276, 49.805185], [5.807344, 49.805216], [5.80739, 49.805239], [5.807493, 49.805296], [5.807615, 49.805365], [5.807699, 49.805422], [5.807753, 49.805452], [5.807863, 49.805529], [5.807997, 49.805613], [5.808035, 49.805639], [5.808138, 49.805708], [5.808329, 49.805838], [5.808493, 49.805941], [5.809019, 49.80588], [5.808989, 49.805971], [5.808931, 49.80604], [5.80887, 49.806101], [5.808813, 49.806135], [5.808748, 49.806177], [5.80887, 49.806459], [5.809031, 49.806852], [5.809153, 49.807154], [5.809313, 49.807539], [5.809229, 49.807569], [5.808916, 49.807669], [5.808435, 49.807825], [5.808447, 49.807901], [5.808672, 49.807882], [5.808523, 49.809145], [5.80884, 49.809145], [5.808901, 49.809149], [5.808969, 49.809164], [5.809015, 49.809176], [5.80905, 49.809198], [5.809099, 49.809221], [5.809172, 49.809282], [5.80921, 49.809324], [5.809282, 49.809423], [5.809313, 49.809462], [5.809443, 49.809664], [5.80958, 49.809885], [5.809774, 49.810133], [5.809938, 49.810339], [5.810206, 49.810717], [5.810312, 49.811037], [5.811262, 49.811121], [5.811907, 49.811914], [5.812109, 49.81217], [5.811754, 49.81233], [5.811583, 49.81241], [5.81151, 49.812445], [5.811167, 49.812609], [5.811098, 49.812635], [5.811212, 49.812818], [5.810888, 49.813002], [5.810743, 49.813086], [5.810629, 49.813173], [5.810389, 49.81336], [5.81037, 49.813372], [5.810183, 49.813559], [5.809927, 49.813749], [5.809797, 49.813845], [5.809664, 49.813944], [5.809549, 49.814039], [5.809481, 49.8141], [5.809374, 49.814203], [5.809381, 49.814261], [5.809374, 49.814421], [5.809362, 49.814425], [5.809366, 49.814512], [5.809362, 49.814596], [5.809374, 49.814711], [5.809381, 49.814817], [5.809389, 49.814852], [5.80942, 49.814894], [5.809481, 49.814966], [5.809511, 49.815027], [5.809523, 49.815069], [5.809545, 49.815252], [5.809568, 49.815447], [5.80958, 49.815523], [5.809595, 49.815523], [5.811609, 49.815294], [5.811838, 49.815279], [5.812132, 49.815287], [5.812387, 49.815309], [5.812605, 49.815336], [5.812708, 49.815355], [5.812864, 49.815393], [5.813013, 49.815447], [5.813147, 49.8155], [5.813261, 49.815565], [5.813376, 49.815653], [5.813505, 49.815767], [5.813658, 49.815908], [5.813845, 49.816084], [5.81394, 49.816156], [5.814138, 49.816294], [5.814348, 49.816431], [5.814543, 49.816568], [5.814867, 49.816835], [5.815073, 49.817011], [5.815233, 49.817148], [5.815302, 49.817209], [5.815393, 49.817293], [5.815462, 49.817358], [5.815538, 49.817446], [5.815588, 49.817495], [5.815695, 49.817633], [5.815851, 49.817854], [5.815927, 49.817961], [5.816, 49.81806], [5.816069, 49.818193], [5.816332, 49.818113], [5.816606, 49.818022], [5.816847, 49.817934], [5.817011, 49.817869], [5.817091, 49.817835], [5.817106, 49.817827], [5.817205, 49.817781], [5.817625, 49.817568], [5.8178, 49.817698], [5.817968, 49.817831], [5.818148, 49.817972], [5.818376, 49.818163], [5.818396, 49.818178], [5.818472, 49.818243], [5.818544, 49.818315], [5.818598, 49.818376], [5.818754, 49.818537], [5.818933, 49.818697], [5.819124, 49.818872], [5.819391, 49.819128], [5.819471, 49.819208], [5.819548, 49.819303], [5.819612, 49.81938], [5.820585, 49.819117], [5.821901, 49.818766], [5.821981, 49.818743], [5.822012, 49.818735], [5.822126, 49.818705], [5.822084, 49.81867], [5.822012, 49.818613], [5.821936, 49.81856], [5.821764, 49.81843], [5.821608, 49.8183], [5.821436, 49.818144], [5.821268, 49.817999], [5.821047, 49.817823], [5.820925, 49.817717], [5.82081, 49.817621], [5.820723, 49.817553], [5.820585, 49.817457], [5.82052, 49.817415], [5.820475, 49.817373], [5.820406, 49.817293], [5.820372, 49.817247], [5.82036, 49.817213], [5.820334, 49.817175], [5.820272, 49.817125], [5.820192, 49.817064], [5.82012, 49.817019], [5.820024, 49.816973], [5.819929, 49.816908], [5.819826, 49.816824], [5.819788, 49.816786], [5.819735, 49.816702], [5.819681, 49.816603], [5.819887, 49.816515], [5.819944, 49.816565], [5.820124, 49.816725], [5.820223, 49.816812], [5.820288, 49.816858], [5.820383, 49.816931], [5.820593, 49.817129], [5.820608, 49.817133], [5.820639, 49.817118], [5.821981, 49.816488], [5.822149, 49.816618], [5.82231, 49.816744], [5.822382, 49.816805], [5.822466, 49.816881], [5.82258, 49.816988], [5.822885, 49.81727], [5.823309, 49.817667], [5.823347, 49.817705], [5.823504, 49.817846], [5.823629, 49.8178], [5.823824, 49.81772], [5.824041, 49.817633], [5.824236, 49.817549], [5.824625, 49.817362], [5.824758, 49.817289], [5.82485, 49.817343], [5.824953, 49.817411], [5.825068, 49.817495], [5.825285, 49.817644], [5.825373, 49.817709], [5.825544, 49.817598], [5.825682, 49.817507], [5.825804, 49.817419], [5.825914, 49.817327], [5.826033, 49.817232], [5.826143, 49.817129], [5.826178, 49.817083], [5.826403, 49.816862], [5.82683, 49.816469], [5.827387, 49.815985], [5.82794, 49.815519], [5.828337, 49.815187], [5.827326, 49.814783], [5.826654, 49.814516], [5.826765, 49.814417], [5.826971, 49.814478], [5.827135, 49.814527], [5.827658, 49.814672], [5.82799, 49.81476], [5.828146, 49.814798], [5.828447, 49.814871], [5.828646, 49.81492], [5.829607, 49.815157], [5.830004, 49.815241], [5.830015, 49.815245], [5.830221, 49.815287], [5.830408, 49.815321], [5.83058, 49.815348], [5.83069, 49.815367], [5.830889, 49.815397], [5.831232, 49.815432], [5.831697, 49.815481], [5.832369, 49.815561], [5.833094, 49.815649], [5.833242, 49.815531], [5.833273, 49.815508], [5.833338, 49.815466], [5.833609, 49.815283], [5.833635, 49.815264], [5.833456, 49.815012], [5.832838, 49.814177], [5.833189, 49.814093], [5.833559, 49.814005], [5.83388, 49.813932], [5.834177, 49.81386], [5.834436, 49.813799], [5.83436, 49.81354], [5.83415, 49.812904], [5.834047, 49.812668], [5.83396, 49.81247], [5.833876, 49.812267], [5.833795, 49.812084], [5.833693, 49.811905], [5.833532, 49.811638], [5.83325, 49.811203], [5.833139, 49.811043], [5.833029, 49.810917], [5.832834, 49.81071], [5.832598, 49.810474], [5.832827, 49.81029], [5.832937, 49.810204], [5.833532, 49.809666], [5.833651, 49.80956], [5.833719, 49.809483], [5.834047, 49.809074], [5.834082, 49.809036], [5.834581, 49.80847], [5.834631, 49.808395], [5.834677, 49.808285], [5.834703, 49.808224], [5.834722, 49.80816], [5.834765, 49.808], [5.834833, 49.80785], [5.834906, 49.80772], [5.835058, 49.807484], [5.835173, 49.807343], [5.835379, 49.807102], [5.835562, 49.8069], [5.835222, 49.80679], [5.834959, 49.80672], [5.834589, 49.80664], [5.83423, 49.80656], [5.833883, 49.8065], [5.833574, 49.806458], [5.833712, 49.806007], [5.83383, 49.805824], [5.83391, 49.805695], [5.83399, 49.80552], [5.834002, 49.805492], [5.83407, 49.805305], [5.834143, 49.805103], [5.834162, 49.805054], [5.834513, 49.805115], [5.834639, 49.804695], [5.834707, 49.804474], [5.834459, 49.804436], [5.834169, 49.804394], [5.83383, 49.804367], [5.833612, 49.80436], [5.833475, 49.80396], [5.833384, 49.803787], [5.833284, 49.80362], [5.833105, 49.80335], [5.832926, 49.803448], [5.832457, 49.803658], [5.832026, 49.803844], [5.831827, 49.803543], [5.831789, 49.80347], [5.831667, 49.803318], [5.831617, 49.80327], [5.831541, 49.80319], [5.83148, 49.80313], [5.831438, 49.8031], [5.831415, 49.80308], [5.831392, 49.803055], [5.831377, 49.803032], [5.831343, 49.802975], [5.831335, 49.802937], [5.831327, 49.802876], [5.831339, 49.802784], [5.831392, 49.8026], [5.831423, 49.802513], [5.831434, 49.802475], [5.831457, 49.802414], [5.831476, 49.80234], [5.831465, 49.802284], [5.831198, 49.801746], [5.830908, 49.801834], [5.830667, 49.801903], [5.830343, 49.80167], [5.830107, 49.801525], [5.829771, 49.801334], [5.829413, 49.801144], [5.828966, 49.800957], [5.828905, 49.80103], [5.828707, 49.800945], [5.828642, 49.800907], [5.828432, 49.800774], [5.828333, 49.800705], [5.828264, 49.800644], [5.828119, 49.80055], [5.828081, 49.800526], [5.828077, 49.800503], [5.8281, 49.800465], [5.828131, 49.800446], [5.828138, 49.800423], [5.828119, 49.80039], [5.828081, 49.800354], [5.828077, 49.80034], [5.828077, 49.800316], [5.828024, 49.800278], [5.827986, 49.800232], [5.827967, 49.800194], [5.827959, 49.8001], [5.827932, 49.80004], [5.827879, 49.799995], [5.82786, 49.79997], [5.827856, 49.79995], [5.827867, 49.799904], [5.827875, 49.799866], [5.827848, 49.79984], [5.827784, 49.799816], [5.827761, 49.799805], [5.827738, 49.799778], [5.82773, 49.79974], [5.827677, 49.7997], [5.827661, 49.799675], [5.827635, 49.799625], [5.827581, 49.799587], [5.827562, 49.799564], [5.827547, 49.79955], [5.827494, 49.79951], [5.827471, 49.79948], [5.827459, 49.79945], [5.827436, 49.79941], [5.827417, 49.799385], [5.827372, 49.79936], [5.82728, 49.799328], [5.827238, 49.799263], [5.827158, 49.799194], [5.827146, 49.79918], [5.827143, 49.799156], [5.827146, 49.799118], [5.827127, 49.79902], [5.827112, 49.798897], [5.827105, 49.798862], [5.827108, 49.798847], [5.827124, 49.79882], [5.827135, 49.798794], [5.827143, 49.798748], [5.827139, 49.79871], [5.827127, 49.79867], [5.827112, 49.79863], [5.827131, 49.798576], [5.827158, 49.798534], [5.827177, 49.7985], [5.827189, 49.798477], [5.827189, 49.798454], [5.827181, 49.79842], [5.827177, 49.798397], [5.827177, 49.79838], [5.827192, 49.79835], [5.82723, 49.798294], [5.827295, 49.798183], [5.827311, 49.798153], [5.827322, 49.79811], [5.827341, 49.79806], [5.827364, 49.798023], [5.827417, 49.797962], [5.827478, 49.797863], [5.827501, 49.797806], [5.827528, 49.7977], [5.827566, 49.797634], [5.827597, 49.79756], [5.82762, 49.79751], [5.827646, 49.79746], [5.827688, 49.79741], [5.827707, 49.79739], [5.827745, 49.797325], [5.827799, 49.79722], [5.827826, 49.797146], [5.82786, 49.797054], [5.827875, 49.797028], [5.827917, 49.796986], [5.827986, 49.79693], [5.828035, 49.796883], [5.828047, 49.79686], [5.828031, 49.796837], [5.828203, 49.79653], [5.828302, 49.796337], [5.828348, 49.796215], [5.828417, 49.795982], [5.828424, 49.79589], [5.828451, 49.79588], [5.828806, 49.79568], [5.828962, 49.79558], [5.829161, 49.79544], [5.829275, 49.795353], [5.829382, 49.795235], [5.829584, 49.794994], [5.829691, 49.794838], [5.829706, 49.794792], [5.829714, 49.794765], [5.829718, 49.79473], [5.829721, 49.794632], [5.829725, 49.794506], [5.829718, 49.79429], [5.829721, 49.794254], [5.829729, 49.794167], [5.82974, 49.794132], [5.829767, 49.79409], [5.829783, 49.794064], [5.829828, 49.794006], [5.829943, 49.793896], [5.830137, 49.793697], [5.829954, 49.793594], [5.829828, 49.793552], [5.830637, 49.793205], [5.831182, 49.792965], [5.831354, 49.79289], [5.831686, 49.79272], [5.831606, 49.792633], [5.831472, 49.792477], [5.831457, 49.79246], [5.831331, 49.792316], [5.831205, 49.792168], [5.831175, 49.792137], [5.831026, 49.79197], [5.83098, 49.791916], [5.830938, 49.791798], [5.830889, 49.79164], [5.830755, 49.79125], [5.830736, 49.791172], [5.830694, 49.79098], [5.830954, 49.790947], [5.830885, 49.7906], [5.830565, 49.790638], [5.830336, 49.79067], [5.830336, 49.790657], [5.830328, 49.79052], [5.830328, 49.790375], [5.830336, 49.79023], [5.830332, 49.79], [5.830324, 49.789898], [5.830313, 49.7898], [5.830282, 49.78963], [5.830244, 49.789497], [5.830221, 49.789425], [5.830206, 49.78934], [5.830198, 49.78926], [5.830198, 49.789116], [5.830343, 49.789074], [5.830511, 49.789024], [5.830641, 49.788975], [5.830423, 49.78898], [5.830168, 49.788975], [5.829935, 49.788967], [5.829843, 49.788883], [5.829767, 49.788803], [5.82974, 49.788776], [5.829672, 49.788692], [5.829653, 49.78866], [5.829592, 49.788532], [5.829535, 49.788376], [5.829516, 49.788303], [5.8295, 49.78813], [5.829481, 49.788067], [5.829462, 49.78803], [5.829443, 49.787983], [5.82939, 49.787907], [5.829565, 49.787704], [5.829546, 49.787567], [5.829512, 49.787357], [5.829508, 49.78734], [5.8295, 49.787315], [5.829504, 49.78728], [5.829546, 49.78715], [5.829615, 49.786907], [5.829668, 49.786617], [5.829443, 49.78657], [5.829554, 49.786373], [5.829542, 49.786343], [5.829691, 49.786213], [5.829885, 49.786034], [5.830133, 49.785824], [5.830309, 49.785686], [5.830484, 49.78557], [5.83066, 49.785492], [5.830813, 49.785427], [5.83069, 49.785362], [5.830561, 49.785286], [5.830412, 49.78521], [5.830298, 49.78516], [5.830107, 49.78509], [5.829962, 49.785046], [5.829874, 49.785007], [5.83058, 49.78478], [5.831545, 49.78464], [5.832171, 49.784576], [5.832415, 49.784557], [5.832991, 49.784527], [5.833326, 49.78452], [5.833822, 49.784523], [5.834112, 49.784527], [5.834452, 49.784534], [5.834997, 49.784542], [5.83555, 49.784546], [5.836065, 49.784542], [5.836157, 49.78455], [5.836306, 49.784554], [5.836294, 49.78448], [5.836294, 49.784462], [5.836474, 49.784363], [5.836622, 49.784256], [5.836706, 49.78418], [5.836775, 49.78409], [5.836832, 49.78399], [5.836878, 49.783848], [5.836977, 49.78355], [5.837057, 49.783333], [5.837107, 49.783207], [5.837153, 49.783115], [5.837229, 49.782978], [5.837297, 49.78287], [5.837374, 49.782764], [5.837416, 49.782722], [5.837526, 49.78264], [5.837591, 49.78258], [5.837648, 49.782524], [5.837709, 49.782455], [5.837763, 49.782383], [5.837961, 49.782135], [5.838072, 49.78199], [5.838236, 49.781788], [5.838411, 49.781574], [5.838465, 49.781506], [5.83851, 49.781425], [5.838564, 49.78132], [5.838659, 49.781116], [5.838781, 49.78085], [5.838865, 49.780655], [5.838968, 49.78045], [5.839178, 49.780106], [5.839216, 49.780117], [5.839437, 49.780167], [5.839312, 49.780487], [5.839933, 49.78063], [5.840296, 49.780712], [5.840555, 49.780777], [5.840948, 49.78087], [5.841093, 49.780533], [5.842527, 49.780884], [5.842558, 49.78089], [5.842669, 49.780823], [5.84289, 49.780712], [5.843092, 49.78065], [5.843596, 49.78051], [5.844301, 49.780315], [5.844725, 49.780193], [5.845373, 49.78001], [5.846064, 49.77982], [5.846228, 49.77977], [5.846388, 49.779716], [5.84664, 49.779613], [5.847368, 49.779297], [5.847635, 49.779163], [5.847784, 49.779087], [5.848074, 49.77892], [5.848257, 49.7788], [5.848425, 49.778706], [5.848608, 49.778614], [5.84878, 49.778534], [5.848913, 49.778473], [5.849222, 49.778378], [5.84936, 49.77834], [5.849546, 49.778297], [5.849703, 49.778263], [5.849829, 49.778233], [5.849909, 49.77821], [5.850039, 49.77816], [5.850203, 49.77809], [5.850412, 49.778008], [5.850649, 49.777943], [5.850889, 49.77788], [5.851255, 49.77778], [5.8519, 49.777588], [5.8524, 49.77744], [5.852808, 49.77732], [5.85319, 49.77721], [5.85351, 49.777126], [5.853819, 49.77705], [5.854075, 49.776974], [5.854258, 49.776917], [5.854338, 49.776886], [5.854502, 49.776825], [5.854635, 49.776764], [5.854925, 49.776627], [5.855509, 49.77639], [5.855677, 49.776295], [5.855806, 49.776207], [5.855902, 49.776123], [5.856104, 49.7759], [5.856138, 49.775864], [5.856272, 49.775734], [5.856371, 49.77566], [5.856512, 49.775585], [5.856665, 49.775513], [5.856997, 49.775383], [5.857286, 49.775272], [5.857664, 49.775124], [5.85779, 49.77507], [5.858084, 49.77493], [5.858633, 49.77466], [5.858999, 49.77446], [5.859266, 49.77431], [5.859247, 49.774303], [5.859014, 49.774193], [5.858934, 49.77415], [5.858988, 49.774063], [5.858999, 49.774048], [5.859156, 49.773777], [5.859247, 49.773617], [5.859346, 49.773426], [5.859407, 49.773304], [5.859469, 49.77316], [5.859518, 49.773026], [5.859549, 49.77291], [5.859602, 49.772717], [5.859663, 49.77242], [5.859968, 49.772392], [5.859991, 49.772392], [5.861071, 49.772297], [5.862169, 49.772205], [5.862211, 49.7722], [5.86289, 49.77214], [5.86294, 49.772137], [5.863295, 49.772106], [5.863451, 49.772095], [5.863642, 49.77208], [5.863989, 49.77205], [5.864023, 49.771687], [5.864058, 49.771534], [5.864103, 49.771366], [5.864283, 49.770805], [5.863859, 49.77073], [5.863676, 49.770702], [5.863588, 49.770695], [5.8636, 49.770584], [5.863646, 49.770275], [5.863699, 49.769974], [5.863745, 49.769672], [5.864237, 49.76973], [5.864702, 49.769814], [5.865225, 49.76995], [5.865236, 49.769955], [5.865847, 49.770138], [5.865953, 49.769928], [5.866129, 49.76957], [5.866247, 49.769337], [5.866377, 49.769096], [5.866503, 49.76885], [5.866049, 49.76872], [5.865946, 49.768692], [5.865614, 49.7686], [5.86611, 49.767765], [5.865828, 49.76775], [5.865366, 49.767727], [5.864023, 49.76765], [5.863775, 49.767647], [5.863234, 49.767654], [5.863218, 49.767628], [5.863337, 49.76755], [5.863829, 49.767277], [5.864672, 49.766808], [5.864683, 49.766716], [5.864695, 49.766666], [5.865259, 49.76671], [5.865274, 49.766735], [5.865583, 49.766758], [5.866545, 49.76681], [5.866636, 49.766697], [5.866655, 49.76667], [5.866789, 49.7665], [5.866839, 49.766438], [5.86693, 49.766315], [5.867033, 49.766186], [5.867247, 49.765915], [5.867037, 49.765846], [5.86685, 49.76579], [5.866732, 49.765747], [5.866697, 49.765736], [5.866796, 49.76561], [5.866842, 49.76555], [5.866915, 49.76546], [5.866884, 49.765408], [5.86817, 49.765667], [5.868784, 49.765747], [5.868963, 49.765724], [5.869139, 49.76571], [5.869211, 49.765697], [5.869303, 49.765682], [5.869417, 49.765682], [5.86949, 49.765694], [5.869581, 49.765713], [5.869593, 49.765663], [5.86968, 49.76537], [5.869677, 49.765305], [5.869921, 49.76529], [5.869978, 49.765278], [5.870024, 49.765247], [5.870027, 49.7652], [5.869932, 49.764957], [5.869867, 49.76485], [5.869837, 49.76479], [5.869825, 49.764748], [5.869841, 49.764717], [5.869875, 49.76469], [5.869898, 49.764675], [5.869909, 49.764626], [5.870401, 49.763836], [5.870287, 49.763763], [5.87023, 49.763725], [5.869951, 49.76361], [5.869799, 49.763554], [5.869635, 49.763496], [5.869585, 49.763477], [5.869379, 49.76342], [5.869059, 49.763336], [5.868689, 49.76324], [5.868513, 49.76332], [5.868158, 49.763313], [5.867888, 49.763298], [5.867922, 49.763157], [5.867952, 49.763046], [5.868025, 49.762722], [5.868036, 49.76259], [5.868177, 49.76259], [5.868795, 49.76258], [5.868982, 49.76259], [5.869467, 49.7626], [5.869497, 49.7626], [5.869509, 49.762604], [5.869669, 49.762394], [5.869741, 49.76229], [5.86978, 49.762207], [5.869661, 49.7622], [5.868902, 49.76217], [5.86886, 49.76217], [5.868158, 49.762127], [5.867464, 49.76208], [5.867258, 49.76207], [5.867258, 49.7618], [5.867159, 49.7618], [5.866915, 49.76179], [5.866789, 49.761787], [5.866384, 49.76177], [5.865854, 49.76174], [5.865583, 49.761723], [5.865549, 49.76172], [5.864965, 49.76169], [5.864969, 49.76165], [5.864973, 49.76163], [5.865065, 49.761326], [5.865141, 49.761066], [5.865065, 49.76106], [5.864813, 49.761032], [5.864508, 49.761005], [5.864328, 49.760994], [5.863882, 49.760963], [5.863962, 49.760788], [5.864149, 49.76046], [5.864054, 49.760426], [5.863905, 49.76037], [5.863691, 49.760284], [5.86352, 49.760216], [5.863344, 49.760136], [5.863203, 49.76007], [5.862955, 49.75983], [5.862917, 49.75979], [5.862898, 49.75976], [5.862822, 49.759613], [5.862734, 49.75941], [5.863211, 49.758953], [5.863619, 49.758595], [5.864206, 49.75806], [5.864428, 49.7579], [5.864874, 49.75758], [5.865065, 49.757133], [5.865187, 49.756866], [5.865461, 49.756535], [5.865576, 49.75639], [5.865988, 49.755844], [5.866045, 49.75577], [5.866243, 49.755554], [5.866499, 49.755283], [5.86659, 49.754963], [5.866667, 49.75473], [5.866713, 49.754585], [5.866846, 49.754284], [5.867075, 49.753784], [5.867151, 49.753597], [5.867189, 49.753567], [5.868124, 49.754135], [5.868174, 49.754097], [5.868418, 49.753826], [5.868803, 49.753395], [5.869188, 49.75303], [5.86933, 49.7529], [5.869432, 49.752796], [5.869574, 49.752632], [5.870047, 49.752056], [5.870176, 49.751457], [5.86875, 49.75109], [5.868692, 49.751057], [5.868757, 49.75101], [5.86706, 49.75027], [5.867006, 49.750248], [5.865995, 49.750946], [5.865942, 49.750923], [5.865065, 49.75059], [5.864416, 49.750347], [5.864851, 49.749897], [5.864065, 49.74955], [5.863535, 49.749317], [5.863089, 49.749847], [5.862421, 49.75063], [5.862394, 49.75066], [5.862131, 49.75049], [5.86199, 49.75038], [5.861971, 49.75042], [5.861814, 49.750904], [5.861837, 49.751427], [5.861837, 49.751453], [5.861589, 49.751427], [5.861387, 49.751396], [5.861212, 49.75137], [5.861025, 49.751328], [5.860231, 49.751072], [5.85951, 49.75065], [5.85906, 49.75035], [5.858774, 49.750183], [5.858583, 49.750084], [5.857874, 49.74993], [5.857657, 49.749954], [5.857534, 49.749954], [5.857435, 49.74995], [5.857325, 49.749935], [5.857271, 49.74993], [5.857134, 49.74993], [5.85692, 49.749943], [5.856833, 49.74978], [5.856634, 49.749783], [5.856459, 49.749733], [5.856314, 49.74971], [5.856195, 49.749687], [5.855959, 49.749615], [5.85578, 49.74959], [5.855715, 49.749584], [5.855692, 49.74958], [5.855665, 49.74958], [5.855642, 49.749588], [5.855604, 49.749622], [5.855585, 49.749634], [5.855562, 49.74963], [5.855524, 49.749596], [5.85549, 49.749596], [5.855463, 49.749603], [5.855448, 49.749622], [5.855417, 49.749657], [5.855383, 49.749672], [5.855318, 49.749683], [5.855223, 49.749687], [5.855146, 49.749687], [5.855082, 49.749664], [5.854967, 49.749615], [5.854975, 49.749603], [5.854929, 49.749584], [5.85483, 49.74956], [5.854673, 49.749542], [5.854349, 49.74952], [5.85409, 49.749485], [5.853937, 49.749454], [5.853853, 49.749428], [5.853765, 49.749393], [5.85346, 49.749233], [5.852964, 49.749065], [5.852758, 49.749], [5.85272, 49.74899], [5.852423, 49.748882], [5.852064, 49.748753], [5.851625, 49.748577], [5.851606, 49.748566], [5.851114, 49.74832], [5.851061, 49.7483], [5.850489, 49.74804], [5.850481, 49.7473], [5.850515, 49.74679], [5.85039, 49.74652], [5.850214, 49.746376], [5.85008, 49.746277], [5.849447, 49.74618], [5.849203, 49.74619], [5.848982, 49.746212], [5.847738, 49.746353], [5.847555, 49.746326], [5.847368, 49.7463], [5.847242, 49.74628], [5.846849, 49.746223], [5.846388, 49.746155], [5.845892, 49.746098], [5.845411, 49.74604], [5.84498, 49.746], [5.844866, 49.74599], [5.844835, 49.74599], [5.844759, 49.745995], [5.844793, 49.74607], [5.844152, 49.7462], [5.84371, 49.746292], [5.843344, 49.746365], [5.843313, 49.746346], [5.843279, 49.746338], [5.843256, 49.74634], [5.843245, 49.746353], [5.843241, 49.746387], [5.843233, 49.746403], [5.843199, 49.746414], [5.843164, 49.74642], [5.843142, 49.74643], [5.843115, 49.746452], [5.843096, 49.74648], [5.843073, 49.746494], [5.843042, 49.7465], [5.843012, 49.7465], [5.842974, 49.74649], [5.84292, 49.74647], [5.842886, 49.746468], [5.842852, 49.746475], [5.842829, 49.746483], [5.842806, 49.74649], [5.842775, 49.746487], [5.842726, 49.746475], [5.842695, 49.746464], [5.842661, 49.74646], [5.842638, 49.746464], [5.842619, 49.74647], [5.842607, 49.746483], [5.842588, 49.746494], [5.842554, 49.7465], [5.842527, 49.746494], [5.842485, 49.74648], [5.84244, 49.746475], [5.842398, 49.746475], [5.842363, 49.74648], [5.842337, 49.74649], [5.842325, 49.7465], [5.842325, 49.746517], [5.842318, 49.74653], [5.842302, 49.74653], [5.842279, 49.746517], [5.842264, 49.7465], [5.842257, 49.74648], [5.842241, 49.746468], [5.842222, 49.746468], [5.842203, 49.74647], [5.842184, 49.74648], [5.842176, 49.746494], [5.842169, 49.746536], [5.842154, 49.746544], [5.842131, 49.74654], [5.842089, 49.746517], [5.842058, 49.746506], [5.842028, 49.7465], [5.842005, 49.7465], [5.841986, 49.746502], [5.841928, 49.746517], [5.841883, 49.74653], [5.841848, 49.746532], [5.841822, 49.746525], [5.841799, 49.746513], [5.841787, 49.7465], [5.841768, 49.74649], [5.841745, 49.746487], [5.841726, 49.74649], [5.841707, 49.746513], [5.84165, 49.746346], [5.841612, 49.746227], [5.841589, 49.7461], [5.841574, 49.745846], [5.841566, 49.74578], [5.841547, 49.745644], [5.841532, 49.74555], [5.841513, 49.745483], [5.841387, 49.74516], [5.8412, 49.744698], [5.841135, 49.744526], [5.840429, 49.744446], [5.840071, 49.74441], [5.839838, 49.7444], [5.838842, 49.74439], [5.838758, 49.744377], [5.838049, 49.744255], [5.837545, 49.744175], [5.83742, 49.744556], [5.837278, 49.74484], [5.837221, 49.74519], [5.837179, 49.745426], [5.837126, 49.745705], [5.837072, 49.745926], [5.836988, 49.74626], [5.836916, 49.746265], [5.836882, 49.74626], [5.836775, 49.74623], [5.836714, 49.746223], [5.836657, 49.746223], [5.836599, 49.746227], [5.836527, 49.746235], [5.836447, 49.746227], [5.836401, 49.746223], [5.836367, 49.746223], [5.836336, 49.74623], [5.836294, 49.746254], [5.836267, 49.74626], [5.836229, 49.746265], [5.836157, 49.746265], [5.83613, 49.74626], [5.836016, 49.746246], [5.835909, 49.746216], [5.83581, 49.746197], [5.835775, 49.746178], [5.83576, 49.746155], [5.835768, 49.746136], [5.835787, 49.746098], [5.835791, 49.746082], [5.835775, 49.746075], [5.835752, 49.746075], [5.835733, 49.746086], [5.835718, 49.746098], [5.835703, 49.746094], [5.835684, 49.746086], [5.835665, 49.74606], [5.835669, 49.746025], [5.835661, 49.74601], [5.835642, 49.746006], [5.835623, 49.746014], [5.835562, 49.74605], [5.835535, 49.746063], [5.835451, 49.746063], [5.835409, 49.74607], [5.835363, 49.74609], [5.835318, 49.746098], [5.835272, 49.746094], [5.835222, 49.746086], [5.835146, 49.74605], [5.835096, 49.74603], [5.83502, 49.746014], [5.834982, 49.745995], [5.834974, 49.745983], [5.834989, 49.745956], [5.835012, 49.745926], [5.835016, 49.74591], [5.835009, 49.7459], [5.834989, 49.74589], [5.834967, 49.74589], [5.834913, 49.74591], [5.834887, 49.745914], [5.834867, 49.74591], [5.834845, 49.7459], [5.834829, 49.74587], [5.834822, 49.74585], [5.834791, 49.745834], [5.834722, 49.74582], [5.834646, 49.745792], [5.834574, 49.74576], [5.83452, 49.74573], [5.834429, 49.74569], [5.834349, 49.745663], [5.834307, 49.745655], [5.834249, 49.74565], [5.834219, 49.74565], [5.8342, 49.74566], [5.834188, 49.74567], [5.834188, 49.74569], [5.834192, 49.74572], [5.834188, 49.74573], [5.834169, 49.74574], [5.834131, 49.745743], [5.834101, 49.745735], [5.83388, 49.745625], [5.833822, 49.7456], [5.833757, 49.745583], [5.833715, 49.745575], [5.833693, 49.74557], [5.833654, 49.745564], [5.833624, 49.74554], [5.833612, 49.74551], [5.833612, 49.74548], [5.833597, 49.74546], [5.833571, 49.745445], [5.833551, 49.74544], [5.833494, 49.74543], [5.833464, 49.745426], [5.833326, 49.745403], [5.833181, 49.745365], [5.833094, 49.74534], [5.83301, 49.74531], [5.832926, 49.745266], [5.832815, 49.7452], [5.832769, 49.74518], [5.832712, 49.745163], [5.832651, 49.745155], [5.832586, 49.745155], [5.832518, 49.745163], [5.832468, 49.745163], [5.832445, 49.74516], [5.832376, 49.745144], [5.832331, 49.74514], [5.832277, 49.745148], [5.832243, 49.74515], [5.832205, 49.745148], [5.832067, 49.745106], [5.832026, 49.7451], [5.831987, 49.745102], [5.831942, 49.745113], [5.831911, 49.74513], [5.831877, 49.74515], [5.831827, 49.74519], [5.831778, 49.74522], [5.831716, 49.74524], [5.831648, 49.74526], [5.831606, 49.745262], [5.831556, 49.745262], [5.831511, 49.745255], [5.831472, 49.745243], [5.832403, 49.746864], [5.832434, 49.746925], [5.832239, 49.74716], [5.832087, 49.74733], [5.832083, 49.74741], [5.831907, 49.747673], [5.831686, 49.747803], [5.831602, 49.74782], [5.831106, 49.748333], [5.830915, 49.748535], [5.830858, 49.748608], [5.830828, 49.748665], [5.830755, 49.74895], [5.830629, 49.74939], [5.830603, 49.74947], [5.830561, 49.749546], [5.830465, 49.749615], [5.830313, 49.74968], [5.830088, 49.749752], [5.829615, 49.749855], [5.829172, 49.74997], [5.828951, 49.750046], [5.828886, 49.750088], [5.828741, 49.75008], [5.828608, 49.750076], [5.828493, 49.750084], [5.828383, 49.750095], [5.828257, 49.75011], [5.828169, 49.75014], [5.828058, 49.750187], [5.828001, 49.750225], [5.827978, 49.750256], [5.827848, 49.750256], [5.827723, 49.75026], [5.827704, 49.750233], [5.827692, 49.750175], [5.82704, 49.75002], [5.825323, 49.749615], [5.824621, 49.749447], [5.82419, 49.749348], [5.824026, 49.749317], [5.82398, 49.749317], [5.823805, 49.74936], [5.823584, 49.74938], [5.823458, 49.749397], [5.823252, 49.74943], [5.823019, 49.74947], [5.822844, 49.74963], [5.82263, 49.74986], [5.822535, 49.749973], [5.822454, 49.75006], [5.82234, 49.75017], [5.822264, 49.75024], [5.821917, 49.7505], [5.821772, 49.750595], [5.821394, 49.750847], [5.821333, 49.75088], [5.821215, 49.75094], [5.8211, 49.750984], [5.820879, 49.751064], [5.82073, 49.751125], [5.820639, 49.751163], [5.820459, 49.751266], [5.820467, 49.751328], [5.820555, 49.751793], [5.820631, 49.752148], [5.820707, 49.75252], [5.82086, 49.753258], [5.82065, 49.75336], [5.82044, 49.75346], [5.820311, 49.753513], [5.820116, 49.753586], [5.819967, 49.75364], [5.819792, 49.753693], [5.81962, 49.753727], [5.819513, 49.753742], [5.819155, 49.75379], [5.819101, 49.7538], [5.819006, 49.753815], [5.81883, 49.753845], [5.818701, 49.753864], [5.818224, 49.75393], [5.81785, 49.753975], [5.817911, 49.754726], [5.817751, 49.755146], [5.81774, 49.75517], [5.817728, 49.755196], [5.817251, 49.75642], [5.816694, 49.757862], [5.816633, 49.758015], [5.816576, 49.758274], [5.816542, 49.758488], [5.816484, 49.758797], [5.816481, 49.758823], [5.816473, 49.758865], [5.816412, 49.759327], [5.816339, 49.75984], [5.816259, 49.760307], [5.816194, 49.76073], [5.816099, 49.761333], [5.816069, 49.76154], [5.816034, 49.761757], [5.815973, 49.762207], [5.814878, 49.762894], [5.814531, 49.763107], [5.814482, 49.763145], [5.814333, 49.76324], [5.813841, 49.76357], [5.813551, 49.763756], [5.81341, 49.763847], [5.812796, 49.76425], [5.812635, 49.76436], [5.812513, 49.76444], [5.812376, 49.764526], [5.812185, 49.764652], [5.811926, 49.76482], [5.811628, 49.76501], [5.811411, 49.765156], [5.811113, 49.765354], [5.811045, 49.765354], [5.810648, 49.765347], [5.809446, 49.76533], [5.809114, 49.76602], [5.808977, 49.7663], [5.808851, 49.766544], [5.808641, 49.766987], [5.808618, 49.76702], [5.80863, 49.767082], [5.808645, 49.7672], [5.80866, 49.76733], [5.808649, 49.767532], [5.808638, 49.767654], [5.80863, 49.767708], [5.808618, 49.76773], [5.808577, 49.76782], [5.808531, 49.767895], [5.80846, 49.767975], [5.808439, 49.767998], [5.808382, 49.76807], [5.808329, 49.76814], [5.808287, 49.768208], [5.808249, 49.768284], [5.808229, 49.768328], [5.808203, 49.768387], [5.808184, 49.768456], [5.808172, 49.768524], [5.80816, 49.768613], [5.808142, 49.768757], [5.808123, 49.768894], [5.8081, 49.76902], [5.80809, 49.769181], [5.808046, 49.769234], [5.807997, 49.769405], [5.80792, 49.769615], [5.807836, 49.769855], [5.807836, 49.769917], [5.80784, 49.770103], [5.80784, 49.77027], [5.807829, 49.77042], [5.807817, 49.770535], [5.807772, 49.770836], [5.807749, 49.770958], [5.807707, 49.77117], [5.80765, 49.771507], [5.807634, 49.7716], [5.807577, 49.771843], [5.807539, 49.771942], [5.807501, 49.772026], [5.807428, 49.772156], [5.807321, 49.772335], [5.807238, 49.772465], [5.807104, 49.772602], [5.80691, 49.77279], [5.806742, 49.77296], [5.806551, 49.77316], [5.806452, 49.773266], [5.806356, 49.77338], [5.806185, 49.7736], [5.80599, 49.773865], [5.805868, 49.774002], [5.80575, 49.774124], [5.80559, 49.774277], [5.805468, 49.774384], [5.805334, 49.774494], [5.80525, 49.77458], [5.805132, 49.77472], [5.804861, 49.775105], [5.804606, 49.77551], [5.804209, 49.77607], [5.804144, 49.77616], [5.804056, 49.77625], [5.804007, 49.77629], [5.8039, 49.77636], [5.803678, 49.77648], [5.803431, 49.776604], [5.803217, 49.776672], [5.802813, 49.77679], [5.802156, 49.77699], [5.801806, 49.777103], [5.800913, 49.777393], [5.800211, 49.777596], [5.799986, 49.777668], [5.799887, 49.77771], [5.799624, 49.777878], [5.799501, 49.777973], [5.799429, 49.778065], [5.799395, 49.778175], [5.799364, 49.778366], [5.799334, 49.77851], [5.799223, 49.77892], [5.799143, 49.779335], [5.799044, 49.779728], [5.798994, 49.779892], [5.798964, 49.780163], [5.798941, 49.780434], [5.798914, 49.780617], [5.798864, 49.780796], [5.798731, 49.78118], [5.798582, 49.781544], [5.798468, 49.781834], [5.798426, 49.781902], [5.798384, 49.78195], [5.798048, 49.782345], [5.797663, 49.78262], [5.797422, 49.78284], [5.797087, 49.783146], [5.79656, 49.783485], [5.795796, 49.783868], [5.795252, 49.784267], [5.794817, 49.784527], [5.794658, 49.784631], [5.794519, 49.784904], [5.794485, 49.78495], [5.794435, 49.785], [5.793726, 49.78559], [5.792959, 49.786224], [5.792299, 49.78679], [5.79204, 49.787014], [5.791929, 49.787132], [5.791857, 49.787243], [5.791727, 49.787502], [5.791647, 49.78773], [5.791628, 49.787834]]]]}}]}