{"type": "FeatureCollection", "features": [{"type": "Feature", "properties": {"name": "Mertzig"}, "geometry": {"type": "MultiPolygon", "coordinates": [[[[5.97019, 49.843147], [5.970423, 49.84346], [5.970751, 49.843918], [5.970858, 49.84406], [5.971132, 49.844517], [5.971212, 49.844807], [5.971289, 49.845116], [5.971499, 49.845527], [5.971804, 49.84552], [5.972074, 49.845516], [5.972429, 49.84551], [5.973162, 49.845512], [5.973371, 49.8455], [5.973578, 49.845478], [5.973585, 49.845497], [5.973684, 49.845844], [5.973803, 49.846184], [5.973967, 49.846413], [5.974028, 49.84651], [5.974222, 49.846916], [5.974329, 49.847164], [5.974581, 49.847168], [5.97476, 49.847164], [5.974958, 49.847145], [5.975031, 49.84713], [5.975103, 49.84712], [5.975317, 49.847054], [5.975485, 49.84698], [5.975889, 49.846874], [5.976118, 49.846836], [5.976198, 49.84683], [5.976244, 49.846825], [5.976343, 49.846825], [5.976404, 49.846817], [5.976423, 49.846813], [5.976538, 49.846794], [5.976683, 49.84675], [5.976789, 49.846714], [5.976866, 49.84669], [5.977068, 49.846634], [5.977129, 49.84661], [5.977434, 49.84647], [5.977468, 49.846455], [5.977583, 49.84641], [5.977629, 49.84639], [5.977835, 49.846336], [5.977983, 49.846294], [5.978025, 49.846287], [5.978701, 49.846138], [5.978773, 49.846264], [5.978838, 49.846256], [5.97891, 49.846252], [5.979002, 49.846245], [5.979738, 49.8462], [5.980612, 49.846115], [5.981066, 49.84614], [5.98131, 49.846153], [5.981577, 49.846165], [5.981867, 49.846165], [5.982122, 49.84616], [5.982206, 49.846138], [5.982092, 49.845905], [5.982244, 49.84588], [5.982485, 49.845833], [5.982698, 49.845783], [5.982984, 49.8457], [5.983137, 49.84565], [5.983454, 49.84554], [5.983465, 49.845524], [5.983633, 49.845585], [5.98377, 49.845623], [5.983885, 49.84565], [5.983988, 49.845665], [5.984083, 49.845676], [5.98424, 49.845684], [5.984354, 49.845676], [5.984484, 49.845665], [5.984606, 49.84565], [5.984617, 49.845676], [5.98461, 49.845753], [5.984697, 49.845985], [5.984987, 49.84592], [5.985212, 49.846188], [5.98522, 49.8462], [5.985392, 49.846195], [5.985468, 49.84619], [5.985746, 49.846184], [5.985781, 49.84618], [5.985811, 49.846115], [5.985853, 49.846046], [5.985937, 49.84594], [5.985979, 49.845936], [5.986025, 49.84593], [5.986109, 49.84588], [5.986197, 49.84577], [5.986265, 49.845444], [5.98625, 49.84529], [5.986593, 49.84528], [5.986612, 49.84528], [5.986631, 49.845623], [5.986654, 49.845623], [5.987284, 49.84567], [5.987246, 49.84606], [5.987146, 49.846306], [5.987165, 49.846664], [5.987303, 49.846817], [5.987307, 49.846844], [5.987314, 49.84687], [5.987295, 49.84692], [5.987257, 49.84697], [5.987196, 49.847015], [5.987146, 49.84707], [5.98712, 49.8472], [5.98712, 49.847256], [5.987127, 49.84731], [5.98712, 49.84737], [5.987089, 49.84744], [5.986917, 49.84773], [5.986921, 49.847782], [5.986818, 49.847816], [5.986753, 49.847813], [5.986712, 49.847813], [5.986756, 49.847917], [5.98678, 49.847973], [5.986601, 49.84824], [5.986544, 49.848354], [5.986517, 49.848442], [5.986509, 49.848484], [5.986498, 49.84853], [5.986479, 49.848625], [5.986372, 49.848763], [5.986338, 49.848804], [5.986292, 49.848877], [5.986246, 49.848946], [5.986216, 49.849003], [5.986155, 49.849106], [5.986139, 49.849133], [5.986074, 49.84924], [5.986036, 49.849304], [5.986029, 49.849323], [5.985956, 49.849445], [5.985708, 49.849766], [5.985342, 49.850136], [5.985292, 49.85012], [5.985273, 49.850124], [5.985235, 49.850193], [5.985071, 49.850407], [5.984846, 49.850662], [5.984838, 49.850685], [5.984644, 49.850937], [5.984442, 49.85112], [5.984312, 49.851234], [5.984209, 49.85132], [5.984003, 49.851475], [5.983622, 49.851734], [5.983191, 49.85199], [5.983221, 49.85201], [5.982992, 49.852173], [5.982664, 49.8524], [5.982565, 49.85247], [5.982515, 49.852524], [5.982492, 49.85255], [5.98247, 49.852596], [5.982466, 49.85263], [5.982477, 49.852676], [5.982523, 49.852764], [5.982576, 49.85284], [5.982695, 49.852962], [5.983091, 49.85318], [5.983255, 49.85327], [5.98192, 49.853836], [5.982054, 49.853947], [5.982183, 49.854053], [5.982325, 49.85417], [5.98242, 49.85425], [5.982538, 49.85435], [5.982431, 49.854473], [5.982412, 49.854496], [5.982202, 49.854736], [5.98218, 49.854767], [5.982141, 49.85481], [5.982081, 49.854877], [5.982042, 49.85492], [5.981955, 49.85502], [5.981886, 49.8551], [5.981726, 49.85531], [5.981539, 49.855556], [5.981474, 49.85564], [5.981417, 49.85582], [5.98139, 49.855892], [5.981363, 49.856], [5.981348, 49.85615], [5.981268, 49.856216], [5.981707, 49.856213], [5.981844, 49.856228], [5.982122, 49.856262], [5.982199, 49.856274], [5.982313, 49.856293], [5.98239, 49.856308], [5.982481, 49.856327], [5.98258, 49.856354], [5.982717, 49.85639], [5.982962, 49.856472], [5.982988, 49.85648], [5.983175, 49.856544], [5.983206, 49.856552], [5.983442, 49.856632], [5.983561, 49.85667], [5.983778, 49.856743], [5.983854, 49.856762], [5.983904, 49.856773], [5.984232, 49.856853], [5.984579, 49.856926], [5.984823, 49.856964], [5.985086, 49.85701], [5.985182, 49.857025], [5.985586, 49.857105], [5.985907, 49.85715], [5.986349, 49.857254], [5.986376, 49.85726], [5.986769, 49.857376], [5.986792, 49.857315], [5.987104, 49.856525], [5.98707, 49.856464], [5.987234, 49.856052], [5.987333, 49.85577], [5.987471, 49.85549], [5.987719, 49.85515], [5.988462, 49.85404], [5.988657, 49.85379], [5.988985, 49.85348], [5.989279, 49.853287], [5.989828, 49.853012], [5.99056, 49.85266], [5.991159, 49.852356], [5.991548, 49.852142], [5.99235, 49.851738], [5.99254, 49.85161], [5.992662, 49.85156], [5.993025, 49.851463], [5.993254, 49.85142], [5.993536, 49.851368], [5.993704, 49.85133], [5.993875, 49.85128], [5.99407, 49.851208], [5.994215, 49.851147], [5.994326, 49.851086], [5.994406, 49.851032], [5.994501, 49.850952], [5.994616, 49.850838], [5.994673, 49.850784], [5.994711, 49.850758], [5.99478, 49.850727], [5.994902, 49.850685], [5.995146, 49.85061], [5.995344, 49.850563], [5.995604, 49.850513], [5.995832, 49.850483], [5.996714, 49.850372], [5.996851, 49.85036], [5.997503, 49.850334], [5.998072, 49.850296], [5.99835, 49.85028], [5.998648, 49.85025], [5.998816, 49.850224], [5.998907, 49.8502], [5.999285, 49.850044], [5.999704, 49.84988], [5.999899, 49.849823], [6.000059, 49.849785], [6.000357, 49.849762], [6.000475, 49.849747], [6.000711, 49.849686], [6.000971, 49.84958], [6.001577, 49.849335], [6.001776, 49.849277], [6.002054, 49.84923], [6.002581, 49.849133], [6.003565, 49.848995], [6.004, 49.848896], [6.004171, 49.848854], [6.004458, 49.84876], [6.004583, 49.848732], [6.004816, 49.8487], [6.004881, 49.84868], [6.005072, 49.84863], [6.005144, 49.84861], [6.005522, 49.848515], [6.006231, 49.84833], [6.006304, 49.848312], [6.006414, 49.848286], [6.006861, 49.848175], [6.007048, 49.848125], [6.007242, 49.84807], [6.007589, 49.847897], [6.00783, 49.84778], [6.007837, 49.847733], [6.007845, 49.847622], [6.007845, 49.847477], [6.007841, 49.84744], [6.00775, 49.846935], [6.007708, 49.846714], [6.007708, 49.84669], [6.007734, 49.846554], [6.007803, 49.846306], [6.007818, 49.846233], [6.007826, 49.84619], [6.007834, 49.846138], [6.007872, 49.845795], [6.007921, 49.845276], [6.007933, 49.84513], [6.008032, 49.845104], [6.008318, 49.845013], [6.008455, 49.844982], [6.008585, 49.844955], [6.008718, 49.844933], [6.009031, 49.844883], [6.009741, 49.844715], [6.010141, 49.844627], [6.010351, 49.844597], [6.010469, 49.844585], [6.010584, 49.844574], [6.01066, 49.844563], [6.010702, 49.84456], [6.010881, 49.844566], [6.011034, 49.844585], [6.011194, 49.844612], [6.011431, 49.84466], [6.011648, 49.84471], [6.012114, 49.84481], [6.012247, 49.84484], [6.012358, 49.844856], [6.012449, 49.844868], [6.012522, 49.84487], [6.012587, 49.844868], [6.012674, 49.844852], [6.013014, 49.844776], [6.013235, 49.844734], [6.013342, 49.844723], [6.013491, 49.84472], [6.013617, 49.84471], [6.013773, 49.844704], [6.013826, 49.844696], [6.014444, 49.844517], [6.015062, 49.844322], [6.015417, 49.8442], [6.015436, 49.84423], [6.015505, 49.844215], [6.016046, 49.84418], [6.016653, 49.843727], [6.016813, 49.843605], [6.016966, 49.84354], [6.017385, 49.843376], [6.017607, 49.843285], [6.017767, 49.843216], [6.017931, 49.843166], [6.018015, 49.843143], [6.01808, 49.84312], [6.018114, 49.8431], [6.018133, 49.843098], [6.018156, 49.8431], [6.018183, 49.843113], [6.018202, 49.843117], [6.018221, 49.843113], [6.018236, 49.843105], [6.01827, 49.843075], [6.01829, 49.843063], [6.01832, 49.843052], [6.018419, 49.84304], [6.018438, 49.843033], [6.018477, 49.843014], [6.018537, 49.84298], [6.018568, 49.842968], [6.018698, 49.842937], [6.018812, 49.84292], [6.018896, 49.842903], [6.018969, 49.842884], [6.019094, 49.842846], [6.019167, 49.84282], [6.019216, 49.842804], [6.019293, 49.842766], [6.01935, 49.842743], [6.019415, 49.842724], [6.019445, 49.842716], [6.019487, 49.84269], [6.019541, 49.842655], [6.019583, 49.84263], [6.019598, 49.842617], [6.019609, 49.842613], [6.019632, 49.842606], [6.019663, 49.842587], [6.019682, 49.842567], [6.019712, 49.84256], [6.019796, 49.842537], [6.019838, 49.842514], [6.019865, 49.842503], [6.019892, 49.842484], [6.019941, 49.84243], [6.019972, 49.84241], [6.020002, 49.842392], [6.020052, 49.84238], [6.020109, 49.84236], [6.02014, 49.842342], [6.020174, 49.84233], [6.020235, 49.84231], [6.020254, 49.8423], [6.020266, 49.84229], [6.020269, 49.842262], [6.020285, 49.842255], [6.020323, 49.842236], [6.020353, 49.84222], [6.020372, 49.842205], [6.020372, 49.842182], [6.02035, 49.842163], [6.020308, 49.842144], [6.020315, 49.842117], [6.020395, 49.842026], [6.020666, 49.841747], [6.020842, 49.84156], [6.020865, 49.841537], [6.02091, 49.841488], [6.021231, 49.841576], [6.021292, 49.84153], [6.021311, 49.84152], [6.021707, 49.841248], [6.021738, 49.841225], [6.021852, 49.84115], [6.02207, 49.841], [6.022291, 49.84085], [6.022348, 49.840813], [6.022448, 49.840744], [6.022524, 49.840694], [6.022558, 49.840668], [6.022745, 49.84053], [6.022833, 49.84053], [6.023058, 49.840546], [6.023241, 49.84057], [6.023371, 49.840588], [6.023516, 49.84062], [6.02368, 49.840668], [6.023836, 49.840725], [6.023928, 49.84076], [6.024034, 49.840805], [6.024225, 49.8409], [6.024725, 49.841152], [6.02474, 49.84112], [6.025221, 49.840687], [6.025549, 49.840385], [6.025362, 49.84032], [6.02556, 49.840233], [6.025686, 49.840176], [6.02611, 49.839993], [6.025885, 49.83989], [6.025694, 49.839806], [6.025888, 49.839706], [6.025789, 49.83966], [6.025663, 49.83959], [6.025576, 49.839535], [6.025599, 49.83953], [6.025709, 49.839504], [6.026125, 49.839405], [6.026941, 49.83924], [6.026579, 49.839016], [6.026571, 49.838856], [6.026465, 49.838814], [6.026594, 49.838593], [6.02611, 49.838192], [6.025934, 49.838055], [6.026033, 49.83802], [6.026194, 49.837967], [6.0263, 49.83793], [6.026407, 49.8379], [6.026518, 49.837864], [6.026575, 49.83785], [6.02664, 49.83783], [6.026697, 49.83781], [6.026766, 49.83779], [6.026911, 49.83775], [6.02706, 49.837708], [6.027247, 49.837654], [6.02746, 49.837597], [6.027498, 49.83759], [6.027685, 49.837543], [6.027872, 49.8375], [6.02804, 49.837463], [6.028082, 49.837456], [6.028295, 49.83741], [6.02857, 49.837357], [6.028814, 49.837627], [6.029074, 49.837917], [6.029215, 49.83805], [6.029325, 49.838146], [6.029459, 49.838238], [6.029676, 49.838375], [6.030054, 49.8386], [6.03021, 49.838463], [6.031199, 49.838974], [6.031259, 49.838917], [6.03137, 49.838806], [6.031481, 49.838703], [6.031813, 49.83838], [6.032167, 49.83825], [6.032354, 49.838326], [6.032404, 49.83822], [6.032419, 49.838184], [6.032538, 49.83791], [6.032549, 49.837883], [6.032587, 49.83778], [6.032644, 49.837612], [6.032694, 49.837452], [6.032705, 49.83742], [6.032717, 49.837383], [6.032793, 49.83712], [6.032812, 49.837048], [6.033106, 49.83674], [6.033487, 49.836338], [6.033739, 49.836075], [6.034052, 49.835735], [6.03409, 49.835625], [6.034102, 49.83559], [6.034136, 49.83545], [6.034174, 49.835304], [6.034205, 49.83531], [6.03459, 49.835373], [6.0347, 49.835392], [6.0348, 49.835407], [6.034891, 49.835423], [6.034986, 49.835438], [6.035082, 49.835457], [6.0352, 49.835472], [6.035547, 49.83553], [6.035601, 49.83555], [6.035768, 49.835556], [6.035959, 49.83556], [6.036135, 49.835552], [6.036291, 49.835533], [6.036478, 49.8355], [6.03665, 49.835457], [6.036982, 49.83538], [6.036982, 49.83535], [6.036974, 49.835186], [6.036982, 49.835106], [6.036989, 49.83507], [6.037024, 49.834923], [6.03705, 49.834843], [6.037092, 49.834724], [6.037157, 49.8346], [6.037188, 49.834553], [6.037256, 49.834454], [6.037367, 49.834335], [6.037539, 49.834175], [6.037744, 49.833984], [6.037958, 49.833805], [6.038012, 49.833763], [6.037607, 49.833538], [6.037668, 49.8334], [6.037844, 49.832916], [6.037943, 49.832664], [6.038107, 49.832634], [6.038237, 49.83218], [6.038431, 49.8315], [6.038576, 49.830975], [6.038755, 49.830296], [6.039103, 49.829536], [6.039263, 49.829197], [6.039492, 49.82882], [6.03974, 49.828423], [6.040159, 49.828053], [6.040407, 49.827843], [6.040823, 49.827347], [6.04112, 49.82699], [6.041376, 49.826687], [6.041555, 49.826477], [6.04035, 49.82609], [6.039473, 49.8256], [6.039091, 49.825397], [6.038721, 49.825203], [6.038412, 49.82504], [6.038199, 49.82493], [6.03789, 49.824764], [6.037714, 49.824665], [6.037493, 49.82459], [6.037203, 49.824486], [6.037115, 49.82453], [6.036959, 49.824615], [6.036661, 49.824783], [6.036482, 49.82489], [6.03591, 49.82522], [6.035223, 49.825615], [6.035116, 49.825676], [6.034895, 49.825806], [6.034395, 49.826103], [6.033983, 49.82635], [6.033285, 49.8261], [6.033129, 49.826458], [6.033117, 49.82654], [6.033079, 49.827225], [6.033369, 49.827824], [6.033487, 49.828156], [6.033579, 49.828403], [6.033747, 49.82863], [6.03377, 49.828922], [6.033854, 49.829285], [6.033831, 49.82957], [6.033835, 49.82969], [6.033854, 49.829792], [6.033915, 49.83024], [6.03393, 49.830364], [6.034052, 49.83065], [6.034391, 49.83157], [6.033865, 49.831512], [6.033415, 49.83145], [6.033091, 49.831398], [6.032629, 49.83131], [6.032358, 49.831257], [6.031847, 49.831154], [6.031488, 49.831074], [6.031019, 49.830956], [6.030363, 49.8308], [6.030184, 49.83076], [6.029764, 49.83069], [6.0282, 49.83039], [6.02804, 49.83036], [6.027166, 49.83018], [6.026926, 49.83013], [6.026751, 49.8301], [6.026754, 49.83009], [6.026937, 49.82979], [6.027098, 49.829517], [6.027227, 49.829407], [6.027533, 49.82915], [6.027693, 49.829006], [6.027868, 49.828827], [6.028112, 49.828552], [6.028307, 49.828323], [6.028494, 49.82813], [6.028662, 49.827953], [6.029051, 49.82758], [6.029196, 49.827446], [6.029283, 49.82738], [6.02936, 49.827316], [6.02944, 49.82722], [6.029478, 49.82717], [6.029489, 49.827156], [6.029543, 49.827084], [6.029631, 49.82697], [6.029738, 49.826828], [6.029882, 49.82669], [6.030092, 49.826485], [6.030348, 49.82621], [6.030558, 49.825836], [6.030039, 49.8254], [6.029974, 49.825344], [6.028833, 49.82556], [6.028723, 49.825542], [6.027868, 49.825703], [6.027002, 49.825874], [6.026926, 49.825905], [6.026483, 49.826214], [6.026274, 49.826344], [6.026106, 49.82643], [6.025854, 49.82653], [6.025835, 49.826515], [6.02556, 49.82629], [6.025339, 49.82611], [6.025061, 49.825897], [6.024744, 49.825676], [6.024176, 49.825264], [6.024065, 49.825443], [6.023867, 49.825787], [6.023519, 49.826366], [6.023176, 49.826942], [6.021948, 49.827118], [6.020876, 49.82704], [6.020597, 49.827045], [6.02006, 49.827057], [6.019751, 49.827065], [6.019117, 49.82708], [6.018461, 49.827076], [6.018526, 49.82684], [6.01832, 49.826523], [6.018236, 49.8264], [6.017885, 49.825905], [6.017439, 49.825863], [6.016867, 49.825825], [6.016748, 49.825806], [6.016558, 49.825768], [6.016451, 49.825745], [6.016211, 49.825695], [6.016104, 49.82567], [6.015509, 49.825558], [6.015249, 49.825447], [6.014963, 49.82523], [6.014643, 49.825], [6.014555, 49.824944], [6.014357, 49.824814], [6.014234, 49.824905], [6.013998, 49.824806], [6.013582, 49.82463], [6.013331, 49.824528], [6.013262, 49.824493], [6.013002, 49.82434], [6.012716, 49.824173], [6.01203, 49.823765], [6.012003, 49.823746], [6.011713, 49.823574], [6.011698, 49.823563], [6.011328, 49.82334], [6.011297, 49.823326], [6.010771, 49.823135], [6.010725, 49.823116], [6.010538, 49.823067], [6.010241, 49.823], [6.009981, 49.822956], [6.009951, 49.823006], [6.009775, 49.822983], [6.009714, 49.822952], [6.00968, 49.82291], [6.009657, 49.822895], [6.00963, 49.822884], [6.009569, 49.822884], [6.009516, 49.822887], [6.009478, 49.822884], [6.009455, 49.82288], [6.009436, 49.822884], [6.009417, 49.822895], [6.00939, 49.822918], [6.009375, 49.82293], [6.009352, 49.82293], [6.009314, 49.822926], [6.009287, 49.822914], [6.009264, 49.822914], [6.009226, 49.82293], [6.009199, 49.822933], [6.009161, 49.82293], [6.009146, 49.82293], [6.009134, 49.82294], [6.009111, 49.82295], [6.009066, 49.82295], [6.00905, 49.822952], [6.009028, 49.822952], [6.009001, 49.82295], [6.008966, 49.82294], [6.008936, 49.822937], [6.008905, 49.822926], [6.008879, 49.822914], [6.008818, 49.822865], [6.008787, 49.822853], [6.008764, 49.822857], [6.008745, 49.822845], [6.008692, 49.82283], [6.008646, 49.822823], [6.008616, 49.82282], [6.008585, 49.822826], [6.008558, 49.82283], [6.008543, 49.822838], [6.008528, 49.822845], [6.008501, 49.82287], [6.00847, 49.822884], [6.008436, 49.82289], [6.008406, 49.822903], [6.00839, 49.822918], [6.008364, 49.822933], [6.007784, 49.82294], [6.007685, 49.82294], [6.007624, 49.82292], [6.007547, 49.822926], [6.007513, 49.82292], [6.007471, 49.822914], [6.007391, 49.822914], [6.007338, 49.822906], [6.007223, 49.822914], [6.007189, 49.822918], [6.007155, 49.822914], [6.007116, 49.822906], [6.007067, 49.82289], [6.007036, 49.822884], [6.006998, 49.822887], [6.006975, 49.822895], [6.006956, 49.822903], [6.006933, 49.822906], [6.00688, 49.822903], [6.006788, 49.822895], [6.006746, 49.82289], [6.006712, 49.822903], [6.006678, 49.822903], [6.006636, 49.8229], [6.006586, 49.8229], [6.006544, 49.822903], [6.006491, 49.822906], [6.006456, 49.822906], [6.00635, 49.822884], [6.006296, 49.822865], [6.00625, 49.822865], [6.006197, 49.82287], [6.006163, 49.82287], [6.006117, 49.822857], [6.006082, 49.822857], [6.006006, 49.82287], [6.005968, 49.822872], [6.005922, 49.822884], [6.005873, 49.822903], [6.005846, 49.822865], [6.005835, 49.822845], [6.005808, 49.82281], [6.005701, 49.822662], [6.00567, 49.822613], [6.005632, 49.822536], [6.00556, 49.82238], [6.005522, 49.82228], [6.005499, 49.822193], [6.005491, 49.82202], [6.005735, 49.821896], [6.005129, 49.821724], [6.004488, 49.821568], [6.004282, 49.82147], [6.003901, 49.82129], [6.003771, 49.821198], [6.003752, 49.821182], [6.003691, 49.821133], [6.003595, 49.821053], [6.003435, 49.820904], [6.003305, 49.820778], [6.003218, 49.820694], [6.00305, 49.820526], [6.002928, 49.82041], [6.002871, 49.820366], [6.002817, 49.820335], [6.00268, 49.820267], [6.002508, 49.820183], [6.00242, 49.820145], [6.00231, 49.8201], [6.002211, 49.82007], [6.002077, 49.820026], [6.001867, 49.81996], [6.001314, 49.819805], [6.000898, 49.819683], [6.00041, 49.819542], [6.00046, 49.819454], [6.000464, 49.819313], [6.00046, 49.819244], [6.000452, 49.819206], [6.000452, 49.819187], [6.00046, 49.81916], [6.000471, 49.81914], [6.000509, 49.819077], [6.000566, 49.819], [6.000746, 49.818787], [6.000669, 49.818787], [6.000258, 49.818775], [5.999968, 49.818775], [5.999769, 49.81878], [5.999067, 49.818737], [5.998613, 49.81871], [5.998568, 49.81871], [5.998426, 49.8187], [5.998335, 49.818695], [5.99822, 49.818684], [5.998125, 49.818672], [5.998064, 49.818665], [5.997965, 49.818657], [5.997622, 49.81861], [5.997518, 49.8186], [5.997164, 49.818558], [5.997076, 49.81855], [5.996771, 49.818512], [5.996641, 49.8185], [5.996508, 49.81849], [5.996225, 49.818462], [5.996073, 49.81845], [5.996, 49.818443], [5.995947, 49.818443], [5.995707, 49.818428], [5.995672, 49.818424], [5.995256, 49.818405], [5.994993, 49.81839], [5.994696, 49.81838], [5.994593, 49.818367], [5.994158, 49.81835], [5.99349, 49.818336], [5.99301, 49.81833], [5.992365, 49.81833], [5.992029, 49.81832], [5.991594, 49.818314], [5.99148, 49.81831], [5.991354, 49.818287], [5.991274, 49.818275], [5.991133, 49.818268], [5.990423, 49.81825], [5.990377, 49.81828], [5.990023, 49.81828], [5.989515, 49.81807], [5.98929, 49.817986], [5.988604, 49.817802], [5.988253, 49.81771], [5.987719, 49.817642], [5.987143, 49.817574], [5.986971, 49.817543], [5.986605, 49.817375], [5.986284, 49.817245], [5.986193, 49.817192], [5.985952, 49.816944], [5.985785, 49.816994], [5.985708, 49.81702], [5.985468, 49.8171], [5.985323, 49.817146], [5.985033, 49.817245], [5.984667, 49.81704], [5.984617, 49.81702], [5.984255, 49.81682], [5.984186, 49.81678], [5.984152, 49.816807], [5.983431, 49.81726], [5.983255, 49.817368], [5.982569, 49.81702], [5.982199, 49.817295], [5.981893, 49.817505], [5.981687, 49.817665], [5.981646, 49.817696], [5.981592, 49.817734], [5.98163, 49.817757], [5.981684, 49.81779], [5.98179, 49.81785], [5.981947, 49.81792], [5.982206, 49.818047], [5.981665, 49.818398], [5.981253, 49.81865], [5.980967, 49.81882], [5.980631, 49.81901], [5.980269, 49.819214], [5.979948, 49.819412], [5.979277, 49.819813], [5.979715, 49.820145], [5.979734, 49.82016], [5.98012, 49.82028], [5.980429, 49.820374], [5.980612, 49.820446], [5.980822, 49.820538], [5.980921, 49.820587], [5.981001, 49.820633], [5.981047, 49.820663], [5.981226, 49.820873], [5.981401, 49.82108], [5.981585, 49.821274], [5.981638, 49.82134], [5.981699, 49.821404], [5.981726, 49.821438], [5.98189, 49.82162], [5.981375, 49.821873], [5.981585, 49.822033], [5.981806, 49.822205], [5.982019, 49.822388], [5.982073, 49.82244], [5.982122, 49.82249], [5.982409, 49.822796], [5.982611, 49.82297], [5.98271, 49.823048], [5.98282, 49.823128], [5.982943, 49.823204], [5.983114, 49.8233], [5.983305, 49.823387], [5.983538, 49.82349], [5.983847, 49.823612], [5.983957, 49.823654], [5.98403, 49.823685], [5.98411, 49.823723], [5.984201, 49.823772], [5.984621, 49.82401], [5.984602, 49.82403], [5.984335, 49.824368], [5.984198, 49.824543], [5.984037, 49.824757], [5.983934, 49.824883], [5.983835, 49.825016], [5.983786, 49.825077], [5.983641, 49.825264], [5.983625, 49.82529], [5.983767, 49.82564], [5.983889, 49.825905], [5.983877, 49.825905], [5.983664, 49.825855], [5.983492, 49.82581], [5.983385, 49.82578], [5.982977, 49.825657], [5.982576, 49.82553], [5.982538, 49.82552], [5.981974, 49.826138], [5.981863, 49.826263], [5.981821, 49.826305], [5.981802, 49.82633], [5.981661, 49.826477], [5.98171, 49.826492], [5.981527, 49.82672], [5.981401, 49.82688], [5.981314, 49.827007], [5.981001, 49.827473], [5.981234, 49.827545], [5.98171, 49.827694], [5.981989, 49.82778], [5.981798, 49.828167], [5.981768, 49.82823], [5.981649, 49.82847], [5.981615, 49.828537], [5.981508, 49.828735], [5.981398, 49.828934], [5.981321, 49.829063], [5.981119, 49.82942], [5.981024, 49.82961], [5.980932, 49.82978], [5.980825, 49.829998], [5.980265, 49.830055], [5.979471, 49.83012], [5.979361, 49.83018], [5.979021, 49.83017], [5.978426, 49.83012], [5.978417, 49.830136], [5.978388, 49.83019], [5.978338, 49.830315], [5.978228, 49.830585], [5.978193, 49.830658], [5.978067, 49.83091], [5.977942, 49.83114], [5.97743, 49.831455], [5.977022, 49.831703], [5.977511, 49.83209], [5.977533, 49.83211], [5.977549, 49.83213], [5.978201, 49.832867], [5.978415, 49.833122], [5.978582, 49.833324], [5.97817, 49.833458], [5.978075, 49.83357], [5.978045, 49.8336], [5.977987, 49.83365], [5.977938, 49.833702], [5.977907, 49.833717], [5.977858, 49.83374], [5.9778, 49.83375], [5.977766, 49.833763], [5.977735, 49.833782], [5.977709, 49.833805], [5.977682, 49.833817], [5.977625, 49.83383], [5.977602, 49.833843], [5.977571, 49.833866], [5.977533, 49.83389], [5.977491, 49.833904], [5.977419, 49.833923], [5.977385, 49.83393], [5.977346, 49.833946], [5.977308, 49.83397], [5.977251, 49.833984], [5.977224, 49.833992], [5.977198, 49.83401], [5.977179, 49.834026], [5.977121, 49.834038], [5.977099, 49.834045], [5.977179, 49.834118], [5.977217, 49.834152], [5.977293, 49.83424], [5.977365, 49.834328], [5.977392, 49.834385], [5.977404, 49.83442], [5.977442, 49.834606], [5.977465, 49.83479], [5.977472, 49.834908], [5.977461, 49.835052], [5.977434, 49.835266], [5.977415, 49.835365], [5.977388, 49.83544], [5.977365, 49.83555], [5.977346, 49.835682], [5.977362, 49.835796], [5.977381, 49.835857], [5.977568, 49.836315], [5.977354, 49.83638], [5.977232, 49.83642], [5.976889, 49.83652], [5.976854, 49.83666], [5.976728, 49.837116], [5.976721, 49.83715], [5.976702, 49.837242], [5.976686, 49.83733], [5.976629, 49.83777], [5.976595, 49.8379], [5.976572, 49.838], [5.976553, 49.838078], [5.976538, 49.838135], [5.976297, 49.838036], [5.975969, 49.83806], [5.975599, 49.8381], [5.975435, 49.83817], [5.975126, 49.8385], [5.975088, 49.83864], [5.975046, 49.838696], [5.97497, 49.83876], [5.97489, 49.8388], [5.974817, 49.83883], [5.974642, 49.83891], [5.973978, 49.8392], [5.973917, 49.839226], [5.973429, 49.83944], [5.973471, 49.839478], [5.973581, 49.839592], [5.973734, 49.83974], [5.973715, 49.83975], [5.973597, 49.839825], [5.973253, 49.84008], [5.972727, 49.84048], [5.972918, 49.840694], [5.97333, 49.841164], [5.973391, 49.841232], [5.973356, 49.84124], [5.973196, 49.841396], [5.973204, 49.841496], [5.972769, 49.84175], [5.972525, 49.84189], [5.972235, 49.842045], [5.972101, 49.842113], [5.971407, 49.84238], [5.971155, 49.842495], [5.970923, 49.84255], [5.970808, 49.842583], [5.970781, 49.84259], [5.970652, 49.84264], [5.970526, 49.842705], [5.970327, 49.842834], [5.970224, 49.843067], [5.97019, 49.843147]]]]}}]}