{"type": "FeatureCollection", "features": [{"type": "Feature", "properties": {"name": "Hunsdorf"}, "geometry": {"type": "Polygon", "coordinates": [[[6.0908549, 49.6930621], [6.0909126, 49.6930733], [6.0916166, 49.6931184], [6.0925402, 49.6931746], [6.0926096, 49.693703], [6.0926221, 49.6937624], [6.0926304, 49.693802], [6.0926575, 49.6939195], [6.09267, 49.6939926], [6.0928287, 49.6946276], [6.0930245, 49.6952863], [6.0930362, 49.6953498], [6.0930383, 49.6954094], [6.0930338, 49.6954957], [6.09304, 49.6956454], [6.0930495, 49.6958066], [6.0930729, 49.6959614], [6.093155, 49.696431], [6.0931592, 49.6964868], [6.0931641, 49.696799], [6.0931558, 49.6973015], [6.0931707, 49.697417], [6.0931814, 49.6974576], [6.0932113, 49.6976124], [6.0932637, 49.6977901], [6.0933494, 49.6980338], [6.0934898, 49.69836], [6.0936774, 49.6987116], [6.0936602, 49.6988216], [6.0936165, 49.6990704], [6.0935813, 49.6994145], [6.0935766, 49.6995064], [6.0935724, 49.69959], [6.0935693, 49.699728], [6.0935699, 49.6998692], [6.0938064, 49.6999406], [6.0941349, 49.700043], [6.0948606, 49.7002704], [6.0954642, 49.7004632], [6.0959111, 49.7006077], [6.0961097, 49.7006785], [6.0961825, 49.7007079], [6.096415, 49.7008324], [6.0971048, 49.7011996], [6.0977805, 49.7015621], [6.0978048, 49.7015754], [6.0991879, 49.7023175], [6.09994, 49.702721], [6.1008477, 49.7031662], [6.1011141, 49.7032969], [6.1011795, 49.703329], [6.1014572, 49.7034652], [6.1018373, 49.7036771], [6.102007, 49.7037717], [6.1026703, 49.7041415], [6.1034208, 49.7045767], [6.1037691, 49.7047786], [6.1039641, 49.7048804], [6.1042587, 49.7050583], [6.1047921, 49.7054741], [6.1049721, 49.705621], [6.1049852, 49.7056149], [6.1065051, 49.7052294], [6.1068639, 49.705127], [6.1087749, 49.7049375], [6.1094728, 49.7049337], [6.1099765, 49.704936], [6.1100182, 49.7049566], [6.1100513, 49.7049814], [6.1100834, 49.7050224], [6.1106234, 49.704886], [6.1108167, 49.7048471], [6.1109543, 49.7048133], [6.1111459, 49.704762], [6.1113715, 49.7046984], [6.1117199, 49.7045774], [6.1118279, 49.7045415], [6.1119307, 49.7045169], [6.11207, 49.7044789], [6.1123435, 49.704399], [6.1123879, 49.7043877], [6.1124297, 49.7043856], [6.1126752, 49.7044155], [6.112905, 49.704428], [6.1129555, 49.7044239], [6.1130008, 49.7044126], [6.1130374, 49.7043941], [6.1130897, 49.7043603], [6.1131855, 49.7042751], [6.1132215, 49.7043086], [6.1132808, 49.7044747], [6.1135911, 49.7043762], [6.1139102, 49.7042881], [6.1142139, 49.7042156], [6.114577, 49.7041314], [6.1147387, 49.7041027], [6.1147589, 49.7041554], [6.1152386, 49.704084], [6.1155414, 49.7040524], [6.1158203, 49.7040406], [6.1158335, 49.704022], [6.1161474, 49.7040102], [6.1163399, 49.7040053], [6.1165369, 49.7040074], [6.1167131, 49.7040165], [6.1173137, 49.7040654], [6.1178344, 49.704114], [6.1177985, 49.7041314], [6.1184225, 49.7042093], [6.1184277, 49.7042013], [6.1184417, 49.704189], [6.118463, 49.7041823], [6.1184867, 49.7041827], [6.1191506, 49.7043026], [6.1195048, 49.7043693], [6.1197715, 49.7043445], [6.1202341, 49.7044887], [6.1205321, 49.7045835], [6.1206341, 49.7045925], [6.1208568, 49.7046065], [6.1209239, 49.7046133], [6.1210074, 49.7046271], [6.1210894, 49.7046444], [6.1212613, 49.704687], [6.1213509, 49.7047125], [6.1214391, 49.70474], [6.1219254, 49.7049175], [6.1220151, 49.704944], [6.1223419, 49.7050283], [6.1224462, 49.7050607], [6.1228205, 49.7052305], [6.122991, 49.7053062], [6.1234939, 49.7055382], [6.1235736, 49.7055776], [6.123661, 49.7056242], [6.1238365, 49.7057037], [6.1245483, 49.7060463], [6.1246478, 49.7061], [6.1247472, 49.7061468], [6.1248407, 49.706184], [6.1249193, 49.7062119], [6.1249548, 49.7062305], [6.1251165, 49.7063208], [6.1252782, 49.7064043], [6.1253944, 49.7064459], [6.125615, 49.7065514], [6.1256414, 49.7065665], [6.1256746, 49.7065894], [6.1257288, 49.7066363], [6.1257568, 49.7066308], [6.125786, 49.7066291], [6.1258152, 49.7066312], [6.1258405, 49.7066377], [6.1259549, 49.7066866], [6.1259913, 49.7067057], [6.1260076, 49.7067165], [6.1260275, 49.7067341], [6.1260794, 49.7067901], [6.1261177, 49.7068215], [6.1261763, 49.7068617], [6.1262126, 49.7068813], [6.1262667, 49.7069039], [6.1262952, 49.7069135], [6.1263549, 49.7069283], [6.1264966, 49.7069508], [6.1265901, 49.7069442], [6.1267751, 49.7069126], [6.1268564, 49.7068653], [6.1268726, 49.7067667], [6.1268482, 49.7066287], [6.1268625, 49.7065064], [6.1269702, 49.7063855], [6.1271145, 49.706304], [6.127208, 49.7060292], [6.1271511, 49.7057519], [6.1272243, 49.7056927], [6.1275841, 49.7056322], [6.1279134, 49.7055586], [6.1280162, 49.7054835], [6.1280801, 49.7052287], [6.1280426, 49.7051165], [6.1279784, 49.7048987], [6.1280842, 49.7048145], [6.128259, 49.7048566], [6.1285009, 49.7050104], [6.1286635, 49.7050249], [6.128759, 49.7049907], [6.1288586, 49.7049184], [6.1290395, 49.7045269], [6.1297423, 49.7040325], [6.1305128, 49.7035912], [6.1300452, 49.7032812], [6.1299955, 49.7029323], [6.1307444, 49.7025906], [6.1305514, 49.7018655], [6.1308363, 49.7017347], [6.1315945, 49.7018387], [6.1316955, 49.7016426], [6.1312866, 49.7013038], [6.1313371, 49.7008907], [6.1318885, 49.7007808], [6.1318931, 49.700338], [6.1323802, 49.7001626], [6.1334002, 49.7002191], [6.1335013, 49.6997198], [6.133547, 49.698796], [6.133182, 49.6981308], [6.1331291, 49.69772], [6.1338349, 49.6975354], [6.1340319, 49.6973567], [6.1333673, 49.6969534], [6.1328792, 49.696339], [6.1331026, 49.6959814], [6.1336908, 49.6955782], [6.1343789, 49.6955591], [6.1347465, 49.6953975], [6.1351788, 49.6948249], [6.1365109, 49.6941078], [6.1371022, 49.6933992], [6.1370402, 49.6928901], [6.1369553, 49.6926543], [6.1366863, 49.6926635], [6.1364208, 49.6926658], [6.1360634, 49.6925055], [6.1359041, 49.6923681], [6.1358935, 49.6921575], [6.1357626, 49.6919102], [6.1353025, 49.6917065], [6.1349415, 49.6915073], [6.1349875, 49.6914134], [6.1351467, 49.6913516], [6.13549, 49.6913836], [6.1359961, 49.6913791], [6.1360351, 49.6906991], [6.1357909, 49.6905388], [6.1355632, 49.6901639], [6.1351007, 49.6900076], [6.1349936, 49.6897635], [6.1349884, 49.689615], [6.134737, 49.6896134], [6.1347263, 49.6895236], [6.1346374, 49.6895244], [6.1345042, 49.6895275], [6.134527, 49.6896141], [6.1343425, 49.6896315], [6.1339767, 49.6896711], [6.1336065, 49.6897084], [6.1330341, 49.6897654], [6.1330773, 49.6898558], [6.1330635, 49.6898566], [6.1317067, 49.6899775], [6.1315529, 49.6899904], [6.1314471, 49.6900378], [6.1311484, 49.6900227], [6.1309782, 49.6900133], [6.1307528, 49.6900008], [6.1307162, 49.6902508], [6.1306892, 49.6904056], [6.129675, 49.6903568], [6.1296686, 49.6904059], [6.1296634, 49.6904463], [6.1296444, 49.6905932], [6.1296217, 49.6907685], [6.1295735, 49.6907672], [6.1292566, 49.6907584], [6.1290251, 49.6907535], [6.1289346, 49.6907515], [6.1285533, 49.690749], [6.1283202, 49.6907628], [6.1282843, 49.6907649], [6.1279876, 49.6907825], [6.1277531, 49.6907984], [6.1274435, 49.6908194], [6.1274736, 49.6909524], [6.1274772, 49.690969], [6.1275274, 49.6912027], [6.1275533, 49.6913105], [6.1276061, 49.691542], [6.1264214, 49.6916126], [6.1259098, 49.691643], [6.1259099, 49.6917073], [6.1258931, 49.6919408], [6.1258731, 49.6922407], [6.1258668, 49.6923056], [6.1258441, 49.6922902], [6.1257962, 49.6922517], [6.1255563, 49.6920425], [6.1252276, 49.6917572], [6.1247475, 49.6913597], [6.1245897, 49.6912494], [6.1243376, 49.6910951], [6.1242026, 49.69103], [6.1240302, 49.6909613], [6.1236254, 49.6908125], [6.1235003, 49.6908266], [6.1232494, 49.6908558], [6.1231466, 49.6908677], [6.1230643, 49.6908773], [6.1229539, 49.6908901], [6.1228862, 49.6908978], [6.1227924, 49.6909084], [6.1226826, 49.6909207], [6.1226289, 49.6909268], [6.122569, 49.6909336], [6.1224368, 49.6909485], [6.12243, 49.6909492], [6.1222537, 49.6909691], [6.1222021, 49.6909749], [6.1220959, 49.6909869], [6.1219982, 49.6909979], [6.1219826, 49.6909997], [6.1219144, 49.6910074], [6.1218807, 49.6910112], [6.1218334, 49.6910165], [6.1216945, 49.6910322], [6.1216611, 49.6910359], [6.1214834, 49.6910559], [6.1214655, 49.691058], [6.121384, 49.6910671], [6.1213263, 49.6908454], [6.121258, 49.6906415], [6.1211917, 49.6904995], [6.1211243, 49.6903967], [6.1210217, 49.690262], [6.1208059, 49.6900351], [6.1206801, 49.690085], [6.1205626, 49.6901317], [6.1204761, 49.690166], [6.1204131, 49.690191], [6.1203377, 49.6902209], [6.1202492, 49.6902561], [6.1201827, 49.6902807], [6.1201171, 49.6903051], [6.1200335, 49.6903361], [6.1199809, 49.6903534], [6.1197581, 49.6904267], [6.1196817, 49.6904483], [6.1194874, 49.6905032], [6.1195567, 49.6906656], [6.1195992, 49.6907658], [6.1196188, 49.6908222], [6.119625, 49.690867], [6.1196292, 49.6908869], [6.1196322, 49.6909396], [6.1196197, 49.6910107], [6.119603, 49.6910763], [6.119551, 49.6911899], [6.1195042, 49.6912849], [6.1194095, 49.6914424], [6.1191901, 49.6917998], [6.1189996, 49.6921176], [6.118874, 49.6920242], [6.118836, 49.6919905], [6.1187997, 49.6919543], [6.1187789, 49.6919322], [6.1186843, 49.691953], [6.1186178, 49.6919622], [6.118569, 49.6919634], [6.1185015, 49.6919591], [6.1183799, 49.691948], [6.1182929, 49.691943], [6.1182659, 49.69194], [6.1182285, 49.6919388], [6.1181984, 49.6919449], [6.1181651, 49.6919541], [6.118085, 49.6919789], [6.117993, 49.6920532], [6.1177739, 49.6918844], [6.1176063, 49.6917661], [6.1172683, 49.6915251], [6.1169768, 49.6913203], [6.116795, 49.691196], [6.1163528, 49.6910716], [6.116077, 49.6909944], [6.1158734, 49.6909374], [6.1157438, 49.6909046], [6.115722, 49.6908991], [6.1155585, 49.6908576], [6.1154186, 49.6909015], [6.1152587, 49.6909517], [6.1151244, 49.6909915], [6.1150403, 49.6910165], [6.114983, 49.6910335], [6.1149149, 49.691052], [6.114818, 49.6910784], [6.1147502, 49.6910968], [6.1147126, 49.6911071], [6.1146522, 49.6911219], [6.1146449, 49.6911236], [6.1145012, 49.6911588], [6.1144807, 49.6911638], [6.1143943, 49.691185], [6.1143418, 49.6911978], [6.1142311, 49.6912249], [6.1140655, 49.6912655], [6.1138877, 49.691309], [6.1137669, 49.6913386], [6.1136717, 49.6910838], [6.1135759, 49.6908272], [6.1128914, 49.6907469], [6.1125859, 49.6907129], [6.1124587, 49.6906888], [6.112325, 49.6906573], [6.1122942, 49.6906501], [6.1122296, 49.6906392], [6.1121599, 49.6906341], [6.1120283, 49.6906246], [6.1117878, 49.6906054], [6.1117541, 49.6906027], [6.1117112, 49.690599], [6.11162, 49.690591], [6.1115575, 49.6905855], [6.1114741, 49.6905782], [6.1112962, 49.6905627], [6.1112256, 49.6905568], [6.1111998, 49.6905547], [6.1109284, 49.6905323], [6.1106267, 49.6905177], [6.1103866, 49.6905031], [6.110306, 49.6904964], [6.1101966, 49.6904873], [6.1099185, 49.6904569], [6.1094641, 49.6904048], [6.1091754, 49.6903612], [6.108852, 49.6903092], [6.1084726, 49.6902387], [6.1081106, 49.6901615], [6.1079228, 49.6901205], [6.1077667, 49.6900864], [6.1073376, 49.6899879], [6.1072057, 49.6899928], [6.1070166, 49.689643], [6.1069765, 49.689653], [6.1067892, 49.6896995], [6.1066857, 49.6897253], [6.1065769, 49.6897535], [6.1064377, 49.6897896], [6.1063054, 49.6898239], [6.1060481, 49.6892983], [6.1059683, 49.6893084], [6.1058943, 49.6893178], [6.1058837, 49.6893191], [6.1058085, 49.6893287], [6.105793, 49.6893306], [6.1056689, 49.6893464], [6.1056457, 49.6893493], [6.1055539, 49.6893609], [6.1054942, 49.6893673], [6.1054207, 49.6893751], [6.1052842, 49.6893896], [6.1051788, 49.6894008], [6.1051038, 49.6894088], [6.1050736, 49.6894116], [6.1050726, 49.6892893], [6.1050661, 49.6891617], [6.1050649, 49.6890667], [6.1049969, 49.689028], [6.1049328, 49.6889925], [6.1047271, 49.6889182], [6.1043584, 49.6887804], [6.1038179, 49.6885761], [6.1033587, 49.6883948], [6.1027528, 49.6881459], [6.1022817, 49.6879491], [6.1019869, 49.6878181], [6.1017252, 49.6876771], [6.1014359, 49.6875159], [6.1011409, 49.6873531], [6.1010833, 49.6873603], [6.100973, 49.6872962], [6.1007182, 49.6871711], [6.100394, 49.6870194], [6.1001291, 49.6868944], [6.0997189, 49.6867157], [6.0995456, 49.6866424], [6.0993815, 49.6865729], [6.0991559, 49.6864794], [6.0988812, 49.6863638], [6.0986123, 49.686247], [6.0984638, 49.6861885], [6.0982282, 49.6861149], [6.0979836, 49.6860456], [6.0973417, 49.685855], [6.0969784, 49.6857483], [6.0966989, 49.6856662], [6.0960778, 49.6854829], [6.0957664, 49.685395], [6.0956589, 49.6853646], [6.0952538, 49.685241], [6.0948434, 49.6851292], [6.0944622, 49.6850265], [6.0943249, 49.6849913], [6.0937381, 49.6848338], [6.0934061, 49.684744], [6.0929618, 49.6848173], [6.0928799, 49.6848311], [6.0926619, 49.6848697], [6.0923341, 49.6849278], [6.091943, 49.6849993], [6.0918951, 49.6850081], [6.0917769, 49.6850297], [6.0917231, 49.6850391], [6.0916585, 49.6850509], [6.0916046, 49.6850607], [6.091509, 49.6850781], [6.091453, 49.6850883], [6.0910003, 49.6851708], [6.0902173, 49.6853181], [6.0901455, 49.6853327], [6.09017, 49.6854591], [6.0902267, 49.6855888], [6.0903477, 49.6857725], [6.0903785, 49.6858243], [6.0904044, 49.6859303], [6.0904239, 49.6861042], [6.0903865, 49.686269], [6.0902701, 49.6863818], [6.0901611, 49.686455], [6.0901766, 49.6865368], [6.090222, 49.6865754], [6.0904871, 49.6866961], [6.0906287, 49.6868093], [6.0907304, 49.6869263], [6.0907657, 49.6870335], [6.0907743, 49.6871173], [6.0907564, 49.6872323], [6.0906553, 49.6874631], [6.0906604, 49.6876807], [6.0907198, 49.6878775], [6.0907683, 49.6880063], [6.0908247, 49.6880521], [6.0909476, 49.6880966], [6.0913667, 49.6881646], [6.0915793, 49.6882248], [6.0917508, 49.6883073], [6.0918836, 49.6883786], [6.0920051, 49.6884652], [6.0920393, 49.6885194], [6.0920437, 49.6885586], [6.0920348, 49.6885992], [6.0919848, 49.6886455], [6.0918973, 49.6886912], [6.0916774, 49.6887556], [6.091561, 49.688781], [6.0914735, 49.6888247], [6.0914258, 49.6888809], [6.0914124, 49.6889332], [6.0914266, 49.6890287], [6.091453, 49.6891202], [6.0914895, 49.6891621], [6.0916651, 49.689258], [6.0920401, 49.6894254], [6.0921916, 49.6895314], [6.0922491, 49.6896249], [6.0922379, 49.6896879], [6.0921112, 49.690031], [6.0920777, 49.6901871], [6.0920319, 49.6904709], [6.091993, 49.6905702], [6.0919053, 49.6906747], [6.0917359, 49.6907761], [6.0915963, 49.6908531], [6.0915264, 49.690904], [6.0915152, 49.6909602], [6.0915339, 49.6910524], [6.091578, 49.6911199], [6.0918312, 49.6913841], [6.0918842, 49.691456], [6.0918786, 49.6915188], [6.0918564, 49.6915455], [6.0916686, 49.6915817], [6.0914393, 49.6916083], [6.0913429, 49.6916377], [6.0912963, 49.6916683], [6.0912852, 49.691701], [6.0912983, 49.6918319], [6.0913124, 49.692026], [6.0912901, 49.6921012], [6.0912346, 49.69216], [6.091152, 49.6922125], [6.0910378, 49.6922555], [6.0909337, 49.6922751], [6.0908329, 49.692277], [6.0907531, 49.69229], [6.0907077, 49.6923298], [6.0906976, 49.6923814], [6.0907085, 49.6924841], [6.0907349, 49.6926168], [6.0907701, 49.6927305], [6.0908232, 49.6928064], [6.0909117, 49.6928857], [6.0909581, 49.6929458], [6.0909625, 49.6929785], [6.090907, 49.6930294], [6.0908549, 49.6930621]]]}}]}