{"type": "FeatureCollection", "features": [{"type": "Feature", "properties": {"name": "Boulaide"}, "geometry": {"type": "MultiPolygon", "coordinates": [[[[5.735701, 49.896927], [5.735708, 49.896976], [5.735727, 49.897022], [5.735781, 49.897095], [5.735891, 49.89721], [5.736006, 49.89732], [5.736128, 49.897423], [5.736204, 49.8975], [5.736364, 49.897606], [5.736433, 49.89765], [5.736525, 49.897747], [5.736582, 49.897827], [5.736635, 49.897934], [5.736666, 49.898018], [5.7367, 49.89815], [5.736715, 49.89824], [5.736712, 49.89827], [5.736673, 49.898373], [5.736628, 49.898476], [5.736582, 49.89855], [5.736513, 49.898632], [5.736441, 49.89871], [5.736334, 49.898815], [5.736269, 49.898907], [5.736223, 49.89897], [5.736212, 49.899014], [5.736216, 49.89904], [5.73625, 49.89909], [5.736597, 49.899525], [5.736723, 49.899757], [5.736826, 49.89995], [5.73694, 49.900135], [5.737146, 49.90043], [5.737413, 49.900745], [5.737532, 49.90088], [5.737665, 49.901035], [5.737742, 49.9011], [5.737837, 49.90116], [5.738096, 49.90129], [5.738386, 49.901417], [5.738588, 49.901512], [5.738646, 49.901546], [5.738913, 49.90173], [5.739275, 49.90183], [5.739466, 49.901886], [5.739744, 49.901974], [5.739775, 49.90198], [5.740229, 49.902122], [5.740416, 49.902164], [5.740461, 49.902176], [5.740652, 49.902664], [5.740576, 49.903126], [5.740202, 49.90354], [5.740076, 49.90369], [5.739992, 49.903786], [5.739786, 49.904], [5.739782, 49.904022], [5.73979, 49.904057], [5.739836, 49.904125], [5.739889, 49.904198], [5.739916, 49.904217], [5.740259, 49.90434], [5.740278, 49.904358], [5.740786, 49.904476], [5.741446, 49.90468], [5.741625, 49.90473], [5.741644, 49.90476], [5.741716, 49.904797], [5.74177, 49.904808], [5.741839, 49.904823], [5.742136, 49.904907], [5.742273, 49.904957], [5.742384, 49.905], [5.742426, 49.905006], [5.74264, 49.905045], [5.742777, 49.905045], [5.742853, 49.905052], [5.742968, 49.90507], [5.743189, 49.905136], [5.743399, 49.905193], [5.743471, 49.90521], [5.74365, 49.905235], [5.743799, 49.90526], [5.743868, 49.905277], [5.743998, 49.905334], [5.744249, 49.905476], [5.744368, 49.90555], [5.744513, 49.905617], [5.744551, 49.905647], [5.744612, 49.905724], [5.744654, 49.905758], [5.744696, 49.90578], [5.744734, 49.905834], [5.744821, 49.905853], [5.74486, 49.905872], [5.744986, 49.905926], [5.745024, 49.90594], [5.745108, 49.905952], [5.745153, 49.90596], [5.745215, 49.90598], [5.745329, 49.905987], [5.745489, 49.906094], [5.745581, 49.90615], [5.745672, 49.90619], [5.745798, 49.906227], [5.746134, 49.90629], [5.746309, 49.906303], [5.746454, 49.906315], [5.746672, 49.906315], [5.746653, 49.906635], [5.74663, 49.907043], [5.74655, 49.907047], [5.746061, 49.90779], [5.746206, 49.907875], [5.746469, 49.907986], [5.746641, 49.908047], [5.746618, 49.908085], [5.746492, 49.908283], [5.747015, 49.908405], [5.74721, 49.90846], [5.747557, 49.908592], [5.747713, 49.908676], [5.747797, 49.90873], [5.747881, 49.908794], [5.74793, 49.90887], [5.747988, 49.90897], [5.748091, 49.909058], [5.748354, 49.909252], [5.748098, 49.909443], [5.748518, 49.909657], [5.74877, 49.909782], [5.749533, 49.91017], [5.749968, 49.910393], [5.750204, 49.910515], [5.750421, 49.910625], [5.750746, 49.910793], [5.751047, 49.910946], [5.751585, 49.911224], [5.752294, 49.911587], [5.752501, 49.91169], [5.75308, 49.911983], [5.753515, 49.91213], [5.753832, 49.912228], [5.754591, 49.912457], [5.755232, 49.91265], [5.75635, 49.912994], [5.757151, 49.91324], [5.757597, 49.913387], [5.757894, 49.913483], [5.75881, 49.913784], [5.75987, 49.914135], [5.760931, 49.914486], [5.761358, 49.914627], [5.762033, 49.914856], [5.762541, 49.915024], [5.762896, 49.915142], [5.763349, 49.915295], [5.763586, 49.91537], [5.763681, 49.915405], [5.763929, 49.91568], [5.764013, 49.91577], [5.764479, 49.915646], [5.764521, 49.91566], [5.764551, 49.915657], [5.764635, 49.915646], [5.764883, 49.91563], [5.764956, 49.91565], [5.764971, 49.915653], [5.765211, 49.91571], [5.765531, 49.91578], [5.765566, 49.915787], [5.765715, 49.915813], [5.765829, 49.915836], [5.766115, 49.915882], [5.766451, 49.915924], [5.766588, 49.915977], [5.766718, 49.916023], [5.766745, 49.916035], [5.766973, 49.916126], [5.767195, 49.91622], [5.767283, 49.916267], [5.767775, 49.91666], [5.768374, 49.917057], [5.768805, 49.917267], [5.768869, 49.917297], [5.769373, 49.91752], [5.769533, 49.917576], [5.769651, 49.91761], [5.770136, 49.917736], [5.770391, 49.9178], [5.77062, 49.91786], [5.771463, 49.918056], [5.772047, 49.918194], [5.772043, 49.918793], [5.772207, 49.918835], [5.772364, 49.918873], [5.772596, 49.918934], [5.77265, 49.91895], [5.77278, 49.91899], [5.772848, 49.91901], [5.772944, 49.919056], [5.773043, 49.9191], [5.773272, 49.919235], [5.773416, 49.91933], [5.773497, 49.919384], [5.773706, 49.91925], [5.773901, 49.919132], [5.774069, 49.919025], [5.774244, 49.91892], [5.774439, 49.918846], [5.774721, 49.918747], [5.774866, 49.918613], [5.774988, 49.918507], [5.775129, 49.91841], [5.775221, 49.91835], [5.775412, 49.918243], [5.77561, 49.91816], [5.776049, 49.918148], [5.776472, 49.918133], [5.776754, 49.91814], [5.776934, 49.918148], [5.777163, 49.91815], [5.777769, 49.918198], [5.777838, 49.918198], [5.777983, 49.91819], [5.778051, 49.918182], [5.778387, 49.918148], [5.778669, 49.918144], [5.779402, 49.918148], [5.779627, 49.918148], [5.779844, 49.91815], [5.780001, 49.91815], [5.780233, 49.918156], [5.780222, 49.91812], [5.780203, 49.918095], [5.78018, 49.918076], [5.780314, 49.917866], [5.780378, 49.917805], [5.780458, 49.9177], [5.780504, 49.91766], [5.780741, 49.917725], [5.781084, 49.917824], [5.781176, 49.91785], [5.781416, 49.91792], [5.782225, 49.917854], [5.782614, 49.91784], [5.782999, 49.917843], [5.783339, 49.91785], [5.78388, 49.917885], [5.784288, 49.917923], [5.784563, 49.917946], [5.784864, 49.91798], [5.785093, 49.918003], [5.78536, 49.918034], [5.785685, 49.91808], [5.785955, 49.918133], [5.786898, 49.918346], [5.787283, 49.91843], [5.787439, 49.91845], [5.787813, 49.918472], [5.788343, 49.918495], [5.788576, 49.918495], [5.788744, 49.918484], [5.788935, 49.918476], [5.789537, 49.91843], [5.790071, 49.918377], [5.790438, 49.918324], [5.791349, 49.918163], [5.791773, 49.91811], [5.791899, 49.918095], [5.79207, 49.918076], [5.792303, 49.918045], [5.792376, 49.918037], [5.792433, 49.91806], [5.792521, 49.91809], [5.792726, 49.918167], [5.792845, 49.9182], [5.792955, 49.918236], [5.793058, 49.91826], [5.793234, 49.9183], [5.793299, 49.918316], [5.793615, 49.918392], [5.79389, 49.918457], [5.793985, 49.918476], [5.794531, 49.9186], [5.794748, 49.918636], [5.794882, 49.918663], [5.794973, 49.91868], [5.795332, 49.918736], [5.795862, 49.91882], [5.795954, 49.91884], [5.796042, 49.91886], [5.796183, 49.918915], [5.796247, 49.918945], [5.796312, 49.918972], [5.796572, 49.919083], [5.796583, 49.919086], [5.796984, 49.91926], [5.797022, 49.919277], [5.797159, 49.91934], [5.7973, 49.9194], [5.797522, 49.919495], [5.797682, 49.91956], [5.797693, 49.919563], [5.797808, 49.9196], [5.797956, 49.91965], [5.79843, 49.91979], [5.798643, 49.91985], [5.798712, 49.91987], [5.798758, 49.91988], [5.798983, 49.919945], [5.799696, 49.920147], [5.799822, 49.920147], [5.800383, 49.920006], [5.800402, 49.92], [5.80018, 49.919685], [5.800093, 49.919575], [5.800066, 49.919544], [5.799826, 49.919285], [5.799814, 49.91924], [5.799803, 49.91919], [5.799776, 49.91908], [5.80007, 49.919075], [5.800158, 49.91908], [5.800272, 49.919094], [5.80047, 49.919125], [5.800867, 49.919197], [5.800951, 49.919216], [5.801233, 49.919308], [5.801321, 49.91934], [5.801416, 49.91937], [5.8015, 49.919395], [5.801706, 49.91946], [5.801813, 49.91949], [5.802027, 49.919525], [5.802073, 49.91954], [5.802153, 49.919563], [5.802244, 49.919582], [5.80234, 49.919586], [5.802446, 49.919582], [5.802538, 49.91957], [5.802599, 49.919567], [5.802675, 49.91958], [5.802752, 49.919586], [5.802816, 49.919582], [5.802931, 49.919582], [5.803068, 49.919598], [5.803221, 49.919624], [5.803343, 49.919632], [5.803453, 49.91963], [5.80361, 49.919613], [5.80372, 49.919598], [5.803862, 49.919575], [5.803968, 49.919533], [5.803991, 49.91953], [5.804151, 49.91953], [5.804289, 49.919502], [5.804461, 49.91948], [5.804487, 49.919422], [5.804548, 49.91934], [5.804617, 49.91926], [5.804663, 49.919212], [5.804724, 49.91918], [5.804785, 49.919167], [5.804933, 49.91915], [5.805132, 49.91909], [5.805426, 49.918987], [5.805777, 49.918854], [5.80586, 49.918827], [5.805887, 49.918816], [5.806028, 49.9188], [5.806108, 49.91879], [5.80615, 49.918777], [5.806189, 49.918766], [5.806234, 49.91875], [5.806284, 49.918743], [5.806334, 49.918743], [5.806375, 49.91875], [5.806452, 49.91878], [5.806532, 49.918804], [5.806581, 49.918816], [5.806826, 49.918835], [5.806955, 49.918858], [5.807257, 49.918915], [5.807478, 49.91897], [5.807886, 49.91908], [5.808069, 49.919132], [5.8081, 49.91912], [5.808256, 49.919075], [5.808321, 49.919044], [5.808401, 49.91906], [5.80847, 49.91903], [5.808542, 49.91902], [5.808592, 49.919], [5.808664, 49.918953], [5.808702, 49.918934], [5.808725, 49.91893], [5.808752, 49.918938], [5.808794, 49.918957], [5.808847, 49.91898], [5.808882, 49.918987], [5.808916, 49.918987], [5.808954, 49.91898], [5.808981, 49.91897], [5.809019, 49.918957], [5.809057, 49.918957], [5.809103, 49.91897], [5.809145, 49.918995], [5.809191, 49.919037], [5.809217, 49.91908], [5.809309, 49.919086], [5.809355, 49.919254], [5.809446, 49.919254], [5.809511, 49.919247], [5.809557, 49.91923], [5.809748, 49.919155], [5.809645, 49.91896], [5.809729, 49.91893], [5.809801, 49.9189], [5.809832, 49.91889], [5.809851, 49.918896], [5.809893, 49.918915], [5.809912, 49.91892], [5.809946, 49.918907], [5.809992, 49.918877], [5.810018, 49.918865], [5.810041, 49.918865], [5.810068, 49.918877], [5.81008, 49.918896], [5.81008, 49.918945], [5.810095, 49.91896], [5.810125, 49.918964], [5.810144, 49.91896], [5.810026, 49.918636], [5.81016, 49.91863], [5.810842, 49.918636], [5.810999, 49.91864], [5.811178, 49.918655], [5.81143, 49.91869], [5.81151, 49.918697], [5.811521, 49.91871], [5.811724, 49.918736], [5.811892, 49.918846], [5.811865, 49.918957], [5.811716, 49.91894], [5.811628, 49.918938], [5.81156, 49.91895], [5.811335, 49.918995], [5.811396, 49.919003], [5.811567, 49.919014], [5.811773, 49.91903], [5.811964, 49.919064], [5.812063, 49.919086], [5.812201, 49.919125], [5.812262, 49.919147], [5.812376, 49.919186], [5.812643, 49.919285], [5.81278, 49.91907], [5.812849, 49.91909], [5.812902, 49.91903], [5.813185, 49.918694], [5.813261, 49.918583], [5.813383, 49.91841], [5.813429, 49.918343], [5.813456, 49.918262], [5.813471, 49.91818], [5.813501, 49.918076], [5.813532, 49.918007], [5.813612, 49.91784], [5.813681, 49.91773], [5.813822, 49.917522], [5.813887, 49.91742], [5.813925, 49.91734], [5.813959, 49.917248], [5.813681, 49.917202], [5.813479, 49.917164], [5.813376, 49.917137], [5.813333, 49.917118], [5.813303, 49.917107], [5.813219, 49.917072], [5.813124, 49.917034], [5.813066, 49.917007], [5.813028, 49.916992], [5.812761, 49.91688], [5.812609, 49.916832], [5.812571, 49.916817], [5.812494, 49.916794], [5.812387, 49.916748], [5.812418, 49.91671], [5.812597, 49.916496], [5.81262, 49.916477], [5.812784, 49.916306], [5.812944, 49.916393], [5.812956, 49.91633], [5.812986, 49.916153], [5.813051, 49.91576], [5.813158, 49.91521], [5.813349, 49.915363], [5.813459, 49.915466], [5.81357, 49.91559], [5.813684, 49.915707], [5.813734, 49.915752], [5.813932, 49.915897], [5.81402, 49.91596], [5.814138, 49.91602], [5.814173, 49.91603], [5.814215, 49.91604], [5.814508, 49.916096], [5.815012, 49.91619], [5.815149, 49.916218], [5.81529, 49.916267], [5.815367, 49.91629], [5.815516, 49.91634], [5.815733, 49.916412], [5.815969, 49.916492], [5.816076, 49.91632], [5.816324, 49.916374], [5.816618, 49.916424], [5.816668, 49.916435], [5.816755, 49.91645], [5.816896, 49.916473], [5.81695, 49.916485], [5.817007, 49.916492], [5.817064, 49.9165], [5.817129, 49.916508], [5.817202, 49.916508], [5.817495, 49.91652], [5.817411, 49.91636], [5.817373, 49.91629], [5.817335, 49.916225], [5.817213, 49.91603], [5.817121, 49.915894], [5.816904, 49.915573], [5.816759, 49.915363], [5.816679, 49.91523], [5.816664, 49.9152], [5.816549, 49.915016], [5.816492, 49.914913], [5.816343, 49.914654], [5.816164, 49.914337], [5.816236, 49.914333], [5.816408, 49.914318], [5.816503, 49.914307], [5.81716, 49.91422], [5.817507, 49.914223], [5.817831, 49.914246], [5.81793, 49.91425], [5.818113, 49.91426], [5.818369, 49.914665], [5.818434, 49.914772], [5.81846, 49.914814], [5.818529, 49.914944], [5.818563, 49.91507], [5.818575, 49.915108], [5.818594, 49.915184], [5.818605, 49.915504], [5.818605, 49.915607], [5.818602, 49.915756], [5.818586, 49.915997], [5.819033, 49.91607], [5.819086, 49.91606], [5.819178, 49.916042], [5.819387, 49.915997], [5.819765, 49.915897], [5.819948, 49.91585], [5.820387, 49.915733], [5.820265, 49.91554], [5.820803, 49.915813], [5.820944, 49.91588], [5.821073, 49.915916], [5.821436, 49.916004], [5.821554, 49.91604], [5.821714, 49.91609], [5.821947, 49.91613], [5.822138, 49.916164], [5.822317, 49.91618], [5.822454, 49.916183], [5.82258, 49.916176], [5.822668, 49.91616], [5.822767, 49.916138], [5.822996, 49.916073], [5.823069, 49.916054], [5.823317, 49.91598], [5.823336, 49.915977], [5.823515, 49.915924], [5.823961, 49.915794], [5.824118, 49.915764], [5.824369, 49.915718], [5.824366, 49.915497], [5.824316, 49.9155], [5.824377, 49.91539], [5.8244, 49.91532], [5.824404, 49.915245], [5.824427, 49.915073], [5.824427, 49.915], [5.824316, 49.915], [5.824369, 49.914845], [5.824373, 49.914803], [5.824373, 49.914757], [5.824354, 49.91469], [5.824312, 49.914604], [5.824286, 49.91456], [5.82424, 49.91451], [5.824209, 49.91449], [5.82416, 49.914455], [5.824125, 49.914402], [5.824106, 49.914368], [5.824049, 49.914284], [5.823999, 49.914234], [5.823954, 49.914204], [5.823954, 49.91413], [5.823957, 49.914055], [5.824324, 49.91407], [5.824484, 49.914036], [5.824514, 49.914024], [5.824163, 49.913788], [5.82395, 49.913666], [5.823969, 49.913635], [5.82403, 49.91357], [5.824183, 49.913403], [5.824278, 49.91328], [5.824408, 49.91312], [5.824579, 49.912884], [5.824659, 49.912766], [5.824801, 49.912556], [5.824957, 49.912292], [5.825022, 49.912186], [5.825029, 49.912167], [5.825224, 49.912167], [5.82548, 49.91218], [5.825689, 49.9122], [5.825899, 49.912224], [5.8262, 49.91226], [5.82646, 49.912292], [5.826788, 49.912357], [5.827181, 49.91246], [5.827425, 49.91252], [5.828081, 49.91268], [5.828283, 49.91274], [5.828493, 49.91281], [5.828833, 49.91294], [5.829027, 49.913], [5.829344, 49.913086], [5.829535, 49.913147], [5.829813, 49.913254], [5.830011, 49.913322], [5.830214, 49.913376], [5.830393, 49.91341], [5.830675, 49.913452], [5.830915, 49.91347], [5.83106, 49.91347], [5.831209, 49.913456], [5.831442, 49.91341], [5.831564, 49.913403], [5.831724, 49.913414], [5.8318, 49.913418], [5.831888, 49.91341], [5.832128, 49.913372], [5.832651, 49.913284], [5.832876, 49.913235], [5.832949, 49.913227], [5.83309, 49.913242], [5.833319, 49.913246], [5.833757, 49.91324], [5.834341, 49.913235], [5.834562, 49.913242], [5.834799, 49.913254], [5.835466, 49.91333], [5.835707, 49.913345], [5.835703, 49.913326], [5.835642, 49.91266], [5.835615, 49.912373], [5.835585, 49.912174], [5.835573, 49.912148], [5.835504, 49.912083], [5.83539, 49.911976], [5.835329, 49.911896], [5.835146, 49.911674], [5.835104, 49.91162], [5.835032, 49.911522], [5.834684, 49.911003], [5.834784, 49.91099], [5.834894, 49.910973], [5.834982, 49.910946], [5.834997, 49.910942], [5.835054, 49.91093], [5.835138, 49.91089], [5.835249, 49.91082], [5.835306, 49.91078], [5.835341, 49.910748], [5.835375, 49.91071], [5.835413, 49.910686], [5.835463, 49.910667], [5.835489, 49.910652], [5.835508, 49.910618], [5.835527, 49.910572], [5.835562, 49.910534], [5.835604, 49.910503], [5.835688, 49.910477], [5.835745, 49.91046], [5.835779, 49.91044], [5.835806, 49.910397], [5.835825, 49.91034], [5.83584, 49.910324], [5.835878, 49.910313], [5.835928, 49.910305], [5.835974, 49.91029], [5.836027, 49.91026], [5.836073, 49.91023], [5.836119, 49.910202], [5.836164, 49.910175], [5.836195, 49.910156], [5.83621, 49.91013], [5.836241, 49.910088], [5.836264, 49.910072], [5.836313, 49.910053], [5.836405, 49.910034], [5.836493, 49.910027], [5.836576, 49.91001], [5.836657, 49.90999], [5.836725, 49.909966], [5.836798, 49.909943], [5.836866, 49.909916], [5.836897, 49.909897], [5.83695, 49.90988], [5.837027, 49.909866], [5.837118, 49.90987], [5.837221, 49.90987], [5.837328, 49.909866], [5.837385, 49.909863], [5.837442, 49.90987], [5.83753, 49.909897], [5.837591, 49.90991], [5.837637, 49.90991], [5.837679, 49.909904], [5.837744, 49.909885], [5.837824, 49.909866], [5.837889, 49.909855], [5.837961, 49.909855], [5.838049, 49.909866], [5.838133, 49.909874], [5.838293, 49.909874], [5.838381, 49.909885], [5.83843, 49.9099], [5.838472, 49.909916], [5.838518, 49.90992], [5.838552, 49.909916], [5.838591, 49.909893], [5.838652, 49.90985], [5.838694, 49.909824], [5.838777, 49.9098], [5.838911, 49.909763], [5.839018, 49.909725], [5.839121, 49.90968], [5.839163, 49.909645], [5.839216, 49.909557], [5.839243, 49.909534], [5.839274, 49.909523], [5.839323, 49.90953], [5.839384, 49.90954], [5.83943, 49.90954], [5.839468, 49.909523], [5.839495, 49.909492], [5.839544, 49.909412], [5.839598, 49.909367], [5.839716, 49.90933], [5.839891, 49.909286], [5.84033, 49.90918], [5.840639, 49.90911], [5.840876, 49.909054], [5.840845, 49.908947], [5.841097, 49.90896], [5.84136, 49.908962], [5.841551, 49.90896], [5.841696, 49.908955], [5.841791, 49.90897], [5.841917, 49.909004], [5.841944, 49.909008], [5.8421, 49.909023], [5.842352, 49.909058], [5.842611, 49.90909], [5.842497, 49.909214], [5.842791, 49.909306], [5.842848, 49.90932], [5.843016, 49.909363], [5.843412, 49.90945], [5.843557, 49.909477], [5.843653, 49.909496], [5.843794, 49.909527], [5.843878, 49.90956], [5.843988, 49.909622], [5.84413, 49.90969], [5.84432, 49.909756], [5.844667, 49.909866], [5.844847, 49.909912], [5.84503, 49.909943], [5.845141, 49.909954], [5.84524, 49.909958], [5.845305, 49.909943], [5.845381, 49.909916], [5.84561, 49.909847], [5.845667, 49.909832], [5.8458, 49.9098], [5.845896, 49.909786], [5.845945, 49.90978], [5.846071, 49.909767], [5.846132, 49.90976], [5.84638, 49.909725], [5.846472, 49.909725], [5.84659, 49.90973], [5.846689, 49.909733], [5.847025, 49.909748], [5.847238, 49.909756], [5.847982, 49.909786], [5.848383, 49.909782], [5.848772, 49.909805], [5.849134, 49.909832], [5.849424, 49.90982], [5.849733, 49.909763], [5.850187, 49.90965], [5.850191, 49.909603], [5.850328, 49.909534], [5.850424, 49.909363], [5.85039, 49.909355], [5.85039, 49.90933], [5.850336, 49.909325], [5.850393, 49.909092], [5.850428, 49.908962], [5.850527, 49.908848], [5.850798, 49.90876], [5.851309, 49.908665], [5.851511, 49.908573], [5.851591, 49.908463], [5.851656, 49.908337], [5.851805, 49.908234], [5.852263, 49.9081], [5.852522, 49.908054], [5.85277, 49.90792], [5.852995, 49.907852], [5.853304, 49.907795], [5.85346, 49.907753], [5.853525, 49.907665], [5.853247, 49.907524], [5.852961, 49.907413], [5.852655, 49.90722], [5.852438, 49.907013], [5.85227, 49.906784], [5.852179, 49.906586], [5.85211, 49.906376], [5.852064, 49.906204], [5.852056, 49.906082], [5.852087, 49.90588], [5.852133, 49.90569], [5.852243, 49.90546], [5.852484, 49.905155], [5.852697, 49.904972], [5.853045, 49.90475], [5.853281, 49.904545], [5.853807, 49.904057], [5.854128, 49.903843], [5.85441, 49.903694], [5.855158, 49.903316], [5.855452, 49.903133], [5.855635, 49.902996], [5.855768, 49.902866], [5.855841, 49.90274], [5.855898, 49.902573], [5.855948, 49.90203], [5.855944, 49.90167], [5.855955, 49.901455], [5.855909, 49.90119], [5.855833, 49.90092], [5.855696, 49.900623], [5.855532, 49.900356], [5.855329, 49.90014], [5.855059, 49.89988], [5.854754, 49.899624], [5.854536, 49.8995], [5.854399, 49.899452], [5.85428, 49.899456], [5.853868, 49.899582], [5.853136, 49.89997], [5.852015, 49.900494], [5.850973, 49.90104], [5.850367, 49.90134], [5.849997, 49.901505], [5.849573, 49.90162], [5.849127, 49.90168], [5.848692, 49.901688], [5.848192, 49.901638], [5.847826, 49.90156], [5.847013, 49.901344], [5.845835, 49.900967], [5.845686, 49.900875], [5.845598, 49.900806], [5.84548, 49.900692], [5.845358, 49.900543], [5.845301, 49.900406], [5.845262, 49.900295], [5.845255, 49.900166], [5.845255, 49.90007], [5.845297, 49.899803], [5.845404, 49.899597], [5.845488, 49.899437], [5.845575, 49.89932], [5.845694, 49.899185], [5.845869, 49.89905], [5.846201, 49.89888], [5.84701, 49.898514], [5.847593, 49.89824], [5.848101, 49.89794], [5.848783, 49.897564], [5.849127, 49.897343], [5.849531, 49.89702], [5.850073, 49.89654], [5.850405, 49.896233], [5.850645, 49.89595], [5.850767, 49.895737], [5.850836, 49.895603], [5.850843, 49.895428], [5.850832, 49.89511], [5.850786, 49.89489], [5.850699, 49.89465], [5.850546, 49.89446], [5.850256, 49.8942], [5.849836, 49.89391], [5.849474, 49.893677], [5.849314, 49.89359], [5.849028, 49.893513], [5.848444, 49.893417], [5.847921, 49.89336], [5.847338, 49.89332], [5.846796, 49.89332], [5.846827, 49.893238], [5.846857, 49.893166], [5.846811, 49.893112], [5.846708, 49.89304], [5.846689, 49.89298], [5.846716, 49.892876], [5.846777, 49.892788], [5.846903, 49.892708], [5.847048, 49.892654], [5.847242, 49.892612], [5.84746, 49.89259], [5.847605, 49.89256], [5.847776, 49.892506], [5.848021, 49.892418], [5.848154, 49.892365], [5.84823, 49.89233], [5.848341, 49.89234], [5.848429, 49.89235], [5.848513, 49.892353], [5.848886, 49.892334], [5.849119, 49.892326], [5.849329, 49.892307], [5.849524, 49.89228], [5.849707, 49.89226], [5.849745, 49.892254], [5.849832, 49.892254], [5.850084, 49.892273], [5.850115, 49.892273], [5.850142, 49.892277], [5.850237, 49.892277], [5.850287, 49.892258], [5.850374, 49.892216], [5.850412, 49.892204], [5.850512, 49.892193], [5.850645, 49.892174], [5.850725, 49.892166], [5.85087, 49.89215], [5.850946, 49.89214], [5.851103, 49.892124], [5.851313, 49.89209], [5.85153, 49.892056], [5.851584, 49.892044], [5.851622, 49.89202], [5.851706, 49.891956], [5.851732, 49.891937], [5.851789, 49.891907], [5.851835, 49.89188], [5.852003, 49.891796], [5.85211, 49.891747], [5.85219, 49.891712], [5.852232, 49.891697], [5.852316, 49.891663], [5.852388, 49.89162], [5.85248, 49.89158], [5.852602, 49.89154], [5.852682, 49.891518], [5.852831, 49.89147], [5.853052, 49.891415], [5.85309, 49.891396], [5.853113, 49.891384], [5.853144, 49.89137], [5.853201, 49.89133], [5.853273, 49.891285], [5.8533, 49.891262], [5.853342, 49.891216], [5.853365, 49.891197], [5.853396, 49.89118], [5.853426, 49.891167], [5.853472, 49.891155], [5.853533, 49.891132], [5.853613, 49.8911], [5.85367, 49.891064], [5.853716, 49.891037], [5.853754, 49.891014], [5.853834, 49.89095], [5.853891, 49.8909], [5.853941, 49.890858], [5.853991, 49.890804], [5.854029, 49.89076], [5.854075, 49.890728], [5.854128, 49.89071], [5.854162, 49.890694], [5.854185, 49.890682], [5.85425, 49.89064], [5.854402, 49.890526], [5.854471, 49.890476], [5.854601, 49.890377], [5.854754, 49.89025], [5.854944, 49.8901], [5.855074, 49.889973], [5.855104, 49.889946], [5.855158, 49.889896], [5.855219, 49.889854], [5.855288, 49.88981], [5.855337, 49.88977], [5.855524, 49.88963], [5.855631, 49.889523], [5.855661, 49.8895], [5.855673, 49.889492], [5.855738, 49.889442], [5.855852, 49.889378], [5.855883, 49.88935], [5.855898, 49.889305], [5.855909, 49.88923], [5.855917, 49.889202], [5.855967, 49.889156], [5.856016, 49.889126], [5.856222, 49.888996], [5.856333, 49.888924], [5.856417, 49.888866], [5.856539, 49.8888], [5.856562, 49.88879], [5.856653, 49.888752], [5.856802, 49.888693], [5.856356, 49.888548], [5.855936, 49.888391], [5.855738, 49.888315], [5.855421, 49.88817], [5.855093, 49.888014], [5.854628, 49.887781], [5.854929, 49.887365], [5.854971, 49.887308], [5.855047, 49.887209], [5.85531, 49.887133], [5.855024, 49.887091], [5.85467, 49.88703], [5.854212, 49.886892], [5.854269, 49.886614], [5.854357, 49.886354], [5.854422, 49.88624], [5.854639, 49.885851], [5.854662, 49.885801], [5.854776, 49.885538], [5.854837, 49.885385], [5.85491, 49.885187], [5.854956, 49.88508], [5.854967, 49.885027], [5.85507, 49.884764], [5.853666, 49.884493], [5.854097, 49.884428], [5.854231, 49.884123], [5.854395, 49.883768], [5.854479, 49.88352], [5.85391, 49.883318], [5.853705, 49.883246], [5.85346, 49.883161], [5.85325, 49.883104], [5.853079, 49.883062], [5.8529, 49.883017], [5.852701, 49.882952], [5.852377, 49.882841], [5.852098, 49.882738], [5.851976, 49.882688], [5.851805, 49.882612], [5.851599, 49.882528], [5.851465, 49.882479], [5.851389, 49.882456], [5.851194, 49.882433], [5.850595, 49.882368], [5.850458, 49.88236], [5.849859, 49.882338], [5.849462, 49.882303], [5.848959, 49.882242], [5.848864, 49.882536], [5.848799, 49.882742], [5.848776, 49.882875], [5.848692, 49.88315], [5.848196, 49.883074], [5.847899, 49.883047], [5.84733, 49.883036], [5.847048, 49.883036], [5.846754, 49.883055], [5.84654, 49.883078], [5.846296, 49.883131], [5.84606, 49.883181], [5.845808, 49.883249], [5.845583, 49.883314], [5.845362, 49.883394], [5.845125, 49.883493], [5.844885, 49.883581], [5.844679, 49.883654], [5.844305, 49.883768], [5.843939, 49.883875], [5.843676, 49.883959], [5.843557, 49.883989], [5.843302, 49.88402], [5.843172, 49.884043], [5.843046, 49.884081], [5.842947, 49.884127], [5.84265, 49.884294], [5.842505, 49.884359], [5.842295, 49.884447], [5.842077, 49.884546], [5.841463, 49.884817], [5.84133, 49.884714], [5.840548, 49.884153], [5.840357, 49.884024], [5.840029, 49.883822], [5.839716, 49.883657], [5.839117, 49.883409], [5.838911, 49.883276], [5.839121, 49.883139], [5.838961, 49.883108], [5.839006, 49.88307], [5.839018, 49.883058], [5.839136, 49.882978], [5.83917, 49.882952], [5.839292, 49.882868], [5.839373, 49.882826], [5.839479, 49.882772], [5.839628, 49.882692], [5.83967, 49.882666], [5.839743, 49.882627], [5.839849, 49.88254], [5.839975, 49.882433], [5.840033, 49.882372], [5.840071, 49.882296], [5.840147, 49.882116], [5.840189, 49.88201], [5.840216, 49.881949], [5.840361, 49.881639], [5.84049, 49.881399], [5.840521, 49.881353], [5.840647, 49.881079], [5.840944, 49.880587], [5.840921, 49.880568], [5.840857, 49.880529], [5.840776, 49.880499], [5.840673, 49.880465], [5.840559, 49.880438], [5.840471, 49.880423], [5.840426, 49.880419], [5.840403, 49.880308], [5.840383, 49.880144], [5.840376, 49.880014], [5.840383, 49.879767], [5.840403, 49.879366], [5.84041, 49.879141], [5.84091, 49.879091], [5.841372, 49.879007], [5.842081, 49.878874], [5.842596, 49.878767], [5.842932, 49.878717], [5.843149, 49.878687], [5.843267, 49.878645], [5.843351, 49.878599], [5.843401, 49.878553], [5.843462, 49.878511], [5.843656, 49.878416], [5.843759, 49.878363], [5.843828, 49.878313], [5.843947, 49.878176], [5.844149, 49.877905], [5.844339, 49.877676], [5.844507, 49.877516], [5.844629, 49.877417], [5.844786, 49.877306], [5.8449, 49.877233], [5.845003, 49.877153], [5.845121, 49.877012], [5.845194, 49.876905], [5.845324, 49.876707], [5.845388, 49.876623], [5.845629, 49.876402], [5.845831, 49.87623], [5.845964, 49.876108], [5.846087, 49.875967], [5.846186, 49.875765], [5.846228, 49.875582], [5.846247, 49.875486], [5.846266, 49.87536], [5.846289, 49.875162], [5.846289, 49.875021], [5.84627, 49.87491], [5.846228, 49.87483], [5.846113, 49.874666], [5.84598, 49.874498], [5.845888, 49.874392], [5.845549, 49.87406], [5.845201, 49.873793], [5.844942, 49.873632], [5.844755, 49.873548], [5.844538, 49.873491], [5.844336, 49.873461], [5.844149, 49.873446], [5.843966, 49.873449], [5.843828, 49.873468], [5.843645, 49.873518], [5.843527, 49.873579], [5.843214, 49.873815], [5.842775, 49.874163], [5.842485, 49.874361], [5.842112, 49.874544], [5.841898, 49.874617], [5.841787, 49.874628], [5.841448, 49.874636], [5.840769, 49.874598], [5.840372, 49.874548], [5.839907, 49.874403], [5.839441, 49.874205], [5.839151, 49.874041], [5.838968, 49.873877], [5.838831, 49.873716], [5.838766, 49.873537], [5.838717, 49.873179], [5.838663, 49.873003], [5.838541, 49.872801], [5.838263, 49.872412], [5.838099, 49.872171], [5.837889, 49.871756], [5.837591, 49.871229], [5.837439, 49.870981], [5.83732, 49.870871], [5.837133, 49.870699], [5.836821, 49.870474], [5.836698, 49.870409], [5.83663, 49.870394], [5.836576, 49.870405], [5.836519, 49.870428], [5.836359, 49.87044], [5.835997, 49.870462], [5.835676, 49.87047], [5.835341, 49.870447], [5.835123, 49.870409], [5.834898, 49.870325], [5.834585, 49.870104], [5.834398, 49.869909], [5.834307, 49.869844], [5.834185, 49.869814], [5.833933, 49.869795], [5.833509, 49.869795], [5.832525, 49.869783], [5.832415, 49.869776], [5.832212, 49.869764], [5.831861, 49.869684], [5.831594, 49.8696], [5.831308, 49.869482], [5.831144, 49.869402], [5.830698, 49.869066], [5.830179, 49.868677], [5.829889, 49.868433], [5.829561, 49.868151], [5.829302, 49.868002], [5.828615, 49.867727], [5.827745, 49.867388], [5.825995, 49.866812], [5.825228, 49.86656], [5.824903, 49.866457], [5.824526, 49.866373], [5.824278, 49.866365], [5.824102, 49.8664], [5.82387, 49.866541], [5.823614, 49.866644], [5.822935, 49.866858], [5.822275, 49.867048], [5.821821, 49.867239], [5.821211, 49.867506], [5.820478, 49.867643], [5.819696, 49.867697], [5.818953, 49.867773], [5.818308, 49.867884], [5.817705, 49.867952], [5.814703, 49.868269], [5.812906, 49.868532], [5.812449, 49.868612], [5.812406, 49.868616], [5.811544, 49.868635], [5.810972, 49.868597], [5.81032, 49.86846], [5.809694, 49.868334], [5.809221, 49.868288], [5.808565, 49.868265], [5.808291, 49.868216], [5.808065, 49.868151], [5.807879, 49.868078], [5.807806, 49.867903], [5.807661, 49.867304], [5.807604, 49.867147], [5.807459, 49.867033], [5.807138, 49.866938], [5.80681, 49.866846], [5.806631, 49.86669], [5.806379, 49.86632], [5.806288, 49.866087], [5.806204, 49.865953], [5.806139, 49.865744], [5.806131, 49.865244], [5.806169, 49.864912], [5.806166, 49.864679], [5.806127, 49.864504], [5.806078, 49.864401], [5.806009, 49.864283], [5.805471, 49.863958], [5.805151, 49.863768], [5.804823, 49.86363], [5.80456, 49.863554], [5.804293, 49.863508], [5.80406, 49.863485], [5.80361, 49.86347], [5.80335, 49.863485], [5.803152, 49.863508], [5.802797, 49.863577], [5.802603, 49.863626], [5.802401, 49.863718], [5.802259, 49.86381], [5.802073, 49.863981], [5.801897, 49.864176], [5.801836, 49.864313], [5.801844, 49.864458], [5.802076, 49.864897], [5.802465, 49.865576], [5.802675, 49.865889], [5.802881, 49.866156], [5.803022, 49.866316], [5.803068, 49.86635], [5.803286, 49.866499], [5.803408, 49.866587], [5.804041, 49.866869], [5.804491, 49.867109], [5.804655, 49.867243], [5.804998, 49.86767], [5.805323, 49.867994], [5.805636, 49.868311], [5.80591, 49.868643], [5.806223, 49.869043], [5.806387, 49.869322], [5.806463, 49.869535], [5.806463, 49.869753], [5.806425, 49.869955], [5.80633, 49.870146], [5.806139, 49.870352], [5.805906, 49.870542], [5.805708, 49.870668], [5.805555, 49.870726], [5.80514, 49.870783], [5.804769, 49.87084], [5.804003, 49.870871], [5.80332, 49.870882], [5.803045, 49.870863], [5.802885, 49.870836], [5.802786, 49.870798], [5.802679, 49.870745], [5.802523, 49.870627], [5.80224, 49.870398], [5.801981, 49.870176], [5.801714, 49.870024], [5.801222, 49.869764], [5.801115, 49.869711], [5.800867, 49.869623], [5.800714, 49.869593], [5.800627, 49.869581], [5.800489, 49.8696], [5.800444, 49.869646], [5.800425, 49.869818], [5.800421, 49.869955], [5.800459, 49.870127], [5.80052, 49.870295], [5.800657, 49.870489], [5.800772, 49.870722], [5.800734, 49.870821], [5.800634, 49.870894], [5.800406, 49.871057], [5.799978, 49.871286], [5.799376, 49.871492], [5.798624, 49.871653], [5.797148, 49.871832], [5.796286, 49.871923], [5.795687, 49.872049], [5.795397, 49.872183], [5.795267, 49.872301], [5.795229, 49.87253], [5.795267, 49.872816], [5.795282, 49.87322], [5.795385, 49.873613], [5.795683, 49.874479], [5.79603, 49.875139], [5.796625, 49.876074], [5.796965, 49.876604], [5.797125, 49.876986], [5.79722, 49.877375], [5.797201, 49.877611], [5.797037, 49.878309], [5.796904, 49.878603], [5.796808, 49.878801], [5.796625, 49.879042], [5.796473, 49.879229], [5.796366, 49.87948], [5.796179, 49.87974], [5.795996, 49.879976], [5.795904, 49.880087], [5.795626, 49.880278], [5.795542, 49.880323], [5.795034, 49.880449], [5.794638, 49.880568], [5.794451, 49.880671], [5.79421, 49.880686], [5.793818, 49.880636], [5.793405, 49.880461], [5.793219, 49.880331], [5.792917, 49.880049], [5.792311, 49.879553], [5.791937, 49.879232], [5.791819, 49.87908], [5.791788, 49.878916], [5.792028, 49.87813], [5.792097, 49.877924], [5.792093, 49.877516], [5.791998, 49.877123], [5.792021, 49.87694], [5.792135, 49.876619], [5.79233, 49.875952], [5.792364, 49.875784], [5.792379, 49.875654], [5.792345, 49.875574], [5.792192, 49.875429], [5.792021, 49.875288], [5.791792, 49.875124], [5.791182, 49.874803], [5.790686, 49.874563], [5.790064, 49.874231], [5.789583, 49.873999], [5.788958, 49.873713], [5.788542, 49.873568], [5.787992, 49.873488], [5.7875, 49.873476], [5.787149, 49.873541], [5.786085, 49.873915], [5.784933, 49.874277], [5.78401, 49.8748], [5.783377, 49.875112], [5.78285, 49.875414], [5.782667, 49.875578], [5.782568, 49.875727], [5.782701, 49.875748], [5.782812, 49.875793], [5.782881, 49.875835], [5.78293, 49.875877], [5.782965, 49.875927], [5.783033, 49.87608], [5.783064, 49.876167], [5.783133, 49.876446], [5.783182, 49.87655], [5.783331, 49.876907], [5.783434, 49.87715], [5.783533, 49.877415], [5.783571, 49.87753], [5.783579, 49.877594], [5.783575, 49.877705], [5.78356, 49.87784], [5.783514, 49.878105], [5.78343, 49.878532], [5.783415, 49.878628], [5.783392, 49.87869], [5.783365, 49.878742], [5.783335, 49.878777], [5.783152, 49.878937], [5.783041, 49.879044], [5.782968, 49.87911], [5.782915, 49.87915], [5.782835, 49.879196], [5.782675, 49.879257], [5.782534, 49.879326], [5.782461, 49.879356], [5.782423, 49.87937], [5.782312, 49.87942], [5.78203, 49.87946], [5.781828, 49.87949], [5.781698, 49.87953], [5.781378, 49.87968], [5.781176, 49.879784], [5.781, 49.87986], [5.780947, 49.87989], [5.780916, 49.879936], [5.780874, 49.88002], [5.780829, 49.880104], [5.780741, 49.88018], [5.78068, 49.880215], [5.780634, 49.88023], [5.780558, 49.880238], [5.780405, 49.88024], [5.780268, 49.880257], [5.780214, 49.880276], [5.780172, 49.880306], [5.780142, 49.88035], [5.780107, 49.880447], [5.780073, 49.880512], [5.780024, 49.88058], [5.779974, 49.880615], [5.779932, 49.880642], [5.779859, 49.880657], [5.77976, 49.880676], [5.779688, 49.880703], [5.7796, 49.880768], [5.779486, 49.880875], [5.779398, 49.880943], [5.77936, 49.880962], [5.779272, 49.881], [5.779047, 49.88106], [5.778921, 49.881096], [5.778868, 49.881123], [5.778845, 49.881145], [5.77883, 49.88121], [5.778822, 49.8814], [5.778814, 49.881466], [5.778727, 49.881657], [5.778704, 49.881695], [5.778662, 49.881737], [5.778631, 49.881756], [5.778597, 49.88175], [5.778555, 49.881714], [5.778505, 49.88167], [5.778463, 49.881653], [5.778429, 49.88166], [5.778368, 49.881706], [5.778234, 49.881813], [5.778162, 49.8819], [5.778101, 49.881992], [5.778059, 49.88208], [5.778051, 49.88215], [5.778055, 49.8822], [5.778082, 49.882294], [5.778128, 49.882393], [5.778292, 49.88259], [5.778322, 49.88268], [5.778341, 49.882824], [5.778338, 49.88293], [5.778307, 49.883022], [5.778212, 49.883198], [5.778177, 49.88332], [5.778196, 49.88342], [5.778227, 49.883453], [5.778265, 49.88346], [5.778318, 49.883457], [5.77836, 49.883446], [5.778402, 49.88345], [5.778437, 49.88347], [5.778433, 49.883488], [5.778109, 49.88376], [5.777937, 49.883884], [5.777838, 49.883892], [5.777536, 49.88395], [5.777338, 49.88399], [5.776808, 49.88408], [5.776613, 49.884117], [5.776422, 49.884155], [5.77585, 49.884274], [5.775759, 49.884285], [5.77564, 49.8843], [5.775347, 49.884315], [5.775068, 49.884335], [5.774877, 49.88434], [5.774713, 49.884342], [5.774607, 49.884342], [5.774523, 49.88435], [5.774435, 49.884354], [5.774355, 49.884357], [5.77389, 49.884415], [5.773478, 49.88448], [5.77321, 49.88453], [5.772707, 49.884636], [5.772551, 49.884686], [5.772406, 49.88474], [5.772203, 49.884842], [5.771997, 49.884964], [5.771833, 49.88507], [5.771784, 49.885113], [5.771734, 49.885166], [5.771631, 49.885303], [5.771509, 49.885468], [5.771444, 49.885563], [5.771414, 49.885647], [5.771334, 49.885853], [5.771231, 49.88603], [5.771181, 49.886112], [5.771048, 49.886402], [5.771013, 49.886467], [5.770952, 49.886536], [5.770884, 49.8866], [5.770754, 49.88669], [5.770609, 49.886784], [5.770556, 49.886837], [5.770533, 49.88687], [5.770513, 49.886936], [5.770506, 49.88697], [5.770506, 49.887016], [5.770513, 49.887047], [5.77054, 49.88712], [5.770651, 49.88733], [5.770609, 49.88735], [5.77022, 49.88709], [5.770132, 49.887024], [5.770063, 49.886993], [5.769972, 49.886963], [5.769903, 49.886948], [5.769671, 49.88694], [5.769247, 49.88693], [5.768892, 49.886936], [5.76874, 49.88695], [5.768629, 49.886963], [5.76837, 49.887005], [5.76821, 49.88704], [5.767981, 49.887096], [5.767782, 49.887154], [5.767534, 49.887245], [5.767469, 49.887264], [5.767355, 49.887295], [5.767351, 49.887352], [5.767351, 49.88737], [5.767317, 49.887413], [5.767225, 49.88751], [5.767145, 49.88758], [5.767027, 49.887688], [5.766966, 49.887726], [5.766794, 49.88783], [5.76671, 49.887886], [5.766588, 49.887978], [5.766542, 49.888], [5.766489, 49.888016], [5.766138, 49.88811], [5.765783, 49.888245], [5.765764, 49.88823], [5.765684, 49.888187], [5.765577, 49.888138], [5.765543, 49.888123], [5.765516, 49.88812], [5.765482, 49.888123], [5.765379, 49.888153], [5.765341, 49.888145], [5.765284, 49.888126], [5.765135, 49.888054], [5.76494, 49.888233], [5.764914, 49.888184], [5.764887, 49.88817], [5.764852, 49.888153], [5.764814, 49.888145], [5.76473, 49.88815], [5.764452, 49.88817], [5.764345, 49.888172], [5.763983, 49.888245], [5.763891, 49.88826], [5.763823, 49.88826], [5.76372, 49.888252], [5.763578, 49.88824], [5.763491, 49.888237], [5.763376, 49.888245], [5.763296, 49.88826], [5.763189, 49.888298], [5.762861, 49.888447], [5.762743, 49.888496], [5.762285, 49.888626], [5.761633, 49.88886], [5.761446, 49.888924], [5.761164, 49.88899], [5.760965, 49.889027], [5.760759, 49.88907], [5.76066, 49.889103], [5.760279, 49.889244], [5.760183, 49.889275], [5.760103, 49.88929], [5.759851, 49.889317], [5.759417, 49.88936], [5.758978, 49.88941], [5.758379, 49.88947], [5.758131, 49.88949], [5.757982, 49.88949], [5.757669, 49.889477], [5.757422, 49.889458], [5.75736, 49.889458], [5.757341, 49.88946], [5.757299, 49.889473], [5.757273, 49.88949], [5.757254, 49.88952], [5.757101, 49.88981], [5.756861, 49.889732], [5.756811, 49.88973], [5.756754, 49.889736], [5.756693, 49.88975], [5.756659, 49.88977], [5.756605, 49.88981], [5.756453, 49.889965], [5.756304, 49.890114], [5.756052, 49.890408], [5.755999, 49.89046], [5.755949, 49.8905], [5.7558, 49.89059], [5.755953, 49.890724], [5.755815, 49.89073], [5.755682, 49.89076], [5.755548, 49.890793], [5.755411, 49.890842], [5.755205, 49.89092], [5.755102, 49.89096], [5.754915, 49.891052], [5.75469, 49.891144], [5.754244, 49.891296], [5.754091, 49.891342], [5.753962, 49.89137], [5.753889, 49.891376], [5.753843, 49.891373], [5.753771, 49.89136], [5.753717, 49.891346], [5.753294, 49.89143], [5.753206, 49.891464], [5.753038, 49.89147], [5.752981, 49.891354], [5.752977, 49.891308], [5.752924, 49.891304], [5.752401, 49.89131], [5.75226, 49.89131], [5.752058, 49.891293], [5.75194, 49.891285], [5.751844, 49.89129], [5.751711, 49.891304], [5.751493, 49.89134], [5.75083, 49.891445], [5.750425, 49.891514], [5.750135, 49.891575], [5.749842, 49.891663], [5.749308, 49.891834], [5.749044, 49.89192], [5.74869, 49.89206], [5.748419, 49.892166], [5.74787, 49.89239], [5.747572, 49.892643], [5.747465, 49.892735], [5.747603, 49.892815], [5.747213, 49.893066], [5.746939, 49.89328], [5.746778, 49.893417], [5.746733, 49.89347], [5.746714, 49.893524], [5.746717, 49.89356], [5.746736, 49.89362], [5.746756, 49.89366], [5.746531, 49.893684], [5.746504, 49.893715], [5.746504, 49.893738], [5.746569, 49.893814], [5.746592, 49.893845], [5.746588, 49.893883], [5.746576, 49.89403], [5.746378, 49.894184], [5.746283, 49.894165], [5.746191, 49.89417], [5.74581, 49.89421], [5.745409, 49.894234], [5.745085, 49.8943], [5.744768, 49.89441], [5.744219, 49.89459], [5.744131, 49.89463], [5.744021, 49.894703], [5.743864, 49.894814], [5.743826, 49.89484], [5.743792, 49.894825], [5.743776, 49.894817], [5.743616, 49.89487], [5.743536, 49.8949], [5.743456, 49.89494], [5.743395, 49.89496], [5.743349, 49.89496], [5.74328, 49.894943], [5.743238, 49.894943], [5.743177, 49.894955], [5.743029, 49.894974], [5.742964, 49.89497], [5.742926, 49.894974], [5.74288, 49.895], [5.742788, 49.895077], [5.742746, 49.895092], [5.742731, 49.895107], [5.74272, 49.895126], [5.742685, 49.895126], [5.742544, 49.895115], [5.742506, 49.895103], [5.742163, 49.895065], [5.741949, 49.89505], [5.741877, 49.89505], [5.741724, 49.895065], [5.741346, 49.89512], [5.741209, 49.895134], [5.740976, 49.89514], [5.740808, 49.895134], [5.740686, 49.895126], [5.740213, 49.89507], [5.739759, 49.895], [5.739306, 49.89529], [5.739054, 49.89547], [5.738611, 49.895813], [5.738432, 49.89595], [5.738131, 49.896168], [5.738058, 49.896214], [5.737993, 49.896244], [5.73786, 49.896294], [5.737501, 49.896404], [5.73702, 49.896538], [5.736933, 49.896572], [5.736811, 49.896633], [5.736731, 49.89666], [5.736486, 49.89672], [5.73636, 49.896748], [5.736261, 49.896755], [5.736086, 49.89675], [5.735979, 49.896755], [5.735922, 49.896767], [5.73583, 49.896805], [5.735769, 49.89684], [5.735727, 49.896877], [5.735708, 49.896896], [5.735701, 49.896927]]]]}}]}