{"type": "FeatureCollection", "features": [{"type": "Feature", "properties": {"name": "Mamer"}, "geometry": {"type": "Polygon", "coordinates": [[[6.0079838, 49.6042681], [6.008078, 49.6043945], [6.0084612, 49.6049091], [6.0084734, 49.6049806], [6.0084737, 49.6049822], [6.0085021, 49.605148], [6.00856, 49.6055557], [6.0085611, 49.6055632], [6.0085649, 49.6056021], [6.0085752, 49.6057054], [6.008177, 49.6057821], [6.007633, 49.6058786], [6.007547, 49.6058907], [6.0074901, 49.6058986], [6.0070926, 49.6059543], [6.0067931, 49.6059963], [6.0065258, 49.6060299], [6.0062283, 49.6060532], [6.0058781, 49.606081], [6.005857, 49.6060827], [6.0057262, 49.6060931], [6.0050522, 49.6061558], [6.0055565, 49.606576], [6.0055935, 49.6066016], [6.0062098, 49.6070274], [6.0062176, 49.6070328], [6.0062401, 49.6070461], [6.0063695, 49.6071229], [6.006373, 49.607125], [6.0068004, 49.6073785], [6.0068613, 49.607414], [6.006865, 49.6074161], [6.0070959, 49.6075508], [6.007156, 49.6075858], [6.0074243, 49.6077423], [6.0069888, 49.6083624], [6.0067953, 49.6086431], [6.0064855, 49.6091003], [6.0063226, 49.6093291], [6.0063116, 49.6093446], [6.0061883, 49.6095179], [6.0059084, 49.609933], [6.0058492, 49.6100161], [6.0056932, 49.6100697], [6.0056867, 49.6100719], [6.0055386, 49.6101124], [6.0054006, 49.6101386], [6.0051314, 49.6101738], [6.0048914, 49.610204], [6.0046412, 49.6102495], [6.0044371, 49.6102934], [6.0041165, 49.6103677], [6.0039484, 49.6104], [6.003945, 49.6104004], [6.0037452, 49.6104273], [6.0035612, 49.6104364], [6.0033357, 49.610437], [6.0031533, 49.6104214], [6.0028663, 49.6103911], [6.0028647, 49.6103909], [6.0027292, 49.6103766], [6.0024362, 49.6103388], [6.0021585, 49.6102973], [6.0019377, 49.6102594], [6.0002543, 49.6126908], [6.0005594, 49.6139042], [5.9989231, 49.6145904], [5.9985428, 49.6146623], [5.9985269, 49.6148933], [5.9994144, 49.6150576], [6.000389, 49.6154889], [6.0003732, 49.6159407], [5.9999136, 49.6172549], [5.9990895, 49.6181892], [5.9979406, 49.6197858], [5.9975285, 49.6211307], [5.996958, 49.6222703], [5.995508, 49.6219777], [5.9942719, 49.6236665], [5.993321, 49.6237538], [5.9924494, 49.6238205], [5.9920295, 49.6245391], [5.9916333, 49.6244621], [5.9904922, 49.6265563], [5.9900802, 49.6266025], [5.9900485, 49.6272698], [5.990001, 49.6280704], [5.9873782, 49.6268951], [5.9866334, 49.6269207], [5.9855874, 49.6271158], [5.9845336, 49.6268591], [5.983551, 49.6276085], [5.9832737, 49.6279729], [5.9821882, 49.6281166], [5.9822357, 49.6282809], [5.982521, 49.6282757], [5.9827507, 49.6284503], [5.9824496, 49.6290456], [5.9820059, 49.6302928], [5.9822595, 49.6310934], [5.9820059, 49.6317914], [5.9815226, 49.6324535], [5.981586, 49.633095], [5.9821802, 49.6342343], [5.9864347, 49.6322977], [5.9869169, 49.6325674], [5.9869158, 49.6330682], [5.9868148, 49.633458], [5.9879408, 49.6341624], [5.9893988, 49.6349938], [5.9904843, 49.6356199], [5.9899059, 49.6359534], [5.9904922, 49.6363743], [5.9912846, 49.6371543], [5.9923226, 49.6377341], [5.9931863, 49.6377187], [5.9940579, 49.6378316], [5.9953574, 49.6377854], [5.9952227, 49.6381754], [5.9958645, 49.6384269], [5.9960626, 49.6396943], [5.9945413, 49.6399766], [5.9943907, 49.640346], [5.9941926, 49.6407617], [5.9945254, 49.6414082], [5.9953812, 49.6419983], [5.9961419, 49.6426602], [5.9963168, 49.6427762], [5.9969105, 49.6430655], [5.9991884, 49.6423227], [6.002517, 49.6413188], [6.0027861, 49.6417541], [6.0028876, 49.6423001], [6.002634, 49.6427885], [6.001924, 49.6441718], [6.0011317, 49.6450667], [6.0004851, 49.6455633], [6.001474, 49.6462447], [6.0027861, 49.646454], [6.0042758, 49.6477305], [6.0045712, 49.6486922], [6.00614, 49.6508061], [6.0071305, 49.6498827], [6.0092778, 49.6504573], [6.0103316, 49.651709], [6.0079399, 49.6521641], [6.0080802, 49.652552], [6.0082384, 49.6525503], [6.0084114, 49.6525532], [6.0085727, 49.6525539], [6.0088336, 49.6525675], [6.0092687, 49.6525882], [6.0094641, 49.6525132], [6.0099416, 49.6523349], [6.0102883, 49.6522049], [6.0103412, 49.6522017], [6.0104924, 49.6521985], [6.0105993, 49.6521973], [6.0107617, 49.6522048], [6.010929, 49.6522177], [6.0111351, 49.652244], [6.011544, 49.6523025], [6.0117264, 49.652475], [6.0118925, 49.6525238], [6.0122489, 49.6526346], [6.0126211, 49.6527497], [6.0129625, 49.6528557], [6.0131115, 49.6528593], [6.0132982, 49.6528688], [6.0135779, 49.6528805], [6.0138819, 49.6528986], [6.0141229, 49.6529165], [6.014248, 49.6529301], [6.0143601, 49.6529525], [6.0144977, 49.6530179], [6.0146201, 49.6530722], [6.0151566, 49.653363], [6.0152926, 49.65344], [6.0154174, 49.6535189], [6.0152535, 49.6536995], [6.0153753, 49.653732], [6.0155428, 49.6537728], [6.0158046, 49.6538403], [6.0162226, 49.6539401], [6.0164718, 49.6540009], [6.0164662, 49.6540493], [6.01646, 49.6541033], [6.0164551, 49.6541467], [6.0164516, 49.6542301], [6.016749, 49.6542851], [6.0169495, 49.65432], [6.0172149, 49.6543581], [6.0177999, 49.6544352], [6.0180825, 49.6544702], [6.0184404, 49.6545155], [6.0186856, 49.6545465], [6.0190801, 49.6545946], [6.0194884, 49.6546445], [6.0195721, 49.6546672], [6.0197309, 49.6547111], [6.019808, 49.6547351], [6.0198836, 49.6547639], [6.0199543, 49.6547918], [6.019996, 49.6548187], [6.0200442, 49.6548624], [6.0200806, 49.6549119], [6.0200857, 49.6549269], [6.0201017, 49.6549617], [6.0201032, 49.6549885], [6.0201109, 49.6549998], [6.0201385, 49.6550193], [6.0201771, 49.6550323], [6.020198, 49.6550412], [6.0202189, 49.6550532], [6.0202317, 49.655074], [6.0202541, 49.6551048], [6.0202869, 49.6551161], [6.0203135, 49.6551173], [6.0203266, 49.6551143], [6.0203489, 49.6551084], [6.0203878, 49.6550947], [6.0204177, 49.6550929], [6.0204467, 49.6550978], [6.0204545, 49.6551061], [6.0204534, 49.6551199], [6.0204515, 49.655133], [6.0204621, 49.6551426], [6.0204755, 49.6551486], [6.020493, 49.655151], [6.0205143, 49.6551487], [6.0205269, 49.6551421], [6.0205347, 49.6551308], [6.0205444, 49.6551152], [6.020561, 49.6551027], [6.0205813, 49.6550985], [6.0206046, 49.6550998], [6.020621, 49.65511], [6.0206249, 49.6551201], [6.0206219, 49.6551351], [6.0206209, 49.6551518], [6.0206315, 49.6551632], [6.0206519, 49.6551704], [6.0206912, 49.6551805], [6.0208433, 49.6552184], [6.0209012, 49.6552331], [6.0209333, 49.6552412], [6.0209972, 49.6552616], [6.0210454, 49.6552813], [6.0210648, 49.6552849], [6.0210784, 49.6552843], [6.021092, 49.6552778], [6.0211094, 49.6552772], [6.021121, 49.6552808], [6.0211268, 49.655288], [6.0211307, 49.6552946], [6.0211471, 49.6553018], [6.0211733, 49.655309], [6.0212004, 49.6553126], [6.0212226, 49.6553162], [6.0212497, 49.6553228], [6.0212778, 49.6553252], [6.0213069, 49.6553246], [6.0213427, 49.6553163], [6.0213669, 49.6553122], [6.021394, 49.6553068], [6.0214231, 49.6553062], [6.0214493, 49.6553075], [6.0214686, 49.6553135], [6.0214803, 49.6553189], [6.0215217, 49.6553428], [6.0215662, 49.6553626], [6.021603, 49.6553776], [6.0216359, 49.6553872], [6.0216747, 49.6553932], [6.0217065, 49.6553937], [6.0217374, 49.6553979], [6.0217597, 49.6554039], [6.0217762, 49.6554123], [6.0217936, 49.6554291], [6.0218119, 49.6554458], [6.0218226, 49.6554566], [6.0218206, 49.6554662], [6.0218185, 49.6554745], [6.0218175, 49.6554864], [6.0218194, 49.6554942], [6.021829, 49.6555008], [6.0218455, 49.6555038], [6.0218581, 49.6555032], [6.0218678, 49.6555032], [6.0218833, 49.6555086], [6.0219162, 49.6555123], [6.0219521, 49.6555111], [6.021987, 49.6555052], [6.0220229, 49.6554909], [6.0220644, 49.6554778], [6.0221119, 49.6554736], [6.0221574, 49.6554827], [6.0222039, 49.6554917], [6.0222434, 49.6555085], [6.0222851, 49.6555181], [6.0223219, 49.6555236], [6.0223983, 49.6555271], [6.0224893, 49.6555236], [6.0225775, 49.6555166], [6.0226463, 49.6555089], [6.0226588, 49.6555083], [6.0226937, 49.6555119], [6.0227073, 49.6555203], [6.022713, 49.6555299], [6.0227188, 49.655546], [6.0227313, 49.6555675], [6.0227497, 49.6555747], [6.0227738, 49.6555824], [6.0228125, 49.6555854], [6.0228416, 49.6555849], [6.0228678, 49.6555801], [6.0228949, 49.6555712], [6.0229328, 49.6555581], [6.0229578, 49.6555414], [6.0229811, 49.6555235], [6.0230005, 49.6555193], [6.0230267, 49.6555277], [6.0230392, 49.6555427], [6.0230353, 49.6555684], [6.0230585, 49.6555887], [6.0230972, 49.6556019], [6.0231427, 49.6556032], [6.0232057, 49.6556068], [6.0232899, 49.6556226], [6.0233277, 49.6556261], [6.0233537, 49.6556338], [6.0233662, 49.6556422], [6.0233735, 49.6556705], [6.0234036, 49.6556861], [6.0234525, 49.6557049], [6.0235031, 49.6557148], [6.0236187, 49.6557287], [6.0237315, 49.6557402], [6.0237346, 49.6557296], [6.0237392, 49.655722], [6.0237657, 49.6557181], [6.0237853, 49.6557259], [6.0237938, 49.6557353], [6.023802, 49.6557444], [6.0238178, 49.6557485], [6.0238372, 49.6557474], [6.0238444, 49.6557397], [6.0238451, 49.6557346], [6.0238441, 49.6557195], [6.0238519, 49.6557103], [6.0238919, 49.655711], [6.0239097, 49.655703], [6.023919, 49.6556965], [6.023923, 49.6556819], [6.0239269, 49.6556681], [6.0239375, 49.6556608], [6.0239599, 49.6556576], [6.0239823, 49.6556625], [6.0240165, 49.6556747], [6.0240385, 49.6556766], [6.0240622, 49.6556725], [6.0240807, 49.6556644], [6.0240978, 49.6556515], [6.0241121, 49.6556403], [6.0241188, 49.6556361], [6.0241214, 49.6556189], [6.0241355, 49.6555934], [6.0241619, 49.6555546], [6.0241901, 49.6555173], [6.0242131, 49.6554825], [6.0242171, 49.6554687], [6.0242164, 49.6554509], [6.02421, 49.6554346], [6.0241861, 49.6554015], [6.0241471, 49.6553487], [6.024124, 49.6553126], [6.0241073, 49.6552773], [6.0240979, 49.6552353], [6.02409, 49.6551948], [6.0240869, 49.6551489], [6.0240862, 49.6551076], [6.0240831, 49.6550666], [6.0240704, 49.655033], [6.024049, 49.6549852], [6.024037, 49.6549586], [6.0240379, 49.6549363], [6.0240468, 49.6549107], [6.0240621, 49.6548781], [6.0240766, 49.6548406], [6.0240903, 49.654793], [6.0240976, 49.6547535], [6.0241026, 49.6547026], [6.0241059, 49.6546539], [6.0241045, 49.654613], [6.0241109, 49.6545917], [6.0241198, 49.6545749], [6.0241422, 49.6545582], [6.024175, 49.6545386], [6.0242087, 49.6545179], [6.024224, 49.6544967], [6.0242288, 49.654476], [6.0242352, 49.6544043], [6.0242427, 49.6542852], [6.0242516, 49.6542536], [6.0242871, 49.6542219], [6.0243403, 49.6541936], [6.0244325, 49.6541522], [6.0245243, 49.6541012], [6.0245687, 49.6540696], [6.0246379, 49.6540107], [6.0247247, 49.6539281], [6.0248064, 49.6538397], [6.0248455, 49.6537851], [6.0248668, 49.6537437], [6.0248705, 49.653712], [6.0248529, 49.6536589], [6.0248301, 49.653601], [6.0248178, 49.653554], [6.024841, 49.6535027], [6.0248712, 49.6534623], [6.0249191, 49.6534111], [6.0249458, 49.6533609], [6.0249424, 49.6533327], [6.0249265, 49.6532989], [6.0248948, 49.6532442], [6.0248295, 49.6531808], [6.0247801, 49.6531417], [6.0247059, 49.6530848], [6.0246777, 49.6530466], [6.0246725, 49.6530149], [6.0246885, 49.6529887], [6.0247151, 49.6529691], [6.0247594, 49.6529495], [6.0248268, 49.6529204], [6.0248729, 49.6528909], [6.0249066, 49.6528538], [6.0249297, 49.6528222], [6.0249652, 49.6527895], [6.0250078, 49.6527666], [6.0251052, 49.6527329], [6.0252234, 49.6526918], [6.0253014, 49.652658], [6.0253439, 49.6526297], [6.0253954, 49.6525817], [6.0254433, 49.652537], [6.0254998, 49.6524893], [6.0255637, 49.6524544], [6.0256469, 49.6524338], [6.0257568, 49.6524], [6.025817, 49.6523662], [6.0259143, 49.6522925], [6.0260456, 49.6521834], [6.0262457, 49.6520104], [6.0264604, 49.6518134], [6.0264852, 49.6517709], [6.0264943, 49.6517064], [6.0264857, 49.6516234], [6.0264965, 49.6515451], [6.0265197, 49.6514785], [6.0265535, 49.6514152], [6.0266139, 49.6513617], [6.0267114, 49.6512909], [6.02677, 49.6512396], [6.0268123, 49.6511825], [6.0268675, 49.6510679], [6.0269085, 49.6509882], [6.0269493, 49.6509391], [6.0270115, 49.650878], [6.027102, 49.6507809], [6.0271851, 49.6506962], [6.0272763, 49.650586], [6.0273451, 49.6504875], [6.0274032, 49.6503906], [6.0274627, 49.6503907], [6.0275634, 49.6503904], [6.0277152, 49.65039], [6.0278085, 49.6503875], [6.0279262, 49.6503843], [6.0281038, 49.650628], [6.0283423, 49.6511143], [6.0284957, 49.6513993], [6.0286354, 49.6516369], [6.0287808, 49.6518415], [6.0291686, 49.6523579], [6.0295756, 49.6528279], [6.0303113, 49.6535853], [6.0309155, 49.6541031], [6.0309515, 49.6540863], [6.0310756, 49.6540308], [6.0312566, 49.6539497], [6.0313334, 49.6539153], [6.0313481, 49.6539087], [6.031424, 49.6538747], [6.0314999, 49.6538407], [6.0315202, 49.6538316], [6.0316005, 49.6537956], [6.0324409, 49.6541054], [6.0330116, 49.6542426], [6.0335321, 49.6545815], [6.0339669, 49.6548579], [6.0340962, 49.6548145], [6.0342416, 49.6547654], [6.0343046, 49.6547635], [6.0347971, 49.6545274], [6.0351269, 49.6543691], [6.035379, 49.6542573], [6.0354783, 49.6542338], [6.0356588, 49.654227], [6.0359567, 49.6542176], [6.0362454, 49.6542361], [6.0365286, 49.654253], [6.0366241, 49.6542607], [6.0370573, 49.6543093], [6.037235, 49.6543832], [6.0374846, 49.6544715], [6.0382574, 49.6546851], [6.038293, 49.6546949], [6.0384968, 49.6547571], [6.0387122, 49.6548159], [6.0388848, 49.6548426], [6.0390434, 49.6548643], [6.0391509, 49.6548751], [6.0392571, 49.6548844], [6.039458, 49.6548925], [6.0397084, 49.654899], [6.0400739, 49.6548873], [6.04042, 49.6548366], [6.0409465, 49.654783], [6.041757, 49.654712], [6.0421055, 49.6546868], [6.0425044, 49.6546167], [6.0426308, 49.6545929], [6.0431824, 49.654487], [6.0432554, 49.6544765], [6.0433283, 49.6544781], [6.0434352, 49.6544962], [6.0434936, 49.6544992], [6.0437682, 49.6545309], [6.0438644, 49.6545042], [6.0438888, 49.6544786], [6.0439234, 49.6544653], [6.0439662, 49.654462], [6.044039, 49.6544634], [6.0440818, 49.6544614], [6.0441376, 49.6544491], [6.0442077, 49.6544322], [6.044259, 49.6544254], [6.0443217, 49.6544204], [6.0443938, 49.6544069], [6.0444443, 49.6543999], [6.0444878, 49.6544089], [6.0445265, 49.6544192], [6.0445867, 49.6544126], [6.0446399, 49.6544249], [6.044688, 49.6544208], [6.0447405, 49.65438], [6.0448095, 49.6543193], [6.0448558, 49.6542962], [6.0448972, 49.65429], [6.0449753, 49.6542745], [6.0450607, 49.654234], [6.0451193, 49.6542012], [6.0451779, 49.6541857], [6.0452925, 49.6541593], [6.0453774, 49.6541332], [6.0454238, 49.6541099], [6.0454654, 49.6540724], [6.0454898, 49.6540552], [6.0455532, 49.6540381], [6.0455996, 49.654021], [6.0456387, 49.6539897], [6.0456826, 49.6539726], [6.045785, 49.6539509], [6.0459901, 49.6538542], [6.0460462, 49.6538308], [6.0461193, 49.6538263], [6.0462144, 49.6538155], [6.0462698, 49.6537962], [6.0463209, 49.65379], [6.0463917, 49.6537745], [6.0464331, 49.6537746], [6.0464867, 49.6537825], [6.0465355, 49.6537591], [6.0466088, 49.6537139], [6.0467016, 49.653664], [6.0467772, 49.653625], [6.0468237, 49.6535922], [6.0468579, 49.6535672], [6.0469189, 49.6535485], [6.0469848, 49.6535252], [6.0469995, 49.6535002], [6.0469958, 49.6534738], [6.0469569, 49.6534518], [6.0469058, 49.6534376], [6.0468449, 49.6534312], [6.0468182, 49.6534249], [6.0468133, 49.6534123], [6.0468354, 49.6533889], [6.0468768, 49.653378], [6.0469037, 49.6533593], [6.0469403, 49.6533547], [6.0470012, 49.6533517], [6.0471037, 49.6533111], [6.0471427, 49.6532924], [6.0471817, 49.6533035], [6.0472303, 49.6533271], [6.0472791, 49.6533178], [6.0473328, 49.6532944], [6.0473645, 49.6532804], [6.0473719, 49.6532569], [6.0473867, 49.6532256], [6.0474281, 49.6532179], [6.0475159, 49.6532133], [6.0475939, 49.6531978], [6.0476451, 49.6531948], [6.0476864, 49.653209], [6.0477253, 49.653231], [6.0477765, 49.6532389], [6.0478423, 49.6532296], [6.0479049, 49.6532114], [6.0480367, 49.6531553], [6.0481001, 49.6531257], [6.0481783, 49.6530789], [6.0482271, 49.6530508], [6.0482881, 49.653029], [6.048332, 49.653015], [6.0483637, 49.6530197], [6.0484001, 49.6530433], [6.0484342, 49.6530559], [6.0484683, 49.653056], [6.0485073, 49.6530451], [6.0485415, 49.6530295], [6.048588, 49.6529936], [6.0486246, 49.6529639], [6.0486588, 49.6529452], [6.0486856, 49.6529452], [6.0487099, 49.6529594], [6.0487318, 49.6529798], [6.0487561, 49.6529924], [6.0487926, 49.6529971], [6.0488219, 49.6529925], [6.0488268, 49.6529706], [6.0488221, 49.6529424], [6.0488441, 49.6529189], [6.0488832, 49.6529002], [6.0489459, 49.6528882], [6.0490093, 49.6528821], [6.049058, 49.6528822], [6.0490823, 49.6528963], [6.049092, 49.6529167], [6.0491113, 49.6529418], [6.049143, 49.652945], [6.0491699, 49.6529294], [6.049192, 49.6528887], [6.0491776, 49.6528151], [6.0491754, 49.6527791], [6.0491974, 49.6527431], [6.0492316, 49.6527259], [6.0492681, 49.652737], [6.0493021, 49.6527605], [6.049346, 49.6527544], [6.0493874, 49.6527544], [6.0494312, 49.6527827], [6.0494726, 49.6527906], [6.0494896, 49.6527969], [6.0495139, 49.6528095], [6.0495431, 49.652808], [6.0495895, 49.652794], [6.0496236, 49.6527893], [6.0496431, 49.6527956], [6.0496785, 49.6528067], [6.04972, 49.6528037], [6.0497664, 49.6527818], [6.0498005, 49.6527741], [6.0498273, 49.6527725], [6.0498565, 49.6527789], [6.0499077, 49.6527743], [6.0499492, 49.6527571], [6.0500004, 49.6527572], [6.0500564, 49.6527589], [6.0501077, 49.6527324], [6.0501614, 49.6527074], [6.0502125, 49.6527138], [6.0502466, 49.6527264], [6.0502465, 49.6527436], [6.0502488, 49.6527687], [6.0502805, 49.6527781], [6.0503121, 49.6527829], [6.0503437, 49.6527986], [6.0503826, 49.652819], [6.0504266, 49.6528035], [6.0504462, 49.6527785], [6.0504585, 49.6527425], [6.0504781, 49.6527096], [6.0505293, 49.6527019], [6.0505878, 49.6526895], [6.0506268, 49.652699], [6.0506876, 49.6527241], [6.0507241, 49.6527414], [6.0507655, 49.6527321], [6.0508143, 49.6527072], [6.0509265, 49.652687], [6.0510167, 49.65267], [6.0510728, 49.6526701], [6.051158, 49.6526812], [6.0513154, 49.6526815], [6.0514421, 49.652699], [6.0515468, 49.6527226], [6.0516806, 49.6527527], [6.0518324, 49.6527902], [6.0519522, 49.6528223], [6.0520712, 49.6528588], [6.0521169, 49.6528624], [6.0521771, 49.6528673], [6.0522243, 49.6528598], [6.0522292, 49.6528809], [6.0522169, 49.6529154], [6.0522168, 49.6529335], [6.0522241, 49.6529455], [6.0522533, 49.6529516], [6.0522802, 49.6529486], [6.0523118, 49.6529426], [6.0523435, 49.6529426], [6.0523654, 49.6529562], [6.0523946, 49.6529667], [6.0524239, 49.6529577], [6.0524361, 49.6529367], [6.0524264, 49.6529096], [6.0524387, 49.6528841], [6.0524899, 49.6528751], [6.0525629, 49.6528872], [6.0526652, 49.6529249], [6.0527869, 49.6529536], [6.0528273, 49.6529596], [6.0529126, 49.6529717], [6.0529711, 49.6529673], [6.0530296, 49.6529598], [6.0530734, 49.6529719], [6.0531196, 49.6529945], [6.0531562, 49.652996], [6.0531903, 49.6529961], [6.0532073, 49.6530081], [6.0532463, 49.6530292], [6.0532779, 49.6530397], [6.0533096, 49.6530368], [6.0533535, 49.6530143], [6.0533925, 49.6529993], [6.0534315, 49.6529978], [6.0534729, 49.6530114], [6.0534948, 49.6530309], [6.0535142, 49.653052], [6.0535264, 49.6530716], [6.0535702, 49.6530957], [6.0535994, 49.6531047], [6.0536213, 49.6531047], [6.0536408, 49.6530988], [6.053675, 49.6530762], [6.0537359, 49.6530567], [6.0538188, 49.6530433], [6.0539333, 49.6530389], [6.0539821, 49.6530374], [6.0540064, 49.6530465], [6.0540186, 49.65306], [6.0540209, 49.6530871], [6.0540355, 49.6531157], [6.0540476, 49.6531367], [6.0540768, 49.6531518], [6.0541207, 49.6531504], [6.0541402, 49.6531398], [6.0541745, 49.6530797], [6.0541868, 49.6530241], [6.0542258, 49.6530001], [6.0542672, 49.6529941], [6.0543062, 49.6530062], [6.0543183, 49.6530242], [6.0543353, 49.6530664], [6.0543718, 49.653095], [6.054418, 49.6531146], [6.0544873, 49.6531266], [6.0546116, 49.6531312], [6.0547042, 49.6531283], [6.0547919, 49.6531119], [6.0548577, 49.6531074], [6.0548943, 49.653118], [6.0549283, 49.6531376], [6.0549819, 49.6531497], [6.0550258, 49.6531452], [6.0550721, 49.6531302], [6.0551232, 49.6531348], [6.0551427, 49.6531498], [6.0551475, 49.6531814], [6.055145, 49.653207], [6.0551596, 49.653222], [6.0552059, 49.6532251], [6.0552425, 49.6532101], [6.0552864, 49.6531635], [6.055323, 49.653141], [6.0553693, 49.6531365], [6.0554083, 49.6531441], [6.0554253, 49.6531741], [6.0554618, 49.6532103], [6.0555433, 49.6532297], [6.0556115, 49.6532313], [6.0556676, 49.6532224], [6.0556969, 49.6531998], [6.055714, 49.6531743], [6.0557408, 49.6531593], [6.0557774, 49.6531563], [6.055792, 49.6531638], [6.0557749, 49.6531773], [6.0557578, 49.6532029], [6.0557724, 49.6532225], [6.055804, 49.653233], [6.055843, 49.653227], [6.0558723, 49.6532075], [6.0558992, 49.6531865], [6.055965, 49.6531805], [6.0560453, 49.6532017], [6.0564495, 49.6533374], [6.0565152, 49.6533495], [6.0565786, 49.6533526], [6.0566468, 49.6533496], [6.0570636, 49.6533034], [6.0575761, 49.6532348], [6.0581195, 49.6531737], [6.0585899, 49.6531155], [6.0589092, 49.6530797], [6.0591108, 49.6530514], [6.0592454, 49.6530433], [6.0595344, 49.653057], [6.0596929, 49.6530204], [6.0598002, 49.6530025], [6.0599708, 49.6529726], [6.0600824, 49.6529563], [6.0601447, 49.6529579], [6.0606203, 49.6531365], [6.0604763, 49.6529429], [6.0603774, 49.6528203], [6.0602492, 49.6526113], [6.0602023, 49.6524756], [6.0601393, 49.6523726], [6.0600336, 49.6522416], [6.0599505, 49.6521597], [6.0598379, 49.6520579], [6.0597252, 49.6520147], [6.059644, 49.6520035], [6.0596056, 49.6520296], [6.0595374, 49.6520491], [6.0594326, 49.6520625], [6.0593205, 49.6520654], [6.0591402, 49.6520547], [6.0590769, 49.6520502], [6.0589648, 49.652038], [6.0588772, 49.6520079], [6.0587677, 49.6519311], [6.0587118, 49.6518709], [6.0586706, 49.6517791], [6.0586512, 49.6517301], [6.0586392, 49.6516338], [6.0586493, 49.6514985], [6.058664, 49.6514263], [6.0586944, 49.6513482], [6.0586227, 49.6511115], [6.0585085, 49.6509145], [6.0583893, 49.6507627], [6.0581663, 49.6505968], [6.0580943, 49.6505159], [6.0580584, 49.6504533], [6.0580295, 49.6503694], [6.0580185, 49.6502678], [6.0580254, 49.6501647], [6.0580166, 49.6500673], [6.0579763, 49.649935], [6.0578887, 49.6497929], [6.0578239, 49.6496894], [6.0577747, 49.6495307], [6.0577999, 49.6493302], [6.0578341, 49.6491513], [6.0578457, 49.6490358], [6.0578301, 49.6489327], [6.0577831, 49.6487879], [6.0577133, 49.6486945], [6.0575853, 49.6485824], [6.0574502, 49.6484765], [6.0573285, 49.6484151], [6.0572046, 49.6483732], [6.0570715, 49.6483605], [6.0568978, 49.6483492], [6.0567896, 49.6483199], [6.0564291, 49.6481372], [6.0560246, 49.6479888], [6.0556639, 49.6478757], [6.0548817, 49.6476536], [6.0548443, 49.6476139], [6.0548287, 49.6475234], [6.0547702, 49.6474746], [6.0546687, 49.6474495], [6.0545514, 49.6474327], [6.0544049, 49.6473921], [6.0543171, 49.647335], [6.0542833, 49.6472862], [6.054288, 49.6472389], [6.0543876, 49.6470955], [6.0544086, 49.6470409], [6.0543908, 49.6469601], [6.0543098, 49.6468682], [6.0541229, 49.6467051], [6.0540578, 49.6465783], [6.0540626, 49.6464711], [6.0541417, 49.6463918], [6.0542614, 49.6462857], [6.0543902, 49.6461898], [6.0544738, 49.6461286], [6.0545033, 49.6460521], [6.0544877, 49.6459518], [6.0544767, 49.6458488], [6.0544858, 49.6457757], [6.0545875, 49.645702], [6.0547185, 49.6456367], [6.0548248, 49.6455226], [6.054843, 49.6454349], [6.0548455, 49.6453458], [6.0548254, 49.645302], [6.0547533, 49.6452546], [6.0546226, 49.6451974], [6.0543973, 49.6450941], [6.0542825, 49.6449966], [6.0541676, 49.6449324], [6.0540482, 49.6448877], [6.0539603, 49.6448668], [6.0538632, 49.6448806], [6.0537391, 49.6449014], [6.0536037, 49.6449263], [6.0534436, 49.6449178], [6.0533377, 49.6448787], [6.0532828, 49.6448183], [6.0532244, 49.644718], [6.0532361, 49.6445523], [6.0532862, 49.6443296], [6.0532796, 49.6442608], [6.0532392, 49.6441842], [6.053156, 49.6440992], [6.0530321, 49.644028], [6.0528653, 49.6439541], [6.0525543, 49.6438661], [6.0522792, 49.6437976], [6.0518109, 49.6437393], [6.05152, 49.6437098], [6.051369, 49.6436678], [6.0512677, 49.6436079], [6.0511799, 49.6435145], [6.0510844, 49.643447], [6.0509673, 49.6433745], [6.0508703, 49.6433618], [6.0506809, 49.6433547], [6.0504554, 49.6433433], [6.0503449, 49.6433154], [6.0502999, 49.6432694], [6.0502955, 49.6432137], [6.0502935, 49.6431399], [6.0502575, 49.6430897], [6.0501854, 49.6430674], [6.0500208, 49.6430421], [6.0497943, 49.6429884], [6.0496816, 49.6429326], [6.0495826, 49.6428642], [6.0494678, 49.6427611], [6.0494085, 49.6427188], [6.0493034, 49.6426901], [6.0491212, 49.6426403], [6.0489265, 49.642574], [6.0488413, 49.6425423], [6.0487469, 49.642499], [6.0487226, 49.6424403], [6.0486624, 49.6423102], [6.0486042, 49.6421914], [6.0485192, 49.642101], [6.0484219, 49.6420122], [6.0483137, 49.6419663], [6.0481407, 49.6419645], [6.0480379, 49.6419342], [6.0478639, 49.6418171], [6.0476212, 49.6415748], [6.0475447, 49.6414208], [6.04755, 49.6413058], [6.0475627, 49.6411817], [6.0475057, 49.6411495], [6.0472255, 49.6410404], [6.0469653, 49.6409717], [6.0467866, 49.6409777], [6.0466326, 49.6410082], [6.0465484, 49.6409468], [6.0465311, 49.6408931], [6.0465614, 49.6406894], [6.0465988, 49.6406496], [6.0466335, 49.6406373], [6.0467602, 49.6406145], [6.0468422, 49.6405747], [6.0469561, 49.6404749], [6.0470458, 49.6403432], [6.0470783, 49.6402437], [6.047081, 49.6401456], [6.047044, 49.6400782], [6.0470585, 49.6399897], [6.0470591, 49.6399862], [6.0470798, 49.6399559], [6.0471587, 49.6398408], [6.0473619, 49.6396352], [6.047526, 49.6395205], [6.0477869, 49.6393828], [6.0479907, 49.6392727], [6.0482141, 49.63911], [6.0482277, 49.6390992], [6.0482468, 49.6390841], [6.0483707, 49.6389861], [6.0485745, 49.6388913], [6.0487907, 49.6387704], [6.0489077, 49.6386602], [6.0490494, 49.6384714], [6.0491194, 49.6382937], [6.049157, 49.638139], [6.0491278, 49.6378993], [6.0490736, 49.6377568], [6.0489846, 49.6376096], [6.0488559, 49.6374608], [6.0486973, 49.6373488], [6.0482999, 49.6371184], [6.0481982, 49.6370692], [6.0480694, 49.6369756], [6.0479927, 49.6368759], [6.0479656, 49.6367809], [6.047956, 49.6366706], [6.0479067, 49.6365433], [6.0475841, 49.6360495], [6.04744, 49.6358711], [6.0472276, 49.6356868], [6.0468906, 49.6354015], [6.0466694, 49.6353203], [6.0465074, 49.6352795], [6.046383, 49.6352158], [6.0462913, 49.6351166], [6.0462052, 49.6349451], [6.0462132, 49.6346568], [6.0462516, 49.6345536], [6.0463028, 49.634404], [6.0463103, 49.6342845], [6.046268, 49.6342046], [6.0461609, 49.6341163], [6.0461138, 49.634065], [6.04609, 49.6339885], [6.0460629, 49.6338334], [6.0460279, 49.6337277], [6.045985, 49.63364], [6.0459087, 49.6335658], [6.0458483, 49.6334899], [6.0458446, 49.6334719], [6.0458585, 49.6334444], [6.0460566, 49.6333491], [6.0462728, 49.6332114], [6.046605, 49.6329568], [6.0466796, 49.6328772], [6.046742, 49.6327639], [6.0467793, 49.6327302], [6.0470997, 49.6326034], [6.0471495, 49.6325712], [6.0471421, 49.6325222], [6.0470976, 49.6324808], [6.0470976, 49.6324547], [6.0471426, 49.6323291], [6.0472042, 49.6322461], [6.0473582, 49.632162], [6.0474925, 49.6320641], [6.0475522, 49.6319921], [6.0475798, 49.6318787], [6.0474935, 49.6316054], [6.0474566, 49.6314736], [6.0474766, 49.6314169], [6.0475165, 49.6313419], [6.0475122, 49.6310691], [6.0475349, 49.6308757], [6.0475663, 49.6307527], [6.04759, 49.6306597], [6.0476721, 49.6305924], [6.0477741, 49.6304929], [6.0477978, 49.6303799], [6.0478774, 49.6302314], [6.0478637, 49.6300938], [6.0472975, 49.629455], [6.0469046, 49.6291245], [6.0465941, 49.6288001], [6.0460858, 49.6284569], [6.0455443, 49.62856], [6.0453541, 49.6285247], [6.0449825, 49.6284271], [6.0447503, 49.6283216], [6.0445566, 49.6282047], [6.0444931, 49.6280371], [6.0443946, 49.6279472], [6.043818, 49.6277138], [6.0436739, 49.6276575], [6.043585, 49.627633], [6.043383, 49.6276042], [6.0432194, 49.6275369], [6.0430859, 49.6274562], [6.0429143, 49.6272852], [6.0428676, 49.6272438], [6.042784, 49.6272221], [6.042677, 49.6272116], [6.0426253, 49.6271816], [6.0425338, 49.62709], [6.0424487, 49.6269857], [6.0424121, 49.6269216], [6.0424056, 49.6268741], [6.0424292, 49.6267771], [6.042426, 49.6267333], [6.0423911, 49.6266671], [6.0423328, 49.6265793], [6.0423145, 49.6265277], [6.0422846, 49.6264667], [6.0422064, 49.6263998], [6.0420528, 49.6263232], [6.0419741, 49.6263469], [6.0418806, 49.6263241], [6.0418254, 49.6263024], [6.041752, 49.6262662], [6.0416818, 49.6262238], [6.0416151, 49.6261711], [6.0415766, 49.62611], [6.0415503, 49.6260371], [6.0415312, 49.6259732], [6.0415097, 49.6259301], [6.0414449, 49.6258527], [6.0413056, 49.6257068], [6.0412648, 49.6256503], [6.0412721, 49.6256176], [6.0412987, 49.6255879], [6.0413349, 49.6255686], [6.0413903, 49.6255375], [6.0414946, 49.6254309], [6.041516, 49.625402], [6.0414094, 49.6251981], [6.0412527, 49.6249947], [6.0410919, 49.6247998], [6.0409069, 49.6246509], [6.0406521, 49.6245124], [6.0403587, 49.6244214], [6.0402046, 49.6244198], [6.0400745, 49.6244419], [6.0399637, 49.6244715], [6.0398896, 49.6245522], [6.0398032, 49.624586], [6.0397304, 49.6246017], [6.0396455, 49.6246017], [6.0395652, 49.6245852], [6.0393606, 49.6245402], [6.0391186, 49.624487], [6.0388225, 49.624396], [6.0384192, 49.6242538], [6.0381399, 49.6240427], [6.0381529, 49.624001], [6.0376907, 49.6238722], [6.0375332, 49.6237454], [6.0374518, 49.6236526], [6.037408, 49.6235919], [6.0373929, 49.623574], [6.0373635, 49.6235391], [6.0373533, 49.6235309], [6.037327, 49.6235096], [6.0372848, 49.6234863], [6.0372551, 49.6234698], [6.0371797, 49.623428], [6.03708, 49.6233729], [6.037055, 49.623359], [6.0369834, 49.6233271], [6.0369266, 49.6232899], [6.0368834, 49.6232527], [6.0368289, 49.6231937], [6.0367828, 49.6231396], [6.0367625, 49.6231191], [6.0367152, 49.6230712], [6.0366958, 49.6230557], [6.0366856, 49.6230475], [6.0365869, 49.6229675], [6.0365274, 49.6229194], [6.0363715, 49.6228445], [6.0363187, 49.622819], [6.0362706, 49.6227866], [6.0362611, 49.6227802], [6.0362448, 49.6227552], [6.0362344, 49.6227393], [6.0362251, 49.6227251], [6.036215, 49.6227095], [6.0361883, 49.6226687], [6.0361732, 49.6226456], [6.0361571, 49.622621], [6.0361108, 49.6224794], [6.0360856, 49.6223452], [6.036091, 49.622246], [6.0361057, 49.6221105], [6.0361427, 49.621956], [6.0361789, 49.6218106], [6.036195, 49.6216839], [6.0361761, 49.6214319], [6.0361373, 49.62132], [6.0360863, 49.6212223], [6.0360588, 49.6211812], [6.0359475, 49.6210205], [6.0357378, 49.620744], [6.0355831, 49.6204918], [6.035532, 49.6204215], [6.0352848, 49.6201409], [6.0353095, 49.6201001], [6.0353531, 49.6200277], [6.0353657, 49.620007], [6.0353106, 49.6199501], [6.0351383, 49.6197923], [6.0350248, 49.6196573], [6.0349386, 49.619496], [6.034841, 49.6192192], [6.0347878, 49.6189774], [6.0347191, 49.6187626], [6.0347093, 49.618732], [6.0345808, 49.6187138], [6.0344997, 49.6187023], [6.0340941, 49.6173518], [6.0340069, 49.6170183], [6.0339717, 49.6168198], [6.0339585, 49.6165353], [6.0339669, 49.6161958], [6.0339745, 49.6158901], [6.0340298, 49.6158907], [6.0344259, 49.6150959], [6.0345554, 49.6148599], [6.0342316, 49.61481], [6.0338878, 49.6147957], [6.0336811, 49.6147633], [6.0334656, 49.6147294], [6.0335102, 49.6145805], [6.0335253, 49.6145298], [6.0335579, 49.6143906], [6.0335739, 49.6142436], [6.0335837, 49.6140801], [6.033578, 49.6139246], [6.0335512, 49.6137087], [6.0335424, 49.6136377], [6.0335206, 49.613534], [6.033483, 49.6133545], [6.0334511, 49.6132398], [6.0334013, 49.6130938], [6.033279, 49.6131164], [6.0331357, 49.6131428], [6.0330016, 49.6131676], [6.032923, 49.6129994], [6.0328063, 49.6127517], [6.0330541, 49.6126912], [6.0333171, 49.6126269], [6.0334177, 49.6126024], [6.0334451, 49.6125883], [6.0335242, 49.6125499], [6.03361, 49.6125083], [6.0335135, 49.6124133], [6.0334057, 49.6123284], [6.0331201, 49.6121408], [6.0328619, 49.6119283], [6.032699, 49.6117793], [6.0325716, 49.6116413], [6.0324601, 49.6115135], [6.0323034, 49.6113587], [6.0320688, 49.6111522], [6.0319957, 49.611087], [6.0319389, 49.6110915], [6.0316364, 49.6107521], [6.0313955, 49.610402], [6.031355, 49.610348], [6.0311431, 49.6103939], [6.0308213, 49.6104335], [6.0302672, 49.6104507], [6.0292199, 49.6104416], [6.028629, 49.6104242], [6.0281249, 49.6103397], [6.0264545, 49.6100606], [6.0248954, 49.6098419], [6.0242606, 49.6097384], [6.0233913, 49.6096399], [6.0233558, 49.6096677], [6.0230563, 49.609642], [6.0226957, 49.6096031], [6.0223822, 49.6095762], [6.0221182, 49.6095559], [6.0219056, 49.6095438], [6.0217544, 49.6095464], [6.0215654, 49.6095515], [6.0213915, 49.6095632], [6.0212884, 49.6095737], [6.0210027, 49.6096038], [6.0208502, 49.6096195], [6.0207858, 49.6096115], [6.0201585, 49.6097075], [6.0197345, 49.6097717], [6.0195542, 49.6097675], [6.0192386, 49.6097539], [6.0186202, 49.6097451], [6.0179945, 49.6097522], [6.0174167, 49.609782], [6.0172449, 49.609803], [6.0168057, 49.6099424], [6.0163736, 49.6100891], [6.0159092, 49.6102675], [6.0153193, 49.6104928], [6.014754, 49.6106777], [6.0141393, 49.6108547], [6.0141037, 49.6108843], [6.0138863, 49.6110512], [6.0136453, 49.6112114], [6.0133571, 49.6113609], [6.0131711, 49.6110861], [6.01309, 49.6109387], [6.013074, 49.6109078], [6.0130373, 49.6108264], [6.0129412, 49.6106136], [6.0128077, 49.6103595], [6.0126969, 49.6100994], [6.0125868, 49.6095725], [6.0126742, 49.6090721], [6.0121217, 49.6085995], [6.0118183, 49.608356], [6.0115162, 49.6081247], [6.0111183, 49.6078024], [6.0107985, 49.6077369], [6.0103628, 49.6076275], [6.0099916, 49.6075315], [6.0098106, 49.6074034], [6.0095732, 49.6072456], [6.0095106, 49.6072039], [6.0094596, 49.6070413], [6.0092849, 49.6066086], [6.0091114, 49.6061257], [6.0090082, 49.6058349], [6.0088623, 49.6054599], [6.0088235, 49.6053564], [6.0087938, 49.6053011], [6.0085909, 49.6043109], [6.0085519, 49.6043054], [6.008296, 49.6042876], [6.0079838, 49.6042681]]]}}]}