{"type": "FeatureCollection", "features": [{"type": "Feature", "properties": {"name": "Heinerscheid"}, "geometry": {"type": "Polygon", "coordinates": [[[6.1376945, 50.1298617], [6.1376374, 50.1296474], [6.1376314, 50.1294664], [6.1376743, 50.1292878], [6.137741, 50.1290512], [6.1378148, 50.1289045], [6.1378308, 50.1287357], [6.1378323, 50.1287115], [6.1378415, 50.1285564], [6.1378302, 50.1284193], [6.1378197, 50.1282911], [6.1376859, 50.1279437], [6.1376072, 50.1278473], [6.1375671, 50.1277982], [6.1374379, 50.1276401], [6.1373364, 50.1274567], [6.1372726, 50.1272266], [6.1372615, 50.1271822], [6.1372168, 50.1270022], [6.137221, 50.1267417], [6.1371623, 50.1264125], [6.1371889, 50.1261881], [6.1371421, 50.125878], [6.1371506, 50.1257537], [6.1370128, 50.1254411], [6.1366825, 50.1248519], [6.1365365, 50.1243605], [6.1363104, 50.1240695], [6.136059, 50.1238257], [6.1358567, 50.1237046], [6.135531, 50.1235431], [6.1350841, 50.1233339], [6.1348976, 50.1232692], [6.1347566, 50.1232288], [6.1345503, 50.1231829], [6.1342392, 50.1231389], [6.1335548, 50.1231028], [6.1331523, 50.1230378], [6.13268, 50.1229402], [6.1322628, 50.1227753], [6.1318513, 50.1226052], [6.1315444, 50.1224783], [6.1311799, 50.1223463], [6.1307958, 50.1222072], [6.1305147, 50.1221724], [6.1304063, 50.1221232], [6.1302983, 50.1220742], [6.1300393, 50.1219414], [6.1298951, 50.1218429], [6.1296567, 50.1216202], [6.1293513, 50.1213351], [6.1293412, 50.1210115], [6.1293063, 50.1208521], [6.1292685, 50.1206799], [6.1292378, 50.1204838], [6.1292214, 50.1203797], [6.1292106, 50.1201307], [6.1290412, 50.1196149], [6.1289799, 50.119302], [6.1289407, 50.1192225], [6.1288751, 50.1190897], [6.1287607, 50.1187493], [6.1287629, 50.1186665], [6.1287611, 50.1185024], [6.1287348, 50.1183974], [6.1286888, 50.1182137], [6.1286641, 50.1180764], [6.128603, 50.1179319], [6.1285238, 50.1177443], [6.1285071, 50.1177048], [6.12844, 50.1175271], [6.1283223, 50.1173252], [6.128261, 50.1171601], [6.1281796, 50.1169415], [6.1281665, 50.1168793], [6.1281252, 50.1166833], [6.1280757, 50.1164873], [6.1279027, 50.116236], [6.1279041, 50.116063], [6.1279663, 50.1159613], [6.1280232, 50.1158684], [6.1282293, 50.1156369], [6.1283328, 50.1154836], [6.1284149, 50.115362], [6.1285007, 50.1152287], [6.1286576, 50.1150186], [6.1288319, 50.1147966], [6.1289462, 50.1146509], [6.1289672, 50.1146334], [6.1291623, 50.114471], [6.1291688, 50.1144656], [6.129303, 50.1143595], [6.1293566, 50.1143171], [6.1294898, 50.1142118], [6.1297358, 50.1140928], [6.1298092, 50.1140572], [6.1300834, 50.1139482], [6.1303251, 50.1138896], [6.1304356, 50.1138628], [6.1305268, 50.1138499], [6.1307476, 50.1138188], [6.130934, 50.1137585], [6.1310092, 50.1137342], [6.1312963, 50.1137121], [6.131619, 50.1136755], [6.1317336, 50.1136625], [6.1319613, 50.1136567], [6.1320665, 50.113654], [6.1324243, 50.1136512], [6.132753, 50.1136852], [6.1329838, 50.1137141], [6.1332657, 50.1137426], [6.133689, 50.113727], [6.133846, 50.1137127], [6.1339516, 50.1137032], [6.1340702, 50.1136924], [6.1344001, 50.1136644], [6.1347463, 50.1135149], [6.1348637, 50.1133809], [6.1349091, 50.1131555], [6.1347827, 50.1129048], [6.1347687, 50.112877], [6.1347528, 50.1128479], [6.1346706, 50.1126972], [6.1345847, 50.1124784], [6.1344047, 50.1122511], [6.134267, 50.1120882], [6.1341383, 50.1119082], [6.1339351, 50.1117825], [6.1338246, 50.1116275], [6.1337264, 50.1113185], [6.1336338, 50.1112209], [6.1334421, 50.1110765], [6.1332415, 50.1109011], [6.1327143, 50.11045], [6.1325031, 50.1102655], [6.1323855, 50.110164], [6.1321759, 50.1099735], [6.132081, 50.1098984], [6.1320102, 50.1098424], [6.1318716, 50.1096658], [6.1317551, 50.1095088], [6.1316078, 50.1093232], [6.131463, 50.1091496], [6.1313027, 50.1090012], [6.1310939, 50.1088297], [6.1309446, 50.1086903], [6.1309058, 50.1086431], [6.1308749, 50.1086055], [6.1306489, 50.1083304], [6.1306531, 50.1082622], [6.1306678, 50.1080206], [6.1306799, 50.107977], [6.1307063, 50.107881], [6.1307261, 50.1077135], [6.130728, 50.1076974], [6.1307594, 50.1075002], [6.1307783, 50.1074167], [6.1308144, 50.1072573], [6.1308763, 50.107071], [6.1309063, 50.1069807], [6.1309555, 50.1066834], [6.1310247, 50.1064726], [6.1310509, 50.1064436], [6.1312018, 50.1063146], [6.131363, 50.106187], [6.1313669, 50.1061839], [6.1313748, 50.1061782], [6.1315752, 50.1060314], [6.1318387, 50.1058809], [6.1318536, 50.1058738], [6.1321598, 50.1057315], [6.1326749, 50.1055567], [6.132974, 50.1054803], [6.1332468, 50.1053922], [6.1333679, 50.1053412], [6.1334353, 50.1053128], [6.1335154, 50.1052791], [6.1337497, 50.1051612], [6.133805, 50.1051334], [6.1338557, 50.105108], [6.1338818, 50.105105], [6.1339011, 50.1051179], [6.133908, 50.1051212], [6.1339296, 50.1051311], [6.1339658, 50.1051477], [6.133991, 50.1051315], [6.1342105, 50.1050817], [6.1344401, 50.1049624], [6.1345636, 50.104903], [6.134739, 50.1047986], [6.1348483, 50.104704], [6.1349275, 50.1045749], [6.13518, 50.1041962], [6.1353241, 50.1039262], [6.1353624, 50.1038784], [6.1353958, 50.1038367], [6.1354497, 50.1037696], [6.1355622, 50.1036706], [6.1355594, 50.1034822], [6.1355305, 50.103447], [6.1354172, 50.1032765], [6.135167, 50.1031637], [6.1348451, 50.1030207], [6.134609, 50.1029223], [6.1343313, 50.1028287], [6.134055, 50.1027482], [6.133729, 50.1026686], [6.133691, 50.1026593], [6.1336577, 50.1026551], [6.1334822, 50.1026329], [6.1333389, 50.1026147], [6.1330742, 50.102597], [6.1329145, 50.1025863], [6.1325164, 50.1025939], [6.132266, 50.1026064], [6.1321392, 50.1026095], [6.1318702, 50.1026557], [6.1315231, 50.1027435], [6.1311664, 50.1028427], [6.1311226, 50.1028808], [6.1308259, 50.1028988], [6.130803, 50.1029002], [6.1306817, 50.1028965], [6.130613, 50.1029292], [6.1302735, 50.102931], [6.1299583, 50.1029115], [6.1296058, 50.1028537], [6.12874, 50.102673], [6.1283392, 50.1025491], [6.128003, 50.1024727], [6.127724, 50.1024206], [6.1272348, 50.1023157], [6.1268042, 50.1021788], [6.1265032, 50.1020513], [6.1261426, 50.1019005], [6.1258194, 50.1017741], [6.1256647, 50.1016066], [6.1255651, 50.1014898], [6.1254113, 50.1011084], [6.1253626, 50.1008089], [6.1254284, 50.1005123], [6.1254292, 50.1003971], [6.1254144, 50.1000846], [6.1253999, 50.0998723], [6.125425, 50.0996516], [6.1254506, 50.0994602], [6.12553, 50.0991307], [6.1255894, 50.0989615], [6.12573, 50.0987268], [6.1258976, 50.0984974], [6.1260864, 50.0981718], [6.1262825, 50.097916], [6.126573, 50.0974821], [6.126898, 50.0970438], [6.1269966, 50.0968934], [6.1271746, 50.0966568], [6.127339, 50.096422], [6.1275741, 50.0961946], [6.1277013, 50.0960604], [6.1278762, 50.0958334], [6.1282268, 50.0954975], [6.1283821, 50.095332], [6.128611, 50.0951491], [6.1287966, 50.0950945], [6.1289827, 50.0950691], [6.1293382, 50.0950042], [6.1296555, 50.0949196], [6.1300036, 50.0949145], [6.1303048, 50.0949039], [6.130659, 50.0949043], [6.1310298, 50.0948954], [6.1312454, 50.0948662], [6.1313671, 50.0948618], [6.1313831, 50.0948684], [6.1315355, 50.0949135], [6.1318065, 50.0949618], [6.1320352, 50.0949834], [6.1322001, 50.0949635], [6.1323913, 50.0949045], [6.1325129, 50.0948287], [6.1327622, 50.0945439], [6.1329242, 50.0942743], [6.1330095, 50.0939824], [6.1330586, 50.0938092], [6.1330619, 50.0936357], [6.1329847, 50.0933603], [6.1328899, 50.0932272], [6.1327035, 50.0930332], [6.1324837, 50.0928966], [6.1321867, 50.0927369], [6.1319645, 50.0926413], [6.1316961, 50.0925678], [6.1314469, 50.09252], [6.1311748, 50.0924686], [6.1309173, 50.0924368], [6.1306541, 50.0924172], [6.130394, 50.0924098], [6.1301269, 50.0924137], [6.1299049, 50.0924213], [6.1294391, 50.0924277], [6.1292721, 50.092435], [6.1290142, 50.0924993], [6.1287432, 50.0925692], [6.1284842, 50.0926345], [6.1282675, 50.0926887], [6.1280483, 50.0927893], [6.1279428, 50.0928172], [6.1275976, 50.0929082], [6.1271965, 50.0929627], [6.1267655, 50.0930095], [6.1262727, 50.0930554], [6.1259613, 50.0931088], [6.125674, 50.0931552], [6.1254989, 50.0931952], [6.1252136, 50.0931935], [6.1247428, 50.0932921], [6.124404, 50.0934352], [6.124175, 50.0935655], [6.124088, 50.0936095], [6.1237202, 50.0937275], [6.1233708, 50.0937848], [6.123118, 50.0937982], [6.1229072, 50.0937815], [6.1226036, 50.0937515], [6.1222502, 50.0936799], [6.1219389, 50.0935792], [6.1216604, 50.093453], [6.1213659, 50.0932594], [6.1210877, 50.0930737], [6.1210043, 50.0929162], [6.1208485, 50.0927493], [6.1207023, 50.0926148], [6.1204991, 50.0924511], [6.1203861, 50.0923297], [6.1202387, 50.0921603], [6.1201141, 50.0920805], [6.1199909, 50.09201], [6.1199524, 50.0918498], [6.1199438, 50.0917701], [6.1199378, 50.0917554], [6.1199139, 50.0916972], [6.1198502, 50.0915819], [6.1197416, 50.0912542], [6.1196991, 50.0910775], [6.1196514, 50.0909223], [6.1195893, 50.0907363], [6.1195707, 50.09055], [6.119516, 50.0903777], [6.1194666, 50.0902252], [6.119353, 50.0899321], [6.1192906, 50.0896116], [6.1193411, 50.0891804], [6.1193862, 50.0890408], [6.1194101, 50.0888729], [6.1193842, 50.0886803], [6.1193916, 50.0885372], [6.119385, 50.0883241], [6.1193446, 50.088091], [6.1193736, 50.0879116], [6.1193624, 50.0877276], [6.1194657, 50.0876505], [6.1195401, 50.087475], [6.119597, 50.0873503], [6.1196357, 50.08723], [6.1196918, 50.0870948], [6.1196611, 50.0869127], [6.1196525, 50.0867325], [6.1195499, 50.086553], [6.119549, 50.0862324], [6.1195111, 50.0858908], [6.119598, 50.0856782], [6.1197285, 50.0854798], [6.1198182, 50.0853319], [6.1199686, 50.0851753], [6.1201474, 50.0849842], [6.1203065, 50.0848139], [6.1204687, 50.0846816], [6.1206042, 50.08455], [6.1207879, 50.0843678], [6.1210258, 50.0842426], [6.1211828, 50.0841242], [6.1214667, 50.0838939], [6.1217891, 50.0836585], [6.1220439, 50.0834611], [6.1220916, 50.0833561], [6.1221444, 50.0831812], [6.1221104, 50.0829695], [6.1220579, 50.0827695], [6.1219632, 50.0825892], [6.1219424, 50.0824023], [6.1218959, 50.0821985], [6.1218774, 50.0819964], [6.1218714, 50.0818383], [6.1218691, 50.0816913], [6.1218714, 50.0814054], [6.1217944, 50.0811111], [6.1217314, 50.0809652], [6.1216897, 50.0808624], [6.1215604, 50.0806587], [6.1214538, 50.080452], [6.1213703, 50.0803007], [6.1212791, 50.0801203], [6.1211361, 50.0798792], [6.1209873, 50.079656], [6.1209034, 50.0795014], [6.1207537, 50.0793053], [6.120638, 50.0791143], [6.1205395, 50.0788908], [6.120404, 50.078716], [6.1202676, 50.0785815], [6.1201425, 50.0784375], [6.1200096, 50.0783255], [6.1197946, 50.0781515], [6.1194935, 50.0779484], [6.1191591, 50.0777062], [6.1189834, 50.077529], [6.1188294, 50.0773557], [6.1186701, 50.0772094], [6.1183938, 50.0769375], [6.1183632, 50.0769154], [6.1180968, 50.0766413], [6.1179582, 50.0763307], [6.1179679, 50.076175], [6.117958, 50.0759796], [6.1179401, 50.0758259], [6.1177701, 50.0756029], [6.117683, 50.0755593], [6.1173959, 50.0754515], [6.1170799, 50.0753539], [6.1169141, 50.0752949], [6.116564, 50.0751877], [6.1163104, 50.0750488], [6.1160128, 50.0748499], [6.1157656, 50.0745908], [6.1158587, 50.0744231], [6.1159036, 50.0743781], [6.1161395, 50.07423], [6.116371, 50.0740034], [6.1164845, 50.0738537], [6.1166602, 50.0736536], [6.1168255, 50.0735026], [6.1169493, 50.0733928], [6.117119, 50.0732565], [6.1173669, 50.073081], [6.117492, 50.0730117], [6.117669, 50.0729141], [6.1179731, 50.0727854], [6.1182636, 50.0726949], [6.1185163, 50.0726338], [6.1188205, 50.0724977], [6.1189347, 50.0724377], [6.1190973, 50.0723381], [6.1193427, 50.0723229], [6.1196851, 50.0723195], [6.1199304, 50.0723111], [6.1202585, 50.0723245], [6.1205368, 50.0723339], [6.1207588, 50.0723742], [6.1210297, 50.0724599], [6.1212993, 50.0725719], [6.1214593, 50.0726498], [6.1216323, 50.0727786], [6.1218157, 50.0729443], [6.1219176, 50.0730888], [6.1219866, 50.0732344], [6.1220342, 50.0733406], [6.1220666, 50.0734828], [6.1221359, 50.0736239], [6.1221492, 50.0738047], [6.1221574, 50.0740241], [6.1222021, 50.0742858], [6.1222411, 50.0743951], [6.1223152, 50.0745261], [6.1223666, 50.0746665], [6.1224489, 50.07479], [6.1225907, 50.0749939], [6.1227133, 50.0751802], [6.1228171, 50.0753129], [6.1229138, 50.0754547], [6.1229816, 50.0755259], [6.1231628, 50.0757412], [6.1232804, 50.0759682], [6.1233482, 50.0761372], [6.1234437, 50.0762718], [6.123563, 50.0764052], [6.1237724, 50.0765438], [6.1240113, 50.0766606], [6.1241131, 50.0767102], [6.1243809, 50.0768072], [6.1245282, 50.0768541], [6.1246697, 50.0769013], [6.1248565, 50.0769641], [6.1249894, 50.0769483], [6.1251357, 50.0768902], [6.1252732, 50.0767378], [6.1254116, 50.076584], [6.1255063, 50.0765167], [6.1256747, 50.076366], [6.125784, 50.0762682], [6.1259186, 50.0761715], [6.1262307, 50.0759505], [6.1263683, 50.0758537], [6.1265446, 50.0757262], [6.126703, 50.0756351], [6.1269089, 50.0755023], [6.1270975, 50.0753717], [6.12734, 50.0752228], [6.1275564, 50.0751043], [6.1275913, 50.0751094], [6.1278599, 50.0749619], [6.1280134, 50.0749325], [6.1280956, 50.0748666], [6.1281766, 50.0748056], [6.1285545, 50.0746079], [6.1286765, 50.0744633], [6.1287197, 50.0743457], [6.1287973, 50.074207], [6.1289276, 50.0740151], [6.1290328, 50.0738473], [6.1291481, 50.0736955], [6.1292307, 50.0735488], [6.129215, 50.0733756], [6.1290568, 50.0732131], [6.1288396, 50.0730802], [6.1286974, 50.0729825], [6.1284956, 50.072851], [6.1283603, 50.0727234], [6.1282512, 50.0726441], [6.1281415, 50.072575], [6.1277482, 50.0722963], [6.1275644, 50.0721998], [6.1273872, 50.0721224], [6.1271585, 50.0720891], [6.1269807, 50.0719885], [6.1267715, 50.071834], [6.1266418, 50.0717216], [6.1265271, 50.0715308], [6.1264262, 50.0714264], [6.1262617, 50.0712568], [6.1260634, 50.0710756], [6.1256179, 50.0708755], [6.1252649, 50.0707168], [6.1250096, 50.0706211], [6.1246622, 50.0704959], [6.1244444, 50.0704211], [6.1241629, 50.0703403], [6.1239667, 50.0702725], [6.1236606, 50.0701013], [6.1233892, 50.0699746], [6.123128, 50.069842], [6.1228128, 50.0696891], [6.1225625, 50.0695374], [6.1222864, 50.069409], [6.121975, 50.0692772], [6.1217181, 50.069174], [6.1214535, 50.0690531], [6.1213063, 50.069031], [6.1212457, 50.0689253], [6.1211947, 50.0688455], [6.1211348, 50.0686507], [6.1210892, 50.068502], [6.1210834, 50.0682982], [6.1210773, 50.06816], [6.121058, 50.0680022], [6.1210557, 50.0679402], [6.1210354, 50.0677874], [6.1210329, 50.0677511], [6.1209748, 50.067459], [6.1209263, 50.0671465], [6.1209567, 50.0669027], [6.1209422, 50.0667169], [6.1209361, 50.0665089], [6.1208965, 50.066368], [6.1209526, 50.0661498], [6.1208838, 50.0658827], [6.1209508, 50.065728], [6.1209109, 50.0655765], [6.1208959, 50.0654182], [6.1208745, 50.0652872], [6.120758, 50.0650855], [6.1206982, 50.0649949], [6.1205946, 50.0649188], [6.1204994, 50.0648612], [6.1203744, 50.0648247], [6.120191, 50.0647757], [6.120052, 50.0647122], [6.119759, 50.0647158], [6.1193698, 50.0645918], [6.1190766, 50.0645485], [6.1188385, 50.0645274], [6.1187684, 50.0645356], [6.1183809, 50.0645449], [6.1181149, 50.0645976], [6.1178621, 50.0646673], [6.117581, 50.0647776], [6.1174344, 50.0648565], [6.1172596, 50.0649788], [6.1170471, 50.0651086], [6.1168211, 50.0652785], [6.116629, 50.0653951], [6.1164057, 50.0655057], [6.1161702, 50.0656491], [6.1159116, 50.0657385], [6.1158391, 50.065771], [6.1156621, 50.0658434], [6.1153625, 50.0659058], [6.1150756, 50.0659291], [6.1147639, 50.0659119], [6.1144947, 50.0658268], [6.1142843, 50.065765], [6.1140475, 50.0656838], [6.1137191, 50.0655801], [6.1136337, 50.0654611], [6.1135128, 50.0652749], [6.1135981, 50.065091], [6.1136275, 50.0649349], [6.1136667, 50.0647665], [6.1136804, 50.0646837], [6.1136847, 50.0644467], [6.1137111, 50.0642805], [6.1137688, 50.0640688], [6.113804, 50.0638424], [6.1138876, 50.0638079], [6.1139363, 50.0635674], [6.1139235, 50.0634042], [6.1138345, 50.0632422], [6.1137181, 50.063002], [6.1135965, 50.0628281], [6.1131524, 50.0622021], [6.1129465, 50.0617864], [6.1128506, 50.0615691], [6.1127856, 50.061441], [6.1126704, 50.06119], [6.1124854, 50.060797], [6.1124815, 50.0607973], [6.1123567, 50.0605225], [6.1123544, 50.060511], [6.1122913, 50.060513], [6.112215, 50.06052], [6.1121006, 50.06051], [6.1119595, 50.060505], [6.1118946, 50.060497], [6.111822, 50.060474], [6.111635, 50.06038], [6.1115894, 50.060364], [6.111532, 50.060356], [6.1112146, 50.0603917], [6.111208, 50.06038], [6.111124, 50.060375], [6.1109676, 50.06036], [6.110895, 50.060364], [6.1107426, 50.06037], [6.110594, 50.06039], [6.11051, 50.060406], [6.1104336, 50.060425], [6.110365, 50.060444], [6.110235, 50.0605], [6.110159, 50.060528], [6.1100674, 50.060547], [6.109991, 50.06055], [6.10993, 50.060547], [6.1098347, 50.060528], [6.1097775, 50.060516], [6.1096897, 50.06052], [6.109602, 50.060524], [6.109461, 50.060513], [6.109396, 50.06051], [6.109358, 50.06051], [6.109316, 50.060524], [6.1092777, 50.06055], [6.1092243, 50.06061], [6.1091633, 50.06064], [6.1090565, 50.06068], [6.1088696, 50.06074], [6.1088123, 50.060753], [6.108675, 50.06078], [6.1085377, 50.06079], [6.108469, 50.060818], [6.108431, 50.060833], [6.1083927, 50.06086], [6.108362, 50.06091], [6.108328, 50.06097], [6.1082134, 50.061146], [6.1081066, 50.061214], [6.1079006, 50.06132], [6.10779, 50.06135], [6.1076984, 50.06137], [6.1076565, 50.061394], [6.1075573, 50.06153], [6.1075306, 50.061554], [6.1074734, 50.061573], [6.107355, 50.06158], [6.107237, 50.06157], [6.1071873, 50.06157], [6.10713, 50.061573], [6.1070347, 50.061604], [6.1069164, 50.06167], [6.1067295, 50.061787], [6.1065693, 50.061905], [6.106493, 50.06194], [6.106386, 50.061985], [6.106329, 50.062016], [6.106283, 50.06205], [6.106268, 50.06211], [6.1062527, 50.062267], [6.106241, 50.062298], [6.106203, 50.062325], [6.1061535, 50.062347], [6.10602, 50.062386], [6.1058865, 50.06247], [6.10581, 50.06251], [6.1057186, 50.06254], [6.1055164, 50.06258], [6.105444, 50.062607], [6.1052, 50.06274], [6.1050587, 50.062828], [6.1048985, 50.062916], [6.104803, 50.062984], [6.1047497, 50.063026], [6.104662, 50.063137], [6.104559, 50.063248], [6.104456, 50.06339], [6.104414, 50.063446], [6.1044025, 50.063477], [6.104414, 50.063557], [6.1044407, 50.063732], [6.104452, 50.06381], [6.1044407, 50.06387], [6.104418, 50.063934], [6.104349, 50.06402], [6.1042885, 50.0640862], [6.1042576, 50.06412], [6.104254, 50.064163], [6.104265, 50.064236], [6.1042614, 50.06427], [6.1042385, 50.064335], [6.10425, 50.06438], [6.1043262, 50.064465], [6.1043453, 50.064503], [6.1043606, 50.064613], [6.1043987, 50.06484], [6.1044292, 50.064888], [6.1045017, 50.064964], [6.104521, 50.065], [6.1045322, 50.06506], [6.1045094, 50.06521], [6.104452, 50.065453], [6.104433, 50.065502], [6.1044025, 50.065544], [6.104357, 50.06558], [6.1043415, 50.065605], [6.1043453, 50.065647], [6.104357, 50.06568], [6.1043262, 50.065845], [6.1043034, 50.065956], [6.1042614, 50.06605], [6.104231, 50.066105], [6.1041813, 50.06616], [6.104082, 50.06624], [6.1040554, 50.066273], [6.104048, 50.0663], [6.1040554, 50.066357], [6.1040707, 50.0664], [6.104063, 50.066444], [6.1040325, 50.066483], [6.103979, 50.06654], [6.103945, 50.066605], [6.1039295, 50.06668], [6.103922, 50.06677], [6.10388, 50.066883], [6.103861, 50.066956], [6.103819, 50.06709], [6.1037655, 50.067245], [6.1037273, 50.06735], [6.1037006, 50.067398], [6.103647, 50.067444], [6.10359, 50.067474], [6.1035023, 50.067505], [6.103384, 50.06754], [6.1032467, 50.067596], [6.1031437, 50.067627], [6.102915, 50.06768], [6.102644, 50.06776], [6.1025105, 50.06779], [6.1023808, 50.06781], [6.102289, 50.06782], [6.102148, 50.067825], [6.101965, 50.067818], [6.1016407, 50.0678], [6.101473, 50.06779], [6.101408, 50.067795], [6.1012783, 50.06782], [6.1010985, 50.0678543], [6.1010685, 50.06786], [6.101037, 50.0678658], [6.1010056, 50.0678715], [6.1009426, 50.067883], [6.1007763, 50.0678956], [6.1007175, 50.0679], [6.1006764, 50.0679], [6.1005573, 50.0679], [6.100443, 50.067898], [6.1003437, 50.067883], [6.100195, 50.067833], [6.1001225, 50.067814], [6.100065, 50.067806], [6.0999813, 50.067802], [6.099825, 50.06782], [6.0997715, 50.067818], [6.0997143, 50.067802], [6.0995502, 50.067745], [6.099493, 50.067734], [6.0994396, 50.067726], [6.0993443, 50.067726], [6.0992527, 50.067726], [6.09918, 50.06772], [6.0991116, 50.0677], [6.0990543, 50.067688], [6.0990047, 50.067684], [6.0988064, 50.067688], [6.098734, 50.067688], [6.0986576, 50.067677], [6.0985928, 50.067654], [6.0985317, 50.06762], [6.098486, 50.067577], [6.098421, 50.06749], [6.0983906, 50.067463], [6.09836, 50.067444], [6.0983067, 50.067417], [6.098234, 50.067394], [6.098192, 50.067368], [6.098177, 50.067337], [6.0981846, 50.067318], [6.0982037, 50.067284], [6.0981884, 50.06727], [6.098158, 50.06725], [6.097975, 50.06718], [6.097685, 50.06708], [6.097582, 50.067055], [6.097475, 50.067028], [6.097471, 50.06704], [6.0974407, 50.06746], [6.097437, 50.067486], [6.0973454, 50.067528], [6.0972424, 50.067566], [6.097128, 50.06759], [6.0970745, 50.067604], [6.096941, 50.06765], [6.0967655, 50.067726], [6.096689, 50.067764], [6.0964794, 50.067867], [6.0963764, 50.06793], [6.0962887, 50.067974], [6.0962124, 50.06799], [6.096163, 50.068], [6.0960064, 50.06805], [6.0959454, 50.068085], [6.0957625, 50.0682386], [6.0955563, 50.06837], [6.0953846, 50.068443], [6.0949955, 50.068596], [6.09482, 50.068653], [6.0947437, 50.06867], [6.0946293, 50.06869], [6.094549, 50.068707], [6.0943356, 50.068737], [6.094263, 50.06876], [6.094042, 50.068863], [6.093916, 50.06891], [6.0937138, 50.06895], [6.0935574, 50.06902], [6.093382, 50.069096], [6.093336, 50.069054], [6.0932713, 50.068996], [6.0932064, 50.068954], [6.093107, 50.068905], [6.092535, 50.06906], [6.092455, 50.069084], [6.0923595, 50.069023], [6.0919514, 50.069096], [6.0912724, 50.068462], [6.0912647, 50.06845], [6.0911503, 50.068523], [6.091051, 50.06856], [6.0908833, 50.068607], [6.0906696, 50.06865], [6.090353, 50.068737], [6.0902004, 50.068783], [6.0898266, 50.068943], [6.0896015, 50.069023], [6.0895294, 50.0690425], [6.0894728, 50.0690607], [6.0892823, 50.0690934], [6.0890155, 50.0691042], [6.0888284, 50.0691317], [6.0887197, 50.0691881], [6.088682, 50.06918], [6.0882626, 50.06909], [6.0880756, 50.069065], [6.087961, 50.069054], [6.087908, 50.069054], [6.0877743, 50.069046], [6.087389, 50.069042], [6.087324, 50.069042], [6.0871983, 50.069046], [6.086996, 50.069042], [6.086916, 50.06904], [6.086336, 50.06901], [6.0861225, 50.069], [6.0859013, 50.068947], [6.0858746, 50.068943], [6.085634, 50.06889], [6.0854664, 50.068874], [6.08523, 50.06886], [6.0851803, 50.06886], [6.0849516, 50.0688559], [6.084902, 50.068855], [6.08486, 50.068855], [6.0846767, 50.06885], [6.0845966, 50.06885], [6.084379, 50.068844], [6.084196, 50.06884], [6.0841312, 50.06884], [6.083906, 50.06883], [6.0838375, 50.068825], [6.083418, 50.068806], [6.0830517, 50.06879], [6.0828457, 50.068783], [6.082781, 50.068783], [6.0826893, 50.06879], [6.08259, 50.068806], [6.082487, 50.068825], [6.082445, 50.068836], [6.082342, 50.068867], [6.0822506, 50.068905], [6.0821934, 50.06894], [6.0821476, 50.06897], [6.082079, 50.069023], [6.0819836, 50.069122], [6.081896, 50.069218], [6.0817394, 50.069378], [6.0817165, 50.069416], [6.081648, 50.069626], [6.0815563, 50.069836], [6.0815372, 50.069878], [6.0815105, 50.06994], [6.081465, 50.070034], [6.0814, 50.070133], [6.0812473, 50.070324], [6.08111, 50.07049], [6.081068, 50.070538], [6.0809727, 50.070663], [6.08082, 50.070854], [6.080744, 50.07097], [6.0807133, 50.071022], [6.080679, 50.071102], [6.080637, 50.071213], [6.0805919, 50.0712382], [6.0802555, 50.071426], [6.0800076, 50.07109], [6.0799007, 50.070934], [6.079836, 50.07082], [6.0797825, 50.07069], [6.0797215, 50.070538], [6.0796986, 50.070473], [6.0796757, 50.070362], [6.0796604, 50.07027], [6.079664, 50.070175], [6.079687, 50.070133], [6.079714, 50.0701], [6.0798206, 50.069992], [6.08008, 50.069687], [6.0803127, 50.0694], [6.080385, 50.0693], [6.0804844, 50.069153], [6.0804996, 50.06911], [6.0805073, 50.06907], [6.0805088, 50.0689996], [6.080492, 50.06893], [6.0804632, 50.0688498], [6.0804157, 50.06872], [6.0803432, 50.068584], [6.080221, 50.068344], [6.080187, 50.068253], [6.0801563, 50.068085], [6.080122, 50.06808], [6.079508, 50.068207], [6.0794125, 50.068226], [6.0785885, 50.068394], [6.0780926, 50.06849], [6.0780315, 50.068493], [6.077875, 50.06846], [6.077589, 50.068394], [6.0775013, 50.068375], [6.07728, 50.068325], [6.077257, 50.06832], [6.077242, 50.068317], [6.0772038, 50.06831], [6.077116, 50.068287], [6.076437, 50.06813], [6.076391, 50.06812], [6.075678, 50.06795], [6.075659, 50.06795], [6.0752735, 50.06796], [6.07469, 50.06797], [6.074358, 50.067978], [6.0742626, 50.067997], [6.0736217, 50.068256], [6.0730762, 50.06846], [6.0724316, 50.0687], [6.071722, 50.06891], [6.071203, 50.06907], [6.0709324, 50.069157], [6.0707493, 50.06924], [6.0703373, 50.069447], [6.069647, 50.069756], [6.0694485, 50.069775], [6.0693913, 50.06988], [6.0694523, 50.070053], [6.068903, 50.07013], [6.0688457, 50.070133], [6.0685444, 50.06958], [6.0682354, 50.069122], [6.068102, 50.068947], [6.067766, 50.06856], [6.06756, 50.068348], [6.067259, 50.068066], [6.067236, 50.068047], [6.067213, 50.068027], [6.0670376, 50.06788], [6.066763, 50.067654], [6.066366, 50.067387], [6.0661564, 50.06722], [6.0659733, 50.06705], [6.065752, 50.06675], [6.0654926, 50.066322], [6.0654031, 50.0661286], [6.0653057, 50.065918], [6.065233, 50.06573], [6.0651204, 50.0653541], [6.0650883, 50.065247], [6.0646877, 50.065216], [6.0635586, 50.06518], [6.06283, 50.065166], [6.06262, 50.06516], [6.062456, 50.065144], [6.0614758, 50.065], [6.0603046, 50.064846], [6.0602474, 50.064857], [6.060198, 50.064953], [6.06011, 50.065144], [6.060068, 50.065285], [6.0600185, 50.06549], [6.0599384, 50.065834], [6.0598774, 50.066113], [6.0598736, 50.06613], [6.059801, 50.066425], [6.0596027, 50.066387], [6.0593014, 50.06632], [6.0590076, 50.06624], [6.058832, 50.06618], [6.0585117, 50.066067], [6.058344, 50.06631], [6.0582294, 50.066467], [6.0580196, 50.066765], [6.0579433, 50.06687], [6.0578136, 50.067055], [6.0576954, 50.06722], [6.057623, 50.06732], [6.057375, 50.06767], [6.0572033, 50.067604], [6.057047, 50.067905], [6.05702, 50.067978], [6.05694, 50.06812], [6.0569286, 50.068142], [6.0567417, 50.068466], [6.056566, 50.068775], [6.056574, 50.069004], [6.0565853, 50.069077], [6.0565777, 50.069107], [6.056547, 50.069157], [6.0564327, 50.069336], [6.056307, 50.069508], [6.0560727, 50.0697847], [6.0560513, 50.06981], [6.055998, 50.069805], [6.0559635, 50.06988], [6.0559406, 50.069927], [6.0559063, 50.070015], [6.0558453, 50.070175], [6.0557613, 50.07039], [6.0556774, 50.070602], [6.055662, 50.070625], [6.055624, 50.070698], [6.0555477, 50.070827], [6.0555325, 50.07085], [6.055441, 50.071003], [6.0553913, 50.071106], [6.055376, 50.07118], [6.0553646, 50.07125], [6.0553417, 50.071453], [6.0553226, 50.071606], [6.0552998, 50.071766], [6.055277, 50.071957], [6.0552425, 50.072144], [6.0552006, 50.072308], [6.055189, 50.07236], [6.0552536, 50.0723914], [6.0554867, 50.072514], [6.055872, 50.07271], [6.0560093, 50.072777], [6.0562954, 50.072918], [6.0567455, 50.073124], [6.057043, 50.073257], [6.0568066, 50.07364], [6.0566044, 50.073944], [6.0564823, 50.074104], [6.056326, 50.074284], [6.056078, 50.074524], [6.056505, 50.074646], [6.056631, 50.074696], [6.0567646, 50.074753], [6.056925, 50.074825], [6.0571423, 50.074947], [6.0573673, 50.07509], [6.0576687, 50.07529], [6.058069, 50.075546], [6.0585003, 50.075787], [6.0586147, 50.07584], [6.0588245, 50.075928], [6.0591297, 50.07605], [6.0594463, 50.07619], [6.059988, 50.076366], [6.0600376, 50.076385], [6.060007, 50.076458], [6.059984, 50.076504], [6.0598583, 50.07677], [6.0598392, 50.076817], [6.059786, 50.076927], [6.0593815, 50.077774], [6.0594425, 50.078606], [6.0596066, 50.079037], [6.0597134, 50.07909], [6.0597706, 50.07909], [6.0597515, 50.07913], [6.0596104, 50.07938], [6.059347, 50.079506], [6.0590267, 50.079594], [6.0585575, 50.07966], [6.057108, 50.079754], [6.0569096, 50.07975], [6.056631, 50.07973], [6.0562344, 50.07969], [6.0556316, 50.079613], [6.0554333, 50.07985], [6.0555058, 50.080112], [6.0552654, 50.080055], [6.0549107, 50.07998], [6.054617, 50.079956], [6.0540867, 50.07998], [6.053648, 50.080082], [6.0526676, 50.080273], [6.0527477, 50.08064], [6.05282, 50.081062], [6.052809, 50.08196], [6.0528736, 50.082108], [6.0525875, 50.08203], [6.0525417, 50.08202], [6.0523853, 50.08198], [6.0522327, 50.081577], [6.0520496, 50.08126], [6.051508, 50.081528], [6.0512104, 50.08164], [6.05126, 50.081295], [6.0512676, 50.081257], [6.050997, 50.081318], [6.0507755, 50.081566], [6.0505924, 50.0817], [6.0504436, 50.081924], [6.0502605, 50.082104], [6.050123, 50.082188], [6.049982, 50.082275], [6.0497456, 50.08239], [6.0495815, 50.08235], [6.0494837, 50.0822776], [6.049429, 50.082237], [6.049391, 50.08224], [6.049341, 50.08225], [6.049238, 50.082523], [6.0492153, 50.082573], [6.048605, 50.082973], [6.0483646, 50.08311], [6.048094, 50.08321], [6.0475674, 50.08337], [6.046522, 50.083652], [6.046484, 50.083702], [6.0464306, 50.083725], [6.0465794, 50.0841], [6.046797, 50.08466], [6.0467205, 50.084652], [6.046339, 50.084602], [6.046049, 50.084538], [6.0457897, 50.08446], [6.04545, 50.084354], [6.045088, 50.084293], [6.044817, 50.084255], [6.044409, 50.084194], [6.043398, 50.084057], [6.0427685, 50.08397], [6.0420246, 50.083855], [6.0416584, 50.083767], [6.040968, 50.083553], [6.0406322, 50.083492], [6.040247, 50.083435], [6.038954, 50.083298], [6.0378056, 50.08322], [6.03755, 50.08322], [6.037428, 50.08323], [6.0372524, 50.083263], [6.0369434, 50.083336], [6.036928, 50.08332], [6.0369167, 50.082977], [6.0369587, 50.082306], [6.0369167, 50.082085], [6.0367565, 50.081867], [6.036478, 50.081642], [6.0361614, 50.08146], [6.035738, 50.081257], [6.035612, 50.081142], [6.035578, 50.081028], [6.035612, 50.08081], [6.035616, 50.080765], [6.035433, 50.080807], [6.0350933, 50.080887], [6.034769, 50.080967], [6.0342503, 50.081093], [6.0339375, 50.081177], [6.033724, 50.08131], [6.033678, 50.081314], [6.0335674, 50.081314], [6.0334377, 50.08129], [6.033289, 50.081257], [6.033209, 50.081223], [6.03306, 50.081135], [6.032934, 50.081066], [6.03277, 50.080994], [6.032255, 50.080822], [6.03166, 50.08062], [6.0316105, 50.080605], [6.031435, 50.08055], [6.0305767, 50.080257], [6.030508, 50.08028], [6.0304623, 50.080303], [6.030344, 50.080376], [6.0302258, 50.080456], [6.0301914, 50.08049], [6.0301685, 50.08053], [6.0301456, 50.08061], [6.030134, 50.080647], [6.0301075, 50.080677], [6.0300278, 50.0807188], [6.0304121, 50.0809715], [6.0307951, 50.0812194], [6.0311595, 50.0814493], [6.0314241, 50.0816877], [6.0315421, 50.0818103], [6.0315758, 50.0818703], [6.0315597, 50.0819336], [6.0315634, 50.0820278], [6.0316264, 50.0820904], [6.0317034, 50.082153], [6.031747, 50.082237], [6.0317588, 50.0823115], [6.0317684, 50.0824314], [6.0317562, 50.0825204], [6.0317308, 50.0825726], [6.0316754, 50.0826231], [6.0315755, 50.0826803], [6.0312694, 50.0827708], [6.0311748, 50.0828383], [6.0310714, 50.0829649], [6.0309952, 50.0830864], [6.030856, 50.0834108], [6.0307771, 50.0835555], [6.030771, 50.0836094], [6.0307975, 50.0836625], [6.0308638, 50.0837166], [6.030986, 50.0837552], [6.031123, 50.0837734], [6.0312719, 50.0837598], [6.0314037, 50.083718], [6.0315375, 50.0836754], [6.0316266, 50.0836738], [6.0317037, 50.0836978], [6.0317607, 50.0837493], [6.0317725, 50.0838067], [6.0317563, 50.083894], [6.0316516, 50.0840181], [6.0315836, 50.0840813], [6.0314531, 50.0841343], [6.0313326, 50.0841727], [6.0312554, 50.0842154], [6.0311754, 50.0842915], [6.0311193, 50.0843617], [6.0310825, 50.084431], [6.0310745, 50.0844704], [6.0310876, 50.0845166], [6.0311127, 50.08458], [6.0311139, 50.0846305], [6.0310329, 50.0848325], [6.0309534, 50.0849506], [6.030931, 50.0850031], [6.0308608, 50.0850482], [6.0306957, 50.085154], [6.0306276, 50.0852464], [6.0305362, 50.0853742], [6.0304453, 50.0854862], [6.0303841, 50.0855815], [6.0302936, 50.0857327], [6.0302163, 50.0858266], [6.0301367, 50.0859236], [6.0299589, 50.0860332], [6.0297097, 50.0862059], [6.0295114, 50.0863327], [6.0294525, 50.0863703], [6.0294219, 50.0863899], [6.0293124, 50.0864596], [6.0292405, 50.0865143], [6.0291635, 50.0866152], [6.0291005, 50.0866675], [6.0290181, 50.0867114], [6.0289191, 50.0867267], [6.0288379, 50.086707], [6.0286365, 50.0866485], [6.0285996, 50.0866155], [6.0282315, 50.0865247], [6.0281681, 50.0865402], [6.0278973, 50.0865503], [6.0276418, 50.0865791], [6.0275117, 50.0866242], [6.0273687, 50.0867287], [6.0272565, 50.086832], [6.0271995, 50.0868912], [6.0271848, 50.0869749], [6.0272277, 50.0871434], [6.0273581, 50.0872796], [6.0274318, 50.0873819], [6.0274695, 50.087461], [6.027423, 50.087633], [6.0273541, 50.0877201], [6.0272293, 50.0878082], [6.0270848, 50.0878615], [6.0267949, 50.0879077], [6.0266341, 50.0879702], [6.0264514, 50.0880955], [6.026379, 50.0881675], [6.0263843, 50.0882082], [6.0264248, 50.0882443], [6.0266268, 50.0883073], [6.0269802, 50.0884216], [6.0270505, 50.088467], [6.0270702, 50.0885158], [6.0270674, 50.0885728], [6.0269841, 50.0886494], [6.0269081, 50.0887028], [6.0267816, 50.088741], [6.0266535, 50.088735], [6.0265074, 50.0886767], [6.0263218, 50.0885916], [6.0261846, 50.0885775], [6.0260555, 50.0886076], [6.0260012, 50.0886552], [6.0259213, 50.088812], [6.025838, 50.0889095], [6.0258351, 50.0889711], [6.0258674, 50.0890153], [6.0260207, 50.0890841], [6.026165, 50.0891098], [6.0262589, 50.0891006], [6.0263041, 50.0890658], [6.0263783, 50.089031], [6.0264794, 50.0889986], [6.0266311, 50.0889918], [6.026752, 50.0889966], [6.02689, 50.0890328], [6.0269765, 50.089098], [6.0270447, 50.0892364], [6.0271299, 50.0894403], [6.0271511, 50.0895291], [6.0271354, 50.089585], [6.0271094, 50.08962], [6.0270462, 50.0896339], [6.0269605, 50.0896128], [6.0268557, 50.0895624], [6.0267365, 50.0895144], [6.0266393, 50.0895201], [6.0265378, 50.0895573], [6.0264674, 50.0896435], [6.0264297, 50.089829], [6.0264358, 50.0899492], [6.0264473, 50.0899932], [6.0264989, 50.0900163], [6.0265906, 50.0900262], [6.027059, 50.0899944], [6.0271651, 50.0899934], [6.0272222, 50.0900087], [6.0273945, 50.0901074], [6.0276351, 50.0903055], [6.0279126, 50.0904939], [6.0280062, 50.0907035], [6.0281389, 50.0910035], [6.0281601, 50.0910274], [6.0281853, 50.0910311], [6.0282169, 50.091029], [6.0286768, 50.0910635], [6.0287003, 50.0910878], [6.0287187, 50.09111], [6.028825, 50.0911213], [6.0289627, 50.0911405], [6.0290364, 50.0911544], [6.0291382, 50.0911872], [6.0291746, 50.091204], [6.0292103, 50.0912205], [6.0292297, 50.0912377], [6.0292351, 50.0912565], [6.0292367, 50.0912809], [6.0292363, 50.0913058], [6.0292309, 50.0913274], [6.0292188, 50.0913434], [6.0291162, 50.0914549], [6.0290671, 50.0915191], [6.0290336, 50.0915783], [6.0289732, 50.0916587], [6.0289364, 50.0917369], [6.0288538, 50.091902], [6.0288348, 50.0919745], [6.0288396, 50.092085], [6.0287936, 50.0921135], [6.0288339, 50.0921416], [6.0290249, 50.0921936], [6.0291687, 50.0922234], [6.0292887, 50.092235], [6.0295739, 50.0922403], [6.0295631, 50.0923023], [6.029561, 50.0923142], [6.0295572, 50.0923359], [6.0296261, 50.0923833], [6.0297138, 50.0924787], [6.0297873, 50.0925975], [6.0298322, 50.0927084], [6.0298459, 50.092806], [6.029849, 50.0928791], [6.0298468, 50.0929664], [6.0298304, 50.0930209], [6.0297891, 50.0930605], [6.0297065, 50.0930949], [6.0295993, 50.0930911], [6.029469, 50.0930637], [6.0293101, 50.0930559], [6.029188, 50.093055], [6.0290563, 50.093075], [6.0289202, 50.0931005], [6.0288299, 50.0931143], [6.0287927, 50.0931272], [6.0287492, 50.093148], [6.0287188, 50.0931905], [6.0286832, 50.0932541], [6.0286747, 50.0932873], [6.0286788, 50.0933324], [6.0287199, 50.093381], [6.0288105, 50.0934228], [6.0289394, 50.0934599], [6.0290104, 50.0934897], [6.0290506, 50.0935178], [6.0290627, 50.093568], [6.029059, 50.0936439], [6.0290274, 50.0936864], [6.028976, 50.0937364], [6.0288742, 50.0937761], [6.0285809, 50.0938675], [6.0283614, 50.093937], [6.0282111, 50.0939712], [6.0280298, 50.0939977], [6.0279541, 50.0939985], [6.0278726, 50.0939911], [6.027779, 50.0939656], [6.0276418, 50.0939219], [6.027565, 50.0939202], [6.0274989, 50.0939392], [6.0274441, 50.0939922], [6.0274177, 50.0940578], [6.0274071, 50.094124], [6.0274086, 50.0942066], [6.0274077, 50.0942325], [6.027394, 50.0942562], [6.0273546, 50.0942846], [6.0271404, 50.094361], [6.0269478, 50.0944269], [6.0269262, 50.0944287], [6.0269045, 50.0944282], [6.0268571, 50.0944184], [6.0268098, 50.0944995], [6.0267085, 50.0946353], [6.0266679, 50.0947017], [6.0266376, 50.0947563], [6.0266214, 50.0948089], [6.0266181, 50.0948631], [6.0266304, 50.0949343], [6.0266769, 50.0950866], [6.0267316, 50.0952384], [6.0267836, 50.0953656], [6.0268602, 50.0955268], [6.026962, 50.0957344], [6.0270754, 50.0959683], [6.0271511, 50.0961216], [6.0273022, 50.0964193], [6.0275298, 50.0967813], [6.027586, 50.0968802], [6.0275994, 50.0968779], [6.0277053, 50.0968592], [6.0278007, 50.0968421], [6.0279148, 50.0968143], [6.028581, 50.0965402], [6.0288272, 50.0964732], [6.028932, 50.0964446], [6.0293574, 50.0963997], [6.0297291, 50.0963765], [6.0300248, 50.0963634], [6.0302405, 50.0963608], [6.0305577, 50.0963649], [6.0307429, 50.0963643], [6.0313171, 50.0963151], [6.0318783, 50.0961236], [6.0325429, 50.0962186], [6.0325765, 50.0962206], [6.0328756, 50.0962384], [6.0333736, 50.0962425], [6.0339252, 50.0962353], [6.0353436, 50.0962417], [6.0365868, 50.0962529], [6.0368806, 50.0957889], [6.0383436, 50.0960171], [6.0388447, 50.0960876], [6.0394193, 50.0961584], [6.039983, 50.0962142], [6.041112, 50.0963027], [6.0424975, 50.0964451], [6.0436397, 50.0965589], [6.0439791, 50.0966142], [6.04424, 50.0966697], [6.044408, 50.0967216], [6.0446603, 50.0968243], [6.0446588, 50.0968248], [6.0446614, 50.0968259], [6.044694, 50.0968678], [6.0446953, 50.0968694], [6.0447194, 50.0968998], [6.0447206, 50.0969013], [6.0448327, 50.0968692], [6.0448344, 50.0968668], [6.0454519, 50.0970418], [6.0463581, 50.0972294], [6.0464369, 50.0972457], [6.0479619, 50.0975561], [6.0481086, 50.0975859], [6.0482271, 50.0976149], [6.0485612, 50.0976981], [6.0486012, 50.0977081], [6.0489788, 50.097806], [6.0492741, 50.097893], [6.0495771, 50.0979917], [6.0499074, 50.098139], [6.0500397, 50.0982227], [6.0502184, 50.0983619], [6.0503886, 50.0985428], [6.0503898, 50.0985444], [6.0505704, 50.0987749], [6.0507425, 50.0990459], [6.0507427, 50.0990459], [6.050821, 50.0990336], [6.0516311, 50.0988911], [6.0521006, 50.0987766], [6.0521714, 50.0987594], [6.0522, 50.0987524], [6.0526144, 50.0986216], [6.0529011, 50.0984582], [6.0529642, 50.0984222], [6.0529637, 50.0984248], [6.0529654, 50.0984238], [6.0530804, 50.098376], [6.0530841, 50.0983724], [6.0532017, 50.0982806], [6.0534916, 50.0984913], [6.0536083, 50.0985761], [6.0537631, 50.0986886], [6.0541169, 50.0988608], [6.0542788, 50.0989397], [6.0545882, 50.0988852], [6.0547418, 50.0989099], [6.0551311, 50.0989949], [6.0552506, 50.0989892], [6.0552664, 50.0989874], [6.0553693, 50.0989763], [6.0554956, 50.0989438], [6.0554999, 50.0989427], [6.055616, 50.0989453], [6.055616, 50.0989437], [6.0557086, 50.0990205], [6.056021, 50.0992795], [6.0561192, 50.0993428], [6.0561918, 50.0993895], [6.0563621, 50.0995039], [6.0571002, 50.1000901], [6.0572498, 50.1002513], [6.0572497, 50.1002514], [6.057156, 50.1003085], [6.0571574, 50.10031], [6.0572607, 50.1004149], [6.05739, 50.1005462], [6.0574508, 50.1005979], [6.0576227, 50.1007393], [6.0579361, 50.1009547], [6.0585586, 50.1013383], [6.0589319, 50.1015614], [6.0591388, 50.1016618], [6.0591996, 50.1016908], [6.0591988, 50.1016913], [6.0587492, 50.1019968], [6.0586518, 50.1022587], [6.0586302, 50.1024436], [6.0585758, 50.1026748], [6.0585648, 50.102737], [6.0585506, 50.1028142], [6.0585446, 50.1028473], [6.0585134, 50.103068], [6.0585112, 50.103084], [6.0585206, 50.1030856], [6.0585855, 50.1030967], [6.0586773, 50.1030906], [6.058684, 50.1030902], [6.0587178, 50.1031033], [6.0587826, 50.1031285], [6.0589137, 50.1031475], [6.0589808, 50.1031395], [6.0590744, 50.1031283], [6.0593111, 50.1031], [6.0594073, 50.1030885], [6.0595274, 50.1030742], [6.0596272, 50.1030574], [6.0596973, 50.1030539], [6.0597428, 50.1030517], [6.060007, 50.1030385], [6.0600867, 50.1030408], [6.0601361, 50.1030422], [6.0601505, 50.1030426], [6.0602453, 50.1030529], [6.0604749, 50.1030626], [6.0604848, 50.1030634], [6.0604927, 50.103064], [6.0608413, 50.1030914], [6.0608757, 50.1031023], [6.0608951, 50.1031084], [6.0610834, 50.1031682], [6.0611366, 50.1031868], [6.0611634, 50.1031961], [6.0612946, 50.1032419], [6.0613961, 50.1032925], [6.0614026, 50.1032958], [6.0614333, 50.1033142], [6.0615078, 50.1033589], [6.0615527, 50.1033896], [6.0615842, 50.1034044], [6.0616357, 50.1034287], [6.0616373, 50.1034295], [6.0617536, 50.1034842], [6.0618584, 50.1035073], [6.0618974, 50.1035159], [6.0619836, 50.1035348], [6.0620328, 50.1035456], [6.0621732, 50.1035681], [6.0622653, 50.1035828], [6.0622906, 50.1035881], [6.0624356, 50.1036188], [6.0624386, 50.1036195], [6.0625415, 50.1036234], [6.0626342, 50.1036269], [6.0626845, 50.1036289], [6.0628008, 50.1036334], [6.0628535, 50.1036355], [6.0630682, 50.1036277], [6.0631016, 50.1036264], [6.0632108, 50.103678], [6.0634571, 50.1036744], [6.0634698, 50.1036598], [6.0634753, 50.1036535], [6.0634909, 50.1036356], [6.0635016, 50.1036233], [6.06356, 50.1035562], [6.0635733, 50.103541], [6.0636122, 50.1034963], [6.0636158, 50.1034922], [6.0636597, 50.1034417], [6.0638181, 50.1034792], [6.0638756, 50.1034824], [6.064082, 50.1034939], [6.0641854, 50.103499], [6.0643339, 50.1035364], [6.0646622, 50.103542], [6.0645393, 50.1036972], [6.0643746, 50.1037754], [6.0643468, 50.1037887], [6.0642865, 50.1037696], [6.0644004, 50.1039782], [6.0647369, 50.1042123], [6.0650332, 50.1044753], [6.0654406, 50.1049495], [6.0655952, 50.1050971], [6.0657826, 50.10524], [6.0661136, 50.1054669], [6.0664189, 50.1056503], [6.0667969, 50.1058421], [6.0670762, 50.1059447], [6.0676552, 50.106147], [6.0683742, 50.1063937], [6.0696226, 50.1068939], [6.0699118, 50.1070279], [6.0708597, 50.1075381], [6.0722086, 50.1083139], [6.0723136, 50.1083743], [6.0723345, 50.1083863], [6.0737901, 50.1092666], [6.0740734, 50.1094066], [6.074845, 50.1097352], [6.0755249, 50.1100622], [6.0756829, 50.1101575], [6.0759144, 50.1103492], [6.0763004, 50.1107143], [6.0765833, 50.1110447], [6.0769245, 50.1115113], [6.0772918, 50.1119499], [6.0776649, 50.1124351], [6.0777608, 50.1126457], [6.0779437, 50.1131301], [6.0782394, 50.1135373], [6.0784596, 50.1139033], [6.0786724, 50.114346], [6.0787492, 50.1146061], [6.0787644, 50.1147844], [6.0787236, 50.1149466], [6.0786961, 50.1151252], [6.0787687, 50.1151788], [6.0789906, 50.1152536], [6.0790997, 50.1153201], [6.0791201, 50.1153708], [6.0790686, 50.1157087], [6.0791298, 50.1158386], [6.0792307, 50.1159796], [6.0793621, 50.1160977], [6.0797494, 50.1163771], [6.0801347, 50.116643], [6.0803366, 50.1167947], [6.0807657, 50.1171829], [6.0808848, 50.117332], [6.0809887, 50.1174956], [6.081073, 50.1176431], [6.0811326, 50.117772], [6.0811855, 50.1179208], [6.0812325, 50.1180678], [6.0812766, 50.1182879], [6.0813146, 50.1185196], [6.0814516, 50.1185019], [6.081589, 50.1184864], [6.0823851, 50.1184211], [6.0826515, 50.1183856], [6.0828314, 50.1183885], [6.0833348, 50.1183441], [6.0838497, 50.1182988], [6.0840298, 50.118283], [6.0841351, 50.1184356], [6.0841973, 50.11849], [6.0842472, 50.1185336], [6.0843496, 50.1186471], [6.0843624, 50.1186612], [6.084495, 50.1188083], [6.0845094, 50.1188259], [6.0847014, 50.1190601], [6.0847934, 50.1191714], [6.0848939, 50.119293], [6.0849508, 50.1193694], [6.0849995, 50.1194349], [6.085065, 50.119523], [6.0850904, 50.1195609], [6.0853882, 50.120005], [6.0855178, 50.1199741], [6.0856262, 50.1200479], [6.0857105, 50.1200906], [6.085828, 50.1201198], [6.0859395, 50.1201625], [6.0860961, 50.1202499], [6.0862346, 50.1203295], [6.0864062, 50.1204634], [6.0864483, 50.1204944], [6.086626, 50.1205799], [6.0866983, 50.1206245], [6.0867464, 50.1206749], [6.0867464, 50.1207254], [6.0867401, 50.1208708], [6.0867671, 50.1209406], [6.0867851, 50.1209755], [6.0868905, 50.121026], [6.087002, 50.121061], [6.0870773, 50.1211095], [6.0871435, 50.121158], [6.0872309, 50.1212046], [6.0872911, 50.1212182], [6.0873725, 50.1212299], [6.0874357, 50.1212629], [6.0874779, 50.1212862], [6.0875592, 50.1213251], [6.0876918, 50.1213445], [6.0878365, 50.121364], [6.0880564, 50.121432], [6.0883005, 50.121502], [6.0883727, 50.1215294], [6.0885053, 50.1215797], [6.0885625, 50.1216127], [6.0886558, 50.1217039], [6.0887762, 50.1217951], [6.0888154, 50.1218145], [6.0888877, 50.1218185], [6.088939, 50.1218379], [6.08896, 50.1218767], [6.0889599, 50.1219271], [6.0889719, 50.121962], [6.0890261, 50.1219872], [6.0891075, 50.1220067], [6.089222, 50.1220533], [6.0893154, 50.1220766], [6.0893756, 50.1220825], [6.0894479, 50.1221174], [6.089472, 50.122133], [6.0895443, 50.1221466], [6.0895925, 50.1221757], [6.0896015, 50.1222009], [6.0896135, 50.1222552], [6.0896496, 50.1223115], [6.0897219, 50.1223348], [6.0897791, 50.1223678], [6.0898213, 50.122393], [6.0898996, 50.1224086], [6.089987, 50.1224358], [6.0900713, 50.1224727], [6.0901135, 50.1224882], [6.0901526, 50.1225309], [6.0902058, 50.1225682], [6.090255, 50.1226027], [6.0903694, 50.1226687], [6.0905983, 50.122793], [6.0906525, 50.1228318], [6.0906917, 50.1228783], [6.0907759, 50.1229889], [6.0909325, 50.1230937], [6.0912126, 50.1232335], [6.0913752, 50.1233131], [6.0914837, 50.1233772], [6.0917276, 50.1234917], [6.0921343, 50.1237092], [6.0924083, 50.123878], [6.0931401, 50.1243283], [6.0931913, 50.124373], [6.093396, 50.1245728], [6.0936277, 50.1248289], [6.0938625, 50.1250675], [6.093892, 50.125098], [6.0939769, 50.1251859], [6.0940852, 50.1253178], [6.0941394, 50.1253915], [6.0941965, 50.1254827], [6.0942715, 50.125696], [6.0943346, 50.1258531], [6.0944609, 50.126049], [6.0945601, 50.1262391], [6.0946201, 50.1263487], [6.0946254, 50.1263582], [6.0946473, 50.1263982], [6.0947073, 50.1265863], [6.0948215, 50.1268113], [6.0948786, 50.1269121], [6.0949488, 50.1269691], [6.0949599, 50.1269781], [6.0949991, 50.1270227], [6.0950412, 50.1270557], [6.0951768, 50.1270946], [6.0952551, 50.1271412], [6.0953334, 50.1271955], [6.0954087, 50.1272809], [6.095428, 50.1273046], [6.0954719, 50.1273585], [6.0955472, 50.1273837], [6.0956165, 50.1273915], [6.0957583, 50.1273645], [6.0958758, 50.1273568], [6.0960658, 50.1273666], [6.0963039, 50.1273764], [6.0965933, 50.1274037], [6.0968736, 50.1274388], [6.0972202, 50.1274759], [6.097383, 50.1274954], [6.0974704, 50.1275206], [6.0975277, 50.1275207], [6.0977598, 50.127513], [6.0978563, 50.1274821], [6.0978955, 50.1274821], [6.0979739, 50.127486], [6.0980613, 50.1274977], [6.0980884, 50.127519], [6.0981396, 50.1275385], [6.098224, 50.1275346], [6.0982874, 50.127525], [6.0983959, 50.1275522], [6.0986666, 50.1275963], [6.0987003, 50.1276164], [6.0988178, 50.1276145], [6.0988781, 50.1276358], [6.0989323, 50.1276727], [6.0989715, 50.1276863], [6.0990408, 50.1276864], [6.0990876, 50.1276997], [6.0991222, 50.1277097], [6.0991613, 50.1277388], [6.0992306, 50.1277601], [6.0992608, 50.1277834], [6.0992366, 50.1278009], [6.0992034, 50.1278202], [6.0992034, 50.127828], [6.0992245, 50.1278455], [6.0992516, 50.1278416], [6.0992757, 50.1278532], [6.0992757, 50.1278746], [6.0992757, 50.1278862], [6.0992998, 50.1278979], [6.099333, 50.1278901], [6.0993782, 50.1278688], [6.0994174, 50.1278708], [6.0994325, 50.1278766], [6.0994505, 50.1279038], [6.0994806, 50.1279251], [6.0995288, 50.1279465], [6.0995921, 50.1279601], [6.0996886, 50.1279718], [6.0997308, 50.1279757], [6.0997579, 50.1279951], [6.0997549, 50.1280125], [6.0997367, 50.1280222], [6.0997427, 50.1280435], [6.0997668, 50.128061], [6.0998211, 50.1280533], [6.0998814, 50.1280378], [6.0999146, 50.1280378], [6.0999538, 50.1280592], [6.0999869, 50.1280747], [6.1000321, 50.1280864], [6.1000622, 50.1281116], [6.1000984, 50.128131], [6.1001255, 50.1281252], [6.1001496, 50.1281213], [6.1001798, 50.1281349], [6.1002099, 50.1281485], [6.1002521, 50.1281466], [6.1002853, 50.1281408], [6.1003184, 50.1281505], [6.1003696, 50.1281854], [6.1004209, 50.1281971], [6.1005022, 50.1282107], [6.1005505, 50.1282127], [6.1006228, 50.1282612], [6.1005593, 50.1283387], [6.1008486, 50.1284533], [6.1011077, 50.1285562], [6.1012674, 50.1286164], [6.1014121, 50.1286708], [6.1014633, 50.1286999], [6.1015416, 50.1287639], [6.101641, 50.1287931], [6.1017224, 50.128828], [6.1017977, 50.1288882], [6.101876, 50.1289289], [6.1019562, 50.1289592], [6.1020478, 50.1289775], [6.1021141, 50.1290086], [6.1021562, 50.1290493], [6.1022285, 50.1290842], [6.1022888, 50.1290959], [6.1023521, 50.1291328], [6.1024123, 50.129158], [6.1025178, 50.129193], [6.1026474, 50.1292454], [6.1027076, 50.1292745], [6.1027799, 50.1293269], [6.1028221, 50.1293618], [6.1028914, 50.1293871], [6.1029697, 50.1294085], [6.1030179, 50.1294318], [6.1031203, 50.1295249], [6.1031625, 50.1295482], [6.1032258, 50.1295637], [6.1033042, 50.1295676], [6.1033433, 50.1295715], [6.1033674, 50.1295929], [6.1033825, 50.1296259], [6.1034186, 50.1296666], [6.1034668, 50.1296802], [6.103515, 50.129686], [6.1035572, 50.1297016], [6.1035451, 50.1297462], [6.1035481, 50.1297694], [6.1035722, 50.1298043], [6.1036203, 50.1298548], [6.1036323, 50.1299091], [6.1036503, 50.1299614], [6.1036985, 50.1300041], [6.1037558, 50.130041], [6.1038793, 50.1300992], [6.1039546, 50.1301419], [6.1040088, 50.1301769], [6.1040509, 50.1302428], [6.10412, 50.1304891], [6.10418, 50.1306927], [6.104192, 50.1307586], [6.1041919, 50.1307974], [6.1041527, 50.1308362], [6.1041104, 50.1308672], [6.1040863, 50.1309021], [6.1040651, 50.1309835], [6.1040619, 50.1310649], [6.1040467, 50.1311599], [6.1040195, 50.131222], [6.1039802, 50.1312879], [6.1039741, 50.1313519], [6.103962, 50.1314236], [6.1039408, 50.1315011], [6.1039317, 50.131538], [6.1039165, 50.1315806], [6.1039376, 50.1316349], [6.1039918, 50.1316834], [6.1040611, 50.1317339], [6.1040942, 50.1317552], [6.1041213, 50.1317824], [6.1041243, 50.1318018], [6.1040911, 50.1318289], [6.104076, 50.131858], [6.104082, 50.1318832], [6.1041121, 50.131889], [6.1041513, 50.1318813], [6.1041905, 50.1318988], [6.1042387, 50.1319065], [6.1042689, 50.1319162], [6.1042869, 50.1319318], [6.1042868, 50.131988], [6.1043049, 50.1320287], [6.104323, 50.1320481], [6.1043681, 50.132085], [6.1044253, 50.1321606], [6.1044795, 50.132213], [6.1045126, 50.1322538], [6.1045518, 50.1323042], [6.104609, 50.1323469], [6.1047114, 50.1324245], [6.1047506, 50.1324517], [6.1047626, 50.1324652], [6.1047656, 50.1324905], [6.1047294, 50.1325195], [6.1047354, 50.1325486], [6.1047564, 50.1325602], [6.1048107, 50.1325583], [6.104865, 50.1325642], [6.1049041, 50.1325913], [6.1049402, 50.1326651], [6.1049703, 50.1327077], [6.1050035, 50.1327194], [6.1050487, 50.1327272], [6.1050668, 50.1327388], [6.1050848, 50.132764], [6.105145, 50.1328571], [6.1052474, 50.1329483], [6.1053739, 50.1330453], [6.105413, 50.133088], [6.1054432, 50.1331229], [6.1054341, 50.1331539], [6.105425, 50.133185], [6.1054491, 50.133214], [6.1055003, 50.1332277], [6.1055335, 50.1332393], [6.1055696, 50.1332606], [6.1056841, 50.1333557], [6.1057322, 50.1333984], [6.1058046, 50.1334198], [6.1058347, 50.1334353], [6.1058528, 50.1334566], [6.1058407, 50.1334721], [6.1057955, 50.1334857], [6.1057803, 50.1335109], [6.1057803, 50.1335342], [6.1057954, 50.1335497], [6.1058617, 50.133571], [6.1058828, 50.1335846], [6.1058978, 50.133606], [6.1058767, 50.1336292], [6.1058676, 50.1336467], [6.1059098, 50.133668], [6.105958, 50.1336991], [6.1060152, 50.1337941], [6.1060603, 50.1338445], [6.1061085, 50.1338639], [6.106205, 50.1338873], [6.1062652, 50.13393], [6.1064339, 50.1340929], [6.1065392, 50.1342248], [6.1065965, 50.1342656], [6.1066779, 50.1342889], [6.1068346, 50.1343316], [6.1069039, 50.1343627], [6.1069521, 50.1343666], [6.1070215, 50.1343918], [6.1071631, 50.1344695], [6.1072716, 50.1345141], [6.10738, 50.1345568], [6.1074373, 50.1345937], [6.1076241, 50.1347159], [6.1077566, 50.1348052], [6.107853, 50.1348751], [6.107856, 50.1348983], [6.1078439, 50.1349449], [6.1078559, 50.1349856], [6.1078921, 50.1350108], [6.1080126, 50.135038], [6.1081121, 50.1350613], [6.1081543, 50.1350807], [6.1081874, 50.1351157], [6.1082085, 50.1351622], [6.1082476, 50.1351816], [6.1083744, 50.1351831], [6.1084225, 50.1351836], [6.1085154, 50.1351849], [6.1085761, 50.1351863], [6.1086473, 50.1351837], [6.1087018, 50.1351797], [6.1087457, 50.1351918], [6.1088106, 50.1352255], [6.1088796, 50.1352552], [6.1089906, 50.1352821], [6.1090681, 50.1352956], [6.1091162, 50.135293], [6.1091644, 50.1352755], [6.1092188, 50.1352836], [6.1093507, 50.1353348], [6.1095244, 50.1354117], [6.1096425, 50.1354698], [6.1098183, 50.1355601], [6.1098832, 50.1355952], [6.1099188, 50.1356181], [6.1100046, 50.1356774], [6.1100924, 50.1357232], [6.1101992, 50.1357798], [6.1102389, 50.1358081], [6.1102996, 50.1358593], [6.1103163, 50.1358822], [6.1103394, 50.1359166], [6.1105435, 50.1359571], [6.1106817, 50.1359814], [6.1107948, 50.1359835], [6.1109425, 50.1359856], [6.1110273, 50.1359978], [6.1110995, 50.136016], [6.1111686, 50.1360221], [6.1112095, 50.136008], [6.1112598, 50.1359918], [6.1113006, 50.1359918], [6.1113509, 50.136006], [6.1114922, 50.1360303], [6.1115928, 50.1360324], [6.1116367, 50.1360223], [6.1116965, 50.1359981], [6.1117499, 50.13599], [6.111819, 50.1360082], [6.1118975, 50.1360346], [6.1119698, 50.1360366], [6.1120357, 50.1360185], [6.1120677, 50.1360172], [6.1121256, 50.1360149], [6.1121854, 50.1360262], [6.1122279, 50.1360304], [6.1122792, 50.1360233], [6.1123271, 50.1360192], [6.1123957, 50.1360256], [6.1124676, 50.1360459], [6.1125144, 50.1360642], [6.1125411, 50.1360796], [6.1126292, 50.1361329], [6.112688, 50.136163], [6.1127218, 50.1361694], [6.1127697, 50.1361757], [6.1128427, 50.1361806], [6.1128677, 50.1361764], [6.1128743, 50.1361729], [6.1128917, 50.1361533], [6.1129103, 50.1361253], [6.1129321, 50.136119], [6.1129517, 50.1361218], [6.1129658, 50.1361309], [6.1130192, 50.1361772], [6.1130366, 50.1361891], [6.1130834, 50.1362053], [6.1131057, 50.1362095], [6.1131569, 50.1362074], [6.1132048, 50.1362074], [6.1132397, 50.1362152], [6.1132952, 50.1362285], [6.1133464, 50.1362516], [6.1133758, 50.1362636], [6.1134324, 50.1362636], [6.1134782, 50.1362664], [6.1135316, 50.1362811], [6.1136165, 50.1363162], [6.1136764, 50.1363429], [6.1137118, 50.1363541], [6.1137499, 50.1363569], [6.1138087, 50.1363534], [6.1138403, 50.1363485], [6.1138676, 50.1363373], [6.1138915, 50.1363311], [6.1139188, 50.1363311], [6.1140059, 50.1363458], [6.1140538, 50.1363543], [6.1141834, 50.136355], [6.1142423, 50.1363592], [6.1143016, 50.1363705], [6.1143604, 50.1363817], [6.1144312, 50.136381], [6.114526, 50.1363832], [6.1145903, 50.1363881], [6.1146818, 50.136405], [6.1147395, 50.1364183], [6.1147928, 50.1364225], [6.1148539, 50.1364177], [6.1149045, 50.1364065], [6.1149743, 50.136382], [6.1150396, 50.1363638], [6.1151039, 50.136354], [6.1151551, 50.1363555], [6.1152096, 50.1363611], [6.1153098, 50.1363758], [6.1153653, 50.1363822], [6.1154035, 50.1363822], [6.115477, 50.1363745], [6.115575, 50.1363718], [6.1156317, 50.1363732], [6.1156546, 50.136383], [6.1156589, 50.1364054], [6.1156545, 50.1364397], [6.1156512, 50.1364657], [6.1156577, 50.1364755], [6.1156817, 50.1364811], [6.1157427, 50.1364811], [6.1157808, 50.1364839], [6.1158233, 50.1364966], [6.1158821, 50.1365267], [6.1159234, 50.1365499], [6.1159474, 50.1365534], [6.1159779, 50.1365534], [6.116003, 50.1365436], [6.1160155, 50.1365289], [6.1160221, 50.1365002], [6.1160167, 50.1364413], [6.1160146, 50.1364028], [6.1160233, 50.1363803], [6.1160386, 50.1363656], [6.1160865, 50.1363517], [6.1161628, 50.1363489], [6.1163164, 50.1363462], [6.1164204, 50.1363476], [6.1165064, 50.1363546], [6.116599, 50.1363708], [6.1166284, 50.1363743], [6.116684, 50.1363666], [6.1167374, 50.1363667], [6.1168267, 50.1363667], [6.1168757, 50.1363576], [6.1169095, 50.1363457], [6.1169596, 50.1363268], [6.1169885, 50.1363212], [6.1170626, 50.1363212], [6.1170844, 50.136322], [6.1171072, 50.1363171], [6.117141, 50.1362996], [6.1171824, 50.1362772], [6.1172075, 50.1362681], [6.1172347, 50.1362709], [6.1172783, 50.1362835], [6.1173393, 50.1363158], [6.1173948, 50.1363214], [6.1174417, 50.1363158], [6.1175092, 50.1363011], [6.1175839, 50.1362766], [6.1176416, 50.1362528], [6.1176896, 50.1362451], [6.1177092, 50.1362501], [6.1177266, 50.1362662], [6.1177505, 50.1362704], [6.1178072, 50.1362802], [6.1178747, 50.1362999], [6.1179074, 50.136302], [6.1179433, 50.1362978], [6.1179749, 50.1362866], [6.1180087, 50.1362607], [6.118036, 50.1362446], [6.1180785, 50.1362327], [6.1181106, 50.1362278], [6.1181368, 50.1362215], [6.1181607, 50.1362068], [6.1181902, 50.1361718], [6.1182109, 50.136148], [6.1182403, 50.1361382], [6.1182708, 50.1361354], [6.1183525, 50.1361424], [6.1186324, 50.1361902], [6.1187103, 50.1362014], [6.1187659, 50.136205], [6.1187909, 50.1362001], [6.1188192, 50.136191], [6.1188258, 50.1361784], [6.1188128, 50.1361461], [6.1188095, 50.1361321], [6.1188237, 50.1361195], [6.1188607, 50.136109], [6.1188988, 50.1361048], [6.1189773, 50.1361126], [6.1189969, 50.1361126], [6.1190241, 50.1361084], [6.1191069, 50.1360853], [6.1191538, 50.1360783], [6.1191701, 50.1360818], [6.1192039, 50.1361], [6.1192523, 50.1361295], [6.1193024, 50.13614], [6.1193591, 50.1361316], [6.1194048, 50.1361162], [6.1194637, 50.1360932], [6.1195247, 50.1360785], [6.1195596, 50.136075], [6.1196347, 50.1360848], [6.1197415, 50.1360877], [6.1197774, 50.1360919], [6.1197954, 50.1361045], [6.1198051, 50.1361353], [6.119792, 50.1361823], [6.1197953, 50.1362096], [6.1198148, 50.1362299], [6.1198497, 50.1362531], [6.1199281, 50.1362839], [6.1199956, 50.1362994], [6.1200196, 50.1362966], [6.1200632, 50.1362889], [6.1201133, 50.1362854], [6.1201852, 50.1362903], [6.1202472, 50.1363009], [6.120299, 50.1363156], [6.1203175, 50.1363163], [6.1203393, 50.1363093], [6.1203545, 50.1362967], [6.1203687, 50.1362757], [6.1203905, 50.1362638], [6.1204101, 50.1362603], [6.1204286, 50.1362638], [6.1204395, 50.136289], [6.120458, 50.1363087], [6.1204722, 50.1363136], [6.1204961, 50.1363129], [6.1205114, 50.1363073], [6.120519, 50.1363003], [6.120538, 50.1362857], [6.1205496, 50.1362786], [6.1205683, 50.136279], [6.120604, 50.1362926], [6.1206476, 50.1363059], [6.1206911, 50.1363059], [6.1207216, 50.1362962], [6.1207467, 50.1362821], [6.1207827, 50.1362492], [6.1208034, 50.1362205], [6.1208089, 50.1362051], [6.1208029, 50.1361834], [6.1207964, 50.1361455], [6.1208019, 50.1361406], [6.1208237, 50.1361371], [6.1208498, 50.1361428], [6.1208933, 50.1361645], [6.120913, 50.1361666], [6.1209413, 50.1361645], [6.1209663, 50.1361582], [6.1209849, 50.1361456], [6.1210165, 50.1361127], [6.1210525, 50.136063], [6.1210721, 50.1360322], [6.1210983, 50.1360104], [6.1211244, 50.1359985], [6.1211648, 50.1359873], [6.1212644, 50.1359727], [6.1213211, 50.1359587], [6.1213778, 50.1359405], [6.1214181, 50.1359188], [6.1214421, 50.1359027], [6.1214573, 50.1358599], [6.1214661, 50.1358459], [6.1214944, 50.135834], [6.1215685, 50.1358207], [6.1216796, 50.1358012], [6.121709, 50.1357928], [6.1218251, 50.1357515], [6.1219613, 50.1357144], [6.121994, 50.1357102], [6.1220386, 50.1357193], [6.1220822, 50.1357348], [6.1221247, 50.13576], [6.1221486, 50.1357677], [6.1221846, 50.1357747], [6.1222325, 50.1357762], [6.1222783, 50.1357671], [6.1223134, 50.1357521], [6.1223365, 50.135737], [6.122342, 50.1357251], [6.1223398, 50.1357068], [6.1223246, 50.1356823], [6.1222757, 50.1356115], [6.1222637, 50.1355891], [6.1222637, 50.1355723], [6.1222763, 50.1355625], [6.122334, 50.1355464], [6.1223852, 50.135503], [6.1224354, 50.1354687], [6.1225465, 50.1354099], [6.1226054, 50.1353882], [6.122625, 50.1353882], [6.1226479, 50.135398], [6.1226816, 50.1354225], [6.1227012, 50.1354274], [6.1227295, 50.1354211], [6.1227503, 50.1354057], [6.1228151, 50.1353476], [6.1228315, 50.1353224], [6.1228304, 50.1352951], [6.1228522, 50.1352719], [6.1228871, 50.1352565], [6.1229612, 50.1352348], [6.1230004, 50.1352195], [6.1230255, 50.135204], [6.1231187, 50.1351312], [6.123171, 50.1350962], [6.1232386, 50.1350626], [6.1232658, 50.1350563], [6.1232876, 50.1350633], [6.1233105, 50.1350717], [6.1233399, 50.1350633], [6.123378, 50.1350381], [6.1234042, 50.1350066], [6.1234413, 50.1349562], [6.1234625, 50.1349387], [6.1235105, 50.1349121], [6.1235399, 50.1348974], [6.1235792, 50.1348525], [6.1235955, 50.1348406], [6.1239197, 50.1346971], [6.1240134, 50.1346614], [6.1240886, 50.1346348], [6.1241224, 50.1346306], [6.1241681, 50.1346328], [6.1242367, 50.1346482], [6.1243184, 50.134672], [6.1244295, 50.1347015], [6.1244932, 50.1347184], [6.1245411, 50.1347261], [6.1245803, 50.1347289], [6.1246533, 50.134731], [6.1247415, 50.1347241], [6.1247688, 50.1347164], [6.1247906, 50.1347023], [6.1247971, 50.1346841], [6.1247993, 50.134661], [6.124807, 50.1346442], [6.1248266, 50.1346274], [6.124856, 50.1346148], [6.1249661, 50.1345854], [6.1251355, 50.1345266], [6.1253425, 50.1344461], [6.1255948, 50.1343418], [6.1257855, 50.1342571], [6.1259424, 50.1341857], [6.1260541, 50.1341381], [6.1261304, 50.1341157], [6.1262154, 50.1340961], [6.1262589, 50.1340891], [6.1263298, 50.1340765], [6.1264017, 50.1340548], [6.126479, 50.134024], [6.1265259, 50.1339946], [6.1265553, 50.1339666], [6.1265788, 50.1339274], [6.1265864, 50.1338916], [6.1265919, 50.1338559], [6.1266028, 50.1338279], [6.1266224, 50.1338076], [6.1266628, 50.1337803], [6.1267832, 50.1337144], [6.1268606, 50.1336661], [6.1269085, 50.1336297], [6.1269391, 50.1335961], [6.1269696, 50.1335443], [6.1269843, 50.1335078], [6.1269789, 50.1334889], [6.1269528, 50.1334497], [6.1269267, 50.1334111], [6.1269365, 50.1333838], [6.1269714, 50.1333495], [6.1270259, 50.133325], [6.1271212, 50.1332753], [6.1271768, 50.1332304], [6.1272782, 50.1331464], [6.1274586, 50.1329832], [6.1275513, 50.1329027], [6.1275889, 50.1328515], [6.1276161, 50.1328088], [6.1276641, 50.132757], [6.1277262, 50.1327143], [6.1278238, 50.1326723], [6.127949, 50.1326401], [6.1280318, 50.132617], [6.1280863, 50.1325848], [6.1282215, 50.1325035], [6.1282831, 50.1324573], [6.1283038, 50.1324321], [6.1283419, 50.1323649], [6.1283736, 50.132327], [6.128415, 50.1323004], [6.1284575, 50.1322892], [6.1285359, 50.1322907], [6.128586, 50.1322837], [6.1286138, 50.1322718], [6.1286345, 50.1322529], [6.1286378, 50.1322374], [6.1286313, 50.132215], [6.128628, 50.1321877], [6.128628, 50.1321611], [6.1286357, 50.1321471], [6.1286836, 50.1321029], [6.128779, 50.1320483], [6.12884, 50.1320049], [6.1288771, 50.1319706], [6.1289294, 50.1319124], [6.1289834, 50.1318389], [6.1290281, 50.1317843], [6.1291033, 50.1317233], [6.1291611, 50.1316694], [6.1291823, 50.1316344], [6.1291878, 50.1316092], [6.1291802, 50.1315874], [6.1291551, 50.1315692], [6.1291399, 50.1315517], [6.1291432, 50.1315216], [6.1291716, 50.1314893], [6.1292141, 50.1314683], [6.129244, 50.1314333], [6.1293018, 50.1313591], [6.1293596, 50.13131], [6.129425, 50.1312533], [6.1294408, 50.1312281], [6.1294517, 50.1311903], [6.1294637, 50.1311672], [6.1294844, 50.1311475], [6.1295454, 50.1311146], [6.129564, 50.1310978], [6.1295727, 50.131081], [6.1295727, 50.1310677], [6.1295673, 50.1310523], [6.1295575, 50.1310376], [6.1295592, 50.1309997], [6.1295722, 50.1309822], [6.1296235, 50.1309472], [6.1296322, 50.1309157], [6.1296442, 50.1308877], [6.1296671, 50.1308638], [6.1297031, 50.1308442], [6.1297521, 50.1308267], [6.1297919, 50.1308043], [6.1298452, 50.1307686], [6.1299302, 50.1307322], [6.1299945, 50.1307021], [6.1300588, 50.1306594], [6.130097, 50.1306265], [6.1301717, 50.1305235], [6.1302251, 50.1304598], [6.1302589, 50.1304282], [6.1302883, 50.1304093], [6.1303531, 50.130389], [6.1304359, 50.130375], [6.1304958, 50.1303569], [6.1305209, 50.1303408], [6.1305285, 50.130319], [6.1305242, 50.1303071], [6.1305046, 50.1302896], [6.1304959, 50.1302665], [6.1305057, 50.1302427], [6.1305308, 50.1302111], [6.1305815, 50.1301691], [6.1306327, 50.1301243], [6.1306534, 50.1300907], [6.1306676, 50.1300486], [6.1306644, 50.1300031], [6.1306649, 50.1299701], [6.1306802, 50.1299393], [6.1307227, 50.1298924], [6.1307837, 50.1298427], [6.1308339, 50.1298062], [6.13086, 50.1297993], [6.1309003, 50.1297909], [6.1309483, 50.1297902], [6.1309798, 50.1297951], [6.1310076, 50.1298042], [6.1310283, 50.1298189], [6.1310533, 50.1298357], [6.1310773, 50.1298379], [6.1310969, 50.1298351], [6.1311165, 50.1298239], [6.1311917, 50.1297706], [6.1312287, 50.1297503], [6.1312745, 50.12973], [6.1313257, 50.1297216], [6.131354, 50.1297272], [6.1313747, 50.1297406], [6.1313943, 50.1297511], [6.1314291, 50.1297602], [6.1314542, 50.1297609], [6.1314912, 50.129749], [6.1315261, 50.1297245], [6.1315523, 50.1297035], [6.1315855, 50.1296944], [6.1317663, 50.1296559], [6.1319417, 50.1296195], [6.1320114, 50.1296118], [6.1320659, 50.1296125], [6.1321236, 50.1296203], [6.1322129, 50.1296399], [6.1323109, 50.1296624], [6.1323654, 50.1296701], [6.1324165, 50.1296701], [6.1325059, 50.1296659], [6.1325941, 50.1296617], [6.1326518, 50.1296632], [6.1327261, 50.1296709], [6.1327762, 50.1296793], [6.1328317, 50.1296891], [6.132884, 50.1296926], [6.1329385, 50.1296744], [6.1329875, 50.1296562], [6.1330735, 50.1296261], [6.1331994, 50.1295939], [6.1332538, 50.1295694], [6.1333072, 50.1295302], [6.1333617, 50.1295064], [6.1334184, 50.1294882], [6.1334521, 50.1294854], [6.1334946, 50.1294917], [6.133585, 50.1295093], [6.1336678, 50.1295191], [6.1337222, 50.1295212], [6.1337843, 50.1295283], [6.1338545, 50.1295395], [6.1339188, 50.1295444], [6.1339929, 50.1295479], [6.1340342, 50.1295612], [6.1340614, 50.1295795], [6.1340843, 50.1296138], [6.1341115, 50.1296271], [6.1341453, 50.1296334], [6.1341747, 50.1296271], [6.134191, 50.1296152], [6.1341943, 50.1295956], [6.1341845, 50.129569], [6.1341922, 50.1295515], [6.1342172, 50.129548], [6.1342662, 50.1295641], [6.1343076, 50.1295936], [6.1343887, 50.1296608], [6.1344007, 50.1296671], [6.1344606, 50.1296756], [6.1345074, 50.1296805], [6.1345303, 50.1296903], [6.1345488, 50.1297169], [6.134564, 50.1297282], [6.1345967, 50.1297317], [6.1346272, 50.1297219], [6.1346664, 50.1296987], [6.1347024, 50.1296819], [6.1347361, 50.1296736], [6.1347688, 50.1296764], [6.1348069, 50.1296911], [6.134833, 50.1297135], [6.1348951, 50.1297633], [6.1349016, 50.1297766], [6.1348951, 50.1297843], [6.1348602, 50.1298081], [6.1348281, 50.129834], [6.1348182, 50.1298768], [6.1348051, 50.1298957], [6.1347833, 50.12993], [6.1347888, 50.1299594], [6.1348084, 50.1299783], [6.1348323, 50.1299847], [6.1348824, 50.1299882], [6.1349086, 50.1299966], [6.1349608, 50.1300197], [6.1350033, 50.1300302], [6.1350768, 50.1300653], [6.1351345, 50.1300835], [6.1351759, 50.1300976], [6.1351922, 50.1301284], [6.135202, 50.1301382], [6.1352216, 50.1301473], [6.1352456, 50.1301459], [6.1352782, 50.1301361], [6.1353109, 50.1301298], [6.1353403, 50.1301354], [6.1353861, 50.1301495], [6.1354547, 50.1301775], [6.1355058, 50.1301873], [6.1355636, 50.130186], [6.1356447, 50.1301699], [6.135746, 50.1301461], [6.1358185, 50.1301313], [6.1359163, 50.1301152], [6.1360079, 50.130104], [6.1360602, 50.130097], [6.1361001, 50.1300865], [6.136122, 50.1300711], [6.1361374, 50.1300468], [6.1361501, 50.1300147], [6.1361865, 50.1299662], [6.1362021, 50.1299304], [6.136232, 50.1299119], [6.1362694, 50.1299013], [6.1363211, 50.1298872], [6.1363638, 50.1298602], [6.1364047, 50.1298553], [6.1364607, 50.1298455], [6.1364996, 50.1298241], [6.1365423, 50.1298343], [6.1365772, 50.129853], [6.1366102, 50.1298846], [6.1366255, 50.1299219], [6.1366326, 50.1299784], [6.1366539, 50.1300445], [6.1366891, 50.1300922], [6.1367331, 50.130123], [6.1367741, 50.1301364], [6.1368174, 50.1301406], [6.1368499, 50.1301301], [6.1368988, 50.1301034], [6.1369525, 50.1300677], [6.1369987, 50.1300522], [6.1370924, 50.1300228], [6.1371218, 50.1300031], [6.1371598, 50.1299611], [6.1371998, 50.1299232], [6.1372606, 50.1298881], [6.137354, 50.1298853], [6.1375062, 50.1298675], [6.1377019, 50.1298722], [6.1376945, 50.1298617]]]}}]}