{"type": "FeatureCollection", "features": [{"type": "Feature", "properties": {"name": "Munshausen"}, "geometry": {"type": "Polygon", "coordinates": [[[6.0585117, 50.066067], [6.058832, 50.06618], [6.0590076, 50.06624], [6.0593014, 50.06632], [6.0596027, 50.066387], [6.059801, 50.066425], [6.0598736, 50.06613], [6.0598774, 50.066113], [6.0599384, 50.065834], [6.0600185, 50.06549], [6.060068, 50.065285], [6.06011, 50.065144], [6.060198, 50.064953], [6.0602474, 50.064857], [6.0603046, 50.064846], [6.0614758, 50.065], [6.062456, 50.065144], [6.06262, 50.06516], [6.06283, 50.065166], [6.0635586, 50.06518], [6.0646877, 50.065216], [6.0650883, 50.065247], [6.0651204, 50.0653541], [6.065233, 50.06573], [6.0653057, 50.065918], [6.0654031, 50.0661286], [6.0654926, 50.066322], [6.065752, 50.06675], [6.0659733, 50.06705], [6.0661564, 50.06722], [6.066366, 50.067387], [6.066763, 50.067654], [6.0670376, 50.06788], [6.067213, 50.068027], [6.067236, 50.068047], [6.067259, 50.068066], [6.06756, 50.068348], [6.067766, 50.06856], [6.068102, 50.068947], [6.0682354, 50.069122], [6.0685444, 50.06958], [6.0688457, 50.070133], [6.068903, 50.07013], [6.0694523, 50.070053], [6.0693913, 50.06988], [6.0694485, 50.069775], [6.069647, 50.069756], [6.0703373, 50.069447], [6.0707493, 50.06924], [6.0709324, 50.069157], [6.071203, 50.06907], [6.071722, 50.06891], [6.0724316, 50.0687], [6.0730762, 50.06846], [6.0736217, 50.068256], [6.0742626, 50.067997], [6.074358, 50.067978], [6.07469, 50.06797], [6.0752735, 50.06796], [6.075659, 50.06795], [6.075678, 50.06795], [6.076391, 50.06812], [6.076437, 50.06813], [6.077116, 50.068287], [6.0772038, 50.06831], [6.077242, 50.068317], [6.077257, 50.06832], [6.07728, 50.068325], [6.0775013, 50.068375], [6.077589, 50.068394], [6.077875, 50.06846], [6.0780315, 50.068493], [6.0780926, 50.06849], [6.0785885, 50.068394], [6.0794125, 50.068226], [6.079508, 50.068207], [6.080122, 50.06808], [6.0801563, 50.068085], [6.080187, 50.068253], [6.080221, 50.068344], [6.0803432, 50.068584], [6.0804157, 50.06872], [6.0804632, 50.0688498], [6.080492, 50.06893], [6.0805088, 50.0689996], [6.0805073, 50.06907], [6.0804996, 50.06911], [6.0804844, 50.069153], [6.080385, 50.0693], [6.0803127, 50.0694], [6.08008, 50.069687], [6.0798206, 50.069992], [6.079714, 50.0701], [6.079687, 50.070133], [6.079664, 50.070175], [6.0796604, 50.07027], [6.0796757, 50.070362], [6.0796986, 50.070473], [6.0797215, 50.070538], [6.0797825, 50.07069], [6.079836, 50.07082], [6.0799007, 50.070934], [6.0800076, 50.07109], [6.0802555, 50.071426], [6.0805919, 50.0712382], [6.080637, 50.071213], [6.080679, 50.071102], [6.0807133, 50.071022], [6.080744, 50.07097], [6.08082, 50.070854], [6.0809727, 50.070663], [6.081068, 50.070538], [6.08111, 50.07049], [6.0812473, 50.070324], [6.0814, 50.070133], [6.081465, 50.070034], [6.0815105, 50.06994], [6.0815372, 50.069878], [6.0815563, 50.069836], [6.081648, 50.069626], [6.0817165, 50.069416], [6.0817394, 50.069378], [6.081896, 50.069218], [6.0819836, 50.069122], [6.082079, 50.069023], [6.0821476, 50.06897], [6.0821934, 50.06894], [6.0822506, 50.068905], [6.082342, 50.068867], [6.082445, 50.068836], [6.082487, 50.068825], [6.08259, 50.068806], [6.0826893, 50.06879], [6.082781, 50.068783], [6.0828457, 50.068783], [6.0830517, 50.06879], [6.083418, 50.068806], [6.0838375, 50.068825], [6.083906, 50.06883], [6.0841312, 50.06884], [6.084196, 50.06884], [6.084379, 50.068844], [6.0845966, 50.06885], [6.0846767, 50.06885], [6.08486, 50.068855], [6.084902, 50.068855], [6.0849516, 50.0688559], [6.0851803, 50.06886], [6.08523, 50.06886], [6.0854664, 50.068874], [6.085634, 50.06889], [6.0858746, 50.068943], [6.0859013, 50.068947], [6.0861225, 50.069], [6.086336, 50.06901], [6.086916, 50.06904], [6.086996, 50.069042], [6.0871983, 50.069046], [6.087324, 50.069042], [6.087389, 50.069042], [6.0877743, 50.069046], [6.087908, 50.069054], [6.087961, 50.069054], [6.0880756, 50.069065], [6.0882626, 50.06909], [6.088682, 50.06918], [6.0887197, 50.0691881], [6.0888284, 50.0691317], [6.0890155, 50.0691042], [6.0892823, 50.0690934], [6.0894728, 50.0690607], [6.0895294, 50.0690425], [6.0896015, 50.069023], [6.0898266, 50.068943], [6.0902004, 50.068783], [6.090353, 50.068737], [6.0906696, 50.06865], [6.0908833, 50.068607], [6.091051, 50.06856], [6.0911503, 50.068523], [6.0912647, 50.06845], [6.0912724, 50.068462], [6.0919514, 50.069096], [6.0923595, 50.069023], [6.092455, 50.069084], [6.092535, 50.06906], [6.093107, 50.068905], [6.0932064, 50.068954], [6.0932713, 50.068996], [6.093336, 50.069054], [6.093382, 50.069096], [6.0935574, 50.06902], [6.0937138, 50.06895], [6.093916, 50.06891], [6.094042, 50.068863], [6.094263, 50.06876], [6.0943356, 50.068737], [6.094549, 50.068707], [6.0946293, 50.06869], [6.0947437, 50.06867], [6.09482, 50.068653], [6.0949955, 50.068596], [6.0953846, 50.068443], [6.0955563, 50.06837], [6.0957625, 50.0682386], [6.0959454, 50.068085], [6.0960064, 50.06805], [6.096163, 50.068], [6.0962124, 50.06799], [6.0962887, 50.067974], [6.0963764, 50.06793], [6.0964794, 50.067867], [6.096689, 50.067764], [6.0967655, 50.067726], [6.096941, 50.06765], [6.0970745, 50.067604], [6.097128, 50.06759], [6.0972424, 50.067566], [6.0973454, 50.067528], [6.097437, 50.067486], [6.0974407, 50.06746], [6.097471, 50.06704], [6.097475, 50.067028], [6.097582, 50.067055], [6.097685, 50.06708], [6.097975, 50.06718], [6.098158, 50.06725], [6.0981884, 50.06727], [6.0982037, 50.067284], [6.0981846, 50.067318], [6.098177, 50.067337], [6.098192, 50.067368], [6.098234, 50.067394], [6.0983067, 50.067417], [6.09836, 50.067444], [6.0983906, 50.067463], [6.098421, 50.06749], [6.098486, 50.067577], [6.0985317, 50.06762], [6.0985928, 50.067654], [6.0986576, 50.067677], [6.098734, 50.067688], [6.0988064, 50.067688], [6.0990047, 50.067684], [6.0990543, 50.067688], [6.0991116, 50.0677], [6.09918, 50.06772], [6.0992527, 50.067726], [6.0993443, 50.067726], [6.0994396, 50.067726], [6.099493, 50.067734], [6.0995502, 50.067745], [6.0997143, 50.067802], [6.0997715, 50.067818], [6.099825, 50.06782], [6.0999813, 50.067802], [6.100065, 50.067806], [6.1001225, 50.067814], [6.100195, 50.067833], [6.1003437, 50.067883], [6.100443, 50.067898], [6.1005573, 50.0679], [6.1006764, 50.0679], [6.1007175, 50.0679], [6.1007763, 50.0678956], [6.1009426, 50.067883], [6.1010056, 50.0678715], [6.101037, 50.0678658], [6.1010685, 50.06786], [6.1010985, 50.0678543], [6.1012783, 50.06782], [6.101408, 50.067795], [6.101473, 50.06779], [6.1016407, 50.0678], [6.101965, 50.067818], [6.102148, 50.067825], [6.102289, 50.06782], [6.1023808, 50.06781], [6.1025105, 50.06779], [6.102644, 50.06776], [6.102915, 50.06768], [6.1031437, 50.067627], [6.1032467, 50.067596], [6.103384, 50.06754], [6.1035023, 50.067505], [6.10359, 50.067474], [6.103647, 50.067444], [6.1037006, 50.067398], [6.1037273, 50.06735], [6.1037655, 50.067245], [6.103819, 50.06709], [6.103861, 50.066956], [6.10388, 50.066883], [6.103922, 50.06677], [6.1039295, 50.06668], [6.103945, 50.066605], [6.103979, 50.06654], [6.1040325, 50.066483], [6.104063, 50.066444], [6.1040707, 50.0664], [6.1040554, 50.066357], [6.104048, 50.0663], [6.1040554, 50.066273], [6.104082, 50.06624], [6.1041813, 50.06616], [6.104231, 50.066105], [6.1042614, 50.06605], [6.1043034, 50.065956], [6.1043262, 50.065845], [6.104357, 50.06568], [6.1043453, 50.065647], [6.1043415, 50.065605], [6.104357, 50.06558], [6.1044025, 50.065544], [6.104433, 50.065502], [6.104452, 50.065453], [6.1045094, 50.06521], [6.1045322, 50.06506], [6.104521, 50.065], [6.1045017, 50.064964], [6.1044292, 50.064888], [6.1043987, 50.06484], [6.1043606, 50.064613], [6.1043453, 50.064503], [6.1043262, 50.064465], [6.10425, 50.06438], [6.1042385, 50.064335], [6.1042614, 50.06427], [6.104265, 50.064236], [6.104254, 50.064163], [6.1042576, 50.06412], [6.1042885, 50.0640862], [6.104349, 50.06402], [6.104418, 50.063934], [6.1044407, 50.06387], [6.104452, 50.06381], [6.1044407, 50.063732], [6.104414, 50.063557], [6.1044025, 50.063477], [6.104414, 50.063446], [6.104456, 50.06339], [6.104559, 50.063248], [6.104662, 50.063137], [6.1047497, 50.063026], [6.104803, 50.062984], [6.1048985, 50.062916], [6.1050587, 50.062828], [6.1052, 50.06274], [6.105444, 50.062607], [6.1055164, 50.06258], [6.1057186, 50.06254], [6.10581, 50.06251], [6.1058865, 50.06247], [6.10602, 50.062386], [6.1061535, 50.062347], [6.106203, 50.062325], [6.106241, 50.062298], [6.1062527, 50.062267], [6.106268, 50.06211], [6.106283, 50.06205], [6.106329, 50.062016], [6.106386, 50.061985], [6.106493, 50.06194], [6.1065693, 50.061905], [6.1067295, 50.061787], [6.1069164, 50.06167], [6.1070347, 50.061604], [6.10713, 50.061573], [6.1071873, 50.06157], [6.107237, 50.06157], [6.107355, 50.06158], [6.1074734, 50.061573], [6.1075306, 50.061554], [6.1075573, 50.06153], [6.1076565, 50.061394], [6.1076984, 50.06137], [6.10779, 50.06135], [6.1079006, 50.06132], [6.1081066, 50.061214], [6.1082134, 50.061146], [6.108328, 50.06097], [6.108362, 50.06091], [6.1083927, 50.06086], [6.108431, 50.060833], [6.108469, 50.060818], [6.1085377, 50.06079], [6.108675, 50.06078], [6.1088123, 50.060753], [6.1088696, 50.06074], [6.1090565, 50.06068], [6.1091633, 50.06064], [6.1092243, 50.06061], [6.1092777, 50.06055], [6.109316, 50.060524], [6.109358, 50.06051], [6.109396, 50.06051], [6.109461, 50.060513], [6.109602, 50.060524], [6.1096897, 50.06052], [6.1097775, 50.060516], [6.1098347, 50.060528], [6.10993, 50.060547], [6.109991, 50.06055], [6.1100674, 50.060547], [6.110159, 50.060528], [6.110235, 50.0605], [6.110365, 50.060444], [6.1104336, 50.060425], [6.11051, 50.060406], [6.110594, 50.06039], [6.1107426, 50.06037], [6.110895, 50.060364], [6.1109676, 50.06036], [6.111124, 50.060375], [6.111208, 50.06038], [6.1112146, 50.0603917], [6.111532, 50.060356], [6.1115894, 50.060364], [6.111635, 50.06038], [6.111822, 50.060474], [6.1118946, 50.060497], [6.1119595, 50.060505], [6.1121006, 50.06051], [6.112215, 50.06052], [6.1122913, 50.060513], [6.1123544, 50.060511], [6.1123525, 50.0604978], [6.1123483, 50.0604854], [6.1123494, 50.0604526], [6.112343, 50.0604491], [6.1123421, 50.060448], [6.1122765, 50.0601135], [6.1122704, 50.059938], [6.1122591, 50.0597466], [6.1123516, 50.0595903], [6.1124122, 50.0593828], [6.1125124, 50.0591702], [6.1126491, 50.0590211], [6.1127246, 50.0588909], [6.112787, 50.0588125], [6.1129981, 50.0585471], [6.1131128, 50.0583364], [6.1131858, 50.0582486], [6.1132615, 50.0581578], [6.1134719, 50.057969], [6.1136638, 50.0578006], [6.1138681, 50.0576323], [6.1141112, 50.0575563], [6.114229, 50.0574864], [6.1145172, 50.0573984], [6.1147415, 50.0573182], [6.1150561, 50.0572367], [6.1154502, 50.0570938], [6.1156627, 50.0570487], [6.1160941, 50.0568665], [6.1162828, 50.0568046], [6.1166814, 50.0566572], [6.1167295, 50.056639], [6.1166955, 50.0566153], [6.1166436, 50.0565791], [6.1165946, 50.0565556], [6.1165678, 50.0565363], [6.1165536, 50.0565098], [6.1165346, 50.0564955], [6.1164792, 50.0564792], [6.1164175, 50.0564526], [6.1163511, 50.0564343], [6.1163053, 50.056422], [6.1162578, 50.0564016], [6.1162151, 50.0563894], [6.1161825, 50.0563864], [6.1161496, 50.0563743], [6.1161201, 50.0563569], [6.1160322, 50.0562931], [6.115985, 50.0562612], [6.1159471, 50.0562286], [6.1159202, 50.0562103], [6.1158775, 50.0562011], [6.1158142, 50.0562102], [6.1157573, 50.0562102], [6.1156877, 50.056202], [6.1156434, 50.0561857], [6.1156102, 50.0561673], [6.1155833, 50.0561367], [6.1155596, 50.0561265], [6.1155232, 50.0561245], [6.11549, 50.0561173], [6.1154837, 50.0561051], [6.1154663, 50.0560898], [6.1154252, 50.0560776], [6.1153888, 50.0560531], [6.1153335, 50.0560408], [6.1153002, 50.0560434], [6.1152559, 50.0560556], [6.1151942, 50.0560566], [6.1151705, 50.0560637], [6.1151436, 50.0560963], [6.1151166, 50.0561085], [6.1150676, 50.0561126], [6.1150106, 50.0561146], [6.1149743, 50.0561105], [6.1149569, 50.0560993], [6.1149347, 50.0560768], [6.1149079, 50.0560585], [6.1148573, 50.0560422], [6.114824, 50.0560411], [6.1147797, 50.0560574], [6.114737, 50.0560655], [6.114688, 50.0560553], [6.1146484, 50.0560451], [6.1146042, 50.0560247], [6.1145646, 50.0560094], [6.1145172, 50.0559961], [6.1144602, 50.055992], [6.1144064, 50.0559951], [6.1143653, 50.0559869], [6.1143353, 50.0559716], [6.1142894, 50.0559476], [6.1142641, 50.0559334], [6.1141724, 50.0559221], [6.1140727, 50.0559047], [6.1140458, 50.0558996], [6.1140379, 50.0558864], [6.1140364, 50.0558589], [6.114019, 50.0558415], [6.1139969, 50.0558395], [6.113951, 50.0558385], [6.1139114, 50.0558333], [6.1138766, 50.0558252], [6.1138387, 50.055815], [6.1138086, 50.0558007], [6.1137928, 50.0557884], [6.1137691, 50.055765], [6.1137422, 50.0557538], [6.1137217, 50.0557283], [6.1136948, 50.0557008], [6.1136711, 50.0556855], [6.1136395, 50.0556712], [6.1136079, 50.055663], [6.1135731, 50.055662], [6.1135462, 50.0556497], [6.1134909, 50.0556192], [6.1133991, 50.0555733], [6.1133644, 50.0555666], [6.1133217, 50.0555503], [6.1131983, 50.0555339], [6.113086, 50.0555125], [6.1128946, 50.0554686], [6.1127301, 50.0554257], [6.1124644, 50.0553558], [6.1123442, 50.0553353], [6.1122683, 50.0553231], [6.1122129, 50.0553047], [6.112175, 50.0552792], [6.1121371, 50.0552598], [6.112107, 50.0552568], [6.112069, 50.0552639], [6.1120136, 50.055275], [6.1119456, 50.0552822], [6.1119013, 50.0552791], [6.1118207, 50.0552739], [6.1117653, 50.0552749], [6.111702, 50.0552831], [6.1116292, 50.0552861], [6.1115754, 50.0552774], [6.1115153, 50.0552662], [6.1114346, 50.0552651], [6.1113698, 50.0552651], [6.1113207, 50.0552773], [6.1112764, 50.0552803], [6.1112448, 50.055267], [6.111191, 50.0552528], [6.1111515, 50.0552425], [6.1110898, 50.0552252], [6.1110392, 50.055218], [6.1109838, 50.0552119], [6.1109443, 50.0551925], [6.1109, 50.0551731], [6.1108557, 50.055168], [6.1108241, 50.0551639], [6.1107941, 50.0551466], [6.1107625, 50.0551241], [6.1107229, 50.0551068], [6.110685, 50.0550915], [6.1106534, 50.0550731], [6.1106328, 50.0550507], [6.1106075, 50.0550298], [6.1105712, 50.0549992], [6.1105491, 50.0549635], [6.1104953, 50.0549289], [6.1104384, 50.0548891], [6.1104037, 50.0548524], [6.1103483, 50.0548188], [6.1102993, 50.0547912], [6.1102519, 50.0547586], [6.110214, 50.0547372], [6.110165, 50.0547178], [6.1101207, 50.0546913], [6.1100907, 50.0546607], [6.1100764, 50.0546403], [6.1100543, 50.0546123], [6.1100299, 50.0545981], [6.1100085, 50.0545857], [6.1099737, 50.0545653], [6.1098994, 50.0545225], [6.1098441, 50.0544817], [6.109803, 50.0544501], [6.1097113, 50.0544022], [6.1096718, 50.0543807], [6.1096338, 50.0543665], [6.1095832, 50.0543501], [6.1095469, 50.0543328], [6.1094678, 50.0542971], [6.1093935, 50.0542532], [6.1093066, 50.0541869], [6.1092101, 50.0541217], [6.1091896, 50.05411], [6.1091153, 50.054063], [6.108954, 50.0539876], [6.1088133, 50.0539213], [6.1087264, 50.0538723], [6.1086821, 50.0538458], [6.1086489, 50.0538284], [6.1085809, 50.053806], [6.1084591, 50.0537723], [6.108388, 50.0537447], [6.1082757, 50.0536958], [6.1082125, 50.0536703], [6.1081256, 50.0536457], [6.1080338, 50.0536263], [6.1078749, 50.0535911], [6.1077832, 50.0535513], [6.1077121, 50.0534962], [6.1075146, 50.0533219], [6.107419, 50.0532296], [6.1062572, 50.0530858], [6.1062129, 50.0530746], [6.1061133, 50.0530409], [6.1058508, 50.0529409], [6.1056232, 50.052842], [6.1055473, 50.0528073], [6.1054967, 50.0527869], [6.1053939, 50.0527511], [6.105333, 50.0527322], [6.1052824, 50.0526976], [6.1052271, 50.052667], [6.1051591, 50.0526384], [6.1050073, 50.0525843], [6.1048049, 50.0525108], [6.104631, 50.0524404], [6.1045875, 50.0524195], [6.1045354, 50.0523828], [6.1043869, 50.0522564], [6.1042968, 50.0521779], [6.1042162, 50.0521218], [6.1041024, 50.0520463], [6.1039119, 50.0519315], [6.103846, 50.0518955], [6.10364, 50.0517826], [6.1035231, 50.0517255], [6.1033649, 50.0516663], [6.1027934, 50.0514627], [6.1017593, 50.051076], [6.101504, 50.0509805], [6.101485, 50.0509652], [6.1015879, 50.0509326], [6.1017034, 50.0509052], [6.1016912, 50.0508861], [6.1015032, 50.0505818], [6.1014362, 50.0504688], [6.1014201, 50.0504417], [6.1013407, 50.050308], [6.1011776, 50.0500126], [6.1009744, 50.0496582], [6.1009593, 50.0496311], [6.1009219, 50.049531], [6.1009102, 50.0494998], [6.1008297, 50.0492841], [6.1007909, 50.04918], [6.1008554, 50.0490725], [6.1010352, 50.048773], [6.1011653, 50.0485186], [6.1012242, 50.048379], [6.1012786, 50.0481682], [6.1013075, 50.0480427], [6.1012499, 50.0480266], [6.101177, 50.0480031], [6.101131, 50.047987], [6.1010465, 50.0479795], [6.1009621, 50.047972], [6.100917, 50.0479565], [6.1008613, 50.0479281], [6.1008172, 50.047912], [6.1007289, 50.0479119], [6.100606, 50.0479217], [6.1005427, 50.047913], [6.1004851, 50.0479031], [6.1004218, 50.0478833], [6.1003662, 50.0478734], [6.1003124, 50.0478783], [6.1002394, 50.0478857], [6.1001799, 50.0478757], [6.1000629, 50.0478732], [6.0997106, 50.0478674], [6.0996665, 50.0478662], [6.0995571, 50.0478488], [6.0994246, 50.047845], [6.0993555, 50.0478524], [6.0992922, 50.047861], [6.0992595, 50.0478733], [6.0992134, 50.047903], [6.0991865, 50.0479067], [6.0991251, 50.0478955], [6.0990772, 50.0478683], [6.099035, 50.0478287], [6.0990005, 50.0477978], [6.0989008, 50.0477223], [6.0988259, 50.0477037], [6.0987626, 50.0476925], [6.0986657, 50.0476844], [6.0985812, 50.0476732], [6.0985083, 50.0476522], [6.0984738, 50.0476336], [6.0984374, 50.0476002], [6.0984067, 50.047589], [6.0983146, 50.0475853], [6.0982743, 50.0475754], [6.0982378, 50.0475506], [6.0982244, 50.0475209], [6.0982072, 50.0474986], [6.0981765, 50.0474838], [6.0980671, 50.047459], [6.0978484, 50.0474143], [6.0977275, 50.0473821], [6.0976622, 50.0473635], [6.0975855, 50.047335], [6.0975251, 50.0472948], [6.0974906, 50.0472602], [6.0974753, 50.0472317], [6.0974638, 50.0472243], [6.0974369, 50.0472169], [6.0973986, 50.0471871], [6.0973564, 50.0471426], [6.0973372, 50.0471117], [6.0973488, 50.0470882], [6.0973354, 50.0470709], [6.0972222, 50.0470325], [6.0971627, 50.0470225], [6.0970802, 50.0470225], [6.0970015, 50.0470026], [6.0968921, 50.046968], [6.0968422, 50.0469382], [6.0967157, 50.0468541], [6.0966553, 50.0468274], [6.0965708, 50.0468113], [6.0963847, 50.0467791], [6.0963386, 50.046763], [6.0962907, 50.0467382], [6.096237, 50.0467023], [6.0961698, 50.046675], [6.0959607, 50.0466156], [6.0958744, 50.046597], [6.0957995, 50.046587], [6.0957285, 50.046587], [6.0956901, 50.0465733], [6.0956613, 50.0465684], [6.0956191, 50.0465857], [6.0955615, 50.0465943], [6.0954962, 50.046593], [6.0954223, 50.0466022], [6.0953647, 50.0466133], [6.095309, 50.0466207], [6.0952342, 50.0466194], [6.0950883, 50.0466305], [6.0950057, 50.0466378], [6.0949539, 50.0466353], [6.094927, 50.0466168], [6.0949079, 50.0466118], [6.0948752, 50.0466217], [6.094687, 50.0466562], [6.0945891, 50.0466697], [6.0945622, 50.0466846], [6.0945392, 50.0467179], [6.0944701, 50.0467117], [6.0944393, 50.0467352], [6.094398, 50.0467543], [6.0943443, 50.0467691], [6.0942617, 50.0467666], [6.0942195, 50.046779], [6.0941714, 50.0468061], [6.0941234, 50.0468172], [6.0940562, 50.0468184], [6.094014, 50.046832], [6.0939045, 50.0468752], [6.0938584, 50.0468888], [6.0938296, 50.0468851], [6.0938085, 50.0468653], [6.0937567, 50.0468887], [6.0937413, 50.0469097], [6.0937163, 50.0469431], [6.0936779, 50.046974], [6.0935953, 50.0470148], [6.0935069, 50.0470382], [6.0934474, 50.0470493], [6.0933821, 50.0470443], [6.0932881, 50.0470269], [6.0931797, 50.0470052], [6.0931144, 50.0470027], [6.0930549, 50.0470175], [6.0929531, 50.0470558], [6.0928398, 50.0470978], [6.0928033, 50.0471027], [6.0927361, 50.0470964], [6.0927055, 50.0470816], [6.0926613, 50.0470717], [6.0925999, 50.0470741], [6.0925231, 50.0470716], [6.0924483, 50.0470579], [6.0923562, 50.0470455], [6.0922237, 50.047033], [6.0920913, 50.0470045], [6.0919762, 50.0469587], [6.0919225, 50.0469166], [6.0918708, 50.0468819], [6.0918378, 50.0468665], [6.0917067, 50.046854], [6.0916319, 50.0468466], [6.0915743, 50.0468341], [6.0915052, 50.0468081], [6.0914074, 50.0467586], [6.0913249, 50.0467202], [6.0912386, 50.0466868], [6.0911388, 50.0466632], [6.0910486, 50.0466594], [6.0909872, 50.0466619], [6.0908643, 50.0466791], [6.0907539, 50.0466908], [6.0907021, 50.0466883], [6.090658, 50.0466746], [6.0905845, 50.0466427], [6.0905755, 50.0466387], [6.0905448, 50.0466202], [6.0904854, 50.0465842], [6.0904432, 50.0465545], [6.090378, 50.0465248], [6.0900634, 50.0463651], [6.0900347, 50.0463515], [6.0898927, 50.0462858], [6.089816, 50.0462487], [6.0897489, 50.0462115], [6.0896799, 50.0461595], [6.089607, 50.0461212], [6.0894353, 50.04604], [6.089372, 50.0460177], [6.0889729, 50.0459445], [6.0889421, 50.0459531], [6.0888769, 50.0459679], [6.0888269, 50.0459852], [6.0887731, 50.0459951], [6.0886426, 50.0460074], [6.0884862, 50.0460202], [6.0883998, 50.0460301], [6.0882999, 50.0460486], [6.0882212, 50.0460559], [6.0881233, 50.0460534], [6.0880293, 50.0460434], [6.0879064, 50.0460273], [6.0878489, 50.0460322], [6.0877336, 50.0460568], [6.0875628, 50.0460715], [6.0873814, 50.0460758], [6.0872816, 50.0460646], [6.0872106, 50.0460484], [6.0871338, 50.0460471], [6.0870571, 50.0460409], [6.0864746, 50.0461233], [6.0864484, 50.046127], [6.0864126, 50.0461313], [6.0863236, 50.0461418], [6.0857031, 50.0462309], [6.0849981, 50.0463267], [6.0849659, 50.0463313], [6.0841976, 50.046441], [6.0841549, 50.0464471], [6.0840964, 50.0464554], [6.0840657, 50.0464541], [6.0840575, 50.0464356], [6.0840331, 50.046334], [6.0840148, 50.0462336], [6.0840059, 50.0460693], [6.0840102, 50.0459492], [6.0840372, 50.0457248], [6.0840209, 50.0457036], [6.084005, 50.045701], [6.0838795, 50.0456798], [6.083727, 50.0456407], [6.0836735, 50.0456257], [6.0834628, 50.0455666], [6.0832703, 50.0455005], [6.0831638, 50.0454555], [6.0830717, 50.0454013], [6.0829018, 50.0453009], [6.0828435, 50.0452659], [6.0827207, 50.0451773], [6.0826676, 50.0451179], [6.082547, 50.0449647], [6.0823998, 50.0447666], [6.0823047, 50.0446893], [6.0821839, 50.0445968], [6.0819404, 50.0444606], [6.0816016, 50.0442802], [6.0808182, 50.0438665], [6.0807408, 50.0438259], [6.0803556, 50.0436281], [6.0802205, 50.0436433], [6.0800266, 50.0436652], [6.0798777, 50.043682], [6.0797745, 50.0436313], [6.0796535, 50.043572], [6.0794391, 50.0434669], [6.0792769, 50.0433873], [6.0791081, 50.0433046], [6.0789736, 50.0432386], [6.0793331, 50.0430075], [6.078958, 50.0429515], [6.0788304, 50.0428833], [6.0786779, 50.0428034], [6.0785609, 50.0427554], [6.0782938, 50.0426615], [6.0781426, 50.0426007], [6.0779412, 50.0425133], [6.0775251, 50.0424641], [6.0775053, 50.0424605], [6.0774724, 50.0424545], [6.0771958, 50.0432186], [6.0771311, 50.0433676], [6.0768861, 50.0438862], [6.0767138, 50.0442289], [6.0765771, 50.0445083], [6.0765509, 50.0445619], [6.076484, 50.0447115], [6.0764523, 50.0447823], [6.0763988, 50.0449019], [6.0761774, 50.0448308], [6.0759095, 50.0447448], [6.0756245, 50.0446533], [6.0753225, 50.0445563], [6.0749936, 50.0444506], [6.0745331, 50.0442952], [6.0741627, 50.0441703], [6.0738391, 50.0440628], [6.073596, 50.043982], [6.0733208, 50.0439641], [6.0730601, 50.0439122], [6.0729514, 50.0438883], [6.0728406, 50.0438643], [6.0726677, 50.0438269], [6.0724811, 50.0437953], [6.0724006, 50.0437779], [6.0723757, 50.0437726], [6.0718832, 50.0436665], [6.0711142, 50.0434824], [6.0708337, 50.0433845], [6.0705184, 50.0432707], [6.0703649, 50.0432165], [6.0702195, 50.0431702], [6.0701161, 50.0431397], [6.0696575, 50.043006], [6.0692234, 50.0428935], [6.0689899, 50.0428273], [6.0689612, 50.0428365], [6.0688978, 50.0428061], [6.0687852, 50.0427413], [6.0682337, 50.0424069], [6.0674725, 50.0419654], [6.0674828, 50.0419456], [6.067665, 50.0415498], [6.0677987, 50.0412489], [6.0678184, 50.041202], [6.0678523, 50.0411209], [6.0679161, 50.0409652], [6.0682396, 50.0410394], [6.0685182, 50.0410938], [6.06898, 50.04118], [6.0691602, 50.0412184], [6.069537, 50.0412953], [6.0698186, 50.0408348], [6.069984, 50.0405974], [6.070062, 50.0404998], [6.0700846, 50.0404721], [6.070155, 50.0403906], [6.0701904, 50.0403599], [6.0703976, 50.0401964], [6.0704797, 50.0401186], [6.0704852, 50.0401118], [6.0706393, 50.0399226], [6.0707778, 50.0397526], [6.0709215, 50.0395762], [6.0709449, 50.0395474], [6.0708957, 50.0395316], [6.07082, 50.0395143], [6.0706449, 50.0394825], [6.070563, 50.0394666], [6.0703909, 50.0394427], [6.0702066, 50.0394161], [6.0699609, 50.0393539], [6.0697499, 50.039363], [6.0697233, 50.0393537], [6.0696455, 50.039289], [6.0696046, 50.0392467], [6.0695094, 50.0392268], [6.0694111, 50.0392082], [6.0693026, 50.0391752], [6.0692023, 50.0391513], [6.0690917, 50.0391354], [6.0690118, 50.0391221], [6.0689586, 50.0391049], [6.0687682, 50.0390242], [6.0687171, 50.0390031], [6.0685697, 50.0389488], [6.0685124, 50.0389237], [6.0684612, 50.0388893], [6.0683794, 50.038818], [6.0683528, 50.03881], [6.0682647, 50.038802], [6.0681756, 50.038794], [6.068106, 50.0387755], [6.0680262, 50.0387438], [6.0677601, 50.0386564], [6.0674181, 50.0385611], [6.0670663, 50.0383073], [6.0669911, 50.0382603], [6.0669513, 50.0382354], [6.0669451, 50.0382088], [6.0669345, 50.0381634], [6.06691, 50.0380987], [6.0668365, 50.0380022], [6.0667006, 50.0378424], [6.0666781, 50.0377975], [6.0666783, 50.0377077], [6.0666641, 50.037643], [6.0666335, 50.0376021], [6.0665946, 50.0375783], [6.0665292, 50.037532], [6.0664084, 50.0374527], [6.0662806, 50.0373642], [6.0661947, 50.0373021], [6.0661006, 50.0372492], [6.0660126, 50.037195], [6.0659083, 50.0371091], [6.0658367, 50.0370615], [6.065718, 50.0369981], [6.0656301, 50.0369399], [6.0655206, 50.0368817], [6.0653487, 50.0367931], [6.0652137, 50.0367178], [6.0650132, 50.0365737], [6.0649784, 50.0365513], [6.0649129, 50.0365274], [6.0648802, 50.0365142], [6.0648085, 50.0364825], [6.0646509, 50.0364269], [6.0644831, 50.0363634], [6.0643327, 50.0362973], [6.0642181, 50.0362232], [6.0641403, 50.0361888], [6.0640933, 50.0361611], [6.064034, 50.0361175], [6.0639091, 50.036058], [6.0637761, 50.036005], [6.063682, 50.0359614], [6.0635858, 50.0359032], [6.0634477, 50.0358213], [6.0631899, 50.0356706], [6.0631163, 50.0356256], [6.0630386, 50.0355701], [6.0629793, 50.0355173], [6.062924, 50.0354789], [6.0628627, 50.0354432], [6.0628074, 50.0354168], [6.0627583, 50.0353917], [6.062656, 50.0353375], [6.0625987, 50.0353097], [6.062566, 50.0352819], [6.0625547, 50.0352648], [6.0624177, 50.0351657], [6.0623625, 50.0351234], [6.062338, 50.0351101], [6.0623073, 50.035089], [6.0622909, 50.0350705], [6.0620864, 50.0349278], [6.0617184, 50.0346572], [6.0616044, 50.0345789], [6.0615742, 50.034549], [6.0615511, 50.0345122], [6.0615209, 50.0344616], [6.0614728, 50.0344052], [6.0613927, 50.0343368], [6.06122, 50.0341918], [6.0609547, 50.033995], [6.0608764, 50.0339352], [6.0608087, 50.0338794], [6.0606716, 50.0337574], [6.0605595, 50.0336343], [6.0604297, 50.0334704], [6.0603052, 50.0332864], [6.0602005, 50.0330817], [6.0601366, 50.0329409], [6.0600995, 50.0327696], [6.0600926, 50.0326431], [6.0601, 50.0325661], [6.0601143, 50.0325247], [6.0601466, 50.0324656], [6.060234, 50.0324381], [6.060284, 50.032422], [6.060334, 50.0323796], [6.0603859, 50.0323256], [6.0605558, 50.0321194], [6.060663, 50.0320356], [6.0607684, 50.0319449], [6.0608792, 50.0318255], [6.0609489, 50.0317692], [6.0610239, 50.0317153], [6.0611525, 50.0316545], [6.0612239, 50.0316086], [6.0612847, 50.0315638], [6.0614064, 50.031432], [6.0614799, 50.0313626], [6.0615102, 50.0313278], [6.0616118, 50.0312223], [6.0616528, 50.0311834], [6.0616874, 50.0311542], [6.0615733, 50.0310499], [6.0616057, 50.0310138], [6.0615178, 50.0309778], [6.0613359, 50.0309616], [6.0612629, 50.0308994], [6.0612435, 50.0308374], [6.0612453, 50.0308178], [6.0611344, 50.0307348], [6.0610152, 50.0307072], [6.0609186, 50.030681], [6.0608354, 50.0306505], [6.060759, 50.0306171], [6.0606579, 50.0305662], [6.0605613, 50.0305183], [6.0602849, 50.0303753], [6.0602175, 50.0303419], [6.0601816, 50.0303157], [6.0601345, 50.030278], [6.0600469, 50.0302142], [6.0599683, 50.0301546], [6.0599031, 50.0301183], [6.0598155, 50.0300806], [6.0597458, 50.0300515], [6.0596807, 50.0300326], [6.0596042, 50.0300195], [6.0594896, 50.0299817], [6.059384, 50.0299367], [6.0591413, 50.0298147], [6.0584448, 50.0294625], [6.058355, 50.0294131], [6.0582314, 50.0293376], [6.0580384, 50.0292034], [6.057958, 50.0291483], [6.0576693, 50.0289556], [6.0574753, 50.028805], [6.0574966, 50.0287912], [6.0574541, 50.02875], [6.0574233, 50.0287255], [6.0572577, 50.0285894], [6.0570781, 50.0283891], [6.0568913, 50.0281759], [6.0567637, 50.02802], [6.0564374, 50.0277012], [6.0562555, 50.0275332], [6.0562222, 50.0275024], [6.0561252, 50.0274076], [6.0557305, 50.0269635], [6.0557624, 50.0271666], [6.0557978, 50.027392], [6.055811, 50.0274758], [6.0559179, 50.0278924], [6.0559956, 50.0281445], [6.0561252, 50.0284341], [6.0562622, 50.028674], [6.0565739, 50.0290069], [6.0569124, 50.029333], [6.0570463, 50.0294422], [6.057021, 50.0295164], [6.0570193, 50.0296068], [6.0570958, 50.0297496], [6.0573413, 50.0299606], [6.057475, 50.030086], [6.0575839, 50.0303029], [6.0576471, 50.0305618], [6.0576007, 50.0308165], [6.0574825, 50.0310816], [6.0573734, 50.0312436], [6.0573234, 50.0313566], [6.0573061, 50.0314466], [6.0572849, 50.0319198], [6.0572844, 50.0321108], [6.0573269, 50.0325435], [6.0573685, 50.0327101], [6.0574224, 50.0328802], [6.0574765, 50.0329683], [6.0576036, 50.03307], [6.0576919, 50.0331431], [6.0577492, 50.0332111], [6.0578296, 50.0333283], [6.0579903, 50.03365], [6.0580304, 50.0337631], [6.0580504, 50.0338606], [6.058084, 50.0340997], [6.0581224, 50.0342933], [6.0581609, 50.0344204], [6.0582257, 50.034583], [6.0582675, 50.0346571], [6.0583478, 50.0347618], [6.058755, 50.0352283], [6.0589048, 50.0354005], [6.0590198, 50.0355327], [6.0590506, 50.0355674], [6.0591127, 50.0356373], [6.0592072, 50.0357344], [6.0592598, 50.0357885], [6.0593632, 50.0358831], [6.0596533, 50.0361485], [6.0598859, 50.0362607], [6.059924, 50.0362742], [6.059934, 50.0362778], [6.0601139, 50.036358], [6.0601528, 50.0363505], [6.0603342, 50.0364417], [6.0605311, 50.0365389], [6.060635, 50.036607], [6.0608798, 50.0368218], [6.0613818, 50.0372749], [6.0617356, 50.0375544], [6.0623017, 50.038028], [6.0622826, 50.0380393], [6.0621713, 50.0381139], [6.0619134, 50.0382786], [6.0617417, 50.0383882], [6.0613262, 50.0386535], [6.0612708, 50.0386742], [6.0611954, 50.0387025], [6.0611514, 50.0387175], [6.0609815, 50.038772], [6.0603332, 50.0389797], [6.0600852, 50.038799], [6.0597973, 50.0385932], [6.0597209, 50.0385386], [6.0593451, 50.0382594], [6.0593227, 50.0382431], [6.0592276, 50.0381739], [6.0590846, 50.0380687], [6.0589474, 50.0379678], [6.0588088, 50.0378658], [6.0586632, 50.0377587], [6.0585133, 50.0376485], [6.058797, 50.0375054], [6.05864, 50.037367], [6.058546, 50.0372841], [6.0582754, 50.0370455], [6.0582184, 50.0370003], [6.0579835, 50.0368139], [6.0578384, 50.0366917], [6.0577007, 50.0365757], [6.0576954, 50.0365707], [6.0576196, 50.0364999], [6.0574258, 50.0363191], [6.0572812, 50.0361689], [6.0572347, 50.0361152], [6.0570671, 50.0359215], [6.0567498, 50.0355224], [6.0565331, 50.0352158], [6.0564896, 50.0350244], [6.0565274, 50.0348744], [6.0566554, 50.0345994], [6.0566574, 50.0345949], [6.0567809, 50.0343462], [6.0567565, 50.0341611], [6.0567089, 50.0341452], [6.0566158, 50.0341301], [6.056427, 50.0341074], [6.0560584, 50.0340879], [6.0558126, 50.0340822], [6.0556056, 50.0340862], [6.0554569, 50.0340844], [6.0552642, 50.0340759], [6.0549317, 50.0340868], [6.0545656, 50.0341115], [6.0540791, 50.0341539], [6.05381, 50.0341745], [6.0536224, 50.0341718], [6.0535111, 50.0341692], [6.0534775, 50.0341525], [6.0533572, 50.0341495], [6.0533702, 50.0341328], [6.0534131, 50.0340603], [6.0534339, 50.0340153], [6.0534444, 50.0339661], [6.0534419, 50.0338978], [6.0534381, 50.033874], [6.0534266, 50.0338215], [6.0533957, 50.033759], [6.0533596, 50.0336889], [6.0533196, 50.0336338], [6.0532732, 50.0335779], [6.0531749, 50.0334842], [6.0529845, 50.0333242], [6.0529673, 50.0333201], [6.0529436, 50.0332978], [6.0529135, 50.033279], [6.0528898, 50.0332505], [6.0528457, 50.033215], [6.0526842, 50.0331218], [6.0526283, 50.0330808], [6.052595, 50.0330443], [6.0525649, 50.0329838], [6.0525414, 50.0329157], [6.0525274, 50.0328962], [6.052504, 50.0328712], [6.0524493, 50.0328106], [6.0523965, 50.0327588], [6.052379, 50.0327045], [6.0523478, 50.0326457], [6.0523469, 50.0326416], [6.0523291, 50.0325635], [6.0523265, 50.0325523], [6.0523232, 50.0325392], [6.0523032, 50.0324613], [6.0522935, 50.0324209], [6.0523053, 50.0323944], [6.0522975, 50.0323729], [6.0523074, 50.0323553], [6.0523251, 50.0323288], [6.052329, 50.0323073], [6.0523173, 50.0322871], [6.0523253, 50.0322271], [6.0523469, 50.0322108], [6.0523567, 50.0321969], [6.0523607, 50.0321779], [6.0524157, 50.0320984], [6.0524465, 50.0320703], [6.0524668, 50.0320518], [6.0525473, 50.0319887], [6.0526493, 50.0319017], [6.0526967, 50.0317723], [6.0528269, 50.0313823], [6.0528801, 50.0312391], [6.0529707, 50.0310725], [6.0530041, 50.0310069], [6.0530277, 50.0309564], [6.0530831, 50.0307538], [6.0531445, 50.030442], [6.0531942, 50.0301649], [6.0532096, 50.0301039], [6.0532456, 50.0299617], [6.0532634, 50.029886], [6.0532695, 50.0298039], [6.0532535, 50.0297048], [6.053213, 50.029582], [6.0530402, 50.0296117], [6.053029, 50.029608], [6.0530481, 50.0295625], [6.0530566, 50.0295424], [6.0530527, 50.0295171], [6.0528278, 50.029361], [6.0527568, 50.0293241], [6.0526976, 50.0293019], [6.0525856, 50.0292691], [6.0525576, 50.0292552], [6.0525468, 50.0292371], [6.0525512, 50.0292114], [6.0525513, 50.0291836], [6.0525341, 50.0291662], [6.0524781, 50.0291384], [6.0523919, 50.0291091], [6.052211, 50.0290499], [6.0520613, 50.02899], [6.0519816, 50.028949], [6.0519085, 50.0289048], [6.0517513, 50.0288018], [6.0515887, 50.0286878], [6.0514294, 50.0285857], [6.0513648, 50.0285333], [6.0512701, 50.0284322], [6.0507124, 50.0280703], [6.0506492, 50.0280436], [6.0505062, 50.0280115], [6.050443, 50.0279795], [6.0503317, 50.027897], [6.0501352, 50.0278037], [6.0499402, 50.0276833], [6.0497272, 50.0275696], [6.0495184, 50.0274404], [6.0493385, 50.0273045], [6.0491449, 50.0271385], [6.049112, 50.0270902], [6.0490956, 50.0270511], [6.0490764, 50.0270307], [6.0490557, 50.027028], [6.0490034, 50.0270475], [6.0489759, 50.0270483], [6.0489223, 50.0270332], [6.0488756, 50.0270004], [6.0488372, 50.0269533], [6.0488153, 50.0269037], [6.0488114, 50.026823], [6.0488115, 50.0267693], [6.0487869, 50.0266895], [6.0487527, 50.0266327], [6.0485866, 50.0264663], [6.0483987, 50.0262462], [6.0483343, 50.0261415], [6.0483165, 50.026098], [6.0483032, 50.0259211], [6.0482999, 50.0258329], [6.0483013, 50.0258136], [6.0483013, 50.0257898], [6.0482977, 50.0257265], [6.0482959, 50.0256967], [6.0483029, 50.0256885], [6.0483127, 50.0255775], [6.0483176, 50.0255208], [6.0483076, 50.0254448], [6.0482989, 50.0254112], [6.0482705, 50.0253361], [6.048228, 50.0252334], [6.0481689, 50.0250954], [6.048105, 50.0249774], [6.0480315, 50.02489], [6.0479534, 50.0248454], [6.0479639, 50.0247231], [6.0479553, 50.0246802], [6.0479279, 50.02453], [6.0479057, 50.0243377], [6.0478816, 50.0242436], [6.0478662, 50.0241696], [6.0478524, 50.0241012], [6.0478388, 50.0239919], [6.0477835, 50.0238316], [6.0477022, 50.0236802], [6.0476242, 50.0235529], [6.0475031, 50.0233342], [6.0474512, 50.0231985], [6.0474288, 50.0231256], [6.0474204, 50.0229973], [6.0474173, 50.0228538], [6.047421, 50.0228136], [6.0474244, 50.0227753], [6.0474489, 50.022716], [6.0474682, 50.0226846], [6.0475172, 50.0226357], [6.0475379, 50.0226152], [6.0475606, 50.022601], [6.0475784, 50.02259], [6.0475936, 50.0225805], [6.0476333, 50.0225562], [6.0477416, 50.0224898], [6.0478078, 50.0224468], [6.0478566, 50.0223986], [6.0478933, 50.0223549], [6.0479613, 50.022248], [6.0480033, 50.0221589], [6.0480111, 50.0221351], [6.0480207, 50.0221059], [6.0480313, 50.0220735], [6.0480446, 50.0220327], [6.0480734, 50.0219331], [6.0473852, 50.021677], [6.0473681, 50.0216723], [6.0473936, 50.0218018], [6.0473639, 50.0218412], [6.0473485, 50.0218618], [6.0464798, 50.0215504], [6.04637, 50.0215512], [6.0463579, 50.0215402], [6.0465107, 50.0212973], [6.0465202, 50.021282], [6.0464735, 50.0212515], [6.0464247, 50.021186], [6.0463591, 50.0211231], [6.0462551, 50.0210586], [6.0461739, 50.0210211], [6.0461025, 50.0209964], [6.0460377, 50.0209765], [6.0459893, 50.0209696], [6.0459239, 50.0209738], [6.0459057, 50.0209672], [6.0457278, 50.0209114], [6.0456828, 50.0209005], [6.0455867, 50.0208592], [6.0454806, 50.0208119], [6.0453379, 50.0207534], [6.0452035, 50.0207032], [6.0451221, 50.0206743], [6.0450588, 50.020659], [6.045006, 50.0206553], [6.0449769, 50.0206459], [6.0447594, 50.020575], [6.0444589, 50.0204948], [6.0442734, 50.0204575], [6.0438673, 50.0203975], [6.0434221, 50.0203321], [6.0430925, 50.0202782], [6.0426447, 50.0201896], [6.0422223, 50.0201176], [6.0421975, 50.0201175], [6.0421509, 50.0201008], [6.0420883, 50.0200869], [6.0420066, 50.0200807], [6.0419519, 50.0200838], [6.0418142, 50.0200987], [6.0417577, 50.0201018], [6.0417027, 50.0200992], [6.0416403, 50.0200886], [6.0415902, 50.0200736], [6.0415076, 50.0200438], [6.0413814, 50.0199832], [6.0413384, 50.0199705], [6.0413029, 50.0199669], [6.041273, 50.0199735], [6.0412437, 50.0199959], [6.0412011, 50.0200419], [6.0411912, 50.0200348], [6.0411418, 50.0199704], [6.0410017, 50.0197905], [6.0409359, 50.0196817], [6.0408893, 50.0195696], [6.0408704, 50.0194771], [6.0408653, 50.0194199], [6.0408604, 50.0192955], [6.040864, 50.019244], [6.0408729, 50.0191891], [6.0409097, 50.0190882], [6.0409552, 50.0189689], [6.0410374, 50.0187863], [6.0410828, 50.0187056], [6.0411282, 50.0186211], [6.0413377, 50.0182839], [6.0414355, 50.0181422], [6.0414687, 50.0180739], [6.0414932, 50.0180022], [6.0415091, 50.0179394], [6.0415092, 50.0178688], [6.0414958, 50.0176889], [6.0414855, 50.0176362], [6.0414545, 50.0175409], [6.0413698, 50.0173284], [6.041178, 50.0168709], [6.0410826, 50.016863], [6.0395648, 50.0167374], [6.0390829, 50.0168495], [6.0388619, 50.0168919], [6.0386236, 50.0169219], [6.0382237, 50.0169483], [6.0377924, 50.016972], [6.037509, 50.016984], [6.037349, 50.0169838], [6.0371491, 50.0169746], [6.0369109, 50.016957], [6.0367753, 50.01694], [6.0366607, 50.0169152], [6.0365321, 50.0168848], [6.0364122, 50.01686], [6.0362593, 50.0168195], [6.0360612, 50.0167542], [6.0361448, 50.0166038], [6.0362157, 50.0164761], [6.0362515, 50.0164116], [6.0362969, 50.0163298], [6.0363408, 50.0162507], [6.0363985, 50.0161494], [6.0364257, 50.0161027], [6.0365085, 50.0159612], [6.0365365, 50.015913], [6.0366622, 50.0156968], [6.0367157, 50.0156068], [6.0367583, 50.015535], [6.0369521, 50.0152398], [6.0371598, 50.0149531], [6.0372523, 50.0148204], [6.0373191, 50.0147333], [6.0373604, 50.0146793], [6.037444, 50.0145553], [6.0374914, 50.014485], [6.0375212, 50.0144378], [6.0375402, 50.0144077], [6.0375626, 50.0143552], [6.037577, 50.0143214], [6.0376393, 50.0141647], [6.0376481, 50.0141426], [6.0376645, 50.0141013], [6.0376908, 50.0140318], [6.0377298, 50.0139263], [6.0377836, 50.0137809], [6.0378274, 50.0136425], [6.0378468, 50.0135708], [6.0378609, 50.0134878], [6.0378771, 50.0132951], [6.037897, 50.0130009], [6.0379276, 50.0125459], [6.0379308, 50.0124969], [6.0379303, 50.0124778], [6.0380027, 50.0124854], [6.0386008, 50.0125837], [6.0393205, 50.0127119], [6.0396043, 50.0127599], [6.0399693, 50.0128056], [6.0402952, 50.0128424], [6.0405704, 50.0128679], [6.0407877, 50.0128859], [6.0410887, 50.012905], [6.0415796, 50.0129243], [6.0415894, 50.0128965], [6.0416202, 50.012807], [6.041656, 50.012702], [6.0416858, 50.0126324], [6.0417662, 50.0124892], [6.0417695, 50.0124834], [6.0418793, 50.0122922], [6.0418912, 50.0122655], [6.0419389, 50.0121481], [6.0419746, 50.0120669], [6.0420118, 50.0120092], [6.042049, 50.0119539], [6.0421069, 50.0118814], [6.0423594, 50.0116052], [6.0423995, 50.0115652], [6.0424663, 50.0115032], [6.042225, 50.0114628], [6.0420947, 50.011435], [6.0419941, 50.0114062], [6.0419098, 50.0113785], [6.041824, 50.0113325], [6.0416022, 50.0111991], [6.0413035, 50.011025], [6.0410447, 50.01088], [6.0405463, 50.0106088], [6.0401988, 50.0104232], [6.0397965, 50.0102151], [6.0391014, 50.0098653], [6.0384743, 50.0095428], [6.0383427, 50.0094672], [6.0382362, 50.009385], [6.0381063, 50.0092646], [6.0378936, 50.009038], [6.0377259, 50.0091839], [6.0376279, 50.0092659], [6.0375136, 50.0093513], [6.0374068, 50.0094256], [6.037274, 50.0095075], [6.0372615, 50.0095152], [6.0371265, 50.0095809], [6.0370137, 50.0096299], [6.0369916, 50.0096395], [6.0368508, 50.00969], [6.0366566, 50.0097537], [6.036587, 50.0097565], [6.0364314, 50.0097601], [6.036236, 50.0097513], [6.0358317, 50.0097385], [6.0360659, 50.0096814], [6.03614, 50.009651], [6.036232, 50.0096014], [6.036404, 50.0095171], [6.0365671, 50.0094304], [6.0366903, 50.0093437], [6.0368298, 50.0092221], [6.0369471, 50.0091095], [6.0370258, 50.0090265], [6.0370645, 50.0089731], [6.0370987, 50.0089006], [6.0371241, 50.008818], [6.0371676, 50.008608], [6.0371964, 50.0083841], [6.0372253, 50.0080877], [6.037265, 50.0076471], [6.0372772, 50.0075316], [6.0372907, 50.0074518], [6.0373446, 50.0072352], [6.0374117, 50.0070619], [6.0375071, 50.0068224], [6.0376181, 50.0065518], [6.0377153, 50.0065186], [6.0381485, 50.0063379], [6.0381356, 50.0063179], [6.0383188, 50.0062475], [6.0384743, 50.0061878], [6.039148, 50.0059289], [6.0400549, 50.0055822], [6.0400877, 50.0055697], [6.0401024, 50.005538], [6.0400682, 50.0054081], [6.0400239, 50.0051733], [6.0400158, 50.0050244], [6.0399446, 50.0047216], [6.0399264, 50.0045608], [6.0399204, 50.0044788], [6.0399089, 50.0044349], [6.0398611, 50.0043669], [6.0397513, 50.0042798], [6.039589, 50.0041668], [6.0394506, 50.0040607], [6.0393162, 50.0039507], [6.039147, 50.0037976], [6.0390511, 50.0037296], [6.0389506, 50.0036745], [6.0388082, 50.0036214], [6.0384639, 50.0034872], [6.0382969, 50.0034091], [6.0381066, 50.0032969], [6.0379234, 50.0031808], [6.0377489, 50.0030604], [6.0376531, 50.0029894], [6.0375658, 50.0029013], [6.037193, 50.0024064], [6.0371074, 50.0022894], [6.0370303, 50.0021584], [6.0369577, 50.0020804], [6.0368773, 50.0020114], [6.0367746, 50.0019334], [6.0365705, 50.0017953], [6.0361553, 50.001536], [6.0358066, 50.0013169], [6.0357587, 50.0012798], [6.0356784, 50.0012148], [6.0356166, 50.0011468], [6.0355625, 50.0011088], [6.0354999, 50.0010687], [6.0353003, 50.0009826], [6.0349274, 50.0008493], [6.0346465, 50.0007511], [6.0344747, 50.0007009], [6.0342394, 50.0006557], [6.0340707, 50.0006135], [6.0339253, 50.0005604], [6.0336832, 50.0004592], [6.0334264, 50.000339], [6.0332919, 50.000269], [6.033164, 50.0001814], [6.0331458, 50.0001921], [6.032963, 50.0003544], [6.0328728, 50.0004344], [6.0327184, 50.0005715], [6.0322993, 50.0003582], [6.0321106, 50.0002501], [6.0319668, 50.000158], [6.031813, 50.0000459], [6.0317111, 49.9999629], [6.0315906, 49.9998459], [6.0315296, 49.9997908], [6.0314198, 49.9997048], [6.0313626, 49.9996698], [6.0311925, 49.9995747], [6.0310696, 49.9995146], [6.0309474, 49.9994595], [6.0308955, 49.9994523], [6.0307724, 49.9994353], [6.0305882, 49.9994111], [6.0304256, 49.9993989], [6.0303032, 49.9993958], [6.0300469, 49.9994025], [6.0296906, 49.999419], [6.0294768, 49.9994368], [6.0293226, 49.9994556], [6.0291088, 49.9994943], [6.0288205, 49.9995609], [6.0285253, 49.9996304], [6.0284896, 49.9996394], [6.0282451, 49.9995762], [6.0278566, 49.9994858], [6.027181, 49.9993241], [6.0272075, 49.9992742], [6.0266106, 49.9992145], [6.0264926, 49.999588], [6.0263293, 50.0000944], [6.0262881, 50.0002414], [6.0262425, 50.0004044], [6.0262228, 50.0004749], [6.0260201, 50.0004327], [6.0256254, 50.0003333], [6.025394, 50.000271], [6.0253135, 50.000245], [6.0250799, 50.0001618], [6.0250392, 50.0001475], [6.0248741, 50.0000896], [6.0248614, 50.0000843], [6.0246993, 50.0000164], [6.024417, 49.9998962], [6.0241651, 49.9997773], [6.0241603, 49.999775], [6.0240163, 49.9997077], [6.0235919, 49.9995095], [6.0231983, 49.9993282], [6.0227481, 49.9991408], [6.0220001, 49.9988612], [6.0218971, 49.9989813], [6.0217424, 49.9991618], [6.0215672, 49.9993662], [6.0213306, 49.999245], [6.0210201, 49.9994963], [6.0206669, 49.9997776], [6.0203758, 49.9999971], [6.0202839, 50.0000602], [6.0201761, 50.0001318], [6.0196503, 50.0005128], [6.0196362, 50.0005246], [6.0196368, 50.0005333], [6.0200994, 50.0007732], [6.0202298, 50.0008403], [6.0202206, 50.0008443], [6.0197213, 50.0011674], [6.0196483, 50.0012232], [6.0194697, 50.0013859], [6.0194178, 50.0014358], [6.0188967, 50.0019066], [6.0183777, 50.0015103], [6.0181914, 50.0013812], [6.0180198, 50.0012671], [6.017836, 50.0011649], [6.017413, 50.0009267], [6.0173111, 50.0013012], [6.0172728, 50.001426], [6.0172541, 50.0014719], [6.0170692, 50.0016575], [6.0169922, 50.0017353], [6.0168369, 50.001891], [6.0168011, 50.0019269], [6.0167793, 50.0019638], [6.0167746, 50.0019888], [6.0167793, 50.0020083], [6.016783, 50.0020238], [6.0167907, 50.0020488], [6.0168184, 50.0021028], [6.0168692, 50.0021907], [6.0168846, 50.0022387], [6.0169006, 50.0023077], [6.0169113, 50.0023716], [6.0169172, 50.0024725], [6.0169138, 50.0025485], [6.016906, 50.0025774], [6.0168837, 50.0026099], [6.0168725, 50.0026263], [6.0167636, 50.0027771], [6.0167014, 50.0028539], [6.01657, 50.0030186], [6.0165453, 50.003049], [6.016455, 50.0031603], [6.0162987, 50.0033529], [6.016207, 50.0034647], [6.0150516, 50.0031624], [6.0146198, 50.0030674], [6.0143315, 50.003004], [6.0142661, 50.0029896], [6.0132196, 50.0028111], [6.0127793, 50.0027424], [6.0126732, 50.0028586], [6.0125499, 50.0030049], [6.0123172, 50.003281], [6.0122769, 50.0033296], [6.0122063, 50.0034149], [6.0120933, 50.0035513], [6.0118011, 50.0034289], [6.0115195, 50.0033096], [6.0113452, 50.0032357], [6.0111814, 50.0031676], [6.0108416, 50.0030367], [6.0107353, 50.0030029], [6.0105072, 50.0029469], [6.010371, 50.0029238], [6.0101579, 50.0028911], [6.0100483, 50.0028743], [6.0099601, 50.0028635], [6.0097713, 50.0027689], [6.0097213, 50.0028024], [6.009606, 50.0028892], [6.0095627, 50.0029218], [6.0094357, 50.0030174], [6.0093565, 50.003077], [6.0093473, 50.003084], [6.0091578, 50.0032433], [6.0091018, 50.0032903], [6.0090287, 50.0033518], [6.0088737, 50.0034822], [6.0088496, 50.0035024], [6.0087587, 50.003602], [6.0087163, 50.0036522], [6.008638, 50.0037343], [6.0085205, 50.0038574], [6.0084908, 50.0038885], [6.0084873, 50.0038924], [6.0083768, 50.0040186], [6.0082603, 50.0041404], [6.009484, 50.0045961], [6.0098583, 50.0047404], [6.0102183, 50.00491], [6.0104901, 50.005038], [6.0107948, 50.0051815], [6.0111883, 50.0053669], [6.0114124, 50.0054728], [6.0118264, 50.0056686], [6.0124565, 50.0059651], [6.0122853, 50.0062802], [6.0121901, 50.0064183], [6.0120805, 50.0065476], [6.0120675, 50.0065594], [6.0120045, 50.0065221], [6.0118772, 50.0064519], [6.0117721, 50.0064024], [6.0116371, 50.0063569], [6.0113082, 50.0062764], [6.0112981, 50.0062914], [6.0110767, 50.0065584], [6.010853, 50.0065238], [6.010806, 50.006647], [6.0107813, 50.0067012], [6.010777, 50.0067106], [6.0107191, 50.006831], [6.0106387, 50.0069773], [6.0105574, 50.0071088], [6.0104561, 50.0072576], [6.0104071, 50.0073148], [6.0103871, 50.0073458], [6.0103082, 50.0074136], [6.0102393, 50.0074686], [6.0102215, 50.0074743], [6.0102204, 50.0074907], [6.0102147, 50.0075332], [6.0100816, 50.0076069], [6.0099334, 50.0077166], [6.009723, 50.0078603], [6.0095418, 50.0079963], [6.0092362, 50.0079967], [6.0090608, 50.0079999], [6.0090241, 50.0080027], [6.0090106, 50.0080037], [6.0088309, 50.0080176], [6.008456, 50.0080625], [6.0083443, 50.0080889], [6.0081913, 50.0081367], [6.0080729, 50.0081819], [6.0079904, 50.0082135], [6.0077789, 50.0082861], [6.0076579, 50.0083296], [6.0075714, 50.0083689], [6.0075061, 50.0084091], [6.0072675, 50.0086384], [6.0070714, 50.0088627], [6.0069194, 50.009027], [6.0068127, 50.009121], [6.0066902, 50.0092289], [6.0065556, 50.0093487], [6.006637, 50.0093699], [6.0066713, 50.0093789], [6.0069127, 50.0094417], [6.006831, 50.0096154], [6.0067469, 50.0097404], [6.0067162, 50.0097789], [6.0065895, 50.0099056], [6.0064376, 50.010039], [6.006231, 50.010223], [6.0061137, 50.0103368], [6.0060257, 50.0104412], [6.0058309, 50.0106715], [6.0057683, 50.0107194], [6.0064355, 50.0114547], [6.0063841, 50.0114724], [6.0063647, 50.0114791], [6.0061116, 50.0115648], [6.0058316, 50.0116595], [6.0057958, 50.0116764], [6.0056922, 50.0116454], [6.0055514, 50.0116435], [6.0054304, 50.0116682], [6.0052838, 50.0117914], [6.0051293, 50.0118863], [6.0049856, 50.0119495], [6.0049085, 50.0119648], [6.004781, 50.0119509], [6.0046615, 50.0118994], [6.0045529, 50.0118032], [6.0044762, 50.0117011], [6.0044484, 50.0116488], [6.0044072, 50.0116496], [6.0040154, 50.0115899], [6.0037764, 50.011551], [6.0036914, 50.0115346], [6.0036751, 50.0116297], [6.0033444, 50.0115693], [6.0029619, 50.011513], [6.0027255, 50.0114879], [6.0025182, 50.0114713], [6.0023163, 50.0114607], [6.002028, 50.0114526], [6.0017143, 50.0114539], [6.0014127, 50.0114594], [6.0012014, 50.0114685], [6.0009518, 50.0114093], [6.0007186, 50.011364], [6.0004418, 50.0114808], [6.0004343, 50.011484], [6.0003057, 50.0114577], [6.0001689, 50.0114281], [6.0000819, 50.0114111], [6.0000621, 50.0114072], [6.0000465, 50.0114038], [6.0000154, 50.0113977], [5.9998244, 50.0114068], [5.999648, 50.0114193], [5.9994041, 50.0114296], [5.9991799, 50.0114601], [5.9991851, 50.0114829], [5.9992577, 50.0118027], [5.9992684, 50.0118501], [5.9992729, 50.0118697], [5.9990444, 50.0119242], [5.9987578, 50.0119994], [5.9986311, 50.012036], [5.9983092, 50.0121259], [5.9982437, 50.0121425], [5.9980766, 50.0121811], [5.9978918, 50.0122136], [5.9977008, 50.0122387], [5.9974859, 50.0122605], [5.9973749, 50.0122684], [5.9972358, 50.0122722], [5.9971456, 50.0122707], [5.9969807, 50.0122558], [5.9967857, 50.0122327], [5.996569, 50.0121929], [5.9965397, 50.0122565], [5.9965032, 50.0123026], [5.9964741, 50.0123373], [5.9964272, 50.0123754], [5.9963346, 50.0124482], [5.9961703, 50.0125777], [5.9960708, 50.0125482], [5.9957985, 50.0126769], [5.9954306, 50.0128309], [5.9952976, 50.0128903], [5.9949619, 50.0130497], [5.9947688, 50.0130559], [5.9946828, 50.0130586], [5.9947197, 50.0131824], [5.9944819, 50.0132356], [5.9943459, 50.0132628], [5.9941974, 50.013282], [5.993966, 50.0132937], [5.9938041, 50.0133062], [5.993692, 50.0133188], [5.9936588, 50.0133234], [5.9935325, 50.0132456], [5.9934838, 50.0132301], [5.9933614, 50.0132112], [5.9932204, 50.0131949], [5.9930409, 50.0131826], [5.9929278, 50.0131804], [5.9928534, 50.0131841], [5.9927815, 50.0131876], [5.9925757, 50.0132977], [5.992532, 50.0133218], [5.992243, 50.0134818], [5.992137, 50.0135111], [5.9917497, 50.0135895], [5.9916677, 50.0136067], [5.9915659, 50.013636], [5.9913788, 50.0137287], [5.9912155, 50.0138382], [5.9911583, 50.0138944], [5.9911124, 50.0139505], [5.9910862, 50.0140207], [5.9909728, 50.0140623], [5.9906014, 50.0138707], [5.9905534, 50.01391], [5.9903525, 50.0140672], [5.9903468, 50.0140717], [5.9901545, 50.0142464], [5.9901095, 50.0142873], [5.9900529, 50.0143396], [5.9899577, 50.0144275], [5.9898382, 50.014538], [5.9897275, 50.0146111], [5.9896947, 50.0146375], [5.9895526, 50.0147628], [5.9890053, 50.0145109], [5.9877492, 50.0139357], [5.9878994, 50.013776], [5.9879713, 50.0136994], [5.9880448, 50.0136212], [5.9878285, 50.0135412], [5.9874423, 50.0133932], [5.9871358, 50.0132779], [5.9867841, 50.0131428], [5.9866607, 50.0130981], [5.9864617, 50.0130215], [5.9862587, 50.0129381], [5.9861127, 50.012877], [5.9860172, 50.0128323], [5.9858992, 50.0127738], [5.9856061, 50.0126217], [5.9854456, 50.0125366], [5.9850736, 50.0123211], [5.985051, 50.0123118], [5.9850217, 50.0124066], [5.9850003, 50.0124514], [5.9850653, 50.0126073], [5.9851323, 50.0128062], [5.9851716, 50.0129605], [5.9851977, 50.0130788], [5.9852198, 50.0132143], [5.9852323, 50.0134028], [5.9852253, 50.0135133], [5.9852249, 50.0136162], [5.9852243, 50.0137841], [5.9852026, 50.0138955], [5.9851566, 50.0140977], [5.9851471, 50.0141559], [5.985175, 50.0141654], [5.9856941, 50.0142896], [5.9860526, 50.0143793], [5.9864575, 50.0144913], [5.9868199, 50.0146016], [5.9870294, 50.014661], [5.987424, 50.0147835], [5.9877328, 50.0148864], [5.9881245, 50.0150264], [5.9884718, 50.0151608], [5.9882961, 50.0154679], [5.988224, 50.0155961], [5.9879609, 50.0159141], [5.9876246, 50.0162496], [5.9874574, 50.0161754], [5.9872546, 50.0163587], [5.9871759, 50.0164298], [5.9869787, 50.0163408], [5.9868655, 50.016385], [5.9867493, 50.0164374], [5.9866547, 50.0164843], [5.98657, 50.0165396], [5.9865269, 50.0165783], [5.9864795, 50.0166262], [5.9864091, 50.0166972], [5.9863473, 50.0167608], [5.9862855, 50.0168271], [5.986228, 50.0168898], [5.9861389, 50.0169893], [5.9860886, 50.0170456], [5.9860224, 50.0171248], [5.985985, 50.0171728], [5.9859073, 50.0172834], [5.9858685, 50.0173341], [5.9858526, 50.0173563], [5.9851376, 50.0171798], [5.9850818, 50.0171658], [5.9850109, 50.0171554], [5.9848445, 50.0179136], [5.9848025, 50.0181277], [5.9847686, 50.0183051], [5.9847025, 50.0185552], [5.9845927, 50.0191249], [5.9845106, 50.0193835], [5.9844448, 50.0195591], [5.9842187, 50.0199735], [5.9841969, 50.0199657], [5.9839686, 50.0198664], [5.9839814, 50.0198374], [5.9829704, 50.0193511], [5.9828603, 50.0192995], [5.9824832, 50.0191237], [5.982189, 50.0189865], [5.9812656, 50.0185703], [5.9808092, 50.0183639], [5.980735, 50.0182952], [5.9807032, 50.0182643], [5.9805852, 50.0181973], [5.9804008, 50.0181062], [5.9803093, 50.0180657], [5.9801903, 50.0180316], [5.9801832, 50.0180295], [5.9800663, 50.0180002], [5.9799109, 50.0179691], [5.9797555, 50.0179534], [5.9793143, 50.0179459], [5.978909, 50.0179367], [5.9785488, 50.0179309], [5.977903, 50.0179136], [5.9767602, 50.0178834], [5.9766765, 50.0178799], [5.9765883, 50.0179408], [5.9767052, 50.0181227], [5.9767197, 50.0181452], [5.9767722, 50.0182123], [5.9767952, 50.0182563], [5.9768044, 50.0182913], [5.9768027, 50.0183233], [5.9768058, 50.0183413], [5.9768351, 50.0183804], [5.976923, 50.0184925], [5.9769847, 50.0185705], [5.9770619, 50.0186556], [5.9771515, 50.0187478], [5.9772132, 50.0188189], [5.9772626, 50.0188859], [5.977329, 50.018954], [5.9774093, 50.0190251], [5.977533, 50.0191273], [5.9777117, 50.0194065], [5.9777599, 50.0195107], [5.9778012, 50.0196305], [5.977802, 50.0197807], [5.9778166, 50.0198893], [5.9778805, 50.019905], [5.978712, 50.020084], [5.9788914, 50.020138], [5.9791775, 50.02022], [5.980009, 50.020493], [5.9801655, 50.020504], [5.9802113, 50.020515], [5.980379, 50.020607], [5.9804287, 50.020622], [5.9805393, 50.020653], [5.9807568, 50.02074], [5.981127, 50.020844], [5.9813023, 50.020885], [5.981432, 50.020897], [5.9814816, 50.02091], [5.9815235, 50.02093], [5.981596, 50.02099], [5.981638, 50.021004], [5.9819202, 50.021076], [5.9817905, 50.02122], [5.9816875, 50.021355], [5.981642, 50.021427], [5.981596, 50.021515], [5.9815655, 50.021584], [5.9815235, 50.021683], [5.981474, 50.021805], [5.981455, 50.021873], [5.981436, 50.021965], [5.9814167, 50.022083], [5.9813557, 50.022583], [5.98131, 50.02288], [5.9812717, 50.02304], [5.981241, 50.02315], [5.981142, 50.023445], [5.981043, 50.023697], [5.980982, 50.023823], [5.980898, 50.023975], [5.980772, 50.024147], [5.9805584, 50.0244], [5.980654, 50.02441], [5.9808826, 50.024426], [5.9810123, 50.024433], [5.981085, 50.024452], [5.9811916, 50.02449], [5.9813824, 50.024574], [5.981512, 50.02464], [5.981634, 50.024708], [5.981764, 50.02476], [5.9818516, 50.024796], [5.981966, 50.024834], [5.9820995, 50.02487], [5.9821835, 50.02489], [5.9825, 50.024956], [5.9827633, 50.024998], [5.9829044, 50.025017], [5.982977, 50.02502], [5.9831524, 50.025013], [5.9833126, 50.024994], [5.983427, 50.024967], [5.983591, 50.024918], [5.9836903, 50.024883], [5.9838314, 50.024845], [5.98403, 50.024826], [5.9840566, 50.0248948], [5.984083, 50.024963], [5.9841404, 50.024956], [5.984133, 50.024895], [5.9841404, 50.024742], [5.984186, 50.024273], [5.984499, 50.023907], [5.984911, 50.024036], [5.9851933, 50.02413], [5.9853153, 50.024178], [5.985403, 50.024216], [5.9855404, 50.024292], [5.9856434, 50.024364], [5.985716, 50.02443], [5.9857655, 50.024494], [5.985773, 50.024544], [5.9858, 50.024696], [5.986006, 50.024757], [5.9861736, 50.02481], [5.986269, 50.02485], [5.9863224, 50.024868], [5.9864063, 50.024902], [5.9865017, 50.024952], [5.9866886, 50.025093], [5.986742, 50.025135], [5.9868526, 50.02522], [5.9870625, 50.025364], [5.9871616, 50.02542], [5.9870205, 50.02553], [5.986971, 50.02557], [5.9868793, 50.02564], [5.9868298, 50.02568], [5.986788, 50.025726], [5.9867344, 50.025795], [5.986662, 50.025898], [5.9864483, 50.026237], [5.9866543, 50.026245], [5.987013, 50.02626], [5.9872684, 50.026276], [5.9875736, 50.02632], [5.987707, 50.02635], [5.987856, 50.026386], [5.9879665, 50.02642], [5.988138, 50.02648], [5.9881954, 50.026493], [5.9882793, 50.026505], [5.98847, 50.02653], [5.988657, 50.026573], [5.9888325, 50.026615], [5.9889126, 50.026646], [5.989073, 50.026733], [5.9891796, 50.026802], [5.989233, 50.02685], [5.9892673, 50.0269], [5.9892864, 50.02694], [5.98929, 50.027], [5.9892805, 50.0270826], [5.989279, 50.027096], [5.9892597, 50.027187], [5.989519, 50.027256], [5.9895344, 50.027233], [5.989626, 50.027256], [5.9899006, 50.027336], [5.9899807, 50.027252], [5.99024, 50.027332], [5.9903623, 50.0273689], [5.9904423, 50.027393], [5.990652, 50.02746], [5.9909306, 50.027283], [5.991308, 50.027008], [5.9915485, 50.02684], [5.991781, 50.026688], [5.992079, 50.026516], [5.991878, 50.0264292], [5.9917965, 50.026394], [5.9920181, 50.0262983], [5.9925973, 50.0260481], [5.9929447, 50.025898], [5.9931164, 50.025818], [5.993307, 50.025715], [5.9934826, 50.025608], [5.9936314, 50.02549], [5.9937687, 50.025364], [5.993906, 50.025223], [5.9942226, 50.025364], [5.9945354, 50.02549], [5.994623, 50.025524], [5.9948776, 50.0256283], [5.9949207, 50.025646], [5.9952145, 50.025764], [5.9955616, 50.0259], [5.995821, 50.02599], [5.996279, 50.026134], [5.9964314, 50.026173], [5.9966297, 50.026215], [5.996874, 50.02626], [5.9970913, 50.026287], [5.9973164, 50.02631], [5.9974995, 50.026318], [5.9978466, 50.02633], [5.9979725, 50.026333], [5.9979725, 50.026173], [5.9979687, 50.02604], [5.9979534, 50.026], [5.997946, 50.02593], [5.997965, 50.025826], [5.9979725, 50.025715], [5.9979916, 50.02564], [5.998068, 50.025467], [5.9981174, 50.02535], [5.9981747, 50.025234], [5.9981937, 50.025192], [5.9982166, 50.025146], [5.998255, 50.025093], [5.998316, 50.02502], [5.9984417, 50.024914], [5.998541, 50.024837], [5.9986057, 50.02476], [5.998682, 50.024673], [5.998701, 50.02465], [5.998747, 50.024532], [5.998785, 50.024418], [5.998831, 50.024345], [5.9988804, 50.02428], [5.9989376, 50.024227], [5.998995, 50.024197], [5.999033, 50.02419], [5.999075, 50.024193], [5.9990864, 50.024136], [5.9994373, 50.023987], [5.9996624, 50.023888], [5.9997044, 50.023907], [6.0006733, 50.024284], [6.000532, 50.024376], [6.0007534, 50.024487], [6.00091, 50.02456], [6.000971, 50.02459], [6.0010014, 50.0246], [6.00091, 50.02469], [6.0007772, 50.0248151], [6.000719, 50.02487], [6.0006733, 50.02491], [6.0004826, 50.025093], [6.000559, 50.02511], [6.0007496, 50.025143], [6.000826, 50.025166], [6.0010357, 50.02525], [6.0011044, 50.025276], [6.0012417, 50.025322], [6.0013256, 50.025337], [6.0014324, 50.025345], [6.0016384, 50.025368], [6.002062, 50.02541], [6.002531, 50.025455], [6.0030727, 50.02551], [6.0031605, 50.025505], [6.0032825, 50.025505], [6.0034466, 50.0255], [6.003668, 50.0255], [6.0039043, 50.025505], [6.004141, 50.025517], [6.004324, 50.02553], [6.0047054, 50.025566], [6.0049534, 50.025578], [6.0051174, 50.025578], [6.005335, 50.02557], [6.0055943, 50.02555], [6.005831, 50.025528], [6.006098, 50.025497], [6.0063267, 50.025467], [6.006487, 50.02566], [6.0066395, 50.025852], [6.0069042, 50.0261676], [6.006918, 50.026184], [6.006365, 50.02657], [6.006315, 50.026608], [6.005995, 50.026863], [6.00585, 50.026993], [6.00564, 50.027554], [6.005598, 50.027676], [6.0055676, 50.02777], [6.006441, 50.028233], [6.0064297, 50.028263], [6.0065327, 50.028263], [6.006819, 50.028267], [6.0072536, 50.028267], [6.0073185, 50.02827], [6.007826, 50.028378], [6.008314, 50.02848], [6.0087337, 50.02858], [6.008871, 50.02861], [6.009241, 50.028687], [6.0096264, 50.02876], [6.009737, 50.028778], [6.0100765, 50.02883], [6.011034, 50.02899], [6.0114307, 50.029057], [6.0116946, 50.0291105], [6.0121365, 50.0292], [6.0124264, 50.029263], [6.013155, 50.0294], [6.0131893, 50.02938], [6.0132465, 50.029415], [6.0133724, 50.029488], [6.0135517, 50.02959], [6.0136585, 50.029633], [6.013727, 50.02966], [6.0139217, 50.029728], [6.0142917, 50.0298472], [6.014406, 50.029884], [6.014696, 50.02998], [6.0149476, 50.0300515], [6.0150127, 50.03007], [6.015646, 50.030254], [6.0157185, 50.030277], [6.0160084, 50.03036], [6.016264, 50.030434], [6.0168133, 50.03059], [6.0173855, 50.030754], [6.0176373, 50.030827], [6.0177937, 50.030865], [6.0182095, 50.030964], [6.018385, 50.031002], [6.0185566, 50.031044], [6.0186367, 50.031063], [6.018778, 50.0311], [6.018816, 50.03112], [6.019026, 50.031178], [6.019228, 50.031246], [6.019373, 50.031292], [6.019541, 50.03136], [6.0198536, 50.03149], [6.0200787, 50.031578], [6.0202274, 50.03165], [6.020754, 50.03194], [6.020899, 50.03195], [6.0210705, 50.031986], [6.021227, 50.03203], [6.021303, 50.03212], [6.021406, 50.032307], [6.0214787, 50.03246], [6.0215054, 50.032555], [6.021517, 50.03266], [6.021532, 50.032818], [6.02157, 50.033096], [6.021574, 50.033237], [6.021559, 50.03336], [6.0214977, 50.03355], [6.02149, 50.03362], [6.0214977, 50.03367], [6.0215244, 50.033714], [6.0218525, 50.03398], [6.0219555, 50.03407], [6.0220356, 50.03415], [6.022112, 50.034252], [6.0221844, 50.034367], [6.0223103, 50.034664], [6.0223675, 50.03481], [6.022402, 50.034916], [6.0224857, 50.035305], [6.0225353, 50.035664], [6.0225697, 50.035873], [6.0225887, 50.035927], [6.0225925, 50.035942], [6.022623, 50.036022], [6.022669, 50.036083], [6.022993, 50.036453], [6.023134, 50.036568], [6.023382, 50.036747], [6.0236187, 50.036945], [6.024664, 50.03789], [6.0248127, 50.03804], [6.0248585, 50.0381], [6.0248814, 50.038155], [6.024931, 50.038517], [6.024954, 50.03857], [6.0250034, 50.038662], [6.0251637, 50.03886], [6.0251637, 50.038914], [6.0251827, 50.03898], [6.0252132, 50.03903], [6.0251901, 50.0390503], [6.0253544, 50.039112], [6.025488, 50.039207], [6.0258694, 50.039516], [6.02606, 50.039677], [6.026186, 50.039818], [6.0263653, 50.04004], [6.0264034, 50.04011], [6.026453, 50.040382], [6.026495, 50.04059], [6.0266056, 50.041023], [6.026663, 50.04121], [6.026705, 50.041344], [6.026743, 50.041428], [6.026781, 50.041485], [6.027014, 50.041718], [6.0273304, 50.042072], [6.027666, 50.04247], [6.0277424, 50.04259], [6.0278645, 50.04288], [6.027937, 50.04305], [6.0280323, 50.043186], [6.028162, 50.04336], [6.0282, 50.043423], [6.0282307, 50.04348], [6.0282574, 50.043552], [6.028265, 50.0436], [6.028326, 50.043682], [6.028364, 50.043747], [6.028391, 50.043816], [6.028391, 50.043873], [6.028387, 50.043938], [6.028372, 50.043972], [6.0283566, 50.044083], [6.02833, 50.04421], [6.028242, 50.04442], [6.0282154, 50.044487], [6.0282154, 50.04456], [6.0282383, 50.04468], [6.0282383, 50.04475], [6.0282116, 50.04487], [6.0282345, 50.044876], [6.0284169, 50.0447118], [6.028578, 50.044548], [6.0290318, 50.04464], [6.0290585, 50.044643], [6.029707, 50.044773], [6.0296345, 50.04494], [6.0300198, 50.045], [6.0303326, 50.045044], [6.030451, 50.04506], [6.0304356, 50.045174], [6.030428, 50.045246], [6.030424, 50.04533], [6.0304317, 50.045403], [6.031257, 50.0454127], [6.03137, 50.045414], [6.031492, 50.04541], [6.0314884, 50.045288], [6.031584, 50.045288], [6.031584, 50.045097], [6.0317745, 50.04507], [6.0317135, 50.044697], [6.032549, 50.044647], [6.0325851, 50.0445226], [6.0326595, 50.044266], [6.032675, 50.044224], [6.032984, 50.044212], [6.0330105, 50.044216], [6.032957, 50.044544], [6.0329456, 50.04472], [6.032957, 50.044888], [6.0329723, 50.045], [6.0330143, 50.04521], [6.033041, 50.045223], [6.03314, 50.04526], [6.0333385, 50.04536], [6.0334377, 50.04542], [6.033579, 50.04553], [6.0336666, 50.045612], [6.033739, 50.045696], [6.0338306, 50.045834], [6.033861, 50.045937], [6.0338955, 50.046032], [6.033949, 50.04615], [6.033968, 50.046207], [6.0339794, 50.04626], [6.0339985, 50.046394], [6.034075, 50.046482], [6.034281, 50.046448], [6.034296, 50.046444], [6.0343113, 50.04647], [6.034342, 50.0465], [6.0343685, 50.04652], [6.0344143, 50.046597], [6.034445, 50.046635], [6.034525, 50.046722], [6.034601, 50.046837], [6.0346394, 50.046883], [6.03467, 50.046906], [6.0347004, 50.046913], [6.0348186, 50.046932], [6.0348797, 50.046947], [6.034952, 50.046967], [6.034975, 50.046978], [6.0350018, 50.046993], [6.035013, 50.04699], [6.0353374, 50.04695], [6.035372, 50.04703], [6.035429, 50.047062], [6.035696, 50.047413], [6.0357914, 50.047325], [6.036028, 50.047276], [6.036474, 50.04725], [6.036665, 50.04724], [6.03718, 50.047226], [6.0375195, 50.04724], [6.0376934, 50.047253], [6.03792, 50.04727], [6.0380764, 50.047283], [6.03808, 50.047337], [6.0381184, 50.04734], [6.038275, 50.047356], [6.038458, 50.047386], [6.0385494, 50.047398], [6.038683, 50.047417], [6.038828, 50.04743], [6.038828, 50.047478], [6.039053, 50.047516], [6.0394154, 50.047573], [6.039686, 50.047615], [6.04051, 50.047752], [6.0405064, 50.04782], [6.0409565, 50.04788], [6.0409527, 50.04792], [6.0411205, 50.04794], [6.0412235, 50.047947], [6.041319, 50.047947], [6.0414524, 50.04794], [6.041548, 50.047928], [6.0416965, 50.0479], [6.041857, 50.047863], [6.0420475, 50.0478], [6.0422688, 50.047714], [6.042288, 50.047703], [6.0419636, 50.047558], [6.0421886, 50.04742], [6.0422153, 50.0474], [6.0422497, 50.047333], [6.04228, 50.047287], [6.042345, 50.047203], [6.042433, 50.04713], [6.0425777, 50.04703], [6.042818, 50.046883], [6.042845, 50.046864], [6.043253, 50.04661], [6.0433025, 50.04661], [6.0434933, 50.046616], [6.043749, 50.04661], [6.044245, 50.046593], [6.0447483, 50.046585], [6.046072, 50.046585], [6.0461063, 50.04676], [6.046076, 50.046814], [6.045912, 50.04706], [6.04574, 50.047276], [6.0454082, 50.04765], [6.0455036, 50.047844], [6.045538, 50.047916], [6.045534, 50.047943], [6.045515, 50.047993], [6.0454426, 50.048103], [6.045397, 50.0482], [6.0452824, 50.048347], [6.0453167, 50.048653], [6.045313, 50.0489], [6.045313, 50.048935], [6.0453053, 50.04914], [6.0452747, 50.049572], [6.0452595, 50.04977], [6.0452557, 50.04978], [6.045416, 50.04979], [6.045763, 50.049805], [6.046236, 50.04984], [6.04669, 50.04986], [6.0470943, 50.04986], [6.04751, 50.049843], [6.047365, 50.050217], [6.0480747, 50.05038], [6.0482197, 50.05042], [6.0483685, 50.05047], [6.0485134, 50.050537], [6.0486813, 50.050636], [6.0488186, 50.050724], [6.0489674, 50.05084], [6.0491276, 50.050976], [6.049242, 50.05109], [6.0492573, 50.0511], [6.0491657, 50.051147], [6.0489483, 50.05125], [6.048746, 50.05133], [6.0485935, 50.051376], [6.0479565, 50.05155], [6.0477467, 50.05162], [6.047579, 50.0517], [6.0474987, 50.05175], [6.0474644, 50.05179], [6.04743, 50.051857], [6.047415, 50.051918], [6.047392, 50.052048], [6.0473766, 50.052113], [6.0473576, 50.05213], [6.0472921, 50.0521944], [6.0472307, 50.0522781], [6.0471602, 50.0523243], [6.0469837, 50.052498], [6.046919, 50.052574], [6.0467471, 50.0527109], [6.0466747, 50.05276], [6.046694, 50.052773], [6.046793, 50.05289], [6.046915, 50.053047], [6.046961, 50.05314], [6.047163, 50.053627], [6.0472164, 50.05377], [6.047205, 50.054], [6.0471783, 50.05423], [6.0471478, 50.05445], [6.0470905, 50.05444], [6.0471554, 50.054657], [6.047163, 50.054676], [6.0471959, 50.0547673], [6.0472813, 50.055004], [6.046858, 50.054947], [6.0467815, 50.05494], [6.046652, 50.054913], [6.0465336, 50.054886], [6.0463696, 50.054836], [6.04624, 50.0548], [6.045843, 50.05468], [6.0457478, 50.054657], [6.0455647, 50.05463], [6.045328, 50.054585], [6.0450153, 50.05452], [6.044615, 50.054565], [6.044428, 50.054596], [6.043829, 50.054726], [6.0438633, 50.054836], [6.043577, 50.05488], [6.043421, 50.05489], [6.042715, 50.054924], [6.042715, 50.054943], [6.042162, 50.054974], [6.0414257, 50.05485], [6.041334, 50.05491], [6.041353, 50.054977], [6.0414295, 50.055172], [6.041498, 50.05535], [6.0421085, 50.05574], [6.0422497, 50.056515], [6.04233, 50.056988], [6.0423565, 50.057106], [6.042383, 50.057163], [6.042425, 50.057224], [6.042486, 50.05729], [6.0425816, 50.057365], [6.0427, 50.05745], [6.043001, 50.057632], [6.0430737, 50.05768], [6.043337, 50.05783], [6.043524, 50.05794], [6.0436292, 50.0579938], [6.0436764, 50.058044], [6.0438175, 50.058147], [6.04405, 50.058315], [6.0443745, 50.058556], [6.0445207, 50.0586714], [6.0447216, 50.05883], [6.0449886, 50.05868], [6.0450916, 50.058758], [6.0451603, 50.058807], [6.0452595, 50.05887], [6.0453625, 50.058918], [6.045473, 50.058964], [6.0456104, 50.05901], [6.0457973, 50.05906], [6.045931, 50.05909], [6.046095, 50.059116], [6.046259, 50.059135], [6.0464725, 50.059162], [6.0466595, 50.059177], [6.0470066, 50.059208], [6.047289, 50.05923], [6.047327, 50.059135], [6.0473347, 50.059113], [6.0474033, 50.05894], [6.047453, 50.0588], [6.047949, 50.058914], [6.049036, 50.05917], [6.0494785, 50.059265], [6.049822, 50.059345], [6.0500355, 50.059406], [6.0503445, 50.05951], [6.051058, 50.05972], [6.051214, 50.059517], [6.0513744, 50.059307], [6.0515003, 50.05914], [6.052122, 50.05939], [6.0523357, 50.059467], [6.052599, 50.05955], [6.0528965, 50.05964], [6.053011, 50.059677], [6.0530834, 50.059708], [6.0533733, 50.059868], [6.0534344, 50.059975], [6.053465, 50.06001], [6.053507, 50.060036], [6.053835, 50.060165], [6.0540257, 50.060234], [6.054205, 50.060287], [6.0543346, 50.060318], [6.0544186, 50.06033], [6.0545025, 50.060333], [6.054598, 50.06033], [6.054701, 50.060314], [6.0548153, 50.060287], [6.054991, 50.060234], [6.0554028, 50.060417], [6.055628, 50.06051], [6.0559826, 50.060616], [6.056082, 50.060642], [6.0562496, 50.06068], [6.0562267, 50.06071], [6.056204, 50.06073], [6.056185, 50.060757], [6.0561733, 50.06078], [6.056143, 50.060795], [6.0560894, 50.060818], [6.0560474, 50.060825], [6.055998, 50.06087], [6.0559483, 50.060905], [6.055887, 50.060947], [6.0558605, 50.060966], [6.05583, 50.061012], [6.055807, 50.061054], [6.0558186, 50.061085], [6.0558186, 50.06111], [6.0557995, 50.061146], [6.055769, 50.06117], [6.055704, 50.061203], [6.0556583, 50.06123], [6.0556393, 50.061253], [6.0556316, 50.06129], [6.055624, 50.061317], [6.0555935, 50.061348], [6.055544, 50.06138], [6.0555134, 50.061405], [6.055502, 50.06143], [6.0555058, 50.061455], [6.0555134, 50.06148], [6.0555134, 50.0615], [6.0554943, 50.061527], [6.055456, 50.061546], [6.055422, 50.06156], [6.0553913, 50.061584], [6.0553646, 50.061604], [6.055334, 50.061615], [6.055315, 50.061638], [6.0552883, 50.061653], [6.0552692, 50.06166], [6.055254, 50.061676], [6.0552273, 50.061684], [6.055208, 50.0617], [6.055174, 50.061733], [6.0551434, 50.06175], [6.0551205, 50.061764], [6.0551014, 50.061783], [6.0550823, 50.061817], [6.055048, 50.061855], [6.0550137, 50.061886], [6.0549564, 50.06191], [6.054903, 50.06192], [6.054865, 50.061935], [6.0548267, 50.06196], [6.0547886, 50.06197], [6.0547314, 50.061974], [6.054701, 50.061977], [6.054682, 50.061993], [6.0546627, 50.062004], [6.05464, 50.06201], [6.0546017, 50.062016], [6.054579, 50.062027], [6.0545597, 50.06204], [6.0545254, 50.062046], [6.054495, 50.062046], [6.054468, 50.06206], [6.0544376, 50.06207], [6.054407, 50.062077], [6.0543766, 50.062096], [6.0543385, 50.062115], [6.0543003, 50.06213], [6.054266, 50.062153], [6.0542316, 50.062172], [6.054178, 50.062195], [6.054144, 50.062214], [6.0541134, 50.06223], [6.0540752, 50.062263], [6.0540333, 50.062286], [6.0540676, 50.0623], [6.0541058, 50.0623], [6.0542545, 50.062283], [6.0543804, 50.062275], [6.0544415, 50.062283], [6.054533, 50.06233], [6.054781, 50.06224], [6.054842, 50.06223], [6.0549145, 50.06222], [6.0550747, 50.06222], [6.055235, 50.062225], [6.0553646, 50.06223], [6.055502, 50.062244], [6.0556583, 50.06227], [6.0557957, 50.0623], [6.0557957, 50.06247], [6.0558147, 50.062645], [6.05583, 50.062733], [6.0558567, 50.06282], [6.0558834, 50.062912], [6.0559063, 50.06297], [6.055929, 50.06301], [6.055979, 50.063095], [6.0560284, 50.063152], [6.056093, 50.063217], [6.056185, 50.063286], [6.056303, 50.063366], [6.0563183, 50.06338], [6.0564747, 50.063488], [6.0565586, 50.063564], [6.056616, 50.06361], [6.0567074, 50.06372], [6.0568027, 50.063877], [6.05686, 50.063995], [6.056898, 50.06408], [6.05694, 50.06419], [6.0569515, 50.064213], [6.0568104, 50.064278], [6.0566425, 50.064365], [6.056261, 50.064636], [6.0559444, 50.064846], [6.055559, 50.065052], [6.055586, 50.065075], [6.0557995, 50.06518], [6.0559864, 50.065266], [6.0561886, 50.065346], [6.056528, 50.06546], [6.0576725, 50.06579], [6.058012, 50.06589], [6.0582867, 50.065983], [6.0583744, 50.06601], [6.0585117, 50.066067]]]}}]}