{"type": "FeatureCollection", "features": [{"type": "Feature", "properties": {"name": "Larochette"}, "geometry": {"type": "MultiPolygon", "coordinates": [[[[6.15805, 49.775124], [6.158157, 49.77516], [6.158362, 49.775227], [6.15847, 49.77525], [6.158483, 49.775253], [6.158818, 49.775326], [6.158833, 49.77536], [6.158961, 49.775665], [6.15901, 49.77566], [6.159178, 49.77576], [6.159025, 49.775757], [6.15937, 49.776722], [6.159828, 49.778008], [6.160204, 49.778984], [6.160379, 49.779438], [6.160495, 49.77974], [6.160689, 49.780247], [6.160723, 49.780315], [6.160925, 49.780746], [6.161004, 49.78091], [6.161078, 49.78114], [6.161532, 49.78108], [6.161823, 49.781036], [6.161869, 49.78103], [6.162363, 49.781364], [6.162797, 49.781624], [6.162903, 49.78169], [6.163379, 49.78193], [6.164202, 49.78214], [6.164534, 49.781944], [6.165145, 49.78143], [6.165338, 49.78101], [6.165578, 49.78099], [6.165636, 49.78099], [6.165821, 49.781193], [6.166114, 49.781513], [6.166466, 49.78145], [6.166709, 49.781765], [6.166838, 49.781933], [6.166893, 49.782093], [6.166951, 49.78258], [6.167067, 49.78292], [6.167371, 49.78321], [6.168075, 49.783405], [6.169052, 49.783268], [6.169937, 49.7834], [6.170494, 49.782852], [6.170583, 49.782623], [6.170985, 49.78263], [6.170979, 49.782158], [6.170971, 49.781616], [6.171203, 49.781475], [6.171373, 49.781853], [6.171475, 49.782154], [6.171615, 49.782646], [6.1717, 49.78308], [6.171725, 49.783237], [6.171751, 49.783558], [6.171867, 49.784004], [6.172192, 49.784317], [6.173163, 49.78428], [6.174049, 49.78415], [6.174149, 49.78423], [6.173392, 49.78468], [6.173963, 49.78489], [6.174602, 49.785137], [6.175369, 49.785442], [6.175952, 49.785686], [6.176507, 49.78595], [6.177173, 49.78627], [6.177533, 49.78645], [6.17804, 49.786682], [6.178532, 49.786907], [6.179071, 49.787064], [6.179208, 49.7871], [6.179276, 49.78712], [6.179203, 49.787003], [6.179123, 49.78703], [6.179092, 49.78698], [6.17916, 49.78693], [6.178997, 49.786655], [6.179269, 49.786457], [6.179324, 49.78642], [6.179393, 49.78637], [6.179437, 49.786335], [6.179507, 49.786285], [6.179572, 49.78624], [6.179621, 49.7862], [6.179867, 49.786026], [6.179911, 49.785976], [6.180097, 49.786015], [6.180266, 49.78601], [6.180371, 49.786034], [6.18081, 49.78618], [6.18103, 49.78598], [6.181129, 49.785908], [6.181239, 49.78584], [6.18138, 49.785763], [6.18157, 49.785732], [6.181549, 49.785614], [6.18403, 49.785145], [6.184118, 49.78527], [6.184183, 49.78529], [6.184338, 49.785576], [6.184454, 49.785774], [6.184504, 49.785843], [6.184626, 49.786], [6.184694, 49.786068], [6.184683, 49.786144], [6.184723, 49.786175], [6.184921, 49.786434], [6.185387, 49.78711], [6.185146, 49.787235], [6.184596, 49.787487], [6.184116, 49.787697], [6.184078, 49.787716], [6.183744, 49.787945], [6.183401, 49.78818], [6.183153, 49.78842], [6.183138, 49.78874], [6.183153, 49.78893], [6.183298, 49.789944], [6.18334, 49.790024], [6.183687, 49.79044], [6.184347, 49.791237], [6.184637, 49.79158], [6.184687, 49.79164], [6.184835, 49.791782], [6.185152, 49.792072], [6.185301, 49.79222], [6.185408, 49.792347], [6.185484, 49.792446], [6.185503, 49.792477], [6.185682, 49.792732], [6.185892, 49.79299], [6.186041, 49.79316], [6.186152, 49.793278], [6.186323, 49.793438], [6.186438, 49.793545], [6.186499, 49.793697], [6.18664, 49.794], [6.186667, 49.794083], [6.186708, 49.794193], [6.186743, 49.79437], [6.18675, 49.794502], [6.186758, 49.79472], [6.186769, 49.79506], [6.186766, 49.795322], [6.186781, 49.79547], [6.186808, 49.7956], [6.186865, 49.795723], [6.18701, 49.79598], [6.187086, 49.796093], [6.187242, 49.79633], [6.187395, 49.79652], [6.18759, 49.796753], [6.187719, 49.796883], [6.187693, 49.796894], [6.187601, 49.796936], [6.187613, 49.796967], [6.187963, 49.797787], [6.18844, 49.799118], [6.188658, 49.799614], [6.1891, 49.799812], [6.189882, 49.800133], [6.190203, 49.800232], [6.190447, 49.800316], [6.190626, 49.80036], [6.190844, 49.800396], [6.191034, 49.800423], [6.191229, 49.800446], [6.19142, 49.800465], [6.191606, 49.80049], [6.192179, 49.800552], [6.192194, 49.80049], [6.192247, 49.800247], [6.192301, 49.799843], [6.192839, 49.799885], [6.193369, 49.79991], [6.193666, 49.79991], [6.193846, 49.79991], [6.19507, 49.79989], [6.197298, 49.799812], [6.197329, 49.799812], [6.197245, 49.800175], [6.197172, 49.800514], [6.197119, 49.80077], [6.197065, 49.801003], [6.197035, 49.801117], [6.19697, 49.801285], [6.196882, 49.801483], [6.196733, 49.801796], [6.196779, 49.80179], [6.197119, 49.801754], [6.197435, 49.801723], [6.19795, 49.80167], [6.198034, 49.801662], [6.198133, 49.80137], [6.198194, 49.801147], [6.198244, 49.800972], [6.198256, 49.800804], [6.198248, 49.80065], [6.198214, 49.800495], [6.198133, 49.800293], [6.197962, 49.799877], [6.197901, 49.799725], [6.197973, 49.79971], [6.199331, 49.799477], [6.200758, 49.799236], [6.201487, 49.79913], [6.201521, 49.79911], [6.202009, 49.79893], [6.202204, 49.79886], [6.202337, 49.798805], [6.202475, 49.79875], [6.202513, 49.798737], [6.202612, 49.798725], [6.202509, 49.798534], [6.202501, 49.798523], [6.202898, 49.798435], [6.203268, 49.798367], [6.203764, 49.79829], [6.204218, 49.798233], [6.204435, 49.7982], [6.20455, 49.798176], [6.204763, 49.79812], [6.204992, 49.798023], [6.205336, 49.797863], [6.205446, 49.797985], [6.205637, 49.797836], [6.205805, 49.79771], [6.205954, 49.797623], [6.206167, 49.797478], [6.206343, 49.79736], [6.20648, 49.797283], [6.206617, 49.79722], [6.206816, 49.797123], [6.206976, 49.797047], [6.207083, 49.796986], [6.207171, 49.79693], [6.207212, 49.796898], [6.207338, 49.796776], [6.207502, 49.796623], [6.207628, 49.79652], [6.207727, 49.796444], [6.207853, 49.796368], [6.207979, 49.796295], [6.208067, 49.79624], [6.208124, 49.79619], [6.20817, 49.796124], [6.20817, 49.796055], [6.208151, 49.795982], [6.208151, 49.795937], [6.208158, 49.795887], [6.208231, 49.795647], [6.208261, 49.795517], [6.208281, 49.795403], [6.208273, 49.79527], [6.20825, 49.79515], [6.208227, 49.79509], [6.208128, 49.794914], [6.208029, 49.794926], [6.2078, 49.79494], [6.207632, 49.794956], [6.207579, 49.794567], [6.207827, 49.79425], [6.208082, 49.79405], [6.208128, 49.794067], [6.208178, 49.794075], [6.208227, 49.79407], [6.208338, 49.794056], [6.208494, 49.794033], [6.208647, 49.794], [6.208769, 49.79396], [6.209066, 49.793854], [6.209284, 49.793755], [6.209433, 49.793674], [6.209513, 49.79362], [6.209555, 49.793575], [6.209711, 49.793392], [6.209814, 49.793297], [6.209929, 49.7932], [6.210447, 49.792828], [6.211019, 49.792404], [6.21121, 49.79228], [6.211363, 49.792194], [6.211634, 49.792133], [6.211813, 49.792095], [6.212381, 49.791893], [6.212946, 49.791687], [6.213438, 49.791515], [6.213648, 49.79143], [6.214205, 49.791172], [6.214556, 49.791016], [6.214743, 49.790947], [6.215059, 49.790833], [6.215479, 49.790695], [6.216005, 49.79054], [6.216806, 49.790356], [6.217253, 49.790264], [6.217482, 49.790226], [6.217352, 49.79001], [6.217283, 49.789894], [6.21726, 49.789852], [6.217245, 49.78983], [6.217596, 49.789574], [6.217939, 49.78941], [6.217958, 49.789402], [6.218042, 49.789364], [6.218077, 49.789345], [6.218103, 49.789486], [6.218203, 49.7897], [6.21837, 49.790035], [6.21842, 49.790176], [6.218492, 49.7904], [6.218569, 49.79052], [6.218676, 49.790604], [6.218882, 49.7908], [6.219042, 49.790985], [6.219088, 49.791058], [6.219114, 49.79119], [6.219137, 49.79133], [6.219152, 49.791523], [6.219389, 49.791523], [6.220026, 49.791435], [6.220224, 49.791367], [6.220682, 49.791298], [6.2209, 49.791264], [6.221228, 49.791214], [6.221338, 49.791496], [6.221323, 49.79189], [6.221487, 49.792625], [6.221727, 49.793335], [6.221731, 49.793434], [6.222208, 49.793846], [6.222338, 49.79393], [6.222864, 49.794243], [6.223558, 49.794525], [6.223696, 49.79457], [6.22452, 49.794853], [6.224443, 49.794968], [6.224375, 49.795074], [6.224749, 49.79509], [6.225161, 49.795135], [6.225378, 49.79517], [6.225409, 49.795185], [6.22545, 49.795223], [6.225512, 49.79526], [6.225557, 49.79528], [6.225607, 49.795288], [6.225664, 49.795284], [6.225752, 49.79528], [6.225809, 49.79528], [6.225866, 49.79529], [6.225908, 49.795307], [6.225962, 49.79535], [6.226019, 49.795383], [6.226072, 49.795406], [6.226198, 49.795444], [6.226305, 49.79547], [6.226385, 49.79548], [6.226446, 49.795475], [6.22661, 49.79545], [6.226664, 49.795452], [6.226698, 49.79546], [6.226748, 49.795486], [6.226816, 49.795506], [6.226889, 49.795513], [6.226999, 49.795517], [6.227106, 49.795506], [6.227198, 49.795506], [6.227243, 49.795513], [6.227308, 49.79553], [6.227446, 49.795563], [6.227552, 49.795578], [6.227606, 49.795578], [6.227739, 49.79556], [6.227861, 49.795547], [6.227953, 49.795544], [6.228083, 49.79556], [6.228258, 49.79559], [6.228422, 49.795612], [6.228483, 49.795635], [6.228579, 49.795677], [6.228685, 49.79572], [6.228785, 49.795765], [6.228838, 49.795776], [6.22962, 49.795994], [6.229937, 49.7961], [6.23004, 49.796127], [6.230299, 49.79618], [6.231134, 49.796417], [6.231615, 49.79655], [6.232126, 49.7963], [6.232443, 49.796143], [6.232382, 49.796036], [6.232317, 49.795883], [6.232275, 49.795753], [6.232237, 49.79558], [6.232222, 49.79544], [6.232229, 49.795288], [6.232245, 49.795147], [6.232294, 49.79497], [6.232359, 49.79482], [6.23242, 49.794712], [6.232492, 49.79461], [6.232576, 49.794506], [6.23266, 49.794415], [6.232775, 49.794304], [6.232939, 49.794167], [6.233087, 49.79405], [6.233335, 49.793877], [6.23353, 49.79375], [6.233664, 49.7938], [6.233847, 49.793865], [6.23414, 49.793533], [6.234858, 49.79272], [6.235578, 49.79184], [6.234747, 49.79141], [6.233969, 49.79101], [6.232157, 49.790077], [6.232107, 49.790054], [6.231539, 49.78977], [6.231447, 49.789722], [6.230906, 49.789433], [6.230749, 49.789352], [6.230623, 49.789284], [6.230257, 49.78909], [6.230001, 49.78895], [6.229502, 49.788696], [6.228823, 49.788353], [6.228704, 49.788292], [6.228293, 49.788086], [6.228197, 49.788036], [6.227838, 49.78785], [6.227362, 49.7876], [6.226667, 49.787235], [6.226168, 49.78697], [6.225935, 49.78652], [6.225901, 49.78645], [6.225733, 49.78612], [6.225714, 49.78612], [6.225176, 49.78619], [6.224203, 49.78631], [6.224062, 49.785805], [6.22405, 49.785748], [6.223902, 49.78525], [6.223898, 49.785233], [6.223886, 49.785194], [6.223837, 49.784985], [6.223696, 49.784416], [6.223658, 49.784252], [6.223585, 49.783962], [6.223581, 49.78394], [6.223581, 49.78392], [6.223535, 49.78359], [6.22357, 49.78347], [6.223635, 49.783226], [6.223681, 49.78313], [6.223776, 49.782936], [6.223803, 49.78289], [6.223909, 49.78272], [6.224016, 49.782543], [6.224012, 49.78246], [6.224012, 49.78244], [6.224005, 49.782337], [6.224001, 49.78223], [6.223997, 49.78217], [6.224001, 49.782097], [6.223978, 49.781986], [6.22397, 49.781956], [6.223963, 49.781902], [6.223948, 49.78184], [6.22394, 49.781803], [6.223932, 49.78177], [6.224058, 49.78175], [6.224134, 49.78174], [6.2241, 49.781143], [6.223856, 49.78076], [6.223711, 49.780544], [6.223429, 49.780148], [6.223024, 49.77946], [6.222979, 49.7794], [6.22275, 49.77897], [6.222723, 49.77891], [6.22267, 49.778824], [6.222628, 49.77875], [6.222529, 49.778637], [6.222437, 49.778564], [6.221972, 49.778187], [6.221823, 49.778057], [6.221605, 49.777897], [6.221395, 49.777752], [6.221174, 49.777603], [6.220983, 49.777477], [6.220808, 49.777378], [6.220675, 49.777298], [6.220583, 49.77724], [6.2204, 49.777126], [6.220392, 49.77711], [6.220377, 49.777084], [6.220358, 49.77706], [6.22035, 49.777035], [6.220354, 49.777008], [6.220365, 49.776985], [6.2204, 49.776955], [6.220446, 49.776913], [6.220446, 49.776894], [6.22043, 49.77684], [6.220404, 49.776768], [6.220404, 49.776665], [6.220415, 49.776596], [6.220438, 49.77653], [6.220491, 49.77644], [6.22048, 49.77634], [6.220777, 49.77607], [6.220915, 49.775944], [6.221254, 49.77589], [6.22151, 49.775852], [6.221682, 49.775826], [6.221838, 49.77583], [6.222071, 49.775826], [6.222185, 49.77583], [6.222506, 49.775978], [6.222467, 49.775894], [6.222517, 49.775887], [6.222677, 49.775597], [6.222662, 49.77555], [6.222727, 49.775505], [6.222811, 49.77544], [6.222864, 49.775436], [6.222998, 49.77542], [6.223036, 49.775402], [6.223051, 49.775383], [6.223047, 49.77535], [6.223021, 49.77531], [6.222998, 49.77527], [6.223375, 49.774895], [6.223448, 49.774723], [6.223494, 49.77453], [6.223524, 49.77431], [6.223482, 49.774006], [6.223368, 49.77399], [6.223211, 49.773804], [6.223043, 49.77359], [6.222761, 49.773254], [6.22275, 49.773212], [6.222708, 49.773167], [6.222601, 49.773098], [6.222506, 49.7729], [6.22262, 49.772873], [6.222555, 49.77272], [6.222506, 49.772564], [6.222529, 49.772385], [6.222559, 49.77209], [6.222612, 49.771828], [6.2227, 49.771603], [6.222834, 49.771442], [6.223036, 49.771263], [6.223322, 49.771088], [6.223638, 49.770958], [6.224035, 49.77085], [6.224218, 49.77081], [6.224775, 49.77078], [6.22521, 49.770714], [6.225649, 49.77063], [6.225897, 49.77056], [6.226587, 49.770344], [6.22687, 49.770252], [6.227228, 49.77007], [6.227194, 49.769993], [6.227175, 49.76996], [6.227182, 49.769936], [6.227285, 49.76988], [6.227339, 49.769825], [6.227362, 49.769775], [6.227358, 49.769703], [6.227346, 49.769657], [6.227293, 49.769596], [6.227243, 49.769543], [6.227243, 49.769505], [6.227263, 49.76945], [6.227312, 49.76941], [6.227495, 49.769283], [6.228086, 49.76884], [6.228376, 49.768635], [6.228388, 49.768597], [6.22838, 49.768494], [6.228392, 49.768448], [6.228418, 49.76841], [6.228586, 49.76824], [6.228685, 49.76817], [6.228792, 49.76807], [6.228853, 49.768017], [6.228956, 49.767868], [6.229032, 49.76769], [6.229094, 49.767506], [6.229116, 49.76748], [6.229162, 49.767456], [6.229219, 49.767452], [6.229364, 49.767498], [6.229441, 49.76753], [6.22946, 49.767536], [6.229498, 49.76744], [6.229559, 49.7673], [6.22959, 49.767204], [6.22959, 49.767124], [6.229578, 49.767082], [6.229567, 49.767002], [6.229555, 49.76691], [6.229551, 49.766834], [6.229547, 49.766785], [6.229517, 49.76674], [6.229444, 49.766655], [6.229338, 49.766582], [6.229185, 49.76652], [6.22912, 49.766453], [6.228998, 49.766254], [6.228937, 49.766132], [6.228868, 49.76601], [6.228849, 49.765923], [6.228857, 49.76582], [6.228849, 49.765774], [6.228811, 49.76573], [6.228769, 49.76568], [6.228754, 49.76563], [6.228754, 49.76557], [6.228765, 49.765545], [6.228701, 49.76551], [6.22862, 49.76548], [6.228472, 49.76546], [6.228472, 49.765434], [6.228453, 49.76536], [6.228353, 49.76531], [6.22822, 49.765263], [6.22809, 49.765186], [6.227995, 49.7651], [6.227888, 49.76498], [6.227854, 49.76488], [6.227823, 49.7648], [6.227789, 49.764744], [6.227705, 49.764694], [6.227514, 49.7646], [6.227438, 49.764576], [6.227289, 49.764553], [6.227121, 49.76454], [6.22698, 49.76452], [6.226889, 49.76449], [6.226778, 49.76442], [6.226713, 49.764362], [6.226683, 49.764286], [6.226709, 49.764187], [6.226671, 49.7641], [6.226606, 49.76403], [6.226545, 49.76401], [6.226458, 49.764004], [6.226397, 49.763973], [6.226336, 49.763866], [6.226305, 49.76378], [6.226294, 49.76369], [6.226286, 49.763603], [6.226259, 49.76351], [6.226206, 49.76345], [6.226026, 49.763325], [6.225893, 49.76321], [6.225779, 49.763115], [6.225729, 49.76302], [6.225706, 49.762897], [6.225672, 49.762848], [6.225573, 49.76278], [6.225412, 49.762676], [6.225103, 49.762463], [6.225008, 49.762356], [6.224981, 49.762287], [6.22497, 49.762215], [6.224985, 49.762146], [6.225016, 49.762077], [6.22502, 49.762035], [6.224962, 49.76197], [6.224832, 49.761864], [6.224695, 49.76173], [6.224596, 49.761677], [6.224485, 49.761654], [6.224382, 49.761635], [6.224222, 49.76156], [6.224066, 49.761463], [6.223776, 49.761284], [6.223642, 49.76121], [6.223558, 49.76119], [6.223433, 49.761173], [6.223349, 49.761173], [6.223291, 49.761143], [6.223257, 49.7611], [6.223234, 49.76101], [6.223223, 49.76094], [6.223173, 49.760864], [6.22307, 49.760788], [6.222952, 49.760723], [6.222788, 49.7607], [6.22265, 49.7607], [6.222582, 49.76069], [6.222513, 49.760647], [6.222128, 49.760296], [6.222044, 49.760265], [6.221949, 49.760242], [6.221846, 49.760204], [6.221781, 49.760147], [6.221766, 49.76008], [6.221777, 49.760017], [6.22183, 49.759968], [6.221891, 49.75993], [6.221922, 49.759872], [6.221941, 49.759815], [6.221945, 49.759766], [6.221933, 49.75973], [6.221884, 49.759678], [6.221712, 49.759556], [6.221651, 49.75951], [6.221628, 49.759464], [6.221647, 49.75941], [6.221662, 49.75936], [6.221548, 49.759205], [6.22143, 49.75913], [6.221395, 49.75908], [6.221235, 49.75888], [6.221029, 49.75865], [6.220938, 49.758602], [6.220873, 49.758583], [6.220739, 49.758583], [6.220549, 49.758617], [6.220465, 49.75861], [6.220381, 49.758575], [6.220243, 49.758465], [6.220209, 49.758373], [6.220175, 49.758354], [6.220083, 49.758347], [6.219999, 49.75833], [6.219931, 49.758274], [6.219778, 49.758213], [6.219732, 49.758152], [6.219648, 49.758087], [6.219564, 49.75806], [6.219389, 49.758053], [6.219328, 49.758068], [6.219286, 49.758095], [6.219282, 49.758137], [6.219275, 49.75817], [6.21924, 49.758198], [6.219152, 49.7582], [6.218824, 49.758095], [6.21874, 49.75809], [6.218656, 49.758118], [6.218546, 49.758186], [6.218443, 49.7582], [6.218199, 49.758152], [6.217821, 49.758064], [6.217443, 49.758003], [6.217337, 49.757965], [6.217173, 49.75785], [6.217077, 49.757767], [6.216993, 49.757576], [6.216913, 49.7575], [6.216723, 49.757446], [6.216608, 49.757397], [6.216581, 49.757397], [6.216517, 49.757435], [6.216471, 49.757484], [6.216444, 49.75756], [6.216398, 49.75762], [6.216352, 49.757656], [6.216291, 49.757664], [6.216208, 49.757656], [6.216131, 49.757633], [6.216024, 49.7576], [6.215994, 49.757584], [6.215986, 49.757538], [6.216066, 49.75747], [6.216124, 49.757385], [6.216074, 49.757286], [6.216009, 49.75724], [6.215811, 49.757195], [6.215719, 49.757164], [6.215658, 49.75716], [6.21562, 49.757183], [6.215601, 49.7573], [6.215582, 49.757343], [6.215509, 49.75738], [6.215219, 49.757416], [6.215025, 49.75747], [6.214937, 49.757473], [6.214727, 49.757442], [6.214411, 49.7574], [6.213694, 49.75734], [6.213312, 49.757286], [6.212954, 49.757256], [6.212641, 49.757244], [6.212076, 49.757244], [6.211534, 49.757256], [6.211092, 49.75727], [6.210638, 49.757298], [6.210478, 49.757282], [6.210241, 49.757236], [6.209959, 49.75716], [6.20989, 49.757133], [6.209822, 49.757107], [6.209806, 49.757114], [6.209665, 49.75717], [6.209555, 49.757225], [6.209513, 49.757248], [6.208902, 49.757553], [6.208372, 49.75782], [6.208197, 49.757896], [6.20788, 49.758022], [6.20754, 49.758156], [6.207167, 49.758293], [6.206896, 49.75839], [6.206755, 49.75842], [6.206823, 49.758675], [6.206953, 49.759148], [6.207018, 49.759335], [6.20706, 49.75944], [6.206671, 49.759594], [6.206579, 49.759605], [6.206034, 49.759686], [6.205965, 49.759705], [6.205862, 49.75973], [6.205702, 49.759777], [6.205652, 49.759785], [6.205267, 49.759834], [6.204981, 49.759876], [6.204222, 49.75997], [6.204153, 49.76016], [6.204145, 49.760178], [6.203981, 49.760593], [6.203966, 49.760628], [6.203726, 49.760616], [6.202898, 49.76061], [6.202612, 49.760612], [6.201929, 49.760643], [6.201403, 49.760677], [6.201159, 49.76073], [6.200952, 49.760773], [6.200178, 49.760868], [6.199419, 49.760918], [6.198484, 49.760967], [6.198164, 49.76099], [6.197996, 49.761017], [6.197325, 49.76118], [6.197092, 49.761246], [6.196383, 49.76129], [6.194563, 49.76147], [6.194147, 49.761497], [6.192652, 49.761543], [6.191976, 49.761528], [6.190065, 49.761513], [6.18857, 49.761456], [6.187082, 49.761448], [6.185873, 49.761448], [6.185858, 49.761414], [6.185701, 49.760773], [6.185507, 49.760006], [6.185495, 49.759975], [6.185446, 49.759975], [6.184828, 49.7597], [6.184645, 49.759617], [6.184469, 49.759525], [6.184214, 49.759323], [6.184183, 49.75904], [6.184153, 49.75904], [6.182783, 49.75914], [6.182638, 49.759323], [6.182241, 49.759804], [6.182035, 49.76006], [6.18189, 49.760227], [6.181875, 49.760242], [6.181837, 49.76029], [6.18133, 49.76087], [6.18128, 49.760925], [6.181108, 49.760803], [6.180773, 49.7609], [6.180334, 49.76101], [6.179606, 49.761196], [6.179636, 49.76136], [6.179666, 49.76149], [6.17967, 49.76151], [6.17975, 49.761856], [6.179766, 49.761932], [6.179769, 49.76196], [6.178881, 49.761993], [6.178801, 49.76199], [6.17869, 49.761974], [6.178457, 49.761932], [6.178148, 49.76188], [6.175692, 49.76154], [6.17568, 49.761578], [6.175562, 49.76191], [6.175363, 49.762417], [6.174997, 49.763348], [6.175165, 49.763386], [6.175654, 49.76348], [6.175508, 49.764], [6.174837, 49.763912], [6.174429, 49.764584], [6.174337, 49.764744], [6.174158, 49.76502], [6.174108, 49.765095], [6.174036, 49.7652], [6.173952, 49.765327], [6.173933, 49.765358], [6.173796, 49.765575], [6.173727, 49.765686], [6.173704, 49.76572], [6.173506, 49.76604], [6.173456, 49.766125], [6.172339, 49.766346], [6.172072, 49.766514], [6.172403, 49.76677], [6.172712, 49.767014], [6.173418, 49.767456], [6.173197, 49.767612], [6.173037, 49.767723], [6.172888, 49.767822], [6.172789, 49.767876], [6.172705, 49.767914], [6.172586, 49.767956], [6.172472, 49.767994], [6.172419, 49.768013], [6.172228, 49.76807], [6.172052, 49.768124], [6.171896, 49.768173], [6.171717, 49.76823], [6.171621, 49.768265], [6.171587, 49.768276], [6.171526, 49.768307], [6.171297, 49.768436], [6.171141, 49.768215], [6.170874, 49.76825], [6.170988, 49.76919], [6.170759, 49.7692], [6.170481, 49.769207], [6.170446, 49.770126], [6.169825, 49.77007], [6.169474, 49.77054], [6.169405, 49.770634], [6.169271, 49.770824], [6.169111, 49.77104], [6.169023, 49.771156], [6.168852, 49.77141], [6.168711, 49.771595], [6.168512, 49.771828], [6.168375, 49.77198], [6.168325, 49.772053], [6.168192, 49.772243], [6.168043, 49.77243], [6.168005, 49.77248], [6.167932, 49.77257], [6.167761, 49.772785], [6.167646, 49.772923], [6.167547, 49.773052], [6.167513, 49.773094], [6.167406, 49.77322], [6.167307, 49.773323], [6.167868, 49.773586], [6.167704, 49.773754], [6.167654, 49.773808], [6.166887, 49.774574], [6.166861, 49.774597], [6.165407, 49.77444], [6.164885, 49.774384], [6.164682, 49.77437], [6.164576, 49.774384], [6.164492, 49.774406], [6.164434, 49.77445], [6.164156, 49.77475], [6.163328, 49.7745], [6.162832, 49.774357], [6.162394, 49.77424], [6.162149, 49.774193], [6.16192, 49.774162], [6.161825, 49.774136], [6.161684, 49.77408], [6.161272, 49.77389], [6.160452, 49.77349], [6.15967, 49.77309], [6.159643, 49.773113], [6.159514, 49.7732], [6.159223, 49.7734], [6.159936, 49.773903], [6.159605, 49.77411], [6.15945, 49.774204], [6.158802, 49.77463], [6.15824, 49.775], [6.15805, 49.775124]]]]}}]}