{"type": "FeatureCollection", "features": [{"type": "Feature", "properties": {"name": "Sicona Ouest", "kind": "nature_reserve"}, "geometry": {"type": "Polygon", "coordinates": [[[6.0335474, 49.5882531], [6.0329171, 49.5886261], [6.0329895, 49.5886974], [6.0325415, 49.5889278], [6.0319193, 49.5891591], [6.0320856, 49.5893694], [6.0325695, 49.589661], [6.0329742, 49.5892753], [6.0331198, 49.5891565], [6.0333263, 49.5890522], [6.0333756, 49.5890476], [6.0336681, 49.5885844], [6.0337056, 49.5884792], [6.0336801, 49.5883618], [6.0335474, 49.5882531]]]}}]}