{"type": "FeatureCollection", "features": [{"type": "Feature", "properties": {"name": "Belair"}, "geometry": {"type": "Polygon", "coordinates": [[[6.0916576, 49.6133224], [6.0916662, 49.613343], [6.0916727, 49.6133517], [6.091878, 49.613627], [6.0918858, 49.6136373], [6.0921784, 49.614027], [6.0922863, 49.6141707], [6.0923685, 49.6142796], [6.0924867, 49.6144364], [6.0926728, 49.6146834], [6.0929035, 49.6149894], [6.0930285, 49.6151552], [6.0930771, 49.6152189], [6.0932508, 49.615447], [6.0932621, 49.6154621], [6.0932922, 49.6155022], [6.0950586, 49.6151847], [6.095068, 49.6152063], [6.0950756, 49.6152239], [6.0951092, 49.6152916], [6.0952756, 49.6156261], [6.0954772, 49.6160477], [6.0956624, 49.6164467], [6.095739, 49.6166254], [6.0958025, 49.6167736], [6.0958264, 49.616834], [6.0958981, 49.6168859], [6.0959042, 49.616893], [6.0960795, 49.6171274], [6.0961421, 49.6172092], [6.0976451, 49.6170165], [6.0979853, 49.6170989], [6.1019966, 49.6165122], [6.1021105, 49.6167527], [6.1051611, 49.6163664], [6.1051812, 49.6166134], [6.1062531, 49.6164775], [6.1062111, 49.6157663], [6.1069055, 49.6156883], [6.1069104, 49.6157193], [6.1073969, 49.6156761], [6.1073239, 49.6154655], [6.1075115, 49.6154382], [6.1075686, 49.6154299], [6.1077296, 49.6154032], [6.1076969, 49.6152514], [6.107685, 49.6152242], [6.1077671, 49.6152145], [6.108045, 49.6151807], [6.1081419, 49.6154453], [6.108475, 49.6163547], [6.1113137, 49.6159583], [6.1110908, 49.6152092], [6.1128394, 49.61497], [6.1128866, 49.615122], [6.1133669, 49.6152312], [6.11346, 49.6154191], [6.1148469, 49.6152814], [6.1152967, 49.6150386], [6.1151309, 49.6144739], [6.1168239, 49.614199], [6.1173515, 49.6141439], [6.1180159, 49.6140847], [6.1190704, 49.6135606], [6.1191822, 49.6138061], [6.11965, 49.6136432], [6.1197423, 49.6134359], [6.1197771, 49.6133873], [6.119886, 49.6132673], [6.1198022, 49.6131794], [6.1191812, 49.6125731], [6.118881, 49.6122139], [6.1186481, 49.6119698], [6.1184225, 49.6117333], [6.1183469, 49.6116188], [6.1182998, 49.6115148], [6.1182815, 49.6114133], [6.1182963, 49.6112287], [6.1183845, 49.611045], [6.1193521, 49.6096365], [6.1193897, 49.6095252], [6.1199834, 49.6077464], [6.1198457, 49.605938], [6.1186147, 49.6060483], [6.1186484, 49.606179], [6.1185133, 49.6062056], [6.1185061, 49.6063369], [6.1179053, 49.6064167], [6.1178787, 49.6063537], [6.1175603, 49.6063823], [6.1175168, 49.6061759], [6.1163105, 49.6063682], [6.1163997, 49.606734], [6.1159654, 49.60682], [6.1159196, 49.6067544], [6.1150341, 49.6069295], [6.1151161, 49.6071734], [6.1146384, 49.6072672], [6.1142061, 49.6069568], [6.1137327, 49.6070476], [6.1136904, 49.606927], [6.1126725, 49.6071873], [6.1130025, 49.6073403], [6.1120529, 49.6075391], [6.1117468, 49.6074643], [6.1117157, 49.6073763], [6.111542, 49.607405], [6.111542, 49.6074115], [6.111253, 49.607328], [6.1103601, 49.60707], [6.110166, 49.6069544], [6.1099178, 49.6073222], [6.1098687, 49.6073932], [6.1095035, 49.6072871], [6.1094389, 49.6072684], [6.1092875, 49.6072244], [6.1093788, 49.6071168], [6.109405, 49.607086], [6.1094265, 49.6070606], [6.1096122, 49.6068418], [6.1086816, 49.6066039], [6.1086067, 49.6066971], [6.1079227, 49.6065252], [6.1081073, 49.6062826], [6.107857, 49.6062603], [6.1073154, 49.6063784], [6.1071928, 49.6062839], [6.1070793, 49.606349], [6.1064897, 49.6061984], [6.105945, 49.6064152], [6.1058431, 49.6064783], [6.1056578, 49.6065328], [6.105603, 49.6065527], [6.1054765, 49.6065984], [6.1053851, 49.6066315], [6.1050646, 49.6066025], [6.1049553, 49.6065926], [6.1049168, 49.6065048], [6.1048854, 49.6064919], [6.1047432, 49.6064844], [6.1047283, 49.6065744], [6.1047597, 49.6066151], [6.1046124, 49.606666], [6.1043598, 49.6068841], [6.1042502, 49.6069692], [6.1042304, 49.6069804], [6.1041578, 49.6070181], [6.1041373, 49.6070281], [6.1038948, 49.607168], [6.1038392, 49.6071981], [6.1037706, 49.6072398], [6.1037286, 49.6072644], [6.1036443, 49.6073175], [6.1036117, 49.6073362], [6.1035711, 49.6073602], [6.1033765, 49.6074733], [6.1031604, 49.6073705], [6.1029437, 49.607574], [6.102625, 49.6075253], [6.1027587, 49.6071113], [6.1019346, 49.6070122], [6.1018752, 49.6071043], [6.1018414, 49.6072001], [6.1018129, 49.6073412], [6.1017976, 49.6074163], [6.1010558, 49.6073636], [6.1012179, 49.6066289], [6.1015033, 49.6066915], [6.1017901, 49.606781], [6.1018011, 49.6062363], [6.0986014, 49.6059491], [6.0985621, 49.6057463], [6.098509, 49.6057553], [6.0983452, 49.6057707], [6.0980631, 49.6057971], [6.0981441, 49.6060286], [6.098312, 49.6065531], [6.0983374, 49.606862], [6.0982724, 49.6071273], [6.0982444, 49.6072075], [6.0974793, 49.6094008], [6.0974611, 49.6094559], [6.0974361, 49.6095422], [6.097426, 49.609591], [6.0974243, 49.6096582], [6.0974135, 49.6097479], [6.0974174, 49.6097878], [6.0974334, 49.6099794], [6.0974402, 49.6100654], [6.0974602, 49.610318], [6.0974893, 49.6105343], [6.0975286, 49.6108313], [6.0975602, 49.6115502], [6.097572, 49.611917], [6.0975779, 49.6121549], [6.0975818, 49.612284], [6.0975839, 49.6123577], [6.0974232, 49.6123587], [6.097353, 49.6123592], [6.0971024, 49.612362], [6.0969018, 49.6123636], [6.0965977, 49.6123652], [6.0964178, 49.6123703], [6.096292, 49.612373], [6.0962253, 49.6123745], [6.0959206, 49.6123905], [6.0957063, 49.612406], [6.0956137, 49.6124127], [6.0954772, 49.6124308], [6.0951499, 49.6124741], [6.0946825, 49.6125687], [6.0945814, 49.6125961], [6.094435, 49.6126358], [6.0941772, 49.6127021], [6.0936745, 49.6128289], [6.0935458, 49.6128619], [6.0921446, 49.6132178], [6.092097, 49.6132279], [6.0919979, 49.613244], [6.0918726, 49.6132632], [6.0916748, 49.6132864], [6.0916576, 49.6133224]]]}}]}