{"type": "FeatureCollection", "features": [{"type": "Feature", "properties": {"name": "Bonnevoie"}, "geometry": {"type": "Polygon", "coordinates": [[[6.1676658, 49.6055087], [6.1676418, 49.605475], [6.1676178, 49.6054391], [6.1675934, 49.6054024], [6.1675227, 49.6052965], [6.1674648, 49.6052098], [6.1673552, 49.6051025], [6.1673159, 49.6050756], [6.1672621, 49.6050399], [6.1670656, 49.6049427], [6.1670503, 49.6049327], [6.1669152, 49.6048446], [6.1668996, 49.604832], [6.1668126, 49.6047694], [6.1667498, 49.6047242], [6.1665693, 49.6045943], [6.1664411, 49.6045138], [6.166317, 49.6044436], [6.166095, 49.6043267], [6.1660202, 49.6042873], [6.1659125, 49.6042331], [6.1658517, 49.6042025], [6.1656577, 49.6041049], [6.1656402, 49.6040961], [6.1654515, 49.6040011], [6.1652978, 49.6039226], [6.1652103, 49.6038779], [6.1649844, 49.6037549], [6.1649342, 49.6037276], [6.164771, 49.6036387], [6.1646472, 49.6035713], [6.1646071, 49.6035494], [6.1643468, 49.6034076], [6.1639827, 49.6033523], [6.1638873, 49.6033378], [6.1637434, 49.6033159], [6.1634946, 49.6032781], [6.1636385, 49.6030625], [6.16365, 49.6030164], [6.1636576, 49.6029858], [6.1635295, 49.6029264], [6.1633037, 49.6028217], [6.1632687, 49.6028054], [6.1631421, 49.6027467], [6.1630224, 49.6026912], [6.1629506, 49.6026579], [6.1628989, 49.6026327], [6.1628573, 49.6026113], [6.1625519, 49.602454], [6.1625362, 49.6024459], [6.1623426, 49.6023462], [6.1622183, 49.6022823], [6.1621707, 49.6022577], [6.1621437, 49.6022437], [6.1621012, 49.6022217], [6.1620082, 49.6021737], [6.1619887, 49.6021636], [6.1619214, 49.6021288], [6.1618874, 49.6021112], [6.1618125, 49.6020725], [6.1617592, 49.602045], [6.1615119, 49.6019172], [6.1615535, 49.6018556], [6.1614435, 49.6017976], [6.1613804, 49.6017642], [6.1613385, 49.6017403], [6.1612693, 49.6017008], [6.1611291, 49.6016207], [6.1610993, 49.6016009], [6.1608984, 49.6014673], [6.1607751, 49.6013806], [6.1607146, 49.6014071], [6.1606423, 49.6013482], [6.1602357, 49.601017], [6.1595903, 49.6004521], [6.1595701, 49.6004353], [6.1592874, 49.6001938], [6.1590339, 49.5999735], [6.1589059, 49.5998622], [6.1588164, 49.5997835], [6.1587922, 49.5997615], [6.1586135, 49.5995992], [6.1584601, 49.5994599], [6.1582556, 49.5992742], [6.158214, 49.5992364], [6.1579235, 49.5989725], [6.1577499, 49.5988148], [6.157444, 49.5985578], [6.1569631, 49.598162], [6.1559196, 49.5973142], [6.1558976, 49.5973249], [6.1556132, 49.5971148], [6.1553275, 49.5969036], [6.1550768, 49.5967187], [6.1546997, 49.5963681], [6.154532, 49.596191], [6.153899, 49.5957503], [6.1536286, 49.5955198], [6.1535295, 49.5954351], [6.1534804, 49.5953435], [6.1534395, 49.5953199], [6.1532961, 49.5952397], [6.1531188, 49.5951264], [6.1532697, 49.5947349], [6.1533987, 49.5944285], [6.15357, 49.5940468], [6.1537086, 49.5937502], [6.1537259, 49.593722], [6.1534909, 49.59355], [6.1531796, 49.5933755], [6.152781, 49.5931752], [6.1525706, 49.5930679], [6.1523919, 49.5929673], [6.1520937, 49.592795], [6.1516627, 49.5925266], [6.1514207, 49.5923743], [6.1510873, 49.5921525], [6.150941, 49.5920738], [6.1508228, 49.5920304], [6.1506935, 49.5919988], [6.150478, 49.5919603], [6.1501638, 49.59192], [6.1499755, 49.5919072], [6.1496626, 49.5919042], [6.1489801, 49.5918971], [6.1490082, 49.5918776], [6.1491744, 49.5917688], [6.1496539, 49.5914547], [6.1503894, 49.5909624], [6.150272, 49.5908954], [6.1502326, 49.5908729], [6.1501501, 49.5908259], [6.1500511, 49.5908871], [6.1498402, 49.5907639], [6.1497184, 49.5906928], [6.1496112, 49.5906302], [6.1494756, 49.590551], [6.1493343, 49.5904684], [6.1492894, 49.5904417], [6.1491073, 49.5903332], [6.1490689, 49.5903104], [6.1489982, 49.5902683], [6.1484794, 49.5899593], [6.1473724, 49.5893312], [6.1472857, 49.5892747], [6.1468819, 49.5890361], [6.1467872, 49.5889803], [6.1466753, 49.5889142], [6.146601, 49.5888703], [6.1464524, 49.5887825], [6.1463404, 49.5888644], [6.1460553, 49.5890679], [6.1459751, 49.5891285], [6.145966, 49.5891353], [6.1458709, 49.5892069], [6.1458451, 49.5892239], [6.1457826, 49.589265], [6.1457358, 49.5892961], [6.1456961, 49.5893222], [6.1456423, 49.5893633], [6.1456107, 49.589401], [6.1455518, 49.5894674], [6.1453743, 49.5895876], [6.1452905, 49.5896443], [6.1452397, 49.5896787], [6.1450865, 49.5897673], [6.1449459, 49.5898485], [6.1448144, 49.589768], [6.1447872, 49.5897514], [6.1447348, 49.5897204], [6.1446517, 49.5896723], [6.1445684, 49.5896256], [6.1445142, 49.5895952], [6.1444526, 49.5895606], [6.1444077, 49.5895354], [6.144347, 49.5895014], [6.1442864, 49.5894673], [6.1442411, 49.5894418], [6.1441265, 49.5893774], [6.1439957, 49.5893037], [6.1438092, 49.5891988], [6.1437222, 49.5891499], [6.1436636, 49.5891172], [6.1434924, 49.5890216], [6.1433591, 49.5889523], [6.1432966, 49.5889198], [6.143052, 49.5888042], [6.1428112, 49.5887031], [6.142802, 49.5887007], [6.1427649, 49.5886869], [6.1426824, 49.5886581], [6.1425647, 49.5886169], [6.142475, 49.5885855], [6.1423165, 49.5885301], [6.1422304, 49.5885103], [6.1419126, 49.5890641], [6.141274, 49.5888842], [6.1399315, 49.588384], [6.1389937, 49.5880569], [6.1386548, 49.5878713], [6.1377254, 49.5873434], [6.1374141, 49.5872169], [6.1366776, 49.5869035], [6.1360846, 49.5865759], [6.1358232, 49.5864308], [6.1354322, 49.5862401], [6.1351559, 49.5861046], [6.1352182, 49.5868553], [6.1348767, 49.5878548], [6.1333613, 49.5902239], [6.1325617, 49.5914387], [6.1322207, 49.5927793], [6.1320273, 49.5945206], [6.1320675, 49.5951127], [6.1322672, 49.5956081], [6.1332707, 49.5953657], [6.1332909, 49.5954873], [6.1333196, 49.5956114], [6.1335216, 49.5966272], [6.1339109, 49.597189], [6.1349199, 49.5982173], [6.135629, 49.5986169], [6.1364553, 49.6001182], [6.136655, 49.6000788], [6.1367597, 49.5995837], [6.1369164, 49.5996053], [6.1370251, 49.5994625], [6.1375433, 49.5995298], [6.1377237, 49.5992205], [6.1380704, 49.5992667], [6.1380728, 49.5994052], [6.1383316, 49.599436], [6.1391139, 49.5989403], [6.1392837, 49.5988327], [6.140357, 49.5988589], [6.1403475, 49.5989789], [6.140649, 49.5989589], [6.1406513, 49.5989417], [6.1406566, 49.5988692], [6.140668, 49.5988373], [6.1409862, 49.598845], [6.1410157, 49.598587], [6.1415347, 49.5986394], [6.1417947, 49.5991116], [6.141812, 49.5991299], [6.1418268, 49.5991456], [6.1418932, 49.5992161], [6.1425073, 49.5998678], [6.143362, 49.6004961], [6.1432276, 49.6005839], [6.1438262, 49.601063], [6.1445782, 49.6011739], [6.1451463, 49.6015443], [6.1449924, 49.601895], [6.1451455, 49.6020361], [6.1445972, 49.6023461], [6.1444006, 49.6025804], [6.1442983, 49.6028254], [6.1447962, 49.6029294], [6.144721, 49.6034201], [6.1450403, 49.603784], [6.1455178, 49.6040447], [6.14555, 49.6039906], [6.1462642, 49.604104], [6.1468217, 49.6041142], [6.1476105, 49.6040508], [6.1486877, 49.6040281], [6.1485463, 49.6036764], [6.1498314, 49.6024941], [6.1490302, 49.6019379], [6.1480984, 49.6013861], [6.1473219, 49.6010425], [6.1469578, 49.6009765], [6.1466365, 49.601223], [6.1461224, 49.6009765], [6.1456779, 49.6013715], [6.1455815, 49.6012681], [6.1459885, 49.6007856], [6.1465597, 49.6006125], [6.147791, 49.6006401], [6.150112, 49.601459], [6.1533064, 49.6023286], [6.156495, 49.6028561], [6.1588088, 49.6036489], [6.1596148, 49.6040856], [6.1601905, 49.6047179], [6.1609904, 49.6073002], [6.1614805, 49.6076783], [6.1617235, 49.6080528], [6.1619401, 49.6083193], [6.1624063, 49.6083477], [6.1627647, 49.608244], [6.1632727, 49.6079942], [6.1638187, 49.6076453], [6.1645641, 49.606969], [6.1649088, 49.6066082], [6.1661928, 49.6059775], [6.1676658, 49.6055087]]]}}]}