{"type": "FeatureCollection", "features": [{"type": "Feature", "properties": {"name": "Cents"}, "geometry": {"type": "Polygon", "coordinates": [[[6.1854299, 49.6214502], [6.1847476, 49.6213835], [6.1846111, 49.6212598], [6.1836949, 49.6202419], [6.1834475, 49.6198417], [6.1825126, 49.6183295], [6.1819863, 49.6183196], [6.1815439, 49.6182998], [6.1807124, 49.6182405], [6.1801938, 49.6181713], [6.1798352, 49.6180379], [6.177852, 49.6179341], [6.176868, 49.6177364], [6.1760518, 49.6176129], [6.1752357, 49.6175042], [6.1743203, 49.6174152], [6.1735423, 49.6173905], [6.1729168, 49.6172917], [6.1726346, 49.6160809], [6.1719557, 49.6161649], [6.1719557, 49.6160018], [6.1698504, 49.6159968], [6.1692478, 49.6159524], [6.1685994, 49.6158733], [6.168096, 49.6157992], [6.1675773, 49.6157102], [6.1670739, 49.6156015], [6.1666772, 49.6155076], [6.1662043, 49.6153395], [6.1657619, 49.6151567], [6.164961, 49.6148799], [6.1643584, 49.6146723], [6.1637405, 49.6144845], [6.1620853, 49.6140397], [6.1615284, 49.6137926], [6.1594537, 49.6131155], [6.1576373, 49.6123935], [6.1567586, 49.6121523], [6.1548913, 49.6116699], [6.1536708, 49.6113733], [6.1526884, 49.6111005], [6.1517059, 49.6107486], [6.1509553, 49.6104955], [6.1500156, 49.6102504], [6.1491429, 49.6101317], [6.1482703, 49.6100922], [6.1480567, 49.6101634], [6.1481117, 49.6103018], [6.1482276, 49.610543], [6.1479657, 49.6105426], [6.1478311, 49.6104554], [6.1475535, 49.61045], [6.1471667, 49.6105917], [6.1468629, 49.6106425], [6.1467966, 49.6105917], [6.1466048, 49.6104244], [6.1457706, 49.6105099], [6.1454342, 49.6105099], [6.1448539, 49.6103792], [6.1449043, 49.6103083], [6.144938, 49.6097797], [6.1444165, 49.6098832], [6.1435923, 49.6098832], [6.1434325, 49.6107661], [6.1432307, 49.6113928], [6.1456865, 49.6124718], [6.1458631, 49.6123519], [6.1465735, 49.6125565], [6.1466116, 49.612777], [6.1470153, 49.6128642], [6.1469816, 49.6133982], [6.1479741, 49.6137252], [6.1476376, 49.6145916], [6.1470826, 49.6149785], [6.1470658, 49.6152291], [6.1474698, 49.6153557], [6.1483414, 49.6157374], [6.148617, 49.6157441], [6.1495471, 49.6159941], [6.1506901, 49.6161363], [6.1510992, 49.616241], [6.1524018, 49.6167432], [6.152687, 49.6165548], [6.1533545, 49.6167432], [6.1541242, 49.6169419], [6.1551738, 49.6173569], [6.1556098, 49.6175313], [6.1564656, 49.6179916], [6.1573214, 49.6182741], [6.1580965, 49.618567], [6.1591623, 49.6191633], [6.1596844, 49.619397], [6.160368, 49.619648], [6.1610139, 49.6199514], [6.1613099, 49.6198852], [6.1621173, 49.6201293], [6.1632907, 49.6205198], [6.1635868, 49.6204954], [6.1641304, 49.6205338], [6.1643888, 49.6202757], [6.1649862, 49.6204291], [6.1653684, 49.6206105], [6.1658313, 49.6206384], [6.1659992, 49.6207181], [6.1664557, 49.6209348], [6.1671393, 49.6213497], [6.1673922, 49.6213741], [6.1680974, 49.6217786], [6.1690285, 49.6221692], [6.1697552, 49.6224377], [6.1703365, 49.6227375], [6.1708478, 49.6229468], [6.1712838, 49.6230723], [6.1716821, 49.6231455], [6.1720239, 49.6232318], [6.1724868, 49.6232144], [6.1731058, 49.6231063], [6.1737275, 49.6229494], [6.1744407, 49.6227785], [6.1749722, 49.6226486], [6.1757043, 49.6226164], [6.1763435, 49.6225998], [6.1773863, 49.6226207], [6.1781237, 49.6228387], [6.1787583, 49.6228106], [6.1793235, 49.6226295], [6.1796669, 49.6225395], [6.1800031, 49.6225044], [6.1811224, 49.6223922], [6.1819451, 49.6223114], [6.1828634, 49.6222382], [6.1843269, 49.622108], [6.1847723, 49.6219368], [6.1849, 49.6219457], [6.1852161, 49.6220364], [6.1855464, 49.6221179], [6.1862695, 49.6222121], [6.1868489, 49.6222527], [6.186858, 49.6223484], [6.1870938, 49.6223291], [6.1871193, 49.6221178], [6.1872325, 49.6218939], [6.1854299, 49.6214502]]]}}]}