{"type": "FeatureCollection", "features": [{"type": "Feature", "properties": {"name": "Clausen"}, "geometry": {"type": "Polygon", "coordinates": [[[6.1432307, 49.6113928], [6.142189, 49.6110928], [6.1417139, 49.6111498], [6.1409045, 49.6109674], [6.1400775, 49.6108192], [6.1385114, 49.6106367], [6.1380659, 49.6106025], [6.1376884, 49.6112021], [6.1375441, 49.611198], [6.137197, 49.6116741], [6.1361809, 49.6113646], [6.1360877, 49.6114634], [6.136074, 49.6116917], [6.1360384, 49.6117837], [6.1364012, 49.6118683], [6.1364875, 49.6119803], [6.1369916, 49.6119794], [6.1376134, 49.6121388], [6.1382813, 49.6122266], [6.1392824, 49.6125151], [6.1395073, 49.6126187], [6.1391529, 49.6128961], [6.1387581, 49.613148], [6.138444, 49.6133327], [6.1380609, 49.6135207], [6.1376904, 49.6137083], [6.1371666, 49.613947], [6.1375339, 49.6141546], [6.1383592, 49.6142439], [6.1386205, 49.6146759], [6.1384043, 49.6149269], [6.1386566, 49.6152597], [6.1389539, 49.6152888], [6.1389989, 49.6154756], [6.1392692, 49.6155048], [6.1402443, 49.6159054], [6.1402979, 49.6159889], [6.1403047, 49.6160375], [6.140365, 49.6161114], [6.1404696, 49.6161322], [6.1405554, 49.6161096], [6.140703, 49.6161079], [6.1408009, 49.616134], [6.1408716, 49.6162143], [6.1410747, 49.6161861], [6.1412963, 49.6162461], [6.141293, 49.6162834], [6.1412247, 49.6162982], [6.1411549, 49.6163034], [6.1410986, 49.6163442], [6.1412892, 49.6164922], [6.141771, 49.6164784], [6.1418323, 49.6166821], [6.1421742, 49.6166918], [6.1425576, 49.6167598], [6.1432964, 49.6171684], [6.1445577, 49.6176762], [6.147015, 49.6184948], [6.1471957, 49.6182819], [6.145898, 49.6174838], [6.1452857, 49.6169464], [6.144896, 49.6164834], [6.1445018, 49.6163557], [6.1445018, 49.6157384], [6.144729, 49.6156101], [6.1451424, 49.6153765], [6.1456024, 49.6153872], [6.1457958, 49.6156215], [6.1459724, 49.6156269], [6.1459976, 49.6158231], [6.1463593, 49.6158885], [6.1465611, 49.615883], [6.1467528, 49.6152701], [6.1470658, 49.6152291], [6.1470826, 49.6149785], [6.1476376, 49.6145916], [6.1479741, 49.6137252], [6.1469816, 49.6133982], [6.1470153, 49.6128642], [6.1466116, 49.612777], [6.1465735, 49.6125565], [6.1458631, 49.6123519], [6.1456865, 49.6124718], [6.1432307, 49.6113928]]]}}]}