{"type": "FeatureCollection", "features": [{"type": "Feature", "properties": {"name": "Dommeldange"}, "geometry": {"type": "Polygon", "coordinates": [[[6.1484262, 49.6372445], [6.1483541, 49.6373231], [6.1477816, 49.6373535], [6.1466864, 49.6369244], [6.146416, 49.6369157], [6.1453344, 49.6362852], [6.1419949, 49.6342275], [6.1422382, 49.6339297], [6.1393855, 49.6325199], [6.139088, 49.6327213], [6.1382768, 49.6322572], [6.1373709, 49.6315304], [6.1373574, 49.6313114], [6.136456, 49.6307934], [6.1357339, 49.6299813], [6.1352014, 49.6302561], [6.1356052, 49.6306845], [6.1359666, 49.6313411], [6.1362371, 49.6318151], [6.1365464, 49.6322529], [6.1365874, 49.6326161], [6.1363397, 49.633035], [6.1359959, 49.6334724], [6.1356684, 49.6339257], [6.1354413, 49.6344666], [6.1354269, 49.6349132], [6.1349101, 49.6355674], [6.1353497, 49.635692], [6.1357778, 49.6358363], [6.1358784, 49.6375013], [6.136206, 49.6412003], [6.1362247, 49.6413891], [6.1363371, 49.6426409], [6.1392896, 49.6426162], [6.1392684, 49.64411], [6.1394134, 49.6441077], [6.1395381, 49.6441625], [6.1397431, 49.6442173], [6.1406163, 49.6444625], [6.1402866, 49.6447193], [6.1399035, 49.6450799], [6.1395235, 49.6450572], [6.1395142, 49.6451905], [6.139296, 49.6451791], [6.139082, 49.6458276], [6.1390541, 49.6463829], [6.1392602, 49.6467579], [6.138642, 49.6467688], [6.1386977, 49.6474971], [6.1392101, 49.6474899], [6.1391488, 49.6478325], [6.1390876, 49.6483337], [6.1394384, 49.6489106], [6.139082, 49.6489322], [6.1387813, 49.6489971], [6.1387311, 49.6497724], [6.13862, 49.6502695], [6.1387407, 49.6504881], [6.1389718, 49.6505697], [6.1397925, 49.6508557], [6.1399909, 49.6506365], [6.1402579, 49.6504867], [6.1404856, 49.6502607], [6.1405795, 49.6501845], [6.1406716, 49.6501174], [6.1409969, 49.6499428], [6.1414231, 49.6497527], [6.1416928, 49.6496454], [6.142265, 49.6494101], [6.1423889, 49.6493975], [6.1425092, 49.649417], [6.1426263, 49.6494424], [6.1427545, 49.6494656], [6.1429277, 49.649504], [6.1430927, 49.6495352], [6.1432358, 49.6495588], [6.1436773, 49.6496171], [6.1435189, 49.6494623], [6.1434263, 49.6493681], [6.143309, 49.6492158], [6.1440683, 49.649389], [6.1443326, 49.6494396], [6.1447622, 49.6495192], [6.1451538, 49.6495865], [6.145599, 49.6496706], [6.1463487, 49.6498201], [6.1466357, 49.6498794], [6.1473082, 49.6500853], [6.1474842, 49.6501196], [6.1483161, 49.650288], [6.1484978, 49.6503278], [6.1490169, 49.6504312], [6.1495582, 49.6505456], [6.1499398, 49.6506379], [6.1502079, 49.6507068], [6.1511065, 49.6507043], [6.1524157, 49.6505922], [6.1533222, 49.6505172], [6.1535296, 49.6505606], [6.1543211, 49.650746], [6.1543978, 49.6507672], [6.1545084, 49.6508044], [6.1546737, 49.650869], [6.1551811, 49.6510763], [6.1559295, 49.6513793], [6.1561812, 49.6514937], [6.1566261, 49.6517056], [6.156922, 49.6518507], [6.1570277, 49.6518903], [6.157101, 49.6519157], [6.1574429, 49.6520404], [6.1580597, 49.6522609], [6.1580147, 49.6528321], [6.1579442, 49.6533886], [6.1574028, 49.6537494], [6.1573208, 49.6538091], [6.1572577, 49.6538698], [6.1578393, 49.6540923], [6.1580903, 49.6541906], [6.1589828, 49.6545574], [6.1597182, 49.6548682], [6.1598795, 49.6546325], [6.1602388, 49.6540224], [6.1608302, 49.6532817], [6.161091, 49.6529429], [6.1610047, 49.6526693], [6.1609159, 49.652281], [6.1609484, 49.652212], [6.1608523, 49.6518867], [6.1608065, 49.651642], [6.1607454, 49.6511056], [6.1605925, 49.6505962], [6.1605248, 49.6504586], [6.1604548, 49.6503682], [6.1602301, 49.6501517], [6.1596382, 49.6496114], [6.1593737, 49.6493536], [6.1594805, 49.6491695], [6.1596511, 49.6489495], [6.1597014, 49.6488578], [6.1595792, 49.6487368], [6.1587009, 49.6479269], [6.1585741, 49.6477772], [6.1585238, 49.6476316], [6.1585515, 49.6476078], [6.1588539, 49.6474116], [6.1578851, 49.6470657], [6.1574771, 49.6469237], [6.1576493, 49.6466748], [6.1573888, 49.6465017], [6.1569664, 49.6462264], [6.1565166, 49.6460952], [6.156027, 49.6459276], [6.1557767, 49.64583], [6.1555633, 49.645532], [6.1555341, 49.6454994], [6.1554441, 49.6454439], [6.1552118, 49.6453318], [6.1546724, 49.6450613], [6.1543828, 49.6449131], [6.1539256, 49.6446695], [6.1535416, 49.6444311], [6.1529237, 49.6440406], [6.1527425, 49.6439429], [6.1526478, 49.6438959], [6.1524265, 49.6437929], [6.1515937, 49.6434227], [6.151229, 49.6430055], [6.151158, 49.6429382], [6.1510241, 49.6428184], [6.1508212, 49.6426527], [6.1506922, 49.6425547], [6.1505884, 49.6424856], [6.1505006, 49.6424314], [6.150406, 49.6423794], [6.1502294, 49.6422932], [6.1498086, 49.6421124], [6.1497197, 49.6420782], [6.1495633, 49.642023], [6.1493267, 49.6419496], [6.1491836, 49.6419125], [6.1490358, 49.6418855], [6.1487198, 49.6418424], [6.148765, 49.6418092], [6.1488102, 49.6417841], [6.1488643, 49.6417616], [6.148938, 49.6417403], [6.1490228, 49.6417234], [6.1491079, 49.641713], [6.149264, 49.6417042], [6.1496023, 49.6416929], [6.1498436, 49.6416831], [6.1499421, 49.641619], [6.1502362, 49.6414207], [6.150548, 49.6414749], [6.1510494, 49.6415914], [6.1517117, 49.6417017], [6.1520233, 49.6417557], [6.15224, 49.6418453], [6.1524577, 49.6418926], [6.1525326, 49.6419065], [6.1526829, 49.6421352], [6.1527722, 49.6422354], [6.1528231, 49.6420124], [6.1528425, 49.6419767], [6.152881, 49.6419249], [6.1529599, 49.6418636], [6.1530393, 49.641807], [6.1532899, 49.6416516], [6.15332, 49.6416224], [6.1535232, 49.6412971], [6.1551845, 49.6414692], [6.156789, 49.6416387], [6.1573668, 49.6417025], [6.1575207, 49.6417165], [6.1585443, 49.6418224], [6.15938, 49.6419109], [6.1601821, 49.6420182], [6.1608578, 49.6421032], [6.1617871, 49.6422154], [6.1619536, 49.642229], [6.1625139, 49.6423133], [6.1629351, 49.6429575], [6.1635497, 49.6439358], [6.1635856, 49.6440029], [6.1648559, 49.6446973], [6.1651521, 49.6449584], [6.1652027, 49.6449374], [6.1654244, 49.6448367], [6.164931, 49.6444242], [6.1641593, 49.6437128], [6.1639747, 49.6434459], [6.1636563, 49.6429641], [6.1634271, 49.6424843], [6.163346, 49.6423273], [6.1631318, 49.6417669], [6.1634651, 49.6412885], [6.1639217, 49.6409646], [6.1642625, 49.6407265], [6.1643065, 49.6406937], [6.1635762, 49.6406395], [6.1627439, 49.6405738], [6.162471, 49.640545], [6.1622538, 49.64051], [6.1619258, 49.6404395], [6.1613417, 49.6403027], [6.1607948, 49.6401685], [6.1604992, 49.6401085], [6.1602183, 49.6400788], [6.1596632, 49.6400349], [6.1588354, 49.6399595], [6.1587368, 49.6399317], [6.1582265, 49.6398824], [6.1578868, 49.6397353], [6.1578988, 49.6397132], [6.1573888, 49.6396025], [6.1568089, 49.6394901], [6.1560429, 49.6393893], [6.1553147, 49.6393276], [6.1544108, 49.6392079], [6.1536011, 49.6388609], [6.1530996, 49.6386511], [6.1525019, 49.638459], [6.1503168, 49.6378113], [6.1491453, 49.6374739], [6.1487741, 49.6373727], [6.1484262, 49.6372445]]]}}]}