{"type": "FeatureCollection", "features": [{"type": "Feature", "properties": {"name": "Eich"}, "geometry": {"type": "Polygon", "coordinates": [[[6.1308653, 49.6244833], [6.1303811, 49.6244395], [6.1306739, 49.6236224], [6.1307771, 49.6229214], [6.130443, 49.6229265], [6.1304491, 49.6221366], [6.129616, 49.6221155], [6.1295425, 49.6226435], [6.128877, 49.6228892], [6.1289302, 49.6237651], [6.1291738, 49.6237989], [6.1285924, 49.624287], [6.1286262, 49.625084], [6.1285494, 49.6256529], [6.1284033, 49.6257997], [6.1281166, 49.6259034], [6.1278187, 49.6259811], [6.1266876, 49.6259742], [6.1267321, 49.6258392], [6.1253583, 49.6258222], [6.1253242, 49.6259426], [6.1247463, 49.6259439], [6.1248312, 49.6262801], [6.1243465, 49.6264116], [6.1251405, 49.6266464], [6.1244144, 49.6267546], [6.124006, 49.6269409], [6.1255985, 49.627866], [6.1259302, 49.627935], [6.1260168, 49.6282538], [6.1256889, 49.6283237], [6.125749, 49.6284677], [6.1257863, 49.6284556], [6.1259387, 49.6285054], [6.1260322, 49.6287189], [6.1265597, 49.6286796], [6.1268966, 49.6287366], [6.1275607, 49.6287429], [6.1277805, 49.6287777], [6.1281565, 49.6287429], [6.1298852, 49.6296886], [6.131062, 49.6301156], [6.1321706, 49.6310329], [6.1318238, 49.6317066], [6.1319069, 49.6319881], [6.132361, 49.6323676], [6.132488, 49.6327187], [6.1323757, 49.6327788], [6.1320387, 49.6327851], [6.1319996, 49.6327377], [6.1318092, 49.6327472], [6.1315211, 49.6331141], [6.131526, 49.6333639], [6.1297436, 49.6341894], [6.1295434, 49.6345341], [6.1293236, 49.6347808], [6.1288988, 49.6350497], [6.1287767, 49.6351192], [6.1282883, 49.6352647], [6.1277644, 49.6353588], [6.1290212, 49.6358423], [6.1284829, 49.6361288], [6.1295889, 49.6366754], [6.1309241, 49.6357721], [6.1315789, 49.6360805], [6.1321742, 49.635304], [6.1323797, 49.6353492], [6.1324263, 49.6352715], [6.1325997, 49.6353881], [6.133756, 49.6357446], [6.1336539, 49.6359428], [6.1340026, 49.6360585], [6.1335901, 49.6363735], [6.1320211, 49.6386861], [6.1317486, 49.6395265], [6.1317829, 49.6400077], [6.1323251, 49.6404637], [6.1331897, 49.6408316], [6.1332183, 49.6410616], [6.1340281, 49.6413015], [6.1344959, 49.6413621], [6.1350822, 49.6414598], [6.1360295, 49.6413319], [6.1360399, 49.6414028], [6.1362247, 49.6413891], [6.136206, 49.6412003], [6.1358784, 49.6375013], [6.1357778, 49.6358363], [6.1353497, 49.635692], [6.1349101, 49.6355674], [6.1354269, 49.6349132], [6.1354413, 49.6344666], [6.1356684, 49.6339257], [6.1359959, 49.6334724], [6.1363397, 49.633035], [6.1365874, 49.6326161], [6.1365464, 49.6322529], [6.1362371, 49.6318151], [6.1359666, 49.6313411], [6.1356052, 49.6306845], [6.1352014, 49.6302561], [6.1333152, 49.6289429], [6.1327297, 49.6284726], [6.131137, 49.6273803], [6.1307467, 49.6270465], [6.1307311, 49.6249731], [6.1308653, 49.6244833]]]}}]}