{"type": "FeatureCollection", "features": [{"type": "Feature", "properties": {"name": "Gasperich"}, "geometry": {"type": "Polygon", "coordinates": [[[6.1042083, 49.5702], [6.1063989, 49.571271], [6.1059436, 49.5719038], [6.1050329, 49.5716928], [6.1042523, 49.5725154], [6.1046999, 49.5733406], [6.1074584, 49.5738384], [6.1078934, 49.5742864], [6.1079889, 49.5744123], [6.108052, 49.5744955], [6.1083808, 49.5748081], [6.1086046, 49.5750208], [6.1087311, 49.5750894], [6.109178, 49.5753318], [6.1097399, 49.5754883], [6.1101555, 49.575604], [6.111179, 49.5758628], [6.1125967, 49.5760752], [6.1135486, 49.5762411], [6.1131954, 49.5769447], [6.1124738, 49.5773495], [6.1106314, 49.5774159], [6.1100326, 49.577907], [6.1119383, 49.5785726], [6.1131391, 49.5796691], [6.1128885, 49.5797921], [6.1124909, 49.5799837], [6.1122178, 49.5801153], [6.1107338, 49.5808305], [6.1120081, 49.5820649], [6.1120794, 49.5823031], [6.1123101, 49.5830736], [6.1124073, 49.5837637], [6.1126785, 49.5853398], [6.113088, 49.5874699], [6.1142906, 49.5885448], [6.1159642, 49.5884187], [6.1160057, 49.5897663], [6.1157636, 49.5897833], [6.1156974, 49.5898437], [6.1156046, 49.5899495], [6.1155623, 49.5900406], [6.1155185, 49.5901202], [6.1154557, 49.5902031], [6.1153815, 49.5902634], [6.1151644, 49.5903255], [6.1148532, 49.5903554], [6.1141898, 49.5903856], [6.1140266, 49.5914293], [6.1132469, 49.5928613], [6.1149762, 49.5929391], [6.1150662, 49.5934315], [6.1158588, 49.5936129], [6.1157259, 49.594831], [6.1162057, 49.5948245], [6.1161957, 49.5950383], [6.1164556, 49.5950448], [6.1164855, 49.595304], [6.1146763, 49.5954595], [6.1148662, 49.5965868], [6.1246821, 49.5953614], [6.1273483, 49.5952772], [6.1277121, 49.5952934], [6.1310935, 49.5957883], [6.1314112, 49.5959871], [6.1322672, 49.5956081], [6.1320675, 49.5951127], [6.1320273, 49.5945206], [6.1322207, 49.5927793], [6.1325617, 49.5914387], [6.1333613, 49.5902239], [6.1348767, 49.5878548], [6.1352182, 49.5868553], [6.1351559, 49.5861046], [6.135007, 49.5859807], [6.1348955, 49.5858591], [6.1348964, 49.5857593], [6.1349609, 49.5856967], [6.1350414, 49.5856341], [6.1351712, 49.585592], [6.1352224, 49.5855601], [6.1353075, 49.5854669], [6.1353694, 49.5854074], [6.1354358, 49.5853368], [6.1355043, 49.5852339], [6.1355373, 49.5851561], [6.1356048, 49.5850564], [6.1356701, 49.5849714], [6.1357259, 49.5849444], [6.1359544, 49.584937], [6.1359821, 49.5849361], [6.1359819, 49.5848889], [6.1359786, 49.5843396], [6.135973, 49.5842964], [6.1359634, 49.5842534], [6.1359528, 49.5842263], [6.1359435, 49.5842095], [6.1359133, 49.5841708], [6.1358832, 49.5841344], [6.1358739, 49.5841199], [6.1358615, 49.5840974], [6.1358448, 49.5840588], [6.1358405, 49.5840363], [6.1358399, 49.5840209], [6.13584, 49.5840152], [6.1358436, 49.5839808], [6.1358544, 49.5839417], [6.1358615, 49.5839267], [6.1358352, 49.5839213], [6.1350131, 49.5837524], [6.1349873, 49.5837606], [6.1349446, 49.5836996], [6.1347764, 49.5836566], [6.1347148, 49.5835822], [6.1346481, 49.5835498], [6.1345726, 49.583534], [6.1345077, 49.5835123], [6.1344477, 49.5834833], [6.1343885, 49.5834532], [6.1342951, 49.5834151], [6.1342342, 49.5833781], [6.1341791, 49.5832995], [6.1341418, 49.5832595], [6.1341053, 49.5832188], [6.1340615, 49.5831611], [6.1340088, 49.5831015], [6.1339828, 49.5830503], [6.1339147, 49.5829833], [6.1338766, 49.5829246], [6.1338616, 49.58288], [6.1338679, 49.5828078], [6.1338358, 49.582734], [6.1338354, 49.5826803], [6.1338483, 49.5826092], [6.1338628, 49.5825363], [6.133867, 49.5824778], [6.1338444, 49.5824492], [6.1338298, 49.5824308], [6.1336687, 49.5823122], [6.1336339, 49.5822733], [6.1336259, 49.5822286], [6.1336812, 49.5821244], [6.1336812, 49.5820774], [6.1335699, 49.5819205], [6.1334894, 49.5818547], [6.1333697, 49.5817648], [6.133343, 49.5817125], [6.133299, 49.5816515], [6.1332577, 49.5815871], [6.1331841, 49.5815523], [6.1330885, 49.5815254], [6.1329193, 49.5814811], [6.1327604, 49.5814059], [6.1323228, 49.5811639], [6.1318647, 49.5808968], [6.1316394, 49.5807379], [6.1314889, 49.5806067], [6.1314084, 49.5805366], [6.1311596, 49.5802964], [6.1308851, 49.5799888], [6.1306376, 49.5796995], [6.1304244, 49.5794146], [6.1304017, 49.5793813], [6.1288451, 49.5803841], [6.1272825, 49.582129], [6.1272723, 49.5821404], [6.1272177, 49.5820946], [6.1270215, 49.5819431], [6.126876, 49.581849], [6.1267116, 49.5817613], [6.1265967, 49.5817098], [6.1264067, 49.5816322], [6.1260803, 49.5815214], [6.1257388, 49.5814237], [6.1254726, 49.5813475], [6.125457, 49.5813381], [6.1252011, 49.5811832], [6.1251897, 49.5811763], [6.1251314, 49.5811411], [6.1248223, 49.5809537], [6.1245406, 49.5807589], [6.1242525, 49.580525], [6.1240432, 49.5802919], [6.1239436, 49.5801178], [6.1238701, 49.5798999], [6.1238253, 49.5796024], [6.1238003, 49.5794409], [6.1237844, 49.5793737], [6.1237444, 49.5792251], [6.1235309, 49.5787087], [6.1234246, 49.5784438], [6.123422, 49.5784373], [6.123412, 49.5784119], [6.1231976, 49.5780821], [6.1230433, 49.5778751], [6.1229787, 49.5777964], [6.1228929, 49.5776918], [6.1228434, 49.5776315], [6.1227998, 49.5775782], [6.122749, 49.5775163], [6.1226985, 49.5774548], [6.1226068, 49.577343], [6.1225493, 49.5772729], [6.1224875, 49.5771975], [6.1223913, 49.5770803], [6.1220933, 49.576717], [6.1218815, 49.5764802], [6.1218078, 49.5763978], [6.1217131, 49.5763208], [6.1216074, 49.5762348], [6.1215407, 49.5761807], [6.1214607, 49.5761156], [6.1214406, 49.5760992], [6.1214026, 49.5760683], [6.1212652, 49.5759566], [6.1212461, 49.5759411], [6.1209547, 49.5757618], [6.1203149, 49.5753558], [6.1202266, 49.5752838], [6.1202, 49.5752367], [6.1200558, 49.5748385], [6.1199032, 49.5744552], [6.1198399, 49.5742892], [6.1198065, 49.5741946], [6.1198408, 49.5741979], [6.1210541, 49.5742979], [6.121702, 49.5743558], [6.1220265, 49.5743848], [6.1227437, 49.5744492], [6.122793, 49.5743183], [6.1228637, 49.5741503], [6.1229172, 49.5740233], [6.1230503, 49.5737192], [6.1231462, 49.5735397], [6.1232998, 49.5733112], [6.1234006, 49.5731833], [6.1234591, 49.5731134], [6.1237022, 49.572854], [6.1241902, 49.5723334], [6.1242098, 49.5723073], [6.1243054, 49.5721798], [6.1245742, 49.5719329], [6.1246847, 49.5718314], [6.1250674, 49.5714088], [6.1252469, 49.5712106], [6.1256769, 49.5707294], [6.1254906, 49.5706207], [6.1252959, 49.570507], [6.1252089, 49.5704562], [6.1250072, 49.5703425], [6.1248979, 49.570281], [6.1247468, 49.5701921], [6.1243287, 49.5700333], [6.1237874, 49.5698805], [6.1235819, 49.5697984], [6.12299, 49.5696418], [6.122426, 49.569525], [6.1223195, 49.5694902], [6.1222423, 49.5694734], [6.1220507, 49.5694608], [6.1218189, 49.5694336], [6.1215475, 49.5693806], [6.1214, 49.5693461], [6.1212539, 49.5693008], [6.1210305, 49.569213], [6.1209491, 49.5691755], [6.1209032, 49.5691458], [6.1208448, 49.5690348], [6.1207304, 49.5689963], [6.1206197, 49.568955], [6.120507, 49.5688969], [6.1204199, 49.5688455], [6.1201735, 49.5687006], [6.1201956, 49.5686278], [6.11776, 49.568337], [6.1170679, 49.5682544], [6.1162486, 49.5681715], [6.1154718, 49.5680924], [6.1159889, 49.567599], [6.1165248, 49.5670876], [6.1165721, 49.5670096], [6.1165921, 49.5669766], [6.1167574, 49.5667039], [6.1170886, 49.5663961], [6.1173808, 49.5661244], [6.1175538, 49.5655403], [6.117564, 49.5655057], [6.117636, 49.5652625], [6.1177158, 49.5649931], [6.117925, 49.5650601], [6.1182206, 49.5651385], [6.1185189, 49.5652119], [6.1189384, 49.5652892], [6.1192567, 49.5653434], [6.1191439, 49.5651901], [6.1190854, 49.5651126], [6.1189412, 49.5649222], [6.1187603, 49.5647017], [6.1186811, 49.5646229], [6.1186411, 49.5645876], [6.1185605, 49.5645165], [6.1181481, 49.5641996], [6.1178611, 49.5639115], [6.1177701, 49.5638189], [6.1173838, 49.563426], [6.1171252, 49.5631607], [6.117092, 49.5631266], [6.1168569, 49.5628853], [6.1166025, 49.5626275], [6.1162751, 49.5622786], [6.1159709, 49.5618616], [6.1156778, 49.5610898], [6.1156557, 49.5610315], [6.1155555, 49.5610291], [6.1154523, 49.5610264], [6.1142555, 49.5609966], [6.1138559, 49.5609899], [6.1137146, 49.5609875], [6.1135171, 49.5610597], [6.1132696, 49.5611526], [6.1131382, 49.5611883], [6.1125182, 49.5613289], [6.1119213, 49.5614032], [6.1112063, 49.561507], [6.1101398, 49.5617123], [6.1093953, 49.5618631], [6.1089372, 49.5619571], [6.1086762, 49.5620109], [6.1084838, 49.5620506], [6.1083884, 49.5620669], [6.1082315, 49.5620965], [6.1082965, 49.5625554], [6.1085078, 49.5632978], [6.1087935, 49.564295], [6.1089461, 49.5648283], [6.1089969, 49.5650586], [6.1090257, 49.5652531], [6.1090488, 49.565601], [6.1090837, 49.565967], [6.1091468, 49.5665247], [6.1090318, 49.5665275], [6.1089474, 49.5665293], [6.1087884, 49.5665346], [6.1087477, 49.566536], [6.1086917, 49.5665414], [6.1086313, 49.5665515], [6.108573, 49.5665661], [6.108452, 49.5665966], [6.1081217, 49.5666922], [6.1070817, 49.5667929], [6.10619, 49.5667397], [6.105888, 49.5664676], [6.1057694, 49.5664365], [6.1054683, 49.5663614], [6.1052664, 49.5663093], [6.1050257, 49.5662478], [6.1048551, 49.5661974], [6.1044708, 49.5660366], [6.1042496, 49.5659521], [6.1041578, 49.5658939], [6.1039169, 49.5657005], [6.103893, 49.5656813], [6.1038626, 49.5656569], [6.1036991, 49.565508], [6.1035897, 49.5654108], [6.1034415, 49.5653034], [6.1033392, 49.5652486], [6.1029376, 49.5650333], [6.1025545, 49.5648415], [6.1023401, 49.5647462], [6.1021178, 49.5646557], [6.1017401, 49.5646474], [6.1017532, 49.5647175], [6.1017666, 49.5647854], [6.1017816, 49.564862], [6.1017433, 49.5649702], [6.1016508, 49.565096], [6.1015042, 49.56521], [6.1014182, 49.5652748], [6.1011939, 49.5654377], [6.1011192, 49.565492], [6.1004246, 49.5659384], [6.0996887, 49.5664155], [6.0996192, 49.5664605], [6.1004234, 49.5671368], [6.1012593, 49.5678312], [6.1018534, 49.5682793], [6.1021922, 49.568468], [6.1028262, 49.5687983], [6.1036184, 49.5691707], [6.1037381, 49.5692876], [6.1039442, 49.5694968], [6.103967, 49.5695199], [6.1041895, 49.5697641], [6.1043135, 49.5699177], [6.1043391, 49.5699796], [6.1043518, 49.5700367], [6.1043358, 49.5700878], [6.1043166, 49.570141], [6.1042083, 49.5702]]]}}]}