{"type": "FeatureCollection", "features": [{"type": "Feature", "properties": {"name": "Hamm"}, "geometry": {"type": "Polygon", "coordinates": [[[6.1576373, 49.6123935], [6.1594537, 49.6131155], [6.1615284, 49.6137926], [6.1620853, 49.6140397], [6.1637405, 49.6144845], [6.1643584, 49.6146723], [6.164961, 49.6148799], [6.1657619, 49.6151567], [6.1662043, 49.6153395], [6.1666772, 49.6155076], [6.1670739, 49.6156015], [6.1675773, 49.6157102], [6.168096, 49.6157992], [6.1685994, 49.6158733], [6.1692478, 49.6159524], [6.1698504, 49.6159968], [6.1719557, 49.6160018], [6.1719557, 49.6161649], [6.1726346, 49.6160809], [6.1729168, 49.6172917], [6.1735423, 49.6173905], [6.1743203, 49.6174152], [6.1752357, 49.6175042], [6.1760518, 49.6176129], [6.176868, 49.6177364], [6.177852, 49.6179341], [6.1798352, 49.6180379], [6.1801938, 49.6181713], [6.1807124, 49.6182405], [6.1815439, 49.6182998], [6.1819863, 49.6183196], [6.1825126, 49.6183295], [6.1834475, 49.6198417], [6.1836949, 49.6202419], [6.1846111, 49.6212598], [6.1847476, 49.6213835], [6.1854299, 49.6214502], [6.1854954, 49.6213993], [6.1855868, 49.6213122], [6.1864424, 49.62123], [6.1864898, 49.6212265], [6.1865204, 49.6212276], [6.1865488, 49.6212312], [6.1865857, 49.6212405], [6.1866375, 49.6212556], [6.186703, 49.62127], [6.1867379, 49.6212744], [6.1868848, 49.6212755], [6.1870817, 49.6212744], [6.1872976, 49.6212728], [6.1873813, 49.6212721], [6.187536, 49.6212653], [6.1878575, 49.6212559], [6.1882712, 49.6212333], [6.1886885, 49.6212067], [6.189237, 49.6211626], [6.1893891, 49.6211504], [6.1896722, 49.621121], [6.1897129, 49.6211168], [6.1907125, 49.6209996], [6.1907958, 49.6209838], [6.1908383, 49.6209757], [6.1909171, 49.6209608], [6.1910417, 49.6209371], [6.1912639, 49.6208949], [6.1914816, 49.6208536], [6.1915035, 49.6207323], [6.190406, 49.6208388], [6.1903532, 49.6203767], [6.1903395, 49.6202567], [6.1895065, 49.6203655], [6.1896401, 49.6197616], [6.1898033, 49.6190236], [6.189834, 49.6190249], [6.191226, 49.6190852], [6.1913341, 49.6181124], [6.1915858, 49.6181195], [6.1917034, 49.618117], [6.1918928, 49.6181043], [6.1920297, 49.6180899], [6.1921251, 49.6180762], [6.1922276, 49.6180583], [6.1923184, 49.618048], [6.1924535, 49.6180423], [6.1925499, 49.6180444], [6.1926632, 49.6180532], [6.1927754, 49.6180611], [6.192897, 49.6180651], [6.1929918, 49.6180624], [6.1930385, 49.618061], [6.1931452, 49.6180521], [6.1938013, 49.6179444], [6.1939861, 49.6179112], [6.1941769, 49.6178603], [6.1942882, 49.6178222], [6.1944286, 49.6177626], [6.1946412, 49.6176623], [6.1952532, 49.6173456], [6.1952658, 49.617339], [6.1961017, 49.6172897], [6.1965657, 49.6172108], [6.1972618, 49.6170009], [6.1977637, 49.6167916], [6.1983258, 49.6164612], [6.198407, 49.6164052], [6.1986591, 49.6162314], [6.1989308, 49.6160107], [6.1985011, 49.6158538], [6.1987408, 49.6155746], [6.1992152, 49.6152697], [6.199394, 49.6151548], [6.1993313, 49.6150797], [6.1992264, 49.6149541], [6.1995722, 49.6146774], [6.1996939, 49.6145799], [6.2002888, 49.6143057], [6.2009984, 49.6141159], [6.2012762, 49.6140055], [6.2026972, 49.6139747], [6.2030701, 49.6138729], [6.2032878, 49.6138062], [6.203301, 49.6137915], [6.2036491, 49.6130441], [6.203441, 49.6129929], [6.2031784, 49.6129284], [6.2030107, 49.6128872], [6.2027628, 49.6128263], [6.2023786, 49.6127319], [6.2023588, 49.6126194], [6.2022743, 49.6121727], [6.2022609, 49.6121212], [6.2021968, 49.6119196], [6.2021849, 49.6118813], [6.2021339, 49.6116903], [6.2021084, 49.6115757], [6.202064, 49.6113005], [6.2020563, 49.6112711], [6.2020426, 49.6111587], [6.2020105, 49.6110309], [6.2019906, 49.6109517], [6.2018739, 49.6107005], [6.2017787, 49.6105558], [6.2016978, 49.6105165], [6.2015475, 49.6104283], [6.2013296, 49.6103333], [6.2010576, 49.6101933], [6.2007915, 49.6100199], [6.2003261, 49.6096196], [6.2002159, 49.6095806], [6.1994264, 49.6092477], [6.1990977, 49.609137], [6.198219, 49.6086526], [6.19715, 49.6079698], [6.1963265, 49.6074521], [6.1959296, 49.6071708], [6.1956583, 49.6070097], [6.1949108, 49.6066228], [6.1941316, 49.6062896], [6.1938087, 49.6061918], [6.1937511, 49.6061621], [6.1934734, 49.6060609], [6.1934171, 49.606014], [6.1931877, 49.6057977], [6.1931235, 49.6057371], [6.1929771, 49.6056878], [6.1929753, 49.6056874], [6.1929111, 49.6056626], [6.192876, 49.6056491], [6.1926902, 49.6055765], [6.1925819, 49.6055154], [6.1924411, 49.6054264], [6.1923943, 49.6053916], [6.1922561, 49.6052889], [6.1920928, 49.6051255], [6.1920162, 49.6050421], [6.1919628, 49.6049591], [6.1918135, 49.6048859], [6.1918061, 49.604902], [6.1917441, 49.6049197], [6.1916518, 49.604964], [6.1915881, 49.6049829], [6.191495, 49.6049923], [6.1914218, 49.6049898], [6.1913716, 49.6049844], [6.191296, 49.6049677], [6.1912101, 49.6049427], [6.1909302, 49.6048338], [6.1907837, 49.6047867], [6.1906877, 49.6047621], [6.1905842, 49.6047469], [6.1904923, 49.6047445], [6.190369, 49.6047509], [6.1902981, 49.6047612], [6.1901496, 49.6047907], [6.1900103, 49.6048252], [6.1898277, 49.6048758], [6.1898503, 49.6051139], [6.1897189, 49.6051515], [6.1894625, 49.605226], [6.1892406, 49.6052892], [6.188925, 49.605381], [6.1887481, 49.6054337], [6.1886121, 49.6054783], [6.1885252, 49.6055141], [6.1884529, 49.6055475], [6.1883849, 49.6055861], [6.1883337, 49.6056233], [6.1882841, 49.6056673], [6.1882291, 49.6057206], [6.1881816, 49.605774], [6.1881622, 49.6058043], [6.1881471, 49.6058349], [6.1881363, 49.6059043], [6.1881256, 49.6060086], [6.188104, 49.6060952], [6.1880889, 49.6061336], [6.1880501, 49.6061963], [6.1880118, 49.6062418], [6.1879778, 49.6062694], [6.1879368, 49.6062984], [6.1878787, 49.6063346], [6.1877514, 49.6064319], [6.1877142, 49.6064664], [6.187677, 49.6065162], [6.1876398, 49.6065775], [6.1876129, 49.606656], [6.1875902, 49.6067556], [6.187591, 49.6068485], [6.187596, 49.6069067], [6.1876489, 49.6071205], [6.1876528, 49.607163], [6.1876316, 49.6072023], [6.1875889, 49.6072387], [6.1875114, 49.6072948], [6.1874242, 49.6073642], [6.1873064, 49.6074585], [6.1871122, 49.6076677], [6.1870767, 49.6077093], [6.1870224, 49.6077474], [6.1869633, 49.6077697], [6.1869083, 49.6077795], [6.1868555, 49.607788], [6.1868065, 49.6078041], [6.1867333, 49.6078438], [6.1866927, 49.6078585], [6.1866505, 49.6078656], [6.1865936, 49.6078715], [6.1865301, 49.6078828], [6.1864812, 49.6078963], [6.1863875, 49.6079273], [6.1862896, 49.607957], [6.1862452, 49.6079641], [6.1862011, 49.607966], [6.1861238, 49.6079594], [6.1860578, 49.607954], [6.1859695, 49.6079591], [6.1858584, 49.6079569], [6.1857642, 49.6079544], [6.1856926, 49.6079606], [6.1856352, 49.6079755], [6.1855704, 49.6080057], [6.1855243, 49.6080333], [6.1853601, 49.608179], [6.1853005, 49.6082125], [6.1852082, 49.6082409], [6.1850889, 49.6082528], [6.1849734, 49.6082481], [6.1848983, 49.6082451], [6.1847828, 49.6082597], [6.1846775, 49.6082743], [6.1846049, 49.6082757], [6.1845283, 49.6082566], [6.1844828, 49.6082297], [6.1844518, 49.6082016], [6.1844228, 49.6081838], [6.1843525, 49.6081646], [6.184216, 49.6081327], [6.1841374, 49.6081084], [6.1840186, 49.6080617], [6.1839276, 49.6080221], [6.1838635, 49.6080055], [6.1838118, 49.6080004], [6.1836732, 49.6079966], [6.1835512, 49.6079941], [6.1834705, 49.6079826], [6.1834064, 49.6079583], [6.1833319, 49.6079085], [6.1832595, 49.6078599], [6.1831499, 49.6078242], [6.1830361, 49.6077846], [6.1829041, 49.6077186], [6.1827883, 49.6076649], [6.1827448, 49.6076483], [6.1827076, 49.6076419], [6.1826869, 49.6076419], [6.1825877, 49.6076381], [6.1825483, 49.6076305], [6.1825194, 49.6076164], [6.1824635, 49.607587], [6.1823733, 49.6075493], [6.1822802, 49.6075085], [6.1821954, 49.6074714], [6.1821499, 49.6074446], [6.1821209, 49.6074114], [6.1821064, 49.6073718], [6.1820981, 49.6073258], [6.1820899, 49.6072823], [6.1820733, 49.6072466], [6.1820526, 49.607221], [6.1820174, 49.6071929], [6.1819678, 49.6071623], [6.1819016, 49.6071341], [6.1818437, 49.607115], [6.1817589, 49.607092], [6.1816492, 49.6070741], [6.1815355, 49.6070601], [6.1813762, 49.6070461], [6.1812331, 49.607035], [6.1809911, 49.6070235], [6.1808505, 49.6070235], [6.1807967, 49.6070312], [6.1807533, 49.6070401], [6.1807161, 49.6070593], [6.180683, 49.6070734], [6.1806582, 49.6070683], [6.1806065, 49.6070453], [6.1805299, 49.6070197], [6.18035, 49.6069929], [6.1800418, 49.6069738], [6.1796406, 49.6069585], [6.1794042, 49.606952], [6.1792263, 49.6069622], [6.1790423, 49.6069776], [6.1788789, 49.6069967], [6.1787817, 49.6070146], [6.1786969, 49.6070466], [6.1784384, 49.6071821], [6.1781902, 49.6073086], [6.1780178, 49.6073858], [6.1777327, 49.6074809], [6.1776652, 49.607505], [6.1776058, 49.60752], [6.1775585, 49.6075243], [6.1775112, 49.6075207], [6.17747, 49.6075198], [6.1773735, 49.6075284], [6.176517, 49.6076037], [6.176402, 49.6076164], [6.1763543, 49.6076259], [6.1761945, 49.6076691], [6.1761165, 49.6076789], [6.1760443, 49.6076625], [6.175906, 49.6076309], [6.1758215, 49.6076211], [6.1757084, 49.6076259], [6.1755008, 49.6076342], [6.1753507, 49.6076381], [6.1752865, 49.6076343], [6.1752449, 49.6076271], [6.1752052, 49.6076143], [6.1751822, 49.6075943], [6.1751759, 49.6075711], [6.1751716, 49.6075485], [6.1751634, 49.6075297], [6.1751376, 49.6075174], [6.1750433, 49.6074861], [6.1746391, 49.607363], [6.1740938, 49.6072042], [6.1738232, 49.6071242], [6.1737456, 49.6070956], [6.1737064, 49.6070811], [6.1735518, 49.6070249], [6.1732726, 49.6069264], [6.1731733, 49.6068934], [6.1730563, 49.6068544], [6.1728734, 49.6068016], [6.1727833, 49.6067879], [6.1726765, 49.6067845], [6.1724405, 49.6067819], [6.172199, 49.6067948], [6.1720035, 49.606804], [6.1718645, 49.6068114], [6.1716024, 49.6068261], [6.1712768, 49.6068377], [6.1711632, 49.6068328], [6.1710799, 49.6068211], [6.1709737, 49.6067838], [6.1708228, 49.6067206], [6.1702906, 49.606482], [6.16991, 49.6063101], [6.1695721, 49.6061621], [6.1694212, 49.6061057], [6.1692458, 49.6060504], [6.1691582, 49.6060193], [6.1690759, 49.6058429], [6.1690341, 49.6057535], [6.1690151, 49.605733], [6.1689502, 49.6057297], [6.168824, 49.6057016], [6.1686896, 49.6056493], [6.1685448, 49.6055713], [6.1684703, 49.6055292], [6.1683442, 49.6054959], [6.1682118, 49.6054781], [6.1680981, 49.6054755], [6.1679099, 49.6054857], [6.1676658, 49.6055087], [6.1661928, 49.6059775], [6.1649088, 49.6066082], [6.1645641, 49.606969], [6.1638187, 49.6076453], [6.1632727, 49.6079942], [6.1627647, 49.608244], [6.1624063, 49.6083477], [6.1619401, 49.6083193], [6.1617235, 49.6080528], [6.1614805, 49.6076783], [6.1609904, 49.6073002], [6.1601905, 49.6047179], [6.1596148, 49.6040856], [6.1588088, 49.6036489], [6.156495, 49.6028561], [6.1533064, 49.6023286], [6.150112, 49.601459], [6.147791, 49.6006401], [6.1465597, 49.6006125], [6.1459885, 49.6007856], [6.1455815, 49.6012681], [6.1456779, 49.6013715], [6.1461224, 49.6009765], [6.1466365, 49.601223], [6.1469578, 49.6009765], [6.1473219, 49.6010425], [6.1480984, 49.6013861], [6.1490302, 49.6019379], [6.1498314, 49.6024941], [6.1485463, 49.6036764], [6.1486877, 49.6040281], [6.1476105, 49.6040508], [6.1468217, 49.6041142], [6.1462642, 49.604104], [6.14555, 49.6039906], [6.1455178, 49.6040447], [6.1464337, 49.6045322], [6.1477495, 49.6050786], [6.1490939, 49.6057098], [6.1491167, 49.6059608], [6.1498743, 49.6062414], [6.1498743, 49.6063485], [6.1510193, 49.6068173], [6.1510307, 49.6069465], [6.151458, 49.6072381], [6.1516801, 49.6075076], [6.1521814, 49.6072233], [6.1527226, 49.6079063], [6.1525232, 49.60791], [6.152546, 49.6085707], [6.1519877, 49.6087996], [6.1524833, 49.6091023], [6.1529277, 49.6094456], [6.1536226, 49.6100251], [6.154198, 49.6102429], [6.155867, 49.6107301], [6.1568815, 49.6110533], [6.1579463, 49.6113576], [6.1583963, 49.6115459], [6.1576373, 49.6123935]]]}}]}