{"type": "FeatureCollection", "features": [{"type": "Feature", "properties": {"name": "Hollerich"}, "geometry": {"type": "Polygon", "coordinates": [[[6.1270466, 49.6084673], [6.1262975, 49.6081996], [6.1259301, 49.6080048], [6.1256829, 49.6077797], [6.1254825, 49.607533], [6.1251686, 49.6073079], [6.1247345, 49.6070196], [6.1243708, 49.6066757], [6.124081, 49.6062555], [6.1236789, 49.6055849], [6.1233516, 49.6051044], [6.1231378, 49.6047105], [6.1226969, 49.6041044], [6.1224919, 49.6038449], [6.1224144, 49.6035889], [6.122403, 49.6033641], [6.1224631, 49.6032342], [6.1224941, 49.6031021], [6.1226691, 49.6029786], [6.1230807, 49.6028063], [6.1233108, 49.6027332], [6.1237175, 49.6026295], [6.1242438, 49.6025199], [6.124387, 49.6024506], [6.1244738, 49.6022558], [6.124482, 49.602054], [6.1244285, 49.6018517], [6.1249809, 49.6017479], [6.1256204, 49.6016415], [6.1255562, 49.6014067], [6.1254152, 49.6012684], [6.1252555, 49.601087], [6.1251748, 49.6008415], [6.1252333, 49.6008293], [6.1251409, 49.6006589], [6.1249982, 49.6003959], [6.1252971, 49.5998035], [6.1253323, 49.5997522], [6.1247133, 49.5996227], [6.1247601, 49.5993945], [6.1241377, 49.5992605], [6.1241588, 49.599153], [6.1245055, 49.5991151], [6.1245139, 49.5988546], [6.1249731, 49.5988117], [6.1249889, 49.5985043], [6.1246842, 49.5985225], [6.1243021, 49.5982347], [6.1243399, 49.5979198], [6.1246859, 49.5979303], [6.1248696, 49.5976721], [6.1250178, 49.5976845], [6.1250038, 49.5975273], [6.1249823, 49.5968795], [6.1249739, 49.5964321], [6.1249775, 49.5963227], [6.1248427, 49.5961635], [6.1247268, 49.596125], [6.1244301, 49.5960548], [6.1246821, 49.5953614], [6.1148662, 49.5965868], [6.1077093, 49.5974096], [6.1017719, 49.5977983], [6.0984488, 49.5981291], [6.0954936, 49.598885], [6.0964474, 49.5992854], [6.0974419, 49.5996295], [6.0981605, 49.5998376], [6.0990518, 49.6000503], [6.1012064, 49.6003733], [6.103368, 49.6004637], [6.1066523, 49.6002829], [6.1078656, 49.6023572], [6.1078238, 49.6026419], [6.1082143, 49.602895], [6.1076774, 49.6035819], [6.1073967, 49.60347], [6.1072873, 49.6035756], [6.1062934, 49.6032274], [6.1061868, 49.60319], [6.1061538, 49.603234], [6.1061012, 49.6033006], [6.1060662, 49.603345], [6.1056002, 49.6038963], [6.1064297, 49.6041758], [6.1067877, 49.6043102], [6.1064972, 49.6048438], [6.1063014, 49.6053672], [6.1061982, 49.6060341], [6.1064897, 49.6061984], [6.1070793, 49.606349], [6.1071928, 49.6062839], [6.1073154, 49.6063784], [6.107857, 49.6062603], [6.1081073, 49.6062826], [6.1079227, 49.6065252], [6.1086067, 49.6066971], [6.1086816, 49.6066039], [6.1096122, 49.6068418], [6.1094265, 49.6070606], [6.109405, 49.607086], [6.1093788, 49.6071168], [6.1092875, 49.6072244], [6.1094389, 49.6072684], [6.1095035, 49.6072871], [6.1098687, 49.6073932], [6.1099178, 49.6073222], [6.110166, 49.6069544], [6.1103601, 49.60707], [6.111253, 49.607328], [6.111542, 49.6074115], [6.111542, 49.607405], [6.1117157, 49.6073763], [6.1117468, 49.6074643], [6.1120529, 49.6075391], [6.1130025, 49.6073403], [6.1126725, 49.6071873], [6.1136904, 49.606927], [6.1137327, 49.6070476], [6.1142061, 49.6069568], [6.1146384, 49.6072672], [6.1151161, 49.6071734], [6.1150341, 49.6069295], [6.1159196, 49.6067544], [6.1159654, 49.60682], [6.1163997, 49.606734], [6.1163105, 49.6063682], [6.1175168, 49.6061759], [6.1175603, 49.6063823], [6.1178787, 49.6063537], [6.1179053, 49.6064167], [6.1185061, 49.6063369], [6.1185133, 49.6062056], [6.1186484, 49.606179], [6.1186147, 49.6060483], [6.1198457, 49.605938], [6.1200048, 49.605703], [6.1218839, 49.6053203], [6.1220948, 49.6053021], [6.1221885, 49.605542], [6.1226712, 49.6060188], [6.1231258, 49.6065988], [6.1231211, 49.6070422], [6.1233413, 49.6073368], [6.1236178, 49.6074673], [6.1241848, 49.6076495], [6.1245165, 49.6077707], [6.1246863, 49.6078317], [6.1249299, 49.6079532], [6.1255626, 49.6083085], [6.1259937, 49.6084968], [6.1266872, 49.6087913], [6.1270466, 49.6084673]]]}}]}