{"type": "FeatureCollection", "features": [{"type": "Feature", "properties": {"name": "Kirchberg"}, "geometry": {"type": "Polygon", "coordinates": [[[6.1347355, 49.6217772], [6.134694, 49.6223469], [6.1344857, 49.6228381], [6.1340253, 49.6239235], [6.1349273, 49.6239285], [6.1350135, 49.6241888], [6.1355909, 49.6237017], [6.1356504, 49.6236515], [6.1369308, 49.6242584], [6.1365008, 49.6246685], [6.136709, 49.6247523], [6.1367534, 49.6247715], [6.136987, 49.6248724], [6.1374273, 49.6250625], [6.1389368, 49.6257145], [6.1391037, 49.6257866], [6.138794, 49.6261379], [6.1393261, 49.6263989], [6.1390559, 49.6266282], [6.1395846, 49.6268296], [6.1399423, 49.6270059], [6.1402377, 49.627162], [6.1404865, 49.6270613], [6.141023, 49.6272577], [6.1424692, 49.6278822], [6.1426153, 49.627934], [6.1427958, 49.6279981], [6.1423448, 49.6284765], [6.1433245, 49.628819], [6.1442653, 49.6291816], [6.1442264, 49.6293226], [6.1453927, 49.6298967], [6.1466522, 49.6306018], [6.1464656, 49.6307831], [6.1476397, 49.6312364], [6.1484483, 49.6315838], [6.1491947, 49.6319212], [6.1506098, 49.6325054], [6.1522426, 49.6329738], [6.1545985, 49.6335831], [6.1552827, 49.6336133], [6.1580195, 49.6342081], [6.1580379, 49.6342674], [6.157629, 49.6348179], [6.1574356, 49.6350782], [6.1573935, 49.6351457], [6.1569024, 49.6365761], [6.1564784, 49.6375308], [6.156283, 49.6379708], [6.1563814, 49.6379822], [6.1572542, 49.6380826], [6.1576086, 49.638152], [6.1577948, 49.6382094], [6.1583656, 49.6383755], [6.1589882, 49.6384221], [6.1594028, 49.6382387], [6.1595386, 49.6381911], [6.1596884, 49.6381792], [6.1604926, 49.638166], [6.1617878, 49.6384282], [6.1633996, 49.6382993], [6.1651627, 49.6387622], [6.1654753, 49.6386077], [6.1666164, 49.6384616], [6.1675178, 49.6380179], [6.1683457, 49.6379112], [6.1690436, 49.6376955], [6.1694374, 49.637735], [6.1696891, 49.6377992], [6.1707048, 49.6378947], [6.1717545, 49.6377879], [6.1726123, 49.6377499], [6.1735614, 49.6374075], [6.1738521, 49.6373012], [6.1747942, 49.6372816], [6.1754053, 49.6372761], [6.1760022, 49.6372618], [6.1762095, 49.6372444], [6.1767835, 49.6371584], [6.1775557, 49.636959], [6.1781923, 49.636908], [6.1791776, 49.6369836], [6.1796625, 49.6366284], [6.1792669, 49.6365725], [6.1788282, 49.6364823], [6.1784916, 49.6363724], [6.178078, 49.6361768], [6.1766109, 49.6353748], [6.1753361, 49.634628], [6.1744887, 49.6341171], [6.1725905, 49.6329439], [6.1723642, 49.6328005], [6.1716168, 49.6323451], [6.1708685, 49.6318429], [6.1705194, 49.6316359], [6.1704778, 49.6316094], [6.1693205, 49.6309059], [6.1672906, 49.629686], [6.165211, 49.628444], [6.1632146, 49.6272381], [6.1613974, 49.6261391], [6.1593606, 49.6249229], [6.1565229, 49.6234752], [6.1552467, 49.6229073], [6.1525872, 49.6218796], [6.15015, 49.6210734], [6.1505634, 49.6205489], [6.1493232, 49.6201919], [6.1484577, 49.619871], [6.1476395, 49.6194749], [6.1477214, 49.6188863], [6.147015, 49.6184948], [6.1445577, 49.6176762], [6.1432964, 49.6171684], [6.1425576, 49.6167598], [6.1421742, 49.6166918], [6.1418323, 49.6166821], [6.141771, 49.6164784], [6.1412892, 49.6164922], [6.1410986, 49.6163442], [6.1411549, 49.6163034], [6.1412247, 49.6162982], [6.141293, 49.6162834], [6.1412963, 49.6162461], [6.1410747, 49.6161861], [6.1408716, 49.6162143], [6.1408009, 49.616134], [6.140703, 49.6161079], [6.1405554, 49.6161096], [6.1404696, 49.6161322], [6.140365, 49.6161114], [6.1403047, 49.6160375], [6.1402979, 49.6159889], [6.1402443, 49.6159054], [6.1392692, 49.6155048], [6.1389989, 49.6154756], [6.1389539, 49.6152888], [6.1386566, 49.6152597], [6.1384043, 49.6149269], [6.1386205, 49.6146759], [6.1383592, 49.6142439], [6.1375339, 49.6141546], [6.1371666, 49.613947], [6.1361523, 49.6143936], [6.1354283, 49.6147442], [6.1349356, 49.6150174], [6.1352373, 49.6151983], [6.1353443, 49.6154064], [6.1355621, 49.6154159], [6.1356248, 49.6154637], [6.1356322, 49.6156024], [6.1358462, 49.6156789], [6.1358536, 49.61582], [6.1361783, 49.6159348], [6.1360602, 49.6160471], [6.1358757, 49.61604], [6.1357982, 49.6159826], [6.1356986, 49.6160328], [6.1354772, 49.6160208], [6.1354883, 49.6158726], [6.1348091, 49.6158679], [6.1343745, 49.6158263], [6.1337131, 49.6159287], [6.1334787, 49.6162107], [6.1332808, 49.6164871], [6.1331051, 49.6167919], [6.1330179, 49.6170211], [6.1328831, 49.6170952], [6.1326654, 49.6174517], [6.1329161, 49.6176807], [6.1329901, 49.6177525], [6.1330591, 49.6178321], [6.1335117, 49.6177573], [6.1335274, 49.6179804], [6.133616, 49.6179895], [6.1336348, 49.6181038], [6.1337496, 49.6180919], [6.1340203, 49.6183454], [6.1341524, 49.6184605], [6.1340834, 49.6186942], [6.1340873, 49.6188309], [6.1341124, 49.6189299], [6.1341885, 49.6191045], [6.1344916, 49.6197758], [6.1345347, 49.6199534], [6.1355608, 49.620321], [6.1356024, 49.6202443], [6.1357976, 49.6203525], [6.136096, 49.6204367], [6.1368077, 49.6207307], [6.1365886, 49.62091], [6.1368308, 49.6210146], [6.1369864, 49.6209772], [6.1369403, 49.6210968], [6.1377187, 49.6215861], [6.1374996, 49.6217915], [6.1382146, 49.6223108], [6.1386157, 49.6225517], [6.1384486, 49.6226416], [6.1380841, 49.6228377], [6.1375075, 49.6225867], [6.1370931, 49.6225342], [6.1366066, 49.6221023], [6.1364264, 49.6220556], [6.1364264, 49.6221665], [6.1361832, 49.6221665], [6.1361832, 49.6220731], [6.1357868, 49.6219213], [6.1351201, 49.6217579], [6.1347355, 49.6217772]]]}}]}