{"type": "FeatureCollection", "features": [{"type": "Feature", "properties": {"name": "Limpertsberg"}, "geometry": {"type": "Polygon", "coordinates": [[[6.1306295, 49.6176151], [6.1293408, 49.6174175], [6.1264939, 49.6169443], [6.1264901, 49.616886], [6.1264507, 49.6168276], [6.1263959, 49.6167786], [6.1263234, 49.6167405], [6.1262819, 49.6167259], [6.1262381, 49.6167159], [6.1261459, 49.6167064], [6.126053, 49.6167126], [6.1259658, 49.6167343], [6.1259283, 49.6167519], [6.1258902, 49.6167698], [6.1258314, 49.6168168], [6.1257933, 49.6168721], [6.1257814, 49.6169207], [6.1257787, 49.6169318], [6.1257884, 49.616992], [6.1258218, 49.6170485], [6.1258766, 49.6170975], [6.1247275, 49.6178556], [6.1246912, 49.6178472], [6.1221259, 49.6161697], [6.1217421, 49.6164003], [6.1215169, 49.6162447], [6.1204892, 49.6155696], [6.1202476, 49.6154129], [6.1198227, 49.6151088], [6.1194845, 49.6148613], [6.1192917, 49.6146727], [6.1186078, 49.6150967], [6.1185208, 49.6153952], [6.1175945, 49.6159323], [6.1170929, 49.6160086], [6.1169292, 49.6162739], [6.1171595, 49.6168011], [6.117301, 49.6173699], [6.1168751, 49.6177053], [6.1173684, 49.6178583], [6.1163045, 49.6184885], [6.1146164, 49.6189854], [6.1124479, 49.6189143], [6.111581, 49.6192209], [6.111293, 49.6191129], [6.1097975, 49.6198517], [6.108558, 49.6198725], [6.1071337, 49.619941], [6.1067754, 49.6202129], [6.1072514, 49.6214629], [6.1070627, 49.6224097], [6.1071519, 49.6223854], [6.1072498, 49.6223988], [6.1073101, 49.6224427], [6.1073256, 49.6225044], [6.1072501, 49.6227], [6.107276, 49.622794], [6.1073416, 49.6228658], [6.1074288, 49.6229093], [6.1075469, 49.6229319], [6.1076826, 49.6229202], [6.1078653, 49.622884], [6.1080531, 49.6228253], [6.1082358, 49.6227579], [6.1083019, 49.6228196], [6.1084015, 49.6229099], [6.1082563, 49.6229722], [6.1082053, 49.6230641], [6.1081443, 49.623091], [6.1085017, 49.6234574], [6.1080323, 49.6236245], [6.1082173, 49.6237712], [6.1079321, 49.6240953], [6.1077386, 49.6243837], [6.1070933, 49.6240947], [6.1066936, 49.6249076], [6.1066204, 49.626313], [6.1127643, 49.626365], [6.1132841, 49.6264747], [6.1176821, 49.6272436], [6.1196344, 49.6267884], [6.1198526, 49.6270213], [6.1204044, 49.6267778], [6.1207323, 49.6260837], [6.121324, 49.6257522], [6.1210361, 49.6255088], [6.1217504, 49.6249248], [6.1221157, 49.6249418], [6.1220557, 49.6251243], [6.1229194, 49.6251716], [6.123048, 49.6253561], [6.1246158, 49.625301], [6.1247463, 49.6259439], [6.1253242, 49.6259426], [6.1253583, 49.6258222], [6.1267321, 49.6258392], [6.1266876, 49.6259742], [6.1278187, 49.6259811], [6.1281166, 49.6259034], [6.1284033, 49.6257997], [6.1285494, 49.6256529], [6.1286262, 49.625084], [6.1285924, 49.624287], [6.1291738, 49.6237989], [6.1289302, 49.6237651], [6.128877, 49.6228892], [6.1295425, 49.6226435], [6.129616, 49.6221155], [6.1304491, 49.6221366], [6.130443, 49.6229265], [6.1307771, 49.6229214], [6.1310325, 49.6229066], [6.1312487, 49.621554], [6.1311718, 49.621032], [6.130891, 49.620731], [6.1311656, 49.6205299], [6.1311297, 49.6201548], [6.1307749, 49.6195524], [6.1307488, 49.6181801], [6.1306295, 49.6176151]]]}}]}