{"type": "FeatureCollection", "features": [{"type": "Feature", "properties": {"name": "Merl"}, "geometry": {"type": "Polygon", "coordinates": [[[6.0916576, 49.6133224], [6.0916748, 49.6132864], [6.0918726, 49.6132632], [6.0919979, 49.613244], [6.092097, 49.6132279], [6.0921446, 49.6132178], [6.0935458, 49.6128619], [6.0936745, 49.6128289], [6.0941772, 49.6127021], [6.094435, 49.6126358], [6.0945814, 49.6125961], [6.0946825, 49.6125687], [6.0951499, 49.6124741], [6.0954772, 49.6124308], [6.0956137, 49.6124127], [6.0957063, 49.612406], [6.0959206, 49.6123905], [6.0962253, 49.6123745], [6.096292, 49.612373], [6.0964178, 49.6123703], [6.0965977, 49.6123652], [6.0969018, 49.6123636], [6.0971024, 49.612362], [6.097353, 49.6123592], [6.0974232, 49.6123587], [6.0975839, 49.6123577], [6.0975818, 49.612284], [6.0975779, 49.6121549], [6.097572, 49.611917], [6.0975602, 49.6115502], [6.0975286, 49.6108313], [6.0974893, 49.6105343], [6.0974602, 49.610318], [6.0974402, 49.6100654], [6.0974334, 49.6099794], [6.0974174, 49.6097878], [6.0974135, 49.6097479], [6.0974243, 49.6096582], [6.097426, 49.609591], [6.0974361, 49.6095422], [6.0974611, 49.6094559], [6.0974793, 49.6094008], [6.0982444, 49.6072075], [6.0982724, 49.6071273], [6.0983374, 49.606862], [6.098312, 49.6065531], [6.0981441, 49.6060286], [6.0980631, 49.6057971], [6.0983452, 49.6057707], [6.098509, 49.6057553], [6.0985621, 49.6057463], [6.0986014, 49.6059491], [6.1018011, 49.6062363], [6.1017901, 49.606781], [6.1015033, 49.6066915], [6.1012179, 49.6066289], [6.1010558, 49.6073636], [6.1017976, 49.6074163], [6.1018129, 49.6073412], [6.1018414, 49.6072001], [6.1018752, 49.6071043], [6.1019346, 49.6070122], [6.1027587, 49.6071113], [6.102625, 49.6075253], [6.1029437, 49.607574], [6.1031604, 49.6073705], [6.1033765, 49.6074733], [6.1035711, 49.6073602], [6.1036117, 49.6073362], [6.1036443, 49.6073175], [6.1037286, 49.6072644], [6.1037706, 49.6072398], [6.1038392, 49.6071981], [6.1038948, 49.607168], [6.1041373, 49.6070281], [6.1041578, 49.6070181], [6.1042304, 49.6069804], [6.1042502, 49.6069692], [6.1043598, 49.6068841], [6.1046124, 49.606666], [6.1047597, 49.6066151], [6.1047283, 49.6065744], [6.1047432, 49.6064844], [6.1048854, 49.6064919], [6.1049168, 49.6065048], [6.1049553, 49.6065926], [6.1050646, 49.6066025], [6.1053851, 49.6066315], [6.1054765, 49.6065984], [6.105603, 49.6065527], [6.1056578, 49.6065328], [6.1058431, 49.6064783], [6.105945, 49.6064152], [6.1064897, 49.6061984], [6.1061982, 49.6060341], [6.1063014, 49.6053672], [6.1064972, 49.6048438], [6.1067877, 49.6043102], [6.1064297, 49.6041758], [6.1056002, 49.6038963], [6.1060662, 49.603345], [6.1061012, 49.6033006], [6.1061538, 49.603234], [6.1061868, 49.60319], [6.1062934, 49.6032274], [6.1072873, 49.6035756], [6.1073967, 49.60347], [6.1076774, 49.6035819], [6.1082143, 49.602895], [6.1078238, 49.6026419], [6.1078656, 49.6023572], [6.1066523, 49.6002829], [6.103368, 49.6004637], [6.1012064, 49.6003733], [6.0990518, 49.6000503], [6.0981605, 49.5998376], [6.0974419, 49.5996295], [6.0964474, 49.5992854], [6.0954936, 49.598885], [6.092021, 49.6002934], [6.0911777, 49.5998784], [6.0906622, 49.6000403], [6.0888919, 49.5993281], [6.0867889, 49.598613], [6.0861173, 49.5982587], [6.0838713, 49.597118], [6.0836129, 49.5969677], [6.0808856, 49.5953812], [6.0804728, 49.5951085], [6.0772149, 49.593602], [6.0748878, 49.591729], [6.0739996, 49.5913098], [6.0730521, 49.5893264], [6.0729421, 49.5893132], [6.0726643, 49.5890547], [6.0726239, 49.5890171], [6.0725607, 49.5889725], [6.0723544, 49.5888269], [6.0722318, 49.5887404], [6.0720931, 49.5886671], [6.0717893, 49.5884588], [6.0716511, 49.5883397], [6.0712919, 49.5880314], [6.0709792, 49.5876887], [6.0709381, 49.5877728], [6.0707102, 49.5885727], [6.0706997, 49.588608], [6.0706462, 49.5887068], [6.0706241, 49.5887477], [6.0705868, 49.5888106], [6.0702456, 49.5886948], [6.0698785, 49.5886615], [6.0695962, 49.5892131], [6.0692872, 49.5898225], [6.0697394, 49.5899169], [6.0699784, 49.589971], [6.070206, 49.5900571], [6.0703504, 49.5901206], [6.070516, 49.5901933], [6.0709128, 49.5903804], [6.0714167, 49.5906642], [6.0718637, 49.5909727], [6.0722259, 49.5912276], [6.0724746, 49.5913959], [6.0727031, 49.5915554], [6.0728933, 49.5916939], [6.0730045, 49.5917793], [6.0730579, 49.5918205], [6.0736493, 49.5922966], [6.0739233, 49.5925461], [6.0741217, 49.5927223], [6.0741769, 49.5927718], [6.0742675, 49.5928547], [6.0743344, 49.5929214], [6.0744045, 49.5930017], [6.0744928, 49.5931133], [6.0746094, 49.5932698], [6.0746488, 49.5933213], [6.0747224, 49.5933929], [6.0747893, 49.5934462], [6.0748573, 49.5934905], [6.0748902, 49.5935108], [6.075002, 49.5935632], [6.0752402, 49.5936693], [6.0754285, 49.5937501], [6.0755067, 49.5937885], [6.0755656, 49.5938229], [6.0756688, 49.5938945], [6.0757581, 49.5939624], [6.0760266, 49.5941552], [6.0761581, 49.5942423], [6.0762792, 49.5943151], [6.0764537, 49.5944174], [6.0765683, 49.5944841], [6.0766961, 49.5945694], [6.0768287, 49.5946642], [6.0769194, 49.5947295], [6.0769974, 49.5947897], [6.0771493, 49.5949098], [6.0772477, 49.5949959], [6.0774209, 49.5951464], [6.0776916, 49.5953818], [6.0777857, 49.595464], [6.0778347, 49.5955068], [6.0775978, 49.5957913], [6.0775055, 49.5959143], [6.0773915, 49.5960605], [6.0773295, 49.5961427], [6.0772469, 49.5962513], [6.0771135, 49.5964374], [6.077046, 49.5965349], [6.0769771, 49.5966341], [6.0769208, 49.5967143], [6.0768602, 49.5967949], [6.0768578, 49.5967973], [6.0768176, 49.596839], [6.0767612, 49.5968865], [6.076712, 49.5969184], [6.0766515, 49.5969455], [6.0765993, 49.596959], [6.076521, 49.5969666], [6.0763644, 49.5969648], [6.0762014, 49.5969603], [6.0760627, 49.5969602], [6.0759367, 49.5969644], [6.075932, 49.5969646], [6.0758103, 49.5969719], [6.0756029, 49.5969887], [6.0756807, 49.5971989], [6.0757641, 49.5974212], [6.0756611, 49.5974608], [6.0756295, 49.5975223], [6.0755702, 49.5976496], [6.075567, 49.5976567], [6.0755384, 49.5977208], [6.0754916, 49.5978401], [6.0754681, 49.5979096], [6.0754529, 49.5979733], [6.075439, 49.5980513], [6.0754238, 49.5981579], [6.0754263, 49.5982452], [6.0754371, 49.5983214], [6.0754549, 49.5983969], [6.0754835, 49.5984979], [6.0754916, 49.5985654], [6.0754956, 49.598674], [6.0754884, 49.598828], [6.0754977, 49.5989841], [6.0755044, 49.5990596], [6.0755138, 49.5991364], [6.0755315, 49.5992476], [6.0755654, 49.5994099], [6.0755953, 49.5995652], [6.0756061, 49.5996637], [6.0756072, 49.5997921], [6.0755945, 49.600016], [6.0755848, 49.6000533], [6.075538, 49.6001228], [6.0754638, 49.6002294], [6.0753593, 49.6003588], [6.075252, 49.6004852], [6.0751351, 49.6006146], [6.0750553, 49.6006985], [6.0749536, 49.6007972], [6.0748531, 49.6008904], [6.0747885, 49.6009446], [6.0746553, 49.6010533], [6.0749776, 49.6011707], [6.0750309, 49.6011895], [6.0753606, 49.6013065], [6.0758039, 49.601468], [6.0758368, 49.6014797], [6.075997, 49.6015369], [6.0760764, 49.6015652], [6.0761977, 49.6016085], [6.0763392, 49.6016594], [6.0763883, 49.6016771], [6.0766265, 49.6017628], [6.0766609, 49.6017752], [6.0769828, 49.6018911], [6.0771165, 49.6014785], [6.0776607, 49.6015208], [6.0777988, 49.6015316], [6.0780614, 49.6015514], [6.0782303, 49.6015642], [6.0785111, 49.6015854], [6.0784773, 49.6016852], [6.0784347, 49.6018107], [6.0783905, 49.6019542], [6.0783813, 49.601994], [6.0783749, 49.6020224], [6.0783495, 49.6021366], [6.078324, 49.6022966], [6.078298, 49.6024831], [6.0782802, 49.6026626], [6.078275, 49.6027799], [6.0782767, 49.6028828], [6.0782777, 49.602974], [6.0782784, 49.6030283], [6.0782912, 49.6032237], [6.0786417, 49.6032298], [6.078755, 49.6032199], [6.0788265, 49.6032079], [6.0789478, 49.6031817], [6.0790549, 49.6031571], [6.0792803, 49.6030844], [6.0792937, 49.60308], [6.0793178, 49.6030848], [6.0793804, 49.6030972], [6.0794079, 49.6031027], [6.0795278, 49.6031328], [6.0799851, 49.6032395], [6.0800822, 49.6032622], [6.0802714, 49.6033063], [6.080376, 49.6033307], [6.0804244, 49.603345], [6.0806794, 49.6032732], [6.0808505, 49.6032227], [6.0809523, 49.6031927], [6.0809573, 49.603225], [6.0809867, 49.6034628], [6.0809936, 49.6035186], [6.0809794, 49.6036452], [6.0809697, 49.6037317], [6.0809573, 49.6038426], [6.0809415, 49.6039017], [6.0809392, 49.6039661], [6.0809407, 49.6040129], [6.0809459, 49.6040615], [6.080952, 49.6041097], [6.0809828, 49.6042264], [6.0809974, 49.6042642], [6.0810146, 49.6043083], [6.0810988, 49.6043921], [6.0815999, 49.604258], [6.0813906, 49.6043318], [6.0813674, 49.6044258], [6.0813245, 49.6045385], [6.0812884, 49.6046184], [6.0812611, 49.6046804], [6.081236, 49.6047514], [6.0812163, 49.6048254], [6.081209, 49.6048643], [6.0812004, 49.6049095], [6.0811873, 49.6049794], [6.0812628, 49.60501], [6.0813365, 49.6050397], [6.0815165, 49.6051125], [6.0816705, 49.6051772], [6.0817598, 49.6052153], [6.081911, 49.6052797], [6.0820051, 49.6053286], [6.0821758, 49.6054089], [6.0823658, 49.6054771], [6.0822685, 49.6055775], [6.0823195, 49.6055978], [6.0823999, 49.6056393], [6.0824305, 49.6056551], [6.0826152, 49.6057506], [6.0830413, 49.6059707], [6.0832644, 49.606086], [6.0833619, 49.6061364], [6.0833642, 49.6061374], [6.0838257, 49.6063479], [6.0843274, 49.6065841], [6.0848306, 49.6068299], [6.08501, 49.6069214], [6.0851982, 49.6070282], [6.0853599, 49.6071285], [6.0854499, 49.6071843], [6.0856006, 49.6072823], [6.0856765, 49.6073306], [6.0857567, 49.6073854], [6.0859456, 49.6075185], [6.0863093, 49.6077837], [6.0864921, 49.6079206], [6.0868035, 49.6081648], [6.0872527, 49.6085216], [6.0875425, 49.6087503], [6.0877305, 49.6089032], [6.0878424, 49.6089932], [6.0879083, 49.6090925], [6.0880676, 49.6092182], [6.0881789, 49.609336], [6.0884583, 49.6096524], [6.0887125, 49.6100004], [6.0888551, 49.6102397], [6.0889877, 49.610469], [6.0890766, 49.6106239], [6.0891392, 49.6107589], [6.089273, 49.6110463], [6.0893205, 49.6111521], [6.0893705, 49.6112569], [6.0894068, 49.6113275], [6.0894206, 49.6113562], [6.0895185, 49.61156], [6.0893664, 49.6116162], [6.0894702, 49.6117435], [6.0897608, 49.6121188], [6.0900388, 49.612479], [6.090234, 49.6127346], [6.0903317, 49.6128553], [6.0905147, 49.6130998], [6.0906687, 49.6133073], [6.0906918, 49.6133366], [6.0911829, 49.6133424], [6.0916576, 49.6133224]]]}}]}