{"type": "FeatureCollection", "features": [{"type": "Feature", "properties": {"name": "Rollingergrund"}, "geometry": {"type": "Polygon", "coordinates": [[[6.0961421, 49.6172092], [6.0963055, 49.6174124], [6.096362, 49.6174908], [6.0963779, 49.6175141], [6.0963948, 49.6175387], [6.0964539, 49.6176354], [6.0964773, 49.6176858], [6.0965132, 49.617763], [6.0965449, 49.6178329], [6.0964972, 49.6178215], [6.09653, 49.6178745], [6.0965703, 49.6179376], [6.0965834, 49.6179574], [6.0967047, 49.6181424], [6.0967289, 49.6181792], [6.0967519, 49.6182134], [6.0968738, 49.618409], [6.0968914, 49.6184368], [6.0969468, 49.6185259], [6.0969617, 49.6185506], [6.0969928, 49.6186021], [6.0970216, 49.6186532], [6.0970674, 49.6187368], [6.0971919, 49.6187107], [6.0972868, 49.6186791], [6.097459, 49.6186218], [6.0974873, 49.6186125], [6.0975635, 49.6185871], [6.0975828, 49.6186347], [6.0976047, 49.6186781], [6.0976272, 49.6187263], [6.0976452, 49.6187673], [6.0976642, 49.6188097], [6.0976879, 49.6188623], [6.0977041, 49.6188983], [6.097726, 49.6189484], [6.0977743, 49.6190593], [6.0978759, 49.6192613], [6.0978939, 49.6193104], [6.0979181, 49.6193767], [6.0979619, 49.6194964], [6.0979832, 49.6195545], [6.097977, 49.6196378], [6.0979829, 49.6196913], [6.0980186, 49.6197566], [6.0978577, 49.6198122], [6.0978389, 49.6198188], [6.0977379, 49.6198561], [6.0978364, 49.6199478], [6.0978637, 49.6199731], [6.0979125, 49.6200151], [6.0980294, 49.6201246], [6.0980423, 49.6201362], [6.0980684, 49.6201605], [6.0982042, 49.6202553], [6.0990257, 49.6208283], [6.0994249, 49.6211068], [6.0997622, 49.621342], [6.1002966, 49.6217148], [6.1006064, 49.6219309], [6.1008881, 49.6221274], [6.1009851, 49.622195], [6.1007883, 49.6224672], [6.1009195, 49.6224789], [6.1010457, 49.6224949], [6.1011799, 49.6225052], [6.1012594, 49.6225192], [6.1015671, 49.6225867], [6.101492, 49.6227263], [6.1014115, 49.6228791], [6.1013291, 49.6230306], [6.1014876, 49.6230615], [6.1016097, 49.6230855], [6.1018788, 49.6231418], [6.1020577, 49.6231798], [6.1019903, 49.6232947], [6.1019309, 49.6233959], [6.102134, 49.6234451], [6.1024552, 49.6235251], [6.1025855, 49.6235596], [6.102589, 49.6235605], [6.1026276, 49.6235701], [6.1027205, 49.6235988], [6.1029873, 49.6236811], [6.1028861, 49.6238106], [6.1030289, 49.6238549], [6.103094, 49.6239348], [6.1032051, 49.6240727], [6.1032831, 49.6241601], [6.103347, 49.6242318], [6.1034809, 49.6243994], [6.1035489, 49.6244871], [6.1036523, 49.6246122], [6.103731, 49.624711], [6.1037334, 49.6247485], [6.1037354, 49.6247786], [6.1037383, 49.6247957], [6.1037553, 49.6248426], [6.1037584, 49.6248514], [6.1037705, 49.6248838], [6.1037501, 49.625044], [6.1035984, 49.6250378], [6.1033459, 49.6249762], [6.1026724, 49.6247729], [6.1018845, 49.6245685], [6.1011769, 49.6244052], [6.1006406, 49.6242986], [6.1000176, 49.6242278], [6.099517, 49.6241861], [6.0992027, 49.6241729], [6.0988112, 49.624151], [6.0979851, 49.6241689], [6.0973774, 49.6241559], [6.096593, 49.6241605], [6.0961463, 49.6241632], [6.0956751, 49.6241722], [6.0954884, 49.6241857], [6.0953093, 49.6242097], [6.0950956, 49.6242587], [6.0949206, 49.6243129], [6.0947471, 49.6243684], [6.0943624, 49.624503], [6.0941778, 49.6245591], [6.0940113, 49.6246096], [6.0938888, 49.624639], [6.0934653, 49.6247061], [6.0931997, 49.6247493], [6.0930531, 49.6247524], [6.0929297, 49.6247452], [6.0927947, 49.6247229], [6.0925321, 49.6246687], [6.09225, 49.6246056], [6.0921287, 49.6245599], [6.0919458, 49.6244916], [6.0916581, 49.6243405], [6.0912296, 49.6241595], [6.0908842, 49.6240117], [6.0904733, 49.6238351], [6.0900164, 49.6236306], [6.0893507, 49.6233206], [6.0891104, 49.6232123], [6.0890905, 49.6232283], [6.0890159, 49.623233], [6.0890357, 49.62328], [6.0890661, 49.6233556], [6.0890766, 49.623394], [6.0890808, 49.6234325], [6.0890996, 49.6236422], [6.089128, 49.6238296], [6.0891685, 49.6240474], [6.089212, 49.6242806], [6.0892312, 49.6243737], [6.0892405, 49.6244189], [6.0892511, 49.6244423], [6.0892738, 49.6244573], [6.0893751, 49.6245097], [6.0897059, 49.6246694], [6.0901035, 49.6248637], [6.0902895, 49.6249577], [6.0905251, 49.6250767], [6.0907954, 49.6252242], [6.0910197, 49.625356], [6.0906122, 49.6255127], [6.0904639, 49.625572], [6.0900945, 49.6257196], [6.0898527, 49.6258229], [6.0895418, 49.6259608], [6.0894631, 49.6259962], [6.0893694, 49.6260557], [6.0892345, 49.6261519], [6.0890772, 49.6262684], [6.0888983, 49.6264094], [6.0887425, 49.6265285], [6.0885319, 49.6266788], [6.0884186, 49.626756], [6.0882428, 49.626868], [6.0880963, 49.626946], [6.0880522, 49.6269695], [6.0879719, 49.627011], [6.0878295, 49.6270847], [6.0883617, 49.6275279], [6.088474, 49.6276214], [6.0887143, 49.627821], [6.0875828, 49.6281387], [6.0868457, 49.628282], [6.0849811, 49.6284295], [6.0846958, 49.6284688], [6.0843194, 49.6285208], [6.0841519, 49.6285439], [6.0835948, 49.6286208], [6.083554, 49.6286264], [6.0833751, 49.6286511], [6.082769, 49.6287347], [6.0826689, 49.6287424], [6.0824789, 49.628759], [6.0793223, 49.6286836], [6.0782755, 49.6285331], [6.0781907, 49.6285166], [6.0766699, 49.6282228], [6.0757655, 49.6280481], [6.0754581, 49.6279762], [6.0749544, 49.6278698], [6.0747255, 49.6278214], [6.0745152, 49.6277769], [6.073765, 49.6276184], [6.0731369, 49.6274833], [6.0728622, 49.6274232], [6.0721559, 49.627899], [6.0718569, 49.6280627], [6.0714368, 49.6283205], [6.0712155, 49.628458], [6.0710432, 49.628565], [6.0708746, 49.6286904], [6.0707487, 49.6287839], [6.0706066, 49.6288894], [6.0704586, 49.6291205], [6.0703644, 49.629266], [6.070268, 49.6294149], [6.0702139, 49.6294951], [6.0701433, 49.6295997], [6.0699828, 49.6298468], [6.0698949, 49.6299736], [6.0697429, 49.6301994], [6.0695626, 49.6304764], [6.0694995, 49.6305783], [6.069468, 49.6306329], [6.069425, 49.6307204], [6.0693861, 49.6308066], [6.0693816, 49.6308242], [6.0693731, 49.6308572], [6.0693654, 49.6309281], [6.0693231, 49.6312119], [6.069274, 49.6315233], [6.0692663, 49.6315726], [6.06917, 49.6319673], [6.0692512, 49.6319665], [6.0692436, 49.6321591], [6.0697452, 49.633261], [6.069961, 49.633735], [6.0702442, 49.6339392], [6.0705203, 49.6341355], [6.0707365, 49.6342856], [6.0711932, 49.6346413], [6.071548, 49.6349441], [6.0716322, 49.6350394], [6.0717197, 49.6351699], [6.0718572, 49.6353945], [6.0719735, 49.6355719], [6.07202, 49.6356256], [6.0721491, 49.6357155], [6.0724145, 49.6358919], [6.0726899, 49.6360676], [6.0728082, 49.6361763], [6.0730232, 49.6364003], [6.0731501, 49.636565], [6.0733987, 49.6369347], [6.0734792, 49.637091], [6.0735718, 49.637343], [6.0736736, 49.637609], [6.0737022, 49.6376677], [6.07377, 49.6378192], [6.0738613, 49.6379755], [6.0739524, 49.6381126], [6.0740957, 49.6383088], [6.0742315, 49.6384656], [6.0743891, 49.638663], [6.0745086, 49.6387978], [6.0747756, 49.6390573], [6.0750584, 49.6393197], [6.0752681, 49.6395105], [6.0754326, 49.639655], [6.0758784, 49.6402043], [6.0762111, 49.6406702], [6.0765047, 49.6410772], [6.0765921, 49.641194], [6.0767712, 49.6414402], [6.0769054, 49.6416281], [6.0770517, 49.6419843], [6.0771533, 49.6423445], [6.0771834, 49.6425544], [6.0772117, 49.6427694], [6.0771914, 49.6430526], [6.0771678, 49.6432149], [6.0771166, 49.6436783], [6.0770838, 49.6439585], [6.0771532, 49.6443043], [6.0772215, 49.6445744], [6.0774282, 49.6451692], [6.0776603, 49.6456608], [6.0778082, 49.6460319], [6.0778923, 49.6462189], [6.0781292, 49.6465516], [6.0783705, 49.6468399], [6.0791879, 49.6466739], [6.0797405, 49.6464621], [6.0809305, 49.6464691], [6.0822248, 49.6464748], [6.0832846, 49.6464317], [6.0843215, 49.6463632], [6.0854512, 49.6462626], [6.08548, 49.64626], [6.086606, 49.6461841], [6.0878355, 49.6461093], [6.0890497, 49.6460698], [6.0902692, 49.6460435], [6.0914336, 49.6460074], [6.0925985, 49.6459902], [6.0938617, 49.645993], [6.09511, 49.6460685], [6.0963996, 49.6461024], [6.0976132, 49.6461195], [6.0976842, 49.6461205], [6.0986643, 49.6461662], [6.0988478, 49.6461748], [6.0992123, 49.6461918], [6.0992757, 49.646193], [6.1000052, 49.6462074], [6.1000256, 49.6462078], [6.1020518, 49.6449502], [6.1023946, 49.6445962], [6.1033567, 49.6432308], [6.1044315, 49.641544], [6.1050149, 49.6405762], [6.1058542, 49.639224], [6.106714, 49.6380011], [6.1073845, 49.6368974], [6.1082903, 49.6354589], [6.1091245, 49.6341695], [6.1100969, 49.6326017], [6.111013, 49.6311564], [6.1116783, 49.6298404], [6.1125279, 49.6291542], [6.1135924, 49.6284813], [6.1129782, 49.6283354], [6.1124818, 49.6282558], [6.1108799, 49.628236], [6.110753, 49.6276565], [6.1111348, 49.6275921], [6.1109567, 49.6266447], [6.1132841, 49.6264747], [6.1127643, 49.626365], [6.1066204, 49.626313], [6.1066936, 49.6249076], [6.1070933, 49.6240947], [6.1077386, 49.6243837], [6.1079321, 49.6240953], [6.1082173, 49.6237712], [6.1080323, 49.6236245], [6.1085017, 49.6234574], [6.1081443, 49.623091], [6.1082053, 49.6230641], [6.1082563, 49.6229722], [6.1084015, 49.6229099], [6.1083019, 49.6228196], [6.1082358, 49.6227579], [6.1080531, 49.6228253], [6.1078653, 49.622884], [6.1076826, 49.6229202], [6.1075469, 49.6229319], [6.1074288, 49.6229093], [6.1073416, 49.6228658], [6.107276, 49.622794], [6.1072501, 49.6227], [6.1073256, 49.6225044], [6.1073101, 49.6224427], [6.1072498, 49.6223988], [6.1071519, 49.6223854], [6.1070627, 49.6224097], [6.1072514, 49.6214629], [6.1067754, 49.6202129], [6.1071337, 49.619941], [6.108558, 49.6198725], [6.1097975, 49.6198517], [6.111293, 49.6191129], [6.111581, 49.6192209], [6.1124479, 49.6189143], [6.1146164, 49.6189854], [6.1163045, 49.6184885], [6.1173684, 49.6178583], [6.1168751, 49.6177053], [6.117301, 49.6173699], [6.1171595, 49.6168011], [6.1169292, 49.6162739], [6.1170929, 49.6160086], [6.1175945, 49.6159323], [6.1185208, 49.6153952], [6.1186078, 49.6150967], [6.1192917, 49.6146727], [6.1191484, 49.6145409], [6.1191822, 49.6138061], [6.1190704, 49.6135606], [6.1180159, 49.6140847], [6.1173515, 49.6141439], [6.1168239, 49.614199], [6.1151309, 49.6144739], [6.1152967, 49.6150386], [6.1148469, 49.6152814], [6.11346, 49.6154191], [6.1133669, 49.6152312], [6.1128866, 49.615122], [6.1128394, 49.61497], [6.1110908, 49.6152092], [6.1113137, 49.6159583], [6.108475, 49.6163547], [6.1081419, 49.6154453], [6.108045, 49.6151807], [6.1077671, 49.6152145], [6.107685, 49.6152242], [6.1076969, 49.6152514], [6.1077296, 49.6154032], [6.1075686, 49.6154299], [6.1075115, 49.6154382], [6.1073239, 49.6154655], [6.1073969, 49.6156761], [6.1069104, 49.6157193], [6.1069055, 49.6156883], [6.1062111, 49.6157663], [6.1062531, 49.6164775], [6.1051812, 49.6166134], [6.1051611, 49.6163664], [6.1021105, 49.6167527], [6.1019966, 49.6165122], [6.0979853, 49.6170989], [6.0976451, 49.6170165], [6.0961421, 49.6172092]]]}}]}