{"type": "FeatureCollection", "features": [{"type": "Feature", "properties": {"name": "Ville-Haute"}, "geometry": {"type": "Polygon", "coordinates": [[[6.1270466, 49.6084673], [6.1266872, 49.6087913], [6.1259937, 49.6084968], [6.1255626, 49.6083085], [6.1249299, 49.6079532], [6.1246863, 49.6078317], [6.1245165, 49.6077707], [6.1241848, 49.6076495], [6.1236178, 49.6074673], [6.1233413, 49.6073368], [6.1231211, 49.6070422], [6.1231258, 49.6065988], [6.1226712, 49.6060188], [6.1221885, 49.605542], [6.1220948, 49.6053021], [6.1218839, 49.6053203], [6.1200048, 49.605703], [6.1198457, 49.605938], [6.1199834, 49.6077464], [6.1193897, 49.6095252], [6.1193521, 49.6096365], [6.1183845, 49.611045], [6.1182963, 49.6112287], [6.1182815, 49.6114133], [6.1182998, 49.6115148], [6.1183469, 49.6116188], [6.1184225, 49.6117333], [6.1186481, 49.6119698], [6.118881, 49.6122139], [6.1191812, 49.6125731], [6.1198022, 49.6131794], [6.119886, 49.6132673], [6.1197771, 49.6133873], [6.1197423, 49.6134359], [6.11965, 49.6136432], [6.1191822, 49.6138061], [6.1191484, 49.6145409], [6.1192917, 49.6146727], [6.1194845, 49.6148613], [6.1198227, 49.6151088], [6.1202476, 49.6154129], [6.1204892, 49.6155696], [6.1215169, 49.6162447], [6.1217421, 49.6164003], [6.1221259, 49.6161697], [6.1246912, 49.6178472], [6.1247275, 49.6178556], [6.1258766, 49.6170975], [6.1258218, 49.6170485], [6.1257884, 49.616992], [6.1257787, 49.6169318], [6.1257814, 49.6169207], [6.1257933, 49.6168721], [6.1258314, 49.6168168], [6.1258902, 49.6167698], [6.1259283, 49.6167519], [6.1259658, 49.6167343], [6.126053, 49.6167126], [6.1261459, 49.6167064], [6.1262381, 49.6167159], [6.1262819, 49.6167259], [6.1263234, 49.6167405], [6.1263959, 49.6167786], [6.1264507, 49.6168276], [6.1264901, 49.616886], [6.1264939, 49.6169443], [6.1293408, 49.6174175], [6.1306295, 49.6176151], [6.1305457, 49.6171362], [6.1307164, 49.6171132], [6.130674, 49.6168756], [6.1307344, 49.6166504], [6.1307191, 49.616563], [6.1308162, 49.6164088], [6.1308659, 49.616347], [6.1309094, 49.6162813], [6.1307329, 49.6162127], [6.1305946, 49.6161803], [6.1305563, 49.6161098], [6.130627, 49.6159935], [6.1306623, 49.6158372], [6.1308018, 49.615643], [6.1307314, 49.6156246], [6.1304848, 49.615565], [6.1305785, 49.6154206], [6.1307063, 49.6154494], [6.1308626, 49.6151948], [6.1309669, 49.6149822], [6.1311089, 49.6150133], [6.1312026, 49.6148906], [6.1312636, 49.614908], [6.1315097, 49.6146295], [6.1311825, 49.6142572], [6.13159, 49.6139949], [6.1322215, 49.6135483], [6.1323393, 49.6135803], [6.132521, 49.613292], [6.1328069, 49.6130056], [6.1330953, 49.6127167], [6.133513, 49.6127187], [6.1336719, 49.6126424], [6.1339573, 49.6123641], [6.1341279, 49.6123469], [6.1344559, 49.6119812], [6.1349288, 49.6117636], [6.1351831, 49.6116814], [6.1357132, 49.611701], [6.1358847, 49.6116168], [6.1357799, 49.6112532], [6.1351547, 49.6108061], [6.1349446, 49.610772], [6.1348097, 49.6107062], [6.1345803, 49.6102694], [6.1344507, 49.6098836], [6.1343262, 49.6097573], [6.13411, 49.6096651], [6.1340384, 49.6096295], [6.1340113, 49.6095578], [6.1339975, 49.6094804], [6.1340002, 49.6093606], [6.1340121, 49.6092556], [6.1340371, 49.6092058], [6.134171, 49.6089213], [6.1344172, 49.6089034], [6.1343033, 49.6087033], [6.1349017, 49.607966], [6.1350081, 49.6078299], [6.1352758, 49.607795], [6.1353905, 49.6078489], [6.1355555, 49.6077059], [6.1355783, 49.6075721], [6.1357221, 49.6074934], [6.135814, 49.6074732], [6.1359642, 49.6075162], [6.1360758, 49.6074719], [6.1360664, 49.607441], [6.1360472, 49.6074389], [6.136019, 49.607416], [6.1360358, 49.6073365], [6.1361462, 49.6073242], [6.1361972, 49.6073135], [6.1362346, 49.6072977], [6.1362547, 49.6072803], [6.1362751, 49.6072524], [6.1362775, 49.6072388], [6.1362773, 49.6072233], [6.1362743, 49.6072138], [6.1363739, 49.6071938], [6.1363854, 49.6071861], [6.13639, 49.6071748], [6.1363873, 49.6071632], [6.1363614, 49.6071079], [6.136355, 49.6071018], [6.1363436, 49.607099], [6.1363302, 49.6071009], [6.1362518, 49.6071272], [6.1361197, 49.6069894], [6.1361573, 49.60695], [6.136161, 49.6069394], [6.136159, 49.6069305], [6.1361502, 49.606924], [6.1361176, 49.6069101], [6.1360627, 49.6069046], [6.1360295, 49.6069159], [6.1358046, 49.6068892], [6.1358009, 49.6068796], [6.1357362, 49.6068549], [6.1353794, 49.6067497], [6.1352225, 49.6067758], [6.1348031, 49.6067358], [6.1340958, 49.6065421], [6.1339666, 49.6065007], [6.133785, 49.606469], [6.1335712, 49.6064307], [6.1334799, 49.6065608], [6.1334118, 49.6066258], [6.1329907, 49.6069056], [6.1328509, 49.6069393], [6.1326879, 49.6070032], [6.1325409, 49.6070531], [6.1323743, 49.6071483], [6.132084, 49.6070415], [6.1319723, 49.6071283], [6.1318591, 49.6072365], [6.1317286, 49.6073559], [6.1315443, 49.6075189], [6.13141, 49.6076395], [6.1311571, 49.6078742], [6.130836, 49.6081383], [6.1305124, 49.6083302], [6.1301967, 49.6084008], [6.1301461, 49.6084045], [6.1287822, 49.6085982], [6.128418, 49.6086421], [6.1276396, 49.6086401], [6.1270466, 49.6084673]]]}}]}