{"type": "FeatureCollection", "features": [{"type": "Feature", "properties": {"name": "Parc Den Haff", "kind": "park"}, "geometry": {"type": "Polygon", "coordinates": [[[6.1182716, 49.6701658], [6.11833, 49.6701588], [6.1184111, 49.6699618], [6.1185466, 49.6697787], [6.1187853, 49.6694783], [6.118847, 49.6692956], [6.1188511, 49.6690877], [6.1188136, 49.6688977], [6.1188064, 49.6688614], [6.1187372, 49.6686733], [6.118599, 49.668447], [6.1184079, 49.6682891], [6.1181518, 49.6681168], [6.1181644, 49.6679932], [6.119442, 49.6680415], [6.1194418, 49.6680738], [6.1194612, 49.6681133], [6.1195001, 49.6681454], [6.1195545, 49.6681734], [6.1196209, 49.6681862], [6.1196382, 49.6685244], [6.1195993, 49.6695382], [6.1196101, 49.6696485], [6.119598, 49.6696645], [6.1195725, 49.6696706], [6.1195737, 49.6696947], [6.1195756, 49.669734], [6.1195765, 49.6697526], [6.1196054, 49.6697578], [6.1196201, 49.6697752], [6.119649, 49.6701106], [6.1196852, 49.6703576], [6.1197465, 49.6705339], [6.1198802, 49.6708661], [6.1189067, 49.6710432], [6.1188121, 49.6708809], [6.1186312, 49.6707016], [6.1185077, 49.6705728], [6.1184299, 49.6704565], [6.1183843, 49.670348], [6.1183742, 49.6702486], [6.1182716, 49.6701658]]]}}]}