{"type": "FeatureCollection", "features": [{"type": "Feature", "properties": {"name": "Kehlen"}, "geometry": {"type": "MultiPolygon", "coordinates": [[[[5.977514, 49.64864], [5.977983, 49.648796], [5.978121, 49.64884], [5.978155, 49.648853], [5.978445, 49.64895], [5.978422, 49.648983], [5.978868, 49.649166], [5.979116, 49.649265], [5.979162, 49.64929], [5.979212, 49.649307], [5.979528, 49.64944], [5.979689, 49.649513], [5.979864, 49.649605], [5.979933, 49.649643], [5.980021, 49.649693], [5.980574, 49.65], [5.980932, 49.650192], [5.981184, 49.65032], [5.981283, 49.650368], [5.981298, 49.650375], [5.981588, 49.650665], [5.981932, 49.65097], [5.982271, 49.65124], [5.982405, 49.651337], [5.982573, 49.651443], [5.982901, 49.65163], [5.982927, 49.65164], [5.982962, 49.65166], [5.983141, 49.65176], [5.983412, 49.651894], [5.983614, 49.651985], [5.983961, 49.652126], [5.984201, 49.65222], [5.984373, 49.652298], [5.984533, 49.65237], [5.984667, 49.65244], [5.984896, 49.652546], [5.984968, 49.65258], [5.985163, 49.652653], [5.985277, 49.652695], [5.985361, 49.65273], [5.985567, 49.65281], [5.985628, 49.652836], [5.985727, 49.652874], [5.985826, 49.65292], [5.985842, 49.65292], [5.986082, 49.652927], [5.986643, 49.652958], [5.986681, 49.65316], [5.986727, 49.65329], [5.986765, 49.653366], [5.986822, 49.65347], [5.986868, 49.653534], [5.986929, 49.653603], [5.987005, 49.653675], [5.986975, 49.65369], [5.98704, 49.653736], [5.987146, 49.653797], [5.987287, 49.653873], [5.987425, 49.65393], [5.987497, 49.65397], [5.9876, 49.654034], [5.987822, 49.654213], [5.987844, 49.654232], [5.987932, 49.65437], [5.987947, 49.654396], [5.987925, 49.654415], [5.987883, 49.654453], [5.987783, 49.654552], [5.987719, 49.654625], [5.987661, 49.65471], [5.987619, 49.65478], [5.987597, 49.65483], [5.987585, 49.654873], [5.987581, 49.654922], [5.987543, 49.655064], [5.98749, 49.65518], [5.987474, 49.6552], [5.98736, 49.655357], [5.987219, 49.655598], [5.987162, 49.655716], [5.987036, 49.656063], [5.986849, 49.656544], [5.986761, 49.65681], [5.986681, 49.656994], [5.986631, 49.657085], [5.986456, 49.65738], [5.986601, 49.657463], [5.986704, 49.657524], [5.986826, 49.6576], [5.987078, 49.657772], [5.987261, 49.657906], [5.987116, 49.658054], [5.987036, 49.658108], [5.986998, 49.65813], [5.987486, 49.658398], [5.987696, 49.658546], [5.98802, 49.6588], [5.988367, 49.659122], [5.988638, 49.65936], [5.988897, 49.659534], [5.988848, 49.65956], [5.989286, 49.66], [5.98966, 49.66049], [5.99021, 49.661137], [5.990293, 49.661255], [5.9904, 49.66143], [5.990412, 49.661495], [5.990393, 49.66156], [5.990343, 49.661686], [5.990286, 49.661797], [5.990213, 49.661896], [5.99008, 49.66209], [5.989962, 49.66227], [5.98987, 49.662403], [5.989748, 49.662617], [5.989687, 49.66272], [5.989557, 49.662914], [5.989592, 49.662964], [5.989794, 49.663033], [5.989878, 49.663063], [5.990061, 49.66312], [5.990248, 49.663177], [5.99069, 49.663296], [5.990934, 49.66335], [5.991148, 49.663395], [5.991758, 49.66349], [5.992079, 49.663532], [5.992422, 49.663567], [5.992331, 49.663757], [5.992231, 49.663956], [5.992132, 49.664112], [5.992086, 49.664185], [5.992041, 49.66425], [5.991819, 49.66459], [5.991735, 49.664722], [5.991503, 49.665073], [5.991686, 49.665123], [5.99209, 49.66527], [5.992292, 49.66535], [5.992399, 49.665394], [5.992659, 49.665516], [5.992907, 49.66565], [5.99312, 49.665775], [5.99354, 49.666027], [5.993815, 49.66619], [5.994253, 49.666473], [5.994688, 49.66676], [5.994566, 49.66696], [5.99444, 49.66718], [5.994398, 49.667255], [5.994352, 49.66733], [5.994337, 49.66736], [5.994314, 49.667397], [5.994291, 49.66744], [5.994211, 49.667538], [5.994196, 49.667557], [5.994162, 49.667595], [5.99412, 49.667645], [5.994043, 49.66773], [5.994005, 49.66777], [5.993872, 49.667927], [5.993837, 49.667965], [5.993792, 49.668003], [5.993742, 49.668007], [5.993704, 49.668015], [5.993666, 49.66802], [5.993494, 49.66805], [5.993254, 49.66811], [5.993158, 49.66814], [5.993059, 49.668175], [5.992899, 49.668236], [5.992815, 49.668266], [5.992697, 49.668304], [5.992647, 49.668324], [5.992636, 49.668327], [5.992578, 49.66835], [5.992495, 49.66838], [5.992468, 49.668392], [5.992247, 49.6685], [5.992159, 49.668575], [5.992041, 49.668694], [5.991987, 49.668747], [5.991911, 49.668827], [5.99188, 49.668858], [5.991839, 49.668896], [5.991728, 49.66898], [5.991674, 49.669018], [5.991591, 49.66908], [5.99119, 49.66936], [5.991037, 49.669647], [5.991007, 49.6697], [5.990912, 49.669846], [5.990801, 49.670017], [5.990713, 49.67013], [5.990629, 49.67025], [5.990503, 49.670406], [5.990183, 49.670784], [5.990164, 49.67081], [5.990087, 49.67091], [5.990026, 49.670986], [5.989805, 49.67128], [5.98974, 49.67137], [5.989721, 49.671394], [5.989538, 49.671646], [5.989263, 49.671936], [5.989069, 49.672127], [5.988485, 49.6725], [5.988405, 49.672585], [5.988367, 49.67264], [5.98831, 49.672718], [5.988161, 49.67307], [5.988054, 49.67333], [5.988035, 49.673386], [5.987974, 49.67353], [5.987898, 49.673717], [5.98839, 49.67376], [5.988913, 49.67382], [5.989363, 49.673885], [5.989531, 49.67391], [5.989496, 49.673973], [5.989702, 49.67429], [5.989794, 49.674423], [5.989904, 49.67456], [5.989927, 49.674595], [5.990145, 49.674847], [5.990232, 49.674942], [5.990519, 49.67527], [5.990564, 49.67533], [5.990625, 49.6754], [5.990789, 49.67559], [5.990862, 49.67567], [5.990972, 49.675804], [5.991018, 49.675858], [5.991137, 49.675983], [5.991346, 49.6762], [5.991655, 49.676224], [5.991922, 49.676243], [5.991926, 49.676342], [5.991934, 49.676495], [5.991922, 49.67693], [5.991922, 49.677284], [5.992285, 49.677364], [5.992411, 49.677387], [5.992342, 49.67815], [5.992323, 49.678394], [5.992289, 49.678802], [5.992784, 49.678844], [5.993296, 49.678894], [5.993288, 49.678932], [5.993681, 49.678967], [5.994039, 49.679], [5.994112, 49.679005], [5.995111, 49.679108], [5.995108, 49.67928], [5.995092, 49.67954], [5.995077, 49.67965], [5.995073, 49.67967], [5.994837, 49.67966], [5.994631, 49.679653], [5.994623, 49.6797], [5.994604, 49.679913], [5.994535, 49.68049], [5.994474, 49.68077], [5.994364, 49.68116], [5.99428, 49.68146], [5.993879, 49.68136], [5.993727, 49.681324], [5.99367, 49.681313], [5.993425, 49.68126], [5.993357, 49.681244], [5.993097, 49.681194], [5.992952, 49.681164], [5.992865, 49.681152], [5.992723, 49.68114], [5.991953, 49.68109], [5.99153, 49.681065], [5.991144, 49.68104], [5.990957, 49.681023], [5.99077, 49.681007], [5.990526, 49.680984], [5.990477, 49.680977], [5.990278, 49.68093], [5.990122, 49.680897], [5.989778, 49.68082], [5.989374, 49.68072], [5.988756, 49.680565], [5.988577, 49.68053], [5.988344, 49.68049], [5.988146, 49.68046], [5.988115, 49.680534], [5.988058, 49.680664], [5.988012, 49.68078], [5.987947, 49.680958], [5.987936, 49.680996], [5.98786, 49.681194], [5.987806, 49.681324], [5.987783, 49.681393], [5.987757, 49.68147], [5.987692, 49.68165], [5.987574, 49.681995], [5.987509, 49.682186], [5.987429, 49.68243], [5.987417, 49.682472], [5.987322, 49.68273], [5.987284, 49.682804], [5.987215, 49.682896], [5.987078, 49.683083], [5.987017, 49.683167], [5.986898, 49.683327], [5.986868, 49.68337], [5.986795, 49.683464], [5.986788, 49.683475], [5.986704, 49.68359], [5.986635, 49.68368], [5.986608, 49.68372], [5.986319, 49.684113], [5.9863, 49.68414], [5.98638, 49.684177], [5.986647, 49.684303], [5.986811, 49.684376], [5.986948, 49.68444], [5.987082, 49.684498], [5.987234, 49.684563], [5.987558, 49.6847], [5.987646, 49.68474], [5.987787, 49.684803], [5.988047, 49.68492], [5.988253, 49.68502], [5.988485, 49.68513], [5.988695, 49.685226], [5.988932, 49.68531], [5.989115, 49.685364], [5.989267, 49.6854], [5.989386, 49.68543], [5.989431, 49.685444], [5.989389, 49.68546], [5.98918, 49.6855], [5.988871, 49.68553], [5.988649, 49.68555], [5.988317, 49.685555], [5.988096, 49.68556], [5.988127, 49.685524], [5.987947, 49.685535], [5.987921, 49.68554], [5.987867, 49.685543], [5.987631, 49.68557], [5.987181, 49.685642], [5.987024, 49.685673], [5.986975, 49.685688], [5.986845, 49.68572], [5.986757, 49.685745], [5.986635, 49.68579], [5.986433, 49.685863], [5.986406, 49.685875], [5.986193, 49.686005], [5.985792, 49.686104], [5.985605, 49.68621], [5.985186, 49.68646], [5.985022, 49.686546], [5.984835, 49.686646], [5.98461, 49.68676], [5.984503, 49.68681], [5.9844, 49.68686], [5.984293, 49.686905], [5.984007, 49.68704], [5.983797, 49.687134], [5.983633, 49.687206], [5.983194, 49.687405], [5.982252, 49.687813], [5.981916, 49.68802], [5.981463, 49.68831], [5.981436, 49.688324], [5.981215, 49.688465], [5.981153, 49.688503], [5.980963, 49.68862], [5.980921, 49.688644], [5.981523, 49.688843], [5.981939, 49.68898], [5.982332, 49.68913], [5.982595, 49.689243], [5.982977, 49.689415], [5.983175, 49.689514], [5.983416, 49.689655], [5.983583, 49.68977], [5.983751, 49.689907], [5.983896, 49.69004], [5.984022, 49.690163], [5.984198, 49.69035], [5.984304, 49.690475], [5.984369, 49.6906], [5.984476, 49.690815], [5.984564, 49.69085], [5.984796, 49.690945], [5.985487, 49.69124], [5.985655, 49.691307], [5.985762, 49.691353], [5.985979, 49.691444], [5.986197, 49.69157], [5.986425, 49.69171], [5.986624, 49.691833], [5.986647, 49.69185], [5.986906, 49.692024], [5.987066, 49.69213], [5.98715, 49.692192], [5.987349, 49.69233], [5.987535, 49.692493], [5.987761, 49.69268], [5.98805, 49.692875], [5.988081, 49.69289], [5.988367, 49.692955], [5.988642, 49.693012], [5.98892, 49.693096], [5.989366, 49.693226], [5.989843, 49.69341], [5.989874, 49.69342], [5.990145, 49.693546], [5.990225, 49.693584], [5.990385, 49.693657], [5.990805, 49.693848], [5.991133, 49.693993], [5.991682, 49.69399], [5.991789, 49.693977], [5.991945, 49.69396], [5.992056, 49.69394], [5.992193, 49.69391], [5.992342, 49.693874], [5.992495, 49.693806], [5.992693, 49.693707], [5.992723, 49.69369], [5.992914, 49.693604], [5.992994, 49.693558], [5.993162, 49.69345], [5.993296, 49.693336], [5.993406, 49.693233], [5.993498, 49.693142], [5.993563, 49.693073], [5.993601, 49.69302], [5.993627, 49.692978], [5.993666, 49.69293], [5.993708, 49.69287], [5.993883, 49.692635], [5.993963, 49.69253], [5.994009, 49.692474], [5.994078, 49.692398], [5.994173, 49.692303], [5.994219, 49.69225], [5.994257, 49.692192], [5.994295, 49.69212], [5.994318, 49.692047], [5.994333, 49.691982], [5.994333, 49.691936], [5.994326, 49.691906], [5.994303, 49.69186], [5.994265, 49.691795], [5.994173, 49.691692], [5.994104, 49.69161], [5.994047, 49.691544], [5.994028, 49.691517], [5.993967, 49.69142], [5.993895, 49.691322], [5.993799, 49.69114], [5.993784, 49.6911], [5.993715, 49.690937], [5.993654, 49.690796], [5.993616, 49.6907], [5.993574, 49.69061], [5.993555, 49.690575], [5.993536, 49.690536], [5.993494, 49.69048], [5.993444, 49.690422], [5.993383, 49.690365], [5.993338, 49.690327], [5.993273, 49.69028], [5.993208, 49.690243], [5.99317, 49.690224], [5.992979, 49.690136], [5.992907, 49.690094], [5.992872, 49.69008], [5.992788, 49.69003], [5.992693, 49.689964], [5.99264, 49.689922], [5.992617, 49.689896], [5.992601, 49.68986], [5.992586, 49.68981], [5.992578, 49.689762], [5.99259, 49.689713], [5.992609, 49.689663], [5.992655, 49.68959], [5.992758, 49.689423], [5.992888, 49.68924], [5.993048, 49.689037], [5.993147, 49.688896], [5.993162, 49.68887], [5.993193, 49.688828], [5.993212, 49.688774], [5.993223, 49.688736], [5.993246, 49.6886], [5.993326, 49.68808], [5.993597, 49.6881], [5.99383, 49.688118], [5.993845, 49.688103], [5.99386, 49.68809], [5.993883, 49.688084], [5.99391, 49.688084], [5.99394, 49.68808], [5.993952, 49.68807], [5.993967, 49.68805], [5.993971, 49.688026], [5.993959, 49.687958], [5.99394, 49.68792], [5.993933, 49.687878], [5.993936, 49.68785], [5.993929, 49.68783], [5.99391, 49.68781], [5.993875, 49.68777], [5.993837, 49.68769], [5.993872, 49.687603], [5.993895, 49.687542], [5.993914, 49.687496], [5.99394, 49.68745], [5.993967, 49.687416], [5.993975, 49.687405], [5.994017, 49.687355], [5.994036, 49.68733], [5.99407, 49.687183], [5.99407, 49.687164], [5.994093, 49.687023], [5.994112, 49.68697], [5.994139, 49.686905], [5.994142, 49.686882], [5.99415, 49.68685], [5.994146, 49.68682], [5.994139, 49.6868], [5.994146, 49.686764], [5.994154, 49.686714], [5.994257, 49.686535], [5.99428, 49.686493], [5.994322, 49.686455], [5.994345, 49.686417], [5.99436, 49.68635], [5.994375, 49.68632], [5.994406, 49.686295], [5.994425, 49.686253], [5.994432, 49.68622], [5.994444, 49.686195], [5.994486, 49.68617], [5.994505, 49.686153], [5.994524, 49.68613], [5.994585, 49.686096], [5.994616, 49.686085], [5.994635, 49.686073], [5.99465, 49.686054], [5.994665, 49.686028], [5.99468, 49.686016], [5.994703, 49.686005], [5.994768, 49.685993], [5.99478, 49.68598], [5.994799, 49.685966], [5.994829, 49.68594], [5.994848, 49.685925], [5.994913, 49.685913], [5.994928, 49.6859], [5.994955, 49.685886], [5.994974, 49.685875], [5.994989, 49.68587], [5.995008, 49.68587], [5.995035, 49.685875], [5.995058, 49.68587], [5.995085, 49.685863], [5.9951, 49.685856], [5.995119, 49.685844], [5.995138, 49.685837], [5.995157, 49.685825], [5.995176, 49.685814], [5.995214, 49.68578], [5.995272, 49.685745], [5.995523, 49.685986], [5.995542, 49.68601], [5.995695, 49.686165], [5.995954, 49.686424], [5.995939, 49.686436], [5.995859, 49.686516], [5.995794, 49.6866], [5.995783, 49.686623], [5.99576, 49.686657], [5.995752, 49.686676], [5.995729, 49.68672], [5.99571, 49.68678], [5.995699, 49.686874], [5.995703, 49.686985], [5.995707, 49.687027], [5.99571, 49.687088], [5.995726, 49.687172], [5.995771, 49.687267], [5.995821, 49.687355], [5.995874, 49.68744], [5.995943, 49.68753], [5.99605, 49.68765], [5.996161, 49.687748], [5.996378, 49.68792], [5.996431, 49.687958], [5.996573, 49.68807], [5.996771, 49.68821], [5.996927, 49.688316], [5.997187, 49.688488], [5.997267, 49.688534], [5.997297, 49.688553], [5.997385, 49.688602], [5.997534, 49.688683], [5.997679, 49.688755], [5.997725, 49.688774], [5.997904, 49.688858], [5.998178, 49.68897], [5.998247, 49.688995], [5.998415, 49.68905], [5.998472, 49.689068], [5.998488, 49.68907], [5.998571, 49.689102], [5.998667, 49.689133], [5.998793, 49.689167], [5.999128, 49.689243], [5.999186, 49.68926], [5.999449, 49.689316], [5.999674, 49.689346], [5.999994, 49.68939], [6.000124, 49.689404], [6.000189, 49.68941], [6.000265, 49.689423], [6.000383, 49.689438], [6.000551, 49.689465], [6.000681, 49.689484], [6.000715, 49.689487], [6.000868, 49.689514], [6.000917, 49.68952], [6.000975, 49.689533], [6.001104, 49.68956], [6.00123, 49.689587], [6.001333, 49.689613], [6.001436, 49.68964], [6.001528, 49.689667], [6.001619, 49.68969], [6.001703, 49.689716], [6.001741, 49.689724], [6.00186, 49.689766], [6.001997, 49.689816], [6.002142, 49.68987], [6.002501, 49.69], [6.002867, 49.69013], [6.002989, 49.690166], [6.003092, 49.69019], [6.003164, 49.690205], [6.003256, 49.69022], [6.003401, 49.69024], [6.003466, 49.69025], [6.00363, 49.690277], [6.003714, 49.69029], [6.003817, 49.690296], [6.003901, 49.6903], [6.003984, 49.6903], [6.004068, 49.690296], [6.004221, 49.69029], [6.00453, 49.69026], [6.004553, 49.690166], [6.004568, 49.690098], [6.004766, 49.690098], [6.004911, 49.6901], [6.004984, 49.6901], [6.005068, 49.69011], [6.005201, 49.690117], [6.005354, 49.690132], [6.005526, 49.690155], [6.005663, 49.690174], [6.005812, 49.690205], [6.005861, 49.690216], [6.00606, 49.690254], [6.006098, 49.690266], [6.006125, 49.690273], [6.006208, 49.690292], [6.006311, 49.69032], [6.006441, 49.690357], [6.006533, 49.690388], [6.006636, 49.69043], [6.006754, 49.69048], [6.006903, 49.690544], [6.007025, 49.6906], [6.00709, 49.690517], [6.007116, 49.690487], [6.007181, 49.69041], [6.007208, 49.690372], [6.007681, 49.690502], [6.008013, 49.690594], [6.00812, 49.690624], [6.008421, 49.69071], [6.008627, 49.69077], [6.008837, 49.690826], [6.009035, 49.690884], [6.009066, 49.69089], [6.009443, 49.690994], [6.009478, 49.691], [6.009565, 49.69068], [6.009588, 49.69054], [6.0096, 49.690376], [6.009588, 49.690247], [6.009562, 49.6901], [6.009474, 49.689693], [6.009382, 49.689274], [6.009355, 49.68916], [6.009317, 49.688984], [6.009295, 49.68886], [6.009283, 49.68875], [6.009275, 49.688667], [6.009279, 49.688583], [6.009336, 49.68859], [6.009726, 49.688667], [6.00979, 49.688683], [6.009909, 49.688705], [6.010107, 49.688744], [6.010446, 49.688812], [6.01082, 49.68889], [6.010996, 49.688923], [6.011072, 49.68894], [6.011164, 49.688957], [6.011362, 49.688995], [6.011618, 49.68905], [6.011694, 49.689064], [6.011786, 49.689083], [6.012007, 49.689125], [6.012091, 49.68914], [6.012152, 49.689156], [6.012255, 49.689175], [6.01248, 49.689224], [6.012693, 49.689266], [6.012903, 49.689312], [6.013083, 49.68935], [6.013216, 49.689377], [6.01354, 49.689445], [6.013651, 49.68947], [6.013907, 49.68952], [6.014025, 49.689545], [6.014147, 49.689568], [6.014284, 49.68959], [6.014555, 49.68964], [6.014956, 49.689713], [6.015509, 49.68982], [6.016012, 49.689915], [6.016352, 49.689983], [6.016893, 49.69009], [6.017004, 49.69012], [6.017168, 49.69007], [6.017504, 49.68998], [6.017733, 49.689926], [6.01787, 49.689896], [6.018133, 49.68984], [6.018488, 49.689774], [6.018797, 49.68972], [6.018915, 49.68982], [6.019056, 49.68993], [6.01935, 49.69014], [6.019503, 49.69025], [6.019419, 49.69029], [6.019774, 49.690567], [6.020098, 49.690796], [6.020235, 49.690876], [6.02046, 49.691013], [6.020494, 49.690968], [6.020689, 49.691013], [6.020868, 49.69106], [6.021067, 49.69111], [6.021238, 49.69115], [6.02146, 49.691204], [6.021307, 49.691536], [6.021429, 49.691628], [6.021501, 49.691685], [6.021711, 49.691868], [6.02183, 49.69197], [6.022013, 49.692085], [6.022268, 49.69225], [6.022341, 49.692314], [6.022398, 49.69237], [6.022448, 49.69244], [6.022486, 49.692524], [6.022558, 49.69273], [6.022638, 49.692947], [6.022688, 49.693077], [6.022699, 49.69341], [6.022726, 49.69369], [6.022741, 49.693905], [6.02276, 49.694115], [6.022802, 49.69451], [6.02281, 49.694572], [6.022818, 49.694683], [6.022814, 49.69482], [6.022802, 49.694958], [6.022768, 49.695206], [6.022688, 49.695507], [6.022619, 49.695694], [6.022539, 49.69587], [6.022779, 49.6961], [6.022898, 49.69621], [6.02294, 49.69625], [6.023054, 49.69635], [6.023203, 49.696476], [6.023466, 49.696705], [6.023523, 49.69675], [6.023718, 49.696915], [6.023786, 49.696968], [6.023855, 49.697025], [6.02389, 49.69708], [6.023909, 49.6971], [6.02429, 49.697075], [6.02458, 49.697002], [6.024824, 49.696922], [6.025091, 49.696865], [6.025484, 49.69687], [6.025713, 49.69687], [6.0259, 49.696823], [6.026449, 49.696537], [6.027166, 49.69625], [6.027563, 49.696156], [6.027811, 49.696075], [6.027994, 49.696053], [6.028128, 49.696022], [6.02833, 49.69593], [6.028646, 49.695885], [6.028967, 49.69585], [6.029257, 49.695827], [6.029585, 49.695744], [6.029684, 49.69574], [6.029905, 49.695805], [6.030207, 49.695892], [6.030405, 49.69593], [6.030626, 49.695953], [6.030859, 49.695953], [6.031065, 49.69597], [6.031199, 49.696003], [6.031382, 49.69611], [6.031519, 49.6962], [6.03163, 49.696247], [6.031847, 49.69631], [6.031931, 49.696323], [6.032, 49.69632], [6.032072, 49.69628], [6.032232, 49.696175], [6.032438, 49.69613], [6.032572, 49.696117], [6.032736, 49.69617], [6.032904, 49.69622], [6.033022, 49.696278], [6.033117, 49.696373], [6.033136, 49.696384], [6.033186, 49.696323], [6.033167, 49.696304], [6.033148, 49.696274], [6.03306, 49.696148], [6.032953, 49.696007], [6.032911, 49.695946], [6.0329, 49.695927], [6.032877, 49.6959], [6.032858, 49.695873], [6.032835, 49.69583], [6.032827, 49.69581], [6.032827, 49.69577], [6.032835, 49.695736], [6.032854, 49.695694], [6.032892, 49.695625], [6.032949, 49.69553], [6.033056, 49.695374], [6.033079, 49.695343], [6.033148, 49.695244], [6.033197, 49.69518], [6.033239, 49.69511], [6.033266, 49.695026], [6.033285, 49.694942], [6.033281, 49.69489], [6.033255, 49.69481], [6.033224, 49.694748], [6.033442, 49.69481], [6.033571, 49.694843], [6.034349, 49.6951], [6.034658, 49.6952], [6.035025, 49.695328], [6.03541, 49.69546], [6.035505, 49.695496], [6.035517, 49.69548], [6.035547, 49.69545], [6.03562, 49.695377], [6.035753, 49.695244], [6.035875, 49.69512], [6.035929, 49.69507], [6.036039, 49.69496], [6.036062, 49.69494], [6.036196, 49.69481], [6.036234, 49.694775], [6.036249, 49.694756], [6.036341, 49.694668], [6.036612, 49.694397], [6.036783, 49.69423], [6.036947, 49.694065], [6.036966, 49.694042], [6.037188, 49.693825], [6.037539, 49.693462], [6.037623, 49.69338], [6.037806, 49.69319], [6.037668, 49.69311], [6.037539, 49.692932], [6.036932, 49.692627], [6.036612, 49.692467], [6.036429, 49.69237], [6.036081, 49.692204], [6.035898, 49.69211], [6.035936, 49.69208], [6.036314, 49.69182], [6.036383, 49.691772], [6.036669, 49.691586], [6.036844, 49.69146], [6.037062, 49.69131], [6.037245, 49.691414], [6.037382, 49.691483], [6.037676, 49.691624], [6.037821, 49.69169], [6.038027, 49.691765], [6.038248, 49.69184], [6.038488, 49.69192], [6.03874, 49.692005], [6.03882, 49.69203], [6.03916, 49.692154], [6.039347, 49.692223], [6.039545, 49.692303], [6.039679, 49.692352], [6.039976, 49.692474], [6.040186, 49.69255], [6.040422, 49.69264], [6.040819, 49.692802], [6.041033, 49.692894], [6.041208, 49.692966], [6.041395, 49.693058], [6.041624, 49.69317], [6.04178, 49.693237], [6.042028, 49.693344], [6.042177, 49.69341], [6.042433, 49.69352], [6.042635, 49.693592], [6.042868, 49.69368], [6.042982, 49.69371], [6.043146, 49.693752], [6.043295, 49.693787], [6.043535, 49.693817], [6.043764, 49.693844], [6.044008, 49.69387], [6.044256, 49.693893], [6.044493, 49.693916], [6.044741, 49.693943], [6.044817, 49.69395], [6.04508, 49.69398], [6.045282, 49.693996], [6.045706, 49.694027], [6.045942, 49.694065], [6.046164, 49.6941], [6.04669, 49.694157], [6.04685, 49.69391], [6.047068, 49.693565], [6.047255, 49.693623], [6.047773, 49.69377], [6.048025, 49.693844], [6.048201, 49.693893], [6.048651, 49.694016], [6.049116, 49.694138], [6.049166, 49.694084], [6.049208, 49.694042], [6.049228, 49.694052], [6.049374, 49.69412], [6.049913, 49.694374], [6.050322, 49.694572], [6.050577, 49.694706], [6.051004, 49.694927], [6.051409, 49.69514], [6.051348, 49.695183], [6.0511, 49.695347], [6.051355, 49.695515], [6.051695, 49.69575], [6.051939, 49.695915], [6.052252, 49.696125], [6.052794, 49.696478], [6.052854, 49.69655], [6.053095, 49.696743], [6.05335, 49.696964], [6.053389, 49.69695], [6.053694, 49.697193], [6.05372, 49.697216], [6.054026, 49.697437], [6.054174, 49.69753], [6.054266, 49.69759], [6.054502, 49.69765], [6.054647, 49.697685], [6.055059, 49.697666], [6.05522, 49.69745], [6.055243, 49.697422], [6.055372, 49.697243], [6.055414, 49.69719], [6.055479, 49.697098], [6.055498, 49.697075], [6.055548, 49.69701], [6.055639, 49.696915], [6.05567, 49.69688], [6.055937, 49.696608], [6.057489, 49.69708], [6.058092, 49.697258], [6.0585, 49.697384], [6.058916, 49.69751], [6.058825, 49.69768], [6.058752, 49.697826], [6.058657, 49.698044], [6.05863, 49.69811], [6.058523, 49.69836], [6.058924, 49.698425], [6.059156, 49.69846], [6.059313, 49.698483], [6.059374, 49.69849], [6.059359, 49.6985], [6.059217, 49.69865], [6.059153, 49.698715], [6.059099, 49.69877], [6.059038, 49.698837], [6.058973, 49.6989], [6.058825, 49.699055], [6.058775, 49.69914], [6.05876, 49.699165], [6.058733, 49.699215], [6.05871, 49.699253], [6.058683, 49.699306], [6.058658, 49.699344], [6.058645, 49.699364], [6.058542, 49.699562], [6.058443, 49.699738], [6.058367, 49.699883], [6.058199, 49.700188], [6.058065, 49.70044], [6.058012, 49.70053], [6.057913, 49.700714], [6.057772, 49.700962], [6.057692, 49.70112], [6.057825, 49.70118], [6.058008, 49.70126], [6.058252, 49.70137], [6.058481, 49.701412], [6.058699, 49.701447], [6.059084, 49.70147], [6.059359, 49.701427], [6.059751, 49.70142], [6.059523, 49.70156], [6.059374, 49.701653], [6.059214, 49.70182], [6.059168, 49.70187], [6.058996, 49.702053], [6.058748, 49.70223], [6.058615, 49.702324], [6.0585, 49.702557], [6.058386, 49.702805], [6.058439, 49.70281], [6.05847, 49.702812], [6.0585, 49.702824], [6.058527, 49.70284], [6.058554, 49.702866], [6.058577, 49.70289], [6.058592, 49.702896], [6.058622, 49.702904], [6.058661, 49.702904], [6.058695, 49.702896], [6.058721, 49.702892], [6.058989, 49.70295], [6.059092, 49.702976], [6.059172, 49.703], [6.059301, 49.70303], [6.059458, 49.703056], [6.059526, 49.70307], [6.059584, 49.703094], [6.059633, 49.703114], [6.059668, 49.70312], [6.059721, 49.703125], [6.059763, 49.70313], [6.05979, 49.703136], [6.059847, 49.703163], [6.059874, 49.70317], [6.059935, 49.70317], [6.060041, 49.70316], [6.060228, 49.703148], [6.060377, 49.703144], [6.060499, 49.703148], [6.060633, 49.70316], [6.060782, 49.703175], [6.06093, 49.703197], [6.06106, 49.70322], [6.061079, 49.703228], [6.061106, 49.703236], [6.061152, 49.703255], [6.061197, 49.703266], [6.061262, 49.703278], [6.061331, 49.703304], [6.061384, 49.70333], [6.061453, 49.703377], [6.061525, 49.703415], [6.061605, 49.703445], [6.061708, 49.703472], [6.061804, 49.703487], [6.061865, 49.703495], [6.061918, 49.7035], [6.062025, 49.70349], [6.062128, 49.70349], [6.062223, 49.703495], [6.062326, 49.703506], [6.062426, 49.703518], [6.062502, 49.703537], [6.062536, 49.703552], [6.062582, 49.703583], [6.062624, 49.70362], [6.062643, 49.703636], [6.06267, 49.703648], [6.062704, 49.70365], [6.062738, 49.703648], [6.062792, 49.70363], [6.062841, 49.70361], [6.062883, 49.70361], [6.062925, 49.70362], [6.062956, 49.70362], [6.063082, 49.7036], [6.063116, 49.703606], [6.063181, 49.70362], [6.063292, 49.70362], [6.063376, 49.703617], [6.063444, 49.70362], [6.063581, 49.70363], [6.063631, 49.70363], [6.063703, 49.703617], [6.063742, 49.703613], [6.063784, 49.70361], [6.063894, 49.703613], [6.063963, 49.70361], [6.064016, 49.703606], [6.064074, 49.703606], [6.064142, 49.7036], [6.064196, 49.7036], [6.064238, 49.703606], [6.064306, 49.703617], [6.06436, 49.703617], [6.06447, 49.7036], [6.064573, 49.703587], [6.064718, 49.70357], [6.064836, 49.703568], [6.064959, 49.70357], [6.06513, 49.703587], [6.065203, 49.703587], [6.065252, 49.70358], [6.065363, 49.70356], [6.065466, 49.70354], [6.065584, 49.70354], [6.065649, 49.70353], [6.065737, 49.703506], [6.065821, 49.703487], [6.065874, 49.703472], [6.065947, 49.703457], [6.066011, 49.70344], [6.066053, 49.703438], [6.066088, 49.70344], [6.066175, 49.703472], [6.066198, 49.703476], [6.06621, 49.70348], [6.066259, 49.70348], [6.066408, 49.703487], [6.066458, 49.703495], [6.066546, 49.70351], [6.066591, 49.70351], [6.066771, 49.703514], [6.066912, 49.703514], [6.067007, 49.703518], [6.067034, 49.70352], [6.067072, 49.70352], [6.067118, 49.703526], [6.067175, 49.70352], [6.067312, 49.703495], [6.067434, 49.70346], [6.067492, 49.703445], [6.06753, 49.703434], [6.067556, 49.70343], [6.067644, 49.70343], [6.067698, 49.703426], [6.067781, 49.703407], [6.067842, 49.703396], [6.067911, 49.703396], [6.067942, 49.703392], [6.067984, 49.70339], [6.068041, 49.70338], [6.068071, 49.703377], [6.068094, 49.70337], [6.068113, 49.70336], [6.068151, 49.70335], [6.068178, 49.703335], [6.068232, 49.7033], [6.068296, 49.70326], [6.068365, 49.703224], [6.068396, 49.703205], [6.068506, 49.703133], [6.068548, 49.703102], [6.068571, 49.70309], [6.068674, 49.70309], [6.068701, 49.70308], [6.06872, 49.703075], [6.068811, 49.70303], [6.069178, 49.70288], [6.069326, 49.702816], [6.069361, 49.702744], [6.069422, 49.702644], [6.069529, 49.702534], [6.069647, 49.702415], [6.069685, 49.70237], [6.069727, 49.702316], [6.069754, 49.702206], [6.069773, 49.702114], [6.06978, 49.70207], [6.069784, 49.70197], [6.069776, 49.701824], [6.069765, 49.701687], [6.06975, 49.70149], [6.069841, 49.70138], [6.069872, 49.70134], [6.069952, 49.70125], [6.069975, 49.70122], [6.070074, 49.701107], [6.070124, 49.701054], [6.070173, 49.701], [6.07033, 49.700836], [6.070379, 49.70078], [6.07044, 49.700714], [6.070593, 49.700554], [6.070623, 49.700523], [6.070806, 49.700325], [6.070833, 49.7003], [6.070986, 49.700134], [6.071081, 49.700035], [6.071169, 49.69994], [6.071455, 49.69964], [6.071539, 49.699547], [6.071642, 49.69939], [6.071871, 49.699047], [6.072012, 49.698843], [6.07202, 49.698828], [6.072485, 49.698586], [6.07279, 49.69843], [6.072836, 49.698406], [6.072809, 49.698376], [6.072348, 49.69781], [6.072226, 49.697666], [6.072096, 49.697506], [6.072081, 49.697483], [6.072092, 49.697384], [6.072355, 49.696945], [6.071989, 49.69673], [6.071741, 49.696587], [6.071787, 49.696552], [6.071867, 49.696484], [6.072107, 49.69626], [6.072355, 49.696022], [6.072584, 49.695805], [6.072653, 49.695766], [6.07276, 49.69567], [6.072863, 49.69558], [6.073065, 49.695446], [6.073362, 49.695248], [6.07366, 49.695065], [6.073862, 49.69495], [6.074049, 49.694862], [6.074335, 49.69473], [6.07469, 49.694572], [6.075041, 49.69442], [6.07522, 49.694336], [6.075323, 49.694336], [6.075369, 49.694393], [6.075422, 49.694397], [6.075632, 49.69441], [6.075823, 49.694424], [6.075907, 49.694435], [6.075975, 49.694447], [6.07609, 49.694466], [6.076174, 49.694473], [6.076345, 49.694496], [6.076391, 49.694504], [6.076452, 49.694508], [6.07651, 49.694504], [6.076563, 49.694496], [6.076593, 49.694492], [6.076616, 49.694496], [6.076658, 49.69451], [6.076761, 49.694557], [6.076952, 49.694626], [6.07712, 49.694683], [6.077253, 49.69472], [6.077555, 49.694798], [6.077723, 49.694843], [6.077787, 49.69486], [6.077883, 49.69487], [6.077951, 49.69488], [6.077982, 49.694893], [6.078005, 49.694904], [6.078062, 49.694942], [6.078096, 49.69496], [6.078146, 49.694973], [6.078203, 49.694977], [6.078291, 49.694984], [6.078356, 49.69499], [6.07839, 49.694996], [6.078436, 49.69502], [6.078489, 49.695034], [6.078546, 49.69504], [6.0786, 49.695038], [6.078745, 49.695007], [6.078791, 49.695], [6.078852, 49.694996], [6.078886, 49.695004], [6.07892, 49.695015], [6.078951, 49.695034], [6.078993, 49.695057], [6.079016, 49.69508], [6.079061, 49.695118], [6.079104, 49.695137], [6.079138, 49.695145], [6.079271, 49.695126], [6.079321, 49.69512], [6.079382, 49.695133], [6.079435, 49.695145], [6.079512, 49.695175], [6.079596, 49.69521], [6.079699, 49.69524], [6.079748, 49.69525], [6.079847, 49.69528], [6.079946, 49.695286], [6.08005, 49.695293], [6.080172, 49.695312], [6.080305, 49.69532], [6.080404, 49.69534], [6.080462, 49.69536], [6.080538, 49.695404], [6.08058, 49.695423], [6.080629, 49.695435], [6.080698, 49.69544], [6.080809, 49.695442], [6.080885, 49.69545], [6.080957, 49.695465], [6.081037, 49.695496], [6.081099, 49.695522], [6.081171, 49.695538], [6.081224, 49.695545], [6.081278, 49.695557], [6.081331, 49.69558], [6.081438, 49.69562], [6.081507, 49.695656], [6.081598, 49.695705], [6.08169, 49.69576], [6.081736, 49.695786], [6.081766, 49.695797], [6.081804, 49.695812], [6.081911, 49.69584], [6.08206, 49.69588], [6.082136, 49.695904], [6.082167, 49.69592], [6.082228, 49.69595], [6.082624, 49.69617], [6.082708, 49.696224], [6.08272, 49.69624], [6.082712, 49.696262], [6.082716, 49.696285], [6.082731, 49.696293], [6.08275, 49.696304], [6.082815, 49.696323], [6.082842, 49.696335], [6.082903, 49.696384], [6.082926, 49.6964], [6.082949, 49.696407], [6.083006, 49.69642], [6.083036, 49.696434], [6.083056, 49.69645], [6.083078, 49.696476], [6.083109, 49.69654], [6.083143, 49.6966], [6.08317, 49.696636], [6.083223, 49.69669], [6.083231, 49.69671], [6.083235, 49.69673], [6.08322, 49.69675], [6.0832, 49.69677], [6.083197, 49.696785], [6.083212, 49.6968], [6.083235, 49.69681], [6.083311, 49.696835], [6.08346, 49.69687], [6.083494, 49.69688], [6.083532, 49.6969], [6.083586, 49.696922], [6.083624, 49.69694], [6.083654, 49.69696], [6.083673, 49.69698], [6.0837, 49.697025], [6.083719, 49.697044], [6.08375, 49.697063], [6.083818, 49.697098], [6.08388, 49.697124], [6.083925, 49.69716], [6.083952, 49.69719], [6.083994, 49.69725], [6.084024, 49.697285], [6.084047, 49.69731], [6.084078, 49.69733], [6.084116, 49.697346], [6.084154, 49.69736], [6.084238, 49.697376], [6.084352, 49.697395], [6.084471, 49.69742], [6.084639, 49.697464], [6.084742, 49.69749], [6.084806, 49.697533], [6.084829, 49.697544], [6.08486, 49.69756], [6.085024, 49.69767], [6.085051, 49.697678], [6.085089, 49.69768], [6.085104, 49.697693], [6.085112, 49.69771], [6.085115, 49.697727], [6.085131, 49.69774], [6.085161, 49.697758], [6.08518, 49.697765], [6.085215, 49.697765], [6.085234, 49.69776], [6.085257, 49.69775], [6.085276, 49.697746], [6.085302, 49.697758], [6.085318, 49.697773], [6.085348, 49.6978], [6.085401, 49.69783], [6.085497, 49.697865], [6.085562, 49.69789], [6.085627, 49.69792], [6.085676, 49.697956], [6.085703, 49.697998], [6.085718, 49.698006], [6.085737, 49.69801], [6.08576, 49.69802], [6.085779, 49.698036], [6.085802, 49.698063], [6.085817, 49.69807], [6.085836, 49.69808], [6.085856, 49.69808], [6.085875, 49.69807], [6.08589, 49.69807], [6.085916, 49.698082], [6.085943, 49.698097], [6.085962, 49.698112], [6.085981, 49.69815], [6.086008, 49.698196], [6.086016, 49.698208], [6.086039, 49.698215], [6.086054, 49.698227], [6.086061, 49.698242], [6.086077, 49.698277], [6.086096, 49.698296], [6.086111, 49.698303], [6.086164, 49.698315], [6.086199, 49.698322], [6.086214, 49.698334], [6.086229, 49.69835], [6.086233, 49.69838], [6.086241, 49.698402], [6.086252, 49.698418], [6.086267, 49.698425], [6.086283, 49.698425], [6.086306, 49.698402], [6.086328, 49.6984], [6.086348, 49.69841], [6.086351, 49.698425], [6.08634, 49.698444], [6.086321, 49.698467], [6.086325, 49.698486], [6.086336, 49.6985], [6.086416, 49.69855], [6.086489, 49.698593], [6.086519, 49.698605], [6.086542, 49.69861], [6.086588, 49.698593], [6.086607, 49.698578], [6.086622, 49.698578], [6.086641, 49.69858], [6.086687, 49.698605], [6.086718, 49.69862], [6.086733, 49.698635], [6.086741, 49.698673], [6.086756, 49.698696], [6.086775, 49.69871], [6.086794, 49.698715], [6.086821, 49.69871], [6.086927, 49.6987], [6.087088, 49.698673], [6.087294, 49.698654], [6.087442, 49.698643], [6.08758, 49.698635], [6.087694, 49.69863], [6.087904, 49.698627], [6.088335, 49.69863], [6.088743, 49.69864], [6.089735, 49.69868], [6.090357, 49.698692], [6.090399, 49.698692], [6.090456, 49.69856], [6.090528, 49.69829], [6.090559, 49.69808], [6.090574, 49.697914], [6.09059, 49.69782], [6.090612, 49.697792], [6.0907, 49.697742], [6.09083, 49.697697], [6.090914, 49.69766], [6.090986, 49.69761], [6.091017, 49.69757], [6.091028, 49.69751], [6.091005, 49.697426], [6.090898, 49.69726], [6.090628, 49.69705], [6.09059, 49.69701], [6.09057, 49.696957], [6.090563, 49.696915], [6.090582, 49.69682], [6.09057, 49.696766], [6.090548, 49.696686], [6.090544, 49.696625], [6.090567, 49.696537], [6.090555, 49.69644], [6.090536, 49.696384], [6.090471, 49.69633], [6.09033, 49.69628], [6.090273, 49.69625], [6.090239, 49.696205], [6.090212, 49.696125], [6.090197, 49.696026], [6.090174, 49.69591], [6.090166, 49.69582], [6.090189, 49.69578], [6.090273, 49.69574], [6.090513, 49.6957], [6.091055, 49.695618], [6.091158, 49.69559], [6.091208, 49.695564], [6.091238, 49.695534], [6.091249, 49.695488], [6.091246, 49.69543], [6.091208, 49.695408], [6.091105, 49.695362], [6.090929, 49.695293], [6.090845, 49.69525], [6.090803, 49.695194], [6.09075, 49.695095], [6.090651, 49.694996], [6.090616, 49.69495], [6.090616, 49.694912], [6.090635, 49.694866], [6.090738, 49.69479], [6.090898, 49.694687], [6.090998, 49.69462], [6.091017, 49.69458], [6.091024, 49.694485], [6.091013, 49.69429], [6.090979, 49.69414], [6.090914, 49.693977], [6.090795, 49.693863], [6.090662, 49.69382], [6.090548, 49.69377], [6.09049, 49.693707], [6.090452, 49.693638], [6.090418, 49.693516], [6.09041, 49.693398], [6.090452, 49.693325], [6.090532, 49.69323], [6.090654, 49.693142], [6.090769, 49.6931], [6.090857, 49.69306], [6.09091, 49.693027], [6.090963, 49.692978], [6.09096, 49.692944], [6.090914, 49.692886], [6.090826, 49.692806], [6.090773, 49.69273], [6.090734, 49.692616], [6.090712, 49.692482], [6.0907, 49.69238], [6.090708, 49.69233], [6.090754, 49.692287], [6.090834, 49.692276], [6.090937, 49.692276], [6.09104, 49.692253], [6.091154, 49.69221], [6.091234, 49.692158], [6.091291, 49.6921], [6.091314, 49.692024], [6.091299, 49.69183], [6.091288, 49.6917], [6.091299, 49.691666], [6.091345, 49.691635], [6.09144, 49.69161], [6.091669, 49.69158], [6.091856, 49.691544], [6.091879, 49.691517], [6.091887, 49.691456], [6.091833, 49.691383], [6.091577, 49.69112], [6.091536, 49.69105], [6.091517, 49.69096], [6.091528, 49.690903], [6.091597, 49.690853], [6.091738, 49.690777], [6.091906, 49.690674], [6.091993, 49.69057], [6.092032, 49.69047], [6.092077, 49.690186], [6.092112, 49.69003], [6.092238, 49.689686], [6.092249, 49.689625], [6.092192, 49.68953], [6.092043, 49.689423], [6.091665, 49.68926], [6.09149, 49.68916], [6.091456, 49.689117], [6.091429, 49.689026], [6.091413, 49.68893], [6.091429, 49.68888], [6.091475, 49.688824], [6.091562, 49.68878], [6.091677, 49.688755], [6.091898, 49.68869], [6.091986, 49.688644], [6.092035, 49.6886], [6.092047, 49.688557], [6.092039, 49.68852], [6.092005, 49.688465], [6.091887, 49.688377], [6.091753, 49.688305], [6.091581, 49.688225], [6.091368, 49.688164], [6.090948, 49.688095], [6.090826, 49.68805], [6.090769, 49.688004], [6.090719, 49.687878], [6.090662, 49.68768], [6.090658, 49.68746], [6.090757, 49.687233], [6.090776, 49.687115], [6.090765, 49.68703], [6.090731, 49.686924], [6.090631, 49.68681], [6.090486, 49.686695], [6.090223, 49.686573], [6.090178, 49.686535], [6.090162, 49.686455], [6.090273, 49.686382], [6.090387, 49.686268], [6.090426, 49.686104], [6.090406, 49.68593], [6.09038, 49.68582], [6.090349, 49.685772], [6.090227, 49.68559], [6.09017, 49.68546], [6.090147, 49.685333], [6.090139, 49.68507], [6.090063, 49.68478], [6.089968, 49.68458], [6.089788, 49.684364], [6.089727, 49.684116], [6.089632, 49.68383], [6.089464, 49.68351], [6.089167, 49.68295], [6.088922, 49.682495], [6.088762, 49.682133], [6.088659, 49.681957], [6.08853, 49.681828], [6.088293, 49.68165], [6.088167, 49.68153], [6.088114, 49.68138], [6.088137, 49.681244], [6.088297, 49.68086], [6.088327, 49.680695], [6.088259, 49.680294], [6.088194, 49.680058], [6.087973, 49.679714], [6.087782, 49.679474], [6.087553, 49.679256], [6.087103, 49.67896], [6.086954, 49.678776], [6.086828, 49.678715], [6.08663, 49.67866], [6.086466, 49.67859], [6.086172, 49.67842], [6.08592, 49.67833], [6.085371, 49.678223], [6.085276, 49.678192], [6.085218, 49.678143], [6.085165, 49.677994], [6.085115, 49.67787], [6.085051, 49.67781], [6.084959, 49.677784], [6.084867, 49.677788], [6.084784, 49.67782], [6.084684, 49.67786], [6.084635, 49.67786], [6.084513, 49.677814], [6.084261, 49.677696], [6.083967, 49.677525], [6.083952, 49.677498], [6.083948, 49.677475], [6.083979, 49.677456], [6.084093, 49.67742], [6.084139, 49.6774], [6.084158, 49.67736], [6.084154, 49.677296], [6.084116, 49.67723], [6.084063, 49.67718], [6.083952, 49.677143], [6.083731, 49.677135], [6.083635, 49.677124], [6.083487, 49.67707], [6.083372, 49.677017], [6.083281, 49.67696], [6.083166, 49.6768], [6.083078, 49.676765], [6.082949, 49.676743], [6.082804, 49.676697], [6.082716, 49.67663], [6.082686, 49.67655], [6.082697, 49.676468], [6.082735, 49.676346], [6.082727, 49.676296], [6.082663, 49.676178], [6.082651, 49.67609], [6.082674, 49.676006], [6.082739, 49.675858], [6.082743, 49.67579], [6.082693, 49.67571], [6.082636, 49.67571], [6.081869, 49.675716], [6.081854, 49.67569], [6.081827, 49.67566], [6.081804, 49.675644], [6.081762, 49.675625], [6.081713, 49.675606], [6.081675, 49.67559], [6.081652, 49.67557], [6.081633, 49.675552], [6.081613, 49.675537], [6.081583, 49.67552], [6.081575, 49.67551], [6.081564, 49.67549], [6.081552, 49.675476], [6.081469, 49.67541], [6.081419, 49.67539], [6.081343, 49.67535], [6.081217, 49.675316], [6.081163, 49.6753], [6.081102, 49.675304], [6.081076, 49.67531], [6.081037, 49.675304], [6.080999, 49.675304], [6.080893, 49.67532], [6.080835, 49.675323], [6.080721, 49.675343], [6.080442, 49.6754], [6.080255, 49.675453], [6.080149, 49.675465], [6.08003, 49.67548], [6.079996, 49.675484], [6.079954, 49.675484], [6.079897, 49.675488], [6.079847, 49.675503], [6.079821, 49.675503], [6.079779, 49.6755], [6.079718, 49.67549], [6.079641, 49.67547], [6.079611, 49.67546], [6.07955, 49.675465], [6.079523, 49.675465], [6.079477, 49.675457], [6.079382, 49.675453], [6.079328, 49.67544], [6.079287, 49.675446], [6.079233, 49.675457], [6.079195, 49.67546], [6.079115, 49.675457], [6.079042, 49.675472], [6.078997, 49.675476], [6.078955, 49.67549], [6.078905, 49.675514], [6.078863, 49.67554], [6.078829, 49.675552], [6.078783, 49.675564], [6.078711, 49.67557], [6.078665, 49.675583], [6.078619, 49.675602], [6.078585, 49.67562], [6.078535, 49.675663], [6.078508, 49.675697], [6.078455, 49.67577], [6.078424, 49.675785], [6.078367, 49.675804], [6.078299, 49.675854], [6.078253, 49.675884], [6.078192, 49.675915], [6.078081, 49.675987], [6.078005, 49.676025], [6.077978, 49.67604], [6.077932, 49.676052], [6.07789, 49.676064], [6.077867, 49.676075], [6.077848, 49.67609], [6.077837, 49.676113], [6.077772, 49.67613], [6.077764, 49.67614], [6.077761, 49.67616], [6.077784, 49.676205], [6.077776, 49.676235], [6.077764, 49.676254], [6.077734, 49.67628], [6.077711, 49.676315], [6.077692, 49.676357], [6.07765, 49.6764], [6.07762, 49.67643], [6.077547, 49.6765], [6.077494, 49.676556], [6.077463, 49.676582], [6.07744, 49.676598], [6.077406, 49.676605], [6.077349, 49.676613], [6.077261, 49.676617], [6.077234, 49.67663], [6.077208, 49.676647], [6.077189, 49.67666], [6.077116, 49.676666], [6.077101, 49.67667], [6.077085, 49.676685], [6.07707, 49.676697], [6.077043, 49.6767], [6.077013, 49.6767], [6.07699, 49.676712], [6.076979, 49.676727], [6.076902, 49.676697], [6.07675, 49.676632], [6.076734, 49.676624], [6.076319, 49.67695], [6.076113, 49.677105], [6.076075, 49.677116], [6.075666, 49.677288], [6.075068, 49.677532], [6.074587, 49.67772], [6.074053, 49.67793], [6.073599, 49.678047], [6.073416, 49.678093], [6.07295, 49.67822], [6.072599, 49.678314], [6.072123, 49.67845], [6.071867, 49.678524], [6.071478, 49.678642], [6.071161, 49.678734], [6.070929, 49.678818], [6.070616, 49.678925], [6.070498, 49.67897], [6.070394, 49.67901], [6.070211, 49.67908], [6.069887, 49.679207], [6.069635, 49.67931], [6.069376, 49.679417], [6.069193, 49.679493], [6.068956, 49.679592], [6.068575, 49.679756], [6.068281, 49.67989], [6.067915, 49.680077], [6.067747, 49.68016], [6.067388, 49.68034], [6.067274, 49.6804], [6.067053, 49.680496], [6.066751, 49.680622], [6.066385, 49.680782], [6.065836, 49.681023], [6.065733, 49.68105], [6.065336, 49.681164], [6.065016, 49.681248], [6.064932, 49.681263], [6.064432, 49.681145], [6.064035, 49.68105], [6.063204, 49.680824], [6.062899, 49.680748], [6.062372, 49.680603], [6.061995, 49.6805], [6.061819, 49.680454], [6.06209, 49.68035], [6.062487, 49.68021], [6.062971, 49.680046], [6.063433, 49.679993], [6.063688, 49.679962], [6.064108, 49.679913], [6.064302, 49.679882], [6.064154, 49.6797], [6.064016, 49.679523], [6.064123, 49.67948], [6.064211, 49.679447], [6.064314, 49.679405], [6.064535, 49.679317], [6.06484, 49.679188], [6.06513, 49.679058], [6.065344, 49.678963], [6.065668, 49.67882], [6.066031, 49.67867], [6.066145, 49.67862], [6.066351, 49.67853], [6.066645, 49.678417], [6.066721, 49.678387], [6.067209, 49.678204], [6.067362, 49.678127], [6.067728, 49.67791], [6.068129, 49.677677], [6.068548, 49.67743], [6.068682, 49.677208], [6.068747, 49.677094], [6.068621, 49.676926], [6.068554, 49.676841], [6.06851, 49.676785], [6.068277, 49.676384], [6.06817, 49.676197], [6.0679, 49.67609], [6.067659, 49.67599], [6.067076, 49.676144], [6.066668, 49.67625], [6.066362, 49.676334], [6.064966, 49.676712], [6.064791, 49.67651], [6.064653, 49.676342], [6.064566, 49.676247], [6.064489, 49.676025], [6.064451, 49.67592], [6.064402, 49.675785], [6.064318, 49.675583], [6.064218, 49.67533], [6.064131, 49.67507], [6.064074, 49.67489], [6.06402, 49.674713], [6.063967, 49.67454], [6.06391, 49.67431], [6.063852, 49.674057], [6.063776, 49.67375], [6.0637, 49.673424], [6.063616, 49.673405], [6.063551, 49.673393], [6.0632, 49.673332], [6.062861, 49.673275], [6.06278, 49.673256], [6.062406, 49.67316], [6.061949, 49.673046], [6.061911, 49.673035], [6.061567, 49.672947], [6.061365, 49.672897], [6.06098, 49.6728], [6.060732, 49.67275], [6.060358, 49.672672], [6.060129, 49.67262], [6.060038, 49.67259], [6.059977, 49.672573], [6.059904, 49.672558], [6.059721, 49.672523], [6.059557, 49.67249], [6.059507, 49.672478], [6.059496, 49.672474], [6.059309, 49.67239], [6.059187, 49.67233], [6.058939, 49.672207], [6.058626, 49.67215], [6.058394, 49.672096], [6.058081, 49.67203], [6.058012, 49.672016], [6.057817, 49.671978], [6.05776, 49.671967], [6.057516, 49.671925], [6.057466, 49.671917], [6.057032, 49.67184], [6.057142, 49.671688], [6.057222, 49.67157], [6.05728, 49.67147], [6.057333, 49.671356], [6.05736, 49.671284], [6.057379, 49.67119], [6.057386, 49.671116], [6.057047, 49.671], [6.056848, 49.670937], [6.056578, 49.67085], [6.05649, 49.67082], [6.056437, 49.6708], [6.056269, 49.670742], [6.056112, 49.67069], [6.05604, 49.67053], [6.055975, 49.67039], [6.05583, 49.670147], [6.055616, 49.669807], [6.055498, 49.6697], [6.055368, 49.66958], [6.054903, 49.669144], [6.054609, 49.66888], [6.054407, 49.6687], [6.054388, 49.668682], [6.054369, 49.66866], [6.05422, 49.66847], [6.054209, 49.668453], [6.054079, 49.66827], [6.053892, 49.66801], [6.053587, 49.66757], [6.053484, 49.66741], [6.053385, 49.66727], [6.053335, 49.667175], [6.053213, 49.667053], [6.053156, 49.667], [6.052938, 49.666786], [6.052652, 49.666527], [6.052496, 49.666122], [6.05245, 49.666], [6.052191, 49.665325], [6.052416, 49.665207], [6.052561, 49.665134], [6.053251, 49.664783], [6.053549, 49.664627], [6.053923, 49.66442], [6.054064, 49.66434], [6.054323, 49.664185], [6.054048, 49.664024], [6.053518, 49.663723], [6.053686, 49.66359], [6.053957, 49.663372], [6.053984, 49.663353], [6.054167, 49.663227], [6.054327, 49.663113], [6.054445, 49.663033], [6.054495, 49.663], [6.054674, 49.66287], [6.054968, 49.662666], [6.055342, 49.662483], [6.055853, 49.662224], [6.056375, 49.66194], [6.056047, 49.661694], [6.055838, 49.661533], [6.055563, 49.661327], [6.055284, 49.66123], [6.054968, 49.661114], [6.0548, 49.661057], [6.054506, 49.660942], [6.054419, 49.66091], [6.054087, 49.66078], [6.053915, 49.660717], [6.053728, 49.660645], [6.053556, 49.66058], [6.053534, 49.660572], [6.053705, 49.66046], [6.053946, 49.66029], [6.054213, 49.660088], [6.054575, 49.659805], [6.055235, 49.659653], [6.055491, 49.6596], [6.05578, 49.659546], [6.056074, 49.6595], [6.056242, 49.659477], [6.056513, 49.659473], [6.056868, 49.659462], [6.057348, 49.65943], [6.057715, 49.6594], [6.058062, 49.659363], [6.058725, 49.65929], [6.059111, 49.65925], [6.059229, 49.659237], [6.059759, 49.659176], [6.060354, 49.65918], [6.060499, 49.659184], [6.060827, 49.659184], [6.061266, 49.65918], [6.061453, 49.659092], [6.061758, 49.658955], [6.062002, 49.65886], [6.062452, 49.658688], [6.06278, 49.65856], [6.063257, 49.658413], [6.063616, 49.658344], [6.063925, 49.658283], [6.064398, 49.658195], [6.064428, 49.65819], [6.06497, 49.65809], [6.065161, 49.65805], [6.065279, 49.658035], [6.065451, 49.658016], [6.065599, 49.657997], [6.06576, 49.65798], [6.065927, 49.657967], [6.066107, 49.657948], [6.066271, 49.65792], [6.066622, 49.65785], [6.066763, 49.657825], [6.0669, 49.657795], [6.06708, 49.657753], [6.067274, 49.65771], [6.067366, 49.657692], [6.06743, 49.65768], [6.06753, 49.65766], [6.067923, 49.657597], [6.067888, 49.65748], [6.067892, 49.657467], [6.067934, 49.657345], [6.067934, 49.65726], [6.067923, 49.657204], [6.067778, 49.657005], [6.06764, 49.656914], [6.067511, 49.656723], [6.067404, 49.656593], [6.06716, 49.656303], [6.067068, 49.65616], [6.066992, 49.65608], [6.066813, 49.65596], [6.06674, 49.655834], [6.06674, 49.655766], [6.066877, 49.65553], [6.066866, 49.65549], [6.066786, 49.655403], [6.066721, 49.65531], [6.066576, 49.655327], [6.06629, 49.655025], [6.06616, 49.654854], [6.066091, 49.654694], [6.065931, 49.65456], [6.065626, 49.654408], [6.065386, 49.654316], [6.065344, 49.65432], [6.065195, 49.654377], [6.065115, 49.65437], [6.064985, 49.65432], [6.064852, 49.654156], [6.064768, 49.654], [6.064661, 49.65389], [6.064501, 49.653774], [6.064386, 49.65373], [6.064264, 49.6537], [6.064012, 49.653557], [6.063833, 49.653477], [6.063528, 49.653313], [6.063211, 49.653175], [6.06299, 49.653065], [6.062906, 49.653057], [6.062845, 49.653072], [6.062796, 49.653126], [6.062548, 49.653244], [6.062464, 49.653263], [6.062345, 49.65325], [6.06196, 49.65306], [6.061842, 49.653053], [6.061708, 49.653084], [6.061384, 49.653267], [6.061243, 49.653282], [6.060945, 49.653244], [6.060774, 49.653248], [6.060621, 49.653137], [6.060144, 49.652958], [6.060083, 49.652954], [6.059973, 49.652973], [6.059801, 49.653], [6.059694, 49.65302], [6.059534, 49.653057], [6.059248, 49.65304], [6.059111, 49.65305], [6.058912, 49.65308], [6.058592, 49.653114], [6.058123, 49.65317], [6.057577, 49.653233], [6.057066, 49.6533], [6.056646, 49.653347], [6.056582, 49.65335], [6.056517, 49.653347], [6.056452, 49.653336], [6.056047, 49.653202], [6.055967, 49.65318], [6.055899, 49.653187], [6.055845, 49.653225], [6.055807, 49.653233], [6.055773, 49.65322], [6.055758, 49.653202], [6.055777, 49.653175], [6.055792, 49.653164], [6.05578, 49.653156], [6.055742, 49.65316], [6.055716, 49.65317], [6.055696, 49.6532], [6.05567, 49.65322], [6.055613, 49.65323], [6.055544, 49.65323], [6.055464, 49.65321], [6.055426, 49.65317], [6.05541, 49.653145], [6.055372, 49.653137], [6.055323, 49.65314], [6.055288, 49.653164], [6.055243, 49.65321], [6.055208, 49.653225], [6.055162, 49.65322], [6.055147, 49.653206], [6.055147, 49.65318], [6.055143, 49.65315], [6.055124, 49.653133], [6.055075, 49.65313], [6.055029, 49.653145], [6.054983, 49.65315], [6.05493, 49.653137], [6.054895, 49.65312], [6.054857, 49.653107], [6.054792, 49.65311], [6.054705, 49.653126], [6.054613, 49.65313], [6.054487, 49.653126], [6.054419, 49.653114], [6.054373, 49.653095], [6.054339, 49.653065], [6.054319, 49.653023], [6.054308, 49.653004], [6.05427, 49.652992], [6.054228, 49.653], [6.05419, 49.653023], [6.054174, 49.65308], [6.05414, 49.653137], [6.054121, 49.65315], [6.054079, 49.653152], [6.054048, 49.653137], [6.054037, 49.653114], [6.054022, 49.653088], [6.054018, 49.65306], [6.054007, 49.653046], [6.053984, 49.653038], [6.053934, 49.653038], [6.05382, 49.65304], [6.053736, 49.653057], [6.053675, 49.653076], [6.05364, 49.6531], [6.053621, 49.653103], [6.053602, 49.653103], [6.053572, 49.653095], [6.053526, 49.653072], [6.053515, 49.65305], [6.053495, 49.65303], [6.053472, 49.65301], [6.053434, 49.652996], [6.053392, 49.653], [6.053354, 49.653015], [6.053312, 49.653034], [6.053278, 49.653038], [6.053247, 49.653027], [6.053209, 49.653008], [6.05319, 49.652996], [6.053156, 49.652996], [6.053122, 49.652992], [6.053076, 49.65297], [6.05303, 49.652958], [6.052973, 49.652966], [6.052916, 49.65297], [6.052828, 49.652958], [6.05279, 49.652954], [6.052668, 49.652924], [6.052565, 49.652885], [6.052492, 49.652874], [6.052439, 49.65288], [6.052427, 49.65291], [6.052439, 49.652935], [6.052423, 49.652958], [6.052397, 49.652966], [6.052366, 49.652954], [6.052343, 49.652943], [6.052313, 49.652943], [6.052282, 49.652946], [6.052256, 49.65295], [6.052225, 49.652946], [6.052218, 49.65293], [6.052218, 49.652916], [6.052229, 49.65288], [6.052225, 49.65286], [6.052187, 49.65284], [6.052126, 49.652836], [6.05208, 49.652832], [6.051958, 49.65279], [6.051836, 49.652756], [6.051683, 49.652718], [6.05155, 49.652687], [6.051443, 49.652664], [6.051317, 49.65265], [6.051161, 49.65265], [6.051077, 49.652637], [6.05102, 49.652637], [6.050928, 49.652657], [6.050817, 49.652676], [6.050768, 49.6527], [6.050726, 49.652706], [6.050692, 49.65269], [6.050631, 49.652668], [6.050589, 49.652657], [6.050531, 49.652668], [6.050482, 49.652676], [6.050463, 49.65271], [6.050447, 49.652744], [6.050428, 49.652767], [6.050386, 49.652782], [6.050348, 49.652763], [6.050314, 49.65275], [6.050283, 49.652744], [6.050253, 49.652733], [6.050249, 49.65271], [6.050249, 49.652695], [6.050215, 49.65268], [6.050165, 49.652676], [6.050112, 49.6527], [6.050058, 49.652725], [6.050005, 49.65272], [6.049952, 49.65272], [6.04991, 49.65274], [6.04986, 49.652744], [6.04983, 49.652737], [6.049803, 49.65274], [6.049768, 49.65275], [6.049723, 49.652767], [6.049681, 49.65277], [6.049646, 49.65276], [6.049627, 49.652756], [6.049593, 49.65276], [6.049547, 49.65277], [6.049517, 49.652775], [6.049494, 49.652763], [6.049475, 49.652756], [6.049433, 49.65275], [6.049391, 49.65272], [6.049349, 49.65272], [6.049303, 49.652725], [6.049272, 49.652702], [6.049234, 49.652695], [6.0492, 49.65271], [6.049177, 49.652744], [6.049181, 49.65278], [6.049196, 49.65285], [6.049173, 49.65289], [6.049147, 49.652905], [6.049116, 49.6529], [6.049093, 49.652878], [6.049086, 49.65286], [6.049063, 49.652843], [6.049013, 49.652843], [6.048948, 49.65285], [6.048887, 49.652863], [6.048845, 49.652878], [6.048826, 49.6529], [6.04883, 49.652927], [6.048826, 49.65295], [6.048796, 49.652954], [6.048758, 49.65295], [6.048735, 49.65294], [6.048712, 49.65292], [6.048689, 49.652905], [6.048662, 49.652905], [6.048628, 49.652924], [6.04859, 49.65295], [6.048544, 49.652985], [6.04851, 49.653], [6.048471, 49.65301], [6.048437, 49.65301], [6.048403, 49.653], [6.048368, 49.652977], [6.048334, 49.652973], [6.048292, 49.652985], [6.048231, 49.653008], [6.048182, 49.653034], [6.048105, 49.65308], [6.04804, 49.653107], [6.047907, 49.65316], [6.047846, 49.65318], [6.047781, 49.653187], [6.047728, 49.65318], [6.047689, 49.65316], [6.047647, 49.653145], [6.047598, 49.65315], [6.047518, 49.653164], [6.04743, 49.653168], [6.047392, 49.653175], [6.047377, 49.653206], [6.047369, 49.65323], [6.047335, 49.65324], [6.047281, 49.653263], [6.047236, 49.653275], [6.047186, 49.65325], [6.047148, 49.65324], [6.047106, 49.65326], [6.047007, 49.653297], [6.046946, 49.6533], [6.046907, 49.653305], [6.046881, 49.65332], [6.046839, 49.65333], [6.046816, 49.653355], [6.046824, 49.653366], [6.04685, 49.653374], [6.046911, 49.653378], [6.046961, 49.653393], [6.046999, 49.653416], [6.047003, 49.65344], [6.046987, 49.65346], [6.046923, 49.653484], [6.046862, 49.653503], [6.046827, 49.653526], [6.046781, 49.65356], [6.046705, 49.653595], [6.046614, 49.653645], [6.046541, 49.653687], [6.046492, 49.65371], [6.046438, 49.6537], [6.046396, 49.6537], [6.046324, 49.653717], [6.046274, 49.653725], [6.046217, 49.653744], [6.046125, 49.65375], [6.046049, 49.65376], [6.045996, 49.65378], [6.04579, 49.653873], [6.045687, 49.653893], [6.045645, 49.65391], [6.045603, 49.653942], [6.045557, 49.653957], [6.045496, 49.653973], [6.045469, 49.65399], [6.045427, 49.654026], [6.045382, 49.65405], [6.045298, 49.654076], [6.045183, 49.6541], [6.045126, 49.654114], [6.044981, 49.654186], [6.044901, 49.6542], [6.044863, 49.654205], [6.044813, 49.65423], [6.044745, 49.654293], [6.044691, 49.654335], [6.044642, 49.654343], [6.044588, 49.65433], [6.044527, 49.65434], [6.044489, 49.65433], [6.044443, 49.654324], [6.044393, 49.65433], [6.044321, 49.65435], [6.044256, 49.654358], [6.044207, 49.65437], [6.044138, 49.654404], [6.044084, 49.654427], [6.044043, 49.654438], [6.04397, 49.65445], [6.043932, 49.65446], [6.043898, 49.65448], [6.043871, 49.654503], [6.043776, 49.65453], [6.043501, 49.6545], [6.04344, 49.654495], [6.043333, 49.65448], [6.043261, 49.654476], [6.043188, 49.654488], [6.042631, 49.65459], [6.042505, 49.654617], [6.042109, 49.654686], [6.041758, 49.654713], [6.040949, 49.65478], [6.040422, 49.654835], [6.040075, 49.65489], [6.039709, 49.6549], [6.039461, 49.654892], [6.039259, 49.654884], [6.039152, 49.654873], [6.039045, 49.65486], [6.038885, 49.654842], [6.038714, 49.654816], [6.0385, 49.654755], [6.038294, 49.654694], [6.038259, 49.654686], [6.037485, 49.654472], [6.037237, 49.65438], [6.037058, 49.65431], [6.036627, 49.65426], [6.036531, 49.65425], [6.036245, 49.654236], [6.035959, 49.654217], [6.035662, 49.654224], [6.035479, 49.654232], [6.035379, 49.654255], [6.035128, 49.65437], [6.0348, 49.654526], [6.034307, 49.654762], [6.034243, 49.654766], [6.034098, 49.65481], [6.033968, 49.654858], [6.033533, 49.65458], [6.033014, 49.654243], [6.03245, 49.65414], [6.031618, 49.653854], [6.03153, 49.65389], [6.031511, 49.653896], [6.031431, 49.653927], [6.031351, 49.653957], [6.031332, 49.65396], [6.031252, 49.65399], [6.031061, 49.654064], [6.030928, 49.654114], [6.030889, 49.65413], [6.030294, 49.653618], [6.029566, 49.652866], [6.029154, 49.652374], [6.028776, 49.65185], [6.028635, 49.65165], [6.028322, 49.651093], [6.028093, 49.65061], [6.027918, 49.650368], [6.0278, 49.65037], [6.027708, 49.65037], [6.027556, 49.650375], [6.02746, 49.650375], [6.027399, 49.65038], [6.027346, 49.650475], [6.027277, 49.650578], [6.027185, 49.650696], [6.027101, 49.65078], [6.027014, 49.65088], [6.026949, 49.65094], [6.026911, 49.650986], [6.026869, 49.651066], [6.026815, 49.65118], [6.02677, 49.651237], [6.026712, 49.65129], [6.026613, 49.65136], [6.026556, 49.651413], [6.026522, 49.651478], [6.026499, 49.651543], [6.026487, 49.651623], [6.026495, 49.651707], [6.026487, 49.65177], [6.026461, 49.651814], [6.026247, 49.652008], [6.026049, 49.652184], [6.025915, 49.65229], [6.02582, 49.652367], [6.025759, 49.6524], [6.025648, 49.65243], [6.025564, 49.652454], [6.025499, 49.65249], [6.025446, 49.652534], [6.025396, 49.65258], [6.025347, 49.65263], [6.025301, 49.652657], [6.025225, 49.65269], [6.025106, 49.652733], [6.025007, 49.652767], [6.024965, 49.65279], [6.024931, 49.65282], [6.024908, 49.65285], [6.024874, 49.65289], [6.024828, 49.65292], [6.024759, 49.65295], [6.024717, 49.65297], [6.024691, 49.65299], [6.024675, 49.653015], [6.024679, 49.653046], [6.024706, 49.653084], [6.024782, 49.65314], [6.024832, 49.65318], [6.024897, 49.653244], [6.024927, 49.653297], [6.024942, 49.65333], [6.024946, 49.65336], [6.02492, 49.65341], [6.024874, 49.65346], [6.024843, 49.653503], [6.02482, 49.653553], [6.024832, 49.6536], [6.024855, 49.65366], [6.02487, 49.65371], [6.02487, 49.653744], [6.024847, 49.653786], [6.024809, 49.65384], [6.024725, 49.653927], [6.024641, 49.65401], [6.024569, 49.654068], [6.024527, 49.6541], [6.024435, 49.654152], [6.02434, 49.654194], [6.02429, 49.65422], [6.024252, 49.65425], [6.024244, 49.654285], [6.024237, 49.654404], [6.024229, 49.654476], [6.024225, 49.654495], [6.02421, 49.65452], [6.024176, 49.654537], [6.024145, 49.654556], [6.024122, 49.654575], [6.024111, 49.65459], [6.024107, 49.654613], [6.024107, 49.65465], [6.024099, 49.65475], [6.024092, 49.654793], [6.024065, 49.654877], [6.024038, 49.654934], [6.024038, 49.654957], [6.02405, 49.654984], [6.024073, 49.655033], [6.024084, 49.655067], [6.024088, 49.655106], [6.024088, 49.655148], [6.024092, 49.655193], [6.024107, 49.655277], [6.024126, 49.65531], [6.024149, 49.655346], [6.024187, 49.6554], [6.02421, 49.655434], [6.024218, 49.65545], [6.024218, 49.655468], [6.024214, 49.655483], [6.024191, 49.655518], [6.024164, 49.655552], [6.024138, 49.655594], [6.024122, 49.655617], [6.024118, 49.65564], [6.024099, 49.65565], [6.02408, 49.655663], [6.024065, 49.65567], [6.024038, 49.655674], [6.024019, 49.655674], [6.023985, 49.655663], [6.023962, 49.655655], [6.023939, 49.65566], [6.023928, 49.655666], [6.023924, 49.65568], [6.023916, 49.6557], [6.023893, 49.65571], [6.023851, 49.65571], [6.023844, 49.65572], [6.023848, 49.65574], [6.02384, 49.655746], [6.023821, 49.655746], [6.023798, 49.65574], [6.023786, 49.655724], [6.023767, 49.655716], [6.023741, 49.655724], [6.023733, 49.65574], [6.023619, 49.655727], [6.023504, 49.655712], [6.023455, 49.655704], [6.023405, 49.655685], [6.023375, 49.65567], [6.023367, 49.65564], [6.023356, 49.655632], [6.023329, 49.655624], [6.023291, 49.65562], [6.023207, 49.655605], [6.023146, 49.6556], [6.0231, 49.6556], [6.023058, 49.655586], [6.023035, 49.655567], [6.023039, 49.65554], [6.023027, 49.655525], [6.023001, 49.655518], [6.022982, 49.65552], [6.022959, 49.65554], [6.022936, 49.655556], [6.022898, 49.65557], [6.022867, 49.65558], [6.022844, 49.655582], [6.022814, 49.655586], [6.022776, 49.655582], [6.022753, 49.655575], [6.022734, 49.655567], [6.022718, 49.655544], [6.022715, 49.65553], [6.022707, 49.655518], [6.022696, 49.65551], [6.022661, 49.655506], [6.022646, 49.655506], [6.022577, 49.655514], [6.022489, 49.65552], [6.022398, 49.655525], [6.022287, 49.655518], [6.022245, 49.655506], [6.022203, 49.65549], [6.022158, 49.655483], [6.022112, 49.65547], [6.022066, 49.655476], [6.022024, 49.65549], [6.02199, 49.655506], [6.021952, 49.65551], [6.021917, 49.65551], [6.021883, 49.655506], [6.021864, 49.655502], [6.021845, 49.655502], [6.02183, 49.6555], [6.021822, 49.65549], [6.021818, 49.65547], [6.021822, 49.65546], [6.021814, 49.655445], [6.021795, 49.65543], [6.021776, 49.65541], [6.021761, 49.655403], [6.021738, 49.655396], [6.021707, 49.65539], [6.021677, 49.65539], [6.021639, 49.655388], [6.021604, 49.655376], [6.021524, 49.655342], [6.021483, 49.65532], [6.021471, 49.65531], [6.021452, 49.655308], [6.021425, 49.655304], [6.021395, 49.655308], [6.021368, 49.65531], [6.021307, 49.655323], [6.02125, 49.655323], [6.021223, 49.655315], [6.0212, 49.65531], [6.021173, 49.655308], [6.021147, 49.6553], [6.021132, 49.655293], [6.021124, 49.65528], [6.021112, 49.655277], [6.021093, 49.655277], [6.021078, 49.655285], [6.021067, 49.655285], [6.021048, 49.65528], [6.020998, 49.655262], [6.020903, 49.65523], [6.020693, 49.655178], [6.020655, 49.65517], [6.020632, 49.655163], [6.02062, 49.65515], [6.020624, 49.655132], [6.020628, 49.65512], [6.020624, 49.65511], [6.020605, 49.655098], [6.020582, 49.655098], [6.020563, 49.6551], [6.020544, 49.655113], [6.020536, 49.65513], [6.020529, 49.65514], [6.020517, 49.655148], [6.020494, 49.65515], [6.020475, 49.655148], [6.020453, 49.655132], [6.020456, 49.65512], [6.020453, 49.6551], [6.020418, 49.65509], [6.020388, 49.655094], [6.020327, 49.655113], [6.020315, 49.655117], [6.020288, 49.655117], [6.020254, 49.655106], [6.02022, 49.655052], [6.020201, 49.65504], [6.020178, 49.655033], [6.02014, 49.655018], [6.020113, 49.655], [6.020105, 49.654987], [6.020101, 49.65496], [6.020086, 49.654926], [6.020082, 49.65491], [6.020044, 49.65486], [6.019999, 49.65482], [6.019957, 49.65479], [6.019884, 49.654762], [6.019731, 49.65471], [6.019491, 49.654644], [6.018686, 49.654545], [6.018442, 49.654514], [6.018084, 49.65447], [6.017801, 49.654434], [6.017218, 49.654358], [6.016951, 49.65432], [6.016748, 49.654285], [6.016455, 49.65423], [6.016455, 49.654144], [6.016462, 49.654102], [6.016466, 49.65405], [6.016474, 49.654], [6.016222, 49.65394], [6.015806, 49.65384], [6.015543, 49.65377], [6.015375, 49.653732], [6.015253, 49.653698], [6.015417, 49.65352], [6.015295, 49.65344], [6.015158, 49.653362], [6.01462, 49.653072], [6.014498, 49.653015], [6.01436, 49.65295], [6.01425, 49.652927], [6.014124, 49.652916], [6.013884, 49.652897], [6.013578, 49.652878], [6.0133, 49.652866], [6.012964, 49.652855], [6.012621, 49.65275], [6.012251, 49.652634], [6.011892, 49.652523], [6.011728, 49.652473], [6.011545, 49.6523], [6.011137, 49.652245], [6.010931, 49.652218], [6.010763, 49.652203], [6.010599, 49.652195], [6.010492, 49.6522], [6.010344, 49.652203], [6.01029, 49.652203], [6.009466, 49.65251], [6.009272, 49.652588], [6.008833, 49.652565], [6.008573, 49.652554], [6.008413, 49.652554], [6.008238, 49.65255], [6.008081, 49.65255], [6.007938, 49.652548], [6.007811, 49.652554], [6.007658, 49.652557], [6.007448, 49.652565], [6.006971, 49.652596], [6.006567, 49.6526], [6.006437, 49.6526], [6.006113, 49.65258], [6.005979, 49.65257], [6.005827, 49.652546], [6.00543, 49.652496], [6.005114, 49.65244], [6.00485, 49.65238], [6.004358, 49.652256], [6.003954, 49.65214], [6.003664, 49.652042], [6.003241, 49.651875], [6.002459, 49.65155], [6.002417, 49.651527], [6.002035, 49.65166], [6.001947, 49.65154], [6.001871, 49.651417], [6.001795, 49.651325], [6.001696, 49.651257], [6.001574, 49.651203], [6.001375, 49.651134], [6.001162, 49.651085], [6.000807, 49.651028], [6.000078, 49.650963], [5.999643, 49.650925], [5.999601, 49.65067], [5.999552, 49.65043], [5.999517, 49.650253], [5.999453, 49.649914], [5.999395, 49.649704], [5.999296, 49.64946], [5.999151, 49.649162], [5.998888, 49.648582], [5.998667, 49.648033], [5.998491, 49.64758], [5.998289, 49.647102], [5.998449, 49.64699], [5.998842, 49.64663], [5.998732, 49.646587], [5.998404, 49.646473], [5.998289, 49.646435], [5.99822, 49.646408], [5.998079, 49.646362], [5.99811, 49.64632], [5.998114, 49.646297], [5.998098, 49.646286], [5.998072, 49.646275], [5.997873, 49.64629], [5.997866, 49.64621], [5.997824, 49.645954], [5.997786, 49.64571], [5.997755, 49.64545], [5.997736, 49.64532], [5.997732, 49.645267], [5.997713, 49.645138], [5.997709, 49.64509], [5.99769, 49.64495], [5.997683, 49.644905], [5.997663, 49.64477], [5.997652, 49.644684], [5.997629, 49.64461], [5.997503, 49.644325], [5.997404, 49.644005], [5.997351, 49.643925], [5.997118, 49.643982], [5.996935, 49.644028], [5.996921, 49.644032], [5.996908, 49.644035], [5.996862, 49.644043], [5.99682, 49.644054], [5.99666, 49.64409], [5.996397, 49.644146], [5.996294, 49.644165], [5.996248, 49.644176], [5.996126, 49.6442], [5.995977, 49.64423], [5.995855, 49.644253], [5.995802, 49.644264], [5.995771, 49.644268], [5.995714, 49.64428], [5.995672, 49.644287], [5.995432, 49.644333], [5.995306, 49.644356], [5.995207, 49.644375], [5.994684, 49.64447], [5.994635, 49.64448], [5.994371, 49.64453], [5.994204, 49.64456], [5.994097, 49.64458], [5.993944, 49.64461], [5.993872, 49.644623], [5.993601, 49.644676], [5.99357, 49.64468], [5.993338, 49.644726], [5.99301, 49.644787], [5.992983, 49.644794], [5.992823, 49.644825], [5.992697, 49.644848], [5.992681, 49.644848], [5.992426, 49.644897], [5.992334, 49.644913], [5.992178, 49.644943], [5.992106, 49.64496], [5.992037, 49.64497], [5.991938, 49.64499], [5.991869, 49.645], [5.991709, 49.64503], [5.991594, 49.645054], [5.991304, 49.645107], [5.991293, 49.64511], [5.991236, 49.645123], [5.991213, 49.645126], [5.991171, 49.645134], [5.991295, 49.645191], [5.991424, 49.645254], [5.991565, 49.64533], [5.991523, 49.645345], [5.99132, 49.645412], [5.991282, 49.645424], [5.991182, 49.645454], [5.991056, 49.645496], [5.990999, 49.64544], [5.990767, 49.64549], [5.990709, 49.645496], [5.990667, 49.645508], [5.99045, 49.64555], [5.99045, 49.645737], [5.990091, 49.645756], [5.990118, 49.64593], [5.990137, 49.64606], [5.990145, 49.646133], [5.99016, 49.646236], [5.990171, 49.64632], [5.990194, 49.646477], [5.990198, 49.646515], [5.990225, 49.646698], [5.990248, 49.646866], [5.990412, 49.646862], [5.990431, 49.64705], [5.990446, 49.64716], [5.990107, 49.64722], [5.98984, 49.64711], [5.989733, 49.64714], [5.989439, 49.64723], [5.989393, 49.64724], [5.989046, 49.647346], [5.988977, 49.647358], [5.988626, 49.647396], [5.988512, 49.647617], [5.988462, 49.647717], [5.988421, 49.647797], [5.988378, 49.647915], [5.988356, 49.64799], [5.988333, 49.64806], [5.988176, 49.64815], [5.988062, 49.64809], [5.987982, 49.648148], [5.987928, 49.64819], [5.987837, 49.64827], [5.987574, 49.648495], [5.987326, 49.648586], [5.987146, 49.64865], [5.986742, 49.648514], [5.986521, 49.648438], [5.985464, 49.64808], [5.985254, 49.648006], [5.985003, 49.647923], [5.98464, 49.6478], [5.984461, 49.647736], [5.98427, 49.64767], [5.984175, 49.64764], [5.984114, 49.647617], [5.983904, 49.64755], [5.983618, 49.647453], [5.983423, 49.647396], [5.98332, 49.64736], [5.983076, 49.64729], [5.982668, 49.647167], [5.982504, 49.647118], [5.982256, 49.647045], [5.982, 49.646976], [5.981482, 49.646835], [5.981447, 49.646828], [5.981089, 49.64677], [5.981077, 49.646767], [5.980989, 49.64675], [5.980967, 49.646805], [5.980928, 49.646862], [5.980883, 49.646923], [5.980825, 49.646984], [5.980753, 49.64704], [5.980711, 49.647068], [5.980665, 49.6471], [5.980589, 49.64714], [5.980505, 49.64718], [5.980471, 49.647194], [5.980425, 49.64721], [5.980333, 49.647236], [5.980169, 49.647274], [5.979967, 49.647312], [5.979654, 49.64736], [5.979422, 49.6474], [5.979101, 49.647457], [5.978865, 49.647507], [5.978689, 49.647545], [5.97859, 49.64758], [5.978544, 49.647606], [5.978434, 49.647694], [5.978388, 49.647728], [5.978281, 49.64782], [5.978186, 49.647915], [5.978064, 49.648052], [5.977869, 49.648266], [5.977831, 49.648304], [5.977678, 49.648464], [5.977579, 49.64857], [5.977514, 49.64864]]]]}}]}