{"type": "FeatureCollection", "features": [{"type": "Feature", "properties": {"name": "Canton Vianden"}, "geometry": {"type": "MultiPolygon", "coordinates": [[[[6.087198, 49.934954], [6.087202, 49.934988], [6.087221, 49.935011], [6.087252, 49.935028], [6.08732, 49.935053], [6.087431, 49.935083], [6.087477, 49.935114], [6.087507, 49.935144], [6.087526, 49.93519], [6.087553, 49.935354], [6.08758, 49.935453], [6.087622, 49.935533], [6.087656, 49.935606], [6.087679, 49.935698], [6.087709, 49.935762], [6.087763, 49.935838], [6.087771, 49.935868], [6.087763, 49.935896], [6.087721, 49.935972], [6.087698, 49.936052], [6.087664, 49.936118], [6.087622, 49.936174], [6.087606, 49.936212], [6.08761, 49.936235], [6.087599, 49.936262], [6.087599, 49.936293], [6.087591, 49.936328], [6.087576, 49.936368], [6.087561, 49.936403], [6.087538, 49.936434], [6.0875, 49.936476], [6.087477, 49.936498], [6.087473, 49.936528], [6.08753, 49.936685], [6.087603, 49.936895], [6.087603, 49.93696], [6.087584, 49.936988], [6.087565, 49.937008], [6.087503, 49.937055], [6.087473, 49.937082], [6.087458, 49.937108], [6.087454, 49.937155], [6.087469, 49.937188], [6.087496, 49.937198], [6.087519, 49.937218], [6.087576, 49.937231], [6.087801, 49.937231], [6.087912, 49.937248], [6.088018, 49.937273], [6.088095, 49.937296], [6.088186, 49.93733], [6.088259, 49.937372], [6.088289, 49.937408], [6.088285, 49.937426], [6.088266, 49.937448], [6.088198, 49.937471], [6.088125, 49.937502], [6.088102, 49.937521], [6.088095, 49.937548], [6.088099, 49.937598], [6.088114, 49.937668], [6.088114, 49.937715], [6.08808, 49.93786], [6.088072, 49.937925], [6.08808, 49.937975], [6.088106, 49.938002], [6.088137, 49.938018], [6.088278, 49.938032], [6.088301, 49.938048], [6.088316, 49.938063], [6.088308, 49.938082], [6.088285, 49.938131], [6.088289, 49.938178], [6.088308, 49.938228], [6.088327, 49.938291], [6.088354, 49.938333], [6.088381, 49.938352], [6.088415, 49.93836], [6.08843, 49.938358], [6.088453, 49.938352], [6.088491, 49.93836], [6.088518, 49.938372], [6.088614, 49.938428], [6.088774, 49.938528], [6.088949, 49.938631], [6.089109, 49.938738], [6.089239, 49.938828], [6.089277, 49.938848], [6.089479, 49.938902], [6.089613, 49.938944], [6.089758, 49.938998], [6.090361, 49.939264], [6.090822, 49.939482], [6.091349, 49.939722], [6.091551, 49.939806], [6.091982, 49.939955], [6.092501, 49.940118], [6.09305, 49.940435], [6.093027, 49.94071], [6.093069, 49.940748], [6.093119, 49.940794], [6.09313, 49.940828], [6.093122, 49.940858], [6.093092, 49.940916], [6.093061, 49.940966], [6.093054, 49.941004], [6.093073, 49.941225], [6.0931, 49.94132], [6.093107, 49.941368], [6.093096, 49.9414], [6.093081, 49.941431], [6.093046, 49.941473], [6.092966, 49.941538], [6.09276, 49.941698], [6.092478, 49.941915], [6.09234, 49.942022], [6.09202, 49.942318], [6.091982, 49.942338], [6.091928, 49.94235], [6.091867, 49.94235], [6.091642, 49.942354], [6.091597, 49.942366], [6.091558, 49.942411], [6.091532, 49.942453], [6.091532, 49.94248], [6.091558, 49.942508], [6.091589, 49.942528], [6.091585, 49.942552], [6.091558, 49.942575], [6.091513, 49.942588], [6.09144, 49.942598], [6.091356, 49.942606], [6.091185, 49.942688], [6.091085, 49.942751], [6.090979, 49.942848], [6.090929, 49.942918], [6.090883, 49.942984], [6.090838, 49.943022], [6.090719, 49.943108], [6.090586, 49.943243], [6.090262, 49.943563], [6.090212, 49.943685], [6.090162, 49.943865], [6.090136, 49.943911], [6.090105, 49.943978], [6.090075, 49.944021], [6.090033, 49.944044], [6.089956, 49.944063], [6.089865, 49.944078], [6.089868, 49.94412], [6.089891, 49.944168], [6.089956, 49.944228], [6.090021, 49.944261], [6.090113, 49.944288], [6.090208, 49.944318], [6.090258, 49.944348], [6.090334, 49.944408], [6.090387, 49.944468], [6.090426, 49.944508], [6.090452, 49.944588], [6.090471, 49.944662], [6.090467, 49.944708], [6.090452, 49.944754], [6.090391, 49.944834], [6.090345, 49.944895], [6.090326, 49.944938], [6.090334, 49.944968], [6.090349, 49.945008], [6.090383, 49.945055], [6.09041, 49.945082], [6.090448, 49.945101], [6.090479, 49.945105], [6.090509, 49.945105], [6.090597, 49.945085], [6.090673, 49.945063], [6.090746, 49.945058], [6.09078, 49.945058], [6.090807, 49.945074], [6.090826, 49.945098], [6.09083, 49.945128], [6.090826, 49.945166], [6.090815, 49.945208], [6.090788, 49.945246], [6.09078, 49.945268], [6.090792, 49.945288], [6.090834, 49.945318], [6.090853, 49.945341], [6.09086, 49.94536], [6.090849, 49.945383], [6.090826, 49.945408], [6.090795, 49.945433], [6.09078, 49.945463], [6.090792, 49.945486], [6.090815, 49.945513], [6.090845, 49.945524], [6.090872, 49.945528], [6.090914, 49.945518], [6.090982, 49.945488], [6.091017, 49.945488], [6.09104, 49.945501], [6.091066, 49.94552], [6.091082, 49.945548], [6.091078, 49.945566], [6.091059, 49.945581], [6.091021, 49.945588], [6.090887, 49.945608], [6.090811, 49.945631], [6.090784, 49.94565], [6.09075, 49.945692], [6.090727, 49.94573], [6.090719, 49.945761], [6.090731, 49.945778], [6.090757, 49.945791], [6.090784, 49.945791], [6.090879, 49.945753], [6.090941, 49.945742], [6.090982, 49.945738], [6.091009, 49.945742], [6.091047, 49.945758], [6.091089, 49.945784], [6.091127, 49.945814], [6.091169, 49.945858], [6.091249, 49.945968], [6.091295, 49.94602], [6.091326, 49.946048], [6.091372, 49.946068], [6.091425, 49.946093], [6.091444, 49.946108], [6.091452, 49.946123], [6.091436, 49.946192], [6.091444, 49.946226], [6.091456, 49.946258], [6.091475, 49.946268], [6.091558, 49.946295], [6.091593, 49.946308], [6.091646, 49.94634], [6.091715, 49.946375], [6.091841, 49.946405], [6.091864, 49.946418], [6.092043, 49.946535], [6.092176, 49.946615], [6.092234, 49.946658], [6.092253, 49.946678], [6.09226, 49.946695], [6.092257, 49.946718], [6.092245, 49.946726], [6.092215, 49.946741], [6.092188, 49.946745], [6.09215, 49.946745], [6.092115, 49.946758], [6.092096, 49.946768], [6.092085, 49.946791], [6.092077, 49.946852], [6.092073, 49.946871], [6.092047, 49.946894], [6.092009, 49.946913], [6.092001, 49.946932], [6.092028, 49.946993], [6.092081, 49.947122], [6.092108, 49.947214], [6.092108, 49.947283], [6.092104, 49.94734], [6.092077, 49.947398], [6.092032, 49.947454], [6.091951, 49.947531], [6.09194, 49.947558], [6.09194, 49.947592], [6.091948, 49.947638], [6.091974, 49.947714], [6.091978, 49.947768], [6.091982, 49.947808], [6.091963, 49.947868], [6.091928, 49.947916], [6.091867, 49.947968], [6.091761, 49.94803], [6.091711, 49.948058], [6.091688, 49.948084], [6.091684, 49.948114], [6.091688, 49.948175], [6.091684, 49.948206], [6.091658, 49.948278], [6.091627, 49.94832], [6.09162, 49.948378], [6.09162, 49.948423], [6.091608, 49.948461], [6.09157, 49.948508], [6.091558, 49.948542], [6.091555, 49.948568], [6.091536, 49.94861], [6.091501, 49.948648], [6.091482, 49.948671], [6.091475, 49.94869], [6.09149, 49.948708], [6.091524, 49.948728], [6.091639, 49.948778], [6.091715, 49.948824], [6.091837, 49.9489], [6.091932, 49.948961], [6.092024, 49.949048], [6.092085, 49.94911], [6.09215, 49.949156], [6.092215, 49.949194], [6.09234, 49.949238], [6.092566, 49.949312], [6.092737, 49.949366], [6.092874, 49.949408], [6.093084, 49.949465], [6.093245, 49.949503], [6.093351, 49.949522], [6.093454, 49.949526], [6.093542, 49.949528], [6.093599, 49.949545], [6.093656, 49.949564], [6.093744, 49.949606], [6.094015, 49.949748], [6.094126, 49.949812], [6.094229, 49.949892], [6.094416, 49.950088], [6.094465, 49.950148], [6.094488, 49.950182], [6.094484, 49.950198], [6.094469, 49.950208], [6.094419, 49.950212], [6.094378, 49.95022], [6.094343, 49.950235], [6.094301, 49.950288], [6.09424, 49.950448], [6.094198, 49.950521], [6.094076, 49.95067], [6.093962, 49.95083], [6.093904, 49.95088], [6.093786, 49.950938], [6.09371, 49.951013], [6.093553, 49.951181], [6.093485, 49.95125], [6.093462, 49.951284], [6.093466, 49.951318], [6.093531, 49.951391], [6.093534, 49.95141], [6.093531, 49.951428], [6.093508, 49.951458], [6.093435, 49.951536], [6.09337, 49.951601], [6.093306, 49.951668], [6.093264, 49.951728], [6.093229, 49.951808], [6.093206, 49.951848], [6.093172, 49.951891], [6.093157, 49.951908], [6.093084, 49.951982], [6.093039, 49.952018], [6.092977, 49.952063], [6.09284, 49.952143], [6.09276, 49.952215], [6.092547, 49.952433], [6.092493, 49.952494], [6.092447, 49.952558], [6.092424, 49.952616], [6.092386, 49.952745], [6.092363, 49.952841], [6.092348, 49.952951], [6.092348, 49.953018], [6.092356, 49.953088], [6.092371, 49.953131], [6.092398, 49.953154], [6.092428, 49.953158], [6.092462, 49.953173], [6.092504, 49.953192], [6.092527, 49.953222], [6.092527, 49.95326], [6.09252, 49.953321], [6.092516, 49.953375], [6.092539, 49.953424], [6.092581, 49.953493], [6.092604, 49.953538], [6.092604, 49.953588], [6.0926, 49.95363], [6.092611, 49.95368], [6.092611, 49.953758], [6.092573, 49.954084], [6.092569, 49.954134], [6.092566, 49.954161], [6.092573, 49.954218], [6.092585, 49.954248], [6.092669, 49.954358], [6.092733, 49.954448], [6.092771, 49.954488], [6.09284, 49.954528], [6.093, 49.954611], [6.093149, 49.954691], [6.093252, 49.95474], [6.093321, 49.954763], [6.093412, 49.954782], [6.093481, 49.95479], [6.093519, 49.954818], [6.093557, 49.954863], [6.093615, 49.954935], [6.093634, 49.954965], [6.093622, 49.954988], [6.093596, 49.955004], [6.093561, 49.955015], [6.093538, 49.95503], [6.093531, 49.955053], [6.093546, 49.955088], [6.093569, 49.955114], [6.093622, 49.955152], [6.093721, 49.955213], [6.093752, 49.95524], [6.093763, 49.955258], [6.093759, 49.955288], [6.093737, 49.955328], [6.093687, 49.955388], [6.093615, 49.955454], [6.093542, 49.955515], [6.093527, 49.955545], [6.093531, 49.955572], [6.093561, 49.955591], [6.093599, 49.955603], [6.093649, 49.955614], [6.093668, 49.955638], [6.093668, 49.955664], [6.093592, 49.955768], [6.093584, 49.955801], [6.093596, 49.955885], [6.093596, 49.955912], [6.093569, 49.955928], [6.093504, 49.955942], [6.093492, 49.955948], [6.093489, 49.955965], [6.093519, 49.955978], [6.093607, 49.955992], [6.093656, 49.956008], [6.093672, 49.956022], [6.093679, 49.956045], [6.093672, 49.956072], [6.093637, 49.956128], [6.093195, 49.956751], [6.093184, 49.956788], [6.093191, 49.956804], [6.093267, 49.956854], [6.093386, 49.95693], [6.093412, 49.956964], [6.09342, 49.956991], [6.093412, 49.957028], [6.093397, 49.957071], [6.093386, 49.957106], [6.093386, 49.957125], [6.093409, 49.957148], [6.093462, 49.957182], [6.093481, 49.957201], [6.093477, 49.957218], [6.093458, 49.957235], [6.093432, 49.957254], [6.093424, 49.957273], [6.093447, 49.957285], [6.093477, 49.957288], [6.093553, 49.957266], [6.09366, 49.957218], [6.093706, 49.957201], [6.093752, 49.957201], [6.093786, 49.957224], [6.093889, 49.9573], [6.093947, 49.957338], [6.093977, 49.957346], [6.094042, 49.957348], [6.094076, 49.957353], [6.094107, 49.957361], [6.094145, 49.957373], [6.094225, 49.957418], [6.094297, 49.957453], [6.094362, 49.957472], [6.094461, 49.957491], [6.094534, 49.957506], [6.094583, 49.957521], [6.094664, 49.957544], [6.094706, 49.957571], [6.094755, 49.957605], [6.094786, 49.957624], [6.094839, 49.957638], [6.09487, 49.957643], [6.094931, 49.957638], [6.094961, 49.957643], [6.095221, 49.957716], [6.095434, 49.957778], [6.095591, 49.957828], [6.095915, 49.957918], [6.095945, 49.957926], [6.096018, 49.957948], [6.096075, 49.957975], [6.096151, 49.958025], [6.096251, 49.958101], [6.096388, 49.958231], [6.096476, 49.958322], [6.096518, 49.958378], [6.096548, 49.958438], [6.096624, 49.958728], [6.096678, 49.958914], [6.096697, 49.958982], [6.096731, 49.959051], [6.096785, 49.959138], [6.096827, 49.959196], [6.096899, 49.959278], [6.096952, 49.959318], [6.097044, 49.959375], [6.09712, 49.959421], [6.097139, 49.959438], [6.097136, 49.959455], [6.097117, 49.959488], [6.097113, 49.959513], [6.097128, 49.959538], [6.097204, 49.959593], [6.097284, 49.959635], [6.097334, 49.959673], [6.097372, 49.959703], [6.097383, 49.959734], [6.097395, 49.959795], [6.097403, 49.959856], [6.09741, 49.959902], [6.097425, 49.959944], [6.09746, 49.959986], [6.097483, 49.960005], [6.097506, 49.960012], [6.097548, 49.95997], [6.097574, 49.959968], [6.097609, 49.95997], [6.097647, 49.959982], [6.097708, 49.960028], [6.09778, 49.960098], [6.097807, 49.960115], [6.097837, 49.960123], [6.097864, 49.960123], [6.097883, 49.960112], [6.097887, 49.960092], [6.097891, 49.960054], [6.097898, 49.960038], [6.097918, 49.960038], [6.097952, 49.960048], [6.09799, 49.960058], [6.098059, 49.960104], [6.098139, 49.960173], [6.098162, 49.960203], [6.098166, 49.960228], [6.098162, 49.960253], [6.098146, 49.960283], [6.098124, 49.960333], [6.09812, 49.960356], [6.098143, 49.960368], [6.098166, 49.960363], [6.098192, 49.960352], [6.098238, 49.960338], [6.098272, 49.960333], [6.098299, 49.960352], [6.098314, 49.960375], [6.098318, 49.960408], [6.098318, 49.960498], [6.098311, 49.960518], [6.09828, 49.960562], [6.09828, 49.960573], [6.098307, 49.960588], [6.098478, 49.960608], [6.098551, 49.960615], [6.098578, 49.960611], [6.098593, 49.960604], [6.098597, 49.960588], [6.098581, 49.960573], [6.098513, 49.960518], [6.098501, 49.960501], [6.098509, 49.960485], [6.098535, 49.960474], [6.098558, 49.960474], [6.098589, 49.960482], [6.098654, 49.960518], [6.098734, 49.960573], [6.098822, 49.960638], [6.098829, 49.960653], [6.098826, 49.960668], [6.098806, 49.960691], [6.098764, 49.960718], [6.098745, 49.960733], [6.098753, 49.960748], [6.098768, 49.96076], [6.098822, 49.960788], [6.098826, 49.960798], [6.098829, 49.960818], [6.098837, 49.960848], [6.098867, 49.960901], [6.098894, 49.960932], [6.098936, 49.960974], [6.098997, 49.961023], [6.0991, 49.961098], [6.099142, 49.96113], [6.099157, 49.961168], [6.099157, 49.961191], [6.099115, 49.961328], [6.099081, 49.961435], [6.099054, 49.961466], [6.099024, 49.961504], [6.099016, 49.961531], [6.099016, 49.961584], [6.099001, 49.961691], [6.098967, 49.961832], [6.098913, 49.962072], [6.098837, 49.962423], [6.098829, 49.962498], [6.098837, 49.962545], [6.098982, 49.963148], [6.099016, 49.963282], [6.099039, 49.963331], [6.099134, 49.963484], [6.099478, 49.963976], [6.099523, 49.964052], [6.099565, 49.964128], [6.099615, 49.964193], [6.099707, 49.964285], [6.099791, 49.964348], [6.09992, 49.964428], [6.100149, 49.964533], [6.10042, 49.964651], [6.100626, 49.964743], [6.10074, 49.964798], [6.100893, 49.964878], [6.100988, 49.964926], [6.101282, 49.965058], [6.101282, 49.965074], [6.101263, 49.965138], [6.101252, 49.965158], [6.101244, 49.965168], [6.101221, 49.965208], [6.101179, 49.965258], [6.101133, 49.965296], [6.101088, 49.965322], [6.101007, 49.965383], [6.100809, 49.965538], [6.100718, 49.965608], [6.100637, 49.965678], [6.100576, 49.965728], [6.100496, 49.965768], [6.100378, 49.965822], [6.100325, 49.965853], [6.100294, 49.965878], [6.10026, 49.965928], [6.100218, 49.966005], [6.100176, 49.966088], [6.100149, 49.966118], [6.100115, 49.966143], [6.100061, 49.966162], [6.099966, 49.966178], [6.099939, 49.966188], [6.099901, 49.966198], [6.099882, 49.966198], [6.099855, 49.966192], [6.099825, 49.966181], [6.099802, 49.966185], [6.099729, 49.966204], [6.099642, 49.966228], [6.099627, 49.966268], [6.099608, 49.966326], [6.099588, 49.966378], [6.099558, 49.966428], [6.09952, 49.966455], [6.099455, 49.966478], [6.099367, 49.966508], [6.09918, 49.966555], [6.098974, 49.9666], [6.09897, 49.966616], [6.099134, 49.966776], [6.098982, 49.966848], [6.098906, 49.96689], [6.098707, 49.967001], [6.098589, 49.967062], [6.09849, 49.967104], [6.098471, 49.967118], [6.098394, 49.967188], [6.098288, 49.967268], [6.098265, 49.967295], [6.098249, 49.96734], [6.098238, 49.967432], [6.098211, 49.967535], [6.098181, 49.967604], [6.098169, 49.967642], [6.098169, 49.967703], [6.098158, 49.967958], [6.098166, 49.968031], [6.098196, 49.968078], [6.098261, 49.968138], [6.098429, 49.968368], [6.098631, 49.968608], [6.098688, 49.968688], [6.098776, 49.968838], [6.098806, 49.968908], [6.098818, 49.968954], [6.098814, 49.968992], [6.098799, 49.969034], [6.098753, 49.969108], [6.098738, 49.96916], [6.09873, 49.969208], [6.098734, 49.969271], [6.098749, 49.969343], [6.098799, 49.969454], [6.098864, 49.969638], [6.09889, 49.969748], [6.098898, 49.969805], [6.098906, 49.969946], [6.098898, 49.970095], [6.098906, 49.970121], [6.098925, 49.970144], [6.09897, 49.970178], [6.099047, 49.970224], [6.099077, 49.970251], [6.099093, 49.97027], [6.0991, 49.970298], [6.099093, 49.970328], [6.099093, 49.970378], [6.0991, 49.970423], [6.099138, 49.970533], [6.09915, 49.970558], [6.099161, 49.970613], [6.099184, 49.970678], [6.099196, 49.970718], [6.099234, 49.970768], [6.099268, 49.970808], [6.099314, 49.970846], [6.099344, 49.970878], [6.099428, 49.971002], [6.099497, 49.971078], [6.099608, 49.971174], [6.099863, 49.971378], [6.099901, 49.971426], [6.099909, 49.971458], [6.099905, 49.971502], [6.099916, 49.971533], [6.099932, 49.971552], [6.099981, 49.971578], [6.100004, 49.971598], [6.100023, 49.971628], [6.100046, 49.971648], [6.100073, 49.971674], [6.1001, 49.971701], [6.100126, 49.971762], [6.100153, 49.971838], [6.100264, 49.97199], [6.100279, 49.972052], [6.10029, 49.972132], [6.100302, 49.97233], [6.100306, 49.972414], [6.100298, 49.972444], [6.10026, 49.972494], [6.100248, 49.972521], [6.100248, 49.972551], [6.100256, 49.972601], [6.100237, 49.972681], [6.100229, 49.972784], [6.100225, 49.972826], [6.100214, 49.972853], [6.100191, 49.972864], [6.100111, 49.972888], [6.100092, 49.972898], [6.100088, 49.972914], [6.100111, 49.97294], [6.100172, 49.973005], [6.100183, 49.973024], [6.100183, 49.973038], [6.100168, 49.973074], [6.100168, 49.973101], [6.100187, 49.973123], [6.10021, 49.973128], [6.100241, 49.973123], [6.100256, 49.973131], [6.100264, 49.973154], [6.100267, 49.973178], [6.100271, 49.973196], [6.10026, 49.973246], [6.100267, 49.973288], [6.100294, 49.973328], [6.100309, 49.973348], [6.100309, 49.973364], [6.100294, 49.973383], [6.100302, 49.973402], [6.100313, 49.973421], [6.100321, 49.973438], [6.100309, 49.973452], [6.100286, 49.973468], [6.100237, 49.973478], [6.100222, 49.973488], [6.100222, 49.973505], [6.100233, 49.973508], [6.100275, 49.973505], [6.100302, 49.973505], [6.100325, 49.973518], [6.100378, 49.973543], [6.100424, 49.973566], [6.100443, 49.973585], [6.100447, 49.9736], [6.100443, 49.973618], [6.10045, 49.973631], [6.100466, 49.973638], [6.100523, 49.973642], [6.100546, 49.973654], [6.100534, 49.973673], [6.100531, 49.973698], [6.100531, 49.973718], [6.100542, 49.973745], [6.100573, 49.973788], [6.100653, 49.973868], [6.100767, 49.973974], [6.100809, 49.974012], [6.10087, 49.974048], [6.100966, 49.974085], [6.10103, 49.974115], [6.101061, 49.974131], [6.101118, 49.974168], [6.101236, 49.97426], [6.101301, 49.974308], [6.101461, 49.974418], [6.101614, 49.974528], [6.101843, 49.974688], [6.101931, 49.974741], [6.101965, 49.974768], [6.102003, 49.974808], [6.10203, 49.974844], [6.102114, 49.974993], [6.102137, 49.975035], [6.102182, 49.975138], [6.102247, 49.975264], [6.102255, 49.975288], [6.102255, 49.975305], [6.102259, 49.975325], [6.102278, 49.975348], [6.102304, 49.975382], [6.102323, 49.975416], [6.102331, 49.975443], [6.102331, 49.975478], [6.102323, 49.975508], [6.102327, 49.975538], [6.102339, 49.975561], [6.102362, 49.975572], [6.102381, 49.975584], [6.102396, 49.975603], [6.102396, 49.975622], [6.102392, 49.975641], [6.102377, 49.97566], [6.102362, 49.975678], [6.102354, 49.975698], [6.102354, 49.975718], [6.102366, 49.975748], [6.102381, 49.975771], [6.102381, 49.975801], [6.102373, 49.975818], [6.102366, 49.975838], [6.102362, 49.975868], [6.102381, 49.975893], [6.102404, 49.975908], [6.102426, 49.975916], [6.102449, 49.975916], [6.102461, 49.975918], [6.102468, 49.975931], [6.102461, 49.975943], [6.10243, 49.975988], [6.102426, 49.976015], [6.102434, 49.976034], [6.102465, 49.976053], [6.102491, 49.976065], [6.102511, 49.976076], [6.102522, 49.976088], [6.102518, 49.976098], [6.102484, 49.976126], [6.102426, 49.976178], [6.102423, 49.976202], [6.102426, 49.976218], [6.102438, 49.97624], [6.10243, 49.976263], [6.102415, 49.976286], [6.102366, 49.976324], [6.102354, 49.976338], [6.10235, 49.976362], [6.102362, 49.976393], [6.102385, 49.976428], [6.102385, 49.976448], [6.102377, 49.976478], [6.102362, 49.976492], [6.102339, 49.976522], [6.102331, 49.976548], [6.10232, 49.976576], [6.102316, 49.976595], [6.102304, 49.976618], [6.102278, 49.976728], [6.102263, 49.976831], [6.102259, 49.976942], [6.102266, 49.977102], [6.102282, 49.977232], [6.102323, 49.977378], [6.102381, 49.977514], [6.102434, 49.977628], [6.102476, 49.977693], [6.102507, 49.977718], [6.102545, 49.977728], [6.102602, 49.977738], [6.102663, 49.977755], [6.102686, 49.977762], [6.102728, 49.977778], [6.102762, 49.977804], [6.10277, 49.977828], [6.102766, 49.977846], [6.102751, 49.977865], [6.102774, 49.977888], [6.1028, 49.977903], [6.102808, 49.977918], [6.102797, 49.97793], [6.10277, 49.977934], [6.102743, 49.977945], [6.10277, 49.977964], [6.102858, 49.978008], [6.102915, 49.978048], [6.102938, 49.978068], [6.102968, 49.978078], [6.10298, 49.978094], [6.102983, 49.978108], [6.102964, 49.978125], [6.102938, 49.978132], [6.102888, 49.978121], [6.102865, 49.978125], [6.10285, 49.978138], [6.10285, 49.978158], [6.102865, 49.978174], [6.102888, 49.978201], [6.102884, 49.978248], [6.102903, 49.978285], [6.102926, 49.978308], [6.102957, 49.978328], [6.10298, 49.978348], [6.102964, 49.978372], [6.102942, 49.978384], [6.102911, 49.978403], [6.102888, 49.978422], [6.102903, 49.978438], [6.102949, 49.97846], [6.102972, 49.978488], [6.102976, 49.978498], [6.102968, 49.97854], [6.10298, 49.978552], [6.10301, 49.978575], [6.10301, 49.978594], [6.102999, 49.978618], [6.102991, 49.978643], [6.103018, 49.978662], [6.103064, 49.978688], [6.103048, 49.978701], [6.102991, 49.978738], [6.102987, 49.978758], [6.102999, 49.978768], [6.103029, 49.978784], [6.103029, 49.978798], [6.103006, 49.978808], [6.102964, 49.978811], [6.102922, 49.978808], [6.102873, 49.978808], [6.102846, 49.978804], [6.102831, 49.978811], [6.102804, 49.978842], [6.102789, 49.978861], [6.102766, 49.978861], [6.102709, 49.978853], [6.102652, 49.978868], [6.102549, 49.978898], [6.102484, 49.978922], [6.10243, 49.978945], [6.102373, 49.978952], [6.102312, 49.978948], [6.102274, 49.978952], [6.102251, 49.978958], [6.102224, 49.978975], [6.102194, 49.97899], [6.102156, 49.97899], [6.102121, 49.978978], [6.102087, 49.978978], [6.102045, 49.97899], [6.102007, 49.979002], [6.101965, 49.979008], [6.101923, 49.979002], [6.101873, 49.978988], [6.101831, 49.978983], [6.10177, 49.978998], [6.101728, 49.979006], [6.10169, 49.978994], [6.101671, 49.97899], [6.101633, 49.979002], [6.101606, 49.979006], [6.101515, 49.978978], [6.101431, 49.978968], [6.101374, 49.978975], [6.101317, 49.97899], [6.101259, 49.979021], [6.101214, 49.979025], [6.101069, 49.979025], [6.101038, 49.979028], [6.101, 49.979048], [6.100977, 49.979055], [6.100954, 49.979051], [6.100939, 49.979038], [6.100916, 49.979028], [6.100885, 49.979038], [6.100851, 49.979058], [6.100801, 49.979093], [6.100771, 49.979101], [6.100733, 49.979101], [6.100702, 49.979088], [6.100672, 49.979068], [6.100653, 49.979058], [6.100626, 49.979063], [6.100595, 49.979071], [6.100527, 49.979093], [6.100477, 49.979101], [6.100431, 49.979105], [6.100374, 49.979108], [6.10029, 49.979101], [6.100252, 49.979105], [6.10021, 49.979108], [6.100153, 49.979118], [6.1001, 49.979113], [6.100042, 49.979118], [6.09997, 49.979135], [6.099897, 49.979138], [6.099844, 49.979132], [6.099772, 49.979108], [6.099726, 49.979101], [6.099642, 49.979113], [6.099596, 49.979118], [6.099565, 49.979132], [6.099539, 49.979148], [6.099489, 49.979151], [6.099428, 49.979148], [6.099382, 49.979151], [6.099306, 49.979185], [6.09926, 49.979193], [6.099241, 49.979188], [6.099169, 49.979185], [6.099112, 49.979193], [6.099047, 49.979204], [6.099005, 49.979204], [6.098894, 49.979185], [6.098848, 49.9792], [6.09881, 49.979218], [6.098776, 49.979246], [6.098749, 49.979258], [6.098703, 49.979261], [6.098665, 49.979268], [6.098638, 49.979284], [6.098623, 49.979315], [6.0986, 49.979328], [6.098558, 49.979322], [6.098494, 49.979322], [6.098463, 49.97933], [6.098398, 49.979345], [6.098326, 49.979376], [6.098223, 49.979376], [6.098192, 49.979388], [6.098158, 49.979391], [6.098104, 49.979395], [6.098074, 49.979408], [6.098021, 49.979448], [6.097948, 49.979478], [6.097898, 49.979502], [6.097849, 49.979505], [6.097761, 49.979505], [6.097719, 49.979518], [6.097708, 49.979551], [6.097689, 49.979574], [6.097654, 49.979586], [6.097609, 49.979598], [6.097551, 49.979648], [6.097486, 49.979678], [6.097418, 49.979731], [6.097368, 49.979758], [6.097284, 49.979841], [6.09725, 49.979864], [6.097185, 49.979895], [6.097139, 49.979906], [6.097048, 49.979994], [6.096972, 49.980048], [6.097006, 49.980081], [6.097059, 49.980128], [6.096872, 49.980291], [6.096647, 49.980471], [6.096556, 49.980535], [6.096491, 49.980574], [6.096453, 49.980588], [6.096384, 49.980612], [6.096335, 49.980646], [6.096151, 49.980822], [6.096174, 49.980848], [6.096388, 49.9811], [6.096811, 49.981568], [6.096891, 49.981665], [6.096933, 49.981741], [6.096972, 49.981832], [6.09701, 49.982004], [6.097032, 49.982145], [6.097052, 49.982214], [6.09717, 49.982418], [6.097372, 49.982788], [6.097525, 49.983088], [6.097639, 49.983263], [6.097773, 49.983446], [6.097818, 49.983498], [6.097849, 49.983538], [6.097979, 49.983698], [6.098223, 49.984078], [6.098295, 49.984213], [6.098318, 49.98427], [6.098356, 49.984396], [6.098387, 49.984602], [6.098425, 49.984768], [6.098459, 49.984934], [6.098528, 49.985342], [6.098528, 49.985378], [6.098539, 49.985508], [6.098528, 49.985742], [6.098501, 49.985891], [6.098448, 49.986168], [6.098356, 49.986551], [6.098341, 49.986598], [6.098318, 49.986698], [6.098276, 49.986845], [6.098242, 49.986968], [6.098181, 49.987108], [6.098074, 49.987314], [6.097933, 49.987566], [6.098484, 49.987553], [6.09859, 49.98755], [6.098933, 49.987545], [6.099149, 49.987247], [6.099355, 49.986946], [6.099605, 49.986538], [6.099712, 49.98632], [6.099724, 49.986294], [6.099882, 49.985954], [6.099992, 49.985706], [6.100005, 49.985676], [6.100017, 49.985653], [6.100121, 49.985397], [6.100139, 49.985336], [6.100182, 49.985184], [6.10024, 49.984936], [6.100267, 49.98479], [6.100286, 49.984688], [6.100312, 49.984562], [6.100356, 49.984352], [6.100375, 49.984264], [6.100383, 49.984234], [6.100425, 49.98403], [6.100398, 49.98392], [6.100264, 49.98338], [6.100137, 49.98287], [6.100085, 49.982662], [6.100133, 49.982662], [6.100493, 49.98265], [6.100676, 49.98266], [6.100942, 49.98269], [6.101694, 49.982803], [6.102554, 49.982914], [6.10267, 49.98268], [6.102713, 49.9826], [6.102758, 49.98248], [6.102793, 49.9824], [6.103277, 49.98228], [6.103334, 49.98216], [6.103353, 49.982105], [6.1033, 49.98202], [6.1033, 49.98198], [6.103304, 49.981922], [6.103437, 49.98188], [6.103663, 49.981823], [6.103796, 49.981907], [6.10396, 49.981995], [6.10412, 49.98206], [6.104299, 49.982113], [6.104414, 49.982136], [6.104582, 49.982143], [6.105066, 49.982147], [6.105497, 49.98215], [6.105642, 49.98216], [6.105928, 49.982185], [6.106066, 49.98221], [6.106291, 49.982277], [6.106451, 49.982334], [6.106653, 49.98241], [6.106844, 49.982483], [6.107004, 49.98256], [6.107145, 49.98265], [6.107241, 49.98272], [6.107313, 49.98276], [6.107515, 49.9829], [6.107618, 49.982956], [6.10848, 49.983124], [6.108736, 49.98292], [6.108843, 49.982838], [6.108919, 49.98278], [6.109037, 49.982742], [6.109533, 49.982582], [6.10977, 49.982513], [6.110262, 49.982487], [6.110334, 49.982483], [6.110754, 49.98247], [6.111017, 49.982456], [6.111151, 49.982456], [6.11141, 49.98246], [6.111715, 49.98246], [6.11178, 49.98246], [6.112013, 49.982456], [6.1122, 49.98245], [6.112307, 49.982437], [6.112474, 49.98243], [6.112539, 49.982426], [6.112719, 49.982414], [6.112844, 49.982403], [6.112776, 49.982502], [6.113504, 49.982536], [6.114267, 49.982555], [6.114439, 49.982525], [6.114912, 49.98248], [6.115015, 49.982433], [6.11532, 49.982292], [6.115759, 49.982113], [6.1159, 49.98205], [6.116075, 49.98198], [6.116255, 49.981888], [6.116537, 49.981724], [6.116884, 49.981544], [6.116903, 49.98153], [6.117102, 49.98136], [6.117285, 49.981186], [6.117582, 49.98088], [6.117788, 49.98066], [6.117811, 49.980633], [6.117926, 49.980526], [6.117987, 49.98047], [6.118109, 49.98035], [6.118258, 49.98021], [6.11841, 49.98005], [6.118498, 49.979954], [6.118586, 49.97986], [6.118696, 49.979717], [6.118738, 49.97965], [6.118765, 49.979614], [6.118902, 49.9793], [6.118937, 49.979218], [6.118952, 49.979183], [6.118994, 49.979084], [6.11907, 49.978878], [6.119101, 49.978783], [6.119108, 49.978756], [6.119139, 49.978584], [6.119181, 49.978374], [6.119192, 49.978313], [6.119219, 49.978245], [6.119223, 49.978233], [6.119303, 49.978027], [6.119318, 49.977993], [6.119368, 49.97787], [6.119417, 49.977757], [6.119452, 49.977654], [6.119673, 49.976887], [6.119535, 49.97683], [6.119219, 49.9767], [6.118227, 49.976284], [6.118155, 49.97637], [6.11772, 49.976242], [6.117659, 49.976227], [6.117956, 49.975796], [6.118181, 49.97549], [6.118383, 49.975212], [6.118506, 49.97506], [6.118624, 49.974876], [6.118677, 49.974762], [6.1187, 49.97467], [6.118776, 49.974422], [6.118837, 49.974297], [6.118906, 49.9742], [6.119032, 49.974094], [6.119185, 49.973988], [6.119371, 49.97388], [6.119455, 49.973816], [6.119631, 49.973732], [6.119799, 49.973663], [6.119821, 49.97365], [6.119875, 49.973625], [6.119928, 49.973606], [6.119997, 49.973576], [6.120382, 49.973293], [6.120638, 49.973114], [6.120894, 49.97295], [6.121141, 49.972797], [6.12134, 49.972668], [6.121431, 49.972603], [6.121729, 49.972343], [6.122103, 49.97209], [6.122702, 49.971687], [6.122793, 49.971615], [6.12282, 49.971638], [6.122915, 49.97169], [6.122999, 49.97169], [6.123495, 49.971672], [6.123518, 49.971672], [6.123926, 49.971687], [6.124418, 49.97171], [6.125044, 49.971725], [6.125174, 49.97171], [6.125307, 49.971676], [6.125414, 49.97163], [6.125525, 49.97157], [6.125669, 49.9715], [6.125738, 49.97147], [6.125795, 49.971443], [6.125895, 49.97143], [6.126158, 49.971428], [6.126249, 49.971428], [6.127031, 49.971436], [6.1271, 49.971416], [6.127249, 49.971363], [6.127321, 49.971336], [6.127371, 49.971325], [6.127439, 49.971313], [6.127497, 49.971302], [6.127592, 49.97126], [6.12771, 49.971195], [6.12776, 49.971184], [6.127809, 49.971176], [6.127932, 49.971176], [6.128061, 49.971172], [6.128241, 49.971172], [6.128363, 49.971203], [6.12845, 49.971222], [6.128515, 49.97123], [6.128595, 49.971233], [6.12879, 49.971222], [6.128855, 49.971226], [6.129137, 49.97129], [6.129209, 49.97131], [6.129301, 49.971306], [6.129381, 49.971313], [6.129442, 49.971325], [6.129618, 49.971375], [6.12969, 49.971382], [6.129751, 49.971405], [6.1299, 49.971428], [6.12995, 49.971447], [6.130011, 49.971474], [6.130136, 49.971493], [6.130201, 49.97151], [6.130224, 49.97152], [6.130281, 49.97154], [6.130327, 49.971546], [6.130369, 49.971554], [6.130415, 49.97156], [6.130453, 49.97157], [6.130491, 49.97157], [6.130529, 49.971577], [6.130568, 49.971577], [6.130625, 49.971573], [6.130682, 49.971573], [6.130754, 49.97159], [6.130812, 49.971607], [6.130873, 49.971622], [6.130903, 49.97163], [6.130964, 49.971626], [6.130999, 49.971634], [6.131044, 49.971653], [6.131113, 49.971676], [6.131166, 49.971695], [6.131289, 49.97172], [6.131403, 49.971733], [6.131487, 49.97174], [6.131605, 49.97179], [6.131647, 49.971825], [6.131678, 49.971848], [6.131781, 49.97189], [6.131807, 49.971905], [6.131838, 49.971924], [6.131868, 49.971962], [6.131887, 49.971973], [6.13196, 49.971996], [6.131975, 49.972004], [6.131983, 49.97203], [6.131983, 49.972057], [6.131998, 49.972088], [6.132032, 49.97212], [6.132112, 49.97219], [6.132151, 49.97223], [6.132185, 49.972267], [6.132204, 49.9723], [6.132196, 49.97244], [6.132242, 49.97264], [6.132246, 49.972675], [6.132235, 49.972706], [6.132212, 49.972763], [6.132212, 49.972797], [6.132242, 49.97285], [6.13233, 49.972965], [6.132422, 49.973076], [6.132464, 49.973103], [6.132547, 49.97313], [6.132627, 49.973152], [6.132681, 49.97318], [6.132811, 49.97322], [6.132921, 49.973263], [6.133036, 49.973297], [6.133112, 49.973312], [6.133173, 49.973316], [6.133207, 49.973312], [6.133257, 49.9733], [6.133299, 49.973305], [6.133368, 49.97332], [6.133532, 49.97337], [6.133703, 49.973408], [6.133802, 49.973427], [6.133898, 49.97347], [6.133997, 49.97352], [6.134088, 49.97355], [6.134146, 49.973564], [6.134188, 49.973564], [6.134214, 49.973557], [6.134272, 49.973557], [6.134375, 49.973583], [6.134504, 49.973614], [6.134741, 49.973682], [6.134909, 49.973736], [6.135183, 49.97381], [6.135263, 49.973835], [6.135382, 49.973892], [6.13545, 49.97392], [6.135569, 49.973957], [6.135611, 49.973976], [6.135736, 49.97405], [6.135813, 49.974102], [6.135843, 49.974125], [6.13587, 49.974133], [6.136107, 49.974133], [6.13616, 49.974136], [6.136274, 49.97416], [6.136335, 49.974167], [6.136374, 49.974167], [6.136393, 49.97417], [6.136427, 49.97418], [6.136454, 49.974174], [6.136476, 49.974167], [6.136507, 49.97414], [6.136545, 49.974125], [6.136625, 49.974117], [6.136698, 49.97412], [6.136786, 49.97414], [6.136869, 49.97413], [6.136957, 49.974113], [6.136999, 49.974117], [6.137056, 49.97413], [6.137075, 49.974125], [6.137098, 49.97412], [6.137159, 49.974094], [6.137209, 49.97407], [6.137266, 49.974068], [6.137331, 49.97407], [6.1374, 49.974064], [6.137651, 49.974022], [6.137762, 49.974022], [6.137934, 49.973988], [6.13806, 49.973976], [6.138277, 49.973957], [6.138567, 49.973923], [6.138865, 49.973877], [6.139425, 49.9738], [6.139498, 49.973797], [6.139589, 49.97381], [6.139662, 49.973816], [6.139841, 49.97382], [6.139963, 49.973843], [6.140001, 49.973843], [6.140039, 49.973835], [6.140085, 49.973827], [6.140123, 49.973824], [6.140161, 49.973827], [6.140207, 49.973843], [6.140284, 49.97386], [6.140352, 49.973877], [6.14044, 49.973892], [6.140528, 49.973915], [6.140669, 49.973953], [6.14073, 49.97396], [6.140848, 49.973953], [6.140959, 49.973957], [6.141031, 49.973965], [6.141115, 49.973988], [6.141329, 49.97408], [6.14142, 49.974117], [6.141649, 49.974194], [6.141832, 49.974247], [6.14192, 49.974277], [6.14197, 49.974316], [6.142046, 49.974346], [6.142324, 49.974457], [6.142721, 49.974606], [6.142828, 49.97464], [6.142981, 49.97468], [6.143107, 49.97473], [6.14324, 49.974777], [6.143652, 49.974895], [6.143801, 49.974964], [6.143869, 49.975002], [6.14393, 49.975018], [6.144056, 49.975037], [6.144148, 49.975067], [6.144381, 49.97518], [6.144457, 49.975224], [6.144579, 49.9753], [6.144636, 49.975346], [6.144716, 49.97543], [6.144812, 49.975513], [6.144926, 49.975624], [6.145048, 49.975727], [6.145216, 49.975853], [6.145273, 49.975914], [6.145311, 49.97598], [6.14538, 49.97601], [6.145456, 49.976036], [6.145605, 49.976128], [6.145834, 49.976273], [6.145956, 49.97634], [6.145998, 49.97636], [6.146044, 49.976376], [6.146242, 49.976425], [6.146376, 49.976463], [6.146467, 49.976505], [6.146547, 49.976562], [6.146616, 49.976612], [6.146662, 49.97663], [6.146952, 49.976723], [6.147257, 49.976818], [6.147455, 49.976925], [6.147661, 49.977013], [6.147692, 49.977047], [6.147837, 49.977104], [6.147936, 49.97714], [6.147989, 49.97715], [6.1481, 49.97715], [6.148211, 49.97717], [6.148314, 49.977215], [6.148409, 49.97726], [6.148443, 49.977272], [6.148558, 49.977283], [6.148668, 49.977306], [6.148783, 49.977345], [6.149008, 49.977444], [6.149145, 49.977505], [6.149366, 49.977608], [6.1495, 49.977657], [6.149759, 49.97775], [6.149912, 49.977795], [6.150068, 49.977837], [6.150137, 49.977863], [6.15019, 49.977882], [6.150251, 49.977894], [6.150404, 49.97792], [6.150652, 49.977978], [6.150801, 49.97799], [6.150927, 49.978012], [6.151079, 49.978046], [6.151171, 49.978077], [6.151243, 49.97811], [6.151297, 49.978146], [6.151365, 49.978176], [6.151415, 49.978195], [6.151461, 49.978207], [6.151571, 49.978207], [6.151682, 49.97821], [6.151709, 49.97821], [6.151774, 49.97822], [6.151941, 49.97827], [6.152079, 49.978317], [6.152262, 49.97837], [6.152422, 49.978424], [6.152727, 49.978542], [6.152887, 49.978603], [6.152983, 49.978638], [6.153326, 49.978737], [6.153631, 49.978832], [6.153925, 49.97893], [6.154532, 49.979126], [6.154612, 49.97914], [6.154718, 49.979153], [6.154802, 49.979168], [6.154882, 49.97919], [6.155035, 49.979248], [6.155134, 49.97928], [6.155298, 49.979313], [6.155378, 49.979324], [6.155458, 49.979332], [6.155565, 49.97933], [6.155664, 49.979313], [6.155748, 49.97929], [6.155855, 49.979248], [6.155939, 49.979202], [6.15605, 49.979126], [6.156301, 49.978962], [6.156488, 49.978844], [6.156656, 49.97878], [6.156935, 49.978683], [6.157076, 49.978653], [6.157213, 49.978626], [6.157602, 49.97856], [6.157778, 49.978542], [6.1579, 49.97854], [6.158297, 49.97853], [6.158659, 49.97854], [6.158865, 49.978535], [6.158953, 49.978523], [6.159048, 49.9785], [6.159113, 49.9785], [6.159155, 49.978516], [6.159208, 49.978527], [6.159292, 49.978523], [6.159376, 49.97852], [6.159418, 49.97853], [6.159452, 49.978554], [6.159487, 49.978573], [6.159529, 49.978577], [6.159609, 49.97856], [6.159693, 49.97855], [6.159796, 49.97854], [6.159849, 49.97851], [6.160067, 49.97844], [6.160337, 49.97833], [6.160585, 49.97823], [6.160734, 49.97816], [6.160883, 49.978104], [6.1611, 49.97804], [6.161432, 49.97789], [6.161581, 49.977833], [6.161703, 49.9778], [6.161806, 49.977776], [6.161886, 49.97774], [6.161943, 49.977707], [6.162001, 49.977673], [6.162077, 49.97765], [6.162188, 49.97761], [6.16226, 49.977585], [6.16231, 49.97757], [6.162367, 49.977562], [6.162489, 49.977543], [6.162642, 49.977493], [6.162714, 49.97748], [6.162909, 49.97746], [6.162985, 49.97745], [6.163065, 49.977432], [6.163313, 49.977337], [6.163389, 49.977314], [6.163439, 49.977303], [6.163507, 49.977295], [6.163687, 49.97728], [6.163851, 49.97727], [6.16416, 49.97722], [6.164373, 49.977184], [6.164442, 49.97718], [6.164511, 49.977173], [6.164625, 49.97715], [6.164732, 49.977127], [6.164892, 49.977104], [6.16498, 49.97709], [6.165049, 49.977077], [6.165083, 49.977062], [6.165129, 49.97704], [6.165182, 49.977016], [6.165403, 49.976955], [6.165709, 49.97691], [6.165831, 49.976902], [6.165979, 49.976902], [6.166021, 49.97689], [6.166071, 49.976875], [6.166136, 49.976837], [6.16617, 49.976826], [6.166208, 49.97681], [6.166262, 49.976795], [6.166296, 49.97679], [6.166307, 49.97679], [6.166342, 49.976812], [6.166368, 49.976801], [6.166094, 49.976404], [6.165972, 49.976221], [6.165842, 49.97603], [6.165808, 49.975923], [6.165758, 49.975847], [6.165678, 49.975779], [6.16564, 49.975729], [6.165605, 49.975656], [6.16551, 49.975496], [6.165468, 49.975405], [6.165419, 49.975321], [6.165392, 49.975267], [6.16535, 49.975168], [6.165304, 49.9751], [6.165239, 49.974993], [6.165209, 49.974932], [6.165178, 49.974844], [6.165125, 49.974672], [6.165102, 49.974672], [6.164999, 49.974401], [6.164919, 49.974192], [6.164827, 49.973886], [6.164801, 49.9737], [6.164743, 49.973413], [6.164705, 49.973173], [6.164675, 49.972864], [6.164644, 49.972586], [6.164644, 49.972357], [6.164652, 49.972074], [6.164663, 49.971918], [6.164667, 49.971811], [6.164705, 49.971575], [6.164717, 49.971495], [6.164743, 49.971254], [6.164763, 49.971254], [6.16477, 49.971197], [6.164797, 49.970766], [6.164812, 49.970552], [6.164827, 49.970381], [6.164839, 49.970274], [6.164862, 49.970198], [6.164888, 49.970098], [6.164946, 49.96998], [6.165014, 49.969847], [6.165068, 49.969763], [6.165182, 49.969629], [6.165506, 49.969301], [6.165605, 49.969233], [6.1658, 49.969072], [6.165869, 49.969027], [6.165964, 49.968973], [6.166067, 49.96892], [6.166262, 49.968813], [6.166376, 49.968748], [6.166582, 49.968611], [6.166773, 49.968424], [6.16688, 49.968306], [6.166994, 49.968145], [6.167063, 49.968023], [6.167147, 49.967871], [6.1672, 49.967733], [6.167246, 49.967596], [6.167303, 49.96739], [6.167364, 49.967203], [6.167456, 49.966986], [6.167578, 49.966707], [6.167749, 49.966276], [6.167875, 49.966024], [6.167974, 49.965868], [6.168112, 49.965673], [6.168352, 49.965349], [6.168627, 49.964971], [6.168863, 49.964533], [6.168993, 49.964205], [6.169176, 49.963854], [6.169325, 49.963663], [6.169386, 49.963606], [6.169638, 49.963408], [6.169691, 49.963362], [6.169718, 49.963331], [6.169741, 49.963301], [6.169992, 49.96298], [6.170157, 49.962809], [6.170221, 49.962751], [6.170397, 49.962614], [6.1705, 49.962561], [6.170637, 49.962507], [6.170858, 49.962439], [6.17103, 49.962389], [6.17124, 49.962332], [6.17156, 49.962248], [6.1719, 49.962168], [6.172174, 49.962095], [6.17227, 49.96208], [6.172472, 49.962053], [6.172598, 49.962042], [6.17322, 49.961992], [6.17375, 49.961954], [6.174017, 49.961935], [6.174082, 49.961931], [6.174528, 49.96184], [6.174887, 49.961767], [6.17499, 49.961748], [6.17507, 49.96174], [6.175154, 49.961744], [6.175276, 49.961748], [6.175348, 49.96174], [6.175428, 49.961714], [6.175581, 49.96166], [6.175657, 49.961626], [6.175718, 49.961561], [6.17576, 49.961489], [6.175779, 49.96142], [6.175802, 49.961294], [6.175806, 49.961183], [6.175821, 49.961092], [6.17584, 49.961042], [6.17589, 49.960958], [6.175959, 49.960848], [6.175993, 49.960775], [6.17605, 49.960684], [6.176119, 49.960543], [6.176149, 49.960466], [6.176184, 49.960295], [6.176176, 49.960161], [6.176176, 49.960093], [6.176191, 49.96002], [6.176233, 49.959845], [6.176264, 49.959787], [6.17631, 49.959722], [6.176363, 49.959623], [6.17639, 49.959516], [6.176443, 49.959379], [6.176512, 49.959215], [6.17663, 49.958967], [6.176634, 49.958883], [6.176638, 49.95878], [6.176653, 49.958674], [6.176668, 49.958612], [6.176691, 49.958345], [6.176695, 49.958261], [6.17671, 49.958181], [6.176794, 49.957823], [6.176813, 49.957685], [6.176851, 49.957464], [6.17687, 49.9573], [6.176886, 49.957037], [6.176897, 49.956728], [6.176897, 49.956606], [6.176901, 49.956587], [6.176901, 49.956526], [6.176893, 49.956446], [6.176889, 49.956389], [6.176897, 49.95635], [6.176928, 49.956255], [6.176893, 49.956221], [6.176951, 49.955957], [6.176981, 49.955839], [6.177046, 49.95566], [6.177172, 49.955282], [6.177179, 49.955183], [6.177198, 49.955069], [6.177214, 49.95487], [6.177237, 49.954645], [6.177259, 49.954527], [6.17734, 49.954203], [6.177374, 49.954069], [6.177458, 49.953882], [6.177542, 49.953649], [6.177614, 49.953489], [6.177774, 49.953379], [6.177805, 49.95336], [6.177919, 49.953283], [6.17808, 49.95318], [6.178118, 49.953157], [6.178366, 49.953016], [6.178389, 49.953005], [6.178515, 49.952944], [6.178595, 49.952906], [6.178633, 49.952887], [6.17869, 49.95286], [6.178713, 49.952848], [6.178755, 49.952818], [6.178831, 49.952738], [6.17885, 49.952684], [6.178858, 49.95265], [6.17885, 49.952616], [6.178839, 49.952578], [6.17882, 49.952536], [6.178812, 49.952517], [6.179201, 49.952345], [6.179663, 49.952143], [6.179689, 49.952154], [6.179808, 49.952208], [6.179926, 49.952246], [6.180029, 49.952253], [6.180109, 49.952253], [6.180231, 49.952238], [6.180292, 49.952227], [6.180353, 49.952219], [6.180391, 49.952215], [6.180498, 49.952208], [6.180563, 49.952204], [6.180929, 49.952303], [6.181364, 49.952421], [6.181498, 49.952448], [6.18181, 49.952536], [6.181929, 49.95257], [6.182154, 49.952646], [6.182619, 49.952814], [6.183485, 49.953116], [6.183966, 49.953295], [6.184385, 49.953421], [6.184824, 49.953569], [6.185026, 49.953642], [6.185156, 49.953703], [6.185305, 49.953802], [6.18545, 49.953924], [6.185545, 49.954023], [6.185629, 49.9541], [6.18569, 49.954145], [6.185801, 49.954195], [6.185862, 49.954218], [6.185915, 49.954241], [6.185984, 49.954275], [6.186029, 49.954306], [6.186087, 49.954386], [6.186193, 49.954557], [6.186255, 49.954668], [6.186369, 49.954905], [6.186411, 49.954966], [6.186514, 49.955103], [6.186598, 49.955202], [6.186739, 49.955347], [6.186819, 49.955416], [6.186872, 49.955454], [6.186964, 49.955511], [6.187025, 49.955545], [6.187143, 49.955603], [6.18754, 49.955778], [6.187979, 49.955973], [6.188169, 49.956064], [6.188242, 49.95611], [6.188288, 49.956148], [6.188391, 49.956232], [6.188528, 49.956327], [6.188623, 49.956385], [6.188684, 49.956427], [6.188738, 49.95648], [6.188803, 49.956556], [6.188837, 49.956614], [6.188852, 49.956655], [6.188864, 49.956716], [6.188871, 49.956774], [6.188868, 49.956835], [6.188852, 49.956881], [6.188829, 49.956922], [6.188765, 49.956987], [6.188703, 49.957041], [6.188669, 49.957068], [6.188639, 49.957083], [6.188589, 49.957098], [6.188517, 49.95711], [6.188463, 49.957113], [6.188383, 49.957102], [6.188231, 49.957075], [6.188177, 49.957068], [6.188143, 49.957071], [6.18812, 49.957079], [6.188097, 49.957094], [6.188074, 49.957106], [6.188047, 49.957113], [6.188021, 49.957117], [6.187967, 49.95711], [6.187941, 49.95711], [6.187925, 49.957113], [6.187895, 49.957125], [6.187857, 49.957144], [6.187807, 49.957159], [6.187662, 49.957186], [6.187437, 49.957228], [6.187166, 49.957277], [6.187059, 49.957296], [6.186949, 49.957323], [6.186808, 49.957365], [6.186525, 49.957445], [6.1864, 49.957472], [6.186228, 49.957506], [6.185892, 49.957571], [6.18543, 49.957663], [6.185072, 49.957739], [6.184915, 49.957769], [6.184687, 49.957811], [6.184507, 49.957869], [6.184271, 49.957949], [6.183909, 49.958086], [6.183706, 49.958174], [6.183477, 49.958292], [6.183367, 49.958357], [6.183302, 49.958406], [6.183245, 49.95846], [6.183187, 49.958525], [6.183149, 49.958578], [6.18313, 49.958609], [6.183126, 49.958651], [6.18313, 49.9587], [6.183153, 49.958788], [6.183176, 49.958868], [6.183222, 49.958979], [6.183294, 49.959101], [6.183363, 49.959211], [6.183374, 49.959238], [6.183401, 49.959341], [6.183416, 49.959387], [6.183447, 49.95944], [6.183466, 49.95949], [6.183474, 49.959532], [6.183474, 49.9597], [6.183474, 49.959749], [6.183485, 49.959784], [6.183493, 49.959818], [6.183489, 49.959852], [6.183477, 49.959917], [6.183477, 49.959982], [6.183485, 49.960043], [6.183535, 49.96026], [6.183558, 49.960409], [6.183599, 49.960596], [6.183634, 49.960783], [6.183649, 49.960878], [6.183649, 49.96092], [6.183638, 49.961016], [6.183634, 49.961195], [6.183626, 49.961229], [6.183577, 49.961306], [6.183512, 49.961409], [6.183451, 49.961515], [6.183424, 49.96155], [6.183386, 49.961584], [6.183355, 49.961603], [6.18331, 49.961641], [6.183237, 49.961714], [6.183172, 49.961775], [6.183069, 49.961859], [6.18302, 49.961901], [6.182959, 49.961962], [6.182768, 49.962172], [6.182692, 49.962248], [6.182619, 49.962316], [6.182569, 49.962359], [6.182482, 49.962423], [6.182424, 49.962473], [6.182348, 49.962568], [6.182272, 49.96266], [6.182177, 49.962763], [6.182035, 49.962908], [6.181974, 49.962977], [6.18181, 49.963163], [6.181776, 49.963198], [6.181723, 49.96324], [6.181673, 49.963278], [6.181639, 49.963304], [6.181459, 49.96351], [6.18128, 49.963724], [6.181223, 49.963789], [6.181204, 49.963823], [6.181196, 49.963854], [6.181196, 49.963907], [6.181189, 49.963922], [6.181166, 49.963957], [6.181116, 49.963999], [6.181093, 49.964033], [6.181082, 49.964056], [6.181078, 49.964102], [6.181082, 49.964186], [6.181089, 49.964251], [6.181127, 49.964392], [6.181158, 49.964491], [6.181196, 49.964575], [6.181253, 49.964655], [6.181337, 49.964739], [6.181433, 49.964842], [6.181574, 49.964991], [6.181704, 49.965136], [6.181841, 49.965307], [6.181936, 49.965445], [6.182043, 49.965612], [6.182184, 49.965803], [6.18228, 49.965914], [6.182451, 49.966066], [6.182718, 49.966314], [6.182833, 49.966421], [6.182943, 49.966513], [6.183065, 49.966612], [6.183268, 49.966795], [6.183405, 49.966917], [6.183527, 49.967009], [6.183744, 49.96718], [6.183931, 49.967333], [6.18405, 49.967428], [6.184172, 49.96752], [6.184282, 49.967592], [6.18437, 49.967653], [6.184427, 49.96768], [6.184496, 49.967707], [6.18461, 49.967741], [6.184973, 49.967821], [6.185198, 49.967875], [6.185274, 49.96789], [6.18561, 49.96792], [6.185732, 49.967928], [6.185919, 49.967936], [6.186113, 49.967939], [6.186502, 49.967962], [6.186647, 49.96797], [6.186682, 49.967959], [6.186705, 49.967955], [6.186762, 49.967974], [6.186796, 49.967981], [6.186991, 49.968012], [6.18722, 49.968058], [6.187395, 49.968088], [6.187513, 49.968119], [6.187864, 49.968233], [6.18812, 49.968321], [6.188307, 49.968382], [6.188452, 49.968424], [6.18862, 49.968493], [6.188711, 49.968523], [6.188871, 49.968569], [6.188974, 49.968599], [6.189161, 49.968664], [6.189314, 49.96871], [6.189451, 49.968748], [6.189585, 49.968779], [6.189711, 49.968801], [6.189817, 49.968817], [6.189932, 49.968824], [6.190065, 49.968832], [6.19018, 49.96884], [6.190374, 49.968859], [6.190428, 49.968859], [6.190454, 49.968851], [6.190489, 49.968832], [6.190538, 49.968786], [6.190573, 49.968767], [6.190638, 49.968729], [6.190691, 49.968683], [6.190737, 49.968649], [6.19076, 49.968618], [6.190786, 49.968569], [6.190805, 49.968538], [6.190981, 49.968393], [6.191053, 49.968344], [6.191111, 49.968313], [6.191149, 49.968302], [6.191206, 49.968286], [6.191236, 49.968264], [6.191259, 49.968241], [6.191294, 49.968191], [6.191313, 49.96818], [6.191339, 49.968176], [6.191404, 49.968161], [6.19145, 49.968145], [6.191603, 49.968061], [6.19174, 49.967978], [6.191858, 49.967905], [6.191999, 49.967798], [6.192095, 49.967726], [6.192251, 49.967596], [6.192358, 49.967501], [6.192434, 49.967417], [6.192495, 49.967348], [6.192537, 49.967318], [6.192579, 49.967302], [6.192602, 49.967291], [6.192614, 49.967276], [6.192625, 49.96723], [6.192648, 49.967176], [6.192663, 49.967146], [6.192679, 49.967138], [6.192743, 49.967115], [6.192762, 49.9671], [6.192789, 49.967073], [6.192812, 49.967031], [6.192839, 49.966978], [6.192846, 49.966929], [6.192854, 49.966879], [6.192854, 49.966799], [6.192854, 49.966761], [6.192854, 49.966726], [6.192846, 49.966681], [6.192823, 49.966562], [6.19282, 49.966524], [6.192812, 49.966444], [6.192804, 49.966406], [6.192797, 49.966387], [6.192743, 49.966345], [6.192709, 49.966318], [6.19269, 49.966295], [6.192675, 49.966253], [6.192648, 49.966162], [6.192614, 49.965986], [6.192591, 49.965899], [6.192564, 49.965853], [6.192549, 49.965818], [6.192545, 49.965792], [6.192545, 49.965765], [6.192556, 49.965704], [6.192564, 49.965632], [6.192556, 49.965563], [6.192545, 49.965498], [6.192511, 49.965414], [6.192488, 49.965364], [6.192423, 49.965284], [6.192369, 49.965212], [6.192308, 49.96512], [6.192266, 49.96504], [6.192232, 49.96496], [6.192221, 49.964922], [6.192225, 49.964899], [6.192236, 49.964872], [6.192244, 49.964857], [6.192244, 49.964842], [6.192236, 49.964815], [6.192205, 49.964788], [6.192171, 49.964739], [6.192164, 49.964724], [6.192164, 49.964704], [6.192167, 49.964685], [6.192175, 49.964651], [6.192175, 49.964628], [6.192167, 49.964533], [6.192152, 49.964403], [6.192129, 49.964235], [6.192125, 49.964182], [6.192156, 49.964033], [6.192175, 49.963919], [6.192225, 49.963739], [6.192335, 49.963427], [6.1924, 49.96327], [6.1924, 49.963247], [6.192392, 49.963228], [6.192385, 49.963209], [6.192366, 49.963179], [6.192362, 49.963156], [6.192369, 49.96314], [6.192495, 49.962977], [6.192553, 49.962904], [6.192579, 49.962904], [6.192614, 49.962896], [6.192636, 49.962881], [6.192675, 49.962847], [6.192781, 49.962709], [6.1929, 49.962561], [6.192995, 49.962416], [6.193106, 49.962252], [6.193201, 49.962126], [6.193251, 49.962084], [6.193281, 49.962057], [6.193346, 49.962023], [6.19343, 49.961977], [6.193491, 49.961931], [6.193537, 49.961878], [6.193632, 49.961706], [6.193724, 49.96155], [6.193785, 49.961424], [6.193899, 49.961119], [6.193933, 49.961016], [6.193953, 49.960932], [6.193972, 49.960867], [6.193987, 49.960779], [6.193987, 49.960741], [6.193979, 49.960684], [6.193968, 49.960661], [6.193953, 49.960642], [6.193918, 49.960627], [6.19388, 49.960608], [6.193861, 49.960588], [6.193857, 49.960569], [6.193876, 49.960314], [6.193903, 49.959909], [6.193926, 49.959887], [6.193956, 49.959856], [6.193979, 49.959822], [6.194021, 49.959719], [6.194071, 49.959593], [6.194105, 49.959478], [6.194113, 49.959395], [6.194109, 49.959173], [6.194105, 49.959063], [6.194097, 49.95899], [6.19404, 49.958788], [6.194006, 49.958666], [6.193979, 49.958548], [6.193968, 49.95854], [6.193907, 49.958555], [6.193754, 49.958277], [6.19367, 49.958151], [6.193571, 49.95801], [6.193506, 49.957926], [6.19343, 49.957838], [6.193342, 49.95767], [6.193243, 49.957518], [6.193129, 49.957331], [6.192999, 49.95711], [6.192972, 49.957071], [6.192926, 49.957045], [6.1929, 49.957026], [6.192884, 49.957003], [6.192816, 49.956854], [6.192804, 49.956812], [6.192804, 49.956739], [6.192793, 49.95664], [6.192793, 49.956575], [6.1928, 49.956522], [6.192827, 49.956392], [6.192858, 49.956301], [6.192915, 49.956114], [6.192934, 49.956037], [6.192946, 49.955969], [6.192957, 49.955847], [6.192961, 49.955801], [6.192999, 49.955721], [6.193064, 49.95561], [6.193155, 49.955484], [6.193289, 49.95532], [6.19338, 49.955221], [6.193602, 49.955011], [6.193647, 49.954973], [6.193682, 49.954966], [6.19372, 49.954958], [6.193747, 49.954946], [6.193819, 49.954889], [6.193872, 49.954855], [6.193895, 49.954847], [6.193933, 49.954832], [6.193991, 49.954794], [6.19404, 49.954775], [6.194151, 49.954729], [6.194231, 49.954683], [6.194269, 49.954657], [6.194296, 49.954622], [6.19433, 49.954557], [6.194353, 49.954527], [6.194387, 49.9545], [6.194464, 49.954454], [6.194639, 49.954367], [6.1947, 49.954332], [6.19475, 49.954294], [6.194784, 49.954252], [6.19483, 49.954184], [6.194883, 49.954107], [6.194952, 49.954023], [6.195021, 49.953955], [6.195116, 49.953871], [6.195188, 49.953806], [6.195238, 49.953756], [6.195303, 49.953669], [6.195417, 49.953501], [6.195509, 49.953379], [6.195578, 49.953302], [6.19565, 49.953192], [6.195707, 49.9531], [6.19573, 49.953028], [6.195765, 49.952906], [6.195787, 49.952822], [6.195803, 49.952787], [6.195833, 49.952745], [6.195974, 49.952601], [6.196138, 49.952429], [6.196264, 49.952295], [6.196398, 49.952078], [6.196524, 49.951879], [6.196749, 49.951555], [6.196833, 49.951437], [6.196936, 49.951288], [6.196993, 49.951185], [6.197039, 49.951101], [6.197054, 49.951078], [6.197123, 49.951029], [6.197226, 49.950964], [6.197287, 49.950933], [6.197355, 49.950903], [6.197432, 49.95088], [6.197538, 49.950861], [6.197672, 49.950838], [6.197729, 49.950823], [6.197763, 49.950804], [6.197786, 49.950781], [6.197817, 49.950731], [6.197966, 49.950392], [6.198069, 49.950178], [6.198103, 49.950098], [6.198118, 49.950045], [6.198122, 49.949984], [6.19813, 49.949877], [6.198137, 49.949812], [6.19816, 49.949694], [6.198175, 49.949598], [6.198175, 49.949556], [6.198164, 49.949518], [6.198084, 49.949362], [6.197988, 49.94916], [6.197946, 49.94906], [6.19792, 49.949011], [6.197847, 49.9489], [6.19779, 49.948793], [6.197737, 49.948732], [6.197664, 49.948652], [6.197638, 49.948645], [6.197653, 49.94845], [6.197664, 49.948236], [6.19766, 49.948168], [6.198282, 49.948439], [6.198458, 49.94851], [6.198507, 49.9486], [6.198484, 49.948696], [6.198603, 49.948727], [6.198667, 49.94879], [6.198786, 49.948822], [6.198946, 49.949013], [6.199194, 49.94914], [6.199431, 49.94931], [6.199591, 49.949497], [6.199602, 49.94954], [6.199655, 49.94969], [6.199579, 49.950603], [6.19956, 49.950817], [6.199553, 49.950886], [6.199549, 49.950905], [6.199541, 49.95105], [6.199606, 49.951256], [6.199793, 49.95147], [6.200243, 49.951912], [6.200476, 49.952194], [6.20051, 49.9523], [6.200487, 49.952404], [6.200628, 49.952717], [6.200785, 49.95293], [6.2012, 49.953213], [6.201624, 49.95344], [6.201742, 49.953476], [6.201941, 49.953617], [6.201982, 49.95364], [6.202192, 49.95374], [6.202383, 49.95383], [6.202593, 49.95393], [6.203146, 49.954243], [6.203398, 49.954487], [6.204168, 49.954845], [6.204294, 49.954906], [6.204493, 49.955006], [6.204603, 49.955048], [6.204874, 49.955105], [6.205198, 49.95516], [6.205431, 49.955185], [6.205603, 49.955196], [6.205973, 49.955177], [6.206232, 49.955128], [6.206583, 49.95506], [6.206938, 49.95496], [6.20735, 49.954826], [6.207712, 49.954727], [6.208212, 49.95464], [6.208494, 49.95461], [6.208502, 49.954395], [6.208513, 49.953823], [6.208635, 49.95353], [6.208746, 49.95325], [6.208841, 49.95301], [6.209242, 49.952637], [6.209776, 49.95214], [6.209909, 49.952], [6.210306, 49.951553], [6.210848, 49.950974], [6.211115, 49.950684], [6.211741, 49.95023], [6.21306, 49.950214], [6.213152, 49.950214], [6.213213, 49.950214], [6.213839, 49.950207], [6.214487, 49.9502], [6.215159, 49.950195], [6.215795, 49.950188], [6.217096, 49.950172], [6.217955, 49.950165], [6.218306, 49.95016], [6.218626, 49.950157], [6.219171, 49.95015], [6.219507, 49.950146], [6.219641, 49.950146], [6.220072, 49.95014], [6.220457, 49.950138], [6.220552, 49.950138], [6.221407, 49.95013], [6.221979, 49.950123], [6.222719, 49.950108], [6.223307, 49.9501], [6.223913, 49.950085], [6.223646, 49.9493], [6.223631, 49.949245], [6.223551, 49.949013], [6.222994, 49.948673], [6.220171, 49.94717], [6.219358, 49.946587], [6.218859, 49.94614], [6.218626, 49.94599], [6.218508, 49.945496], [6.217642, 49.945408], [6.217428, 49.94536], [6.216894, 49.94539], [6.216684, 49.945168], [6.216543, 49.944508], [6.218233, 49.94382], [6.219723, 49.94341], [6.220003, 49.943333], [6.219988, 49.94325], [6.21985, 49.942932], [6.219801, 49.94282], [6.220781, 49.94243], [6.220938, 49.942253], [6.221151, 49.94166], [6.221334, 49.941547], [6.221437, 49.94155], [6.22151, 49.941555], [6.221979, 49.941406], [6.222876, 49.941006], [6.222856, 49.94092], [6.223146, 49.940712], [6.223139, 49.94043], [6.223883, 49.940044], [6.224215, 49.939774], [6.224565, 49.93937], [6.224558, 49.93911], [6.224554, 49.93907], [6.224409, 49.938774], [6.224619, 49.938652], [6.224863, 49.9387], [6.225035, 49.93873], [6.225306, 49.93876], [6.225553, 49.938534], [6.225851, 49.93815], [6.226431, 49.93747], [6.226748, 49.937225], [6.226782, 49.93719], [6.227011, 49.936928], [6.227076, 49.936867], [6.227102, 49.93684], [6.227331, 49.936623], [6.226374, 49.936016], [6.225241, 49.93546], [6.224749, 49.935135], [6.224173, 49.934692], [6.223688, 49.9343], [6.223604, 49.9343], [6.223524, 49.934002], [6.223535, 49.933987], [6.223589, 49.933914], [6.223787, 49.933628], [6.224825, 49.93349], [6.225225, 49.93336], [6.225168, 49.933144], [6.224909, 49.932735], [6.224455, 49.932804], [6.224413, 49.932636], [6.224268, 49.932407], [6.224226, 49.932335], [6.224028, 49.93207], [6.224058, 49.931946], [6.224619, 49.931965], [6.224703, 49.931583], [6.224859, 49.93157], [6.224913, 49.931416], [6.224932, 49.931362], [6.225027, 49.931366], [6.225183, 49.930912], [6.225428, 49.930614], [6.225622, 49.93037], [6.225847, 49.930122], [6.225958, 49.929635], [6.226183, 49.929371], [6.226187, 49.929314], [6.226084, 49.928932], [6.225828, 49.92867], [6.225733, 49.92859], [6.22563, 49.928497], [6.225275, 49.92821], [6.225157, 49.928135], [6.224955, 49.928], [6.224905, 49.927967], [6.224581, 49.927757], [6.22447, 49.92765], [6.224449, 49.927651], [6.224276, 49.92766], [6.223955, 49.927751], [6.223673, 49.927828], [6.223558, 49.927683], [6.223478, 49.927568], [6.223093, 49.927286], [6.222902, 49.927156], [6.222673, 49.927031], [6.222441, 49.92692], [6.222162, 49.926817], [6.222029, 49.926752], [6.221857, 49.926676], [6.221544, 49.926565], [6.221292, 49.926474], [6.221201, 49.926454], [6.221128, 49.926435], [6.220983, 49.926409], [6.220777, 49.926352], [6.22051, 49.926245], [6.220305, 49.926157], [6.220064, 49.926058], [6.219854, 49.925985], [6.219664, 49.925878], [6.21953, 49.92581], [6.219301, 49.925695], [6.219149, 49.925615], [6.219, 49.925535], [6.218836, 49.925425], [6.218645, 49.925306], [6.218634, 49.925299], [6.218557, 49.925253], [6.218485, 49.925139], [6.218397, 49.925051], [6.218328, 49.924955], [6.218218, 49.924788], [6.218039, 49.924322], [6.218, 49.924269], [6.21792, 49.923971], [6.217897, 49.92388], [6.217867, 49.923738], [6.217874, 49.923681], [6.217882, 49.923609], [6.217894, 49.923521], [6.217928, 49.92338], [6.217943, 49.923304], [6.217985, 49.92317], [6.218031, 49.923075], [6.218122, 49.922949], [6.218172, 49.922884], [6.218222, 49.922834], [6.218283, 49.922785], [6.218416, 49.922705], [6.21855, 49.92264], [6.218656, 49.922598], [6.21879, 49.92256], [6.218962, 49.922522], [6.219206, 49.922457], [6.219744, 49.922331], [6.220301, 49.92219], [6.22061, 49.922106], [6.220724, 49.922083], [6.220953, 49.922022], [6.221083, 49.921987], [6.221147, 49.921976], [6.221365, 49.921938], [6.22172, 49.921881], [6.221975, 49.921824], [6.222238, 49.92177], [6.222597, 49.921694], [6.222803, 49.921663], [6.223089, 49.921621], [6.223185, 49.92161], [6.223471, 49.921587], [6.223646, 49.921541], [6.22386, 49.921484], [6.223974, 49.921461], [6.224138, 49.921427], [6.224531, 49.921362], [6.22463, 49.921358], [6.225042, 49.921289], [6.225134, 49.921274], [6.225344, 49.921244], [6.225409, 49.921232], [6.225614, 49.921202], [6.225756, 49.92119], [6.225981, 49.921179], [6.226267, 49.921171], [6.226641, 49.921164], [6.226797, 49.92116], [6.2269, 49.92116], [6.227099, 49.921148], [6.227488, 49.921122], [6.227686, 49.92111], [6.22793, 49.921114], [6.22819, 49.92111], [6.228437, 49.921114], [6.228582, 49.921103], [6.228697, 49.921091], [6.228907, 49.921068], [6.229097, 49.921022], [6.229235, 49.920969], [6.229296, 49.920938], [6.22941, 49.92087], [6.22965, 49.920675], [6.229666, 49.920603], [6.229776, 49.920519], [6.229899, 49.920423], [6.230028, 49.920286], [6.230249, 49.920046], [6.230284, 49.920012], [6.230299, 49.919996], [6.230432, 49.919851], [6.230894, 49.919344], [6.231035, 49.919264], [6.231218, 49.919001], [6.231333, 49.91884], [6.231573, 49.918493], [6.231642, 49.918386], [6.231806, 49.918062], [6.231859, 49.917959], [6.231901, 49.917879], [6.231924, 49.917833], [6.232012, 49.917665], [6.232042, 49.917612], [6.2321, 49.917471], [6.232202, 49.917231], [6.232412, 49.916948], [6.232496, 49.9168], [6.23263, 49.916426], [6.232702, 49.916304], [6.23276, 49.916204], [6.232912, 49.916002], [6.232901, 49.915789], [6.233049, 49.915411], [6.233076, 49.915358], [6.233126, 49.915293], [6.233156, 49.915251], [6.233335, 49.915037], [6.233477, 49.914873], [6.233526, 49.914812], [6.233633, 49.914675], [6.233675, 49.914579], [6.233725, 49.914511], [6.233736, 49.914492], [6.233786, 49.914411], [6.233847, 49.914305], [6.233881, 49.914225], [6.233923, 49.914087], [6.233946, 49.913977], [6.233973, 49.913847], [6.233999, 49.913691], [6.234011, 49.913546], [6.234011, 49.913393], [6.234007, 49.913294], [6.233992, 49.91316], [6.23395, 49.91297], [6.233896, 49.912775], [6.233919, 49.912775], [6.233843, 49.912649], [6.233786, 49.912592], [6.233675, 49.9125], [6.233618, 49.912458], [6.233431, 49.912359], [6.233026, 49.912146], [6.232653, 49.911966], [6.232454, 49.911848], [6.232237, 49.911715], [6.23205, 49.9116], [6.231825, 49.911428], [6.23173, 49.911352], [6.231615, 49.911238], [6.231523, 49.911184], [6.231291, 49.911154], [6.231039, 49.91115], [6.230932, 49.911142], [6.230749, 49.911123], [6.230425, 49.911108], [6.230375, 49.911108], [6.230204, 49.911123], [6.23004, 49.911177], [6.229864, 49.911245], [6.229563, 49.911306], [6.229563, 49.911322], [6.229357, 49.911364], [6.228952, 49.91144], [6.228319, 49.911554], [6.228121, 49.911577], [6.227804, 49.911608], [6.227678, 49.911615], [6.227579, 49.911619], [6.227507, 49.911615], [6.227426, 49.911592], [6.227358, 49.91157], [6.22727, 49.911539], [6.227198, 49.911493], [6.22714, 49.911448], [6.22703, 49.911341], [6.226988, 49.911264], [6.226965, 49.911196], [6.226911, 49.911024], [6.226896, 49.910799], [6.226919, 49.910627], [6.226946, 49.910513], [6.226961, 49.910482], [6.227003, 49.910418], [6.227072, 49.910322], [6.227121, 49.910315], [6.227144, 49.910299], [6.22711, 49.91028], [6.227156, 49.91025], [6.227514, 49.909998], [6.227617, 49.910006], [6.227694, 49.909971], [6.227789, 49.90991], [6.227858, 49.909903], [6.227957, 49.909838], [6.227968, 49.909792], [6.228136, 49.909677], [6.228182, 49.909605], [6.228319, 49.909517], [6.228396, 49.909475], [6.228506, 49.909414], [6.228586, 49.909361], [6.228701, 49.909281], [6.228857, 49.90917], [6.22883, 49.909162], [6.228933, 49.909094], [6.22901, 49.909044], [6.229128, 49.908987], [6.229372, 49.908884], [6.229528, 49.908785], [6.22957, 49.908754], [6.229628, 49.90872], [6.229837, 49.90859], [6.230013, 49.908461], [6.230394, 49.908167], [6.230681, 49.907953], [6.230848, 49.90782], [6.231196, 49.907515], [6.231325, 49.907389], [6.231417, 49.907301], [6.231485, 49.907221], [6.231604, 49.907053], [6.231722, 49.906889], [6.231829, 49.906755], [6.231966, 49.90658], [6.232061, 49.906462], [6.232115, 49.906393], [6.232138, 49.906343], [6.232142, 49.906317], [6.232134, 49.906195], [6.232126, 49.906015], [6.232126, 49.905958], [6.232038, 49.90592], [6.232084, 49.905783], [6.232073, 49.905695], [6.232058, 49.905649], [6.231978, 49.90555], [6.232004, 49.905493], [6.232019, 49.905371], [6.232027, 49.90534], [6.232058, 49.905325], [6.232065, 49.905218], [6.232004, 49.905218], [6.232012, 49.905127], [6.232054, 49.905065], [6.232073, 49.904814], [6.2321, 49.904703], [6.232126, 49.904566], [6.23213, 49.904554], [6.232161, 49.904455], [6.23221, 49.904345], [6.232256, 49.904253], [6.232206, 49.904196], [6.232294, 49.904028], [6.232355, 49.903849], [6.232374, 49.903784], [6.232519, 49.903513], [6.232607, 49.903341], [6.23263, 49.903292], [6.232748, 49.903101], [6.23282, 49.902994], [6.23282, 49.902784], [6.232836, 49.902761], [6.232824, 49.90272], [6.232824, 49.902689], [6.232843, 49.902662], [6.232973, 49.902468], [6.232935, 49.902346], [6.232923, 49.902288], [6.23292, 49.902246], [6.232927, 49.902197], [6.232943, 49.902163], [6.232992, 49.902075], [6.233107, 49.901995], [6.233107, 49.901903], [6.233114, 49.901716], [6.233122, 49.901625], [6.233084, 49.901567], [6.233095, 49.901438], [6.233137, 49.901049], [6.233156, 49.900885], [6.233225, 49.900705], [6.233335, 49.900412], [6.233412, 49.900286], [6.233477, 49.90019], [6.233526, 49.900122], [6.233568, 49.900087], [6.233725, 49.899984], [6.23385, 49.899908], [6.233931, 49.899893], [6.234221, 49.899713], [6.234514, 49.899553], [6.235201, 49.89921], [6.23522, 49.899198], [6.235365, 49.899126], [6.234926, 49.898926], [6.234861, 49.898884], [6.234827, 49.898865], [6.234682, 49.898647], [6.234663, 49.898613], [6.234617, 49.898537], [6.234495, 49.89833], [6.234476, 49.8983], [6.234026, 49.89816], [6.233034, 49.897846], [6.232832, 49.897785], [6.232576, 49.897705], [6.232489, 49.89768], [6.232435, 49.897663], [6.232401, 49.89763], [6.232222, 49.89745], [6.232115, 49.897335], [6.23171, 49.896866], [6.231546, 49.896576], [6.231276, 49.896088], [6.231165, 49.895885], [6.230772, 49.89551], [6.230631, 49.895344], [6.230196, 49.894825], [6.230166, 49.894787], [6.229959, 49.894535], [6.229917, 49.89448], [6.229872, 49.894424], [6.229845, 49.894394], [6.229822, 49.894363], [6.22949, 49.89396], [6.229456, 49.89392], [6.229357, 49.893764], [6.229086, 49.893368], [6.228903, 49.893093], [6.228746, 49.89286], [6.228666, 49.89274], [6.22862, 49.892673], [6.227716, 49.892788], [6.22724, 49.8927], [6.226996, 49.89261], [6.225771, 49.892647], [6.22431, 49.89288], [6.224028, 49.892895], [6.22352, 49.892925], [6.221777, 49.892925], [6.220907, 49.893013], [6.220182, 49.893085], [6.219759, 49.893135], [6.219458, 49.893173], [6.218615, 49.893276], [6.218439, 49.893265], [6.218061, 49.893234], [6.21765, 49.893135], [6.217253, 49.893055], [6.216818, 49.892803], [6.21578, 49.89221], [6.215147, 49.89184], [6.21456, 49.891502], [6.214483, 49.891457], [6.214232, 49.891296], [6.213881, 49.89108], [6.213282, 49.890766], [6.212511, 49.89037], [6.212301, 49.89026], [6.211943, 49.89007], [6.211847, 49.890026], [6.211546, 49.88987], [6.211161, 49.889675], [6.210531, 49.8893], [6.210245, 49.889133], [6.209894, 49.888893], [6.2096, 49.888668], [6.209406, 49.88852], [6.209314, 49.888454], [6.208757, 49.888046], [6.208651, 49.88798], [6.208399, 49.88783], [6.208368, 49.887806], [6.208345, 49.887817], [6.207964, 49.887978], [6.207823, 49.888027], [6.207376, 49.888187], [6.206675, 49.888348], [6.206507, 49.888382], [6.206415, 49.8884], [6.206373, 49.88841], [6.205339, 49.888577], [6.204947, 49.888283], [6.204603, 49.888012], [6.204458, 49.887913], [6.204428, 49.887894], [6.204104, 49.888023], [6.20373, 49.888065], [6.203302, 49.888115], [6.202906, 49.88819], [6.202719, 49.88823], [6.202425, 49.88828], [6.202082, 49.887993], [6.201899, 49.88782], [6.201734, 49.887672], [6.201456, 49.887356], [6.201441, 49.887333], [6.201055, 49.886883], [6.200705, 49.88649], [6.200331, 49.88617], [6.20019, 49.886047], [6.200163, 49.886055], [6.199915, 49.886143], [6.198774, 49.884842], [6.198423, 49.88444], [6.198362, 49.884464], [6.19676, 49.88508], [6.196363, 49.88523], [6.19597, 49.88538], [6.195936, 49.885395], [6.195555, 49.885544], [6.195509, 49.885563], [6.195452, 49.885582], [6.195394, 49.885605], [6.194876, 49.885807], [6.19459, 49.88592], [6.194483, 49.88596], [6.194159, 49.886086], [6.193781, 49.88623], [6.194113, 49.88666], [6.19401, 49.886692], [6.19364, 49.886826], [6.192976, 49.887062], [6.19282, 49.886803], [6.192617, 49.88646], [6.192095, 49.885838], [6.191816, 49.88546], [6.191572, 49.88513], [6.19105, 49.88429], [6.191011, 49.884243], [6.190535, 49.88361], [6.190363, 49.88327], [6.19034, 49.883205], [6.190149, 49.882713], [6.190119, 49.882458], [6.190226, 49.881516], [6.190172, 49.88141], [6.189978, 49.8811], [6.189676, 49.88069], [6.189596, 49.880722], [6.189093, 49.880108], [6.189058, 49.880074], [6.188963, 49.87994], [6.188887, 49.87987], [6.188761, 49.879784], [6.188658, 49.87973], [6.188578, 49.8797], [6.188528, 49.879696], [6.188467, 49.879696], [6.188406, 49.879704], [6.188387, 49.879707], [6.188257, 49.87974], [6.188044, 49.879837], [6.187944, 49.879772], [6.188162, 49.879223], [6.188256, 49.879025], [6.188559, 49.87839], [6.189314, 49.876682], [6.189714, 49.875805], [6.189997, 49.87518], [6.190229, 49.87463], [6.190294, 49.874413], [6.190329, 49.87417], [6.190249, 49.874157], [6.190081, 49.874126], [6.190058, 49.87412], [6.190069, 49.874077], [6.190065, 49.874043], [6.190042, 49.873985], [6.189962, 49.873863], [6.189779, 49.87363], [6.189722, 49.873554], [6.189695, 49.873493], [6.18965, 49.873337], [6.189604, 49.873135], [6.189573, 49.873055], [6.189539, 49.87301], [6.189493, 49.872963], [6.189409, 49.872913], [6.189161, 49.87279], [6.188913, 49.872646], [6.18878, 49.87258], [6.188597, 49.8725], [6.188498, 49.87244], [6.188456, 49.87239], [6.188452, 49.87233], [6.188513, 49.87209], [6.188574, 49.871944], [6.188623, 49.871845], [6.1887, 49.87177], [6.18886, 49.87165], [6.188902, 49.87162], [6.189005, 49.871548], [6.189268, 49.87134], [6.189402, 49.87122], [6.189501, 49.87109], [6.189581, 49.870815], [6.18852, 49.870728], [6.188459, 49.87081], [6.188261, 49.870983], [6.188341, 49.871002], [6.18825, 49.87111], [6.188162, 49.87114], [6.18812, 49.87123], [6.187876, 49.871475], [6.187818, 49.871464], [6.187716, 49.871464], [6.187586, 49.871452], [6.187536, 49.871456], [6.187403, 49.87148], [6.187079, 49.871567], [6.186689, 49.871693], [6.186541, 49.871742], [6.186472, 49.87178], [6.186094, 49.872093], [6.185747, 49.8724], [6.185354, 49.87275], [6.185202, 49.87288], [6.185106, 49.87295], [6.185015, 49.873013], [6.184935, 49.87306], [6.184858, 49.873085], [6.184782, 49.873104], [6.184694, 49.87311], [6.184572, 49.87311], [6.184305, 49.87309], [6.183718, 49.873005], [6.183241, 49.87293], [6.182508, 49.87281], [6.182062, 49.872723], [6.181658, 49.872627], [6.181047, 49.872475], [6.180902, 49.87244], [6.180662, 49.872437], [6.180494, 49.87243], [6.180323, 49.8724], [6.180033, 49.87234], [6.17993, 49.872322], [6.179918, 49.87234], [6.179914, 49.872353], [6.180025, 49.87238], [6.180277, 49.872437], [6.180487, 49.872482], [6.180658, 49.872524], [6.180632, 49.872578], [6.18062, 49.872604], [6.180597, 49.872635], [6.180548, 49.87272], [6.180536, 49.872738], [6.180403, 49.872974], [6.180338, 49.873085], [6.180319, 49.87312], [6.180231, 49.87327], [6.180101, 49.873505], [6.180075, 49.87357], [6.180017, 49.8737], [6.179899, 49.873985], [6.179254, 49.873928], [6.178949, 49.8739], [6.178686, 49.87388], [6.178518, 49.873863], [6.178316, 49.873844], [6.177607, 49.873775], [6.177622, 49.87407], [6.177637, 49.874416], [6.177664, 49.87474], [6.177698, 49.87513], [6.176989, 49.875126], [6.176813, 49.875122], [6.176626, 49.875122], [6.176447, 49.875126], [6.17642, 49.875393], [6.176413, 49.87559], [6.176409, 49.87564], [6.176405, 49.875877], [6.176397, 49.87612], [6.176397, 49.876163], [6.176409, 49.87635], [6.176432, 49.87653], [6.176451, 49.87663], [6.1765, 49.87682], [6.176539, 49.876896], [6.176428, 49.876907], [6.176401, 49.876907], [6.176382, 49.87691], [6.176172, 49.876923], [6.175947, 49.876938], [6.175608, 49.876965], [6.175585, 49.876953], [6.17555, 49.876953], [6.17536, 49.876972], [6.175169, 49.87699], [6.174898, 49.87719], [6.174776, 49.87727], [6.174738, 49.877296], [6.174658, 49.877346], [6.17457, 49.877384], [6.174406, 49.87744], [6.174246, 49.87748], [6.174097, 49.87751], [6.173994, 49.87756], [6.173902, 49.87761], [6.173845, 49.877632], [6.173635, 49.8777], [6.173452, 49.87776], [6.173307, 49.87783], [6.173105, 49.877934], [6.172854, 49.877724], [6.172609, 49.877876], [6.172251, 49.878094], [6.171911, 49.878304], [6.171591, 49.878475], [6.171419, 49.878563], [6.171183, 49.878685], [6.171038, 49.878742], [6.1709, 49.878784], [6.17042, 49.878918], [6.17021, 49.878994], [6.17016, 49.87901], [6.169642, 49.87922], [6.169168, 49.879402], [6.168928, 49.879513], [6.168543, 49.879707], [6.168089, 49.87995], [6.167437, 49.880333], [6.16712, 49.880527], [6.166922, 49.88067], [6.166864, 49.880703], [6.166826, 49.880733], [6.166788, 49.88076], [6.166575, 49.880905], [6.166231, 49.881115], [6.165682, 49.881462], [6.166037, 49.881752], [6.16564, 49.882023], [6.165522, 49.882072], [6.165148, 49.8822], [6.164866, 49.882282], [6.164511, 49.882378], [6.164351, 49.88195], [6.164137, 49.88197], [6.164015, 49.881985], [6.163672, 49.882023], [6.163534, 49.882034], [6.1635, 49.882034], [6.163439, 49.882027], [6.16263, 49.88188], [6.161451, 49.881668], [6.160704, 49.88195], [6.160616, 49.88198], [6.160524, 49.882], [6.160315, 49.88203], [6.160166, 49.88205], [6.160021, 49.88206], [6.159647, 49.882076], [6.159433, 49.882084], [6.15933, 49.8821], [6.159002, 49.8822], [6.158255, 49.882412], [6.158655, 49.882915], [6.15735, 49.883404], [6.156656, 49.883675], [6.156061, 49.883915], [6.156027, 49.883938], [6.155912, 49.883926], [6.155798, 49.883907], [6.155684, 49.883877], [6.155626, 49.88383], [6.1556, 49.883793], [6.155424, 49.883907], [6.154799, 49.884377], [6.154425, 49.884693], [6.153799, 49.8853], [6.153543, 49.885513], [6.153398, 49.885654], [6.153067, 49.886], [6.153017, 49.88608], [6.152685, 49.886547], [6.152365, 49.886963], [6.152311, 49.887035], [6.151815, 49.887672], [6.151682, 49.88783], [6.151602, 49.887897], [6.151056, 49.888245], [6.15048, 49.8886], [6.150248, 49.888573], [6.149752, 49.888763], [6.149538, 49.888847], [6.149305, 49.888958], [6.148432, 49.889412], [6.148245, 49.889523], [6.148176, 49.88957], [6.148104, 49.889618], [6.14789, 49.88979], [6.147688, 49.889957], [6.147489, 49.890125], [6.147303, 49.890263], [6.147177, 49.89034], [6.146887, 49.89047], [6.14686, 49.890568], [6.146833, 49.890682], [6.14681, 49.890785], [6.146776, 49.890907], [6.146765, 49.89095], [6.146238, 49.89082], [6.145834, 49.89071], [6.145517, 49.890614], [6.144869, 49.89043], [6.144796, 49.890408], [6.144312, 49.890278], [6.143801, 49.89015], [6.143457, 49.89008], [6.142817, 49.88996], [6.142817, 49.890022], [6.142813, 49.89009], [6.142801, 49.89015], [6.142576, 49.89015], [6.142355, 49.890152], [6.142221, 49.89016], [6.142038, 49.890194], [6.14184, 49.89024], [6.141645, 49.890293], [6.141401, 49.890373], [6.141027, 49.89052], [6.140585, 49.89071], [6.140608, 49.89078], [6.140207, 49.890816], [6.139807, 49.89084], [6.138945, 49.890884], [6.138937, 49.891125], [6.138941, 49.891254], [6.138937, 49.891285], [6.138723, 49.891533], [6.13801, 49.891438], [6.137781, 49.891407], [6.137789, 49.89147], [6.137896, 49.891525], [6.137915, 49.89154], [6.137918, 49.89157], [6.137941, 49.891674], [6.137976, 49.89185], [6.137983, 49.891895], [6.138002, 49.89191], [6.138128, 49.891956], [6.138273, 49.891994], [6.138502, 49.89205], [6.138632, 49.89208], [6.138926, 49.89212], [6.139051, 49.892143], [6.139593, 49.892258], [6.139792, 49.89234], [6.139887, 49.89238], [6.140474, 49.89252], [6.140631, 49.892506], [6.140875, 49.892483], [6.14131, 49.892437], [6.141474, 49.89244], [6.14253, 49.892517], [6.142672, 49.89247], [6.142992, 49.892345], [6.14332, 49.89219], [6.14398, 49.89259], [6.144197, 49.89261], [6.144323, 49.89262], [6.144464, 49.89265], [6.144842, 49.89274], [6.144751, 49.892975], [6.146276, 49.893356], [6.146357, 49.893375], [6.146223, 49.893555], [6.146177, 49.893627], [6.146135, 49.8937], [6.146025, 49.89392], [6.145945, 49.89413], [6.145872, 49.8943], [6.145369, 49.895096], [6.145128, 49.895275], [6.145086, 49.895317], [6.144979, 49.89544], [6.144808, 49.895668], [6.144712, 49.89581], [6.144674, 49.89589], [6.144594, 49.896103], [6.144567, 49.896202], [6.144251, 49.89617], [6.144152, 49.89615], [6.144083, 49.89613], [6.144041, 49.896114], [6.143961, 49.896095], [6.143869, 49.896072], [6.143805, 49.896046], [6.143728, 49.896023], [6.143621, 49.896004], [6.14353, 49.89598], [6.143446, 49.895954], [6.143339, 49.895916], [6.143202, 49.895855], [6.143114, 49.895832], [6.143057, 49.89582], [6.142988, 49.895817], [6.142958, 49.89582], [6.142904, 49.895832], [6.142851, 49.89585], [6.142786, 49.89587], [6.142721, 49.89588], [6.142614, 49.89589], [6.142519, 49.895893], [6.142416, 49.8959], [6.142336, 49.895912], [6.14226, 49.895927], [6.142164, 49.895943], [6.142107, 49.895943], [6.142057, 49.89594], [6.142008, 49.89593], [6.141951, 49.89593], [6.141863, 49.89594], [6.141775, 49.895947], [6.141718, 49.895954], [6.141661, 49.895966], [6.141581, 49.895977], [6.141474, 49.89598], [6.141359, 49.89599], [6.141264, 49.896008], [6.141161, 49.89603], [6.141092, 49.896053], [6.141027, 49.89609], [6.140917, 49.896164], [6.140837, 49.89621], [6.140718, 49.896294], [6.140638, 49.896343], [6.14057, 49.89638], [6.14044, 49.896427], [6.140364, 49.89645], [6.140314, 49.896477], [6.140303, 49.89649], [6.140276, 49.89653], [6.140242, 49.89657], [6.140196, 49.896603], [6.140093, 49.896656], [6.140036, 49.896683], [6.13991, 49.896732], [6.139852, 49.89676], [6.139749, 49.896812], [6.139574, 49.896893], [6.139452, 49.89694], [6.139387, 49.89697], [6.139349, 49.896996], [6.139334, 49.897022], [6.139315, 49.897064], [6.139303, 49.897083], [6.139261, 49.897095], [6.139219, 49.897102], [6.139177, 49.89712], [6.139135, 49.89713], [6.139078, 49.897137], [6.139032, 49.897156], [6.138964, 49.897175], [6.138907, 49.897194], [6.138857, 49.897205], [6.138819, 49.8972], [6.138792, 49.897213], [6.138735, 49.89723], [6.138624, 49.897247], [6.138521, 49.897255], [6.138449, 49.897266], [6.138407, 49.897285], [6.138304, 49.897324], [6.138182, 49.897373], [6.138136, 49.897385], [6.138102, 49.897385], [6.13801, 49.897396], [6.137953, 49.89741], [6.137827, 49.89746], [6.137674, 49.8975], [6.137629, 49.89752], [6.137518, 49.89757], [6.137468, 49.89759], [6.137354, 49.8976], [6.13732, 49.897606], [6.137289, 49.89762], [6.13727, 49.897636], [6.137236, 49.89768], [6.13719, 49.8977], [6.13714, 49.89771], [6.137056, 49.89772], [6.13703, 49.89773], [6.136988, 49.897762], [6.136938, 49.897797], [6.136892, 49.897816], [6.136869, 49.89782], [6.13682, 49.897827], [6.136793, 49.897835], [6.13669, 49.8979], [6.136656, 49.897915], [6.136606, 49.897926], [6.136576, 49.897934], [6.136484, 49.898], [6.136389, 49.898037], [6.136347, 49.89806], [6.136316, 49.898083], [6.136301, 49.898098], [6.136274, 49.89811], [6.13624, 49.89813], [6.136209, 49.89815], [6.13595, 49.898273], [6.135908, 49.8983], [6.135828, 49.898396], [6.135782, 49.898422], [6.135729, 49.898434], [6.13571, 49.898445], [6.135694, 49.89846], [6.135687, 49.898514], [6.135675, 49.898525], [6.135641, 49.898552], [6.13558, 49.89861], [6.135538, 49.898636], [6.135477, 49.89867], [6.134981, 49.898438], [6.135004, 49.898327], [6.134851, 49.898163], [6.134729, 49.89801], [6.134649, 49.897877], [6.134607, 49.897793], [6.134569, 49.897755], [6.134527, 49.897724], [6.134199, 49.897533], [6.133905, 49.89737], [6.132811, 49.896828], [6.132731, 49.896774], [6.132605, 49.896675], [6.132406, 49.896523], [6.132177, 49.896336], [6.13212, 49.896297], [6.132048, 49.89625], [6.131987, 49.896206], [6.13164, 49.89597], [6.131411, 49.895622], [6.131254, 49.895344], [6.131197, 49.895233], [6.131098, 49.8949], [6.130892, 49.894184], [6.130545, 49.894394], [6.129732, 49.894382], [6.1294, 49.893997], [6.129137, 49.893707], [6.12879, 49.89377], [6.128656, 49.893795], [6.128485, 49.89383], [6.128324, 49.89387], [6.128263, 49.893818], [6.128222, 49.893772], [6.12818, 49.89371], [6.128138, 49.893684], [6.128046, 49.893642], [6.12797, 49.893597], [6.127859, 49.89351], [6.127817, 49.893486], [6.12768, 49.893433], [6.127554, 49.89339], [6.127539, 49.893387], [6.127523, 49.89339], [6.127482, 49.893387], [6.127344, 49.893353], [6.127283, 49.89334], [6.127256, 49.893333], [6.127218, 49.893333], [6.127134, 49.89333], [6.126997, 49.893322], [6.126856, 49.89331], [6.12668, 49.893288], [6.126329, 49.893215], [6.125979, 49.89315], [6.125971, 49.893173], [6.125895, 49.893337], [6.125845, 49.89345], [6.125765, 49.89367], [6.125723, 49.893803], [6.125669, 49.894005], [6.125616, 49.894268], [6.12557, 49.894535], [6.125551, 49.894684], [6.125555, 49.89472], [6.125566, 49.894753], [6.125589, 49.894783], [6.125876, 49.895023], [6.125704, 49.895145], [6.125635, 49.895187], [6.125509, 49.895245], [6.125639, 49.89537], [6.125734, 49.895477], [6.125803, 49.895573], [6.125959, 49.895786], [6.126116, 49.896008], [6.126261, 49.89628], [6.126413, 49.896572], [6.126551, 49.896873], [6.1266, 49.896988], [6.126734, 49.897343], [6.126783, 49.897453], [6.126856, 49.897587], [6.126928, 49.89771], [6.127001, 49.897804], [6.127085, 49.897884], [6.127256, 49.898026], [6.127482, 49.898197], [6.127317, 49.898308], [6.12715, 49.89842], [6.12797, 49.898975], [6.128355, 49.89924], [6.128706, 49.899494], [6.128878, 49.89961], [6.128954, 49.89966], [6.129023, 49.899704], [6.129465, 49.89997], [6.129652, 49.90008], [6.130148, 49.900406], [6.130545, 49.90058], [6.130617, 49.900616], [6.130476, 49.900753], [6.130526, 49.900803], [6.130674, 49.90096], [6.130964, 49.901344], [6.131399, 49.90196], [6.131529, 49.902187], [6.13172, 49.902195], [6.13172, 49.902233], [6.131716, 49.902264], [6.131617, 49.90226], [6.131411, 49.902554], [6.131399, 49.902596], [6.131384, 49.902645], [6.131189, 49.902687], [6.131014, 49.902687], [6.13061, 49.90262], [6.130346, 49.902584], [6.130014, 49.902584], [6.129606, 49.90261], [6.129213, 49.90266], [6.129068, 49.90263], [6.129015, 49.90262], [6.128839, 49.902634], [6.128675, 49.90265], [6.12837, 49.902683], [6.128126, 49.902706], [6.127996, 49.902714], [6.12789, 49.902714], [6.127707, 49.902706], [6.127245, 49.9027], [6.127111, 49.90269], [6.126966, 49.90268], [6.126497, 49.90264], [6.12594, 49.902603], [6.125769, 49.90258], [6.125021, 49.902534], [6.124765, 49.90252], [6.124464, 49.90254], [6.123667, 49.902603], [6.123259, 49.902668], [6.122488, 49.90283], [6.121767, 49.90302], [6.12108, 49.903275], [6.120417, 49.903557], [6.119886, 49.903847], [6.119509, 49.90408], [6.119005, 49.904457], [6.118597, 49.90475], [6.118116, 49.905067], [6.11801, 49.905136], [6.117098, 49.905663], [6.117338, 49.905857], [6.11735, 49.90587], [6.117456, 49.90597], [6.117621, 49.906147], [6.117666, 49.906208], [6.117731, 49.906315], [6.117788, 49.906425], [6.117849, 49.90667], [6.117853, 49.9067], [6.117983, 49.90671], [6.118322, 49.907036], [6.118471, 49.90717], [6.119234, 49.907845], [6.119131, 49.90799], [6.119089, 49.908077], [6.119062, 49.908157], [6.119001, 49.90842], [6.118952, 49.908577], [6.118925, 49.908646], [6.118891, 49.908703], [6.118811, 49.908802], [6.118734, 49.908867], [6.118612, 49.908955], [6.118429, 49.909058], [6.118368, 49.909077], [6.118036, 49.90909], [6.11783, 49.909092], [6.117643, 49.90909], [6.117418, 49.909077], [6.117247, 49.909058], [6.117022, 49.909027], [6.116606, 49.90896], [6.116144, 49.908897], [6.116003, 49.908867], [6.115595, 49.908745], [6.115, 49.90856], [6.11466, 49.908474], [6.114306, 49.908405], [6.114, 49.90836], [6.113745, 49.908333], [6.113401, 49.90831], [6.113092, 49.908302], [6.112501, 49.908302], [6.112486, 49.908215], [6.112486, 49.908115], [6.112364, 49.908016], [6.112204, 49.90815], [6.111948, 49.908333], [6.111761, 49.90845], [6.11146, 49.908615], [6.110834, 49.90895], [6.110899, 49.908955], [6.111067, 49.908962], [6.110819, 49.90917], [6.11072, 49.90925], [6.11067, 49.909294], [6.110426, 49.909485], [6.110228, 49.90964], [6.110033, 49.90977], [6.109915, 49.90984], [6.109781, 49.90989], [6.109575, 49.909966], [6.109423, 49.910057], [6.109236, 49.910194], [6.109053, 49.9103], [6.108866, 49.91038], [6.108629, 49.910465], [6.108599, 49.910477], [6.10861, 49.91052], [6.10866, 49.91057], [6.108728, 49.910603], [6.108828, 49.910645], [6.108961, 49.91068], [6.109117, 49.910694], [6.109137, 49.910675], [6.109217, 49.91057], [6.109243, 49.910538], [6.109285, 49.91049], [6.109362, 49.910408], [6.109426, 49.910343], [6.109495, 49.91029], [6.109541, 49.910267], [6.109671, 49.91023], [6.109816, 49.91018], [6.109903, 49.910137], [6.109987, 49.910088], [6.110033, 49.910057], [6.110098, 49.910015], [6.110201, 49.90996], [6.110346, 49.909904], [6.110498, 49.909855], [6.110769, 49.90979], [6.111006, 49.909748], [6.111254, 49.90971], [6.111502, 49.909687], [6.111757, 49.90968], [6.111898, 49.909683], [6.112169, 49.90971], [6.112219, 49.90972], [6.112307, 49.909733], [6.112467, 49.909775], [6.112646, 49.90983], [6.112844, 49.90991], [6.112947, 49.909966], [6.112974, 49.909992], [6.11305, 49.910027], [6.113108, 49.910065], [6.11318, 49.910126], [6.113237, 49.9102], [6.113276, 49.910275], [6.113314, 49.910385], [6.113344, 49.910526], [6.113401, 49.91108], [6.113462, 49.911476], [6.113489, 49.9116], [6.113508, 49.91168], [6.113569, 49.911865], [6.113604, 49.911892], [6.113733, 49.91191], [6.113878, 49.91192], [6.114107, 49.911926], [6.114309, 49.911915], [6.114534, 49.91188], [6.114855, 49.911835], [6.115255, 49.911774], [6.115595, 49.91172], [6.115885, 49.91168], [6.115862, 49.91198], [6.115824, 49.9122], [6.115778, 49.912373], [6.115274, 49.91241], [6.115271, 49.912838], [6.115267, 49.912926], [6.11524, 49.91309], [6.115164, 49.91349], [6.115053, 49.913975], [6.114973, 49.914257], [6.114901, 49.91447], [6.114824, 49.914635], [6.114675, 49.914898], [6.114618, 49.915016], [6.114576, 49.915134], [6.114542, 49.915264], [6.114534, 49.915314], [6.114508, 49.91543], [6.114469, 49.91551], [6.114283, 49.91583], [6.114244, 49.9159], [6.11421, 49.915966], [6.114195, 49.91604], [6.114164, 49.91614], [6.114134, 49.916252], [6.114073, 49.91633], [6.113977, 49.916393], [6.113913, 49.916416], [6.113836, 49.91643], [6.11368, 49.916443], [6.113459, 49.91645], [6.11344, 49.91645], [6.113451, 49.916534], [6.113478, 49.91669], [6.113504, 49.916817], [6.113527, 49.916904], [6.113554, 49.91696], [6.113581, 49.917004], [6.113615, 49.917038], [6.113676, 49.917088], [6.113722, 49.917114], [6.113798, 49.91715], [6.113878, 49.91718], [6.113962, 49.9172], [6.114042, 49.917206], [6.114599, 49.917244], [6.114737, 49.917263], [6.114912, 49.917294], [6.114958, 49.917313], [6.114992, 49.91733], [6.115049, 49.91737], [6.115099, 49.917423], [6.115164, 49.917522], [6.115286, 49.91775], [6.115313, 49.91779], [6.115347, 49.91782], [6.115389, 49.917847], [6.115442, 49.91787], [6.115507, 49.91789], [6.115602, 49.917908], [6.115671, 49.91791], [6.115755, 49.917908], [6.115892, 49.91788], [6.115976, 49.91787], [6.116049, 49.917862], [6.116125, 49.917873], [6.116198, 49.917896], [6.116262, 49.91793], [6.116365, 49.918007], [6.116491, 49.918118], [6.116583, 49.918198], [6.116667, 49.91826], [6.116751, 49.918297], [6.116816, 49.918312], [6.11688, 49.918316], [6.116949, 49.91831], [6.117029, 49.918285], [6.11709, 49.91826], [6.117128, 49.91822], [6.117147, 49.918175], [6.117155, 49.918102], [6.11717, 49.918083], [6.11809, 49.91788], [6.118742, 49.91774], [6.118837, 49.91772], [6.118769, 49.917824], [6.118597, 49.918087], [6.118734, 49.918125], [6.118727, 49.918144], [6.118689, 49.918167], [6.118238, 49.91861], [6.118223, 49.918636], [6.118032, 49.918777], [6.117762, 49.91897], [6.11759, 49.919067], [6.117498, 49.919106], [6.117113, 49.919197], [6.117094, 49.9192], [6.117002, 49.919113], [6.116957, 49.91908], [6.116831, 49.919014], [6.116739, 49.91898], [6.116617, 49.918938], [6.116476, 49.918907], [6.116423, 49.918896], [6.116209, 49.91888], [6.115557, 49.91884], [6.115198, 49.918827], [6.114878, 49.91882], [6.114489, 49.918816], [6.114046, 49.918823], [6.113676, 49.91884], [6.113501, 49.918846], [6.113329, 49.918858], [6.113226, 49.918854], [6.113134, 49.918846], [6.113058, 49.91884], [6.112986, 49.918823], [6.112875, 49.918793], [6.112677, 49.91874], [6.112516, 49.918705], [6.112425, 49.91869], [6.112291, 49.91869], [6.112158, 49.91871], [6.112001, 49.91873], [6.111799, 49.918755], [6.111734, 49.918766], [6.111666, 49.918785], [6.111536, 49.918816], [6.111452, 49.91884], [6.111216, 49.918884], [6.111059, 49.918934], [6.110731, 49.91903], [6.110521, 49.91908], [6.110323, 49.91912], [6.110216, 49.91915], [6.110117, 49.919197], [6.109469, 49.919456], [6.109114, 49.919586], [6.108931, 49.91967], [6.108805, 49.91974], [6.108736, 49.919785], [6.108706, 49.91981], [6.108679, 49.91985], [6.108656, 49.91988], [6.108648, 49.919914], [6.108644, 49.919956], [6.108725, 49.92016], [6.10874, 49.920242], [6.108763, 49.920406], [6.108763, 49.920498], [6.108755, 49.920574], [6.10874, 49.920624], [6.108713, 49.920673], [6.108671, 49.920734], [6.108629, 49.920773], [6.108576, 49.92081], [6.108439, 49.920883], [6.108355, 49.920933], [6.108305, 49.920967], [6.108221, 49.921043], [6.108152, 49.921093], [6.10811, 49.921112], [6.108061, 49.921127], [6.108046, 49.92113], [6.107962, 49.921143], [6.107878, 49.921158], [6.10776, 49.921177], [6.107687, 49.921192], [6.107534, 49.921207], [6.107462, 49.921223], [6.10737, 49.921265], [6.107275, 49.92129], [6.107214, 49.921303], [6.106989, 49.92131], [6.10689, 49.92131], [6.106863, 49.921318], [6.106798, 49.921364], [6.106756, 49.9214], [6.106707, 49.921425], [6.106657, 49.92144], [6.106619, 49.92145], [6.106546, 49.921467], [6.106489, 49.921494], [6.106424, 49.921528], [6.106386, 49.92155], [6.106207, 49.92163], [6.106031, 49.9217], [6.105715, 49.92179], [6.105596, 49.921814], [6.105448, 49.92184], [6.105337, 49.921856], [6.105291, 49.921856], [6.105253, 49.92185], [6.105207, 49.921806], [6.105143, 49.92175], [6.105112, 49.921753], [6.105078, 49.92177], [6.104944, 49.92184], [6.104639, 49.922016], [6.104544, 49.922073], [6.104456, 49.92213], [6.104406, 49.922146], [6.104345, 49.922153], [6.104189, 49.922157], [6.104132, 49.92216], [6.103949, 49.9222], [6.103773, 49.922222], [6.103632, 49.922245], [6.103525, 49.922268], [6.103315, 49.922344], [6.103128, 49.922405], [6.103014, 49.922417], [6.102861, 49.922432], [6.102629, 49.922462], [6.102415, 49.92248], [6.102255, 49.9225], [6.102056, 49.92256], [6.101908, 49.922607], [6.101572, 49.92273], [6.101194, 49.92286], [6.101046, 49.92292], [6.101, 49.922947], [6.100885, 49.92302], [6.100721, 49.923115], [6.100641, 49.923172], [6.100569, 49.92322], [6.100416, 49.923332], [6.100252, 49.923466], [6.10008, 49.92367], [6.099897, 49.92386], [6.099783, 49.923946], [6.099546, 49.92407], [6.099363, 49.92413], [6.099146, 49.92419], [6.098875, 49.924232], [6.098356, 49.92431], [6.098333, 49.92431], [6.098303, 49.9243], [6.098265, 49.924282], [6.098234, 49.92427], [6.097376, 49.924232], [6.096869, 49.924175], [6.096598, 49.924168], [6.096388, 49.924206], [6.096354, 49.92422], [6.096323, 49.92424], [6.0963, 49.924263], [6.096285, 49.92428], [6.096266, 49.92429], [6.096155, 49.92433], [6.096033, 49.92438], [6.095865, 49.92447], [6.095839, 49.92449], [6.095816, 49.92452], [6.095777, 49.924618], [6.095755, 49.924686], [6.095739, 49.924778], [6.095739, 49.92484], [6.095755, 49.92492], [6.095774, 49.925007], [6.095793, 49.92511], [6.095793, 49.925198], [6.095789, 49.92534], [6.095797, 49.925415], [6.095808, 49.92548], [6.09582, 49.925636], [6.09582, 49.925648], [6.095808, 49.925755], [6.095766, 49.925835], [6.09572, 49.925877], [6.095678, 49.92591], [6.09556, 49.925983], [6.09551, 49.92603], [6.0954, 49.92627], [6.095343, 49.926407], [6.095331, 49.92646], [6.095346, 49.926548], [6.095373, 49.92675], [6.095404, 49.92685], [6.095423, 49.926903], [6.095884, 49.927174], [6.095934, 49.927193], [6.095987, 49.927204], [6.096052, 49.92722], [6.09609, 49.927242], [6.096136, 49.92728], [6.096163, 49.927322], [6.096159, 49.927357], [6.096155, 49.927376], [6.096102, 49.927452], [6.096029, 49.92757], [6.095972, 49.927643], [6.09593, 49.927685], [6.095835, 49.92774], [6.095671, 49.92781], [6.095526, 49.927895], [6.095468, 49.927944], [6.095427, 49.92801], [6.095392, 49.928116], [6.095365, 49.928204], [6.09532, 49.928265], [6.095285, 49.928314], [6.095194, 49.928425], [6.095148, 49.928463], [6.095041, 49.928535], [6.094912, 49.92861], [6.094847, 49.92867], [6.094656, 49.928856], [6.09458, 49.928944], [6.094534, 49.929], [6.094488, 49.929157], [6.094439, 49.92931], [6.094374, 49.929455], [6.094423, 49.929478], [6.094435, 49.92949], [6.094435, 49.929523], [6.094431, 49.929573], [6.094423, 49.929615], [6.094393, 49.92971], [6.094366, 49.92982], [6.094355, 49.9299], [6.094347, 49.929924], [6.094313, 49.929947], [6.094267, 49.92997], [6.094271, 49.929993], [6.094278, 49.930004], [6.094412, 49.930122], [6.094465, 49.930183], [6.094481, 49.930195], [6.094488, 49.930237], [6.094488, 49.93029], [6.094481, 49.930325], [6.094461, 49.930347], [6.094381, 49.9304], [6.094328, 49.930416], [6.094336, 49.930573], [6.094339, 49.9307], [6.094324, 49.93085], [6.094297, 49.930935], [6.094286, 49.930946], [6.094267, 49.930958], [6.094236, 49.930965], [6.09421, 49.930965], [6.094183, 49.930954], [6.09416, 49.930946], [6.094122, 49.930935], [6.094103, 49.93093], [6.09408, 49.93094], [6.094072, 49.930965], [6.094046, 49.931114], [6.09403, 49.93116], [6.094015, 49.93116], [6.094034, 49.93118], [6.094065, 49.931194], [6.094126, 49.931206], [6.09421, 49.931213], [6.094271, 49.931236], [6.094309, 49.93126], [6.094381, 49.93129], [6.094648, 49.931324], [6.094721, 49.93135], [6.094812, 49.931393], [6.094961, 49.93147], [6.095098, 49.931576], [6.095186, 49.931664], [6.095194, 49.931686], [6.09519, 49.93171], [6.095141, 49.931915], [6.095083, 49.932034], [6.095007, 49.932186], [6.09495, 49.932255], [6.09485, 49.932323], [6.094591, 49.932487], [6.094492, 49.93254], [6.094339, 49.93257], [6.094263, 49.93258], [6.09421, 49.93258], [6.094137, 49.932575], [6.094011, 49.932564], [6.093893, 49.932533], [6.093718, 49.93249], [6.093561, 49.932446], [6.09329, 49.932358], [6.093122, 49.932304], [6.092985, 49.932266], [6.092916, 49.932255], [6.092848, 49.932247], [6.092737, 49.932255], [6.09265, 49.93226], [6.092493, 49.932285], [6.092051, 49.93236], [6.091726, 49.93244], [6.091646, 49.932457], [6.091524, 49.93248], [6.091444, 49.932484], [6.091383, 49.93248], [6.091299, 49.93246], [6.091223, 49.932434], [6.091017, 49.932343], [6.090818, 49.93225], [6.090693, 49.932205], [6.09059, 49.93219], [6.090433, 49.932182], [6.090311, 49.932186], [6.09017, 49.93219], [6.09009, 49.932205], [6.089823, 49.932278], [6.089655, 49.932335], [6.089552, 49.932396], [6.089479, 49.932446], [6.089445, 49.932503], [6.089418, 49.93256], [6.089388, 49.932613], [6.089312, 49.93269], [6.089228, 49.932743], [6.089136, 49.93279], [6.088999, 49.932846], [6.08885, 49.932934], [6.088717, 49.933033], [6.088598, 49.93313], [6.088472, 49.933258], [6.088407, 49.933327], [6.088251, 49.93353], [6.088182, 49.933594], [6.088091, 49.933662], [6.087995, 49.933773], [6.087877, 49.933933], [6.08782, 49.934002], [6.087763, 49.93406], [6.087687, 49.934116], [6.087576, 49.934218], [6.087549, 49.93424], [6.087427, 49.934343], [6.087381, 49.9344], [6.087343, 49.934473], [6.087316, 49.934595], [6.087282, 49.934728], [6.087206, 49.934912], [6.087198, 49.934954]]]]}}]}