{"type": "FeatureCollection", "features": [{"type": "Feature", "properties": {"name": "Ourschleife/Falkenstein", "kind": "nature_reserve"}, "geometry": {"type": "Polygon", "coordinates": [[[6.2000464, 49.9739246], [6.2004401, 49.9740662], [6.2007173, 49.9740535], [6.200964, 49.9740545], [6.201552, 49.9740874], [6.2017785, 49.9741283], [6.2020116, 49.9740125], [6.2025735, 49.9741184], [6.2030309, 49.9741733], [6.2033215, 49.9741714], [6.2036042, 49.97415], [6.2041455, 49.9740247], [6.2042664, 49.974058], [6.2043073, 49.9739064], [6.2042543, 49.9737468], [6.2041558, 49.9736135], [6.2039317, 49.9734172], [6.2032456, 49.9729291], [6.2026618, 49.9724568], [6.2020696, 49.9719584], [6.2016434, 49.9721859], [6.2015449, 49.9721031], [6.2009436, 49.9714762], [6.2005995, 49.97113], [6.2004665, 49.970975], [6.2003348, 49.9705864], [6.2003095, 49.9701797], [6.2003082, 49.9699168], [6.2002243, 49.9694326], [6.2005309, 49.9695295], [6.2007498, 49.9696494], [6.2011967, 49.9696675], [6.2012298, 49.9694098], [6.2015329, 49.9694416], [6.201729, 49.9694288], [6.2019187, 49.9693825], [6.2021766, 49.9692437], [6.2024792, 49.9690478], [6.2026991, 49.9687443], [6.2025724, 49.9682707], [6.2024611, 49.9680841], [6.2023848, 49.9678065], [6.2019593, 49.9674821], [6.202078, 49.9672425], [6.2022115, 49.9670364], [6.2025902, 49.9664174], [6.2027757, 49.9661045], [6.2028589, 49.9659258], [6.2029014, 49.9657254], [6.2026075, 49.965376], [6.2025274, 49.9651968], [6.2019955, 49.9652253], [6.2014394, 49.9650915], [6.2008073, 49.9649099], [6.2003576, 49.9648047], [6.1999518, 49.9646539], [6.1999156, 49.9644962], [6.1998507, 49.9640248], [6.1998374, 49.9639797], [6.2003238, 49.963923], [6.2014928, 49.9638607], [6.2024096, 49.9637526], [6.2026557, 49.9636891], [6.202929, 49.9634969], [6.2035545, 49.9631157], [6.2038366, 49.9632002], [6.2045291, 49.9635027], [6.2047464, 49.9630854], [6.2047878, 49.962747], [6.2047672, 49.9626597], [6.2046538, 49.96245], [6.2042724, 49.9622015], [6.2038425, 49.9618406], [6.2035629, 49.9615743], [6.2036569, 49.9615307], [6.2039588, 49.961403], [6.2045106, 49.9611457], [6.2048064, 49.9609918], [6.2049431, 49.9608795], [6.2044092, 49.9607009], [6.2040867, 49.9606571], [6.2040654, 49.960529], [6.2030386, 49.9591748], [6.2048409, 49.9600034], [6.2054343, 49.9602571], [6.2061959, 49.9605098], [6.2065361, 49.9606155], [6.2065541, 49.960573], [6.2070121, 49.9605311], [6.2074652, 49.9605045], [6.2078089, 49.9604945], [6.2079353, 49.9604629], [6.208022, 49.9604105], [6.2080697, 49.9603091], [6.208063, 49.9602213], [6.2079346, 49.9599831], [6.207666, 49.9597092], [6.2075641, 49.95952], [6.2075516, 49.9592406], [6.2081255, 49.9591378], [6.2076231, 49.9583764], [6.2073793, 49.9581025], [6.2065863, 49.9571773], [6.2067274, 49.9571102], [6.2060821, 49.9566117], [6.2049862, 49.9560242], [6.2048495, 49.9559173], [6.2046841, 49.955704], [6.2046835, 49.9556882], [6.2046912, 49.9554988], [6.2048273, 49.9550972], [6.2046007, 49.9550464], [6.2044902, 49.9550049], [6.2041651, 49.9548429], [6.2033937, 49.9544827], [6.2031429, 49.95424], [6.2025887, 49.953926], [6.2019359, 49.9536155], [6.2017378, 49.9534753], [6.2016216, 49.9534387], [6.2011994, 49.9532112], [6.200782, 49.9529288], [6.2006242, 49.9527131], [6.2004833, 49.9524004], [6.2005069, 49.9522986], [6.2004745, 49.9521909], [6.2002411, 49.9519088], [6.1997997, 49.95147], [6.1996028, 49.9512534], [6.1995374, 49.951046], [6.1995474, 49.9508857], [6.1995768, 49.9505997], [6.1996536, 49.9496895], [6.1995864, 49.949493], [6.1994291, 49.9493071], [6.1991907, 49.9491353], [6.1989422, 49.9490103], [6.1987844, 49.948819], [6.1986642, 49.9487886], [6.1985984, 49.9487254], [6.198481, 49.9486922], [6.1985064, 49.9485966], [6.1984547, 49.9485079], [6.1982833, 49.9484474], [6.1982808, 49.9484354], [6.1982714, 49.9484473], [6.1983667, 49.9485223], [6.1983283, 49.9487106], [6.1983192, 49.9488788], [6.1985352, 49.9491226], [6.198672, 49.9493457], [6.1987864, 49.9494679], [6.1988022, 49.9494704], [6.1987679, 49.9496183], [6.1987367, 49.9498402], [6.198699, 49.9500538], [6.198651, 49.9502178], [6.1985613, 49.9502965], [6.1985817, 49.9503965], [6.1984747, 49.9506116], [6.1982796, 49.9508996], [6.1982205, 49.9511222], [6.1981982, 49.9513421], [6.1980776, 49.9516049], [6.1979279, 49.9518244], [6.1978507, 49.9520563], [6.1977526, 49.9522695], [6.197417, 49.9527307], [6.19726, 49.9530072], [6.1971329, 49.9531996], [6.1969459, 49.9535299], [6.1967127, 49.953977], [6.1965973, 49.9540788], [6.1965098, 49.9541383], [6.1965146, 49.9541832], [6.19665, 49.9543103], [6.1968386, 49.9543991], [6.1971197, 49.9545008], [6.196937, 49.9545657], [6.1967363, 49.9545645], [6.196464, 49.9546407], [6.1961779, 49.9546438], [6.195992, 49.95467], [6.1958857, 49.9547869], [6.196003, 49.9549733], [6.1961676, 49.9551372], [6.1963695, 49.9552748], [6.196361, 49.9552879], [6.1961278, 49.955223], [6.1957734, 49.9552124], [6.1955044, 49.955227], [6.195246, 49.9554476], [6.1949606, 49.9557208], [6.1947021, 49.9560207], [6.1946581, 49.9560849], [6.1944156, 49.9563434], [6.1941823, 49.9566249], [6.1940551, 49.9568552], [6.1939974, 49.9570104], [6.1939679, 49.9571871], [6.1939525, 49.9573904], [6.1940881, 49.9576841], [6.194378, 49.9580744], [6.1946171, 49.958643], [6.1946279, 49.9588862], [6.1946719, 49.9592048], [6.1947186, 49.9593339], [6.1948619, 49.9595236], [6.1949631, 49.9598433], [6.1949003, 49.9600457], [6.1949389, 49.9601499], [6.1949129, 49.960203], [6.1952983, 49.9604854], [6.1958034, 49.9608943], [6.1957958, 49.9608989], [6.1950027, 49.9606787], [6.1948059, 49.9606703], [6.1947834, 49.9607018], [6.1947535, 49.9609034], [6.1946444, 49.9612088], [6.1946345, 49.9614642], [6.1945548, 49.9616878], [6.194414, 49.9619796], [6.1942587, 49.9622183], [6.194144, 49.9624133], [6.1938012, 49.9628798], [6.1937135, 49.9630583], [6.1935958, 49.9631803], [6.1935318, 49.9632638], [6.1933846, 49.9635312], [6.1932641, 49.9637984], [6.1931664, 49.9641154], [6.1930931, 49.9643115], [6.1930876, 49.9645061], [6.1930957, 49.9646118], [6.1930834, 49.9647683], [6.1931881, 49.9648693], [6.1932892, 49.9649803], [6.1933642, 49.9650286], [6.1934645, 49.9650789], [6.1937205, 49.9651742], [6.1938478, 49.9652402], [6.1941192, 49.9655126], [6.1942234, 49.9655852], [6.1942209, 49.9656177], [6.1944267, 49.965962], [6.1943069, 49.9659167], [6.1941264, 49.9658401], [6.1939619, 49.9657481], [6.1937977, 49.9655856], [6.1936683, 49.9655371], [6.1933207, 49.9655342], [6.193364, 49.965725], [6.1934336, 49.9658279], [6.1934018, 49.9660235], [6.193398, 49.966194], [6.193302, 49.9662691], [6.1933322, 49.9663577], [6.1934417, 49.9664385], [6.1934354, 49.9664968], [6.1935144, 49.9668434], [6.1934361, 49.9671669], [6.193299, 49.9674299], [6.1931857, 49.9675303], [6.1930749, 49.9678755], [6.1930473, 49.9679349], [6.19297, 49.9681391], [6.1927683, 49.9685071], [6.1924906, 49.9688069], [6.1923016, 49.9688933], [6.1917129, 49.9692466], [6.1910571, 49.9693952], [6.1910023, 49.9697022], [6.1909338, 49.9699608], [6.1908575, 49.9701676], [6.1906211, 49.9699703], [6.1904643, 49.9696995], [6.1904791, 49.9696596], [6.1904365, 49.9695925], [6.1903858, 49.9695794], [6.1903371, 49.9695131], [6.1902341, 49.9694986], [6.189771, 49.9694598], [6.189278, 49.9694303], [6.1892251, 49.9694029], [6.1887867, 49.9693419], [6.1884868, 49.9692922], [6.1882743, 49.9692805], [6.1878042, 49.9691746], [6.1870603, 49.9689868], [6.1867966, 49.968891], [6.1866423, 49.9688434], [6.1859674, 49.968609], [6.1856103, 49.9684588], [6.1853109, 49.968351], [6.1849962, 49.9682798], [6.1848612, 49.9683188], [6.1847931, 49.9682326], [6.1844747, 49.9681155], [6.1841846, 49.9680555], [6.1838259, 49.9679394], [6.1837184, 49.967934], [6.1835937, 49.9678175], [6.1828369, 49.9672013], [6.1827323, 49.967111], [6.1825907, 49.9669774], [6.1824021, 49.9667687], [6.1821468, 49.9664973], [6.1819832, 49.9663382], [6.181903, 49.9662274], [6.1818631, 49.9661851], [6.1812132, 49.9653903], [6.180953, 49.9649505], [6.1806926, 49.9645527], [6.1805999, 49.9644309], [6.1806143, 49.9642848], [6.1805132, 49.964105], [6.1806332, 49.9636532], [6.1809548, 49.9629128], [6.1810866, 49.9625532], [6.1813095, 49.9621254], [6.181522, 49.9618004], [6.1820566, 49.9610952], [6.1823366, 49.960699], [6.1825531, 49.9604375], [6.1829237, 49.9600651], [6.1829664, 49.9599746], [6.1829176, 49.9598812], [6.1830052, 49.9594575], [6.1829708, 49.9592257], [6.1827476, 49.9591292], [6.182738, 49.9587931], [6.1827811, 49.95847], [6.1828613, 49.9580949], [6.1829283, 49.9576231], [6.1831909, 49.9574151], [6.1833125, 49.9572832], [6.1839368, 49.9570958], [6.1846265, 49.9570173], [6.1851212, 49.9569217], [6.1860433, 49.9566999], [6.1864765, 49.9565643], [6.1866705, 49.9565288], [6.1870008, 49.9564996], [6.1873764, 49.9564951], [6.1875798, 49.9564842], [6.1877327, 49.9564363], [6.1878301, 49.9563777], [6.1878218, 49.9563291], [6.1876046, 49.9561801], [6.1861506, 49.9555293], [6.1857103, 49.9553965], [6.1852122, 49.9551133], [6.1847788, 49.9549541], [6.1843695, 49.9546802], [6.1838701, 49.9544246], [6.1834401, 49.9541678], [6.1831275, 49.9539415], [6.182609, 49.9537749], [6.182546, 49.9537189], [6.1822158, 49.9536117], [6.1818208, 49.953495], [6.1814241, 49.9533721], [6.181031, 49.9532834], [6.1806727, 49.9532426], [6.1803962, 49.9532263], [6.1801484, 49.9532398], [6.1798884, 49.9532688], [6.1796457, 49.9533012], [6.179457, 49.9533502], [6.1792265, 49.9534286], [6.178907, 49.95355], [6.1787298, 49.9536355], [6.1784549, 49.9538322], [6.1782301, 49.9540383], [6.1780565, 49.9542328], [6.1779207, 49.9544162], [6.1778201, 49.9546016], [6.1776704, 49.9549775], [6.1775512, 49.9553865], [6.1775053, 49.9556513], [6.177478, 49.9559657], [6.1774893, 49.9561347], [6.1774352, 49.9563825], [6.1773717, 49.9566147], [6.177328, 49.956868], [6.1773195, 49.9573662], [6.1772953, 49.9577476], [6.1772726, 49.9579778], [6.1772573, 49.958249], [6.1772152, 49.9587064], [6.1771833, 49.9588936], [6.1770736, 49.9593824], [6.1769949, 49.9596016], [6.1768534, 49.9598967], [6.1766605, 49.9602244], [6.1765923, 49.9605168], [6.176431, 49.96109], [6.1763801, 49.9612258], [6.1763394, 49.9613879], [6.1762681, 49.961517], [6.1761794, 49.9615936], [6.1772218, 49.9615943], [6.1780491, 49.9616709], [6.1783603, 49.9616809], [6.1787548, 49.9617133], [6.1787841, 49.9618575], [6.1788215, 49.9621501], [6.178796, 49.9624419], [6.1788591, 49.9625669], [6.1788796, 49.9631636], [6.1787896, 49.9633828], [6.1788254, 49.9635504], [6.1787558, 49.9636818], [6.1787871, 49.9638673], [6.1787528, 49.9639359], [6.178833, 49.9642475], [6.1788553, 49.9645155], [6.178972, 49.9647034], [6.1791073, 49.9652499], [6.1791133, 49.9655699], [6.1791966, 49.9658742], [6.1792459, 49.9662924], [6.1795161, 49.9666617], [6.1795751, 49.9669285], [6.1796026, 49.9671134], [6.1796053, 49.9672057], [6.1795781, 49.9672702], [6.1796796, 49.9674688], [6.1797467, 49.9676561], [6.1797978, 49.9677491], [6.1799642, 49.9679736], [6.1802029, 49.9681915], [6.1803559, 49.9683511], [6.1804175, 49.9684613], [6.180462, 49.9685927], [6.1806737, 49.9689158], [6.1809155, 49.9692142], [6.1810466, 49.9693582], [6.1811274, 49.9695924], [6.1812532, 49.969784], [6.1813606, 49.969879], [6.1817136, 49.9701271], [6.1819439, 49.9702345], [6.1820788, 49.9702819], [6.1824799, 49.9703821], [6.1827567, 49.9704677], [6.1829893, 49.9705524], [6.1830943, 49.9706068], [6.1830208, 49.9706737], [6.1832896, 49.9707937], [6.1833775, 49.9708522], [6.1833222, 49.9709273], [6.1839005, 49.9711467], [6.1839279, 49.9711224], [6.1847261, 49.9714264], [6.1849247, 49.9711736], [6.1850603, 49.9708818], [6.1851217, 49.9708681], [6.1852451, 49.9708667], [6.1855008, 49.9709765], [6.1856341, 49.9710628], [6.1857057, 49.9709084], [6.1862425, 49.970973], [6.1861664, 49.9711295], [6.1867059, 49.9712102], [6.1871012, 49.9712959], [6.1872484, 49.9712804], [6.1873969, 49.9713108], [6.1877064, 49.9713542], [6.1878736, 49.9713992], [6.1879855, 49.9714655], [6.18786, 49.9715868], [6.1879965, 49.9717208], [6.1880549, 49.9718995], [6.187862, 49.9720339], [6.1880344, 49.9722662], [6.1877712, 49.9723806], [6.1875979, 49.9724681], [6.1882383, 49.9733069], [6.1883755, 49.9734396], [6.1886569, 49.9736756], [6.1888206, 49.973823], [6.188744, 49.9738593], [6.1891543, 49.9740251], [6.1899859, 49.9744516], [6.1904159, 49.97463], [6.190461, 49.9746626], [6.1906459, 49.9749032], [6.1906715, 49.975064], [6.1909779, 49.9754648], [6.1910853, 49.9755852], [6.191218, 49.9756946], [6.1918944, 49.9752655], [6.1925614, 49.9757424], [6.1927935, 49.975873], [6.193023, 49.9758894], [6.1933831, 49.9757851], [6.1935073, 49.9758754], [6.1939622, 49.9756803], [6.1943523, 49.9755425], [6.1945328, 49.9755211], [6.1952001, 49.9750878], [6.1957868, 49.9747309], [6.1959723, 49.974671], [6.196012, 49.9746616], [6.1959825, 49.9747307], [6.196113, 49.9748509], [6.1965333, 49.9750547], [6.1972675, 49.9752771], [6.1971755, 49.9753414], [6.1973664, 49.9754357], [6.1977007, 49.9755513], [6.1980792, 49.975647], [6.1983492, 49.9757212], [6.1990272, 49.9759073], [6.199299, 49.976005], [6.1994952, 49.976071], [6.1999467, 49.9761801], [6.2008985, 49.9763486], [6.2013293, 49.9763882], [6.2016678, 49.9763906], [6.2020909, 49.9763492], [6.2023757, 49.9763358], [6.2022422, 49.9762656], [6.2019419, 49.9761076], [6.2015815, 49.9759259], [6.201371, 49.9758538], [6.2006398, 49.9755579], [6.2004725, 49.9754706], [6.2003896, 49.9752889], [6.2000464, 49.9739246]]]}}]}