{"type": "FeatureCollection", "features": [{"type": "Feature", "properties": {"name": "Fermes"}, "geometry": {"type": "Polygon", "coordinates": [[[6.1872325, 49.6218939], [6.1878171, 49.6220378], [6.1896512, 49.6225293], [6.1903491, 49.6227847], [6.1903156, 49.6228012], [6.1902071, 49.6228547], [6.1901018, 49.6231029], [6.1898467, 49.6238254], [6.1897729, 49.6240457], [6.1897156, 49.6242095], [6.1896888, 49.6242842], [6.1896552, 49.6243767], [6.1895952, 49.6245453], [6.1894755, 49.6248788], [6.1892531, 49.625499], [6.1892893, 49.6255574], [6.1894302, 49.6256026], [6.1895467, 49.6256401], [6.1897926, 49.6257238], [6.1899918, 49.6257862], [6.1903952, 49.625948], [6.1910276, 49.6261781], [6.1916465, 49.626368], [6.19183, 49.6264196], [6.1922357, 49.6265614], [6.1923086, 49.6265792], [6.1930878, 49.6267575], [6.1931291, 49.62723], [6.1934151, 49.6273515], [6.1936913, 49.6274682], [6.1939479, 49.6275337], [6.1950324, 49.6277182], [6.1949962, 49.6277881], [6.1957873, 49.6279146], [6.1962815, 49.6279144], [6.1962519, 49.6279663], [6.1960193, 49.6283201], [6.1949159, 49.6283124], [6.1947565, 49.6285388], [6.1948919, 49.6285455], [6.1950745, 49.6285546], [6.1958404, 49.6285954], [6.1963161, 49.6286207], [6.1967632, 49.6286445], [6.1976257, 49.6286905], [6.1976847, 49.6286936], [6.1977343, 49.6286949], [6.1989485, 49.6284549], [6.1992804, 49.62847], [6.1996666, 49.6287207], [6.2050619, 49.6322216], [6.2051017, 49.6322473], [6.2051428, 49.6322739], [6.2054783, 49.6324337], [6.2055588, 49.6323634], [6.2056623, 49.6324122], [6.2065406, 49.631853], [6.2065947, 49.6318886], [6.206601, 49.631893], [6.2068265, 49.6320424], [6.2068238, 49.6320443], [6.2068311, 49.6320492], [6.2068342, 49.6320475], [6.2071678, 49.6322684], [6.2072325, 49.6322278], [6.2072973, 49.6321871], [6.2073162, 49.6321871], [6.2073406, 49.6321845], [6.2073856, 49.632176], [6.2074035, 49.6321743], [6.2074031, 49.6321717], [6.2074136, 49.632171], [6.207414, 49.6321735], [6.2074531, 49.6321729], [6.2075005, 49.6321766], [6.2075479, 49.6321845], [6.2075692, 49.6321874], [6.2075928, 49.6321878], [6.2077052, 49.6321162], [6.2077025, 49.6321142], [6.2077099, 49.6321092], [6.2077128, 49.6321113], [6.2077948, 49.6320578], [6.2080988, 49.6318645], [6.2080952, 49.6318621], [6.2081027, 49.6318574], [6.2081061, 49.6318595], [6.2082144, 49.6317907], [6.2082351, 49.6317899], [6.2082351, 49.6317898], [6.2082394, 49.6317863], [6.2082436, 49.6317827], [6.2082472, 49.6317795], [6.2082477, 49.6317791], [6.2082516, 49.6317754], [6.2082555, 49.6317717], [6.2082593, 49.6317679], [6.2082621, 49.631765], [6.208263, 49.6317641], [6.2082665, 49.6317603], [6.20827, 49.6317564], [6.2082733, 49.6317524], [6.2082746, 49.6317509], [6.2082766, 49.6317485], [6.2082798, 49.6317445], [6.208283, 49.6317405], [6.2082861, 49.6317365], [6.208288, 49.631734], [6.2082891, 49.6317324], [6.208292, 49.6317284], [6.2082947, 49.6317242], [6.2082972, 49.63172], [6.2082995, 49.6317158], [6.2083015, 49.6317115], [6.2083031, 49.6317071], [6.2083036, 49.6317057], [6.2083044, 49.6317027], [6.2083053, 49.6316982], [6.2083057, 49.6316937], [6.2083056, 49.6316893], [6.2083051, 49.6316848], [6.2083042, 49.6316803], [6.2084109, 49.6316121], [6.2084738, 49.6315719], [6.2085099, 49.6315488], [6.2076057, 49.6309521], [6.2066322, 49.6303092], [6.2058053, 49.6297632], [6.2057471, 49.6297248], [6.2062121, 49.6292914], [6.2067042, 49.629523], [6.2068749, 49.6294092], [6.2069354, 49.6293689], [6.2071166, 49.6292482], [6.2075627, 49.6289508], [6.2077413, 49.6286949], [6.2077717, 49.6286394], [6.2081266, 49.6276266], [6.2081131, 49.6273227], [6.2080212, 49.626871], [6.208038, 49.6268432], [6.2080804, 49.6267731], [6.2081575, 49.6266789], [6.20855, 49.6264271], [6.208913, 49.6262465], [6.2100501, 49.6259477], [6.2105421, 49.6257487], [6.2121982, 49.6251772], [6.2122497, 49.6251594], [6.2128657, 49.6250499], [6.2132259, 49.6250282], [6.2138245, 49.6250652], [6.2143314, 49.6250438], [6.2146949, 49.6250017], [6.2153025, 49.6248896], [6.2157848, 49.6247119], [6.2158716, 49.6246799], [6.2162278, 49.6249752], [6.2162624, 49.6252067], [6.2164104, 49.6252715], [6.2161415, 49.6256059], [6.2157392, 49.6258099], [6.2157645, 49.6258284], [6.216115, 49.6260845], [6.2164989, 49.6258956], [6.216897, 49.6258377], [6.2170008, 49.6259013], [6.217028, 49.6258863], [6.2175913, 49.6262043], [6.2176542, 49.6261702], [6.2175806, 49.6260281], [6.2174995, 49.6258994], [6.2173819, 49.6257945], [6.2173225, 49.625744], [6.217306, 49.6257217], [6.2173537, 49.6256447], [6.2174092, 49.6255787], [6.2175318, 49.6254077], [6.2175544, 49.6253761], [6.2176345, 49.6249601], [6.2176724, 49.6248386], [6.2177048, 49.6247648], [6.217741, 49.6247022], [6.2178631, 49.6245757], [6.2179776, 49.6244875], [6.218044, 49.6244433], [6.2180917, 49.6244032], [6.2181527, 49.6243454], [6.2182138, 49.6242698], [6.2182457, 49.624226], [6.2183246, 49.6242389], [6.2183937, 49.624137], [6.2184409, 49.6241471], [6.2185318, 49.6239482], [6.2186269, 49.6238083], [6.2186956, 49.6237387], [6.2188092, 49.6236489], [6.21889, 49.6235938], [6.2190121, 49.6235182], [6.2191171, 49.6234687], [6.219182, 49.6234439], [6.2193576, 49.6234037], [6.2197548, 49.6233357], [6.2199807, 49.6233046], [6.2203663, 49.6232445], [6.2205612, 49.6232204], [6.2206978, 49.6232055], [6.2208183, 49.6232048], [6.2213924, 49.623213], [6.2218928, 49.6232255], [6.222188, 49.6232354], [6.2222464, 49.6232374], [6.2223271, 49.6232401], [6.2224435, 49.6232427], [6.2225705, 49.6232359], [6.2226721, 49.6232156], [6.2228625, 49.6231225], [6.2228955, 49.6231009], [6.2230234, 49.6230168], [6.2230423, 49.6230044], [6.2230136, 49.622968], [6.222977, 49.6229495], [6.2229225, 49.6229372], [6.2228663, 49.6229272], [6.2228119, 49.6229048], [6.2227447, 49.6228824], [6.2226594, 49.6228701], [6.2225651, 49.6228724], [6.2224926, 49.622877], [6.2223855, 49.6228714], [6.2221987, 49.6228637], [6.2219837, 49.622864], [6.2218894, 49.6228539], [6.2217497, 49.6228327], [6.2217043, 49.6228316], [6.2216735, 49.6228406], [6.2215466, 49.6228832], [6.2214378, 49.6229056], [6.221338, 49.6229135], [6.2205291, 49.6229319], [6.2201994, 49.6229373], [6.2194721, 49.6229465], [6.2191516, 49.6229497], [6.2189545, 49.6230185], [6.2188287, 49.6230701], [6.2186933, 49.6231284], [6.2185441, 49.6231909], [6.2185052, 49.6231954], [6.218227, 49.6226581], [6.2181615, 49.6225358], [6.2180378, 49.6223832], [6.2180099, 49.6223444], [6.2174313, 49.6221845], [6.2168733, 49.6220212], [6.2163344, 49.6218633], [6.2156833, 49.62172], [6.2145501, 49.6215396], [6.2137252, 49.6214113], [6.2124294, 49.6212053], [6.2114095, 49.6210715], [6.2111015, 49.6210078], [6.2108141, 49.6216745], [6.2106964, 49.6219867], [6.2106765, 49.6220465], [6.210522, 49.6224593], [6.2103278, 49.6229181], [6.2100843, 49.6234778], [6.2099911, 49.6236217], [6.2095521, 49.6241097], [6.2094848, 49.6241324], [6.2093665, 49.6242659], [6.2074697, 49.6264078], [6.2073618, 49.6265512], [6.207338, 49.6265884], [6.2073229, 49.6266119], [6.2064255, 49.6280111], [6.2061938, 49.6273775], [6.2061137, 49.6270259], [6.2059898, 49.6266889], [6.2059478, 49.6265927], [6.2058364, 49.6263377], [6.2057669, 49.6262114], [6.2051204, 49.6252411], [6.2045222, 49.6244118], [6.2021417, 49.6235462], [6.1999114, 49.6227283], [6.1996238, 49.6226355], [6.1982905, 49.6222445], [6.1975515, 49.6220103], [6.1960725, 49.6215476], [6.1953474, 49.6213337], [6.194889, 49.6212073], [6.1943781, 49.6210871], [6.1939043, 49.6210054], [6.1934469, 49.6209511], [6.1929909, 49.6209323], [6.1927549, 49.62092], [6.1914816, 49.6208536], [6.1912639, 49.6208949], [6.1910417, 49.6209371], [6.1909171, 49.6209608], [6.1908383, 49.6209757], [6.1907958, 49.6209838], [6.1907125, 49.6209996], [6.1897129, 49.6211168], [6.1896722, 49.621121], [6.1893891, 49.6211504], [6.189237, 49.6211626], [6.1886885, 49.6212067], [6.1882712, 49.6212333], [6.1878575, 49.6212559], [6.187536, 49.6212653], [6.1873813, 49.6212721], [6.1872976, 49.6212728], [6.1870817, 49.6212744], [6.1868848, 49.6212755], [6.1867379, 49.6212744], [6.186703, 49.62127], [6.1866375, 49.6212556], [6.1865857, 49.6212405], [6.1865488, 49.6212312], [6.1865204, 49.6212276], [6.1864898, 49.6212265], [6.1864424, 49.62123], [6.1855868, 49.6213122], [6.1854954, 49.6213993], [6.1854299, 49.6214502], [6.1872325, 49.6218939]]]}}]}