{"type": "FeatureCollection", "features": [{"type": "Feature", "properties": {"name": "Reckange-sur-Mess"}, "geometry": {"type": "MultiPolygon", "coordinates": [[[[5.960745, 49.548317], [5.960749, 49.54842], [5.960779, 49.548565], [5.960802, 49.548763], [5.960856, 49.549084], [5.960924, 49.54954], [5.96097, 49.549812], [5.961004, 49.550156], [5.961027, 49.5505], [5.961069, 49.55105], [5.9611, 49.551365], [5.961115, 49.551594], [5.961123, 49.55172], [5.961168, 49.551712], [5.961203, 49.551712], [5.961237, 49.55171], [5.961222, 49.551907], [5.961218, 49.551933], [5.961203, 49.55216], [5.961172, 49.552185], [5.961157, 49.5522], [5.961119, 49.552235], [5.961088, 49.552265], [5.961103, 49.552322], [5.961119, 49.552353], [5.961145, 49.552395], [5.96118, 49.552437], [5.961191, 49.55245], [5.961264, 49.55252], [5.961275, 49.552532], [5.961332, 49.552586], [5.961405, 49.552635], [5.961489, 49.552677], [5.961519, 49.55269], [5.961531, 49.552692], [5.961546, 49.5527], [5.961588, 49.55271], [5.961618, 49.55272], [5.961676, 49.552734], [5.961683, 49.552856], [5.961683, 49.55296], [5.961679, 49.552994], [5.961672, 49.553043], [5.961653, 49.55314], [5.961622, 49.55325], [5.961584, 49.553337], [5.961561, 49.553383], [5.961504, 49.553486], [5.96142, 49.553608], [5.961328, 49.553722], [5.961267, 49.553787], [5.961107, 49.553963], [5.961702, 49.55428], [5.961763, 49.55432], [5.961794, 49.554348], [5.961824, 49.55437], [5.96184, 49.55439], [5.961893, 49.55445], [5.961908, 49.554485], [5.961927, 49.554523], [5.961943, 49.55457], [5.961958, 49.55463], [5.961969, 49.554684], [5.962008, 49.55482], [5.96205, 49.55495], [5.962088, 49.555042], [5.962122, 49.55509], [5.962164, 49.555145], [5.962248, 49.555187], [5.962366, 49.555252], [5.962385, 49.555264], [5.962423, 49.555286], [5.962706, 49.555542], [5.962748, 49.55568], [5.962809, 49.555794], [5.962881, 49.555897], [5.9629, 49.555927], [5.962927, 49.55598], [5.962969, 49.556114], [5.963018, 49.556248], [5.96306, 49.556343], [5.963114, 49.556427], [5.963171, 49.5565], [5.96319, 49.556522], [5.963266, 49.556606], [5.963369, 49.556698], [5.963537, 49.556843], [5.963713, 49.556984], [5.963884, 49.557114], [5.963926, 49.557148], [5.96372, 49.557255], [5.963636, 49.557285], [5.96351, 49.55732], [5.963533, 49.557354], [5.963598, 49.557465], [5.963934, 49.558], [5.963995, 49.55812], [5.964132, 49.558395], [5.96438, 49.55895], [5.964624, 49.55948], [5.964655, 49.559544], [5.964678, 49.5596], [5.964781, 49.5598], [5.965239, 49.559723], [5.965368, 49.55996], [5.965433, 49.56007], [5.965494, 49.56022], [5.965574, 49.560394], [5.965593, 49.560432], [5.965635, 49.560535], [5.965643, 49.560593], [5.965647, 49.560627], [5.965593, 49.560917], [5.96557, 49.560997], [5.965486, 49.561085], [5.965399, 49.561184], [5.965307, 49.561283], [5.96517, 49.561428], [5.965014, 49.561607], [5.964968, 49.56167], [5.964808, 49.561874], [5.964594, 49.562187], [5.964361, 49.56256], [5.964228, 49.562775], [5.964094, 49.562984], [5.963972, 49.56318], [5.963953, 49.563198], [5.963915, 49.563244], [5.963892, 49.56327], [5.96385, 49.563297], [5.963766, 49.563347], [5.96369, 49.563393], [5.963327, 49.563965], [5.963163, 49.564217], [5.963072, 49.564377], [5.962976, 49.56455], [5.962912, 49.56469], [5.962854, 49.56482], [5.962839, 49.564857], [5.96282, 49.56491], [5.96277, 49.565037], [5.962725, 49.565147], [5.962687, 49.565247], [5.962645, 49.56535], [5.962584, 49.56549], [5.962568, 49.56552], [5.962523, 49.565617], [5.962511, 49.565647], [5.962473, 49.56572], [5.962446, 49.56576], [5.96242, 49.56581], [5.962389, 49.56585], [5.962377, 49.56587], [5.962339, 49.56591], [5.962255, 49.566013], [5.962149, 49.56613], [5.962038, 49.566277], [5.962023, 49.5663], [5.961931, 49.566433], [5.961855, 49.566555], [5.961832, 49.566586], [5.961801, 49.56664], [5.961767, 49.56669], [5.961668, 49.56686], [5.961595, 49.566998], [5.96155, 49.56711], [5.961534, 49.567158], [5.961527, 49.567192], [5.961515, 49.567238], [5.9615, 49.56731], [5.961481, 49.56738], [5.961435, 49.567482], [5.961367, 49.567623], [5.96129, 49.567772], [5.961214, 49.567917], [5.961183, 49.56798], [5.961172, 49.56801], [5.96113, 49.5681], [5.961588, 49.5683], [5.961721, 49.568356], [5.961801, 49.568386], [5.962061, 49.568497], [5.962397, 49.568653], [5.96282, 49.568848], [5.962885, 49.56888], [5.96314, 49.56898], [5.96327, 49.569035], [5.963728, 49.569206], [5.964209, 49.569393], [5.964735, 49.56959], [5.965204, 49.56977], [5.965563, 49.569912], [5.965982, 49.570087], [5.966322, 49.57023], [5.966658, 49.57037], [5.966639, 49.57041], [5.966909, 49.570473], [5.966955, 49.57036], [5.966993, 49.57036], [5.967264, 49.570377], [5.967623, 49.570446], [5.967768, 49.570477], [5.967981, 49.570515], [5.968164, 49.570545], [5.968428, 49.570576], [5.968592, 49.570583], [5.968939, 49.570553], [5.969023, 49.570553], [5.969263, 49.57057], [5.969484, 49.570595], [5.96966, 49.5706], [5.969805, 49.57059], [5.969988, 49.570568], [5.970278, 49.570522], [5.970526, 49.570484], [5.970587, 49.570473], [5.970663, 49.57046], [5.970747, 49.570435], [5.970781, 49.570423], [5.970907, 49.570377], [5.971079, 49.57029], [5.970823, 49.56972], [5.970652, 49.568947], [5.970545, 49.568443], [5.970533, 49.568394], [5.970667, 49.568264], [5.970865, 49.568123], [5.971128, 49.567955], [5.971144, 49.567997], [5.971258, 49.56824], [5.971388, 49.568176], [5.971537, 49.5681], [5.971731, 49.567986], [5.971834, 49.56793], [5.971952, 49.567856], [5.972174, 49.5677], [5.972311, 49.567585], [5.972414, 49.567486], [5.972483, 49.567413], [5.972544, 49.567345], [5.972696, 49.567184], [5.973268, 49.567417], [5.974291, 49.56785], [5.974943, 49.568134], [5.975267, 49.568287], [5.976065, 49.56817], [5.976648, 49.56809], [5.97685, 49.56805], [5.977159, 49.56795], [5.977259, 49.567947], [5.977549, 49.56782], [5.977804, 49.56769], [5.977942, 49.567608], [5.978113, 49.56747], [5.978277, 49.567326], [5.978476, 49.56722], [5.97864, 49.56713], [5.978884, 49.56699], [5.979177, 49.56681], [5.97962, 49.566517], [5.979372, 49.566387], [5.9792, 49.5663], [5.979166, 49.56628], [5.97888, 49.566135], [5.978586, 49.565987], [5.978712, 49.565838], [5.978937, 49.56555], [5.979017, 49.56545], [5.97909, 49.565372], [5.979139, 49.56532], [5.979261, 49.565224], [5.979368, 49.565136], [5.97957, 49.564987], [5.979982, 49.564697], [5.979899, 49.564663], [5.979624, 49.56456], [5.979803, 49.564404], [5.980001, 49.564217], [5.980085, 49.56414], [5.979853, 49.564056], [5.980028, 49.563793], [5.980269, 49.56344], [5.98044, 49.56319], [5.980585, 49.562984], [5.980639, 49.56291], [5.980593, 49.562893], [5.980833, 49.562576], [5.98131, 49.562782], [5.981718, 49.562954], [5.982077, 49.5631], [5.982439, 49.563236], [5.98266, 49.563316], [5.982904, 49.56313], [5.983152, 49.56294], [5.98329, 49.563023], [5.983625, 49.56318], [5.984117, 49.563408], [5.98472, 49.563683], [5.984892, 49.563763], [5.985235, 49.56392], [5.985937, 49.564255], [5.98599, 49.564278], [5.986093, 49.56418], [5.986208, 49.56407], [5.986277, 49.564003], [5.986902, 49.56427], [5.987303, 49.564445], [5.98802, 49.564774], [5.988096, 49.56471], [5.988142, 49.56467], [5.988325, 49.564514], [5.988611, 49.564644], [5.988794, 49.56473], [5.989103, 49.564877], [5.989187, 49.564903], [5.989794, 49.565044], [5.990019, 49.56509], [5.990026, 49.56513], [5.990084, 49.5654], [5.990484, 49.56537], [5.990881, 49.565323], [5.991278, 49.565266], [5.991636, 49.565197], [5.99201, 49.565098], [5.992468, 49.56494], [5.992651, 49.564873], [5.992777, 49.564964], [5.992792, 49.564976], [5.992903, 49.56506], [5.993113, 49.565193], [5.993185, 49.56531], [5.993311, 49.565506], [5.993509, 49.565796], [5.993647, 49.565994], [5.993647, 49.566086], [5.99365, 49.56638], [5.993544, 49.566708], [5.993578, 49.56671], [5.994497, 49.566814], [5.99441, 49.56721], [5.99431, 49.56774], [5.994303, 49.567787], [5.994299, 49.567806], [5.994288, 49.567924], [5.994268, 49.56807], [5.994253, 49.56823], [5.994245, 49.568283], [5.994242, 49.568302], [5.994238, 49.56834], [5.994226, 49.56844], [5.994215, 49.568554], [5.99383, 49.56851], [5.993658, 49.568485], [5.993452, 49.56845], [5.993048, 49.56836], [5.99301, 49.56847], [5.993418, 49.56861], [5.993551, 49.56865], [5.993746, 49.568687], [5.993971, 49.56871], [5.994211, 49.568726], [5.994226, 49.56887], [5.994234, 49.568954], [5.994242, 49.56902], [5.994245, 49.56906], [5.994249, 49.56908], [5.994398, 49.569046], [5.994833, 49.568993], [5.99518, 49.56895], [5.995527, 49.568897], [5.99589, 49.568832], [5.996073, 49.568794], [5.996256, 49.56874], [5.996435, 49.56871], [5.996447, 49.56872], [5.996813, 49.569054], [5.997045, 49.569256], [5.9974, 49.569187], [5.997595, 49.569145], [5.99782, 49.569275], [5.997831, 49.569286], [5.99814, 49.569466], [5.998243, 49.569523], [5.998381, 49.56961], [5.998609, 49.569748], [5.998903, 49.569927], [5.999159, 49.57008], [5.999426, 49.570236], [5.999456, 49.570255], [5.999479, 49.570267], [5.999517, 49.570293], [5.999323, 49.570427], [5.998869, 49.570778], [5.997973, 49.57161], [5.998034, 49.57161], [5.999525, 49.571938], [5.999739, 49.571987], [5.999754, 49.57199], [5.99991, 49.572025], [6.000055, 49.57206], [6.000074, 49.57175], [6.000307, 49.571804], [6.00033, 49.571808], [6.000799, 49.571915], [6.000521, 49.572365], [6.000902, 49.57251], [6.000792, 49.57267], [6.000753, 49.572735], [6.000734, 49.572796], [6.000723, 49.572845], [6.000723, 49.57289], [6.000727, 49.57299], [6.000731, 49.573124], [6.000738, 49.573284], [6.000773, 49.573418], [6.000959, 49.57341], [6.001017, 49.573536], [6.000998, 49.57359], [6.001059, 49.573605], [6.001116, 49.57368], [6.001181, 49.57376], [6.001268, 49.573944], [6.001348, 49.574047], [6.001432, 49.57414], [6.001535, 49.574223], [6.001574, 49.574253], [6.001783, 49.574425], [6.001985, 49.574596], [6.002256, 49.574844], [6.002535, 49.575073], [6.002714, 49.575214], [6.00305, 49.57548], [6.003546, 49.57589], [6.003622, 49.57595], [6.003675, 49.57599], [6.003771, 49.575947], [6.004168, 49.57614], [6.004351, 49.576233], [6.004785, 49.57646], [6.005007, 49.57658], [6.005095, 49.57663], [6.005365, 49.57677], [6.005606, 49.57688], [6.005468, 49.57696], [6.005289, 49.577072], [6.005236, 49.577106], [6.005323, 49.577267], [6.005358, 49.577312], [6.005403, 49.577362], [6.005533, 49.577454], [6.00561, 49.577496], [6.005716, 49.577553], [6.00635, 49.577847], [6.006762, 49.578053], [6.006803, 49.578068], [6.006864, 49.578083], [6.006899, 49.57809], [6.007013, 49.578083], [6.006994, 49.578106], [6.006857, 49.578316], [6.006987, 49.57837], [6.007158, 49.578438], [6.00725, 49.57848], [6.007326, 49.57853], [6.007383, 49.57858], [6.007433, 49.578648], [6.007498, 49.578747], [6.007524, 49.578777], [6.007559, 49.5788], [6.007589, 49.578815], [6.007647, 49.578827], [6.007719, 49.57884], [6.007807, 49.57885], [6.007948, 49.57885], [6.008135, 49.578903], [6.00897, 49.57915], [6.009485, 49.579304], [6.009836, 49.579407], [6.009912, 49.579426], [6.009745, 49.57955], [6.009722, 49.57957], [6.009756, 49.579582], [6.009535, 49.57975], [6.00976, 49.57982], [6.010237, 49.579967], [6.010515, 49.580044], [6.011156, 49.580215], [6.011431, 49.58029], [6.011656, 49.580353], [6.012438, 49.580578], [6.012457, 49.58058], [6.012529, 49.5806], [6.013403, 49.58083], [6.013876, 49.58101], [6.014326, 49.581306], [6.014387, 49.581345], [6.014437, 49.58138], [6.014605, 49.58149], [6.014441, 49.581654], [6.014772, 49.58179], [6.014883, 49.581818], [6.01499, 49.581844], [6.015257, 49.581905], [6.015547, 49.58196], [6.015745, 49.581997], [6.015974, 49.582043], [6.016268, 49.58213], [6.016725, 49.58227], [6.017096, 49.582386], [6.017488, 49.5825], [6.017759, 49.58258], [6.017893, 49.582623], [6.01803, 49.58266], [6.018087, 49.58268], [6.01816, 49.582714], [6.018305, 49.58278], [6.018541, 49.58286], [6.018919, 49.582996], [6.019121, 49.583065], [6.019209, 49.583096], [6.019449, 49.583183], [6.019541, 49.583214], [6.019659, 49.583252], [6.019758, 49.58327], [6.019815, 49.58329], [6.019876, 49.583313], [6.019911, 49.58333], [6.019964, 49.58334], [6.020067, 49.583355], [6.020132, 49.583366], [6.020197, 49.58339], [6.020235, 49.583405], [6.020269, 49.583416], [6.020323, 49.583427], [6.020353, 49.58343], [6.020388, 49.583435], [6.020437, 49.58345], [6.020521, 49.583477], [6.020578, 49.583485], [6.020658, 49.58349], [6.020742, 49.583496], [6.020815, 49.58352], [6.020876, 49.583538], [6.020933, 49.583546], [6.020998, 49.58355], [6.021059, 49.58355], [6.0212, 49.583557], [6.021334, 49.58357], [6.021429, 49.58358], [6.021536, 49.583588], [6.021673, 49.583595], [6.022142, 49.583317], [6.022467, 49.583122], [6.022554, 49.58323], [6.022581, 49.58326], [6.022631, 49.5833], [6.022673, 49.58334], [6.022707, 49.583397], [6.022745, 49.583447], [6.022776, 49.583473], [6.022825, 49.583496], [6.022886, 49.58352], [6.023016, 49.583572], [6.023058, 49.583588], [6.023256, 49.58369], [6.023516, 49.583836], [6.023909, 49.584026], [6.02413, 49.584145], [6.024187, 49.58419], [6.024313, 49.584305], [6.024553, 49.584553], [6.024843, 49.584812], [6.024965, 49.584713], [6.025003, 49.584686], [6.025538, 49.584263], [6.025976, 49.584423], [6.026297, 49.584534], [6.026381, 49.58456], [6.026609, 49.584625], [6.026732, 49.584652], [6.026823, 49.584663], [6.026918, 49.584496], [6.027021, 49.584328], [6.027094, 49.584213], [6.027144, 49.584145], [6.027197, 49.584076], [6.027311, 49.58392], [6.027315, 49.583908], [6.027338, 49.583874], [6.027376, 49.58379], [6.027597, 49.58331], [6.02767, 49.583107], [6.027773, 49.582825], [6.027823, 49.582767], [6.027842, 49.58263], [6.028219, 49.58179], [6.028288, 49.581806], [6.028349, 49.581825], [6.029432, 49.582138], [6.029516, 49.58187], [6.029715, 49.581905], [6.030222, 49.581997], [6.030664, 49.582073], [6.031111, 49.582153], [6.031401, 49.5822], [6.031565, 49.582226], [6.03171, 49.582256], [6.031958, 49.582302], [6.032198, 49.58234], [6.032484, 49.58236], [6.032709, 49.582363], [6.033216, 49.58243], [6.033716, 49.582504], [6.033594, 49.582695], [6.033228, 49.58325], [6.032965, 49.583645], [6.032858, 49.583836], [6.032839, 49.583878], [6.032831, 49.58389], [6.032801, 49.583942], [6.032732, 49.584064], [6.032713, 49.5841], [6.032705, 49.58411], [6.032663, 49.584293], [6.032614, 49.584526], [6.032591, 49.584637], [6.03256, 49.584774], [6.032507, 49.58503], [6.032495, 49.58507], [6.032469, 49.585205], [6.032385, 49.585564], [6.032377, 49.585594], [6.032366, 49.585655], [6.032762, 49.58573], [6.03311, 49.585773], [6.033266, 49.58579], [6.033506, 49.58581], [6.033686, 49.585827], [6.03388, 49.58584], [6.034193, 49.585857], [6.034357, 49.585865], [6.034502, 49.585873], [6.034628, 49.585876], [6.034677, 49.58588], [6.034738, 49.585884], [6.034941, 49.58589], [6.035013, 49.585896], [6.035234, 49.5859], [6.035368, 49.5859], [6.035467, 49.585903], [6.035891, 49.585903], [6.035948, 49.585907], [6.036074, 49.585907], [6.036467, 49.585915], [6.037489, 49.585915], [6.037306, 49.58612], [6.037821, 49.586266], [6.038168, 49.586376], [6.038279, 49.58641], [6.038534, 49.586494], [6.038614, 49.586517], [6.038752, 49.586548], [6.038973, 49.586594], [6.039095, 49.586613], [6.039465, 49.586655], [6.039865, 49.58668], [6.040075, 49.586647], [6.040304, 49.586613], [6.040556, 49.586433], [6.040834, 49.586285], [6.04093, 49.58592], [6.041075, 49.58566], [6.041082, 49.585445], [6.041067, 49.585354], [6.040896, 49.585167], [6.040701, 49.5849], [6.040556, 49.584812], [6.040239, 49.584618], [6.039995, 49.58444], [6.039896, 49.584236], [6.040091, 49.584225], [6.040255, 49.584213], [6.040487, 49.584198], [6.040705, 49.58421], [6.040873, 49.58422], [6.040979, 49.58423], [6.041578, 49.584263], [6.041681, 49.584267], [6.041803, 49.584274], [6.041842, 49.584282], [6.041883, 49.58429], [6.041983, 49.584316], [6.042215, 49.584373], [6.042242, 49.58438], [6.042574, 49.58446], [6.042826, 49.584522], [6.043024, 49.58457], [6.04339, 49.584663], [6.043467, 49.584682], [6.043585, 49.58471], [6.043779, 49.58475], [6.04384, 49.584766], [6.044054, 49.584816], [6.044149, 49.584827], [6.044397, 49.584858], [6.044737, 49.58489], [6.045023, 49.5849], [6.045408, 49.584923], [6.045649, 49.584873], [6.045809, 49.584843], [6.046339, 49.584816], [6.04661, 49.584843], [6.046625, 49.584774], [6.046644, 49.584705], [6.04669, 49.58452], [6.046484, 49.584385], [6.046198, 49.583733], [6.046022, 49.583477], [6.045931, 49.58334], [6.045855, 49.58322], [6.045675, 49.582954], [6.045637, 49.58283], [6.045553, 49.582573], [6.045507, 49.582424], [6.045443, 49.582253], [6.045343, 49.581974], [6.045298, 49.581856], [6.045229, 49.581665], [6.045206, 49.58161], [6.045149, 49.581394], [6.045115, 49.581203], [6.045092, 49.58106], [6.045076, 49.580925], [6.045038, 49.580566], [6.044973, 49.580276], [6.044924, 49.580025], [6.04492, 49.580013], [6.044867, 49.579735], [6.045244, 49.57973], [6.046042, 49.579716], [6.04616, 49.579716], [6.046171, 49.579624], [6.046186, 49.579567], [6.046221, 49.57951], [6.046274, 49.579456], [6.046324, 49.57943], [6.046385, 49.579414], [6.046537, 49.5794], [6.046633, 49.57939], [6.046812, 49.579388], [6.046812, 49.579414], [6.047133, 49.579445], [6.047331, 49.57947], [6.047541, 49.5795], [6.047647, 49.57954], [6.047827, 49.579628], [6.047895, 49.57965], [6.047968, 49.57968], [6.04809, 49.579723], [6.048231, 49.579765], [6.048342, 49.579792], [6.048483, 49.579815], [6.048651, 49.57984], [6.048929, 49.579872], [6.049013, 49.579876], [6.049044, 49.579494], [6.049074, 49.579147], [6.049089, 49.579063], [6.049097, 49.579014], [6.049166, 49.578617], [6.048975, 49.578606], [6.04883, 49.578514], [6.048567, 49.57828], [6.04851, 49.57823], [6.048384, 49.578037], [6.048265, 49.577847], [6.048235, 49.57779], [6.048201, 49.577717], [6.048334, 49.57748], [6.048368, 49.57742], [6.048517, 49.577206], [6.048601, 49.577087], [6.048643, 49.57703], [6.048788, 49.57686], [6.048815, 49.576824], [6.048906, 49.576595], [6.048998, 49.57636], [6.049013, 49.576336], [6.048708, 49.57611], [6.048586, 49.576035], [6.047953, 49.57562], [6.047991, 49.575527], [6.048037, 49.575462], [6.048067, 49.57543], [6.048094, 49.57541], [6.04817, 49.57537], [6.04825, 49.57534], [6.048521, 49.57523], [6.048601, 49.575188], [6.048662, 49.57514], [6.048971, 49.57489], [6.048834, 49.574825], [6.048658, 49.574745], [6.048533, 49.57469], [6.048449, 49.57466], [6.048353, 49.574627], [6.04814, 49.574577], [6.047983, 49.574547], [6.047846, 49.574543], [6.047682, 49.57455], [6.047564, 49.57457], [6.047602, 49.574455], [6.047655, 49.5743], [6.047895, 49.57367], [6.047945, 49.57356], [6.048002, 49.573444], [6.048033, 49.573406], [6.048143, 49.57321], [6.048197, 49.57311], [6.048262, 49.572964], [6.048384, 49.572685], [6.048521, 49.572376], [6.048571, 49.572258], [6.048628, 49.572113], [6.048704, 49.5719], [6.04875, 49.57178], [6.048773, 49.571712], [6.048807, 49.57162], [6.049337, 49.571747], [6.049799, 49.571056], [6.049734, 49.571037], [6.049517, 49.570995], [6.049292, 49.57096], [6.048887, 49.570896], [6.048559, 49.570835], [6.048422, 49.570797], [6.048296, 49.57074], [6.048216, 49.570698], [6.048067, 49.570618], [6.047892, 49.570515], [6.047663, 49.57037], [6.047567, 49.570312], [6.046781, 49.56979], [6.046686, 49.56973], [6.045855, 49.57019], [6.04553, 49.57035], [6.045187, 49.570114], [6.044847, 49.569942], [6.044634, 49.56988], [6.044325, 49.56984], [6.043623, 49.5696], [6.042074, 49.56983], [6.040873, 49.57025], [6.04064, 49.570316], [6.040392, 49.570354], [6.040182, 49.57034], [6.039621, 49.570305], [6.038557, 49.56989], [6.037867, 49.569557], [6.037405, 49.569347], [6.037424, 49.569317], [6.037607, 49.56899], [6.037813, 49.568626], [6.037977, 49.568295], [6.038134, 49.567917], [6.03824, 49.56763], [6.038435, 49.56704], [6.038458, 49.566936], [6.038477, 49.566868], [6.038477, 49.566822], [6.038267, 49.56637], [6.038317, 49.566357], [6.038424, 49.566334], [6.038557, 49.566307], [6.038641, 49.566296], [6.038767, 49.566284], [6.038817, 49.56628], [6.038866, 49.566277], [6.039, 49.56627], [6.039137, 49.56626], [6.039255, 49.566257], [6.039392, 49.56625], [6.039534, 49.56625], [6.039599, 49.566254], [6.039663, 49.566257], [6.039804, 49.56627], [6.039816, 49.566265], [6.0399, 49.566254], [6.04035, 49.566086], [6.040247, 49.5659], [6.040087, 49.565617], [6.040026, 49.565483], [6.039923, 49.565292], [6.03985, 49.565174], [6.039747, 49.56505], [6.039629, 49.56492], [6.039461, 49.564747], [6.039167, 49.56449], [6.039133, 49.564457], [6.039053, 49.564384], [6.038817, 49.56414], [6.038698, 49.56402], [6.038309, 49.563858], [6.038771, 49.56347], [6.038832, 49.56341], [6.038992, 49.563274], [6.039038, 49.563232], [6.039133, 49.56315], [6.039236, 49.56306], [6.039278, 49.563026], [6.039518, 49.562813], [6.039572, 49.562767], [6.039618, 49.56273], [6.039812, 49.56256], [6.039862, 49.56252], [6.039907, 49.56248], [6.039686, 49.56239], [6.039762, 49.56233], [6.039789, 49.56231], [6.039843, 49.562267], [6.039888, 49.562233], [6.039915, 49.562214], [6.039938, 49.562195], [6.039991, 49.562153], [6.040365, 49.561863], [6.04051, 49.561752], [6.040758, 49.561558], [6.04085, 49.56149], [6.041395, 49.561626], [6.041586, 49.56137], [6.04167, 49.56126], [6.041929, 49.561317], [6.042017, 49.561337], [6.042093, 49.561108], [6.042181, 49.5608], [6.042295, 49.560394], [6.04236, 49.560085], [6.042372, 49.560017], [6.042379, 49.55995], [6.042376, 49.559906], [6.042356, 49.559765], [6.042311, 49.5594], [6.042307, 49.559364], [6.041983, 49.55912], [6.042006, 49.559063], [6.042109, 49.558777], [6.042154, 49.558655], [6.042292, 49.55827], [6.04257, 49.55767], [6.042639, 49.55753], [6.042726, 49.557426], [6.042906, 49.55722], [6.042974, 49.557137], [6.043119, 49.55695], [6.043215, 49.556786], [6.04331, 49.556606], [6.04339, 49.556458], [6.043432, 49.556377], [6.043451, 49.556347], [6.043493, 49.556293], [6.043566, 49.556232], [6.04373, 49.556103], [6.043791, 49.55605], [6.043955, 49.555912], [6.044004, 49.55586], [6.04421, 49.55563], [6.044268, 49.55557], [6.044481, 49.555317], [6.044603, 49.555145], [6.04487, 49.554745], [6.044894, 49.554711], [6.044985, 49.55458], [6.045069, 49.55445], [6.04505, 49.554375], [6.045046, 49.55435], [6.045023, 49.554226], [6.045034, 49.554073], [6.045084, 49.554054], [6.045137, 49.554028], [6.045206, 49.554], [6.045275, 49.55397], [6.045584, 49.553837], [6.045713, 49.553665], [6.045801, 49.55356], [6.045904, 49.553474], [6.04595, 49.55344], [6.045988, 49.553417], [6.046042, 49.553387], [6.046144, 49.553337], [6.046198, 49.55331], [6.046221, 49.553272], [6.046274, 49.553173], [6.046324, 49.553085], [6.046381, 49.552994], [6.046503, 49.55293], [6.046572, 49.552895], [6.046629, 49.552864], [6.04674, 49.552807], [6.046862, 49.55274], [6.046953, 49.552692], [6.047258, 49.552532], [6.047171, 49.55244], [6.047163, 49.55243], [6.046854, 49.552105], [6.046831, 49.551987], [6.046816, 49.55179], [6.046793, 49.55163], [6.046774, 49.551464], [6.046751, 49.551346], [6.046717, 49.55124], [6.046682, 49.55115], [6.046633, 49.55105], [6.046587, 49.55092], [6.046545, 49.550804], [6.046514, 49.550716], [6.04648, 49.55061], [6.046431, 49.550407], [6.046343, 49.55009], [6.046312, 49.550022], [6.046286, 49.549953], [6.046076, 49.549873], [6.046049, 49.549866], [6.044573, 49.549324], [6.044393, 49.54926], [6.043829, 49.549038], [6.043169, 49.548733], [6.042993, 49.548645], [6.042597, 49.54844], [6.042421, 49.54835], [6.041902, 49.54812], [6.041525, 49.547962], [6.041323, 49.547886], [6.041048, 49.547787], [6.040991, 49.547764], [6.04112, 49.54752], [6.041262, 49.54727], [6.041407, 49.547066], [6.041517, 49.546906], [6.041437, 49.546875], [6.041254, 49.546806], [6.040888, 49.546665], [6.040548, 49.546535], [6.040186, 49.546394], [6.039877, 49.546272], [6.03956, 49.54614], [6.03919, 49.545982], [6.038923, 49.54587], [6.038771, 49.545815], [6.038618, 49.545765], [6.038313, 49.545677], [6.037882, 49.545555], [6.037489, 49.54545], [6.037165, 49.545357], [6.037096, 49.545338], [6.037058, 49.545322], [6.037073, 49.545044], [6.037081, 49.544933], [6.037108, 49.544834], [6.037157, 49.54474], [6.03713, 49.544724], [6.036882, 49.54464], [6.036619, 49.544544], [6.036314, 49.544422], [6.035826, 49.54422], [6.035501, 49.54409], [6.035135, 49.543945], [6.035151, 49.543903], [6.035253, 49.543644], [6.035269, 49.543613], [6.035273, 49.543602], [6.035337, 49.543446], [6.035349, 49.543415], [6.035364, 49.54339], [6.035101, 49.54335], [6.035128, 49.543285], [6.034834, 49.54323], [6.034948, 49.54301], [6.034872, 49.543], [6.03441, 49.542934], [6.034456, 49.542854], [6.034239, 49.542805], [6.0343, 49.542698], [6.034239, 49.542686], [6.034201, 49.54268], [6.033949, 49.542633], [6.033377, 49.542484], [6.0319, 49.542095], [6.031218, 49.54191], [6.03087, 49.541813], [6.029962, 49.541534], [6.029638, 49.541435], [6.029333, 49.54134], [6.028956, 49.541225], [6.029135, 49.54099], [6.029177, 49.540947], [6.029219, 49.54091], [6.029265, 49.540863], [6.028956, 49.54069], [6.028799, 49.5406], [6.028635, 49.54051], [6.028479, 49.54041], [6.028048, 49.54013], [6.027857, 49.540005], [6.027582, 49.53983], [6.027227, 49.539597], [6.026957, 49.53942], [6.027075, 49.539303], [6.026949, 49.539227], [6.026564, 49.53901], [6.02627, 49.53884], [6.025702, 49.538517], [6.025484, 49.53839], [6.025263, 49.538265], [6.024876, 49.538049], [6.024576, 49.53788], [6.024485, 49.537827], [6.024455, 49.537809], [6.024378, 49.537764], [6.024366, 49.53776], [6.024202, 49.537664], [6.023745, 49.537405], [6.023638, 49.53734], [6.02355, 49.537291], [6.02353, 49.537271], [6.023416, 49.53711], [6.023252, 49.536873], [6.023157, 49.53674], [6.022825, 49.53627], [6.022711, 49.5363], [6.022669, 49.536312], [6.022596, 49.53633], [6.022539, 49.536354], [6.022451, 49.5364], [6.022348, 49.536457], [6.022112, 49.536613], [6.022024, 49.53668], [6.021913, 49.53677], [6.021902, 49.536766], [6.021891, 49.53676], [6.021647, 49.536648], [6.021322, 49.53651], [6.021166, 49.536453], [6.021017, 49.5364], [6.020804, 49.53633], [6.020773, 49.536324], [6.020597, 49.53628], [6.020453, 49.53625], [6.020205, 49.536205], [6.020185, 49.536278], [6.019999, 49.53627], [6.019754, 49.536263], [6.019548, 49.53626], [6.019396, 49.536255], [6.019194, 49.536255], [6.018946, 49.536266], [6.018499, 49.53629], [6.018095, 49.53631], [6.017641, 49.536327], [6.017195, 49.53635], [6.017176, 49.536396], [6.017096, 49.536583], [6.016745, 49.536503], [6.016138, 49.53636], [6.016119, 49.536358], [6.015951, 49.53632], [6.015886, 49.536304], [6.015818, 49.536285], [6.015684, 49.53625], [6.015581, 49.53623], [6.015287, 49.53616], [6.015261, 49.53615], [6.015219, 49.53614], [6.015032, 49.5361], [6.014765, 49.53604], [6.01425, 49.535934], [6.013876, 49.535866], [6.013586, 49.535812], [6.013185, 49.53575], [6.013189, 49.535763], [6.013185, 49.535816], [6.013182, 49.535847], [6.013174, 49.535873], [6.013121, 49.536114], [6.013098, 49.536213], [6.01293, 49.53619], [6.01288, 49.536186], [6.012533, 49.536144], [6.012472, 49.536133], [6.012423, 49.536133], [6.012316, 49.536125], [6.012034, 49.536114], [6.011816, 49.536102], [6.011671, 49.53618], [6.011335, 49.53635], [6.01092, 49.536568], [6.010546, 49.536766], [6.010286, 49.536907], [6.010015, 49.537056], [6.009989, 49.53707], [6.010084, 49.537167], [6.010225, 49.537304], [6.010313, 49.53739], [6.010466, 49.537544], [6.010344, 49.537598], [6.009962, 49.53775], [6.009661, 49.537876], [6.009523, 49.53793], [6.009417, 49.537964], [6.009317, 49.537987], [6.009233, 49.538002], [6.009138, 49.538017], [6.009008, 49.538036], [6.008829, 49.53806], [6.008703, 49.538074], [6.008593, 49.538082], [6.008482, 49.538094], [6.008406, 49.538097], [6.008249, 49.538105], [6.008131, 49.538105], [6.008017, 49.53811], [6.007887, 49.538105], [6.007818, 49.538277], [6.007673, 49.53862], [6.007601, 49.5388], [6.007509, 49.538784], [6.007494, 49.53878], [6.007174, 49.538727], [6.007155, 49.538776], [6.007147, 49.538788], [6.007139, 49.53881], [6.007116, 49.53886], [6.007086, 49.538937], [6.006929, 49.53929], [6.006853, 49.53946], [6.006826, 49.539516], [6.00672, 49.539757], [6.006704, 49.53979], [6.0067, 49.539803], [6.006693, 49.539814], [6.006662, 49.53988], [6.006651, 49.539913], [6.006617, 49.53998], [6.006556, 49.540123], [6.006529, 49.540176], [6.006514, 49.54022], [6.006506, 49.540234], [6.006494, 49.540253], [6.006475, 49.540295], [6.006472, 49.54031], [6.006407, 49.540447], [6.006403, 49.54046], [6.006353, 49.540565], [6.00635, 49.540577], [6.006262, 49.540768], [6.00585, 49.540623], [6.005526, 49.54051], [6.005297, 49.54042], [6.004839, 49.540253], [6.004633, 49.54039], [6.00461, 49.54041], [6.004595, 49.540417], [6.004244, 49.54065], [6.004103, 49.540745], [6.004003, 49.540817], [6.00392, 49.54089], [6.003851, 49.540947], [6.00382, 49.540974], [6.003664, 49.541092], [6.003252, 49.541344], [6.003218, 49.541363], [6.002497, 49.541817], [6.002184, 49.542015], [6.001955, 49.54217], [6.001764, 49.5423], [6.001711, 49.54231], [6.001658, 49.542313], [6.001581, 49.542374], [6.00157, 49.54239], [6.001555, 49.5424], [6.001539, 49.54242], [6.001501, 49.54246], [6.001486, 49.54248], [6.001444, 49.54253], [6.001432, 49.542538], [6.001421, 49.542545], [6.001314, 49.542583], [6.001238, 49.542606], [6.001181, 49.54262], [6.001158, 49.542625], [6.001127, 49.542633], [6.001074, 49.542645], [6.00104, 49.54265], [6.001017, 49.542656], [6.00094, 49.542667], [6.000841, 49.542686], [6.000605, 49.54273], [6.000589, 49.542732], [6.000498, 49.54275], [6.00033, 49.54278], [6.000292, 49.54279], [6.000147, 49.54282], [6.000094, 49.54283], [6.000021, 49.542847], [5.999937, 49.542862], [5.999777, 49.542896], [5.999617, 49.542927], [5.999502, 49.542953], [5.999403, 49.542973], [5.999346, 49.542984], [5.999227, 49.543003], [5.999174, 49.543007], [5.999086, 49.543015], [5.998892, 49.543022], [5.998766, 49.543026], [5.998716, 49.54303], [5.998587, 49.54303], [5.998445, 49.543026], [5.998285, 49.54302], [5.998167, 49.543015], [5.997915, 49.54299], [5.997767, 49.542973], [5.997652, 49.542953], [5.997534, 49.54293], [5.997366, 49.5429], [5.997293, 49.54321], [5.997282, 49.543262], [5.997267, 49.543316], [5.997248, 49.543396], [5.997206, 49.54359], [5.997187, 49.543686], [5.99716, 49.543797], [5.997148, 49.54385], [5.997126, 49.543972], [5.997038, 49.54397], [5.996962, 49.54396], [5.996855, 49.54395], [5.996771, 49.54394], [5.996645, 49.543926], [5.996527, 49.543907], [5.996241, 49.543858], [5.996061, 49.543816], [5.995855, 49.54377], [5.995813, 49.54376], [5.995333, 49.54363], [5.995295, 49.543682], [5.995142, 49.5439], [5.995119, 49.543926], [5.994867, 49.54384], [5.994444, 49.543697], [5.994162, 49.54363], [5.994017, 49.543594], [5.993998, 49.543617], [5.993978, 49.543644], [5.993891, 49.543762], [5.993727, 49.543972], [5.99362, 49.5441], [5.993589, 49.54414], [5.993517, 49.54424], [5.993277, 49.54448], [5.993174, 49.544575], [5.993067, 49.54467], [5.992968, 49.54475], [5.99275, 49.54493], [5.992678, 49.54496], [5.992464, 49.54504], [5.992338, 49.54508], [5.992239, 49.545097], [5.992029, 49.545113], [5.991976, 49.545128], [5.991926, 49.54516], [5.991911, 49.54519], [5.991907, 49.54524], [5.991865, 49.54528], [5.991797, 49.54532], [5.99172, 49.54537], [5.991613, 49.54546], [5.991552, 49.5455], [5.991487, 49.54553], [5.991381, 49.545563], [5.991342, 49.545593], [5.991324, 49.545647], [5.991312, 49.545696], [5.991297, 49.545723], [5.991278, 49.545734], [5.991243, 49.545742], [5.991198, 49.545746], [5.991137, 49.54575], [5.990999, 49.54579], [5.990923, 49.54581], [5.990755, 49.545845], [5.990545, 49.54591], [5.990469, 49.54594], [5.990427, 49.54597], [5.990419, 49.546], [5.990423, 49.546043], [5.990446, 49.546097], [5.990461, 49.54613], [5.990457, 49.54616], [5.990435, 49.54619], [5.990389, 49.5462], [5.990335, 49.54619], [5.990236, 49.546154], [5.990152, 49.546127], [5.990072, 49.546116], [5.990011, 49.54612], [5.989908, 49.546154], [5.989786, 49.546192], [5.989698, 49.54621], [5.989634, 49.54621], [5.989554, 49.546196], [5.989397, 49.54616], [5.98929, 49.546146], [5.988962, 49.546097], [5.98881, 49.54607], [5.98871, 49.546047], [5.988657, 49.546024], [5.988634, 49.546], [5.988615, 49.545937], [5.988592, 49.54591], [5.988535, 49.545887], [5.988466, 49.54588], [5.988382, 49.545883], [5.988371, 49.545895], [5.98834, 49.545944], [5.988283, 49.545925], [5.988249, 49.545918], [5.988218, 49.545914], [5.988157, 49.545914], [5.988127, 49.54592], [5.988085, 49.545933], [5.98802, 49.545956], [5.987974, 49.54597], [5.987921, 49.54599], [5.987879, 49.546005], [5.987825, 49.54602], [5.98778, 49.54603], [5.987738, 49.54604], [5.987692, 49.546047], [5.987608, 49.546062], [5.987585, 49.546074], [5.987558, 49.54609], [5.987535, 49.5461], [5.987509, 49.546124], [5.98749, 49.546146], [5.987455, 49.54619], [5.987387, 49.546284], [5.987329, 49.546375], [5.987295, 49.546425], [5.987253, 49.54647], [5.987192, 49.54654], [5.987112, 49.546627], [5.987074, 49.546665], [5.987013, 49.54673], [5.986788, 49.546955], [5.986574, 49.546886], [5.986307, 49.547142], [5.986036, 49.547436], [5.98591, 49.547565], [5.985758, 49.547726], [5.985727, 49.547752], [5.985678, 49.547787], [5.985487, 49.5479], [5.985407, 49.54795], [5.985331, 49.548004], [5.985273, 49.54805], [5.985224, 49.5481], [5.985132, 49.548203], [5.985029, 49.54832], [5.984892, 49.54846], [5.984781, 49.548565], [5.984755, 49.548588], [5.984697, 49.548645], [5.984625, 49.548714], [5.98448, 49.548855], [5.984152, 49.54918], [5.984117, 49.549213], [5.984106, 49.549225], [5.983923, 49.549435], [5.983782, 49.54961], [5.983694, 49.54973], [5.98337, 49.550163], [5.983328, 49.550194], [5.983133, 49.550343], [5.982901, 49.55051], [5.982672, 49.550663], [5.982256, 49.55088], [5.981974, 49.55102], [5.981871, 49.551075], [5.981749, 49.551136], [5.981737, 49.55114], [5.98152, 49.551243], [5.981352, 49.55132], [5.981318, 49.551334], [5.981153, 49.551407], [5.980978, 49.551476], [5.980665, 49.551586], [5.980486, 49.551643], [5.980318, 49.551693], [5.980108, 49.55175], [5.980017, 49.551777], [5.97962, 49.55187], [5.979502, 49.551907], [5.979311, 49.55201], [5.979292, 49.552017], [5.979239, 49.55204], [5.979158, 49.552063], [5.979116, 49.55207], [5.979075, 49.552074], [5.978861, 49.55209], [5.978682, 49.5521], [5.978323, 49.55208], [5.977747, 49.552044], [5.977522, 49.552032], [5.977354, 49.55205], [5.977182, 49.552074], [5.977121, 49.55211], [5.976835, 49.552273], [5.97674, 49.55229], [5.976618, 49.55232], [5.976366, 49.55232], [5.976313, 49.552326], [5.976095, 49.552353], [5.975637, 49.552383], [5.975496, 49.552395], [5.974932, 49.552395], [5.974901, 49.552418], [5.974825, 49.55241], [5.974775, 49.552406], [5.97447, 49.552387], [5.974401, 49.55238], [5.973734, 49.552265], [5.973715, 49.55229], [5.973535, 49.552284], [5.973471, 49.55224], [5.973326, 49.55222], [5.973291, 49.552216], [5.973043, 49.552177], [5.972879, 49.552155], [5.972666, 49.552166], [5.972631, 49.55217], [5.97246, 49.552177], [5.972204, 49.55217], [5.971602, 49.55215], [5.970953, 49.55197], [5.970408, 49.551823], [5.970243, 49.551777], [5.96998, 49.55171], [5.969809, 49.551662], [5.96945, 49.551598], [5.969187, 49.551548], [5.969095, 49.551533], [5.968748, 49.550735], [5.96871, 49.55059], [5.968855, 49.55011], [5.969191, 49.549175], [5.969423, 49.54836], [5.969446, 49.54824], [5.969408, 49.548176], [5.969427, 49.548107], [5.969435, 49.548027], [5.969454, 49.547894], [5.969507, 49.54757], [5.969523, 49.54747], [5.969473, 49.547466], [5.969416, 49.547466], [5.96908, 49.547455], [5.968962, 49.54745], [5.968859, 49.547447], [5.968767, 49.547447], [5.968496, 49.547436], [5.967566, 49.54741], [5.967558, 49.5475], [5.967554, 49.54754], [5.967554, 49.547558], [5.96755, 49.54758], [5.96755, 49.547592], [5.967009, 49.54746], [5.966574, 49.547348], [5.966135, 49.54724], [5.966101, 49.54723], [5.965597, 49.547104], [5.965597, 49.547077], [5.965612, 49.54678], [5.964945, 49.546688], [5.964144, 49.546574], [5.964132, 49.54657], [5.964117, 49.54657], [5.96401, 49.54655], [5.963854, 49.546528], [5.963785, 49.546516], [5.963774, 49.546516], [5.963697, 49.546505], [5.963575, 49.546482], [5.963453, 49.546463], [5.963419, 49.54646], [5.963407, 49.54646], [5.963377, 49.546455], [5.963297, 49.546444], [5.963175, 49.54643], [5.963106, 49.546425], [5.963053, 49.546417], [5.963003, 49.546413], [5.962153, 49.546413], [5.962156, 49.54639], [5.96216, 49.546345], [5.962179, 49.54615], [5.962187, 49.54605], [5.962221, 49.54569], [5.96192, 49.54566], [5.961271, 49.545597], [5.961161, 49.545635], [5.961107, 49.54572], [5.961084, 49.545895], [5.96105, 49.5462], [5.960985, 49.546585], [5.960924, 49.54702], [5.960825, 49.54767], [5.960752, 49.54817], [5.960749, 49.548233], [5.960745, 49.548317]]]]}}]}