{"type": "FeatureCollection", "features": [{"type": "Feature", "properties": {"name": "Feulen"}, "geometry": {"type": "MultiPolygon", "coordinates": [[[[5.985464, 49.862904], [5.985678, 49.862904], [5.985907, 49.862896], [5.986052, 49.862892], [5.98636, 49.86287], [5.986471, 49.86286], [5.986681, 49.862843], [5.98691, 49.862812], [5.987242, 49.862766], [5.987593, 49.862713], [5.987783, 49.862682], [5.987806, 49.862663], [5.987841, 49.86264], [5.98794, 49.862564], [5.988066, 49.86248], [5.988199, 49.862404], [5.988462, 49.86227], [5.988676, 49.862164], [5.988798, 49.862095], [5.988951, 49.862003], [5.989046, 49.86194], [5.98913, 49.861877], [5.989283, 49.861755], [5.989382, 49.86168], [5.989458, 49.861637], [5.989573, 49.861603], [5.989668, 49.861576], [5.989794, 49.861546], [5.989946, 49.861492], [5.990011, 49.861458], [5.990049, 49.861427], [5.990068, 49.861393], [5.990095, 49.8613], [5.99016, 49.861355], [5.990572, 49.8617], [5.990744, 49.861702], [5.990873, 49.861713], [5.991003, 49.86174], [5.991114, 49.861767], [5.99114, 49.861774], [5.991339, 49.86187], [5.99156, 49.861973], [5.991831, 49.862106], [5.991983, 49.862175], [5.992113, 49.862217], [5.99222, 49.862247], [5.992315, 49.86227], [5.992464, 49.862297], [5.99272, 49.862335], [5.992857, 49.862347], [5.993002, 49.862354], [5.993147, 49.86236], [5.993238, 49.86235], [5.99341, 49.86232], [5.993486, 49.862293], [5.993765, 49.86238], [5.993792, 49.86239], [5.993815, 49.862396], [5.993998, 49.862453], [5.994135, 49.8625], [5.994097, 49.862606], [5.994074, 49.862713], [5.994066, 49.862793], [5.994051, 49.862843], [5.994039, 49.862877], [5.99399, 49.862988], [5.993936, 49.863075], [5.99386, 49.863155], [5.993773, 49.863243], [5.993666, 49.86333], [5.993837, 49.86341], [5.994558, 49.863758], [5.994787, 49.86387], [5.995005, 49.863968], [5.995523, 49.86422], [5.995951, 49.864414], [5.995966, 49.864418], [5.996008, 49.864437], [5.996241, 49.864536], [5.996427, 49.86461], [5.996603, 49.86467], [5.996901, 49.864784], [5.997213, 49.864902], [5.997797, 49.86512], [5.997702, 49.865192], [5.997648, 49.865234], [5.997595, 49.86526], [5.997366, 49.865345], [5.997229, 49.86538], [5.99716, 49.8654], [5.997084, 49.865417], [5.997026, 49.865444], [5.996916, 49.865536], [5.996717, 49.865692], [5.996557, 49.86581], [5.996492, 49.86586], [5.996073, 49.86617], [5.996035, 49.866196], [5.995977, 49.86622], [5.995756, 49.866264], [5.995741, 49.866272], [5.995729, 49.866283], [5.995726, 49.866386], [5.99571, 49.866432], [5.995653, 49.866524], [5.995405, 49.866913], [5.995359, 49.867], [5.995333, 49.867085], [5.995314, 49.86713], [5.995237, 49.86724], [5.995146, 49.867374], [5.995081, 49.86744], [5.995027, 49.867474], [5.994963, 49.86751], [5.994932, 49.867542], [5.994905, 49.867596], [5.994879, 49.86768], [5.994818, 49.867836], [5.994764, 49.86794], [5.99473, 49.867996], [5.994657, 49.86806], [5.994593, 49.868103], [5.994547, 49.86814], [5.994516, 49.868176], [5.994497, 49.86822], [5.994497, 49.868298], [5.994505, 49.86839], [5.994493, 49.868435], [5.994463, 49.868496], [5.994448, 49.868553], [5.994417, 49.868748], [5.994402, 49.868767], [5.994348, 49.868805], [5.994207, 49.86892], [5.994188, 49.86894], [5.994116, 49.869007], [5.993936, 49.869247], [5.993738, 49.86949], [5.993567, 49.869736], [5.993544, 49.86977], [5.993929, 49.86985], [5.994543, 49.869984], [5.99473, 49.870033], [5.994944, 49.870117], [5.995069, 49.870186], [5.99515, 49.870255], [5.99518, 49.870285], [5.995234, 49.870346], [5.995268, 49.870388], [5.995287, 49.870422], [5.99534, 49.870514], [5.995348, 49.870544], [5.995367, 49.870625], [5.995405, 49.87073], [5.995482, 49.87089], [5.995646, 49.8711], [5.995752, 49.871223], [5.996023, 49.871548], [5.996199, 49.871784], [5.996229, 49.87182], [5.996477, 49.872177], [5.996492, 49.87226], [5.99642, 49.872395], [5.996313, 49.87258], [5.996256, 49.872696], [5.996118, 49.872967], [5.995997, 49.872936], [5.995699, 49.872894], [5.995394, 49.872852], [5.99523, 49.87284], [5.995119, 49.872837], [5.994799, 49.872826], [5.994738, 49.87282], [5.994322, 49.87281], [5.994013, 49.87281], [5.993639, 49.872807], [5.993429, 49.872807], [5.993032, 49.872826], [5.992853, 49.87288], [5.992743, 49.872906], [5.992674, 49.872944], [5.992598, 49.873005], [5.992525, 49.87308], [5.992407, 49.873234], [5.992327, 49.873375], [5.9923, 49.873466], [5.992281, 49.873543], [5.992292, 49.87362], [5.992319, 49.87382], [5.992342, 49.87396], [5.992403, 49.874176], [5.992441, 49.874252], [5.992594, 49.87442], [5.992659, 49.874485], [5.992865, 49.87464], [5.992971, 49.874718], [5.993181, 49.87484], [5.993391, 49.874924], [5.993612, 49.875042], [5.99362, 49.875233], [5.993635, 49.875515], [5.994238, 49.87603], [5.994558, 49.8763], [5.994585, 49.87632], [5.994257, 49.876526], [5.994043, 49.876667], [5.993914, 49.876762], [5.993807, 49.876858], [5.993719, 49.87691], [5.99341, 49.87724], [5.993525, 49.87729], [5.993593, 49.877316], [5.993727, 49.877373], [5.993994, 49.87748], [5.994299, 49.8776], [5.994467, 49.87767], [5.994905, 49.877846], [5.995218, 49.87795], [5.995501, 49.87802], [5.995512, 49.878025], [5.995954, 49.878143], [5.996115, 49.878185], [5.996298, 49.87825], [5.996477, 49.87833], [5.996588, 49.878387], [5.99674, 49.878483], [5.996916, 49.87861], [5.997129, 49.87877], [5.997221, 49.8786], [5.997278, 49.878483], [5.997347, 49.878296], [5.997469, 49.877975], [5.997518, 49.877823], [5.997545, 49.877754], [5.99756, 49.877724], [5.997595, 49.87767], [5.997698, 49.877487], [5.997774, 49.877346], [5.997816, 49.877285], [5.997927, 49.877117], [5.998014, 49.876987], [5.998063, 49.87692], [5.998091, 49.87687], [5.998102, 49.876854], [5.99824, 49.876648], [5.998301, 49.876614], [5.998854, 49.876358], [5.999235, 49.87619], [5.999369, 49.876152], [5.999498, 49.87612], [5.999765, 49.876057], [5.999777, 49.876064], [5.999872, 49.876102], [6.000349, 49.87629], [6.000921, 49.876514], [6.001177, 49.876637], [6.001215, 49.876656], [6.001612, 49.87686], [6.001776, 49.876965], [6.00205, 49.877163], [6.002275, 49.877342], [6.002314, 49.877373], [6.002424, 49.87747], [6.002756, 49.87775], [6.002817, 49.877804], [6.002897, 49.877876], [6.00308, 49.87805], [6.003202, 49.87817], [6.002809, 49.878235], [6.002783, 49.87824], [6.002668, 49.87826], [6.002352, 49.87833], [6.002241, 49.87835], [6.00223, 49.878353], [6.002085, 49.878376], [6.002043, 49.87838], [6.001921, 49.878395], [6.001753, 49.878395], [6.001646, 49.87839], [6.001215, 49.878372], [6.001127, 49.878647], [6.001268, 49.878754], [6.001375, 49.878838], [6.001482, 49.87891], [6.002073, 49.878944], [6.002233, 49.87896], [6.002306, 49.87898], [6.002352, 49.879], [6.002401, 49.879025], [6.002462, 49.879036], [6.002783, 49.879066], [6.003138, 49.879105], [6.00321, 49.879105], [6.003244, 49.8791], [6.00329, 49.87909], [6.003324, 49.879078], [6.003427, 49.879105], [6.003477, 49.87911], [6.003584, 49.87911], [6.003679, 49.879105], [6.003721, 49.879097], [6.003767, 49.87909], [6.003859, 49.879074], [6.004194, 49.878998], [6.004259, 49.87899], [6.004301, 49.87899], [6.0044, 49.879013], [6.004515, 49.87905], [6.004599, 49.879078], [6.004763, 49.879112], [6.004911, 49.879147], [6.00498, 49.879158], [6.00503, 49.879158], [6.005194, 49.87914], [6.005533, 49.87911], [6.005827, 49.87908], [6.006205, 49.879047], [6.006651, 49.879005], [6.006819, 49.878998], [6.006945, 49.878998], [6.007029, 49.879078], [6.007059, 49.879105], [6.007097, 49.87913], [6.007135, 49.879154], [6.007215, 49.879185], [6.007296, 49.879215], [6.007429, 49.879257], [6.007532, 49.879288], [6.007711, 49.87933], [6.00783, 49.879353], [6.007998, 49.87937], [6.008101, 49.879383], [6.008219, 49.879402], [6.008406, 49.879444], [6.008532, 49.879463], [6.00868, 49.87947], [6.00897, 49.879475], [6.009081, 49.879475], [6.009367, 49.87947], [6.00952, 49.879475], [6.00968, 49.879475], [6.009764, 49.87947], [6.009836, 49.879456], [6.009882, 49.87927], [6.010061, 49.87927], [6.010122, 49.879143], [6.010252, 49.879177], [6.010336, 49.879196], [6.010458, 49.879227], [6.010504, 49.87923], [6.010599, 49.87923], [6.010656, 49.879227], [6.010885, 49.879562], [6.010958, 49.8797], [6.011007, 49.879818], [6.011045, 49.879917], [6.011167, 49.879875], [6.011251, 49.879837], [6.011316, 49.879826], [6.011404, 49.87981], [6.011507, 49.879787], [6.011595, 49.879757], [6.011675, 49.879723], [6.011763, 49.87966], [6.0119, 49.87954], [6.011946, 49.879562], [6.011984, 49.87957], [6.012022, 49.879566], [6.012075, 49.879562], [6.01211, 49.879566], [6.01214, 49.879574], [6.012175, 49.87959], [6.012209, 49.8796], [6.012266, 49.879612], [6.012262, 49.879673], [6.012278, 49.879757], [6.012289, 49.879776], [6.012308, 49.879795], [6.01235, 49.87982], [6.012358, 49.879833], [6.012361, 49.879845], [6.01235, 49.879856], [6.012312, 49.879864], [6.012243, 49.879887], [6.012217, 49.879898], [6.012197, 49.879917], [6.012194, 49.879936], [6.012194, 49.879955], [6.012205, 49.87998], [6.012273, 49.88005], [6.01235, 49.880066], [6.012438, 49.880085], [6.01251, 49.8801], [6.012854, 49.880173], [6.01317, 49.880257], [6.013495, 49.880344], [6.013636, 49.880375], [6.013777, 49.880394], [6.013853, 49.8804], [6.014097, 49.88041], [6.014139, 49.88041], [6.014242, 49.880413], [6.014345, 49.880417], [6.014509, 49.880432], [6.014963, 49.880497], [6.015161, 49.880527], [6.01594, 49.880833], [6.016256, 49.880955], [6.016416, 49.881012], [6.016478, 49.88104], [6.016501, 49.881054], [6.016531, 49.88107], [6.016581, 49.881123], [6.016619, 49.88118], [6.01671, 49.881382], [6.016844, 49.881817], [6.016855, 49.881855], [6.016901, 49.882], [6.016924, 49.882053], [6.016943, 49.88211], [6.016966, 49.88216], [6.017042, 49.882282], [6.017218, 49.882557], [6.01734, 49.882736], [6.017363, 49.88278], [6.017454, 49.88293], [6.017668, 49.883034], [6.018171, 49.883274], [6.018377, 49.883408], [6.018602, 49.883553], [6.018747, 49.883644], [6.018862, 49.883713], [6.018889, 49.883728], [6.019064, 49.883823], [6.019171, 49.88388], [6.019575, 49.88417], [6.019758, 49.884323], [6.019903, 49.88455], [6.020197, 49.88481], [6.020246, 49.88492], [6.020262, 49.88496], [6.020311, 49.88503], [6.020658, 49.885384], [6.020685, 49.885414], [6.021021, 49.885555], [6.021132, 49.8856], [6.021376, 49.885597], [6.021784, 49.88559], [6.02183, 49.885605], [6.021818, 49.885674], [6.021807, 49.885696], [6.021776, 49.88574], [6.021711, 49.88581], [6.021692, 49.885826], [6.021551, 49.88598], [6.021532, 49.88603], [6.021433, 49.886414], [6.021387, 49.886566], [6.021326, 49.886818], [6.021311, 49.88695], [6.021311, 49.887135], [6.02133, 49.8873], [6.02136, 49.88747], [6.021391, 49.88759], [6.02146, 49.8879], [6.021563, 49.888355], [6.021593, 49.88865], [6.021578, 49.888897], [6.02157, 49.88908], [6.021578, 49.88918], [6.021589, 49.88929], [6.021643, 49.889454], [6.021711, 49.889603], [6.02178, 49.889717], [6.021727, 49.889736], [6.02186, 49.89009], [6.021998, 49.890438], [6.022043, 49.89057], [6.022165, 49.891026], [6.022245, 49.891186], [6.022394, 49.891376], [6.022489, 49.891335], [6.022627, 49.89127], [6.022913, 49.891132], [6.023077, 49.891052], [6.023123, 49.891026], [6.023172, 49.89098], [6.023306, 49.890858], [6.023378, 49.89079], [6.023535, 49.890663], [6.02371, 49.89054], [6.023828, 49.89044], [6.024073, 49.8902], [6.024107, 49.89006], [6.024118, 49.89001], [6.024138, 49.88994], [6.024118, 49.88992], [6.024031, 49.88982], [6.023951, 49.88974], [6.023878, 49.889633], [6.023821, 49.889534], [6.023779, 49.88945], [6.023752, 49.889393], [6.023828, 49.88938], [6.024092, 49.889343], [6.024252, 49.889317], [6.02426, 49.889194], [6.024248, 49.88911], [6.024233, 49.88906], [6.024187, 49.888935], [6.024305, 49.888855], [6.024416, 49.888817], [6.024816, 49.888725], [6.025011, 49.888668], [6.025133, 49.888626], [6.025305, 49.88855], [6.025419, 49.888496], [6.025652, 49.888638], [6.026064, 49.888466], [6.026487, 49.888294], [6.026617, 49.8883], [6.026686, 49.888298], [6.026785, 49.888283], [6.02688, 49.88826], [6.026968, 49.888237], [6.027044, 49.888218], [6.027159, 49.888195], [6.027475, 49.88813], [6.027651, 49.8881], [6.027952, 49.88806], [6.028326, 49.888012], [6.028685, 49.887962], [6.028952, 49.88794], [6.028975, 49.88807], [6.029253, 49.888042], [6.029749, 49.88801], [6.029879, 49.887997], [6.030008, 49.887978], [6.03018, 49.887943], [6.030516, 49.88787], [6.031546, 49.887653], [6.03158, 49.887695], [6.03187, 49.887623], [6.031904, 49.887615], [6.03195, 49.88765], [6.032099, 49.887558], [6.032942, 49.88699], [6.03311, 49.886875], [6.033171, 49.886917], [6.033411, 49.88677], [6.033503, 49.886814], [6.033995, 49.88649], [6.034334, 49.886265], [6.034483, 49.886333], [6.034483, 49.88632], [6.034487, 49.886295], [6.034514, 49.886253], [6.034639, 49.886143], [6.034655, 49.88614], [6.034677, 49.88614], [6.034738, 49.886135], [6.034803, 49.886127], [6.034853, 49.886116], [6.03491, 49.886086], [6.034964, 49.886047], [6.035074, 49.88595], [6.03512, 49.88589], [6.035147, 49.885864], [6.035196, 49.88583], [6.035261, 49.885796], [6.03533, 49.885746], [6.035456, 49.885666], [6.035524, 49.88563], [6.03557, 49.885605], [6.035627, 49.88556], [6.035696, 49.885498], [6.035795, 49.88542], [6.035902, 49.88535], [6.035986, 49.885292], [6.036005, 49.885273], [6.03602, 49.885242], [6.036058, 49.88516], [6.03607, 49.88514], [6.036097, 49.88511], [6.036127, 49.885086], [6.036211, 49.885044], [6.036352, 49.884968], [6.03665, 49.8848], [6.03676, 49.884735], [6.036943, 49.884632], [6.037039, 49.88459], [6.037138, 49.884544], [6.037233, 49.88449], [6.037275, 49.88446], [6.037332, 49.88442], [6.037493, 49.884293], [6.037573, 49.884224], [6.037623, 49.884174], [6.037744, 49.884037], [6.037878, 49.883896], [6.037954, 49.883835], [6.038092, 49.883743], [6.03816, 49.883698], [6.038172, 49.883682], [6.038229, 49.88358], [6.038317, 49.883427], [6.03837, 49.88335], [6.03853, 49.883163], [6.038736, 49.882915], [6.038862, 49.882774], [6.038977, 49.882664], [6.039038, 49.882618], [6.03916, 49.882538], [6.039248, 49.882496], [6.039316, 49.882473], [6.039496, 49.88242], [6.039564, 49.88238], [6.039831, 49.88224], [6.03993, 49.882225], [6.040045, 49.882202], [6.040117, 49.882183], [6.040358, 49.882088], [6.039976, 49.881954], [6.040049, 49.88194], [6.0404, 49.8819], [6.040445, 49.881943], [6.041071, 49.88171], [6.041792, 49.881416], [6.041987, 49.881386], [6.041853, 49.881077], [6.041834, 49.881016], [6.041822, 49.88095], [6.041826, 49.880867], [6.041849, 49.88077], [6.041864, 49.88071], [6.04188, 49.880672], [6.041922, 49.880592], [6.041971, 49.88049], [6.042059, 49.88035], [6.042181, 49.880196], [6.042273, 49.880222], [6.042482, 49.880276], [6.042528, 49.8803], [6.04254, 49.88032], [6.042547, 49.88034], [6.04257, 49.88036], [6.04262, 49.88039], [6.042646, 49.880405], [6.04273, 49.88044], [6.042822, 49.88048], [6.042936, 49.880547], [6.043005, 49.880596], [6.04302, 49.880623], [6.043028, 49.88066], [6.043032, 49.880688], [6.043066, 49.880726], [6.043085, 49.880768], [6.0431, 49.880806], [6.043131, 49.880844], [6.043249, 49.880936], [6.043432, 49.881084], [6.043528, 49.88118], [6.0436, 49.881256], [6.043661, 49.881313], [6.043699, 49.88134], [6.043772, 49.881374], [6.043818, 49.881382], [6.043898, 49.881397], [6.043993, 49.88144], [6.044184, 49.881546], [6.044268, 49.881603], [6.04431, 49.881645], [6.044352, 49.88171], [6.044397, 49.881786], [6.044462, 49.881855], [6.044535, 49.88192], [6.044622, 49.881996], [6.044695, 49.882076], [6.044741, 49.88215], [6.044821, 49.88227], [6.044886, 49.882347], [6.044924, 49.882385], [6.044989, 49.88243], [6.045088, 49.882496], [6.045176, 49.88256], [6.045271, 49.882652], [6.04532, 49.882694], [6.045401, 49.882725], [6.045481, 49.88276], [6.045576, 49.882797], [6.04587, 49.882935], [6.046042, 49.88301], [6.046083, 49.883026], [6.046236, 49.883034], [6.04635, 49.883034], [6.046461, 49.88303], [6.046583, 49.883022], [6.046682, 49.883026], [6.046972, 49.883057], [6.04727, 49.883095], [6.047335, 49.883095], [6.047491, 49.88307], [6.047602, 49.88307], [6.047785, 49.88304], [6.047945, 49.883003], [6.048078, 49.88297], [6.048243, 49.882915], [6.048452, 49.882847], [6.048601, 49.882793], [6.048677, 49.88276], [6.048723, 49.882732], [6.048761, 49.882713], [6.048777, 49.88269], [6.048792, 49.882656], [6.048803, 49.882626], [6.048811, 49.88254], [6.048822, 49.882397], [6.048868, 49.882187], [6.048891, 49.882103], [6.048925, 49.882008], [6.048956, 49.88195], [6.049025, 49.881844], [6.049105, 49.88175], [6.049189, 49.881653], [6.049299, 49.881554], [6.049417, 49.88148], [6.049601, 49.88135], [6.049723, 49.881245], [6.049887, 49.881084], [6.049974, 49.881004], [6.050043, 49.88095], [6.050108, 49.880917], [6.050215, 49.880886], [6.050261, 49.88087], [6.050325, 49.88084], [6.050489, 49.880745], [6.050611, 49.880688], [6.050737, 49.880634], [6.050917, 49.880592], [6.05105, 49.880573], [6.051161, 49.88055], [6.051237, 49.88052], [6.051294, 49.880493], [6.051336, 49.880455], [6.051344, 49.880424], [6.051363, 49.88037], [6.051397, 49.88031], [6.051451, 49.880264], [6.051489, 49.88025], [6.051519, 49.88024], [6.051561, 49.880238], [6.0516, 49.880238], [6.05168, 49.880245], [6.051737, 49.880257], [6.051817, 49.880257], [6.051893, 49.88025], [6.052008, 49.88023], [6.052111, 49.880203], [6.052206, 49.880165], [6.052336, 49.880104], [6.052393, 49.880085], [6.052423, 49.880077], [6.052473, 49.880077], [6.052557, 49.880085], [6.052626, 49.88008], [6.05271, 49.880062], [6.053339, 49.879868], [6.05361, 49.879772], [6.053759, 49.8797], [6.053888, 49.879646], [6.053965, 49.879612], [6.054033, 49.87957], [6.054094, 49.879528], [6.054151, 49.87948], [6.05419, 49.879436], [6.054235, 49.879406], [6.054281, 49.87938], [6.054327, 49.87936], [6.054384, 49.879326], [6.054518, 49.879276], [6.054609, 49.879253], [6.054663, 49.879234], [6.055326, 49.8788], [6.055181, 49.878628], [6.055284, 49.878593], [6.055372, 49.87869], [6.055426, 49.87867], [6.055304, 49.878525], [6.055326, 49.878517], [6.056265, 49.87839], [6.056051, 49.87761], [6.056021, 49.877483], [6.055998, 49.8774], [6.055983, 49.877327], [6.055941, 49.87717], [6.055903, 49.87705], [6.055876, 49.876972], [6.055845, 49.87691], [6.055624, 49.876534], [6.055544, 49.876373], [6.05578, 49.876293], [6.055914, 49.87624], [6.056009, 49.876194], [6.056112, 49.87614], [6.056196, 49.87608], [6.056284, 49.87601], [6.056372, 49.875927], [6.056452, 49.87584], [6.056635, 49.875603], [6.056707, 49.875492], [6.056807, 49.87532], [6.056894, 49.87515], [6.056925, 49.87507], [6.057005, 49.874855], [6.057043, 49.874737], [6.057074, 49.874607], [6.057116, 49.87433], [6.057123, 49.87429], [6.057016, 49.873978], [6.056978, 49.873863], [6.056971, 49.873787], [6.056967, 49.873676], [6.056967, 49.87359], [6.056978, 49.873535], [6.05702, 49.873463], [6.057222, 49.87316], [6.057367, 49.872925], [6.05744, 49.872795], [6.057505, 49.872658], [6.057543, 49.87257], [6.057554, 49.872524], [6.057562, 49.872448], [6.057581, 49.87233], [6.057581, 49.872314], [6.057585, 49.872246], [6.0576, 49.87211], [6.057615, 49.871937], [6.057661, 49.8717], [6.057692, 49.871597], [6.057722, 49.87157], [6.05776, 49.871548], [6.058024, 49.871407], [6.058199, 49.871315], [6.05831, 49.871258], [6.058886, 49.87104], [6.059259, 49.870903], [6.059603, 49.870766], [6.060274, 49.8705], [6.060678, 49.870335], [6.060717, 49.870316], [6.06061, 49.870224], [6.06037, 49.870018], [6.060327, 49.869976], [6.060194, 49.86986], [6.060133, 49.869816], [6.060617, 49.869526], [6.060988, 49.86931], [6.061262, 49.869137], [6.061586, 49.868916], [6.061754, 49.868797], [6.061953, 49.868664], [6.062075, 49.86858], [6.062162, 49.86853], [6.062399, 49.86839], [6.062502, 49.868336], [6.0627, 49.868225], [6.062731, 49.86821], [6.062979, 49.86807], [6.062994, 49.86806], [6.062674, 49.86759], [6.062357, 49.86714], [6.062159, 49.866867], [6.061995, 49.866646], [6.061785, 49.866367], [6.061613, 49.866127], [6.06156, 49.86602], [6.061544, 49.865902], [6.062246, 49.86554], [6.062765, 49.865223], [6.062883, 49.865154], [6.063005, 49.86508], [6.063238, 49.86498], [6.063581, 49.864876], [6.064123, 49.86476], [6.064833, 49.864677], [6.064802, 49.86465], [6.064688, 49.86456], [6.064417, 49.864334], [6.064425, 49.864307], [6.064459, 49.8642], [6.064573, 49.863823], [6.0646, 49.86373], [6.064634, 49.863617], [6.064657, 49.863544], [6.064741, 49.863285], [6.06476, 49.863224], [6.064775, 49.863205], [6.064844, 49.863094], [6.065088, 49.86272], [6.065248, 49.86245], [6.065283, 49.86241], [6.065321, 49.86237], [6.065332, 49.86236], [6.065485, 49.86221], [6.065428, 49.862144], [6.065294, 49.862003], [6.065542, 49.861732], [6.064913, 49.86147], [6.064218, 49.861374], [6.06436, 49.86121], [6.064421, 49.861134], [6.064474, 49.86103], [6.064489, 49.86098], [6.064516, 49.86088], [6.064527, 49.86075], [6.064356, 49.86073], [6.064344, 49.860725], [6.064436, 49.86035], [6.06447, 49.860096], [6.06447, 49.859974], [6.064463, 49.85984], [6.064425, 49.859646], [6.064405, 49.859562], [6.06436, 49.859406], [6.064299, 49.859245], [6.064245, 49.85908], [6.064203, 49.85889], [6.064196, 49.858837], [6.064211, 49.858803], [6.064222, 49.85878], [6.064238, 49.85876], [6.064295, 49.858715], [6.064341, 49.858692], [6.064455, 49.858654], [6.064673, 49.858574], [6.064943, 49.858482], [6.065199, 49.858414], [6.065718, 49.858303], [6.065638, 49.858173], [6.065577, 49.858078], [6.065496, 49.857998], [6.065466, 49.857964], [6.065409, 49.857914], [6.065256, 49.857796], [6.065222, 49.857773], [6.065123, 49.857704], [6.065092, 49.857685], [6.065039, 49.857414], [6.065012, 49.8573], [6.06497, 49.85718], [6.064909, 49.857075], [6.064794, 49.856953], [6.064585, 49.85677], [6.064661, 49.856728], [6.065012, 49.85655], [6.065195, 49.856445], [6.065233, 49.856426], [6.065378, 49.856346], [6.065393, 49.856335], [6.065474, 49.856293], [6.065741, 49.85614], [6.065809, 49.856106], [6.065908, 49.856052], [6.06613, 49.855934], [6.066187, 49.855904], [6.066427, 49.855762], [6.066442, 49.855755], [6.066484, 49.855724], [6.066576, 49.85566], [6.066668, 49.8556], [6.066851, 49.855473], [6.066912, 49.85542], [6.06698, 49.855362], [6.067041, 49.855297], [6.067064, 49.85525], [6.067125, 49.855083], [6.067045, 49.855072], [6.067118, 49.854862], [6.067209, 49.854874], [6.067236, 49.854805], [6.067308, 49.85461], [6.067347, 49.854515], [6.06735, 49.8545], [6.067385, 49.85441], [6.067392, 49.854393], [6.067453, 49.854233], [6.067476, 49.854176], [6.067541, 49.85401], [6.067568, 49.85395], [6.067892, 49.85315], [6.067911, 49.853107], [6.067923, 49.853077], [6.067984, 49.852936], [6.068045, 49.85293], [6.068243, 49.85295], [6.068434, 49.852962], [6.068625, 49.852966], [6.068922, 49.85295], [6.068918, 49.852936], [6.068922, 49.85291], [6.068964, 49.852425], [6.068968, 49.852398], [6.068994, 49.852154], [6.069002, 49.852074], [6.069014, 49.85186], [6.069006, 49.85171], [6.068979, 49.851574], [6.068319, 49.85165], [6.068262, 49.851456], [6.068193, 49.851246], [6.068163, 49.851143], [6.068094, 49.850925], [6.068014, 49.85065], [6.066668, 49.850765], [6.065222, 49.8509], [6.064199, 49.85097], [6.064211, 49.850937], [6.064291, 49.850647], [6.06436, 49.850418], [6.06418, 49.850395], [6.063921, 49.850372], [6.06381, 49.85037], [6.063581, 49.850365], [6.063482, 49.85], [6.063505, 49.84993], [6.063494, 49.849663], [6.063505, 49.84944], [6.063532, 49.84914], [6.06357, 49.848846], [6.063707, 49.84877], [6.063788, 49.848724], [6.06399, 49.84861], [6.063814, 49.84843], [6.063707, 49.84834], [6.063646, 49.848297], [6.063612, 49.84827], [6.06354, 49.848236], [6.063376, 49.84817], [6.063196, 49.848103], [6.062769, 49.847977], [6.062433, 49.84788], [6.062204, 49.847805], [6.061956, 49.847725], [6.061525, 49.847565], [6.061083, 49.847397], [6.060907, 49.847324], [6.060877, 49.84731], [6.060862, 49.8473], [6.060766, 49.84726], [6.060663, 49.847202], [6.060537, 49.847134], [6.060457, 49.84708], [6.060362, 49.847008], [6.060236, 49.84689], [6.060083, 49.846737], [6.05982, 49.846462], [6.059698, 49.846348], [6.059523, 49.846195], [6.059423, 49.846115], [6.05924, 49.84598], [6.058992, 49.845806], [6.058794, 49.84567], [6.058744, 49.845688], [6.058355, 49.845856], [6.058321, 49.84587], [6.05818, 49.845715], [6.058042, 49.845543], [6.057905, 49.84536], [6.057783, 49.845215], [6.057699, 49.84511], [6.057527, 49.84493], [6.057299, 49.844723], [6.057642, 49.844532], [6.057795, 49.84464], [6.05813, 49.84488], [6.058165, 49.8449], [6.058405, 49.844788], [6.058527, 49.84473], [6.058661, 49.844673], [6.058683, 49.844666], [6.058844, 49.84459], [6.059229, 49.844414], [6.059511, 49.84428], [6.059771, 49.844154], [6.059828, 49.844128], [6.059992, 49.844048], [6.060083, 49.844], [6.060213, 49.84394], [6.060331, 49.84388], [6.060007, 49.843494], [6.059839, 49.843296], [6.059786, 49.843235], [6.059691, 49.843136], [6.059603, 49.843056], [6.059534, 49.843], [6.059462, 49.84294], [6.059256, 49.842815], [6.058977, 49.842636], [6.058516, 49.842342], [6.058287, 49.842186], [6.057882, 49.841908], [6.057631, 49.84174], [6.057566, 49.841694], [6.05744, 49.84162], [6.057184, 49.841473], [6.057039, 49.841396], [6.056704, 49.84122], [6.056414, 49.841064], [6.056253, 49.84098], [6.056139, 49.840923], [6.056044, 49.840878], [6.055773, 49.840755], [6.055632, 49.840687], [6.055723, 49.84053], [6.055761, 49.840485], [6.055788, 49.84046], [6.055838, 49.840412], [6.056021, 49.84025], [6.056101, 49.840183], [6.05633, 49.84002], [6.056478, 49.83991], [6.056677, 49.83979], [6.056883, 49.83966], [6.056917, 49.839634], [6.056986, 49.839577], [6.057077, 49.839493], [6.05715, 49.839417], [6.057249, 49.839287], [6.057344, 49.83916], [6.057505, 49.83895], [6.057608, 49.838837], [6.057711, 49.838737], [6.057905, 49.83858], [6.057989, 49.838528], [6.058153, 49.838432], [6.058172, 49.838036], [6.058203, 49.83767], [6.058584, 49.837532], [6.059015, 49.83738], [6.059141, 49.83733], [6.059538, 49.83715], [6.059984, 49.83695], [6.060057, 49.836998], [6.060072, 49.837017], [6.060141, 49.836956], [6.060289, 49.83681], [6.06045, 49.836678], [6.060434, 49.83667], [6.05953, 49.836315], [6.059339, 49.836533], [6.058813, 49.836334], [6.058672, 49.836266], [6.058535, 49.83618], [6.058214, 49.83596], [6.058096, 49.836033], [6.057901, 49.835884], [6.057715, 49.835724], [6.057489, 49.83551], [6.057219, 49.83521], [6.057077, 49.835026], [6.056887, 49.835155], [6.056261, 49.834694], [6.055746, 49.834316], [6.055822, 49.834503], [6.055864, 49.834633], [6.055883, 49.834736], [6.055883, 49.83528], [6.055868, 49.83583], [6.055513, 49.836308], [6.055143, 49.836754], [6.054899, 49.837036], [6.054777, 49.837147], [6.054655, 49.837246], [6.05443, 49.837383], [6.054132, 49.83754], [6.053892, 49.837646], [6.053709, 49.837715], [6.053591, 49.83775], [6.053316, 49.8378], [6.05271, 49.837914], [6.052164, 49.838028], [6.051897, 49.83808], [6.051779, 49.838097], [6.05155, 49.83811], [6.051436, 49.838116], [6.051291, 49.838104], [6.051077, 49.838066], [6.050825, 49.838], [6.050745, 49.837833], [6.050722, 49.83779], [6.050619, 49.837627], [6.050531, 49.837513], [6.050478, 49.837357], [6.050383, 49.837105], [6.050306, 49.836956], [6.050211, 49.836853], [6.050085, 49.83674], [6.050013, 49.83669], [6.049608, 49.836433], [6.04952, 49.83637], [6.049395, 49.836197], [6.04936, 49.836132], [6.049341, 49.836094], [6.049307, 49.83601], [6.04928, 49.83589], [6.049269, 49.83575], [6.049253, 49.83562], [6.049227, 49.83544], [6.049219, 49.835396], [6.049189, 49.835308], [6.049124, 49.8352], [6.049028, 49.83505], [6.048986, 49.83495], [6.048929, 49.834774], [6.048067, 49.83475], [6.047922, 49.83475], [6.047716, 49.834766], [6.047529, 49.83478], [6.04751, 49.834785], [6.047476, 49.834766], [6.047262, 49.834656], [6.046995, 49.834496], [6.046816, 49.834377], [6.046652, 49.834255], [6.04645, 49.834095], [6.046396, 49.83405], [6.04624, 49.833927], [6.046175, 49.833885], [6.045546, 49.833633], [6.045084, 49.833443], [6.044207, 49.83324], [6.043093, 49.832977], [6.042639, 49.83293], [6.041468, 49.832825], [6.040602, 49.83271], [6.040335, 49.832687], [6.039915, 49.832672], [6.03916, 49.83266], [6.038118, 49.832657], [6.038107, 49.832634], [6.037943, 49.832664], [6.037844, 49.832916], [6.037668, 49.8334], [6.037607, 49.833538], [6.038012, 49.833763], [6.037958, 49.833805], [6.037744, 49.833984], [6.037539, 49.834175], [6.037367, 49.834335], [6.037256, 49.834454], [6.037188, 49.834553], [6.037157, 49.8346], [6.037092, 49.834724], [6.03705, 49.834843], [6.037024, 49.834923], [6.036989, 49.83507], [6.036982, 49.835106], [6.036974, 49.835186], [6.036982, 49.83535], [6.036982, 49.83538], [6.03665, 49.835457], [6.036478, 49.8355], [6.036291, 49.835533], [6.036135, 49.835552], [6.035959, 49.83556], [6.035768, 49.835556], [6.035601, 49.83555], [6.035547, 49.83553], [6.0352, 49.835472], [6.035082, 49.835457], [6.034986, 49.835438], [6.034891, 49.835423], [6.0348, 49.835407], [6.0347, 49.835392], [6.03459, 49.835373], [6.034205, 49.83531], [6.034174, 49.835304], [6.034136, 49.83545], [6.034102, 49.83559], [6.03409, 49.835625], [6.034052, 49.835735], [6.033739, 49.836075], [6.033487, 49.836338], [6.033106, 49.83674], [6.032812, 49.837048], [6.032793, 49.83712], [6.032717, 49.837383], [6.032705, 49.83742], [6.032694, 49.837452], [6.032644, 49.837612], [6.032587, 49.83778], [6.032549, 49.837883], [6.032538, 49.83791], [6.032419, 49.838184], [6.032404, 49.83822], [6.032354, 49.838326], [6.032167, 49.83825], [6.031813, 49.83838], [6.031481, 49.838703], [6.03137, 49.838806], [6.031259, 49.838917], [6.031199, 49.838974], [6.03021, 49.838463], [6.030054, 49.8386], [6.029676, 49.838375], [6.029459, 49.838238], [6.029325, 49.838146], [6.029215, 49.83805], [6.029074, 49.837917], [6.028814, 49.837627], [6.02857, 49.837357], [6.028295, 49.83741], [6.028082, 49.837456], [6.02804, 49.837463], [6.027872, 49.8375], [6.027685, 49.837543], [6.027498, 49.83759], [6.02746, 49.837597], [6.027247, 49.837654], [6.02706, 49.837708], [6.026911, 49.83775], [6.026766, 49.83779], [6.026697, 49.83781], [6.02664, 49.83783], [6.026575, 49.83785], [6.026518, 49.837864], [6.026407, 49.8379], [6.0263, 49.83793], [6.026194, 49.837967], [6.026033, 49.83802], [6.025934, 49.838055], [6.02611, 49.838192], [6.026594, 49.838593], [6.026465, 49.838814], [6.026571, 49.838856], [6.026579, 49.839016], [6.026941, 49.83924], [6.026125, 49.839405], [6.025709, 49.839504], [6.025599, 49.83953], [6.025576, 49.839535], [6.025663, 49.83959], [6.025789, 49.83966], [6.025888, 49.839706], [6.025694, 49.839806], [6.025885, 49.83989], [6.02611, 49.839993], [6.025686, 49.840176], [6.02556, 49.840233], [6.025362, 49.84032], [6.025549, 49.840385], [6.025221, 49.840687], [6.02474, 49.84112], [6.024725, 49.841152], [6.024225, 49.8409], [6.024034, 49.840805], [6.023928, 49.84076], [6.023836, 49.840725], [6.02368, 49.840668], [6.023516, 49.84062], [6.023371, 49.840588], [6.023241, 49.84057], [6.023058, 49.840546], [6.022833, 49.84053], [6.022745, 49.84053], [6.022558, 49.840668], [6.022524, 49.840694], [6.022448, 49.840744], [6.022348, 49.840813], [6.022291, 49.84085], [6.02207, 49.841], [6.021852, 49.84115], [6.021738, 49.841225], [6.021707, 49.841248], [6.021311, 49.84152], [6.021292, 49.84153], [6.021231, 49.841576], [6.02091, 49.841488], [6.020865, 49.841537], [6.020842, 49.84156], [6.020666, 49.841747], [6.020395, 49.842026], [6.020315, 49.842117], [6.020308, 49.842144], [6.02035, 49.842163], [6.020372, 49.842182], [6.020372, 49.842205], [6.020353, 49.84222], [6.020323, 49.842236], [6.020285, 49.842255], [6.020269, 49.842262], [6.020266, 49.84229], [6.020254, 49.8423], [6.020235, 49.84231], [6.020174, 49.84233], [6.02014, 49.842342], [6.020109, 49.84236], [6.020052, 49.84238], [6.020002, 49.842392], [6.019972, 49.84241], [6.019941, 49.84243], [6.019892, 49.842484], [6.019865, 49.842503], [6.019838, 49.842514], [6.019796, 49.842537], [6.019712, 49.84256], [6.019682, 49.842567], [6.019663, 49.842587], [6.019632, 49.842606], [6.019609, 49.842613], [6.019598, 49.842617], [6.019583, 49.84263], [6.019541, 49.842655], [6.019487, 49.84269], [6.019445, 49.842716], [6.019415, 49.842724], [6.01935, 49.842743], [6.019293, 49.842766], [6.019216, 49.842804], [6.019167, 49.84282], [6.019094, 49.842846], [6.018969, 49.842884], [6.018896, 49.842903], [6.018812, 49.84292], [6.018698, 49.842937], [6.018568, 49.842968], [6.018537, 49.84298], [6.018477, 49.843014], [6.018438, 49.843033], [6.018419, 49.84304], [6.01832, 49.843052], [6.01829, 49.843063], [6.01827, 49.843075], [6.018236, 49.843105], [6.018221, 49.843113], [6.018202, 49.843117], [6.018183, 49.843113], [6.018156, 49.8431], [6.018133, 49.843098], [6.018114, 49.8431], [6.01808, 49.84312], [6.018015, 49.843143], [6.017931, 49.843166], [6.017767, 49.843216], [6.017607, 49.843285], [6.017385, 49.843376], [6.016966, 49.84354], [6.016813, 49.843605], [6.016653, 49.843727], [6.016046, 49.84418], [6.015505, 49.844215], [6.015436, 49.84423], [6.015417, 49.8442], [6.015062, 49.844322], [6.014444, 49.844517], [6.013826, 49.844696], [6.013773, 49.844704], [6.013617, 49.84471], [6.013491, 49.84472], [6.013342, 49.844723], [6.013235, 49.844734], [6.013014, 49.844776], [6.012674, 49.844852], [6.012587, 49.844868], [6.012522, 49.84487], [6.012449, 49.844868], [6.012358, 49.844856], [6.012247, 49.84484], [6.012114, 49.84481], [6.011648, 49.84471], [6.011431, 49.84466], [6.011194, 49.844612], [6.011034, 49.844585], [6.010881, 49.844566], [6.010702, 49.84456], [6.01066, 49.844563], [6.010584, 49.844574], [6.010469, 49.844585], [6.010351, 49.844597], [6.010141, 49.844627], [6.009741, 49.844715], [6.009031, 49.844883], [6.008718, 49.844933], [6.008585, 49.844955], [6.008455, 49.844982], [6.008318, 49.845013], [6.008032, 49.845104], [6.007933, 49.84513], [6.007921, 49.845276], [6.007872, 49.845795], [6.007834, 49.846138], [6.007826, 49.84619], [6.007818, 49.846233], [6.007803, 49.846306], [6.007734, 49.846554], [6.007708, 49.84669], [6.007708, 49.846714], [6.00775, 49.846935], [6.007841, 49.84744], [6.007845, 49.847477], [6.007845, 49.847622], [6.007837, 49.847733], [6.00783, 49.84778], [6.007589, 49.847897], [6.007242, 49.84807], [6.007048, 49.848125], [6.006861, 49.848175], [6.006414, 49.848286], [6.006304, 49.848312], [6.006231, 49.84833], [6.005522, 49.848515], [6.005144, 49.84861], [6.005072, 49.84863], [6.004881, 49.84868], [6.004816, 49.8487], [6.004583, 49.848732], [6.004458, 49.84876], [6.004171, 49.848854], [6.004, 49.848896], [6.003565, 49.848995], [6.002581, 49.849133], [6.002054, 49.84923], [6.001776, 49.849277], [6.001577, 49.849335], [6.000971, 49.84958], [6.000711, 49.849686], [6.000475, 49.849747], [6.000357, 49.849762], [6.000059, 49.849785], [5.999899, 49.849823], [5.999704, 49.84988], [5.999285, 49.850044], [5.998907, 49.8502], [5.998816, 49.850224], [5.998648, 49.85025], [5.99835, 49.85028], [5.998072, 49.850296], [5.997503, 49.850334], [5.996851, 49.85036], [5.996714, 49.850372], [5.995832, 49.850483], [5.995604, 49.850513], [5.995344, 49.850563], [5.995146, 49.85061], [5.994902, 49.850685], [5.99478, 49.850727], [5.994711, 49.850758], [5.994673, 49.850784], [5.994616, 49.850838], [5.994501, 49.850952], [5.994406, 49.851032], [5.994326, 49.851086], [5.994215, 49.851147], [5.99407, 49.851208], [5.993875, 49.85128], [5.993704, 49.85133], [5.993536, 49.851368], [5.993254, 49.85142], [5.993025, 49.851463], [5.992662, 49.85156], [5.99254, 49.85161], [5.99235, 49.851738], [5.991548, 49.852142], [5.991159, 49.852356], [5.99056, 49.85266], [5.989828, 49.853012], [5.989279, 49.853287], [5.988985, 49.85348], [5.988657, 49.85379], [5.988462, 49.85404], [5.987719, 49.85515], [5.987471, 49.85549], [5.987333, 49.85577], [5.987234, 49.856052], [5.98707, 49.856464], [5.987104, 49.856525], [5.986792, 49.857315], [5.986769, 49.857376], [5.986757, 49.857407], [5.98675, 49.85761], [5.986746, 49.857662], [5.986742, 49.857708], [5.986696, 49.85792], [5.986666, 49.858017], [5.986479, 49.858234], [5.986219, 49.85853], [5.986155, 49.858597], [5.986166, 49.858604], [5.986463, 49.858765], [5.986498, 49.85878], [5.986536, 49.858807], [5.986551, 49.85882], [5.986578, 49.858856], [5.986601, 49.858906], [5.986608, 49.85895], [5.986605, 49.85901], [5.986597, 49.85906], [5.986559, 49.85919], [5.986517, 49.859306], [5.98646, 49.859447], [5.986284, 49.859833], [5.986238, 49.859955], [5.986231, 49.859993], [5.986181, 49.860348], [5.986238, 49.860683], [5.986242, 49.860695], [5.986261, 49.860832], [5.986265, 49.86092], [5.986357, 49.860928], [5.986402, 49.861156], [5.986399, 49.861225], [5.986376, 49.861343], [5.986334, 49.861477], [5.986284, 49.86161], [5.986235, 49.861694], [5.986204, 49.86174], [5.986135, 49.861816], [5.986025, 49.8619], [5.985838, 49.86203], [5.986437, 49.862347], [5.986059, 49.86253], [5.985834, 49.862644], [5.985682, 49.862736], [5.985571, 49.862816], [5.985487, 49.86288], [5.985464, 49.862904]]]]}}]}