{"type": "FeatureCollection", "features": [{"type": "Feature", "properties": {"name": "Nommern"}, "geometry": {"type": "MultiPolygon", "coordinates": [[[[6.104583, 49.792268], [6.105145, 49.79275], [6.105338, 49.79292], [6.105382, 49.792954], [6.105418, 49.79298], [6.105577, 49.79309], [6.106147, 49.793466], [6.106605, 49.793698], [6.10696, 49.793835], [6.108001, 49.794261], [6.108209, 49.794328], [6.108568, 49.794423], [6.108956, 49.794525], [6.108956, 49.794581], [6.108967, 49.794582], [6.109001, 49.794601], [6.109035, 49.794621], [6.109147, 49.794685], [6.109425, 49.79484], [6.109784, 49.795044], [6.110313, 49.795358], [6.110529, 49.795487], [6.110586, 49.79552], [6.110649, 49.795591], [6.110702, 49.795643], [6.110881, 49.795845], [6.111026, 49.796005], [6.11121, 49.796215], [6.111346, 49.796357], [6.111545, 49.796543], [6.111602, 49.7966], [6.111652, 49.79667], [6.11169, 49.796734], [6.111707, 49.796771], [6.111743, 49.79685], [6.111924, 49.797241], [6.111957, 49.797311], [6.111985, 49.79734], [6.1121, 49.797455], [6.112247, 49.797607], [6.112351, 49.797711], [6.112401, 49.79775], [6.112511, 49.797832], [6.112563, 49.797863], [6.11271, 49.797943], [6.112734, 49.79799], [6.112739, 49.79802], [6.112744, 49.798059], [6.112755, 49.798085], [6.112799, 49.79816], [6.112812, 49.798206], [6.112809, 49.798252], [6.112782, 49.79834], [6.112787, 49.798386], [6.112798, 49.798417], [6.112827, 49.798474], [6.112852, 49.798535], [6.112851, 49.798566], [6.112838, 49.798595], [6.112777, 49.798656], [6.112718, 49.79871], [6.112698, 49.798744], [6.112684, 49.798794], [6.112675, 49.798862], [6.112673, 49.798921], [6.112688, 49.798966], [6.112677, 49.798966], [6.112722, 49.798997], [6.112763, 49.79902], [6.112829, 49.79904], [6.112877, 49.79905], [6.112944, 49.799058], [6.112993, 49.799081], [6.113032, 49.799107], [6.113074, 49.799134], [6.113141, 49.79916], [6.113168, 49.799175], [6.113182, 49.799191], [6.113188, 49.799211], [6.113194, 49.799244], [6.113201, 49.799256], [6.113218, 49.79927], [6.113245, 49.799282], [6.113298, 49.799301], [6.113322, 49.79931], [6.113347, 49.799324], [6.113371, 49.799343], [6.113397, 49.799366], [6.113427, 49.799397], [6.113446, 49.799411], [6.113471, 49.799436], [6.113503, 49.799455], [6.113555, 49.799489], [6.113673, 49.79956], [6.113738, 49.7996], [6.113806, 49.799633], [6.113865, 49.799656], [6.113912, 49.79967], [6.11396, 49.799686], [6.114092, 49.799714], [6.114152, 49.799725], [6.114219, 49.799745], [6.114278, 49.79976], [6.11457, 49.799854], [6.114711, 49.7999], [6.114837, 49.799946], [6.114918, 49.799974], [6.115091, 49.800015], [6.11513, 49.800026], [6.115175, 49.800046], [6.115292, 49.8001], [6.115318, 49.800117], [6.115338, 49.800134], [6.115388, 49.800195], [6.115437, 49.800261], [6.115454, 49.80028], [6.115468, 49.800294], [6.115489, 49.800311], [6.115524, 49.800327], [6.11559, 49.800351], [6.115629, 49.800365], [6.115651, 49.800378], [6.115675, 49.800404], [6.115694, 49.800424], [6.115721, 49.800438], [6.115749, 49.800446], [6.115801, 49.80046], [6.115869, 49.800471], [6.115979, 49.800485], [6.116006, 49.800491], [6.11605, 49.800503], [6.116087, 49.800519], [6.116122, 49.800531], [6.116167, 49.80055], [6.116264, 49.800581], [6.116423, 49.800621], [6.116482, 49.800641], [6.116518, 49.800651], [6.116555, 49.800674], [6.116629, 49.800717], [6.116659, 49.800731], [6.116696, 49.800741], [6.116737, 49.800741], [6.116792, 49.800731], [6.116822, 49.800728], [6.116855, 49.800731], [6.116887, 49.800736], [6.116916, 49.800747], [6.116947, 49.80076], [6.117003, 49.800786], [6.117047, 49.800804], [6.117087, 49.800821], [6.117135, 49.800827], [6.117216, 49.800843], [6.117257, 49.800854], [6.11731, 49.800874], [6.117354, 49.80089], [6.117398, 49.800911], [6.117453, 49.800945], [6.117489, 49.800973], [6.117529, 49.801006], [6.11757, 49.801051], [6.117597, 49.801086], [6.117623, 49.801136], [6.117652, 49.801181], [6.117682, 49.801217], [6.117713, 49.801248], [6.11774, 49.801271], [6.117759, 49.801293], [6.117783, 49.801323], [6.117809, 49.801373], [6.11783, 49.801423], [6.117852, 49.801502], [6.117871, 49.801611], [6.117883, 49.80164], [6.117899, 49.801674], [6.117921, 49.801713], [6.117957, 49.801758], [6.117975, 49.801786], [6.117991, 49.801823], [6.118009, 49.801884], [6.117935, 49.801915], [6.11777, 49.801991], [6.117584, 49.802095], [6.117319, 49.802197], [6.117215, 49.802235], [6.117121, 49.802228], [6.11705, 49.80218], [6.117012, 49.80209], [6.116896, 49.802033], [6.116666, 49.80193], [6.116506, 49.801865], [6.116374, 49.80184], [6.116243, 49.801865], [6.116127, 49.801915], [6.115918, 49.802014], [6.115609, 49.802174], [6.115174, 49.802335], [6.11463, 49.802591], [6.114326, 49.802765], [6.113977, 49.803001], [6.113635, 49.803253], [6.1134, 49.80349], [6.113037, 49.803865], [6.112791, 49.80406], [6.112488, 49.804283], [6.112307, 49.804451], [6.112147, 49.804646], [6.112023, 49.804817], [6.111814, 49.805177], [6.111643, 49.80549], [6.111549, 49.805751], [6.11148, 49.805946], [6.111414, 49.806225], [6.111342, 49.806561], [6.111326, 49.806812], [6.111275, 49.807065], [6.111212, 49.80722], [6.111168, 49.807373], [6.111025, 49.807785], [6.110947, 49.80809], [6.110931, 49.808197], [6.110997, 49.808327], [6.111005, 49.80843], [6.110949, 49.808644], [6.110911, 49.808872], [6.110927, 49.80905], [6.110987, 49.809334], [6.111015, 49.809457], [6.110981, 49.809551], [6.11094, 49.809613], [6.110824, 49.809671], [6.110594, 49.809742], [6.110329, 49.809807], [6.110005, 49.809911], [6.109791, 49.810048], [6.109461, 49.810285], [6.109338, 49.81038], [6.109472, 49.810413], [6.109564, 49.810436], [6.109992, 49.810547], [6.110194, 49.810596], [6.110464, 49.810665], [6.110647, 49.81072], [6.110666, 49.810726], [6.110799, 49.810764], [6.110813, 49.81077], [6.111095, 49.810852], [6.111256, 49.81085], [6.111323, 49.810863], [6.111566, 49.8109], [6.111705, 49.810917], [6.111868, 49.810905], [6.112146, 49.810898], [6.112161, 49.8109], [6.112239, 49.81094], [6.112682, 49.811146], [6.112806, 49.811226], [6.112926, 49.811283], [6.113109, 49.811386], [6.113156, 49.811398], [6.113207, 49.811405], [6.113231, 49.81141], [6.11325, 49.811424], [6.113264, 49.811443], [6.113269, 49.811466], [6.113286, 49.811485], [6.113631, 49.81161], [6.114662, 49.811928], [6.114847, 49.812], [6.115094, 49.812103], [6.115336, 49.812176], [6.115422, 49.812206], [6.11547, 49.81223], [6.1156, 49.81231], [6.116038, 49.81249], [6.116226, 49.812584], [6.116334, 49.812653], [6.116704, 49.812923], [6.117021, 49.81315], [6.117234, 49.81324], [6.117285, 49.813267], [6.117407, 49.813354], [6.117481, 49.81339], [6.117608, 49.813435], [6.11796, 49.81353], [6.118311, 49.813633], [6.11857, 49.81372], [6.118834, 49.813812], [6.119138, 49.813885], [6.119457, 49.81399], [6.119736, 49.814087], [6.120017, 49.814224], [6.120278, 49.81433], [6.120597, 49.814472], [6.120922, 49.81462], [6.121499, 49.81486], [6.12178, 49.814983], [6.121965, 49.815083], [6.122081, 49.815147], [6.122266, 49.8152], [6.122313, 49.81522], [6.12246, 49.815285], [6.122774, 49.81544], [6.122933, 49.815514], [6.123107, 49.815563], [6.123172, 49.815586], [6.123256, 49.815613], [6.123427, 49.815655], [6.123639, 49.815704], [6.123713, 49.815727], [6.1238, 49.815758], [6.123932, 49.815777], [6.12399, 49.81579], [6.124034, 49.81581], [6.124064, 49.81583], [6.124092, 49.815857], [6.124129, 49.815914], [6.124149, 49.81594], [6.124205, 49.81597], [6.124487, 49.816113], [6.124717, 49.81622], [6.124923, 49.81632], [6.125094, 49.816387], [6.125262, 49.81646], [6.125322, 49.816498], [6.125359, 49.816536], [6.125396, 49.816578], [6.125419, 49.81659], [6.125501, 49.81663], [6.125588, 49.81668], [6.125661, 49.816734], [6.125685, 49.81673], [6.125694, 49.8167], [6.125707, 49.81668], [6.125739, 49.816666], [6.125776, 49.816677], [6.125798, 49.816708], [6.125802, 49.816757], [6.125828, 49.81679], [6.125873, 49.81682], [6.125896, 49.81683], [6.12593, 49.816833], [6.125971, 49.816822], [6.125995, 49.81682], [6.126016, 49.816833], [6.126027, 49.816845], [6.12603, 49.8169], [6.126041, 49.816933], [6.126067, 49.816963], [6.126103, 49.816986], [6.12612, 49.816994], [6.126191, 49.817047], [6.126241, 49.817078], [6.126295, 49.817093], [6.126337, 49.817097], [6.126401, 49.817093], [6.126456, 49.817085], [6.126501, 49.817085], [6.126538, 49.8171], [6.126596, 49.81714], [6.126668, 49.817184], [6.126742, 49.817207], [6.126867, 49.817234], [6.12713, 49.817295], [6.127236, 49.81733], [6.127355, 49.81737], [6.127544, 49.817444], [6.127729, 49.817516], [6.127832, 49.81757], [6.127963, 49.817654], [6.128066, 49.81774], [6.128137, 49.81782], [6.1282, 49.817894], [6.128237, 49.81796], [6.128254, 49.818], [6.12825, 49.81808], [6.128264, 49.818104], [6.128287, 49.818115], [6.128328, 49.818134], [6.128412, 49.818157], [6.128563, 49.81818], [6.128704, 49.818222], [6.128767, 49.818237], [6.128984, 49.818264], [6.129042, 49.81828], [6.129155, 49.81832], [6.129249, 49.818367], [6.12932, 49.81839], [6.129395, 49.818447], [6.129497, 49.818493], [6.129583, 49.818577], [6.129654, 49.818645], [6.129747, 49.818707], [6.12985, 49.818764], [6.129911, 49.81881], [6.129956, 49.81885], [6.13006, 49.818935], [6.130083, 49.818954], [6.130161, 49.818985], [6.130227, 49.81901], [6.130391, 49.81905], [6.13058, 49.819088], [6.130685, 49.819103], [6.130729, 49.819054], [6.130775, 49.819084], [6.131688, 49.819496], [6.131862, 49.819637], [6.132075, 49.81982], [6.132439, 49.820084], [6.132708, 49.820274], [6.1329, 49.820404], [6.133092, 49.820507], [6.133266, 49.820595], [6.133816, 49.82087], [6.133977, 49.820942], [6.134393, 49.821125], [6.134617, 49.82123], [6.134924, 49.821423], [6.135144, 49.821552], [6.135467, 49.821747], [6.136001, 49.82206], [6.13662, 49.82236], [6.137062, 49.822655], [6.137209, 49.82275], [6.137354, 49.82285], [6.137832, 49.82316], [6.138582, 49.823605], [6.138689, 49.823666], [6.139043, 49.82387], [6.139307, 49.824005], [6.139661, 49.82417], [6.139879, 49.824272], [6.140352, 49.82446], [6.140979, 49.824703], [6.141514, 49.824917], [6.14208, 49.825146], [6.142178, 49.825176], [6.142198, 49.825184], [6.14233, 49.82523], [6.142557, 49.825287], [6.14275, 49.82532], [6.142889, 49.82534], [6.142972, 49.82536], [6.143032, 49.82537], [6.143158, 49.82541], [6.143257, 49.825447], [6.143568, 49.825596], [6.14413, 49.825897], [6.14466, 49.82619], [6.145264, 49.826496], [6.145716, 49.826736], [6.145959, 49.826466], [6.145981, 49.826443], [6.1462, 49.8262], [6.146414, 49.825962], [6.146715, 49.82604], [6.147032, 49.82612], [6.147459, 49.826252], [6.147581, 49.82629], [6.147814, 49.826366], [6.147913, 49.8264], [6.149134, 49.82566], [6.149477, 49.825157], [6.149763, 49.82463], [6.150091, 49.824017], [6.150103, 49.823994], [6.150553, 49.82325], [6.150774, 49.822876], [6.150755, 49.82283], [6.150732, 49.822758], [6.150629, 49.82247], [6.150614, 49.822433], [6.150568, 49.822277], [6.150522, 49.822136], [6.15048, 49.821888], [6.150446, 49.821697], [6.150679, 49.82147], [6.150705, 49.82144], [6.151167, 49.821], [6.150999, 49.820698], [6.150984, 49.820667], [6.150927, 49.820576], [6.150907, 49.820545], [6.150873, 49.820503], [6.150774, 49.82036], [6.150526, 49.82005], [6.150553, 49.81977], [6.150572, 49.819645], [6.150637, 49.81946], [6.150682, 49.819332], [6.150499, 49.819275], [6.150587, 49.81907], [6.150698, 49.818874], [6.150846, 49.818703], [6.151079, 49.81859], [6.151217, 49.818523], [6.151297, 49.818485], [6.151663, 49.818344], [6.151957, 49.81845], [6.152075, 49.818493], [6.152208, 49.81854], [6.152525, 49.818653], [6.152651, 49.818428], [6.153612, 49.818787], [6.153913, 49.818874], [6.154203, 49.81895], [6.154398, 49.819008], [6.155477, 49.81935], [6.156298, 49.81963], [6.156988, 49.819885], [6.157869, 49.820198], [6.158621, 49.820473], [6.159746, 49.82095], [6.160002, 49.82106], [6.160749, 49.821423], [6.16155, 49.821808], [6.162645, 49.822693], [6.164144, 49.82212], [6.164415, 49.82215], [6.164465, 49.82216], [6.164511, 49.822163], [6.164866, 49.8222], [6.164915, 49.82221], [6.165827, 49.822308], [6.166864, 49.82244], [6.167543, 49.82223], [6.167917, 49.822117], [6.168688, 49.821793], [6.170996, 49.82126], [6.172743, 49.82104], [6.175001, 49.820885], [6.175779, 49.82113], [6.175795, 49.821133], [6.176851, 49.82143], [6.177759, 49.821697], [6.178427, 49.82189], [6.178484, 49.821903], [6.178846, 49.82196], [6.179769, 49.822124], [6.180761, 49.82234], [6.181864, 49.822598], [6.181929, 49.8226], [6.182775, 49.82266], [6.183775, 49.822754], [6.183798, 49.822758], [6.183855, 49.822765], [6.184233, 49.82282], [6.18503, 49.822952], [6.185526, 49.823032], [6.187346, 49.82272], [6.188204, 49.822506], [6.189138, 49.822273], [6.188929, 49.8218], [6.188726, 49.821342], [6.188631, 49.82103], [6.18862, 49.82099], [6.1886, 49.82085], [6.188551, 49.820698], [6.188444, 49.82038], [6.188345, 49.820084], [6.188185, 49.819576], [6.188055, 49.81918], [6.187891, 49.81864], [6.187765, 49.81824], [6.187746, 49.818176], [6.187697, 49.818016], [6.187986, 49.81787], [6.188143, 49.817795], [6.188333, 49.817703], [6.18857, 49.81746], [6.189005, 49.817024], [6.189394, 49.816772], [6.189505, 49.816696], [6.189772, 49.816402], [6.190042, 49.81608], [6.190287, 49.8157], [6.190516, 49.81531], [6.190695, 49.81501], [6.190851, 49.814754], [6.190966, 49.814507], [6.19108, 49.814247], [6.191126, 49.8141], [6.191126, 49.813934], [6.191126, 49.81367], [6.191145, 49.81355], [6.191236, 49.81326], [6.191378, 49.812897], [6.191462, 49.812748], [6.191606, 49.812466], [6.191629, 49.81226], [6.191645, 49.812103], [6.191637, 49.812042], [6.191549, 49.811817], [6.191542, 49.811802], [6.191523, 49.811756], [6.191507, 49.81171], [6.191198, 49.81097], [6.191057, 49.810627], [6.190943, 49.810352], [6.191099, 49.810093], [6.191198, 49.809902], [6.191229, 49.80974], [6.191236, 49.80964], [6.191221, 49.809525], [6.191202, 49.80946], [6.191134, 49.8093], [6.190966, 49.808975], [6.190882, 49.808975], [6.190752, 49.808975], [6.190523, 49.808968], [6.190447, 49.808964], [6.19018, 49.808952], [6.190031, 49.80867], [6.19, 49.808613], [6.190016, 49.8086], [6.189909, 49.808456], [6.189627, 49.808], [6.189432, 49.80767], [6.189165, 49.80723], [6.188868, 49.806767], [6.188684, 49.806458], [6.188658, 49.806404], [6.188742, 49.806416], [6.188761, 49.806385], [6.188906, 49.806206], [6.189299, 49.805676], [6.189413, 49.80552], [6.189485, 49.80542], [6.189676, 49.80517], [6.190309, 49.804314], [6.190416, 49.804333], [6.190474, 49.804344], [6.190622, 49.80439], [6.190741, 49.80442], [6.190874, 49.80446], [6.190977, 49.804485], [6.191095, 49.804512], [6.191198, 49.804535], [6.191454, 49.80459], [6.191664, 49.80462], [6.191908, 49.804626], [6.192079, 49.804626], [6.192125, 49.80459], [6.192121, 49.804543], [6.192121, 49.804417], [6.192121, 49.80435], [6.192015, 49.804207], [6.191904, 49.804077], [6.191694, 49.80391], [6.191549, 49.803818], [6.191271, 49.803642], [6.190866, 49.803463], [6.190878, 49.80343], [6.190718, 49.80332], [6.190828, 49.80316], [6.190962, 49.80296], [6.19105, 49.802856], [6.191187, 49.802734], [6.191614, 49.80291], [6.19166, 49.802925], [6.191828, 49.802986], [6.192125, 49.803093], [6.19245, 49.803192], [6.192541, 49.803215], [6.192789, 49.80329], [6.193014, 49.803345], [6.193144, 49.803375], [6.193277, 49.803406], [6.193418, 49.803436], [6.193499, 49.80346], [6.193522, 49.803467], [6.19375, 49.803276], [6.193991, 49.803078], [6.194086, 49.803], [6.194101, 49.802986], [6.194151, 49.802948], [6.194193, 49.80291], [6.194284, 49.802834], [6.194304, 49.802822], [6.194727, 49.80259], [6.19504, 49.802437], [6.195067, 49.80242], [6.195295, 49.802315], [6.195265, 49.80224], [6.195528, 49.8022], [6.195906, 49.802017], [6.19602, 49.80198], [6.196676, 49.8018], [6.196733, 49.801796], [6.196882, 49.801483], [6.19697, 49.801285], [6.197035, 49.801117], [6.197065, 49.801003], [6.197119, 49.80077], [6.197172, 49.800514], [6.197245, 49.800175], [6.197329, 49.799812], [6.197298, 49.799812], [6.19507, 49.79989], [6.193846, 49.79991], [6.193666, 49.79991], [6.193369, 49.79991], [6.192839, 49.799885], [6.192301, 49.799843], [6.192247, 49.800247], [6.192194, 49.80049], [6.192179, 49.800552], [6.191606, 49.80049], [6.19142, 49.800465], [6.191229, 49.800446], [6.191034, 49.800423], [6.190844, 49.800396], [6.190626, 49.80036], [6.190447, 49.800316], [6.190203, 49.800232], [6.189882, 49.800133], [6.1891, 49.799812], [6.188658, 49.799614], [6.18844, 49.799118], [6.187963, 49.797787], [6.187613, 49.796967], [6.187601, 49.796936], [6.187693, 49.796894], [6.187719, 49.796883], [6.18759, 49.796753], [6.187395, 49.79652], [6.187242, 49.79633], [6.187086, 49.796093], [6.18701, 49.79598], [6.186865, 49.795723], [6.186808, 49.7956], [6.186781, 49.79547], [6.186766, 49.795322], [6.186769, 49.79506], [6.186758, 49.79472], [6.18675, 49.794502], [6.186743, 49.79437], [6.186708, 49.794193], [6.186667, 49.794083], [6.18664, 49.794], [6.186499, 49.793697], [6.186438, 49.793545], [6.186323, 49.793438], [6.186152, 49.793278], [6.186041, 49.79316], [6.185892, 49.79299], [6.185682, 49.792732], [6.185503, 49.792477], [6.185484, 49.792446], [6.185408, 49.792347], [6.185301, 49.79222], [6.185152, 49.792072], [6.184835, 49.791782], [6.184687, 49.79164], [6.184637, 49.79158], [6.184347, 49.791237], [6.183687, 49.79044], [6.18334, 49.790024], [6.183298, 49.789944], [6.183153, 49.78893], [6.183138, 49.78874], [6.183153, 49.78842], [6.183401, 49.78818], [6.183744, 49.787945], [6.184078, 49.787716], [6.184116, 49.787697], [6.184596, 49.787487], [6.185146, 49.787235], [6.185387, 49.78711], [6.184921, 49.786434], [6.184723, 49.786175], [6.184683, 49.786144], [6.184694, 49.786068], [6.184626, 49.786], [6.184504, 49.785843], [6.184454, 49.785774], [6.184338, 49.785576], [6.184183, 49.78529], [6.184118, 49.78527], [6.18403, 49.785145], [6.181549, 49.785614], [6.18157, 49.785732], [6.18138, 49.785763], [6.181239, 49.78584], [6.181129, 49.785908], [6.18103, 49.78598], [6.18081, 49.78618], [6.180371, 49.786034], [6.180266, 49.78601], [6.180097, 49.786015], [6.179911, 49.785976], [6.179867, 49.786026], [6.179621, 49.7862], [6.179572, 49.78624], [6.179507, 49.786285], [6.179437, 49.786335], [6.179393, 49.78637], [6.179324, 49.78642], [6.179269, 49.786457], [6.178997, 49.786655], [6.17916, 49.78693], [6.179092, 49.78698], [6.179123, 49.78703], [6.179203, 49.787003], [6.179276, 49.78712], [6.179208, 49.7871], [6.179071, 49.787064], [6.178532, 49.786907], [6.17804, 49.786682], [6.177533, 49.78645], [6.177173, 49.78627], [6.176507, 49.78595], [6.175952, 49.785686], [6.175369, 49.785442], [6.174602, 49.785137], [6.173963, 49.78489], [6.173392, 49.78468], [6.174149, 49.78423], [6.174049, 49.78415], [6.173163, 49.78428], [6.172192, 49.784317], [6.171867, 49.784004], [6.171751, 49.783558], [6.171725, 49.783237], [6.1717, 49.78308], [6.171615, 49.782646], [6.171475, 49.782154], [6.171373, 49.781853], [6.171203, 49.781475], [6.170971, 49.781616], [6.170979, 49.782158], [6.170985, 49.78263], [6.170583, 49.782623], [6.170494, 49.782852], [6.169937, 49.7834], [6.169052, 49.783268], [6.168075, 49.783405], [6.167371, 49.78321], [6.167067, 49.78292], [6.166951, 49.78258], [6.166893, 49.782093], [6.166838, 49.781933], [6.166709, 49.781765], [6.166466, 49.78145], [6.166114, 49.781513], [6.165821, 49.781193], [6.165636, 49.78099], [6.165578, 49.78099], [6.165338, 49.78101], [6.165145, 49.78143], [6.164534, 49.781944], [6.164202, 49.78214], [6.163379, 49.78193], [6.162903, 49.78169], [6.162797, 49.781624], [6.162363, 49.781364], [6.161869, 49.78103], [6.161823, 49.781036], [6.161532, 49.78108], [6.161078, 49.78114], [6.161004, 49.78091], [6.160925, 49.780746], [6.160723, 49.780315], [6.160689, 49.780247], [6.160495, 49.77974], [6.160379, 49.779438], [6.160204, 49.778984], [6.159828, 49.778008], [6.15937, 49.776722], [6.159025, 49.775757], [6.159178, 49.77576], [6.15901, 49.77566], [6.158961, 49.775665], [6.158833, 49.77536], [6.158818, 49.775326], [6.158483, 49.775253], [6.15847, 49.77525], [6.158362, 49.775227], [6.158157, 49.77516], [6.15805, 49.775124], [6.15824, 49.775], [6.158802, 49.77463], [6.15945, 49.774204], [6.159605, 49.77411], [6.159936, 49.773903], [6.159223, 49.7734], [6.15904, 49.773277], [6.158395, 49.77285], [6.158193, 49.772717], [6.158167, 49.7727], [6.158052, 49.77263], [6.15786, 49.77251], [6.157817, 49.772495], [6.157584, 49.772392], [6.157535, 49.772373], [6.157249, 49.77225], [6.157052, 49.772175], [6.156862, 49.772106], [6.156718, 49.772064], [6.156631, 49.77204], [6.15522, 49.77168], [6.154349, 49.771458], [6.153846, 49.77133], [6.153583, 49.771286], [6.153206, 49.771236], [6.152277, 49.77108], [6.151996, 49.771423], [6.151926, 49.77151], [6.151861, 49.771595], [6.151788, 49.77169], [6.151689, 49.771835], [6.151568, 49.77201], [6.15152, 49.77208], [6.151294, 49.772396], [6.151198, 49.77253], [6.151109, 49.772507], [6.150267, 49.77229], [6.14941, 49.771996], [6.149354, 49.771976], [6.149299, 49.77263], [6.149255, 49.773148], [6.149209, 49.773697], [6.149164, 49.77423], [6.149141, 49.774506], [6.149107, 49.7749], [6.149098, 49.775017], [6.149063, 49.77543], [6.149004, 49.776127], [6.148339, 49.776737], [6.148067, 49.776974], [6.147894, 49.777058], [6.147805, 49.77709], [6.146875, 49.777325], [6.146702, 49.77739], [6.146923, 49.777576], [6.147162, 49.77778], [6.147536, 49.778057], [6.147556, 49.778072], [6.147469, 49.778133], [6.147368, 49.778244], [6.147266, 49.778324], [6.147161, 49.7784], [6.147087, 49.7785], [6.146898, 49.778713], [6.146772, 49.77874], [6.146697, 49.77878], [6.146532, 49.778927], [6.146382, 49.779026], [6.146147, 49.779408], [6.145773, 49.779865], [6.145347, 49.780396], [6.145093, 49.780704], [6.144994, 49.78064], [6.144775, 49.78089], [6.144745, 49.780922], [6.144716, 49.780956], [6.144302, 49.781406], [6.144215, 49.7815], [6.144145, 49.78149], [6.143631, 49.781395], [6.142482, 49.78119], [6.142227, 49.78099], [6.141892, 49.780727], [6.141138, 49.780132], [6.14062, 49.780384], [6.140961, 49.78077], [6.141016, 49.78087], [6.141043, 49.780933], [6.141053, 49.780983], [6.141055, 49.781055], [6.141048, 49.78111], [6.140927, 49.781273], [6.140708, 49.781612], [6.140617, 49.781914], [6.140582, 49.782013], [6.140536, 49.782093], [6.140487, 49.782158], [6.140411, 49.782234], [6.140269, 49.78236], [6.140048, 49.78247], [6.139743, 49.782623], [6.139747, 49.782738], [6.139752, 49.782898], [6.139758, 49.78305], [6.139791, 49.78329], [6.139871, 49.78368], [6.139981, 49.784172], [6.14007, 49.78451], [6.140276, 49.785034], [6.14042, 49.785378], [6.139481, 49.785072], [6.139316, 49.785206], [6.138736, 49.78569], [6.137814, 49.7852], [6.137534, 49.78553], [6.137142, 49.786003], [6.136735, 49.7865], [6.136347, 49.786976], [6.136028, 49.787365], [6.135641, 49.787834], [6.135247, 49.788315], [6.134858, 49.788776], [6.134534, 49.789177], [6.134145, 49.789646], [6.133789, 49.79008], [6.133398, 49.79057], [6.133237, 49.79055], [6.133129, 49.79052], [6.133102, 49.790493], [6.133076, 49.790478], [6.13305, 49.79047], [6.13297, 49.79047], [6.132852, 49.79039], [6.132751, 49.79032], [6.13272, 49.790264], [6.132745, 49.790234], [6.132745, 49.790195], [6.132682, 49.790176], [6.1326, 49.790188], [6.132437, 49.790195], [6.132298, 49.790188], [6.132111, 49.790154], [6.131946, 49.790142], [6.131755, 49.790127], [6.131596, 49.790104], [6.131506, 49.79009], [6.131439, 49.790054], [6.131376, 49.789993], [6.131291, 49.789967], [6.130739, 49.789974], [6.130728, 49.790077], [6.130634, 49.790066], [6.130579, 49.790012], [6.130525, 49.790012], [6.130378, 49.79005], [6.130221, 49.790077], [6.130003, 49.7901], [6.129868, 49.79011], [6.129782, 49.7901], [6.129651, 49.790066], [6.129155, 49.789818], [6.128938, 49.78968], [6.128713, 49.78957], [6.128628, 49.789516], [6.12856, 49.78946], [6.12851, 49.78937], [6.128456, 49.789333], [6.128314, 49.789307], [6.128185, 49.789295], [6.128095, 49.789253], [6.127983, 49.789207], [6.127823, 49.78916], [6.127749, 49.789154], [6.127588, 49.78917], [6.127536, 49.78917], [6.127412, 49.78914], [6.127286, 49.789085], [6.127187, 49.789074], [6.127066, 49.789104], [6.127017, 49.78911], [6.12691, 49.789093], [6.126674, 49.788975], [6.126614, 49.788937], [6.126571, 49.78889], [6.126511, 49.788815], [6.126369, 49.788734], [6.126296, 49.78871], [6.126173, 49.788692], [6.126105, 49.78864], [6.12595, 49.7886], [6.125895, 49.788574], [6.125807, 49.7885], [6.125783, 49.788494], [6.125648, 49.78848], [6.125622, 49.788467], [6.125586, 49.788445], [6.125496, 49.78836], [6.125395, 49.78828], [6.125341, 49.78825], [6.125264, 49.788216], [6.125097, 49.788185], [6.12491, 49.788143], [6.124281, 49.787975], [6.124024, 49.787907], [6.123893, 49.787884], [6.123768, 49.787872], [6.123594, 49.78787], [6.123416, 49.787857], [6.123301, 49.78786], [6.123254, 49.78786], [6.123114, 49.7879], [6.122918, 49.787956], [6.122681, 49.788036], [6.122495, 49.78811], [6.121894, 49.78833], [6.12149, 49.788364], [6.121432, 49.788387], [6.12118, 49.78853], [6.121124, 49.788555], [6.121024, 49.788467], [6.120896, 49.788383], [6.12075, 49.788292], [6.120673, 49.788334], [6.120571, 49.788372], [6.12042, 49.788395], [6.120329, 49.78841], [6.120275, 49.788414], [6.120286, 49.788425], [6.120312, 49.78849], [6.120359, 49.788643], [6.120403, 49.78872], [6.120485, 49.78882], [6.120661, 49.789013], [6.120719, 49.7891], [6.120763, 49.7892], [6.120777, 49.789307], [6.120763, 49.78945], [6.120697, 49.78946], [6.119974, 49.78955], [6.120115, 49.79], [6.120192, 49.7903], [6.120204, 49.79038], [6.120214, 49.79048], [6.120219, 49.790657], [6.120224, 49.790916], [6.120197, 49.791214], [6.11997, 49.791145], [6.119863, 49.791115], [6.119807, 49.7911], [6.119247, 49.79095], [6.119126, 49.79092], [6.11884, 49.790848], [6.118507, 49.790775], [6.118033, 49.790676], [6.117693, 49.79062], [6.117592, 49.79061], [6.117526, 49.790607], [6.11747, 49.79062], [6.117436, 49.790638], [6.117424, 49.79065], [6.117329, 49.790737], [6.117273, 49.790775], [6.117209, 49.790802], [6.117135, 49.790825], [6.11708, 49.79083], [6.116949, 49.79078], [6.116456, 49.790703], [6.116096, 49.790627], [6.115881, 49.79059], [6.115769, 49.79057], [6.115638, 49.790558], [6.115539, 49.790565], [6.115038, 49.79062], [6.114919, 49.790627], [6.114836, 49.79063], [6.114753, 49.79062], [6.114663, 49.790596], [6.114539, 49.790577], [6.114465, 49.790565], [6.114377, 49.79057], [6.11401, 49.790634], [6.11377, 49.79065], [6.113659, 49.79065], [6.113571, 49.790634], [6.113483, 49.790607], [6.113289, 49.790527], [6.113163, 49.79048], [6.113005, 49.790432], [6.112624, 49.790344], [6.112457, 49.790302], [6.112154, 49.790207], [6.112059, 49.79018], [6.111971, 49.790157], [6.11182, 49.790134], [6.111625, 49.790123], [6.111475, 49.79013], [6.111293, 49.79014], [6.111225, 49.79013], [6.111085, 49.7901], [6.110881, 49.790043], [6.110633, 49.789936], [6.110517, 49.78989], [6.11037, 49.789856], [6.110213, 49.78983], [6.109841, 49.789787], [6.109461, 49.78971], [6.109313, 49.789673], [6.109184, 49.789635], [6.109109, 49.789597], [6.108963, 49.789482], [6.108861, 49.789425], [6.1088, 49.789394], [6.108678, 49.789387], [6.108453, 49.789314], [6.108301, 49.789303], [6.108242, 49.7893], [6.108192, 49.789288], [6.108155, 49.789265], [6.108125, 49.789215], [6.108091, 49.789173], [6.108055, 49.78915], [6.10799, 49.789143], [6.107895, 49.789143], [6.107864, 49.789318], [6.107856, 49.789383], [6.107847, 49.789513], [6.107846, 49.789978], [6.107861, 49.790115], [6.107851, 49.79073], [6.107851, 49.79088], [6.107501, 49.79124], [6.10747, 49.791272], [6.107421, 49.7913], [6.10692, 49.79162], [6.10659, 49.7917], [6.105874, 49.791871], [6.105709, 49.791916], [6.105496, 49.791978], [6.105382, 49.792007], [6.105326, 49.792028], [6.10531, 49.792031], [6.104748, 49.792214], [6.104583, 49.792268]]]]}}]}