{"type": "FeatureCollection", "features": [{"type": "Feature", "properties": {"name": "Tuntange"}, "geometry": {"type": "MultiPolygon", "coordinates": [[[[5.996775, 49.716724], [5.996935, 49.71676], [5.997084, 49.71679], [5.997248, 49.71683], [5.997488, 49.716904], [5.997705, 49.716984], [5.998022, 49.717133], [5.998243, 49.71724], [5.998186, 49.71731], [5.998152, 49.717358], [5.998129, 49.71738], [5.998114, 49.717403], [5.997831, 49.71774], [5.997808, 49.717773], [5.997782, 49.71782], [5.997759, 49.717854], [5.997717, 49.717937], [5.997702, 49.717987], [5.997679, 49.718044], [5.997663, 49.718098], [5.997606, 49.718292], [5.99758, 49.71837], [5.997553, 49.71847], [5.998087, 49.718613], [5.998712, 49.718792], [5.998926, 49.718872], [5.999277, 49.71902], [5.999598, 49.719162], [5.999781, 49.719246], [5.999975, 49.71934], [6.000265, 49.719486], [6.00033, 49.71952], [6.00054, 49.719624], [6.000361, 49.71983], [6.00025, 49.71996], [6.000135, 49.720093], [6.000067, 49.720177], [5.999956, 49.720306], [5.999914, 49.72036], [5.999701, 49.720623], [5.999624, 49.72072], [5.999517, 49.720848], [5.999498, 49.720875], [6.000727, 49.721127], [6.001539, 49.721344], [6.002436, 49.721573], [6.002852, 49.721664], [6.003061, 49.721695], [6.00342, 49.72172], [6.00358, 49.721737], [6.003569, 49.72176], [6.003279, 49.722168], [6.002909, 49.722687], [6.003057, 49.722736], [6.002585, 49.723274], [6.002153, 49.723747], [6.001852, 49.72406], [6.002073, 49.724133], [6.002542, 49.72428], [6.002688, 49.724327], [6.003469, 49.724575], [6.003382, 49.72474], [6.00345, 49.72476], [6.003859, 49.724884], [6.00395, 49.72491], [6.004175, 49.72498], [6.004404, 49.725048], [6.004599, 49.725105], [6.004747, 49.72515], [6.004896, 49.725193], [6.005213, 49.72529], [6.005056, 49.725525], [6.004934, 49.72569], [6.004717, 49.72599], [6.004465, 49.726322], [6.004129, 49.726727], [6.004099, 49.72677], [6.00416, 49.726784], [6.004347, 49.72684], [6.004587, 49.726917], [6.004686, 49.726948], [6.004782, 49.72698], [6.004885, 49.72701], [6.00498, 49.727036], [6.005011, 49.727047], [6.005083, 49.72707], [6.00522, 49.72711], [6.005304, 49.727135], [6.005583, 49.727222], [6.006056, 49.727367], [6.006254, 49.727425], [6.006357, 49.72746], [6.006502, 49.727505], [6.006674, 49.727554], [6.006975, 49.72765], [6.007246, 49.72773], [6.007517, 49.727814], [6.007685, 49.727863], [6.007708, 49.727837], [6.007986, 49.727512], [6.008257, 49.72764], [6.008848, 49.727913], [6.009249, 49.728115], [6.010325, 49.72867], [6.010687, 49.728848], [6.011149, 49.72892], [6.011602, 49.728977], [6.012583, 49.729053], [6.012808, 49.729065], [6.013105, 49.729073], [6.014715, 49.72951], [6.015028, 49.72958], [6.015398, 49.729652], [6.015802, 49.729733], [6.015993, 49.729782], [6.016539, 49.72994], [6.017199, 49.730133], [6.018442, 49.730198], [6.018461, 49.730198], [6.018595, 49.730167], [6.019163, 49.73003], [6.019533, 49.72966], [6.019667, 49.729527], [6.019728, 49.72946], [6.01988, 49.729374], [6.020094, 49.729248], [6.020143, 49.72922], [6.020193, 49.72919], [6.020239, 49.72919], [6.020594, 49.729164], [6.020975, 49.729233], [6.021849, 49.729393], [6.021875, 49.729397], [6.022451, 49.729523], [6.022841, 49.72958], [6.022886, 49.72959], [6.023573, 49.729885], [6.023924, 49.730003], [6.024145, 49.730064], [6.024282, 49.730095], [6.024389, 49.730114], [6.024877, 49.730183], [6.02553, 49.730278], [6.025866, 49.730328], [6.026335, 49.730415], [6.026506, 49.730453], [6.027132, 49.730583], [6.027456, 49.730625], [6.028025, 49.730682], [6.028692, 49.73072], [6.029413, 49.73077], [6.03002, 49.730816], [6.030657, 49.730858], [6.031031, 49.73089], [6.031168, 49.730904], [6.031584, 49.73096], [6.03227, 49.73106], [6.032538, 49.731113], [6.033377, 49.73131], [6.033957, 49.73146], [6.034437, 49.731567], [6.034922, 49.73185], [6.035166, 49.73199], [6.035635, 49.73199], [6.03607, 49.731983], [6.036512, 49.73197], [6.036848, 49.73194], [6.037565, 49.731857], [6.037924, 49.731808], [6.03821, 49.731766], [6.038286, 49.731754], [6.038374, 49.73173], [6.038504, 49.7317], [6.038549, 49.73169], [6.039144, 49.73168], [6.039911, 49.73214], [6.040625, 49.73251], [6.040754, 49.732555], [6.041403, 49.732723], [6.041433, 49.732735], [6.04146, 49.732742], [6.041716, 49.732807], [6.042437, 49.732986], [6.042604, 49.73303], [6.042673, 49.733047], [6.042845, 49.733099], [6.042856, 49.733099], [6.042879, 49.733095], [6.042898, 49.733095], [6.042921, 49.733108], [6.042955, 49.733132], [6.042978, 49.73316], [6.043001, 49.733172], [6.043032, 49.733173], [6.043051, 49.733165], [6.043062, 49.733145], [6.043078, 49.733112], [6.043093, 49.733103], [6.04312, 49.733092], [6.043139, 49.733069], [6.043158, 49.733008], [6.043173, 49.732982], [6.043184, 49.732967], [6.043345, 49.732874], [6.043371, 49.732855], [6.043375, 49.732836], [6.043367, 49.732824], [6.043345, 49.732802], [6.043314, 49.732779], [6.043299, 49.732757], [6.04331, 49.732732], [6.043341, 49.732726], [6.043364, 49.732723], [6.043387, 49.732723], [6.043421, 49.732726], [6.043448, 49.732718], [6.043467, 49.732702], [6.043493, 49.732669], [6.043524, 49.732653], [6.043562, 49.732653], [6.043612, 49.73265], [6.04365, 49.732642], [6.043688, 49.732618], [6.043718, 49.732588], [6.043745, 49.732572], [6.043772, 49.732569], [6.043795, 49.732572], [6.043818, 49.732593], [6.043852, 49.732612], [6.043928, 49.73265], [6.043963, 49.732669], [6.044004, 49.73268], [6.044035, 49.732672], [6.044081, 49.73265], [6.0441, 49.732627], [6.044107, 49.732608], [6.044081, 49.732527], [6.044077, 49.732504], [6.044088, 49.732478], [6.044107, 49.732455], [6.044134, 49.732436], [6.044214, 49.73241], [6.044245, 49.732393], [6.044264, 49.732372], [6.044275, 49.73234], [6.044283, 49.732309], [6.044287, 49.732276], [6.044279, 49.732253], [6.04426, 49.732226], [6.044226, 49.732196], [6.044165, 49.732134], [6.044153, 49.732107], [6.044153, 49.732082], [6.04418, 49.73205], [6.044226, 49.732028], [6.044264, 49.732013], [6.044291, 49.732013], [6.044344, 49.732022], [6.044378, 49.732028], [6.044413, 49.732028], [6.044439, 49.73202], [6.044455, 49.732013], [6.044462, 49.731997], [6.044455, 49.731958], [6.044451, 49.731922], [6.044455, 49.731898], [6.044481, 49.731862], [6.044489, 49.731836], [6.044512, 49.731806], [6.044527, 49.731803], [6.044539, 49.731798], [6.044558, 49.731794], [6.044592, 49.731792], [6.044607, 49.731775], [6.0446, 49.731763], [6.044565, 49.73173], [6.044558, 49.731699], [6.044569, 49.731682], [6.044592, 49.731676], [6.044623, 49.731665], [6.044653, 49.731662], [6.04479, 49.731665], [6.044905, 49.731665], [6.044958, 49.731657], [6.044977, 49.731646], [6.045004, 49.731622], [6.045023, 49.731592], [6.045038, 49.731532], [6.045046, 49.731508], [6.045103, 49.731432], [6.04513, 49.731405], [6.04513, 49.731386], [6.045126, 49.731372], [6.045111, 49.731363], [6.045088, 49.731363], [6.04505, 49.731372], [6.045008, 49.731383], [6.044993, 49.731383], [6.044974, 49.731367], [6.04497, 49.731342], [6.044974, 49.731302], [6.044981, 49.731282], [6.045, 49.731272], [6.045038, 49.731257], [6.045248, 49.731207], [6.045408, 49.731166], [6.045469, 49.731142], [6.045523, 49.731105], [6.045546, 49.731093], [6.045611, 49.731077], [6.04563, 49.731077], [6.045649, 49.731085], [6.045656, 49.731102], [6.045656, 49.731116], [6.045641, 49.731136], [6.045569, 49.731218], [6.045549, 49.73123], [6.045538, 49.731245], [6.045538, 49.731262], [6.045546, 49.731272], [6.045576, 49.731302], [6.045595, 49.731312], [6.045614, 49.73131], [6.045683, 49.73131], [6.045694, 49.731302], [6.045713, 49.731293], [6.045736, 49.731257], [6.045748, 49.731252], [6.045767, 49.731249], [6.045786, 49.731262], [6.045813, 49.731279], [6.045836, 49.731299], [6.045874, 49.731307], [6.045908, 49.731302], [6.045927, 49.731293], [6.045946, 49.731268], [6.045981, 49.731184], [6.04603, 49.731071], [6.046026, 49.731054], [6.046011, 49.731023], [6.046, 49.730992], [6.046007, 49.730975], [6.046011, 49.73093], [6.046023, 49.730857], [6.04603, 49.730832], [6.046084, 49.730795], [6.046175, 49.730749], [6.046236, 49.730716], [6.046381, 49.730662], [6.046404, 49.730652], [6.046434, 49.730643], [6.046457, 49.730632], [6.046465, 49.730612], [6.046473, 49.73059], [6.046484, 49.730573], [6.046495, 49.730562], [6.046515, 49.730556], [6.046541, 49.730553], [6.046568, 49.730542], [6.046591, 49.730532], [6.046614, 49.730528], [6.046633, 49.730528], [6.046675, 49.730525], [6.046709, 49.730513], [6.046736, 49.730497], [6.04677, 49.730475], [6.046827, 49.730452], [6.046892, 49.730432], [6.047003, 49.730387], [6.047056, 49.730373], [6.047121, 49.730356], [6.047159, 49.73035], [6.047205, 49.730345], [6.047293, 49.730368], [6.047327, 49.730379], [6.047388, 49.730379], [6.047415, 49.730368], [6.047442, 49.730353], [6.047472, 49.730342], [6.047491, 49.730345], [6.047503, 49.730353], [6.047525, 49.730364], [6.047545, 49.730373], [6.047568, 49.730373], [6.04759, 49.730368], [6.047613, 49.730353], [6.04764, 49.730326], [6.047659, 49.730283], [6.047682, 49.730263], [6.047724, 49.730227], [6.047739, 49.730209], [6.047732, 49.730182], [6.047728, 49.730153], [6.047728, 49.730136], [6.047735, 49.73012], [6.047747, 49.730112], [6.047762, 49.730105], [6.047777, 49.730105], [6.047819, 49.730109], [6.047857, 49.730112], [6.047892, 49.730112], [6.047926, 49.730109], [6.047937, 49.730097], [6.047949, 49.730083], [6.047945, 49.730072], [6.047926, 49.730052], [6.047899, 49.730017], [6.047896, 49.730005], [6.047899, 49.729994], [6.047915, 49.729979], [6.047937, 49.729976], [6.047968, 49.729972], [6.048006, 49.729976], [6.048021, 49.729987], [6.048025, 49.730005], [6.048021, 49.730029], [6.048014, 49.730043], [6.048014, 49.730066], [6.048021, 49.730083], [6.048044, 49.730102], [6.048071, 49.730112], [6.048094, 49.730117], [6.048117, 49.730109], [6.048144, 49.730102], [6.048185, 49.730078], [6.048243, 49.730047], [6.048365, 49.729994], [6.048384, 49.729968], [6.048399, 49.729942], [6.048407, 49.729892], [6.048418, 49.729842], [6.048437, 49.729813], [6.048452, 49.729799], [6.048479, 49.729796], [6.04851, 49.729799], [6.048544, 49.729813], [6.04867, 49.729877], [6.0487, 49.729887], [6.048723, 49.729892], [6.048746, 49.729882], [6.048777, 49.729872], [6.048842, 49.72983], [6.048895, 49.729813], [6.048918, 49.729796], [6.048925, 49.729782], [6.048922, 49.729765], [6.04891, 49.729757], [6.048899, 49.729746], [6.04888, 49.729735], [6.048872, 49.72972], [6.048876, 49.729704], [6.048906, 49.729672], [6.048918, 49.729655], [6.048925, 49.729633], [6.048941, 49.729616], [6.048971, 49.729591], [6.049002, 49.729582], [6.049028, 49.729578], [6.049048, 49.729578], [6.049078, 49.729591], [6.049109, 49.729593], [6.049143, 49.729593], [6.049185, 49.729582], [6.049231, 49.729563], [6.049307, 49.729542], [6.049357, 49.729509], [6.049387, 49.729442], [6.049414, 49.729406], [6.049433, 49.729382], [6.049456, 49.729372], [6.049479, 49.729368], [6.049643, 49.72938], [6.049681, 49.72938], [6.049708, 49.729372], [6.049719, 49.729362], [6.049719, 49.729322], [6.04973, 49.729307], [6.049749, 49.729292], [6.049776, 49.729284], [6.049837, 49.729277], [6.049936, 49.729282], [6.049994, 49.729284], [6.050078, 49.729303], [6.050127, 49.729312], [6.050169, 49.729315], [6.0502, 49.729303], [6.050226, 49.729289], [6.050245, 49.72927], [6.050272, 49.729213], [6.050283, 49.729185], [6.050283, 49.729155], [6.050291, 49.729123], [6.050299, 49.729102], [6.05031, 49.729087], [6.050352, 49.729067], [6.050394, 49.729056], [6.05044, 49.729048], [6.050474, 49.729048], [6.050516, 49.729059], [6.05057, 49.729082], [6.050619, 49.729087], [6.050654, 49.729087], [6.050692, 49.729082], [6.050749, 49.729062], [6.050791, 49.729042], [6.050829, 49.729013], [6.050848, 49.728992], [6.050867, 49.728969], [6.050898, 49.728949], [6.050921, 49.728942], [6.050943, 49.728937], [6.05097, 49.728945], [6.051024, 49.728964], [6.051054, 49.728969], [6.051073, 49.728964], [6.051096, 49.728949], [6.051115, 49.728907], [6.051138, 49.728872], [6.051176, 49.728838], [6.051207, 49.728822], [6.051237, 49.728819], [6.051275, 49.728827], [6.051321, 49.728838], [6.051352, 49.728834], [6.05139, 49.728832], [6.051436, 49.728827], [6.05147, 49.728834], [6.051516, 49.728838], [6.051558, 49.728838], [6.051588, 49.728834], [6.051634, 49.728827], [6.051676, 49.728822], [6.051703, 49.728822], [6.051714, 49.728827], [6.051752, 49.728832], [6.051783, 49.728834], [6.051828, 49.728834], [6.051863, 49.728822], [6.051912, 49.728792], [6.051939, 49.728762], [6.05197, 49.728739], [6.052004, 49.728722], [6.05205, 49.728708], [6.052088, 49.728702], [6.052118, 49.728702], [6.052145, 49.728705], [6.052275, 49.728732], [6.052336, 49.728747], [6.052382, 49.728747], [6.052416, 49.728742], [6.052504, 49.728708], [6.052557, 49.728682], [6.052599, 49.728655], [6.05263, 49.728628], [6.052656, 49.728582], [6.052679, 49.728548], [6.052702, 49.728529], [6.052736, 49.728512], [6.052763, 49.728506], [6.052786, 49.728506], [6.052839, 49.728512], [6.0529, 49.728512], [6.052927, 49.728506], [6.052961, 49.728502], [6.053057, 49.728506], [6.053137, 49.728502], [6.053171, 49.728502], [6.053217, 49.728495], [6.053251, 49.728479], [6.053301, 49.728457], [6.05332, 49.728452], [6.05335, 49.728449], [6.053389, 49.728449], [6.053469, 49.728452], [6.053522, 49.728449], [6.053556, 49.728442], [6.053618, 49.728426], [6.053663, 49.728412], [6.053713, 49.728396], [6.053766, 49.728382], [6.053839, 49.728369], [6.053873, 49.728365], [6.053972, 49.728365], [6.054033, 49.728369], [6.054075, 49.728369], [6.054117, 49.728362], [6.05414, 49.72835], [6.054186, 49.728322], [6.0543, 49.728242], [6.054369, 49.72819], [6.054403, 49.728162], [6.054434, 49.728129], [6.054468, 49.728082], [6.054472, 49.728062], [6.05448, 49.728045], [6.054476, 49.728029], [6.054472, 49.728018], [6.054461, 49.728012], [6.054384, 49.727976], [6.054369, 49.727964], [6.054365, 49.727945], [6.054377, 49.727932], [6.054407, 49.727915], [6.05443, 49.7279], [6.054453, 49.727872], [6.054483, 49.727822], [6.054491, 49.727808], [6.054548, 49.727789], [6.054587, 49.72777], [6.054598, 49.727759], [6.054621, 49.727722], [6.054632, 49.727692], [6.054644, 49.727678], [6.05469, 49.727659], [6.054712, 49.727648], [6.054743, 49.727622], [6.05475, 49.727594], [6.054754, 49.727545], [6.054754, 49.727507], [6.054777, 49.727462], [6.0548, 49.727438], [6.054819, 49.727427], [6.054869, 49.727412], [6.054964, 49.727396], [6.054991, 49.727388], [6.055018, 49.727372], [6.055044, 49.727352], [6.055067, 49.72732], [6.055086, 49.727285], [6.055109, 49.727262], [6.055162, 49.727232], [6.055197, 49.727224], [6.055246, 49.727209], [6.055281, 49.727198], [6.055307, 49.727182], [6.055349, 49.727152], [6.05538, 49.727122], [6.055437, 49.727042], [6.055456, 49.727022], [6.055479, 49.726999], [6.055487, 49.726982], [6.055498, 49.726946], [6.055506, 49.726908], [6.055513, 49.726892], [6.055529, 49.726877], [6.055555, 49.726852], [6.055597, 49.726828], [6.055643, 49.726797], [6.055685, 49.726762], [6.055727, 49.726722], [6.055788, 49.726652], [6.055807, 49.726637], [6.055834, 49.726626], [6.055887, 49.726612], [6.055944, 49.726602], [6.055979, 49.726599], [6.056009, 49.726602], [6.056105, 49.726642], [6.056132, 49.726648], [6.056166, 49.726645], [6.056196, 49.726637], [6.056231, 49.726614], [6.056254, 49.72658], [6.056276, 49.726534], [6.056326, 49.726352], [6.056345, 49.726309], [6.056383, 49.726232], [6.056418, 49.726179], [6.056471, 49.726112], [6.056536, 49.726042], [6.056749, 49.725855], [6.056791, 49.725817], [6.056818, 49.725782], [6.056833, 49.72576], [6.056856, 49.725718], [6.056879, 49.725607], [6.056906, 49.725485], [6.05691, 49.725402], [6.056913, 49.725355], [6.056936, 49.725262], [6.056944, 49.725226], [6.056936, 49.725187], [6.056906, 49.725138], [6.056845, 49.725077], [6.056799, 49.725027], [6.056769, 49.724982], [6.056761, 49.724959], [6.056769, 49.724939], [6.056795, 49.724912], [6.05681, 49.724886], [6.056814, 49.724867], [6.056814, 49.724852], [6.056791, 49.724798], [6.05678, 49.724768], [6.056769, 49.724512], [6.056742, 49.724394], [6.056727, 49.724306], [6.056727, 49.724262], [6.05673, 49.724215], [6.056765, 49.724102], [6.056772, 49.724066], [6.05678, 49.724039], [6.056803, 49.724016], [6.056822, 49.723974], [6.05686, 49.723909], [6.056894, 49.723842], [6.056955, 49.723732], [6.057009, 49.723597], [6.057043, 49.723482], [6.057089, 49.723269], [6.057127, 49.723102], [6.057154, 49.723009], [6.0572, 49.722902], [6.057219, 49.722849], [6.057249, 49.722815], [6.057314, 49.722765], [6.057402, 49.722722], [6.057478, 49.722677], [6.057547, 49.722628], [6.057585, 49.722597], [6.057631, 49.722555], [6.057699, 49.722482], [6.057722, 49.722452], [6.057772, 49.722395], [6.057924, 49.722222], [6.058031, 49.722105], [6.058058, 49.722105], [6.058073, 49.722102], [6.058092, 49.722092], [6.058172, 49.722025], [6.058218, 49.721982], [6.058272, 49.721937], [6.058313, 49.721899], [6.058375, 49.721832], [6.058405, 49.721785], [6.058435, 49.721732], [6.058466, 49.721686], [6.058489, 49.721659], [6.058512, 49.721636], [6.058588, 49.721556], [6.05866, 49.721457], [6.058729, 49.721426], [6.058771, 49.721382], [6.058783, 49.721352], [6.058775, 49.721327], [6.05876, 49.721292], [6.058699, 49.721212], [6.058657, 49.721148], [6.05863, 49.721106], [6.058619, 49.721062], [6.058611, 49.721042], [6.058619, 49.721022], [6.058623, 49.721006], [6.058649, 49.720976], [6.058664, 49.720965], [6.058676, 49.720968], [6.059168, 49.721228], [6.059225, 49.721252], [6.059286, 49.721277], [6.059355, 49.721308], [6.059481, 49.721362], [6.060194, 49.721647], [6.060328, 49.721716], [6.060408, 49.721758], [6.060656, 49.721922], [6.060782, 49.721992], [6.061018, 49.722102], [6.061235, 49.722204], [6.06143, 49.722319], [6.061636, 49.72246], [6.061789, 49.722582], [6.06196, 49.722715], [6.062155, 49.722862], [6.062296, 49.722956], [6.062426, 49.723036], [6.062693, 49.723188], [6.062727, 49.723208], [6.062868, 49.723262], [6.063326, 49.723448], [6.064104, 49.723745], [6.06436, 49.723848], [6.064802, 49.724024], [6.065237, 49.724268], [6.065638, 49.724497], [6.06576, 49.724577], [6.065928, 49.724676], [6.066324, 49.724862], [6.066725, 49.725027], [6.067286, 49.724692], [6.06727, 49.72468], [6.067679, 49.724417], [6.067873, 49.724276], [6.068346, 49.723922], [6.068815, 49.723566], [6.069376, 49.723154], [6.069914, 49.722757], [6.070013, 49.722685], [6.070437, 49.722365], [6.070772, 49.721972], [6.071158, 49.721522], [6.071497, 49.721132], [6.071814, 49.720762], [6.072107, 49.720415], [6.07258, 49.719847], [6.072806, 49.71958], [6.072954, 49.719175], [6.073042, 49.718969], [6.073408, 49.718572], [6.073446, 49.718538], [6.073492, 49.718502], [6.073877, 49.718042], [6.0739, 49.718008], [6.073782, 49.717978], [6.073565, 49.717942], [6.073317, 49.717939], [6.073065, 49.717952], [6.072924, 49.717955], [6.072752, 49.717947], [6.072638, 49.717909], [6.072561, 49.717872], [6.072329, 49.717749], [6.072271, 49.717692], [6.072207, 49.717622], [6.072058, 49.717535], [6.071955, 49.717474], [6.071795, 49.717428], [6.071684, 49.717394], [6.071589, 49.717392], [6.071497, 49.717405], [6.071322, 49.717455], [6.071085, 49.717502], [6.070917, 49.717497], [6.070677, 49.717508], [6.07052, 49.717516], [6.070463, 49.717512], [6.070368, 49.717492], [6.070284, 49.717459], [6.070261, 49.717422], [6.070231, 49.71736], [6.070177, 49.717295], [6.06999, 49.717162], [6.069872, 49.717082], [6.069742, 49.716936], [6.069571, 49.716782], [6.069369, 49.716646], [6.069254, 49.716582], [6.069269, 49.716566], [6.06938, 49.716459], [6.069536, 49.716307], [6.069536, 49.716219], [6.06954, 49.716196], [6.069571, 49.716127], [6.069616, 49.716074], [6.069693, 49.716012], [6.069796, 49.715956], [6.070387, 49.716122], [6.070482, 49.716132], [6.071085, 49.716182], [6.071757, 49.716234], [6.072256, 49.716276], [6.072535, 49.716307], [6.072794, 49.716342], [6.073011, 49.716379], [6.073282, 49.716432], [6.073576, 49.716719], [6.073694, 49.71678], [6.075415, 49.716782], [6.076132, 49.716795], [6.07651, 49.716776], [6.077047, 49.716745], [6.077749, 49.716566], [6.078295, 49.716597], [6.078337, 49.716585], [6.078447, 49.716555], [6.078508, 49.716542], [6.078646, 49.716502], [6.078818, 49.716444], [6.079546, 49.716222], [6.080691, 49.715868], [6.081099, 49.715738], [6.081553, 49.715632], [6.082537, 49.715437], [6.082655, 49.715418], [6.082785, 49.715382], [6.083311, 49.715208], [6.083674, 49.715086], [6.083769, 49.715056], [6.083792, 49.715048], [6.083551, 49.714956], [6.082827, 49.714682], [6.0819, 49.714338], [6.081713, 49.714232], [6.080984, 49.712797], [6.080645, 49.712107], [6.080374, 49.711599], [6.080202, 49.711292], [6.079619, 49.710402], [6.079409, 49.710072], [6.07931, 49.709902], [6.079119, 49.709478], [6.078722, 49.708632], [6.078455, 49.708075], [6.078215, 49.707579], [6.078142, 49.707532], [6.078036, 49.707457], [6.077761, 49.707222], [6.077368, 49.706816], [6.0772, 49.706637], [6.077044, 49.706465], [6.076902, 49.706252], [6.075892, 49.704672], [6.075171, 49.703554], [6.074942, 49.702872], [6.074831, 49.702677], [6.07474, 49.702522], [6.074782, 49.702505], [6.074694, 49.702349], [6.074652, 49.702311], [6.074507, 49.702272], [6.0744, 49.702232], [6.07411, 49.701812], [6.074007, 49.701658], [6.0739, 49.70151], [6.073893, 49.701492], [6.07374, 49.701252], [6.073671, 49.701142], [6.073599, 49.701032], [6.073546, 49.700949], [6.073481, 49.700846], [6.073469, 49.700832], [6.073351, 49.700636], [6.07321, 49.700419], [6.073054, 49.700167], [6.072817, 49.699812], [6.072603, 49.699499], [6.07247, 49.699297], [6.072355, 49.699132], [6.07234, 49.699106], [6.072237, 49.698958], [6.072203, 49.698904], [6.07202, 49.698828], [6.072012, 49.698843], [6.071871, 49.699047], [6.071642, 49.69939], [6.071539, 49.699547], [6.071455, 49.69964], [6.071169, 49.69994], [6.071081, 49.700035], [6.070986, 49.700134], [6.070833, 49.7003], [6.070806, 49.700325], [6.070623, 49.700523], [6.070593, 49.700554], [6.07044, 49.700714], [6.070379, 49.70078], [6.07033, 49.700836], [6.070173, 49.701], [6.070124, 49.701054], [6.070074, 49.701107], [6.069975, 49.70122], [6.069952, 49.70125], [6.069872, 49.70134], [6.069841, 49.70138], [6.06975, 49.70149], [6.069765, 49.701687], [6.069776, 49.701824], [6.069784, 49.70197], [6.06978, 49.70207], [6.069773, 49.702114], [6.069754, 49.702206], [6.069727, 49.702316], [6.069685, 49.70237], [6.069647, 49.702415], [6.069529, 49.702534], [6.069422, 49.702644], [6.069361, 49.702744], [6.069326, 49.702816], [6.069178, 49.70288], [6.068811, 49.70303], [6.06872, 49.703075], [6.068701, 49.70308], [6.068674, 49.70309], [6.068571, 49.70309], [6.068548, 49.703102], [6.068506, 49.703133], [6.068396, 49.703205], [6.068365, 49.703224], [6.068296, 49.70326], [6.068232, 49.7033], [6.068178, 49.703335], [6.068151, 49.70335], [6.068113, 49.70336], [6.068094, 49.70337], [6.068071, 49.703377], [6.068041, 49.70338], [6.067984, 49.70339], [6.067942, 49.703392], [6.067911, 49.703396], [6.067842, 49.703396], [6.067781, 49.703407], [6.067698, 49.703426], [6.067644, 49.70343], [6.067556, 49.70343], [6.06753, 49.703434], [6.067492, 49.703445], [6.067434, 49.70346], [6.067312, 49.703495], [6.067175, 49.70352], [6.067118, 49.703526], [6.067072, 49.70352], [6.067034, 49.70352], [6.067007, 49.703518], [6.066912, 49.703514], [6.066771, 49.703514], [6.066591, 49.70351], [6.066546, 49.70351], [6.066458, 49.703495], [6.066408, 49.703487], [6.066259, 49.70348], [6.06621, 49.70348], [6.066198, 49.703476], [6.066175, 49.703472], [6.066088, 49.70344], [6.066053, 49.703438], [6.066011, 49.70344], [6.065947, 49.703457], [6.065874, 49.703472], [6.065821, 49.703487], [6.065737, 49.703506], [6.065649, 49.70353], [6.065584, 49.70354], [6.065466, 49.70354], [6.065363, 49.70356], [6.065252, 49.70358], [6.065203, 49.703587], [6.06513, 49.703587], [6.064959, 49.70357], [6.064836, 49.703568], [6.064718, 49.70357], [6.064573, 49.703587], [6.06447, 49.7036], [6.06436, 49.703617], [6.064306, 49.703617], [6.064238, 49.703606], [6.064196, 49.7036], [6.064142, 49.7036], [6.064074, 49.703606], [6.064016, 49.703606], [6.063963, 49.70361], [6.063894, 49.703613], [6.063784, 49.70361], [6.063742, 49.703613], [6.063703, 49.703617], [6.063631, 49.70363], [6.063581, 49.70363], [6.063444, 49.70362], [6.063376, 49.703617], [6.063292, 49.70362], [6.063181, 49.70362], [6.063116, 49.703606], [6.063082, 49.7036], [6.062956, 49.70362], [6.062925, 49.70362], [6.062883, 49.70361], [6.062841, 49.70361], [6.062792, 49.70363], [6.062738, 49.703648], [6.062704, 49.70365], [6.06267, 49.703648], [6.062643, 49.703636], [6.062624, 49.70362], [6.062582, 49.703583], [6.062536, 49.703552], [6.062502, 49.703537], [6.062426, 49.703518], [6.062326, 49.703506], [6.062223, 49.703495], [6.062128, 49.70349], [6.062025, 49.70349], [6.061918, 49.7035], [6.061865, 49.703495], [6.061804, 49.703487], [6.061708, 49.703472], [6.061605, 49.703445], [6.061525, 49.703415], [6.061453, 49.703377], [6.061384, 49.70333], [6.061331, 49.703304], [6.061262, 49.703278], [6.061197, 49.703266], [6.061152, 49.703255], [6.061106, 49.703236], [6.061079, 49.703228], [6.06106, 49.70322], [6.06093, 49.703197], [6.060782, 49.703175], [6.060633, 49.70316], [6.060499, 49.703148], [6.060377, 49.703144], [6.060228, 49.703148], [6.060041, 49.70316], [6.059935, 49.70317], [6.059874, 49.70317], [6.059847, 49.703163], [6.05979, 49.703136], [6.059763, 49.70313], [6.059721, 49.703125], [6.059668, 49.70312], [6.059633, 49.703114], [6.059584, 49.703094], [6.059526, 49.70307], [6.059458, 49.703056], [6.059301, 49.70303], [6.059172, 49.703], [6.059092, 49.702976], [6.058989, 49.70295], [6.058721, 49.702892], [6.058695, 49.702896], [6.058661, 49.702904], [6.058622, 49.702904], [6.058592, 49.702896], [6.058577, 49.70289], [6.058554, 49.702866], [6.058527, 49.70284], [6.0585, 49.702824], [6.05847, 49.702812], [6.058439, 49.70281], [6.058386, 49.702805], [6.0585, 49.702557], [6.058615, 49.702324], [6.058748, 49.70223], [6.058996, 49.702053], [6.059168, 49.70187], [6.059214, 49.70182], [6.059374, 49.701653], [6.059523, 49.70156], [6.059751, 49.70142], [6.059359, 49.701427], [6.059084, 49.70147], [6.058699, 49.701447], [6.058481, 49.701412], [6.058252, 49.70137], [6.058008, 49.70126], [6.057825, 49.70118], [6.057692, 49.70112], [6.057772, 49.700962], [6.057913, 49.700714], [6.058012, 49.70053], [6.058065, 49.70044], [6.058199, 49.700188], [6.058367, 49.699883], [6.058443, 49.699738], [6.058542, 49.699562], [6.058645, 49.699364], [6.058658, 49.699344], [6.058683, 49.699306], [6.05871, 49.699253], [6.058733, 49.699215], [6.05876, 49.699165], [6.058775, 49.69914], [6.058825, 49.699055], [6.058973, 49.6989], [6.059038, 49.698837], [6.059099, 49.69877], [6.059153, 49.698715], [6.059217, 49.69865], [6.059359, 49.6985], [6.059374, 49.69849], [6.059313, 49.698483], [6.059156, 49.69846], [6.058924, 49.698425], [6.058523, 49.69836], [6.05863, 49.69811], [6.058657, 49.698044], [6.058752, 49.697826], [6.058825, 49.69768], [6.058916, 49.69751], [6.0585, 49.697384], [6.058092, 49.697258], [6.057489, 49.69708], [6.055937, 49.696608], [6.05567, 49.69688], [6.055639, 49.696915], [6.055548, 49.69701], [6.055498, 49.697075], [6.055479, 49.697098], [6.055414, 49.69719], [6.055372, 49.697243], [6.055243, 49.697422], [6.05522, 49.69745], [6.055059, 49.697666], [6.054647, 49.697685], [6.054502, 49.69765], [6.054266, 49.69759], [6.054174, 49.69753], [6.054026, 49.697437], [6.05372, 49.697216], [6.053694, 49.697193], [6.053389, 49.69695], [6.05335, 49.696964], [6.053095, 49.696743], [6.052854, 49.69655], [6.052794, 49.696478], [6.052252, 49.696125], [6.051939, 49.695915], [6.051695, 49.69575], [6.051355, 49.695515], [6.0511, 49.695347], [6.051348, 49.695183], [6.051409, 49.69514], [6.051004, 49.694927], [6.050577, 49.694706], [6.050322, 49.694572], [6.049913, 49.694374], [6.049374, 49.69412], [6.049228, 49.694052], [6.049208, 49.694042], [6.049166, 49.694084], [6.049116, 49.694138], [6.048651, 49.694016], [6.048201, 49.693893], [6.048025, 49.693844], [6.047773, 49.69377], [6.047255, 49.693623], [6.047068, 49.693565], [6.04685, 49.69391], [6.04669, 49.694157], [6.046164, 49.6941], [6.045942, 49.694065], [6.045706, 49.694027], [6.045282, 49.693996], [6.04508, 49.69398], [6.044817, 49.69395], [6.044741, 49.693943], [6.044493, 49.693916], [6.044256, 49.693893], [6.044008, 49.69387], [6.043764, 49.693844], [6.043535, 49.693817], [6.043295, 49.693787], [6.043146, 49.693752], [6.042982, 49.69371], [6.042868, 49.69368], [6.042635, 49.693592], [6.042433, 49.69352], [6.042177, 49.69341], [6.042028, 49.693344], [6.04178, 49.693237], [6.041624, 49.69317], [6.041395, 49.693058], [6.041208, 49.692966], [6.041033, 49.692894], [6.040819, 49.692802], [6.040422, 49.69264], [6.040186, 49.69255], [6.039976, 49.692474], [6.039679, 49.692352], [6.039545, 49.692303], [6.039347, 49.692223], [6.03916, 49.692154], [6.03882, 49.69203], [6.03874, 49.692005], [6.038488, 49.69192], [6.038248, 49.69184], [6.038027, 49.691765], [6.037821, 49.69169], [6.037676, 49.691624], [6.037382, 49.691483], [6.037245, 49.691414], [6.037062, 49.69131], [6.036844, 49.69146], [6.036669, 49.691586], [6.036383, 49.691772], [6.036314, 49.69182], [6.035936, 49.69208], [6.035898, 49.69211], [6.036081, 49.692204], [6.036429, 49.69237], [6.036612, 49.692467], [6.036932, 49.692627], [6.037539, 49.692932], [6.037668, 49.69311], [6.037806, 49.69319], [6.037623, 49.69338], [6.037539, 49.693462], [6.037188, 49.693825], [6.036966, 49.694042], [6.036947, 49.694065], [6.036783, 49.69423], [6.036612, 49.694397], [6.036341, 49.694668], [6.036249, 49.694756], [6.036234, 49.694775], [6.036196, 49.69481], [6.036062, 49.69494], [6.036039, 49.69496], [6.035929, 49.69507], [6.035875, 49.69512], [6.035753, 49.695244], [6.03562, 49.695377], [6.035547, 49.69545], [6.035517, 49.69548], [6.035505, 49.695496], [6.03541, 49.69546], [6.035025, 49.695328], [6.034658, 49.6952], [6.034349, 49.6951], [6.033571, 49.694843], [6.033442, 49.69481], [6.033224, 49.694748], [6.033255, 49.69481], [6.033281, 49.69489], [6.033285, 49.694942], [6.033266, 49.695026], [6.033239, 49.69511], [6.033197, 49.69518], [6.033148, 49.695244], [6.033079, 49.695343], [6.033056, 49.695374], [6.032949, 49.69553], [6.032892, 49.695625], [6.032854, 49.695694], [6.032835, 49.695736], [6.032827, 49.69577], [6.032827, 49.69581], [6.032835, 49.69583], [6.032858, 49.695873], [6.032877, 49.6959], [6.0329, 49.695927], [6.032911, 49.695946], [6.032953, 49.696007], [6.03306, 49.696148], [6.033148, 49.696274], [6.033167, 49.696304], [6.033186, 49.696323], [6.033136, 49.696384], [6.033117, 49.696373], [6.033022, 49.696278], [6.032904, 49.69622], [6.032736, 49.69617], [6.032572, 49.696117], [6.032438, 49.69613], [6.032232, 49.696175], [6.032072, 49.69628], [6.032, 49.69632], [6.031931, 49.696323], [6.031847, 49.69631], [6.03163, 49.696247], [6.031519, 49.6962], [6.031382, 49.69611], [6.031199, 49.696003], [6.031065, 49.69597], [6.030859, 49.695953], [6.030626, 49.695953], [6.030405, 49.69593], [6.030207, 49.695892], [6.029905, 49.695805], [6.029684, 49.69574], [6.029585, 49.695744], [6.029257, 49.695827], [6.028967, 49.69585], [6.028646, 49.695885], [6.02833, 49.69593], [6.028128, 49.696022], [6.027994, 49.696053], [6.027811, 49.696075], [6.027563, 49.696156], [6.027166, 49.69625], [6.026449, 49.696537], [6.0259, 49.696823], [6.025713, 49.69687], [6.025484, 49.69687], [6.025091, 49.696865], [6.024824, 49.696922], [6.02458, 49.697002], [6.02429, 49.697075], [6.023909, 49.6971], [6.02389, 49.69708], [6.023855, 49.697025], [6.023786, 49.696968], [6.023718, 49.696915], [6.023523, 49.69675], [6.023466, 49.696705], [6.023203, 49.696476], [6.023054, 49.69635], [6.02294, 49.69625], [6.022898, 49.69621], [6.022779, 49.6961], [6.022539, 49.69587], [6.02223, 49.695988], [6.022123, 49.69603], [6.021986, 49.69609], [6.021765, 49.696205], [6.021509, 49.696335], [6.021368, 49.696392], [6.021318, 49.696407], [6.02128, 49.69642], [6.021173, 49.696453], [6.021116, 49.696472], [6.021017, 49.696507], [6.020834, 49.696575], [6.020655, 49.696655], [6.02035, 49.69679], [6.020037, 49.696926], [6.019918, 49.69698], [6.019812, 49.69703], [6.019724, 49.697067], [6.019518, 49.697166], [6.019297, 49.69725], [6.019182, 49.69728], [6.018938, 49.69735], [6.018648, 49.69742], [6.018549, 49.697227], [6.018522, 49.697178], [6.018019, 49.69721], [6.01758, 49.69723], [6.017416, 49.69724], [6.01708, 49.69724], [6.01697, 49.69722], [6.016859, 49.697193], [6.016703, 49.697144], [6.016363, 49.697018], [6.016302, 49.69709], [6.01623, 49.697067], [6.015837, 49.69695], [6.015757, 49.696922], [6.015696, 49.6969], [6.015432, 49.696785], [6.015272, 49.696716], [6.015108, 49.69664], [6.014986, 49.696568], [6.014765, 49.696396], [6.014498, 49.696167], [6.01409, 49.695858], [6.013865, 49.69569], [6.013456, 49.69538], [6.013327, 49.695286], [6.013228, 49.695213], [6.01293, 49.694977], [6.012503, 49.694775], [6.012335, 49.694702], [6.012281, 49.69468], [6.012121, 49.694607], [6.012026, 49.69457], [6.011683, 49.694458], [6.011343, 49.69435], [6.011004, 49.69424], [6.010874, 49.69438], [6.010847, 49.694412], [6.010687, 49.694588], [6.010633, 49.69464], [6.010405, 49.69487], [6.009569, 49.694637], [6.009527, 49.69468], [6.009348, 49.69487], [6.009161, 49.695065], [6.00905, 49.695175], [6.009008, 49.69522], [6.008944, 49.695286], [6.008871, 49.695362], [6.008841, 49.69539], [6.008562, 49.695377], [6.008242, 49.695377], [6.008142, 49.69535], [6.008051, 49.6953], [6.007944, 49.69527], [6.007772, 49.69529], [6.007379, 49.695457], [6.007196, 49.695484], [6.006922, 49.69552], [6.006823, 49.695503], [6.006754, 49.69546], [6.006716, 49.695396], [6.006666, 49.695168], [6.006609, 49.695118], [6.006361, 49.69507], [6.00614, 49.69502], [6.006102, 49.695065], [6.005766, 49.695454], [6.005751, 49.695477], [6.00654, 49.695747], [6.006449, 49.695885], [6.00609, 49.69643], [6.006361, 49.696487], [6.006315, 49.696625], [6.006304, 49.69666], [6.006277, 49.696735], [6.006262, 49.696796], [6.006254, 49.696823], [6.00625, 49.696846], [6.006235, 49.6969], [6.00622, 49.696976], [6.006208, 49.697044], [6.006201, 49.69708], [6.006185, 49.697147], [6.006163, 49.697277], [6.006147, 49.697342], [6.006113, 49.69752], [6.006094, 49.697613], [6.006041, 49.697857], [6.006025, 49.697914], [6.005255, 49.69792], [6.004976, 49.69791], [6.004606, 49.698112], [6.004332, 49.69826], [6.003687, 49.698223], [6.003294, 49.69817], [6.002905, 49.698242], [6.002203, 49.69812], [6.001566, 49.697807], [6.00152, 49.697784], [6.001116, 49.697586], [6.000708, 49.697437], [6.000288, 49.69728], [5.999987, 49.69709], [5.999918, 49.69705], [5.999941, 49.696938], [5.999693, 49.69688], [5.999525, 49.69685], [5.999308, 49.69682], [5.999094, 49.696804], [5.998797, 49.6968], [5.99859, 49.69681], [5.998339, 49.696835], [5.998251, 49.696846], [5.998182, 49.696865], [5.998068, 49.6969], [5.997961, 49.69695], [5.997763, 49.697056], [5.996923, 49.697556], [5.997366, 49.697895], [5.997744, 49.698177], [5.997843, 49.69825], [5.997942, 49.698326], [5.998007, 49.69867], [5.997984, 49.698902], [5.997942, 49.699024], [5.997892, 49.699165], [5.997885, 49.699192], [5.997862, 49.699257], [5.997827, 49.69934], [5.997759, 49.69951], [5.997744, 49.699543], [5.997595, 49.699886], [5.997644, 49.699894], [5.997778, 49.699905], [5.997934, 49.69993], [5.998087, 49.69995], [5.998213, 49.69997], [5.998442, 49.700016], [5.998747, 49.70009], [5.999102, 49.70019], [5.999636, 49.70035], [6.000067, 49.700497], [6.000002, 49.700592], [5.999991, 49.700607], [5.999968, 49.700645], [5.999845, 49.700806], [5.999834, 49.70082], [5.999777, 49.700897], [5.999739, 49.70095], [5.999472, 49.7013], [5.999399, 49.701397], [5.999369, 49.701443], [5.99935, 49.701485], [5.999342, 49.701504], [5.999323, 49.701546], [5.999315, 49.701565], [5.999296, 49.701607], [5.999273, 49.701668], [5.999315, 49.7017], [5.999655, 49.70194], [5.999971, 49.702175], [6.000509, 49.70257], [6.000498, 49.70258], [6.000788, 49.702812], [6.000818, 49.702835], [6.00086, 49.70286], [6.000925, 49.702915], [6.001261, 49.70318], [6.001665, 49.703484], [6.001726, 49.703465], [6.001799, 49.703445], [6.001909, 49.70343], [6.002062, 49.703396], [6.002169, 49.703358], [6.002249, 49.70332], [6.002329, 49.703278], [6.002359, 49.70326], [6.002443, 49.7032], [6.002493, 49.703156], [6.002539, 49.703117], [6.002634, 49.70303], [6.002653, 49.70302], [6.002676, 49.703003], [6.00271, 49.702988], [6.002821, 49.702953], [6.002939, 49.70292], [6.003187, 49.702847], [6.003488, 49.70309], [6.003851, 49.703373], [6.003038, 49.703903], [6.002752, 49.704117], [6.002668, 49.70419], [6.002592, 49.70427], [6.00252, 49.704353], [6.002459, 49.70445], [6.002542, 49.70449], [6.002619, 49.704533], [6.002733, 49.704594], [6.002916, 49.704693], [6.003122, 49.7048], [6.003344, 49.70492], [6.003775, 49.70515], [6.003992, 49.705265], [6.004251, 49.705406], [6.00424, 49.705425], [6.004225, 49.705452], [6.004213, 49.705475], [6.004206, 49.70551], [6.004206, 49.70553], [6.004202, 49.70557], [6.004183, 49.70558], [6.003927, 49.705738], [6.003882, 49.70576], [6.00382, 49.7058], [6.003733, 49.705853], [6.003584, 49.70594], [6.003531, 49.705975], [6.003332, 49.706097], [6.003088, 49.706238], [6.003019, 49.706276], [6.002859, 49.70636], [6.002645, 49.706455], [6.002588, 49.70648], [6.002462, 49.706528], [6.002249, 49.706627], [6.002119, 49.706688], [6.0021, 49.7067], [6.002081, 49.70671], [6.001848, 49.70686], [6.001684, 49.706985], [6.001558, 49.707096], [6.001333, 49.70729], [6.001299, 49.707314], [6.001112, 49.70746], [6.000994, 49.707546], [6.000891, 49.707626], [6.000708, 49.70778], [6.000544, 49.70792], [6.000383, 49.70807], [6.000235, 49.708206], [6.000128, 49.70831], [6.000067, 49.708366], [6.000006, 49.70843], [5.999945, 49.708504], [5.999914, 49.708534], [5.999716, 49.708748], [5.999514, 49.70899], [5.999483, 49.709023], [5.999422, 49.7091], [5.999315, 49.70923], [5.999273, 49.709282], [5.999155, 49.70942], [5.998964, 49.709633], [5.998903, 49.7097], [5.998873, 49.709736], [5.998755, 49.70987], [5.998671, 49.70996], [5.998636, 49.710003], [5.998564, 49.710083], [5.998293, 49.710396], [5.998159, 49.71056], [5.997995, 49.710743], [5.997889, 49.71086], [5.997824, 49.710938], [5.997782, 49.710983], [5.997767, 49.711002], [5.997675, 49.7111], [5.997576, 49.711224], [5.997553, 49.71126], [5.997534, 49.711315], [5.99753, 49.71134], [5.997515, 49.711514], [5.997503, 49.71154], [5.997492, 49.711582], [5.997137, 49.712025], [5.997343, 49.71212], [5.997526, 49.71222], [5.997732, 49.712345], [5.997927, 49.712475], [5.998026, 49.71254], [5.998137, 49.712616], [5.998293, 49.71273], [5.998339, 49.712776], [5.998396, 49.712826], [5.998491, 49.712917], [5.998526, 49.712944], [5.998716, 49.71312], [5.998785, 49.71308], [5.999128, 49.713287], [5.999205, 49.71334], [5.999262, 49.713394], [5.999327, 49.71348], [5.999395, 49.71363], [5.999445, 49.71375], [5.999498, 49.71385], [5.999571, 49.713974], [5.999655, 49.714096], [5.999369, 49.71429], [5.99885, 49.714626], [5.998957, 49.714672], [5.999121, 49.71475], [5.998983, 49.71484], [5.998854, 49.714928], [5.998724, 49.715015], [5.998552, 49.71513], [5.998385, 49.71524], [5.998297, 49.7153], [5.99814, 49.715412], [5.998003, 49.715515], [5.99793, 49.715584], [5.997797, 49.715706], [5.997709, 49.715794], [5.997644, 49.71586], [5.997587, 49.71591], [5.997526, 49.715973], [5.997458, 49.716038], [5.997347, 49.71614], [5.997229, 49.716255], [5.99708, 49.71638], [5.996775, 49.716724]]]]}}]}