{"type": "FeatureCollection", "features": [{"type": "Feature", "properties": {"name": "Mompach"}, "geometry": {"type": "MultiPolygon", "coordinates": [[[[6.39131, 49.75407], [6.391375, 49.754353], [6.391447, 49.754654], [6.391546, 49.754562], [6.391764, 49.75469], [6.391863, 49.754745], [6.392115, 49.75489], [6.39224, 49.754967], [6.392366, 49.75504], [6.393274, 49.75556], [6.393404, 49.75564], [6.393866, 49.755905], [6.393961, 49.75605], [6.39406, 49.75619], [6.394133, 49.756294], [6.394243, 49.75641], [6.394365, 49.75653], [6.394438, 49.756596], [6.394506, 49.756653], [6.394651, 49.75676], [6.394701, 49.756794], [6.394857, 49.75689], [6.39488, 49.7569], [6.395189, 49.75707], [6.395246, 49.7571], [6.39562, 49.75728], [6.396196, 49.757572], [6.39649, 49.7578], [6.396959, 49.758137], [6.397303, 49.75837], [6.397417, 49.758434], [6.398832, 49.760365], [6.399576, 49.761654], [6.399931, 49.762375], [6.400568, 49.76366], [6.400698, 49.765297], [6.400854, 49.766644], [6.400923, 49.766685], [6.401434, 49.766384], [6.402006, 49.766068], [6.402151, 49.766037], [6.404936, 49.76569], [6.406481, 49.765], [6.407858, 49.764378], [6.408815, 49.76407], [6.410265, 49.764313], [6.411852, 49.764397], [6.412554, 49.76448], [6.413324, 49.764584], [6.416243, 49.765293], [6.417231, 49.76578], [6.418455, 49.766388], [6.419741, 49.767628], [6.420305, 49.768154], [6.420935, 49.768604], [6.421423, 49.769222], [6.421965, 49.76983], [6.421839, 49.769928], [6.42169, 49.770042], [6.422205, 49.770462], [6.422579, 49.77073], [6.422861, 49.770905], [6.423101, 49.77104], [6.423342, 49.771152], [6.423567, 49.77125], [6.424017, 49.77141], [6.424074, 49.771427], [6.424154, 49.771446], [6.424585, 49.771538], [6.425081, 49.77164], [6.425234, 49.77167], [6.42539, 49.7717], [6.425531, 49.771725], [6.425646, 49.771732], [6.425871, 49.77174], [6.425993, 49.77174], [6.426039, 49.771744], [6.426104, 49.77169], [6.426153, 49.771675], [6.426287, 49.771664], [6.426439, 49.77167], [6.42658, 49.77169], [6.426683, 49.77174], [6.426741, 49.771797], [6.426813, 49.771935], [6.427321, 49.771954], [6.428286, 49.771988], [6.428328, 49.77197], [6.428507, 49.77197], [6.428675, 49.771973], [6.428934, 49.771976], [6.42901, 49.771976], [6.429052, 49.77198], [6.429174, 49.77198], [6.429461, 49.771984], [6.429445, 49.772335], [6.429453, 49.77246], [6.429483, 49.77254], [6.429583, 49.77269], [6.429659, 49.772785], [6.429781, 49.772873], [6.429892, 49.77294], [6.430014, 49.772995], [6.430178, 49.77307], [6.430494, 49.77285], [6.430674, 49.772717], [6.430845, 49.772583], [6.431177, 49.772293], [6.431272, 49.772224], [6.431421, 49.772137], [6.43157, 49.772053], [6.431997, 49.77183], [6.432329, 49.772118], [6.432497, 49.77226], [6.432554, 49.772305], [6.432619, 49.772358], [6.432669, 49.772404], [6.432749, 49.77247], [6.432791, 49.772503], [6.432833, 49.77254], [6.432898, 49.772594], [6.433317, 49.772663], [6.433584, 49.772705], [6.433767, 49.772728], [6.433966, 49.772755], [6.434111, 49.772774], [6.434164, 49.77278], [6.434469, 49.772827], [6.434732, 49.772858], [6.434893, 49.77287], [6.435011, 49.772873], [6.435515, 49.77288], [6.435701, 49.772842], [6.435823, 49.772827], [6.435988, 49.772808], [6.436274, 49.772774], [6.436647, 49.772728], [6.437132, 49.77267], [6.437429, 49.772636], [6.437624, 49.77261], [6.437815, 49.772587], [6.437841, 49.772583], [6.438093, 49.772552], [6.438696, 49.772472], [6.440958, 49.77217], [6.442144, 49.77042], [6.442148, 49.770393], [6.442156, 49.77036], [6.442285, 49.769596], [6.442427, 49.76919], [6.442865, 49.768806], [6.443865, 49.767956], [6.444132, 49.767723], [6.444181, 49.76774], [6.444277, 49.767696], [6.444582, 49.767567], [6.444681, 49.76752], [6.444784, 49.76748], [6.444891, 49.767433], [6.445005, 49.767384], [6.445116, 49.76733], [6.445215, 49.76728], [6.445421, 49.76718], [6.44573, 49.767033], [6.445845, 49.76697], [6.445959, 49.766914], [6.446089, 49.766846], [6.446222, 49.76678], [6.446386, 49.766697], [6.446585, 49.766594], [6.446642, 49.766563], [6.446718, 49.766525], [6.446806, 49.76648], [6.447386, 49.766174], [6.447683, 49.766014], [6.448015, 49.76584], [6.448183, 49.7657], [6.448248, 49.765648], [6.448496, 49.765446], [6.448679, 49.765293], [6.448797, 49.765198], [6.448885, 49.765125], [6.448965, 49.76506], [6.449049, 49.764988], [6.449427, 49.76468], [6.449858, 49.76444], [6.450289, 49.764183], [6.450552, 49.764023], [6.450739, 49.763897], [6.450831, 49.76383], [6.450956, 49.76372], [6.451075, 49.7636], [6.451185, 49.763474], [6.451288, 49.763336], [6.451353, 49.76323], [6.45138, 49.763172], [6.451407, 49.76312], [6.451479, 49.763145], [6.451521, 49.76317], [6.451647, 49.763237], [6.451857, 49.76339], [6.452272, 49.7637], [6.452612, 49.76395], [6.452639, 49.763973], [6.452948, 49.76421], [6.452974, 49.764233], [6.45307, 49.76437], [6.453279, 49.764553], [6.453505, 49.764744], [6.453596, 49.76482], [6.453726, 49.764923], [6.453951, 49.7651], [6.454126, 49.76524], [6.454531, 49.76556], [6.454794, 49.765774], [6.454828, 49.765778], [6.455221, 49.765873], [6.455416, 49.765926], [6.455725, 49.766018], [6.45582, 49.766068], [6.455862, 49.766087], [6.456007, 49.766167], [6.456602, 49.76625], [6.457045, 49.76628], [6.457609, 49.766308], [6.45785, 49.76649], [6.45796, 49.76658], [6.458521, 49.76702], [6.458571, 49.76706], [6.458822, 49.76726], [6.459196, 49.767567], [6.459639, 49.767956], [6.459856, 49.76814], [6.460028, 49.76828], [6.460039, 49.768288], [6.460054, 49.7683], [6.460077, 49.76831], [6.460142, 49.768353], [6.460196, 49.768383], [6.460253, 49.768414], [6.460344, 49.768467], [6.46036, 49.768475], [6.460459, 49.76853], [6.460589, 49.768604], [6.460665, 49.768646], [6.460684, 49.768658], [6.460829, 49.768738], [6.460909, 49.768787], [6.461069, 49.76888], [6.461149, 49.768925], [6.461203, 49.76895], [6.461241, 49.768974], [6.461286, 49.768997], [6.461344, 49.769024], [6.461538, 49.769108], [6.461939, 49.769276], [6.461969, 49.76929], [6.462317, 49.769436], [6.462473, 49.7695], [6.462557, 49.76954], [6.462851, 49.769623], [6.46319, 49.769722], [6.463385, 49.76978], [6.463575, 49.769833], [6.463705, 49.76987], [6.464025, 49.769966], [6.464083, 49.769985], [6.464235, 49.770023], [6.464445, 49.77008], [6.464468, 49.770084], [6.464819, 49.770195], [6.465086, 49.77028], [6.465155, 49.7703], [6.465483, 49.770405], [6.465612, 49.770447], [6.465712, 49.770477], [6.465815, 49.77051], [6.46591, 49.770542], [6.466017, 49.770576], [6.46612, 49.77061], [6.466223, 49.77064], [6.466303, 49.770668], [6.466501, 49.77073], [6.466669, 49.770786], [6.46689, 49.770866], [6.466974, 49.770897], [6.467016, 49.770916], [6.467035, 49.77092], [6.46707, 49.770935], [6.467359, 49.771038], [6.467451, 49.771072], [6.467508, 49.771095], [6.467634, 49.77114], [6.46773, 49.771175], [6.467817, 49.77121], [6.467977, 49.771267], [6.46818, 49.77134], [6.468561, 49.771156], [6.46892, 49.770985], [6.469416, 49.770786], [6.469526, 49.77074], [6.469862, 49.770557], [6.469934, 49.7705], [6.469973, 49.770466], [6.470079, 49.770374], [6.470201, 49.77026], [6.470228, 49.770237], [6.470526, 49.769966], [6.470552, 49.769955], [6.470556, 49.76983], [6.470545, 49.76973], [6.470507, 49.76959], [6.470453, 49.76944], [6.4704, 49.76931], [6.470408, 49.76927], [6.470438, 49.769234], [6.470537, 49.7691], [6.470644, 49.768986], [6.470865, 49.76878], [6.471151, 49.768566], [6.471189, 49.76854], [6.47138, 49.768406], [6.471468, 49.768345], [6.471586, 49.768257], [6.471628, 49.76822], [6.471712, 49.76815], [6.47183, 49.768044], [6.471876, 49.768], [6.471926, 49.767956], [6.472006, 49.767876], [6.472048, 49.767838], [6.472063, 49.767822], [6.472166, 49.76772], [6.472177, 49.767704], [6.47233, 49.767544], [6.472345, 49.76753], [6.472395, 49.767467], [6.472406, 49.76746], [6.472452, 49.767406], [6.472475, 49.76738], [6.472883, 49.767525], [6.473124, 49.767616], [6.473272, 49.767696], [6.473425, 49.767796], [6.473543, 49.767895], [6.4737, 49.76802], [6.473906, 49.768227], [6.47405, 49.7684], [6.474138, 49.768536], [6.474195, 49.768646], [6.474234, 49.768898], [6.474241, 49.768963], [6.474291, 49.769302], [6.474382, 49.769363], [6.47444, 49.769405], [6.474878, 49.769722], [6.475546, 49.769997], [6.476702, 49.77023], [6.476778, 49.77023], [6.477602, 49.770252], [6.477808, 49.77027], [6.478247, 49.770332], [6.47883, 49.770466], [6.479399, 49.770607], [6.479734, 49.770767], [6.48012, 49.770954], [6.480436, 49.771122], [6.480768, 49.771328], [6.48115, 49.771614], [6.481352, 49.77177], [6.481566, 49.771954], [6.481581, 49.77197], [6.481916, 49.77228], [6.482031, 49.77238], [6.482382, 49.772705], [6.482573, 49.772743], [6.482668, 49.772705], [6.483328, 49.772427], [6.483377, 49.772408], [6.483572, 49.772324], [6.483709, 49.772266], [6.483763, 49.77225], [6.483957, 49.772182], [6.48398, 49.772175], [6.484152, 49.772118], [6.484209, 49.7721], [6.48427, 49.772076], [6.484785, 49.771896], [6.485624, 49.771564], [6.485708, 49.77152], [6.485743, 49.7715], [6.48583, 49.771446], [6.485914, 49.7714], [6.485998, 49.77135], [6.486078, 49.771305], [6.48628, 49.77119], [6.486345, 49.771156], [6.486368, 49.771145], [6.486422, 49.771122], [6.486307, 49.771027], [6.486277, 49.77092], [6.486258, 49.770832], [6.486254, 49.770752], [6.486265, 49.7707], [6.486277, 49.770653], [6.486307, 49.770542], [6.486353, 49.770264], [6.486734, 49.770233], [6.486792, 49.770214], [6.486879, 49.770172], [6.486948, 49.770145], [6.487543, 49.770065], [6.487986, 49.76984], [6.488562, 49.769527], [6.489531, 49.770245], [6.490072, 49.770664], [6.490602, 49.771072], [6.490869, 49.77127], [6.49206, 49.77168], [6.493662, 49.771984], [6.494417, 49.772137], [6.494654, 49.772186], [6.495089, 49.772278], [6.495157, 49.77231], [6.495203, 49.772346], [6.495253, 49.772404], [6.495325, 49.772495], [6.495798, 49.772274], [6.496058, 49.772152], [6.496512, 49.77192], [6.497038, 49.771637], [6.497263, 49.771515], [6.497518, 49.771366], [6.497541, 49.771355], [6.497644, 49.77149], [6.49793, 49.771854], [6.497706, 49.772007], [6.497656, 49.772057], [6.497671, 49.772076], [6.497927, 49.772045], [6.498079, 49.772026], [6.49859, 49.771965], [6.498701, 49.771935], [6.499197, 49.77176], [6.50004, 49.77146], [6.500238, 49.771812], [6.500437, 49.771774], [6.500513, 49.77176], [6.500578, 49.77175], [6.500677, 49.77174], [6.500784, 49.77172], [6.500833, 49.77171], [6.500902, 49.77169], [6.500971, 49.771667], [6.501032, 49.77165], [6.501078, 49.771633], [6.501253, 49.77158], [6.501371, 49.771553], [6.501444, 49.771538], [6.501566, 49.77153], [6.501661, 49.771538], [6.501726, 49.771553], [6.501768, 49.771576], [6.50181, 49.771606], [6.502275, 49.771553], [6.502428, 49.771538], [6.502489, 49.77153], [6.503523, 49.77141], [6.503923, 49.771366], [6.504026, 49.77135], [6.504393, 49.77131], [6.504793, 49.77125], [6.505033, 49.77121], [6.50551, 49.7711], [6.505575, 49.77118], [6.505594, 49.771202], [6.505861, 49.771015], [6.505911, 49.770987], [6.506037, 49.770916], [6.506258, 49.770836], [6.50643, 49.770805], [6.506635, 49.770812], [6.506678, 49.770813], [6.506983, 49.77087], [6.507364, 49.77094], [6.508058, 49.77103], [6.508726, 49.77111], [6.508753, 49.771084], [6.508974, 49.771084], [6.509886, 49.7712], [6.510397, 49.7713], [6.510866, 49.77138], [6.511007, 49.771282], [6.511042, 49.771297], [6.511068, 49.771313], [6.511259, 49.771404], [6.511457, 49.771168], [6.511496, 49.771126], [6.51156, 49.771046], [6.511751, 49.770824], [6.51248, 49.77111], [6.512682, 49.771194], [6.513006, 49.771324], [6.513163, 49.771385], [6.513292, 49.77144], [6.513327, 49.77145], [6.513471, 49.771513], [6.513582, 49.771554], [6.513674, 49.771593], [6.513693, 49.771582], [6.513815, 49.771524], [6.513918, 49.77144], [6.514067, 49.771353], [6.514231, 49.771254], [6.514322, 49.771204], [6.514406, 49.771139], [6.51454, 49.771059], [6.514608, 49.771021], [6.514719, 49.770952], [6.514788, 49.770895], [6.514925, 49.770822], [6.515066, 49.770723], [6.515329, 49.770517], [6.515688, 49.770262], [6.515822, 49.770151], [6.516119, 49.769903], [6.516363, 49.769705], [6.516523, 49.769552], [6.516664, 49.769404], [6.516874, 49.769194], [6.517099, 49.768949], [6.517279, 49.76874], [6.517443, 49.768534], [6.5175, 49.768393], [6.517591, 49.76824], [6.517698, 49.767996], [6.517767, 49.767691], [6.517916, 49.767515], [6.517946, 49.767347], [6.517855, 49.767149], [6.517836, 49.766901], [6.51771, 49.766706], [6.517645, 49.76655], [6.517618, 49.766161], [6.517565, 49.76597], [6.517557, 49.765856], [6.517527, 49.765799], [6.517557, 49.765711], [6.517492, 49.765638], [6.517561, 49.765581], [6.517557, 49.76544], [6.51753, 49.765367], [6.51758, 49.765318], [6.517542, 49.765226], [6.517565, 49.765181], [6.517588, 49.765009], [6.517649, 49.764795], [6.517687, 49.764616], [6.517729, 49.764395], [6.517778, 49.764231], [6.517813, 49.764101], [6.51787, 49.763903], [6.517923, 49.76372], [6.517988, 49.763437], [6.518114, 49.763029], [6.518167, 49.762785], [6.518164, 49.762518], [6.518167, 49.762457], [6.518167, 49.762354], [6.518152, 49.762106], [6.518034, 49.761797], [6.517965, 49.761602], [6.517729, 49.761209], [6.51753, 49.761019], [6.517302, 49.760832], [6.517122, 49.760683], [6.516863, 49.760454], [6.516584, 49.760248], [6.516348, 49.760061], [6.516127, 49.759878], [6.515837, 49.759653], [6.515619, 49.759485], [6.515367, 49.759287], [6.515135, 49.75913], [6.515146, 49.759111], [6.514795, 49.758852], [6.514513, 49.758696], [6.514181, 49.758535], [6.513899, 49.75839], [6.513666, 49.758272], [6.513495, 49.758184], [6.513319, 49.758097], [6.5133, 49.758085], [6.513288, 49.758062], [6.513262, 49.758062], [6.513052, 49.757959], [6.51277, 49.757826], [6.512484, 49.757746], [6.512281, 49.757666], [6.512114, 49.757639], [6.511805, 49.757524], [6.511538, 49.75741], [6.51129, 49.757341], [6.511103, 49.757299], [6.510904, 49.75725], [6.510614, 49.757189], [6.510313, 49.757105], [6.510141, 49.757097], [6.509775, 49.75704], [6.509558, 49.756971], [6.509241, 49.756906], [6.50905, 49.756868], [6.508612, 49.756746], [6.508295, 49.756659], [6.507956, 49.756567], [6.507612, 49.756495], [6.507296, 49.756388], [6.507112, 49.756338], [6.506868, 49.756269], [6.506632, 49.756178], [6.506498, 49.756117], [6.506151, 49.756052], [6.505972, 49.755991], [6.505751, 49.755918], [6.505537, 49.755842], [6.505255, 49.755773], [6.50495, 49.755671], [6.504717, 49.755598], [6.504557, 49.755522], [6.504263, 49.755434], [6.503859, 49.75527], [6.503591, 49.755136], [6.503355, 49.755045], [6.503138, 49.754938], [6.502867, 49.754789], [6.502695, 49.754694], [6.502409, 49.754522], [6.502024, 49.75424], [6.501768, 49.754072], [6.501661, 49.753969], [6.501539, 49.75379], [6.501337, 49.753637], [6.501314, 49.753599], [6.501223, 49.753576], [6.501165, 49.753466], [6.501078, 49.753355], [6.500944, 49.753176], [6.500887, 49.753088], [6.500731, 49.752928], [6.500643, 49.752867], [6.500574, 49.752756], [6.500444, 49.752569], [6.500322, 49.752382], [6.500197, 49.752123], [6.500151, 49.751978], [6.500147, 49.751932], [6.50012, 49.751776], [6.500116, 49.751661], [6.500116, 49.75144], [6.500158, 49.751211], [6.500181, 49.75107], [6.500208, 49.750925], [6.500235, 49.750681], [6.500238, 49.750494], [6.500223, 49.750265], [6.500258, 49.749979], [6.500235, 49.749712], [6.500227, 49.749552], [6.500216, 49.749411], [6.500219, 49.749273], [6.500208, 49.749124], [6.500189, 49.748991], [6.500216, 49.748827], [6.500242, 49.748655], [6.500299, 49.748495], [6.500353, 49.748308], [6.500429, 49.748137], [6.50065, 49.747866], [6.500761, 49.747717], [6.500963, 49.747496], [6.501123, 49.74729], [6.501188, 49.747187], [6.501265, 49.747049], [6.501326, 49.746962], [6.501436, 49.746862], [6.501657, 49.74666], [6.501822, 49.746466], [6.501909, 49.746363], [6.50202, 49.746267], [6.502157, 49.74605], [6.502192, 49.746008], [6.502268, 49.745962], [6.502294, 49.745909], [6.502352, 49.745787], [6.502348, 49.745653], [6.50231, 49.745523], [6.502306, 49.745508], [6.502237, 49.745382], [6.502203, 49.745314], [6.502089, 49.745119], [6.502031, 49.744986], [6.501925, 49.744787], [6.501841, 49.744631], [6.501772, 49.744501], [6.501726, 49.744398], [6.501726, 49.74428], [6.501696, 49.744215], [6.501654, 49.744078], [6.501604, 49.743895], [6.501635, 49.743635], [6.501627, 49.743387], [6.501562, 49.743155], [6.501539, 49.742952], [6.501566, 49.7428], [6.50168, 49.742594], [6.50176, 49.742464], [6.501822, 49.742327], [6.501886, 49.742174], [6.501932, 49.741995], [6.501932, 49.74164], [6.501902, 49.741484], [6.50189, 49.741255], [6.501932, 49.741049], [6.501997, 49.740816], [6.502016, 49.740614], [6.502008, 49.740477], [6.50205, 49.740232], [6.502054, 49.739992], [6.502066, 49.739786], [6.502077, 49.739573], [6.502058, 49.739515], [6.50205, 49.739187], [6.502012, 49.738985], [6.501963, 49.738813], [6.501867, 49.738489], [6.501822, 49.738298], [6.50178, 49.738127], [6.501734, 49.737913], [6.501673, 49.737696], [6.501596, 49.737448], [6.501585, 49.737249], [6.501581, 49.737226], [6.501558, 49.737024], [6.501539, 49.736826], [6.501493, 49.736616], [6.501482, 49.736368], [6.501455, 49.73612], [6.50144, 49.735815], [6.50144, 49.735647], [6.501429, 49.73543], [6.501425, 49.735289], [6.501436, 49.735003], [6.501459, 49.734839], [6.501535, 49.734629], [6.501566, 49.734488], [6.501612, 49.734178], [6.501604, 49.733999], [6.501589, 49.733759], [6.501593, 49.7334], [6.501627, 49.733271], [6.501604, 49.733156], [6.501562, 49.733143], [6.50131, 49.733105], [6.501078, 49.73298], [6.500975, 49.73299], [6.500963, 49.732994], [6.500894, 49.733], [6.500872, 49.733006], [6.500807, 49.73302], [6.500631, 49.73307], [6.500525, 49.733105], [6.500231, 49.733204], [6.500086, 49.733242], [6.500055, 49.733315], [6.499987, 49.733295], [6.499842, 49.733257], [6.499548, 49.733177], [6.499399, 49.733135], [6.499426, 49.733303], [6.499315, 49.7333], [6.499197, 49.7333], [6.499079, 49.733295], [6.499002, 49.733295], [6.49896, 49.7333], [6.498892, 49.733303], [6.498835, 49.73331], [6.498785, 49.733315], [6.498758, 49.73332], [6.498701, 49.733326], [6.498609, 49.73334], [6.498472, 49.73336], [6.498385, 49.733376], [6.498194, 49.733406], [6.498167, 49.733414], [6.498079, 49.733425], [6.497919, 49.73345], [6.497728, 49.733486], [6.497408, 49.733524], [6.497282, 49.73354], [6.496912, 49.733578], [6.496614, 49.7336], [6.496458, 49.733612], [6.496313, 49.73362], [6.496195, 49.733624], [6.496004, 49.73364], [6.495951, 49.733643], [6.495897, 49.73365], [6.495722, 49.733677], [6.495565, 49.733704], [6.495508, 49.733715], [6.495462, 49.733723], [6.495375, 49.733734], [6.495234, 49.73376], [6.495092, 49.733788], [6.495069, 49.73379], [6.494986, 49.73381], [6.494898, 49.733826], [6.494837, 49.73384], [6.494551, 49.733894], [6.49449, 49.733906], [6.494463, 49.733913], [6.494436, 49.733917], [6.494429, 49.73383], [6.494398, 49.733833], [6.494177, 49.73387], [6.494139, 49.733887], [6.494009, 49.73393], [6.493734, 49.73401], [6.49354, 49.734055], [6.493509, 49.73406], [6.49346, 49.73407], [6.493414, 49.73408], [6.493372, 49.73409], [6.493196, 49.734123], [6.493155, 49.73413], [6.493044, 49.73415], [6.492849, 49.734173], [6.492781, 49.734184], [6.49272, 49.734238], [6.492609, 49.73433], [6.492502, 49.734413], [6.492392, 49.73448], [6.492296, 49.734535], [6.492189, 49.73459], [6.49201, 49.73468], [6.491754, 49.73481], [6.491663, 49.734787], [6.491617, 49.734882], [6.491598, 49.734913], [6.491571, 49.73496], [6.491518, 49.735035], [6.491484, 49.735085], [6.491407, 49.735172], [6.491327, 49.73525], [6.49119, 49.735367], [6.491095, 49.735447], [6.490805, 49.735535], [6.490633, 49.735588], [6.490293, 49.7357], [6.489649, 49.735893], [6.489553, 49.735928], [6.489496, 49.73595], [6.489451, 49.735973], [6.489267, 49.736057], [6.489126, 49.73611], [6.488646, 49.736275], [6.488455, 49.73634], [6.48805, 49.73632], [6.487692, 49.736317], [6.487333, 49.736305], [6.487181, 49.736298], [6.487074, 49.736298], [6.486799, 49.736317], [6.486582, 49.73633], [6.485781, 49.73635], [6.485788, 49.736446], [6.485369, 49.736446], [6.485254, 49.736443], [6.485106, 49.736443], [6.484865, 49.73644], [6.484705, 49.736435], [6.484617, 49.736435], [6.484426, 49.736423], [6.484373, 49.736416], [6.484266, 49.73641], [6.484194, 49.7364], [6.484018, 49.73638], [6.483973, 49.736374], [6.483858, 49.736362], [6.483778, 49.736355], [6.483427, 49.736317], [6.483244, 49.736298], [6.483156, 49.736286], [6.482866, 49.736256], [6.482813, 49.736248], [6.482733, 49.736233], [6.482534, 49.736168], [6.482256, 49.736073], [6.481836, 49.73627], [6.481626, 49.736378], [6.481482, 49.736458], [6.481379, 49.73653], [6.481295, 49.736607], [6.481153, 49.73674], [6.481028, 49.736855], [6.480902, 49.736973], [6.480715, 49.737133], [6.480547, 49.73727], [6.480463, 49.73733], [6.480299, 49.737423], [6.479952, 49.737526], [6.479471, 49.737682], [6.47912, 49.737797], [6.478849, 49.737885], [6.478682, 49.737953], [6.478521, 49.738026], [6.478441, 49.73808], [6.478331, 49.738167], [6.478243, 49.738255], [6.478155, 49.738373], [6.477945, 49.738667], [6.4778, 49.738907], [6.477644, 49.739113], [6.477549, 49.73924], [6.47748, 49.739353], [6.477442, 49.739437], [6.477419, 49.739525], [6.477396, 49.73963], [6.477388, 49.73975], [6.477377, 49.740005], [6.477358, 49.74019], [6.477354, 49.740376], [6.477354, 49.740566], [6.477339, 49.740635], [6.477301, 49.740772], [6.477224, 49.740913], [6.477163, 49.740997], [6.477083, 49.741096], [6.477015, 49.74116], [6.476931, 49.74123], [6.476816, 49.741333], [6.476168, 49.741806], [6.47616, 49.74184], [6.475939, 49.742134], [6.475817, 49.74232], [6.475775, 49.74245], [6.475744, 49.742554], [6.475321, 49.742264], [6.475145, 49.742134], [6.475, 49.742035], [6.474768, 49.74189], [6.474634, 49.741817], [6.47452, 49.741756], [6.474398, 49.7417], [6.474295, 49.741665], [6.474112, 49.74161], [6.473845, 49.741554], [6.473421, 49.741497], [6.473177, 49.741436], [6.472574, 49.74129], [6.472254, 49.741135], [6.471823, 49.740925], [6.471727, 49.74102], [6.47117, 49.741604], [6.470942, 49.741863], [6.470663, 49.74221], [6.470621, 49.742275], [6.470602, 49.74233], [6.470591, 49.74235], [6.470552, 49.742447], [6.470537, 49.742477], [6.47051, 49.742546], [6.470472, 49.742622], [6.469419, 49.74237], [6.46937, 49.74236], [6.469481, 49.74223], [6.469297, 49.74215], [6.468428, 49.741787], [6.46792, 49.74161], [6.46731, 49.74142], [6.466799, 49.741257], [6.466383, 49.741123], [6.465933, 49.74098], [6.465876, 49.740955], [6.465734, 49.74089], [6.465418, 49.740746], [6.465338, 49.74073], [6.46525, 49.74071], [6.465181, 49.74069], [6.465078, 49.740635], [6.465017, 49.740604], [6.464895, 49.740566], [6.464445, 49.740433], [6.463942, 49.7403], [6.463793, 49.74027], [6.463663, 49.740246], [6.463541, 49.740215], [6.463419, 49.740166], [6.46335, 49.740147], [6.463293, 49.74014], [6.463202, 49.740128], [6.463175, 49.740116], [6.463137, 49.740093], [6.46298, 49.740078], [6.462904, 49.740055], [6.462851, 49.740025], [6.462763, 49.739983], [6.462709, 49.739975], [6.462523, 49.739937], [6.46221, 49.739853], [6.461985, 49.739788], [6.461855, 49.73975], [6.46139, 49.739567], [6.461264, 49.739723], [6.460627, 49.739582], [6.460417, 49.739536], [6.46028, 49.739815], [6.460237, 49.73996], [6.460062, 49.74026], [6.460115, 49.740536], [6.460096, 49.740532], [6.460066, 49.740532], [6.460051, 49.740578], [6.459715, 49.740532], [6.459463, 49.741066], [6.459433, 49.741127], [6.459074, 49.74079], [6.458979, 49.740826], [6.458445, 49.74111], [6.458246, 49.741207], [6.458078, 49.741287], [6.457796, 49.7414], [6.457785, 49.741405], [6.457762, 49.741413], [6.457567, 49.74147], [6.457514, 49.741486], [6.457422, 49.74151], [6.456972, 49.741577], [6.456568, 49.74161], [6.455969, 49.74158], [6.455813, 49.74169], [6.455675, 49.74176], [6.455568, 49.7418], [6.4555, 49.74182], [6.455294, 49.741863], [6.455236, 49.741867], [6.455107, 49.74188], [6.455038, 49.741882], [6.454962, 49.74189], [6.454752, 49.741894], [6.454557, 49.741886], [6.454363, 49.74187], [6.454206, 49.74186], [6.454061, 49.741848], [6.454035, 49.741844], [6.453932, 49.74184], [6.45376, 49.74183], [6.453657, 49.741814], [6.453589, 49.7418], [6.453527, 49.741787], [6.453344, 49.741745], [6.453199, 49.741714], [6.453058, 49.74169], [6.452955, 49.74168], [6.452856, 49.741657], [6.452768, 49.74164], [6.452654, 49.74161], [6.452597, 49.741592], [6.452559, 49.741585], [6.452452, 49.74156], [6.452085, 49.74149], [6.452032, 49.741478], [6.451963, 49.74146], [6.451902, 49.741447], [6.451777, 49.741463], [6.451605, 49.74145], [6.451582, 49.741463], [6.451231, 49.74143], [6.451193, 49.74144], [6.451181, 49.741444], [6.450907, 49.74158], [6.450636, 49.74162], [6.450392, 49.741657], [6.450155, 49.741695], [6.450132, 49.7417], [6.449881, 49.741737], [6.449781, 49.741753], [6.449484, 49.74176], [6.449305, 49.74185], [6.449198, 49.74191], [6.449144, 49.741924], [6.448916, 49.741997], [6.448832, 49.742023], [6.448595, 49.742092], [6.44834, 49.742165], [6.448191, 49.742207], [6.448065, 49.742245], [6.447958, 49.742275], [6.44784, 49.7423], [6.447592, 49.742348], [6.447348, 49.74241], [6.447271, 49.74243], [6.447149, 49.742455], [6.447081, 49.742428], [6.446386, 49.742188], [6.445398, 49.74157], [6.445334, 49.741528], [6.445067, 49.741142], [6.444979, 49.741013], [6.444952, 49.740967], [6.444857, 49.740788], [6.444811, 49.740704], [6.444765, 49.740616], [6.444593, 49.740295], [6.444525, 49.740158], [6.444429, 49.739906], [6.444407, 49.73984], [6.444368, 49.73974], [6.444223, 49.73928], [6.44412, 49.739002], [6.444052, 49.738804], [6.444014, 49.73871], [6.443972, 49.738495], [6.443953, 49.73841], [6.443941, 49.738346], [6.443903, 49.738243], [6.443876, 49.738167], [6.443853, 49.73811], [6.443811, 49.738052], [6.443319, 49.737404], [6.443201, 49.737305], [6.443048, 49.737206], [6.442766, 49.737034], [6.442682, 49.736984], [6.442636, 49.73696], [6.442533, 49.736916], [6.442423, 49.736862], [6.442285, 49.7368], [6.442137, 49.736732], [6.442018, 49.73668], [6.441919, 49.736633], [6.44142, 49.7364], [6.441332, 49.736355], [6.440992, 49.73622], [6.440626, 49.736084], [6.440042, 49.735863], [6.439833, 49.73576], [6.439714, 49.735695], [6.43965, 49.73565], [6.439276, 49.735394], [6.438807, 49.735073], [6.438688, 49.734993], [6.438452, 49.734867], [6.43836, 49.73482], [6.438242, 49.734768], [6.438219, 49.73474], [6.438177, 49.7347], [6.438063, 49.734665], [6.438002, 49.7346], [6.437921, 49.734577], [6.437845, 49.734467], [6.437773, 49.734447], [6.437738, 49.734383], [6.437662, 49.734283], [6.437639, 49.734238], [6.437605, 49.734177], [6.437536, 49.73411], [6.437498, 49.734035], [6.437357, 49.733974], [6.437361, 49.733894], [6.437296, 49.733864], [6.437193, 49.733818], [6.437101, 49.73378], [6.437044, 49.73369], [6.437029, 49.733665], [6.436869, 49.7336], [6.436838, 49.73356], [6.436811, 49.733524], [6.436697, 49.733494], [6.436644, 49.733402], [6.43656, 49.73337], [6.436533, 49.733303], [6.436369, 49.73328], [6.436396, 49.73318], [6.436266, 49.733124], [6.43622, 49.733067], [6.436132, 49.733047], [6.43609, 49.73302], [6.43601, 49.73296], [6.435995, 49.732918], [6.435949, 49.73289], [6.43593, 49.73283], [6.435854, 49.732773], [6.435846, 49.732727], [6.435854, 49.732674], [6.435789, 49.732624], [6.435812, 49.73258], [6.435747, 49.73251], [6.435667, 49.732426], [6.435545, 49.732372], [6.435236, 49.73265], [6.435202, 49.732635], [6.435175, 49.732635], [6.435125, 49.732704], [6.434965, 49.73285], [6.434801, 49.732952], [6.434545, 49.733227], [6.434278, 49.733337], [6.434023, 49.733376], [6.433931, 49.733406], [6.433798, 49.733543], [6.433744, 49.733578], [6.433668, 49.733597], [6.433115, 49.733624], [6.432871, 49.7338], [6.43273, 49.73387], [6.432444, 49.73397], [6.432333, 49.733963], [6.43223, 49.733932], [6.432077, 49.733917], [6.432074, 49.733902], [6.432066, 49.73386], [6.432024, 49.733677], [6.431917, 49.733536], [6.431826, 49.733418], [6.431547, 49.733055], [6.431326, 49.733074], [6.431143, 49.73296], [6.430925, 49.732815], [6.43088, 49.732788], [6.430792, 49.732727], [6.430609, 49.732597], [6.430498, 49.732525], [6.43038, 49.73244], [6.429926, 49.73211], [6.429731, 49.73197], [6.429518, 49.73183], [6.429354, 49.73174], [6.429151, 49.73165], [6.428919, 49.731556], [6.428759, 49.73149], [6.428732, 49.731483], [6.428656, 49.731453], [6.428621, 49.731445], [6.428534, 49.73142], [6.428408, 49.731388], [6.428362, 49.731373], [6.428316, 49.73136], [6.428019, 49.731297], [6.427919, 49.731277], [6.427694, 49.731544], [6.427534, 49.7317], [6.427523, 49.73171], [6.42737, 49.73182], [6.427069, 49.73198], [6.426512, 49.73223], [6.426458, 49.732258], [6.426092, 49.73247], [6.425489, 49.73283], [6.425158, 49.732998], [6.4251, 49.733025], [6.425005, 49.73306], [6.42491, 49.73309], [6.423716, 49.73329], [6.422674, 49.733337], [6.421652, 49.733387], [6.420363, 49.733448], [6.419935, 49.733463], [6.419874, 49.73367], [6.419794, 49.73398], [6.419767, 49.73408], [6.419592, 49.73468], [6.41958, 49.7347], [6.419477, 49.734924], [6.419455, 49.73498], [6.419439, 49.735027], [6.419435, 49.735092], [6.419451, 49.73526], [6.4195, 49.735664], [6.419493, 49.735718], [6.419393, 49.735962], [6.419416, 49.736164], [6.419416, 49.73625], [6.41942, 49.73636], [6.419401, 49.736485], [6.419378, 49.736546], [6.419317, 49.73665], [6.419252, 49.736702], [6.419115, 49.736782], [6.419008, 49.736828], [6.418493, 49.736916], [6.418371, 49.736935], [6.417833, 49.737015], [6.417551, 49.73704], [6.417124, 49.737083], [6.41699, 49.7371], [6.416273, 49.73717], [6.415998, 49.737194], [6.415968, 49.737194], [6.415926, 49.737198], [6.415747, 49.737213], [6.415121, 49.737263], [6.414995, 49.737408], [6.414934, 49.738235], [6.41493, 49.738297], [6.414618, 49.738483], [6.414194, 49.738743], [6.414114, 49.73879], [6.413988, 49.73886], [6.413855, 49.738926], [6.413565, 49.739033], [6.413168, 49.739174], [6.411837, 49.73895], [6.411341, 49.73887], [6.410029, 49.73866], [6.408918, 49.738476], [6.408819, 49.738472], [6.408762, 49.738503], [6.408689, 49.738544], [6.408487, 49.738686], [6.408281, 49.738846], [6.408159, 49.738884], [6.40798, 49.739124], [6.407862, 49.73933], [6.407881, 49.73937], [6.40798, 49.739502], [6.408045, 49.739597], [6.408125, 49.739727], [6.408186, 49.739853], [6.408228, 49.73999], [6.408262, 49.74012], [6.408274, 49.740246], [6.408277, 49.740383], [6.408266, 49.740494], [6.408255, 49.740536], [6.408232, 49.740593], [6.408197, 49.740673], [6.408136, 49.740776], [6.408079, 49.740845], [6.407995, 49.74091], [6.407869, 49.74099], [6.407782, 49.74103], [6.407465, 49.741093], [6.407167, 49.741146], [6.406553, 49.741253], [6.406317, 49.741295], [6.406214, 49.741314], [6.406141, 49.74133], [6.406069, 49.741352], [6.405924, 49.741405], [6.405775, 49.741463], [6.405352, 49.741623], [6.405287, 49.74167], [6.405237, 49.74172], [6.405161, 49.74181], [6.405012, 49.741978], [6.404909, 49.74211], [6.404779, 49.74229], [6.404867, 49.742336], [6.404982, 49.742397], [6.405176, 49.742496], [6.405348, 49.742588], [6.405512, 49.742672], [6.405607, 49.742718], [6.405786, 49.74281], [6.40708, 49.743366], [6.407873, 49.743706], [6.408258, 49.74388], [6.40946, 49.744404], [6.409548, 49.744434], [6.409262, 49.744503], [6.408426, 49.74475], [6.408064, 49.74486], [6.40737, 49.74509], [6.407038, 49.745224], [6.406546, 49.745434], [6.405829, 49.74563], [6.405298, 49.745777], [6.404734, 49.745968], [6.404371, 49.74611], [6.404016, 49.746243], [6.403162, 49.74643], [6.40233, 49.74667], [6.401197, 49.746998], [6.400324, 49.747253], [6.398706, 49.74779], [6.397093, 49.748337], [6.397142, 49.748398], [6.397222, 49.74845], [6.397314, 49.748512], [6.397375, 49.74855], [6.397497, 49.74863], [6.397284, 49.748737], [6.397104, 49.748825], [6.397192, 49.74888], [6.397291, 49.74894], [6.397444, 49.749035], [6.397413, 49.749046], [6.397078, 49.74925], [6.396326, 49.74962], [6.396006, 49.749767], [6.395761, 49.749874], [6.395556, 49.74996], [6.395128, 49.750126], [6.394259, 49.750416], [6.39422, 49.75043], [6.394342, 49.750725], [6.39451, 49.750927], [6.394735, 49.75121], [6.394999, 49.75153], [6.395254, 49.751842], [6.395952, 49.752605], [6.395952, 49.752625], [6.396162, 49.753223], [6.395857, 49.75333], [6.395708, 49.75329], [6.394701, 49.753597], [6.393839, 49.753864], [6.393061, 49.75411], [6.392977, 49.75404], [6.392958, 49.754025], [6.392897, 49.753975], [6.392866, 49.753952], [6.392637, 49.75376], [6.392351, 49.753525], [6.391897, 49.75364], [6.391817, 49.753677], [6.391432, 49.753876], [6.391397, 49.753933], [6.39131, 49.75407]]]]}}]}