{"type": "FeatureCollection", "features": [{"type": "Feature", "properties": {"name": "Septfontaines"}, "geometry": {"type": "MultiPolygon", "coordinates": [[[[5.929327, 49.701912], [5.929789, 49.70204], [5.929831, 49.702057], [5.929979, 49.70211], [5.930544, 49.702175], [5.931078, 49.702263], [5.931616, 49.702366], [5.932203, 49.7025], [5.932424, 49.702557], [5.932646, 49.702618], [5.934046, 49.703014], [5.934557, 49.70316], [5.935625, 49.70346], [5.936094, 49.703594], [5.936659, 49.70376], [5.937021, 49.703873], [5.93759, 49.70413], [5.938047, 49.704376], [5.938681, 49.704746], [5.939619, 49.705288], [5.940309, 49.70569], [5.941286, 49.70626], [5.942167, 49.706776], [5.942873, 49.707184], [5.943281, 49.707413], [5.943945, 49.70772], [5.944502, 49.707973], [5.945112, 49.708244], [5.946253, 49.708714], [5.946535, 49.708702], [5.946867, 49.708702], [5.947317, 49.70869], [5.94792, 49.708652], [5.948378, 49.708626], [5.949038, 49.708603], [5.94935, 49.70859], [5.949637, 49.7086], [5.949839, 49.708626], [5.950029, 49.708683], [5.95009, 49.70872], [5.950197, 49.70883], [5.950197, 49.708874], [5.950316, 49.709034], [5.950544, 49.709286], [5.950853, 49.709644], [5.95104, 49.70991], [5.951216, 49.710144], [5.951368, 49.71032], [5.951521, 49.71047], [5.952131, 49.71088], [5.952719, 49.71129], [5.953505, 49.71188], [5.95421, 49.712425], [5.954313, 49.712486], [5.954405, 49.71253], [5.954569, 49.712585], [5.955278, 49.712803], [5.955576, 49.7129], [5.95616, 49.713062], [5.956778, 49.71327], [5.957174, 49.713413], [5.957643, 49.713608], [5.959616, 49.7145], [5.960051, 49.714733], [5.96097, 49.71526], [5.96129, 49.715443], [5.961279, 49.71552], [5.961458, 49.71564], [5.961801, 49.71592], [5.962439, 49.716194], [5.962568, 49.71619], [5.962908, 49.716393], [5.963381, 49.716644], [5.963755, 49.716816], [5.964212, 49.71699], [5.964285, 49.71707], [5.964567, 49.71732], [5.96464, 49.717377], [5.964685, 49.717422], [5.964708, 49.717457], [5.964754, 49.71753], [5.96493, 49.71785], [5.965124, 49.71821], [5.965147, 49.718227], [5.96517, 49.718243], [5.9652, 49.71826], [5.966165, 49.718597], [5.966772, 49.71902], [5.967295, 49.719425], [5.968512, 49.719826], [5.968805, 49.72007], [5.969133, 49.72039], [5.969397, 49.720634], [5.969534, 49.720726], [5.969923, 49.72093], [5.970175, 49.721054], [5.970259, 49.721077], [5.970175, 49.72095], [5.970285, 49.72095], [5.970572, 49.720943], [5.970865, 49.720932], [5.971033, 49.720398], [5.971335, 49.720203], [5.971491, 49.72021], [5.971682, 49.720222], [5.972147, 49.720177], [5.972158, 49.720177], [5.97262, 49.720127], [5.972868, 49.72014], [5.973146, 49.720146], [5.973379, 49.72016], [5.973875, 49.7202], [5.974096, 49.720222], [5.974325, 49.720238], [5.97444, 49.720245], [5.974756, 49.72026], [5.974878, 49.72028], [5.974993, 49.7203], [5.975244, 49.720337], [5.975466, 49.720364], [5.975664, 49.72039], [5.975859, 49.720406], [5.976248, 49.720455], [5.976442, 49.720474], [5.976778, 49.72051], [5.977041, 49.72053], [5.977346, 49.720554], [5.977583, 49.72058], [5.978128, 49.72065], [5.978353, 49.720673], [5.978468, 49.720703], [5.978746, 49.720795], [5.978868, 49.720833], [5.978926, 49.720848], [5.978998, 49.72086], [5.979132, 49.720886], [5.979223, 49.72093], [5.979326, 49.720978], [5.979422, 49.72102], [5.979544, 49.72107], [5.97965, 49.721104], [5.979849, 49.721165], [5.980051, 49.721245], [5.980226, 49.72131], [5.980322, 49.721344], [5.980421, 49.72138], [5.980528, 49.721443], [5.980784, 49.72162], [5.981192, 49.721878], [5.981321, 49.72194], [5.981741, 49.72207], [5.981893, 49.722115], [5.982046, 49.722164], [5.98234, 49.722248], [5.982649, 49.72234], [5.982798, 49.72238], [5.983068, 49.722458], [5.983221, 49.722504], [5.98353, 49.722576], [5.98382, 49.722637], [5.984217, 49.722713], [5.985167, 49.722904], [5.985098, 49.72303], [5.985067, 49.723083], [5.985208, 49.723114], [5.985453, 49.723183], [5.98564, 49.72324], [5.985819, 49.723305], [5.986059, 49.723377], [5.986265, 49.72343], [5.986513, 49.723484], [5.986845, 49.723568], [5.987131, 49.723633], [5.987333, 49.72368], [5.987482, 49.72371], [5.987604, 49.723724], [5.987707, 49.72373], [5.987833, 49.72372], [5.988119, 49.723682], [5.988123, 49.723637], [5.988489, 49.723595], [5.988722, 49.723595], [5.988882, 49.723606], [5.989119, 49.723644], [5.98942, 49.723717], [5.989458, 49.723724], [5.989744, 49.72339], [5.989836, 49.72326], [5.989992, 49.72302], [5.99008, 49.722862], [5.990175, 49.72268], [5.990313, 49.722343], [5.990332, 49.722294], [5.990339, 49.722244], [5.990335, 49.72222], [5.990332, 49.722164], [5.990271, 49.72171], [5.990252, 49.72155], [5.990225, 49.72143], [5.990152, 49.72121], [5.990026, 49.720913], [5.989916, 49.7207], [5.989908, 49.720676], [5.989912, 49.720646], [5.989958, 49.720497], [5.990278, 49.719807], [5.990343, 49.71965], [5.990397, 49.7195], [5.990423, 49.719345], [5.990419, 49.719166], [5.990404, 49.719044], [5.990389, 49.719], [5.990622, 49.71895], [5.991045, 49.71901], [5.991884, 49.71915], [5.992426, 49.719223], [5.992792, 49.71925], [5.993074, 49.7193], [5.994326, 49.719597], [5.995844, 49.719986], [5.997679, 49.720474], [5.999498, 49.720875], [5.999517, 49.720848], [5.999624, 49.72072], [5.999701, 49.720623], [5.999914, 49.72036], [5.999956, 49.720306], [6.000067, 49.720177], [6.000135, 49.720093], [6.00025, 49.71996], [6.000361, 49.71983], [6.00054, 49.719624], [6.00033, 49.71952], [6.000265, 49.719486], [5.999975, 49.71934], [5.999781, 49.719246], [5.999598, 49.719162], [5.999277, 49.71902], [5.998926, 49.718872], [5.998712, 49.718792], [5.998087, 49.718613], [5.997553, 49.71847], [5.99758, 49.71837], [5.997606, 49.718292], [5.997663, 49.718098], [5.997679, 49.718044], [5.997702, 49.717987], [5.997717, 49.717937], [5.997759, 49.717854], [5.997782, 49.71782], [5.997808, 49.717773], [5.997831, 49.71774], [5.998114, 49.717403], [5.998129, 49.71738], [5.998152, 49.717358], [5.998186, 49.71731], [5.998243, 49.71724], [5.998022, 49.717133], [5.997705, 49.716984], [5.997488, 49.716904], [5.997248, 49.71683], [5.997084, 49.71679], [5.996935, 49.71676], [5.996775, 49.716724], [5.99708, 49.71638], [5.997229, 49.716255], [5.997347, 49.71614], [5.997458, 49.716038], [5.997526, 49.715973], [5.997587, 49.71591], [5.997644, 49.71586], [5.997709, 49.715794], [5.997797, 49.715706], [5.99793, 49.715584], [5.998003, 49.715515], [5.99814, 49.715412], [5.998297, 49.7153], [5.998385, 49.71524], [5.998552, 49.71513], [5.998724, 49.715015], [5.998854, 49.714928], [5.998983, 49.71484], [5.999121, 49.71475], [5.998957, 49.714672], [5.99885, 49.714626], [5.999369, 49.71429], [5.999655, 49.714096], [5.999571, 49.713974], [5.999498, 49.71385], [5.999445, 49.71375], [5.999395, 49.71363], [5.999327, 49.71348], [5.999262, 49.713394], [5.999205, 49.71334], [5.999128, 49.713287], [5.998785, 49.71308], [5.998716, 49.71312], [5.998526, 49.712944], [5.998491, 49.712917], [5.998396, 49.712826], [5.998339, 49.712776], [5.998293, 49.71273], [5.998137, 49.712616], [5.998026, 49.71254], [5.997927, 49.712475], [5.997732, 49.712345], [5.997526, 49.71222], [5.997343, 49.71212], [5.997137, 49.712025], [5.997492, 49.711582], [5.997503, 49.71154], [5.997515, 49.711514], [5.99753, 49.71134], [5.997534, 49.711315], [5.997553, 49.71126], [5.997576, 49.711224], [5.997675, 49.7111], [5.997767, 49.711002], [5.997782, 49.710983], [5.997824, 49.710938], [5.997889, 49.71086], [5.997995, 49.710743], [5.998159, 49.71056], [5.998293, 49.710396], [5.998564, 49.710083], [5.998636, 49.710003], [5.998671, 49.70996], [5.998755, 49.70987], [5.998873, 49.709736], [5.998903, 49.7097], [5.998964, 49.709633], [5.999155, 49.70942], [5.999273, 49.709282], [5.999315, 49.70923], [5.999422, 49.7091], [5.999483, 49.709023], [5.999514, 49.70899], [5.999716, 49.708748], [5.999914, 49.708534], [5.999945, 49.708504], [6.000006, 49.70843], [6.000067, 49.708366], [6.000128, 49.70831], [6.000235, 49.708206], [6.000383, 49.70807], [6.000544, 49.70792], [6.000708, 49.70778], [6.000891, 49.707626], [6.000994, 49.707546], [6.001112, 49.70746], [6.001299, 49.707314], [6.001333, 49.70729], [6.001558, 49.707096], [6.001684, 49.706985], [6.001848, 49.70686], [6.002081, 49.70671], [6.0021, 49.7067], [6.002119, 49.706688], [6.002249, 49.706627], [6.002462, 49.706528], [6.002588, 49.70648], [6.002645, 49.706455], [6.002859, 49.70636], [6.003019, 49.706276], [6.003088, 49.706238], [6.003332, 49.706097], [6.003531, 49.705975], [6.003584, 49.70594], [6.003733, 49.705853], [6.00382, 49.7058], [6.003882, 49.70576], [6.003927, 49.705738], [6.004183, 49.70558], [6.004202, 49.70557], [6.004206, 49.70553], [6.004206, 49.70551], [6.004213, 49.705475], [6.004225, 49.705452], [6.00424, 49.705425], [6.004251, 49.705406], [6.003992, 49.705265], [6.003775, 49.70515], [6.003344, 49.70492], [6.003122, 49.7048], [6.002916, 49.704693], [6.002733, 49.704594], [6.002619, 49.704533], [6.002542, 49.70449], [6.002459, 49.70445], [6.00252, 49.704353], [6.002592, 49.70427], [6.002668, 49.70419], [6.002752, 49.704117], [6.003038, 49.703903], [6.003851, 49.703373], [6.003488, 49.70309], [6.003187, 49.702847], [6.002939, 49.70292], [6.002821, 49.702953], [6.00271, 49.702988], [6.002676, 49.703003], [6.002653, 49.70302], [6.002634, 49.70303], [6.002539, 49.703117], [6.002493, 49.703156], [6.002443, 49.7032], [6.002359, 49.70326], [6.002329, 49.703278], [6.002249, 49.70332], [6.002169, 49.703358], [6.002062, 49.703396], [6.001909, 49.70343], [6.001799, 49.703445], [6.001726, 49.703465], [6.001665, 49.703484], [6.001261, 49.70318], [6.000925, 49.702915], [6.00086, 49.70286], [6.000818, 49.702835], [6.000788, 49.702812], [6.000498, 49.70258], [6.000509, 49.70257], [5.999971, 49.702175], [5.999655, 49.70194], [5.999315, 49.7017], [5.999273, 49.701668], [5.999296, 49.701607], [5.999315, 49.701565], [5.999323, 49.701546], [5.999342, 49.701504], [5.99935, 49.701485], [5.999369, 49.701443], [5.999399, 49.701397], [5.999472, 49.7013], [5.999739, 49.70095], [5.999777, 49.700897], [5.999834, 49.70082], [5.999845, 49.700806], [5.999968, 49.700645], [5.999991, 49.700607], [6.000002, 49.700592], [6.000067, 49.700497], [5.999636, 49.70035], [5.999102, 49.70019], [5.998747, 49.70009], [5.998442, 49.700016], [5.998213, 49.69997], [5.998087, 49.69995], [5.997934, 49.69993], [5.997778, 49.699905], [5.997644, 49.699894], [5.997595, 49.699886], [5.997744, 49.699543], [5.997759, 49.69951], [5.997827, 49.69934], [5.997862, 49.699257], [5.997885, 49.699192], [5.997892, 49.699165], [5.997942, 49.699024], [5.997984, 49.698902], [5.998007, 49.69867], [5.997942, 49.698326], [5.997843, 49.69825], [5.997744, 49.698177], [5.997366, 49.697895], [5.996923, 49.697556], [5.997763, 49.697056], [5.997961, 49.69695], [5.998068, 49.6969], [5.998182, 49.696865], [5.998251, 49.696846], [5.998339, 49.696835], [5.99859, 49.69681], [5.998797, 49.6968], [5.999094, 49.696804], [5.999308, 49.69682], [5.999525, 49.69685], [5.999693, 49.69688], [5.999941, 49.696938], [5.999918, 49.69705], [5.999987, 49.69709], [6.000288, 49.69728], [6.000708, 49.697437], [6.001116, 49.697586], [6.00152, 49.697784], [6.001566, 49.697807], [6.002203, 49.69812], [6.002905, 49.698242], [6.003294, 49.69817], [6.003687, 49.698223], [6.004332, 49.69826], [6.004606, 49.698112], [6.004976, 49.69791], [6.005255, 49.69792], [6.006025, 49.697914], [6.006041, 49.697857], [6.006094, 49.697613], [6.006113, 49.69752], [6.006147, 49.697342], [6.006163, 49.697277], [6.006185, 49.697147], [6.006201, 49.69708], [6.006208, 49.697044], [6.00622, 49.696976], [6.006235, 49.6969], [6.00625, 49.696846], [6.006254, 49.696823], [6.006262, 49.696796], [6.006277, 49.696735], [6.006304, 49.69666], [6.006315, 49.696625], [6.006361, 49.696487], [6.00609, 49.69643], [6.006449, 49.695885], [6.00654, 49.695747], [6.005751, 49.695477], [6.005766, 49.695454], [6.006102, 49.695065], [6.00614, 49.69502], [6.006361, 49.69507], [6.006609, 49.695118], [6.006666, 49.695168], [6.006716, 49.695396], [6.006754, 49.69546], [6.006823, 49.695503], [6.006922, 49.69552], [6.007196, 49.695484], [6.007379, 49.695457], [6.007772, 49.69529], [6.007944, 49.69527], [6.008051, 49.6953], [6.008142, 49.69535], [6.008242, 49.695377], [6.008562, 49.695377], [6.008841, 49.69539], [6.008871, 49.695362], [6.008944, 49.695286], [6.009008, 49.69522], [6.00905, 49.695175], [6.009161, 49.695065], [6.009348, 49.69487], [6.009527, 49.69468], [6.009569, 49.694637], [6.010405, 49.69487], [6.010633, 49.69464], [6.010687, 49.694588], [6.010847, 49.694412], [6.010874, 49.69438], [6.011004, 49.69424], [6.011343, 49.69435], [6.011683, 49.694458], [6.012026, 49.69457], [6.012121, 49.694607], [6.012281, 49.69468], [6.012335, 49.694702], [6.012503, 49.694775], [6.01293, 49.694977], [6.013228, 49.695213], [6.013327, 49.695286], [6.013456, 49.69538], [6.013865, 49.69569], [6.01409, 49.695858], [6.014498, 49.696167], [6.014765, 49.696396], [6.014986, 49.696568], [6.015108, 49.69664], [6.015272, 49.696716], [6.015432, 49.696785], [6.015696, 49.6969], [6.015757, 49.696922], [6.015837, 49.69695], [6.01623, 49.697067], [6.016302, 49.69709], [6.016363, 49.697018], [6.016703, 49.697144], [6.016859, 49.697193], [6.01697, 49.69722], [6.01708, 49.69724], [6.017416, 49.69724], [6.01758, 49.69723], [6.018019, 49.69721], [6.018522, 49.697178], [6.018549, 49.697227], [6.018648, 49.69742], [6.018938, 49.69735], [6.019182, 49.69728], [6.019297, 49.69725], [6.019518, 49.697166], [6.019724, 49.697067], [6.019812, 49.69703], [6.019918, 49.69698], [6.020037, 49.696926], [6.02035, 49.69679], [6.020655, 49.696655], [6.020834, 49.696575], [6.021017, 49.696507], [6.021116, 49.696472], [6.021173, 49.696453], [6.02128, 49.69642], [6.021318, 49.696407], [6.021368, 49.696392], [6.021509, 49.696335], [6.021765, 49.696205], [6.021986, 49.69609], [6.022123, 49.69603], [6.02223, 49.695988], [6.022539, 49.69587], [6.022619, 49.695694], [6.022688, 49.695507], [6.022768, 49.695206], [6.022802, 49.694958], [6.022814, 49.69482], [6.022818, 49.694683], [6.02281, 49.694572], [6.022802, 49.69451], [6.02276, 49.694115], [6.022741, 49.693905], [6.022726, 49.69369], [6.022699, 49.69341], [6.022688, 49.693077], [6.022638, 49.692947], [6.022558, 49.69273], [6.022486, 49.692524], [6.022448, 49.69244], [6.022398, 49.69237], [6.022341, 49.692314], [6.022268, 49.69225], [6.022013, 49.692085], [6.02183, 49.69197], [6.021711, 49.691868], [6.021501, 49.691685], [6.021429, 49.691628], [6.021307, 49.691536], [6.02146, 49.691204], [6.021238, 49.69115], [6.021067, 49.69111], [6.020868, 49.69106], [6.020689, 49.691013], [6.020494, 49.690968], [6.02046, 49.691013], [6.020235, 49.690876], [6.020098, 49.690796], [6.019774, 49.690567], [6.019419, 49.69029], [6.019503, 49.69025], [6.01935, 49.69014], [6.019056, 49.68993], [6.018915, 49.68982], [6.018797, 49.68972], [6.018488, 49.689774], [6.018133, 49.68984], [6.01787, 49.689896], [6.017733, 49.689926], [6.017504, 49.68998], [6.017168, 49.69007], [6.017004, 49.69012], [6.016893, 49.69009], [6.016352, 49.689983], [6.016012, 49.689915], [6.015509, 49.68982], [6.014956, 49.689713], [6.014555, 49.68964], [6.014284, 49.68959], [6.014147, 49.689568], [6.014025, 49.689545], [6.013907, 49.68952], [6.013651, 49.68947], [6.01354, 49.689445], [6.013216, 49.689377], [6.013083, 49.68935], [6.012903, 49.689312], [6.012693, 49.689266], [6.01248, 49.689224], [6.012255, 49.689175], [6.012152, 49.689156], [6.012091, 49.68914], [6.012007, 49.689125], [6.011786, 49.689083], [6.011694, 49.689064], [6.011618, 49.68905], [6.011362, 49.688995], [6.011164, 49.688957], [6.011072, 49.68894], [6.010996, 49.688923], [6.01082, 49.68889], [6.010446, 49.688812], [6.010107, 49.688744], [6.009909, 49.688705], [6.00979, 49.688683], [6.009726, 49.688667], [6.009336, 49.68859], [6.009279, 49.688583], [6.009275, 49.688667], [6.009283, 49.68875], [6.009295, 49.68886], [6.009317, 49.688984], [6.009355, 49.68916], [6.009382, 49.689274], [6.009474, 49.689693], [6.009562, 49.6901], [6.009588, 49.690247], [6.0096, 49.690376], [6.009588, 49.69054], [6.009565, 49.69068], [6.009478, 49.691], [6.009443, 49.690994], [6.009066, 49.69089], [6.009035, 49.690884], [6.008837, 49.690826], [6.008627, 49.69077], [6.008421, 49.69071], [6.00812, 49.690624], [6.008013, 49.690594], [6.007681, 49.690502], [6.007208, 49.690372], [6.007181, 49.69041], [6.007116, 49.690487], [6.00709, 49.690517], [6.007025, 49.6906], [6.006903, 49.690544], [6.006754, 49.69048], [6.006636, 49.69043], [6.006533, 49.690388], [6.006441, 49.690357], [6.006311, 49.69032], [6.006208, 49.690292], [6.006125, 49.690273], [6.006098, 49.690266], [6.00606, 49.690254], [6.005861, 49.690216], [6.005812, 49.690205], [6.005663, 49.690174], [6.005526, 49.690155], [6.005354, 49.690132], [6.005201, 49.690117], [6.005068, 49.69011], [6.004984, 49.6901], [6.004911, 49.6901], [6.004766, 49.690098], [6.004568, 49.690098], [6.004553, 49.690166], [6.00453, 49.69026], [6.004221, 49.69029], [6.004068, 49.690296], [6.003984, 49.6903], [6.003901, 49.6903], [6.003817, 49.690296], [6.003714, 49.69029], [6.00363, 49.690277], [6.003466, 49.69025], [6.003401, 49.69024], [6.003256, 49.69022], [6.003164, 49.690205], [6.003092, 49.69019], [6.002989, 49.690166], [6.002867, 49.69013], [6.002501, 49.69], [6.002142, 49.68987], [6.001997, 49.689816], [6.00186, 49.689766], [6.001741, 49.689724], [6.001703, 49.689716], [6.001619, 49.68969], [6.001528, 49.689667], [6.001436, 49.68964], [6.001333, 49.689613], [6.00123, 49.689587], [6.001104, 49.68956], [6.000975, 49.689533], [6.000917, 49.68952], [6.000868, 49.689514], [6.000715, 49.689487], [6.000681, 49.689484], [6.000551, 49.689465], [6.000383, 49.689438], [6.000265, 49.689423], [6.000189, 49.68941], [6.000124, 49.689404], [5.999994, 49.68939], [5.999674, 49.689346], [5.999449, 49.689316], [5.999186, 49.68926], [5.999128, 49.689243], [5.998793, 49.689167], [5.998667, 49.689133], [5.998571, 49.689102], [5.998488, 49.68907], [5.998472, 49.689068], [5.998415, 49.68905], [5.998247, 49.688995], [5.998178, 49.68897], [5.997904, 49.688858], [5.997725, 49.688774], [5.997679, 49.688755], [5.997534, 49.688683], [5.997385, 49.688602], [5.997297, 49.688553], [5.997267, 49.688534], [5.997187, 49.688488], [5.996927, 49.688316], [5.996771, 49.68821], [5.996573, 49.68807], [5.996431, 49.687958], [5.996378, 49.68792], [5.996161, 49.687748], [5.99605, 49.68765], [5.995943, 49.68753], [5.995874, 49.68744], [5.995821, 49.687355], [5.995771, 49.687267], [5.995726, 49.687172], [5.99571, 49.687088], [5.995707, 49.687027], [5.995703, 49.686985], [5.995699, 49.686874], [5.99571, 49.68678], [5.995729, 49.68672], [5.995752, 49.686676], [5.99576, 49.686657], [5.995783, 49.686623], [5.995794, 49.6866], [5.995859, 49.686516], [5.995939, 49.686436], [5.995954, 49.686424], [5.995695, 49.686165], [5.995542, 49.68601], [5.995523, 49.685986], [5.995272, 49.685745], [5.995214, 49.68578], [5.995176, 49.685814], [5.995157, 49.685825], [5.995138, 49.685837], [5.995119, 49.685844], [5.9951, 49.685856], [5.995085, 49.685863], [5.995058, 49.68587], [5.995035, 49.685875], [5.995008, 49.68587], [5.994989, 49.68587], [5.994974, 49.685875], [5.994955, 49.685886], [5.994928, 49.6859], [5.994913, 49.685913], [5.994848, 49.685925], [5.994829, 49.68594], [5.994799, 49.685966], [5.99478, 49.68598], [5.994768, 49.685993], [5.994703, 49.686005], [5.99468, 49.686016], [5.994665, 49.686028], [5.99465, 49.686054], [5.994635, 49.686073], [5.994616, 49.686085], [5.994585, 49.686096], [5.994524, 49.68613], [5.994505, 49.686153], [5.994486, 49.68617], [5.994444, 49.686195], [5.994432, 49.68622], [5.994425, 49.686253], [5.994406, 49.686295], [5.994375, 49.68632], [5.99436, 49.68635], [5.994345, 49.686417], [5.994322, 49.686455], [5.99428, 49.686493], [5.994257, 49.686535], [5.994154, 49.686714], [5.994146, 49.686764], [5.994139, 49.6868], [5.994146, 49.68682], [5.99415, 49.68685], [5.994142, 49.686882], [5.994139, 49.686905], [5.994112, 49.68697], [5.994093, 49.687023], [5.99407, 49.687164], [5.99407, 49.687183], [5.994036, 49.68733], [5.994017, 49.687355], [5.993975, 49.687405], [5.993967, 49.687416], [5.99394, 49.68745], [5.993914, 49.687496], [5.993895, 49.687542], [5.993872, 49.687603], [5.993837, 49.68769], [5.993875, 49.68777], [5.99391, 49.68781], [5.993929, 49.68783], [5.993936, 49.68785], [5.993933, 49.687878], [5.99394, 49.68792], [5.993959, 49.687958], [5.993971, 49.688026], [5.993967, 49.68805], [5.993952, 49.68807], [5.99394, 49.68808], [5.99391, 49.688084], [5.993883, 49.688084], [5.99386, 49.68809], [5.993845, 49.688103], [5.99383, 49.688118], [5.993597, 49.6881], [5.993326, 49.68808], [5.993246, 49.6886], [5.993223, 49.688736], [5.993212, 49.688774], [5.993193, 49.688828], [5.993162, 49.68887], [5.993147, 49.688896], [5.993048, 49.689037], [5.992888, 49.68924], [5.992758, 49.689423], [5.992655, 49.68959], [5.992609, 49.689663], [5.99259, 49.689713], [5.992578, 49.689762], [5.992586, 49.68981], [5.992601, 49.68986], [5.992617, 49.689896], [5.99264, 49.689922], [5.992693, 49.689964], [5.992788, 49.69003], [5.992872, 49.69008], [5.992907, 49.690094], [5.992979, 49.690136], [5.99317, 49.690224], [5.993208, 49.690243], [5.993273, 49.69028], [5.993338, 49.690327], [5.993383, 49.690365], [5.993444, 49.690422], [5.993494, 49.69048], [5.993536, 49.690536], [5.993555, 49.690575], [5.993574, 49.69061], [5.993616, 49.6907], [5.993654, 49.690796], [5.993715, 49.690937], [5.993784, 49.6911], [5.993799, 49.69114], [5.993895, 49.691322], [5.993967, 49.69142], [5.994028, 49.691517], [5.994047, 49.691544], [5.994104, 49.69161], [5.994173, 49.691692], [5.994265, 49.691795], [5.994303, 49.69186], [5.994326, 49.691906], [5.994333, 49.691936], [5.994333, 49.691982], [5.994318, 49.692047], [5.994295, 49.69212], [5.994257, 49.692192], [5.994219, 49.69225], [5.994173, 49.692303], [5.994078, 49.692398], [5.994009, 49.692474], [5.993963, 49.69253], [5.993883, 49.692635], [5.993708, 49.69287], [5.993666, 49.69293], [5.993627, 49.692978], [5.993601, 49.69302], [5.993563, 49.693073], [5.993498, 49.693142], [5.993406, 49.693233], [5.993296, 49.693336], [5.993162, 49.69345], [5.992994, 49.693558], [5.992914, 49.693604], [5.992723, 49.69369], [5.992693, 49.693707], [5.992495, 49.693806], [5.992342, 49.693874], [5.992193, 49.69391], [5.992056, 49.69394], [5.991945, 49.69396], [5.991789, 49.693977], [5.991682, 49.69399], [5.991133, 49.693993], [5.990805, 49.693848], [5.990385, 49.693657], [5.990225, 49.693584], [5.990145, 49.693546], [5.989874, 49.69342], [5.989843, 49.69341], [5.989366, 49.693226], [5.98892, 49.693096], [5.988642, 49.693012], [5.988367, 49.692955], [5.988081, 49.69289], [5.98805, 49.692875], [5.987761, 49.69268], [5.987535, 49.692493], [5.987349, 49.69233], [5.98715, 49.692192], [5.987066, 49.69213], [5.986906, 49.692024], [5.986647, 49.69185], [5.986624, 49.691833], [5.986425, 49.69171], [5.986197, 49.69157], [5.985979, 49.691444], [5.985762, 49.691353], [5.985655, 49.691307], [5.985487, 49.69124], [5.984796, 49.690945], [5.984564, 49.69085], [5.984476, 49.690815], [5.984369, 49.6906], [5.984304, 49.690475], [5.984198, 49.69035], [5.984022, 49.690163], [5.983896, 49.69004], [5.983751, 49.689907], [5.983583, 49.68977], [5.983416, 49.689655], [5.983175, 49.689514], [5.982977, 49.689415], [5.982595, 49.689243], [5.982332, 49.68913], [5.981939, 49.68898], [5.981523, 49.688843], [5.980921, 49.688644], [5.98089, 49.688667], [5.980772, 49.68874], [5.980547, 49.68888], [5.980436, 49.688953], [5.980383, 49.688995], [5.980318, 49.689056], [5.980253, 49.689125], [5.980112, 49.68927], [5.980066, 49.689316], [5.980043, 49.689335], [5.979998, 49.68936], [5.979925, 49.689407], [5.979834, 49.689457], [5.979517, 49.689648], [5.979235, 49.689808], [5.97891, 49.690018], [5.978773, 49.690105], [5.978663, 49.69019], [5.978617, 49.690228], [5.97859, 49.69026], [5.978514, 49.69037], [5.978468, 49.690422], [5.97838, 49.69052], [5.978243, 49.690697], [5.978167, 49.690792], [5.97806, 49.69096], [5.977957, 49.69112], [5.977873, 49.69122], [5.977758, 49.69135], [5.977636, 49.691467], [5.977392, 49.691666], [5.976725, 49.692215], [5.97621, 49.69264], [5.976149, 49.692654], [5.975824, 49.69271], [5.975595, 49.692753], [5.974707, 49.69276], [5.974283, 49.692757], [5.97389, 49.69275], [5.973471, 49.69273], [5.973066, 49.69271], [5.972692, 49.69269], [5.972403, 49.692677], [5.971819, 49.692593], [5.971586, 49.692554], [5.971083, 49.692413], [5.970678, 49.692307], [5.970289, 49.692207], [5.970144, 49.692173], [5.969893, 49.692116], [5.969664, 49.692074], [5.969465, 49.692036], [5.968981, 49.691948], [5.968306, 49.69187], [5.967516, 49.691795], [5.966948, 49.691742], [5.966276, 49.691616], [5.966047, 49.69154], [5.965815, 49.691452], [5.965696, 49.691402], [5.965658, 49.691387], [5.965605, 49.69137], [5.965494, 49.69133], [5.96541, 49.691334], [5.965311, 49.691338], [5.965021, 49.691345], [5.964586, 49.691353], [5.964319, 49.691357], [5.964041, 49.69136], [5.963823, 49.691463], [5.96369, 49.691536], [5.963598, 49.691597], [5.963499, 49.691673], [5.963434, 49.69173], [5.963335, 49.69183], [5.963266, 49.691902], [5.963202, 49.691982], [5.96314, 49.692055], [5.962858, 49.691986], [5.962606, 49.691917], [5.962458, 49.691864], [5.962225, 49.691784], [5.962011, 49.69189], [5.961813, 49.691994], [5.96166, 49.692093], [5.961557, 49.692154], [5.961439, 49.692234], [5.961367, 49.692295], [5.961199, 49.692097], [5.961142, 49.69202], [5.961039, 49.69191], [5.960955, 49.691807], [5.960878, 49.69171], [5.960798, 49.691437], [5.960741, 49.691154], [5.960669, 49.690968], [5.960646, 49.690887], [5.960634, 49.690823], [5.960615, 49.690742], [5.960569, 49.690617], [5.960512, 49.690453], [5.960482, 49.69036], [5.960447, 49.690235], [5.960409, 49.6901], [5.960367, 49.68991], [5.960356, 49.68985], [5.960134, 49.68986], [5.960108, 49.689865], [5.9601, 49.689846], [5.960081, 49.689816], [5.96002, 49.68975], [5.959894, 49.689625], [5.95978, 49.68951], [5.959692, 49.689415], [5.959585, 49.689293], [5.959478, 49.689167], [5.959372, 49.689056], [5.959284, 49.68897], [5.959143, 49.688866], [5.958986, 49.688763], [5.958849, 49.688686], [5.958677, 49.688587], [5.958399, 49.688442], [5.958273, 49.688377], [5.958136, 49.688297], [5.957991, 49.688194], [5.957857, 49.68812], [5.957739, 49.688065], [5.957533, 49.68798], [5.957399, 49.68793], [5.957243, 49.68788], [5.957056, 49.68783], [5.956793, 49.68778], [5.956602, 49.687748], [5.956396, 49.68773], [5.956343, 49.6877], [5.956377, 49.687557], [5.95608, 49.68755], [5.955759, 49.68755], [5.955236, 49.687565], [5.955023, 49.687572], [5.954779, 49.687603], [5.954504, 49.68763], [5.95426, 49.687653], [5.954088, 49.687668], [5.953642, 49.687725], [5.953508, 49.68775], [5.953222, 49.687805], [5.95289, 49.687943], [5.952669, 49.688034], [5.952517, 49.6881], [5.952188, 49.688236], [5.951925, 49.68835], [5.951689, 49.688465], [5.95159, 49.688522], [5.951498, 49.68859], [5.951368, 49.68872], [5.951189, 49.688904], [5.951101, 49.688995], [5.951033, 49.68907], [5.950857, 49.689266], [5.950613, 49.68938], [5.950483, 49.689445], [5.950335, 49.689518], [5.950316, 49.68953], [5.950293, 49.689537], [5.950155, 49.68949], [5.949965, 49.689438], [5.949686, 49.68936], [5.949656, 49.689396], [5.949568, 49.689377], [5.949476, 49.689354], [5.94932, 49.689255], [5.949194, 49.689156], [5.949122, 49.689064], [5.949049, 49.688976], [5.948999, 49.68891], [5.948931, 49.688828], [5.948801, 49.688667], [5.948694, 49.68854], [5.948645, 49.688484], [5.94842, 49.68822], [5.948286, 49.68807], [5.948107, 49.687878], [5.947958, 49.687717], [5.947836, 49.687607], [5.947615, 49.687397], [5.947393, 49.687225], [5.947355, 49.68719], [5.947313, 49.687157], [5.947267, 49.687145], [5.947237, 49.687134], [5.947191, 49.68711], [5.947153, 49.68708], [5.947138, 49.68706], [5.947084, 49.687035], [5.947065, 49.68703], [5.947046, 49.687027], [5.946619, 49.686867], [5.946035, 49.68662], [5.945623, 49.686447], [5.945372, 49.68673], [5.945116, 49.687008], [5.945093, 49.687035], [5.94504, 49.686996], [5.945021, 49.68696], [5.945009, 49.686886], [5.945028, 49.686768], [5.945047, 49.686684], [5.945051, 49.686596], [5.945009, 49.68653], [5.944883, 49.68645], [5.944635, 49.686398], [5.944414, 49.686333], [5.944269, 49.68622], [5.944174, 49.68617], [5.944037, 49.686153], [5.943857, 49.686123], [5.943785, 49.686073], [5.943766, 49.686024], [5.943781, 49.68594], [5.943773, 49.68588], [5.943735, 49.68584], [5.943632, 49.68581], [5.943438, 49.685806], [5.943342, 49.685833], [5.943186, 49.685833], [5.943106, 49.685787], [5.943007, 49.685764], [5.942717, 49.68574], [5.942465, 49.685703], [5.942358, 49.685658], [5.942278, 49.685596], [5.942255, 49.68554], [5.942278, 49.68548], [5.942335, 49.685402], [5.942434, 49.68529], [5.942503, 49.685184], [5.942522, 49.6851], [5.942511, 49.68504], [5.942469, 49.684975], [5.942301, 49.684822], [5.942232, 49.684723], [5.942144, 49.684624], [5.942053, 49.68449], [5.942003, 49.68442], [5.94195, 49.684376], [5.941885, 49.68435], [5.941778, 49.68435], [5.941748, 49.684353], [5.941698, 49.684353], [5.941626, 49.684357], [5.941362, 49.68434], [5.941263, 49.684334], [5.941126, 49.6843], [5.94108, 49.684258], [5.941072, 49.684193], [5.941091, 49.684124], [5.94116, 49.684017], [5.941214, 49.683945], [5.941404, 49.68366], [5.941511, 49.683594], [5.941694, 49.683514], [5.941797, 49.683453], [5.942015, 49.683285], [5.942095, 49.683224], [5.942244, 49.68306], [5.942285, 49.682995], [5.942289, 49.682953], [5.942266, 49.682823], [5.942247, 49.68275], [5.942224, 49.68273], [5.942171, 49.68271], [5.942045, 49.682686], [5.941973, 49.682663], [5.941919, 49.68263], [5.941877, 49.68258], [5.941847, 49.682518], [5.941843, 49.682476], [5.941889, 49.682423], [5.941973, 49.682377], [5.942129, 49.68231], [5.942224, 49.682266], [5.942308, 49.682213], [5.942362, 49.682163], [5.942408, 49.682095], [5.942427, 49.68204], [5.942427, 49.681976], [5.942408, 49.68191], [5.942362, 49.681858], [5.942285, 49.681793], [5.942217, 49.681736], [5.942171, 49.681686], [5.942152, 49.681637], [5.942221, 49.68153], [5.942263, 49.68147], [5.942339, 49.68134], [5.942404, 49.681263], [5.942522, 49.681156], [5.94264, 49.68104], [5.942701, 49.680992], [5.942865, 49.680893], [5.942953, 49.68083], [5.942995, 49.680775], [5.943048, 49.680676], [5.943102, 49.680607], [5.94319, 49.680508], [5.943323, 49.680412], [5.94346, 49.680317], [5.943529, 49.68023], [5.94356, 49.68018], [5.94364, 49.68011], [5.943659, 49.68006], [5.943666, 49.679985], [5.943678, 49.679913], [5.94372, 49.67986], [5.943773, 49.679813], [5.943846, 49.679787], [5.943941, 49.679752], [5.943998, 49.67973], [5.944025, 49.679703], [5.944037, 49.679623], [5.944056, 49.679527], [5.944185, 49.679382], [5.944414, 49.67921], [5.944628, 49.67904], [5.944647, 49.678993], [5.944597, 49.67885], [5.944483, 49.678673], [5.944223, 49.678524], [5.944159, 49.678524], [5.943937, 49.678528], [5.943609, 49.67853], [5.943541, 49.678528], [5.943117, 49.67852], [5.942953, 49.67852], [5.942827, 49.67853], [5.942766, 49.678547], [5.942701, 49.678562], [5.94261, 49.6786], [5.94253, 49.678654], [5.942419, 49.678745], [5.942183, 49.678944], [5.94208, 49.67903], [5.942018, 49.679092], [5.941923, 49.679207], [5.941835, 49.679325], [5.941656, 49.679592], [5.941454, 49.679867], [5.941233, 49.680187], [5.941179, 49.68027], [5.941091, 49.68037], [5.940988, 49.68047], [5.940775, 49.680653], [5.94066, 49.680737], [5.940542, 49.68083], [5.940145, 49.68112], [5.940092, 49.68117], [5.939913, 49.68131], [5.939524, 49.68162], [5.939348, 49.68175], [5.939077, 49.681957], [5.938913, 49.682114], [5.938814, 49.68221], [5.938742, 49.682293], [5.938681, 49.682373], [5.938662, 49.682404], [5.938643, 49.682446], [5.938616, 49.682487], [5.938593, 49.68252], [5.938372, 49.682735], [5.93825, 49.682842], [5.938036, 49.68302], [5.937979, 49.683064], [5.937921, 49.683105], [5.937861, 49.683147], [5.937811, 49.683186], [5.937788, 49.68321], [5.937773, 49.68323], [5.937735, 49.683277], [5.937708, 49.683334], [5.93762, 49.68349], [5.937498, 49.683693], [5.937437, 49.68382], [5.937384, 49.683937], [5.937361, 49.68401], [5.937307, 49.684177], [5.937239, 49.684376], [5.937105, 49.68474], [5.937063, 49.68484], [5.937029, 49.684917], [5.937014, 49.684994], [5.937006, 49.68507], [5.937017, 49.68516], [5.93704, 49.685246], [5.937079, 49.685352], [5.937113, 49.685425], [5.937128, 49.685455], [5.937311, 49.68562], [5.937449, 49.68576], [5.937593, 49.685905], [5.937635, 49.68595], [5.937708, 49.68604], [5.937811, 49.686172], [5.937872, 49.686264], [5.937948, 49.686424], [5.938002, 49.68651], [5.938097, 49.686638], [5.93804, 49.686817], [5.937971, 49.687057], [5.937925, 49.687252], [5.937876, 49.687496], [5.937861, 49.687637], [5.937853, 49.68797], [5.937784, 49.688267], [5.937758, 49.68842], [5.93775, 49.68845], [5.937704, 49.688705], [5.937616, 49.689247], [5.937597, 49.689354], [5.937571, 49.68952], [5.937525, 49.68979], [5.937487, 49.690006], [5.937452, 49.690205], [5.937449, 49.69022], [5.937422, 49.690403], [5.937387, 49.690582], [5.93733, 49.6909], [5.937254, 49.691338], [5.937216, 49.691566], [5.937113, 49.69171], [5.936968, 49.69191], [5.936869, 49.692043], [5.93685, 49.692078], [5.936647, 49.69236], [5.936575, 49.692455], [5.936476, 49.692593], [5.936338, 49.692776], [5.936262, 49.692883], [5.936247, 49.69291], [5.936197, 49.69297], [5.93619, 49.69298], [5.935999, 49.69324], [5.935984, 49.69326], [5.935968, 49.693283], [5.935862, 49.69343], [5.935747, 49.69359], [5.935736, 49.693607], [5.935678, 49.69368], [5.935568, 49.69383], [5.935442, 49.69402], [5.935438, 49.694035], [5.935347, 49.694427], [5.935282, 49.69466], [5.935171, 49.695126], [5.935087, 49.69528], [5.935038, 49.695366], [5.935003, 49.695435], [5.934938, 49.695557], [5.9349, 49.695618], [5.934812, 49.695766], [5.934736, 49.695885], [5.93466, 49.69599], [5.93461, 49.696064], [5.934599, 49.69608], [5.934481, 49.696217], [5.934259, 49.696476], [5.934233, 49.696503], [5.934137, 49.696613], [5.934084, 49.69668], [5.933962, 49.696815], [5.93387, 49.696922], [5.933806, 49.696995], [5.933737, 49.697075], [5.933489, 49.697357], [5.933515, 49.6974], [5.933554, 49.697453], [5.933771, 49.697796], [5.934042, 49.698215], [5.934076, 49.69827], [5.933943, 49.69834], [5.933744, 49.698452], [5.933699, 49.698475], [5.933672, 49.698494], [5.933454, 49.69861], [5.933096, 49.698795], [5.933077, 49.698807], [5.932879, 49.6989], [5.932852, 49.69891], [5.932737, 49.698956], [5.932222, 49.69916], [5.932096, 49.69918], [5.931913, 49.699207], [5.931799, 49.699234], [5.931711, 49.69927], [5.931639, 49.699295], [5.931551, 49.699333], [5.931463, 49.699375], [5.931177, 49.69952], [5.930963, 49.699635], [5.930754, 49.69975], [5.930555, 49.699856], [5.930361, 49.699966], [5.929979, 49.700184], [5.929899, 49.70025], [5.929842, 49.700294], [5.929762, 49.700382], [5.929743, 49.70042], [5.929724, 49.700474], [5.929705, 49.700573], [5.929636, 49.700893], [5.929502, 49.701405], [5.929472, 49.701553], [5.929442, 49.701656], [5.929403, 49.701767], [5.929384, 49.70181], [5.929361, 49.701855], [5.929327, 49.701912]]]]}}]}