{"type": "FeatureCollection", "features": [{"type": "Feature", "properties": {"name": "Pétange"}, "geometry": {"type": "MultiPolygon", "coordinates": [[[[5.808126, 49.54256], [5.808279, 49.542606], [5.808291, 49.5426], [5.808302, 49.54259], [5.808317, 49.542583], [5.808344, 49.542576], [5.808359, 49.542576], [5.809263, 49.542828], [5.810518, 49.54318], [5.810503, 49.5432], [5.810495, 49.54325], [5.810515, 49.543312], [5.810587, 49.543423], [5.810579, 49.543434], [5.81056, 49.543476], [5.814165, 49.54447], [5.815226, 49.54483], [5.815882, 49.54505], [5.815916, 49.545063], [5.81724, 49.54551], [5.817263, 49.545513], [5.817949, 49.545746], [5.818064, 49.54583], [5.818575, 49.546381], [5.818609, 49.546604], [5.81864, 49.54665], [5.818708, 49.5467], [5.818796, 49.546745], [5.81885, 49.546783], [5.818892, 49.546856], [5.818956, 49.546986], [5.819017, 49.547092], [5.81909, 49.54715], [5.819189, 49.547203], [5.819326, 49.547253], [5.819551, 49.54731], [5.819685, 49.547363], [5.819841, 49.54744], [5.819994, 49.54753], [5.820101, 49.547604], [5.82015, 49.547672], [5.820162, 49.547726], [5.82012, 49.547825], [5.820059, 49.547935], [5.81999, 49.54799], [5.819906, 49.54804], [5.819826, 49.548084], [5.819807, 49.548126], [5.819838, 49.54817], [5.819857, 49.548203], [5.819849, 49.54824], [5.81986, 49.54829], [5.81991, 49.54833], [5.820002, 49.548378], [5.82007, 49.548435], [5.820135, 49.548515], [5.820166, 49.54859], [5.820158, 49.548645], [5.82007, 49.548817], [5.820059, 49.548878], [5.820047, 49.548954], [5.820017, 49.549015], [5.81999, 49.549076], [5.819998, 49.549126], [5.820032, 49.54919], [5.820086, 49.549232], [5.820162, 49.54927], [5.820917, 49.549587], [5.82118, 49.54969], [5.821196, 49.549717], [5.821176, 49.54974], [5.821165, 49.54979], [5.821203, 49.549828], [5.821268, 49.54987], [5.821352, 49.549892], [5.821447, 49.5499], [5.821596, 49.549892], [5.821695, 49.549873], [5.821825, 49.54983], [5.821917, 49.54979], [5.821989, 49.54977], [5.822138, 49.54977], [5.822203, 49.549755], [5.822294, 49.549717], [5.822401, 49.54966], [5.822462, 49.549633], [5.822515, 49.54963], [5.822584, 49.549644], [5.82266, 49.54968], [5.822725, 49.54972], [5.822798, 49.549793], [5.822889, 49.549946], [5.822927, 49.550053], [5.822981, 49.55015], [5.823057, 49.550243], [5.823183, 49.550404], [5.823248, 49.550507], [5.823313, 49.550564], [5.823484, 49.550682], [5.823584, 49.550777], [5.82366, 49.550888], [5.82374, 49.550957], [5.824007, 49.551147], [5.824045, 49.551205], [5.824079, 49.55126], [5.824129, 49.551315], [5.824301, 49.55142], [5.824614, 49.551586], [5.824839, 49.55172], [5.824987, 49.551792], [5.825003, 49.5518], [5.825075, 49.551834], [5.825132, 49.55186], [5.82522, 49.55192], [5.82527, 49.551987], [5.825319, 49.552032], [5.82538, 49.552063], [5.825468, 49.552082], [5.82572, 49.552124], [5.825926, 49.55217], [5.826017, 49.55221], [5.82604, 49.552235], [5.82625, 49.552143], [5.826296, 49.552116], [5.82633, 49.552094], [5.826368, 49.55206], [5.826399, 49.552013], [5.826422, 49.551964], [5.826441, 49.55191], [5.826448, 49.55187], [5.826452, 49.551834], [5.826475, 49.55179], [5.82651, 49.551727], [5.826597, 49.55163], [5.826727, 49.55147], [5.826742, 49.551445], [5.826769, 49.55141], [5.826826, 49.551334], [5.82691, 49.551235], [5.827406, 49.550594], [5.827974, 49.550007], [5.828737, 49.55025], [5.829279, 49.55047], [5.829779, 49.550663], [5.829802, 49.550644], [5.829947, 49.550694], [5.830126, 49.550743], [5.83024, 49.55077], [5.83029, 49.55078], [5.830336, 49.550785], [5.83037, 49.550785], [5.83074, 49.55079], [5.830908, 49.55079], [5.830988, 49.550797], [5.831053, 49.5508], [5.831106, 49.550816], [5.831205, 49.550854], [5.831743, 49.551067], [5.831964, 49.55115], [5.832113, 49.5512], [5.83235, 49.551273], [5.8328, 49.551414], [5.832956, 49.551464], [5.833143, 49.551525], [5.83349, 49.55164], [5.833723, 49.551712], [5.834005, 49.551804], [5.834303, 49.5519], [5.834646, 49.552006], [5.834871, 49.552082], [5.83494, 49.55211], [5.835585, 49.552433], [5.835653, 49.552464], [5.836512, 49.55263], [5.837492, 49.552814], [5.837641, 49.552837], [5.837751, 49.552853], [5.837923, 49.552868], [5.838209, 49.55289], [5.838491, 49.552906], [5.838614, 49.552914], [5.838755, 49.55292], [5.839022, 49.552937], [5.839407, 49.55296], [5.839842, 49.55298], [5.840448, 49.553005], [5.841539, 49.553085], [5.84181, 49.55311], [5.841895, 49.553311], [5.841917, 49.553364], [5.842047, 49.553635], [5.842062, 49.553753], [5.842068, 49.553849], [5.842073, 49.553923], [5.842146, 49.553926], [5.842089, 49.554212], [5.842032, 49.554495], [5.842104, 49.554497], [5.842165, 49.55449], [5.842234, 49.554478], [5.842325, 49.554447], [5.842402, 49.554413], [5.842569, 49.55434], [5.842627, 49.55433], [5.842669, 49.55432], [5.842733, 49.55432], [5.842855, 49.55433], [5.843058, 49.554344], [5.843294, 49.55437], [5.843416, 49.55439], [5.843477, 49.554398], [5.843645, 49.554424], [5.843672, 49.554688], [5.843683, 49.554806], [5.843679, 49.554874], [5.843668, 49.554947], [5.843542, 49.55521], [5.843866, 49.55531], [5.844336, 49.555477], [5.844473, 49.55558], [5.844625, 49.5557], [5.84479, 49.55583], [5.844934, 49.556126], [5.844992, 49.556133], [5.84606, 49.55628], [5.845972, 49.556637], [5.846025, 49.556652], [5.846087, 49.556686], [5.846144, 49.556747], [5.84617, 49.55683], [5.846174, 49.556946], [5.846136, 49.55705], [5.84609, 49.55711], [5.845976, 49.557224], [5.845877, 49.55734], [5.845854, 49.557392], [5.845861, 49.55743], [5.845934, 49.557495], [5.846018, 49.557545], [5.846094, 49.557594], [5.846296, 49.5577], [5.845671, 49.558277], [5.845335, 49.55859], [5.8458, 49.558754], [5.84585, 49.55877], [5.845236, 49.55926], [5.844187, 49.559826], [5.843706, 49.560104], [5.843397, 49.560318], [5.843119, 49.560535], [5.84289, 49.560745], [5.842421, 49.561023], [5.843637, 49.560654], [5.844267, 49.560802], [5.84479, 49.560936], [5.845148, 49.56105], [5.845358, 49.56114], [5.845636, 49.561283], [5.845865, 49.561428], [5.846029, 49.561565], [5.846273, 49.56181], [5.846518, 49.562107], [5.846579, 49.56209], [5.846727, 49.562065], [5.846796, 49.56206], [5.846884, 49.56206], [5.846998, 49.562073], [5.847219, 49.56211], [5.847597, 49.562183], [5.848104, 49.56241], [5.848223, 49.56246], [5.848463, 49.56257], [5.848482, 49.562576], [5.848692, 49.562668], [5.848814, 49.56272], [5.849001, 49.562798], [5.849089, 49.562836], [5.849192, 49.562878], [5.849375, 49.562954], [5.84952, 49.563007], [5.849646, 49.563046], [5.849684, 49.56306], [5.849749, 49.56308], [5.849802, 49.563095], [5.849913, 49.56313], [5.849962, 49.563145], [5.849993, 49.563152], [5.850073, 49.56318], [5.85013, 49.563194], [5.850206, 49.563217], [5.850359, 49.563103], [5.850523, 49.563065], [5.85071, 49.563023], [5.850779, 49.563004], [5.850859, 49.56298], [5.85087, 49.562977], [5.850912, 49.562958], [5.850931, 49.562954], [5.850946, 49.562943], [5.850962, 49.56294], [5.850988, 49.562923], [5.851004, 49.562916], [5.851019, 49.56291], [5.851046, 49.56287], [5.851065, 49.562847], [5.851095, 49.562794], [5.851099, 49.562862], [5.851099, 49.562946], [5.85103, 49.562977], [5.851026, 49.56299], [5.851026, 49.56303], [5.850996, 49.563065], [5.850985, 49.56309], [5.850985, 49.56312], [5.850996, 49.56316], [5.850996, 49.563183], [5.850985, 49.563225], [5.850969, 49.56326], [5.85095, 49.56329], [5.850939, 49.563313], [5.850935, 49.56334], [5.850943, 49.56338], [5.850943, 49.56343], [5.850935, 49.5635], [5.850935, 49.563545], [5.850943, 49.563576], [5.850962, 49.563633], [5.850988, 49.563705], [5.851015, 49.563812], [5.851034, 49.56385], [5.851065, 49.563896], [5.851126, 49.56397], [5.851202, 49.56406], [5.851248, 49.56414], [5.851511, 49.564617], [5.851538, 49.56465], [5.85166, 49.564846], [5.851782, 49.56497], [5.851957, 49.565136], [5.852056, 49.56522], [5.852098, 49.56524], [5.852179, 49.56526], [5.852243, 49.56528], [5.852285, 49.565285], [5.852381, 49.56528], [5.852476, 49.565285], [5.852598, 49.56529], [5.852804, 49.5653], [5.852869, 49.565304], [5.852976, 49.5653], [5.853174, 49.565296], [5.853311, 49.565292], [5.853384, 49.56528], [5.853479, 49.565254], [5.853563, 49.56523], [5.853659, 49.565197], [5.853723, 49.565178], [5.853762, 49.56516], [5.854196, 49.565327], [5.854948, 49.56562], [5.855394, 49.56601], [5.856604, 49.566265], [5.858007, 49.56622], [5.8589, 49.56637], [5.858954, 49.56638], [5.859854, 49.56654], [5.860346, 49.56673], [5.860685, 49.566868], [5.861059, 49.567024], [5.861132, 49.567524], [5.86104, 49.568165], [5.861017, 49.568268], [5.860964, 49.568413], [5.860636, 49.56922], [5.860518, 49.569508], [5.860407, 49.56979], [5.86043, 49.56994], [5.860453, 49.570034], [5.860475, 49.570087], [5.860498, 49.570126], [5.860632, 49.570267], [5.860762, 49.57039], [5.861231, 49.570827], [5.861807, 49.57067], [5.861917, 49.570637], [5.861948, 49.570663], [5.861994, 49.570698], [5.862028, 49.57069], [5.862253, 49.57062], [5.862375, 49.570732], [5.862425, 49.57073], [5.862482, 49.57072], [5.862616, 49.570698], [5.862837, 49.570652], [5.862936, 49.57062], [5.86302, 49.570595], [5.863096, 49.570568], [5.863245, 49.570507], [5.863382, 49.570602], [5.863466, 49.570652], [5.863855, 49.570854], [5.863966, 49.57091], [5.864187, 49.57103], [5.864267, 49.57107], [5.864344, 49.57111], [5.864706, 49.571323], [5.865019, 49.571514], [5.865347, 49.571716], [5.865442, 49.571644], [5.865496, 49.571606], [5.865545, 49.571568], [5.865587, 49.571537], [5.865614, 49.571518], [5.865843, 49.57134], [5.865892, 49.5713], [5.865927, 49.571274], [5.866015, 49.571205], [5.866156, 49.57109], [5.866224, 49.571033], [5.866259, 49.571007], [5.866392, 49.570896], [5.866449, 49.570854], [5.866514, 49.5708], [5.866556, 49.570766], [5.86659, 49.57074], [5.866613, 49.57072], [5.866693, 49.570656], [5.86672, 49.570637], [5.866812, 49.57056], [5.866861, 49.57052], [5.866896, 49.57049], [5.866934, 49.570465], [5.866999, 49.570408], [5.867071, 49.570354], [5.867094, 49.570335], [5.867132, 49.57031], [5.86717, 49.570282], [5.867285, 49.570213], [5.867353, 49.57017], [5.867392, 49.570152], [5.867422, 49.57013], [5.867502, 49.570076], [5.867624, 49.57], [5.867788, 49.569893], [5.867853, 49.56985], [5.86788, 49.569836], [5.867926, 49.569805], [5.867941, 49.569794], [5.867983, 49.569767], [5.868002, 49.56975], [5.868059, 49.569717], [5.868185, 49.569637], [5.868296, 49.569565], [5.868471, 49.569447], [5.86857, 49.569386], [5.8687, 49.5693], [5.868776, 49.569252], [5.868868, 49.56919], [5.868895, 49.56917], [5.868982, 49.569115], [5.869123, 49.56902], [5.869215, 49.568962], [5.869345, 49.568855], [5.869604, 49.568634], [5.869722, 49.56853], [5.869738, 49.568516], [5.869783, 49.56847], [5.869806, 49.568443], [5.869867, 49.568367], [5.869928, 49.5683], [5.869955, 49.56827], [5.869974, 49.568253], [5.870054, 49.568184], [5.870161, 49.56808], [5.870127, 49.568058], [5.870146, 49.56803], [5.870172, 49.567997], [5.870213, 49.567948], [5.870249, 49.567905], [5.870275, 49.56787], [5.87031, 49.56783], [5.870359, 49.56777], [5.870409, 49.567707], [5.870447, 49.56766], [5.870501, 49.567596], [5.870657, 49.5674], [5.870832, 49.567184], [5.870806, 49.567165], [5.870836, 49.567104], [5.870855, 49.567055], [5.870863, 49.567], [5.870905, 49.566803], [5.870935, 49.566635], [5.870939, 49.56661], [5.870958, 49.56652], [5.870958, 49.566483], [5.870974, 49.566364], [5.870997, 49.56616], [5.870997, 49.566143], [5.871015, 49.565945], [5.871019, 49.565918], [5.871031, 49.56574], [5.871038, 49.56565], [5.871267, 49.56574], [5.871298, 49.56571], [5.871531, 49.565456], [5.871565, 49.565422], [5.871721, 49.565254], [5.871759, 49.56521], [5.871881, 49.565083], [5.872053, 49.5649], [5.872339, 49.56503], [5.872435, 49.56496], [5.872496, 49.564922], [5.872511, 49.56491], [5.872545, 49.564888], [5.872755, 49.564743], [5.872793, 49.564716], [5.872824, 49.564693], [5.872839, 49.564686], [5.87287, 49.564663], [5.872923, 49.564625], [5.872965, 49.564594], [5.872988, 49.564575], [5.873053, 49.56453], [5.873117, 49.564476], [5.87322, 49.564392], [5.873285, 49.56434], [5.873323, 49.5643], [5.873377, 49.564255], [5.873434, 49.5642], [5.873529, 49.564114], [5.873556, 49.564087], [5.873621, 49.564026], [5.873636, 49.56401], [5.873911, 49.563747], [5.874147, 49.56353], [5.874227, 49.56355], [5.87435, 49.563282], [5.874361, 49.563255], [5.874563, 49.562798], [5.874712, 49.562454], [5.874777, 49.56229], [5.874891, 49.561996], [5.875078, 49.561447], [5.87509, 49.561405], [5.87409, 49.561234], [5.874124, 49.561184], [5.874174, 49.561115], [5.874197, 49.56108], [5.874342, 49.560886], [5.874365, 49.560856], [5.874781, 49.560284], [5.875101, 49.55984], [5.875128, 49.559807], [5.875143, 49.559784], [5.875246, 49.559776], [5.875418, 49.55976], [5.87565, 49.559734], [5.875853, 49.55974], [5.876017, 49.559765], [5.876146, 49.559814], [5.876391, 49.559948], [5.876524, 49.56001], [5.876661, 49.560043], [5.876806, 49.56006], [5.876993, 49.56004], [5.877142, 49.560017], [5.877378, 49.559994], [5.877485, 49.559994], [5.877569, 49.560013], [5.877665, 49.56005], [5.877741, 49.560104], [5.877817, 49.560173], [5.877882, 49.56026], [5.877924, 49.5604], [5.878027, 49.560486], [5.878092, 49.560528], [5.878153, 49.560574], [5.878202, 49.560642], [5.878229, 49.56072], [5.878237, 49.56091], [5.878294, 49.561035], [5.878324, 49.56107], [5.878363, 49.561108], [5.878462, 49.561165], [5.878634, 49.561222], [5.878813, 49.56126], [5.8789, 49.561275], [5.879076, 49.561287], [5.879274, 49.561287], [5.879408, 49.561314], [5.879518, 49.561314], [5.879549, 49.56131], [5.879785, 49.56127], [5.880041, 49.561222], [5.880102, 49.561214], [5.88014, 49.56121], [5.880171, 49.561214], [5.880209, 49.561226], [5.880243, 49.56124], [5.880281, 49.56128], [5.880308, 49.561317], [5.880343, 49.561367], [5.880381, 49.561424], [5.880293, 49.56148], [5.880304, 49.561497], [5.880339, 49.56153], [5.880369, 49.56155], [5.880407, 49.56157], [5.880491, 49.561604], [5.88056, 49.56162], [5.880629, 49.561634], [5.880655, 49.56164], [5.880728, 49.561653], [5.880854, 49.56167], [5.881002, 49.561684], [5.881201, 49.5617], [5.881338, 49.561703], [5.881472, 49.5617], [5.881628, 49.56169], [5.881735, 49.56168], [5.881868, 49.56166], [5.881929, 49.56165], [5.882032, 49.561634], [5.882055, 49.56161], [5.882238, 49.561687], [5.88236, 49.561756], [5.882376, 49.56177], [5.882524, 49.56189], [5.882586, 49.561916], [5.88278, 49.562004], [5.883001, 49.562084], [5.883089, 49.562107], [5.883219, 49.562145], [5.883326, 49.56217], [5.883406, 49.562172], [5.883654, 49.562176], [5.883799, 49.56217], [5.88397, 49.562157], [5.884047, 49.562153], [5.884367, 49.562107], [5.884615, 49.562077], [5.884817, 49.56206], [5.884996, 49.562057], [5.885233, 49.562057], [5.885538, 49.562073], [5.885691, 49.56208], [5.885717, 49.56208], [5.885775, 49.56107], [5.885771, 49.560925], [5.885625, 49.560799], [5.885571, 49.560736], [5.885489, 49.56063], [5.885397, 49.56047], [5.885416, 49.560413], [5.885397, 49.560356], [5.885385, 49.560314], [5.88537, 49.560265], [5.885363, 49.560196], [5.885355, 49.56003], [5.885282, 49.56003], [5.885302, 49.559734], [5.885332, 49.559494], [5.885397, 49.55929], [5.885489, 49.55912], [5.885786, 49.55866], [5.886209, 49.55817], [5.886473, 49.55823], [5.886541, 49.558136], [5.886724, 49.55783], [5.886957, 49.557545], [5.887056, 49.557446], [5.887236, 49.557293], [5.887384, 49.55717], [5.887426, 49.55709], [5.887434, 49.557014], [5.887426, 49.55679], [5.887384, 49.556515], [5.887304, 49.556248], [5.88714, 49.555912], [5.886957, 49.555607], [5.886866, 49.55551], [5.886743, 49.55535], [5.886705, 49.555275], [5.886675, 49.5552], [5.886675, 49.55513], [5.886622, 49.555084], [5.886606, 49.555077], [5.886534, 49.554993], [5.886457, 49.55489], [5.886221, 49.554565], [5.886145, 49.554447], [5.886129, 49.55442], [5.886099, 49.55437], [5.886091, 49.55435], [5.886072, 49.55431], [5.886057, 49.554264], [5.886053, 49.554226], [5.886049, 49.55418], [5.886049, 49.554134], [5.886061, 49.55407], [5.886087, 49.55396], [5.886129, 49.55384], [5.886141, 49.553802], [5.886194, 49.553673], [5.886236, 49.55362], [5.88632, 49.553528], [5.886206, 49.5533], [5.886332, 49.553295], [5.886408, 49.553448], [5.88653, 49.553333], [5.886579, 49.553288], [5.886511, 49.553135], [5.886248, 49.552467], [5.886137, 49.552174], [5.885939, 49.55183], [5.885794, 49.551617], [5.885717, 49.551502], [5.885561, 49.551292], [5.885481, 49.551197], [5.885439, 49.55116], [5.885382, 49.55113], [5.885347, 49.5511], [5.885309, 49.55104], [5.885199, 49.5507], [5.885118, 49.550476], [5.885096, 49.5504], [5.885042, 49.550236], [5.885057, 49.55021], [5.885141, 49.550117], [5.885321, 49.549908], [5.885527, 49.54959], [5.885622, 49.549225], [5.885649, 49.548946], [5.885668, 49.548798], [5.885672, 49.548615], [5.885656, 49.548355], [5.885611, 49.548088], [5.88529, 49.547], [5.885202, 49.547005], [5.885069, 49.547012], [5.885046, 49.547062], [5.885042, 49.54711], [5.885061, 49.547188], [5.885069, 49.547207], [5.885077, 49.547253], [5.885065, 49.5473], [5.885046, 49.547325], [5.885035, 49.54733], [5.884985, 49.547344], [5.884825, 49.547367], [5.88463, 49.547382], [5.884394, 49.547398], [5.884047, 49.547405], [5.883802, 49.547394], [5.883585, 49.54738], [5.883406, 49.54734], [5.883291, 49.54733], [5.883165, 49.547318], [5.883062, 49.547302], [5.882967, 49.547276], [5.882898, 49.547245], [5.882757, 49.547134], [5.882601, 49.547024], [5.882513, 49.54698], [5.881884, 49.5466], [5.881666, 49.546467], [5.881537, 49.54639], [5.881369, 49.54622], [5.880426, 49.546204], [5.88003, 49.546185], [5.879599, 49.546146], [5.878893, 49.546078], [5.878626, 49.546047], [5.878, 49.54597], [5.877695, 49.545734], [5.877584, 49.545666], [5.877478, 49.545616], [5.877363, 49.545574], [5.877287, 49.545544], [5.877245, 49.545525], [5.877165, 49.545486], [5.877119, 49.545456], [5.877069, 49.545425], [5.876947, 49.545353], [5.876776, 49.545265], [5.876535, 49.545143], [5.876295, 49.545036], [5.875795, 49.544815], [5.875547, 49.544704], [5.875261, 49.544575], [5.875124, 49.544514], [5.875032, 49.54446], [5.874918, 49.544388], [5.874876, 49.544353], [5.874842, 49.54432], [5.874815, 49.544285], [5.874807, 49.544266], [5.874807, 49.544243], [5.874819, 49.54422], [5.874846, 49.544186], [5.874929, 49.5441], [5.875032, 49.544025], [5.875082, 49.544], [5.875174, 49.543957], [5.875311, 49.5439], [5.875471, 49.543835], [5.875559, 49.5438], [5.875654, 49.54376], [5.875734, 49.54372], [5.875788, 49.54369], [5.875845, 49.54365], [5.875891, 49.543617], [5.876085, 49.543434], [5.876184, 49.543346], [5.876268, 49.54327], [5.876375, 49.54318], [5.876463, 49.54311], [5.876501, 49.543064], [5.876516, 49.543037], [5.876543, 49.542976], [5.876558, 49.542915], [5.876574, 49.542786], [5.876577, 49.54264], [5.87657, 49.542564], [5.876555, 49.54251], [5.876474, 49.542385], [5.876383, 49.542274], [5.876375, 49.542263], [5.876177, 49.542038], [5.875837, 49.542004], [5.875616, 49.54198], [5.875315, 49.541954], [5.874723, 49.541893], [5.874247, 49.541843], [5.87414, 49.541836], [5.873999, 49.541824], [5.873857, 49.541817], [5.873751, 49.541813], [5.873617, 49.54181], [5.87303, 49.54181], [5.872767, 49.541805], [5.872148, 49.5418], [5.87166, 49.541813], [5.871424, 49.54182], [5.871191, 49.541824], [5.870775, 49.541847], [5.870653, 49.54186], [5.870501, 49.541862], [5.870298, 49.54187], [5.870184, 49.54186], [5.870127, 49.541847], [5.870035, 49.54181], [5.870008, 49.541794], [5.869902, 49.541718], [5.869909, 49.541676], [5.869928, 49.54163], [5.869959, 49.54156], [5.870062, 49.541416], [5.870176, 49.54126], [5.870249, 49.541153], [5.870314, 49.541046], [5.870386, 49.5409], [5.870474, 49.540718], [5.870562, 49.54053], [5.870821, 49.539932], [5.870977, 49.539566], [5.871008, 49.539513], [5.871038, 49.539474], [5.871061, 49.539448], [5.871088, 49.53942], [5.871107, 49.53941], [5.871145, 49.539383], [5.871187, 49.539352], [5.871252, 49.53932], [5.871332, 49.539288], [5.871428, 49.539253], [5.871538, 49.53922], [5.871664, 49.53918], [5.87184, 49.539135], [5.872023, 49.53909], [5.87221, 49.539047], [5.87237, 49.539013], [5.872503, 49.53899], [5.872667, 49.538956], [5.872786, 49.53893], [5.873026, 49.53885], [5.873064, 49.538834], [5.873098, 49.538815], [5.873125, 49.53879], [5.873156, 49.53876], [5.873171, 49.538742], [5.873175, 49.53873], [5.873178, 49.53869], [5.87287, 49.53859], [5.872564, 49.538494], [5.872423, 49.538445], [5.872198, 49.53837], [5.872042, 49.538223], [5.87192, 49.538124], [5.871847, 49.538063], [5.871782, 49.538017], [5.871729, 49.537987], [5.871626, 49.537952], [5.871553, 49.53794], [5.8715, 49.537933], [5.87145, 49.53793], [5.871412, 49.537933], [5.871344, 49.537945], [5.871271, 49.53796], [5.871168, 49.53799], [5.870867, 49.53811], [5.870829, 49.538128], [5.870661, 49.538216], [5.870344, 49.538372], [5.87005, 49.538506], [5.870031, 49.538517], [5.869646, 49.538692], [5.868875, 49.53906], [5.868631, 49.539173], [5.867926, 49.53951], [5.867826, 49.539513], [5.8678, 49.539513], [5.867777, 49.539505], [5.867758, 49.53949], [5.867727, 49.539467], [5.867693, 49.53943], [5.867594, 49.53929], [5.867563, 49.539238], [5.867556, 49.539215], [5.867552, 49.53919], [5.867556, 49.53916], [5.867571, 49.539078], [5.867613, 49.538864], [5.867056, 49.538612], [5.866209, 49.538242], [5.865801, 49.53806], [5.865507, 49.53793], [5.865271, 49.53783], [5.865084, 49.53776], [5.864786, 49.53766], [5.864687, 49.53763], [5.864672, 49.53762], [5.864748, 49.53752], [5.864786, 49.537464], [5.864817, 49.537415], [5.864862, 49.537323], [5.864878, 49.53728], [5.864885, 49.537243], [5.864882, 49.53718], [5.86487, 49.537098], [5.864855, 49.537018], [5.864828, 49.536953], [5.864798, 49.53689], [5.864759, 49.53682], [5.864725, 49.536766], [5.864653, 49.536644], [5.864538, 49.53642], [5.864462, 49.536278], [5.864424, 49.536213], [5.864382, 49.536156], [5.864328, 49.536087], [5.864096, 49.53581], [5.864058, 49.535774], [5.864008, 49.535744], [5.863955, 49.535725], [5.863749, 49.535675], [5.863722, 49.53566], [5.863684, 49.535606], [5.863688, 49.53556], [5.863756, 49.53545], [5.863893, 49.53529], [5.864218, 49.534916], [5.864424, 49.534683], [5.864626, 49.534462], [5.864702, 49.53438], [5.864778, 49.534317], [5.864851, 49.534256], [5.864977, 49.534153], [5.865011, 49.534126], [5.865038, 49.534084], [5.865057, 49.534042], [5.865068, 49.53398], [5.865068, 49.53394], [5.865065, 49.533913], [5.865057, 49.533897], [5.865045, 49.533886], [5.865004, 49.533882], [5.864962, 49.533882], [5.864645, 49.533886], [5.864363, 49.5339], [5.864099, 49.533924], [5.863989, 49.53394], [5.863775, 49.533966], [5.863615, 49.533993], [5.863516, 49.53402], [5.863421, 49.534058], [5.863363, 49.534084], [5.863298, 49.53412], [5.863146, 49.53419], [5.862951, 49.534275], [5.862829, 49.53433], [5.86265, 49.534397], [5.862364, 49.534492], [5.862219, 49.53453], [5.862097, 49.53456], [5.86204, 49.534576], [5.861975, 49.534584], [5.861891, 49.534588], [5.861822, 49.534595], [5.861589, 49.534634], [5.861334, 49.53468], [5.861216, 49.534695], [5.860945, 49.534733], [5.860792, 49.534748], [5.860655, 49.53476], [5.86043, 49.534813], [5.859568, 49.535027], [5.859041, 49.53509], [5.858831, 49.53512], [5.858637, 49.535137], [5.85853, 49.535152], [5.858499, 49.53516], [5.85837, 49.53517], [5.858332, 49.53517], [5.85821, 49.535175], [5.858065, 49.535175], [5.858034, 49.53518], [5.858011, 49.53518], [5.857687, 49.5352], [5.857103, 49.535248], [5.856436, 49.5353], [5.856302, 49.535114], [5.85623, 49.535015], [5.856218, 49.534996], [5.856184, 49.53495], [5.856157, 49.534912], [5.856108, 49.53487], [5.856058, 49.53483], [5.85594, 49.53473], [5.855639, 49.534477], [5.855318, 49.534225], [5.855215, 49.53414], [5.855177, 49.53411], [5.855135, 49.534065], [5.855116, 49.534046], [5.855005, 49.533897], [5.854944, 49.533836], [5.854803, 49.53369], [5.854658, 49.533535], [5.854639, 49.533516], [5.854456, 49.5333], [5.854441, 49.533283], [5.85425, 49.533104], [5.854124, 49.53298], [5.85383, 49.532623], [5.853758, 49.532536], [5.853521, 49.53224], [5.85351, 49.532223], [5.853323, 49.53215], [5.852766, 49.531914], [5.852545, 49.53182], [5.851931, 49.531555], [5.851892, 49.531536], [5.851194, 49.53124], [5.851225, 49.531204], [5.851309, 49.531116], [5.851389, 49.53101], [5.851435, 49.530933], [5.851442, 49.53089], [5.851435, 49.530823], [5.851412, 49.53077], [5.851355, 49.530678], [5.851232, 49.53049], [5.851137, 49.53036], [5.851088, 49.530296], [5.850996, 49.530197], [5.850664, 49.529858], [5.850645, 49.52984], [5.850058, 49.530117], [5.850016, 49.53011], [5.84971, 49.530037], [5.849169, 49.52991], [5.849035, 49.52988], [5.848978, 49.529865], [5.848761, 49.529816], [5.848597, 49.529774], [5.847319, 49.52947], [5.8472, 49.52944], [5.84696, 49.529385], [5.846853, 49.529358], [5.846354, 49.52924], [5.8463, 49.52923], [5.84614, 49.529484], [5.845957, 49.529724], [5.845831, 49.529877], [5.845808, 49.529903], [5.845087, 49.530727], [5.844973, 49.530876], [5.844366, 49.531704], [5.84416, 49.531982], [5.843947, 49.532276], [5.843699, 49.532616], [5.843508, 49.532867], [5.843447, 49.532936], [5.843206, 49.533157], [5.842981, 49.533363], [5.842722, 49.53362], [5.842512, 49.533825], [5.842222, 49.534122], [5.842104, 49.53424], [5.842054, 49.534294], [5.842009, 49.53434], [5.841917, 49.534435], [5.841894, 49.53446], [5.841841, 49.534515], [5.841772, 49.53459], [5.841722, 49.53464], [5.841577, 49.534794], [5.841528, 49.534843], [5.841452, 49.534927], [5.841375, 49.535007], [5.841295, 49.53509], [5.841139, 49.535255], [5.840902, 49.535503], [5.840578, 49.53584], [5.840296, 49.536137], [5.839991, 49.53645], [5.839743, 49.536705], [5.839159, 49.537315], [5.839079, 49.53751], [5.838938, 49.53786], [5.838678, 49.53851], [5.838453, 49.539085], [5.838392, 49.539246], [5.838316, 49.539436], [5.838205, 49.539715], [5.838003, 49.540237], [5.837927, 49.54043], [5.837843, 49.54063], [5.837736, 49.540913], [5.837606, 49.54125], [5.837385, 49.541836], [5.83729, 49.542118], [5.837076, 49.542583], [5.836966, 49.542652], [5.836924, 49.542667], [5.836782, 49.542675], [5.836687, 49.54267], [5.836531, 49.54266], [5.836382, 49.54264], [5.83629, 49.54262], [5.836142, 49.54259], [5.835878, 49.542526], [5.835611, 49.54246], [5.835401, 49.54241], [5.835074, 49.54234], [5.8347, 49.542202], [5.834539, 49.54214], [5.834475, 49.542114], [5.834391, 49.542076], [5.834269, 49.542015], [5.83407, 49.541924], [5.833921, 49.54184], [5.833883, 49.541824], [5.833849, 49.541813], [5.833673, 49.541782], [5.833628, 49.541767], [5.833597, 49.54175], [5.833571, 49.541733], [5.833536, 49.54172], [5.833441, 49.541737], [5.832922, 49.54159], [5.832193, 49.54137], [5.831858, 49.541275], [5.831804, 49.541256], [5.83153, 49.541176], [5.830641, 49.541042], [5.829878, 49.540936], [5.829393, 49.54083], [5.828974, 49.54072], [5.828562, 49.540558], [5.828012, 49.540333], [5.828024, 49.540222], [5.82802, 49.540104], [5.82786, 49.540062], [5.827677, 49.540012], [5.827162, 49.539883], [5.826837, 49.53979], [5.826704, 49.539757], [5.825563, 49.539455], [5.825464, 49.539433], [5.825308, 49.539394], [5.825087, 49.539337], [5.824484, 49.53918], [5.824438, 49.53917], [5.824053, 49.538853], [5.823832, 49.538673], [5.823732, 49.5386], [5.823679, 49.53856], [5.82345, 49.538425], [5.822973, 49.538155], [5.822744, 49.538036], [5.822718, 49.538025], [5.82263, 49.538208], [5.822577, 49.538296], [5.822527, 49.53838], [5.822508, 49.538437], [5.8225, 49.538483], [5.822496, 49.538548], [5.822474, 49.538536], [5.822088, 49.538303], [5.821939, 49.538216], [5.821779, 49.538143], [5.821699, 49.538105], [5.821573, 49.538063], [5.821215, 49.537968], [5.820746, 49.53784], [5.820394, 49.53775], [5.820334, 49.537735], [5.820021, 49.53765], [5.819605, 49.53754], [5.81904, 49.537395], [5.818579, 49.537292], [5.818273, 49.537228], [5.817907, 49.537155], [5.817465, 49.53707], [5.81716, 49.537018], [5.817179, 49.537716], [5.816401, 49.53755], [5.816008, 49.537495], [5.815729, 49.538002], [5.815481, 49.53845], [5.815458, 49.53849], [5.815451, 49.538506], [5.815412, 49.538597], [5.815397, 49.53863], [5.815352, 49.538765], [5.815352, 49.538837], [5.815367, 49.538918], [5.815405, 49.539078], [5.815405, 49.53912], [5.81539, 49.53915], [5.815363, 49.539185], [5.815271, 49.53928], [5.815119, 49.539433], [5.815001, 49.539543], [5.814856, 49.539658], [5.814714, 49.53976], [5.81465, 49.539803], [5.814569, 49.53986], [5.814402, 49.539978], [5.814341, 49.54002], [5.814302, 49.540062], [5.81426, 49.54011], [5.814218, 49.54019], [5.814188, 49.54027], [5.81415, 49.54039], [5.814123, 49.54048], [5.814089, 49.54056], [5.814066, 49.540592], [5.814051, 49.540623], [5.813974, 49.540714], [5.813944, 49.540752], [5.81391, 49.5408], [5.813852, 49.54087], [5.813456, 49.5414], [5.813376, 49.541508], [5.813341, 49.54155], [5.813044, 49.541557], [5.812941, 49.541687], [5.81288, 49.541744], [5.812807, 49.541794], [5.812635, 49.541893], [5.812406, 49.541904], [5.812151, 49.54184], [5.811956, 49.541996], [5.811937, 49.54201], [5.808714, 49.540962], [5.80855, 49.54091], [5.808294, 49.541916], [5.808126, 49.54256]]]]}}]}