{"type": "FeatureCollection", "features": [{"type": "Feature", "properties": {"name": "Berdorf"}, "geometry": {"type": "MultiPolygon", "coordinates": [[[[6.311312, 49.795486], [6.311323, 49.79559], [6.311384, 49.795685], [6.311445, 49.795795], [6.311483, 49.795906], [6.311518, 49.79635], [6.311552, 49.796417], [6.311598, 49.796474], [6.311712, 49.79653], [6.312315, 49.796757], [6.312399, 49.7968], [6.312449, 49.796864], [6.31246, 49.79693], [6.312426, 49.79701], [6.312342, 49.797127], [6.312185, 49.797325], [6.312216, 49.79744], [6.312231, 49.797607], [6.312227, 49.797737], [6.31217, 49.79793], [6.312166, 49.798008], [6.312216, 49.798054], [6.312323, 49.798126], [6.312491, 49.79819], [6.312758, 49.79831], [6.312883, 49.7984], [6.312975, 49.798492], [6.313318, 49.79893], [6.313395, 49.799065], [6.313658, 49.799652], [6.313688, 49.799732], [6.313688, 49.799805], [6.313703, 49.799862], [6.313749, 49.79991], [6.313906, 49.799988], [6.31407, 49.800053], [6.314135, 49.800095], [6.314184, 49.80014], [6.314211, 49.800213], [6.314211, 49.800346], [6.314207, 49.80051], [6.314226, 49.800625], [6.314264, 49.80073], [6.314318, 49.800858], [6.314413, 49.80099], [6.314512, 49.801117], [6.314646, 49.801376], [6.314699, 49.801407], [6.31476, 49.801407], [6.314856, 49.801357], [6.31502, 49.801197], [6.315085, 49.801144], [6.315172, 49.80113], [6.315256, 49.80115], [6.315317, 49.801197], [6.315374, 49.80127], [6.31539, 49.801376], [6.315355, 49.80158], [6.315332, 49.801838], [6.315348, 49.801952], [6.315416, 49.80208], [6.315519, 49.80219], [6.315634, 49.802258], [6.315764, 49.802353], [6.31584, 49.802444], [6.31608, 49.80299], [6.31613, 49.803112], [6.316191, 49.8032], [6.316317, 49.803337], [6.316359, 49.80342], [6.31637, 49.803482], [6.316351, 49.80356], [6.31632, 49.80367], [6.316252, 49.8038], [6.316153, 49.803925], [6.316027, 49.804054], [6.315927, 49.804173], [6.315874, 49.804253], [6.31587, 49.804367], [6.315882, 49.804474], [6.315943, 49.8046], [6.31603, 49.80469], [6.316149, 49.804764], [6.316343, 49.804844], [6.316645, 49.804913], [6.316854, 49.80493], [6.317068, 49.80495], [6.317179, 49.80498], [6.317282, 49.805027], [6.317431, 49.805138], [6.317591, 49.80527], [6.317644, 49.805367], [6.317659, 49.805466], [6.317633, 49.80554], [6.317568, 49.805607], [6.317465, 49.80569], [6.317404, 49.805775], [6.317362, 49.80587], [6.317347, 49.80596], [6.317362, 49.806076], [6.31745, 49.806194], [6.31764, 49.80631], [6.31785, 49.80646], [6.318117, 49.806694], [6.318293, 49.80684], [6.318426, 49.80688], [6.318586, 49.806923], [6.318685, 49.806946], [6.3188, 49.806995], [6.318861, 49.80706], [6.318884, 49.807117], [6.318876, 49.807163], [6.318853, 49.807247], [6.3188, 49.80732], [6.318792, 49.807384], [6.31883, 49.80743], [6.318892, 49.80745], [6.319029, 49.80747], [6.319208, 49.807495], [6.319376, 49.807537], [6.319487, 49.807587], [6.319586, 49.80764], [6.319693, 49.8077], [6.319914, 49.807816], [6.320215, 49.80794], [6.320562, 49.80802], [6.320658, 49.80807], [6.320761, 49.80814], [6.320814, 49.808205], [6.320822, 49.80827], [6.320814, 49.80838], [6.320753, 49.80852], [6.320757, 49.808567], [6.320829, 49.808628], [6.320875, 49.808704], [6.320868, 49.808777], [6.320803, 49.808956], [6.320612, 49.809135], [6.320551, 49.809166], [6.320501, 49.809174], [6.320398, 49.80915], [6.320303, 49.809113], [6.320253, 49.80913], [6.320246, 49.809193], [6.320269, 49.80926], [6.320368, 49.809338], [6.320578, 49.80944], [6.320803, 49.809574], [6.320883, 49.80966], [6.320963, 49.809807], [6.321051, 49.809868], [6.321226, 49.809956], [6.321444, 49.81004], [6.321547, 49.810112], [6.32165, 49.810246], [6.321787, 49.810368], [6.322313, 49.810673], [6.322687, 49.810856], [6.322908, 49.81093], [6.323099, 49.810925], [6.323297, 49.810947], [6.323408, 49.81101], [6.323465, 49.811058], [6.323553, 49.811253], [6.323549, 49.8114], [6.323523, 49.811447], [6.323458, 49.81147], [6.323343, 49.81148], [6.323217, 49.811535], [6.322924, 49.81172], [6.322882, 49.811794], [6.322927, 49.81191], [6.323046, 49.812103], [6.323168, 49.812218], [6.323286, 49.81232], [6.323572, 49.812653], [6.32395, 49.813126], [6.323999, 49.813213], [6.324068, 49.813354], [6.324102, 49.813477], [6.324171, 49.813828], [6.324144, 49.813942], [6.32403, 49.81434], [6.323954, 49.81446], [6.323942, 49.8145], [6.323976, 49.814552], [6.324087, 49.814713], [6.324205, 49.814888], [6.324224, 49.81512], [6.324251, 49.815216], [6.324286, 49.815292], [6.324289, 49.815346], [6.324278, 49.81539], [6.324228, 49.81543], [6.324118, 49.815475], [6.323976, 49.81553], [6.323866, 49.81555], [6.323797, 49.81559], [6.323778, 49.81565], [6.323778, 49.81572], [6.323801, 49.81579], [6.323881, 49.815895], [6.324034, 49.816044], [6.324152, 49.81612], [6.32432, 49.816208], [6.324499, 49.816353], [6.324625, 49.81649], [6.324648, 49.81655], [6.324652, 49.816612], [6.324629, 49.81669], [6.324579, 49.81675], [6.324476, 49.816795], [6.324278, 49.81684], [6.324186, 49.81687], [6.324148, 49.816902], [6.324152, 49.816944], [6.32419, 49.81701], [6.324255, 49.81713], [6.324289, 49.817253], [6.324324, 49.81748], [6.324362, 49.817535], [6.324537, 49.817772], [6.324625, 49.81785], [6.324751, 49.81794], [6.324881, 49.818058], [6.324923, 49.818176], [6.324942, 49.81826], [6.324965, 49.81855], [6.324965, 49.818657], [6.324938, 49.818745], [6.3249, 49.81883], [6.324842, 49.818886], [6.32472, 49.818977], [6.324556, 49.81905], [6.324243, 49.81916], [6.324156, 49.81921], [6.324091, 49.819298], [6.324007, 49.819427], [6.323908, 49.81952], [6.323851, 49.819595], [6.32382, 49.819695], [6.32382, 49.819775], [6.323843, 49.819805], [6.323874, 49.81982], [6.323961, 49.819828], [6.324152, 49.819828], [6.324305, 49.81983], [6.324381, 49.819866], [6.324442, 49.81995], [6.324507, 49.820053], [6.324541, 49.82012], [6.324541, 49.820194], [6.324499, 49.820316], [6.324438, 49.82045], [6.324259, 49.820656], [6.324202, 49.82076], [6.324205, 49.820843], [6.324243, 49.820896], [6.324396, 49.821007], [6.32456, 49.821144], [6.324617, 49.821262], [6.324736, 49.821457], [6.324938, 49.821697], [6.324984, 49.821804], [6.324968, 49.82189], [6.324919, 49.82199], [6.324812, 49.82211], [6.324884, 49.822136], [6.324903, 49.822155], [6.324896, 49.822178], [6.324877, 49.82222], [6.324865, 49.8223], [6.324907, 49.822365], [6.324991, 49.822407], [6.325109, 49.822422], [6.32519, 49.822426], [6.325338, 49.82241], [6.325464, 49.822395], [6.325594, 49.822407], [6.325708, 49.822437], [6.325769, 49.822533], [6.325796, 49.822662], [6.325815, 49.822746], [6.325869, 49.822784], [6.325987, 49.822857], [6.326227, 49.82301], [6.326437, 49.823154], [6.326498, 49.823204], [6.326555, 49.823242], [6.326643, 49.823273], [6.326777, 49.823338], [6.326891, 49.823418], [6.326982, 49.823505], [6.327093, 49.823673], [6.327127, 49.823772], [6.327124, 49.82387], [6.327089, 49.82418], [6.327059, 49.82427], [6.327059, 49.82434], [6.327063, 49.824398], [6.327108, 49.82461], [6.327139, 49.824787], [6.327211, 49.824905], [6.32733, 49.82506], [6.327467, 49.825146], [6.327604, 49.82526], [6.327673, 49.825333], [6.327696, 49.82539], [6.327681, 49.82547], [6.327646, 49.825584], [6.327547, 49.825737], [6.327452, 49.82587], [6.327414, 49.82593], [6.327414, 49.825977], [6.327463, 49.82603], [6.327642, 49.826157], [6.327799, 49.826305], [6.327967, 49.826405], [6.328161, 49.826477], [6.328337, 49.82651], [6.328646, 49.826553], [6.328947, 49.8266], [6.329138, 49.826668], [6.329214, 49.826717], [6.329264, 49.82676], [6.329252, 49.82682], [6.329225, 49.826927], [6.329149, 49.827084], [6.32913, 49.827156], [6.329157, 49.82722], [6.329225, 49.82731], [6.329317, 49.827408], [6.329443, 49.827515], [6.329691, 49.827667], [6.329885, 49.827816], [6.329962, 49.827923], [6.329988, 49.82795], [6.330072, 49.828083], [6.330107, 49.82818], [6.330156, 49.82842], [6.330179, 49.828568], [6.330168, 49.82867], [6.330065, 49.828804], [6.329962, 49.82893], [6.329859, 49.829033], [6.329794, 49.829117], [6.329756, 49.829212], [6.329718, 49.829365], [6.329653, 49.829533], [6.329622, 49.82966], [6.329611, 49.829727], [6.329626, 49.829758], [6.329641, 49.82983], [6.329664, 49.829884], [6.329733, 49.82995], [6.329821, 49.830044], [6.329866, 49.83012], [6.329874, 49.830173], [6.329863, 49.830235], [6.329851, 49.830288], [6.329805, 49.83035], [6.329767, 49.83041], [6.329744, 49.830486], [6.329744, 49.83055], [6.329771, 49.830627], [6.329863, 49.830746], [6.329931, 49.8308], [6.330053, 49.830914], [6.330069, 49.83094], [6.330107, 49.830997], [6.330172, 49.83113], [6.330213, 49.831264], [6.330309, 49.8315], [6.330412, 49.831738], [6.33053, 49.831924], [6.330603, 49.83208], [6.330629, 49.83218], [6.330603, 49.83225], [6.330557, 49.8323], [6.330442, 49.832344], [6.330336, 49.83242], [6.330175, 49.83261], [6.330034, 49.832763], [6.329977, 49.832825], [6.329912, 49.832935], [6.329832, 49.83313], [6.329783, 49.83333], [6.329786, 49.83345], [6.329805, 49.833576], [6.329828, 49.83365], [6.329878, 49.83377], [6.329927, 49.833862], [6.329939, 49.833878], [6.330095, 49.834152], [6.330141, 49.83431], [6.330168, 49.834503], [6.330168, 49.834785], [6.330126, 49.83512], [6.330088, 49.83534], [6.330019, 49.835495], [6.329924, 49.835682], [6.329859, 49.835705], [6.329821, 49.835766], [6.329767, 49.835854], [6.32974, 49.8359], [6.329718, 49.835938], [6.329821, 49.83595], [6.329794, 49.836046], [6.32984, 49.83605], [6.329924, 49.836054], [6.330278, 49.836142], [6.330843, 49.836302], [6.331209, 49.836428], [6.331556, 49.836554], [6.331896, 49.836657], [6.332319, 49.836782], [6.332762, 49.836901], [6.333098, 49.837007], [6.333582, 49.837152], [6.334021, 49.837309], [6.334417, 49.837473], [6.334925, 49.837683], [6.335173, 49.837809], [6.335234, 49.837847], [6.335421, 49.837965], [6.335607, 49.838045], [6.33576, 49.838167], [6.335924, 49.838243], [6.336138, 49.838419], [6.33637, 49.838625], [6.336573, 49.838774], [6.336695, 49.838808], [6.336679, 49.838892], [6.336847, 49.838999], [6.337042, 49.839125], [6.337416, 49.839533], [6.337561, 49.839743], [6.337698, 49.839945], [6.337793, 49.840113], [6.337946, 49.840342], [6.338026, 49.840494], [6.338179, 49.840742], [6.338255, 49.840906], [6.338339, 49.841116], [6.338388, 49.841368], [6.338404, 49.841577], [6.338461, 49.841822], [6.33851, 49.842089], [6.338591, 49.842428], [6.338636, 49.842722], [6.338663, 49.842985], [6.338739, 49.843359], [6.338865, 49.843737], [6.338896, 49.84387], [6.338942, 49.844221], [6.338995, 49.844385], [6.339014, 49.844553], [6.339098, 49.844812], [6.339189, 49.84503], [6.339281, 49.845266], [6.339441, 49.845652], [6.339499, 49.845945], [6.339594, 49.846296], [6.339632, 49.846445], [6.339697, 49.84675], [6.3398, 49.847094], [6.339872, 49.847441], [6.340147, 49.847803], [6.340383, 49.848074], [6.340521, 49.848169], [6.34091, 49.848398], [6.341078, 49.848494], [6.341536, 49.84868], [6.342299, 49.848917], [6.342592, 49.849009], [6.342852, 49.849085], [6.343149, 49.849165], [6.343481, 49.849249], [6.343916, 49.849337], [6.344378, 49.849413], [6.344953, 49.849504], [6.34532, 49.849558], [6.345716, 49.8496], [6.346518, 49.849794], [6.346952, 49.849886], [6.34754, 49.849985], [6.348208, 49.850134], [6.348436, 49.850191], [6.348932, 49.850267], [6.349401, 49.85034], [6.34997, 49.850397], [6.35084, 49.850409], [6.351404, 49.850431], [6.351892, 49.850424], [6.352587, 49.850466], [6.353102, 49.850489], [6.353815, 49.850527], [6.35441, 49.850553], [6.3552, 49.850595], [6.356687, 49.850622], [6.357161, 49.850679], [6.35766, 49.850679], [6.358004, 49.85066], [6.358187, 49.850637], [6.358313, 49.850637], [6.358389, 49.850637], [6.358442, 49.850637], [6.359003, 49.850637], [6.359369, 49.850618], [6.359774, 49.850607], [6.360285, 49.850592], [6.360704, 49.850584], [6.361078, 49.850614], [6.361372, 49.850634], [6.361654, 49.850653], [6.362154, 49.850691], [6.362486, 49.850725], [6.362844, 49.850763], [6.363172, 49.850767], [6.363321, 49.850752], [6.363638, 49.85074], [6.363943, 49.850717], [6.364084, 49.850687], [6.364615, 49.850493], [6.364821, 49.850359], [6.365328, 49.850111], [6.365705, 49.849916], [6.365988, 49.849779], [6.366243, 49.849646], [6.366411, 49.849523], [6.366602, 49.849314], [6.366766, 49.8491], [6.366957, 49.848867], [6.367147, 49.848616], [6.367304, 49.848349], [6.367575, 49.848002], [6.367712, 49.847841], [6.367876, 49.847651], [6.368296, 49.847204], [6.368566, 49.846952], [6.368875, 49.846655], [6.369291, 49.846235], [6.369597, 49.845934], [6.370153, 49.845308], [6.370401, 49.845045], [6.370596, 49.844805], [6.370954, 49.844481], [6.371141, 49.844179], [6.371321, 49.843859], [6.371527, 49.843512], [6.371717, 49.843275], [6.371889, 49.843035], [6.372118, 49.842737], [6.372274, 49.842562], [6.372583, 49.842249], [6.372625, 49.842226], [6.372934, 49.842073], [6.373342, 49.841829], [6.373648, 49.841612], [6.374174, 49.841368], [6.374445, 49.841272], [6.374636, 49.841185], [6.374876, 49.841097], [6.375246, 49.840952], [6.375624, 49.84078], [6.375841, 49.840666], [6.376131, 49.840502], [6.376413, 49.840307], [6.376738, 49.840097], [6.376917, 49.839754], [6.37715, 49.839418], [6.37726, 49.83927], [6.377527, 49.838999], [6.377737, 49.8388], [6.37797, 49.83856], [6.378298, 49.838232], [6.378591, 49.837976], [6.378855, 49.837759], [6.378962, 49.837668], [6.379293, 49.83745], [6.379572, 49.837297], [6.379652, 49.837271], [6.37977, 49.83721], [6.380033, 49.837114], [6.380152, 49.837053], [6.380426, 49.836901], [6.380579, 49.836817], [6.380865, 49.836618], [6.381132, 49.836435], [6.381258, 49.836313], [6.381418, 49.836203], [6.381685, 49.835981], [6.381849, 49.83584], [6.381998, 49.835718], [6.382155, 49.835585], [6.382193, 49.835585], [6.382269, 49.835524], [6.382216, 49.83552], [6.382364, 49.835306], [6.382448, 49.83518], [6.382639, 49.834955], [6.382769, 49.834799], [6.382875, 49.834692], [6.383036, 49.834536], [6.38315, 49.834364], [6.383368, 49.834207], [6.38352, 49.834009], [6.383684, 49.83378], [6.383772, 49.833593], [6.383791, 49.833578], [6.383894, 49.833433], [6.384035, 49.83333], [6.384184, 49.833189], [6.384222, 49.833113], [6.38439, 49.83291], [6.384436, 49.832743], [6.384474, 49.832685], [6.384504, 49.832644], [6.384382, 49.832573], [6.38434, 49.83255], [6.383902, 49.832283], [6.383818, 49.832237], [6.38307, 49.831783], [6.382769, 49.83162], [6.382311, 49.831383], [6.381128, 49.830795], [6.380442, 49.830463], [6.380453, 49.83038], [6.380491, 49.830288], [6.380503, 49.830254], [6.380739, 49.82965], [6.381002, 49.8294], [6.381132, 49.8293], [6.381151, 49.829296], [6.381178, 49.829304], [6.381208, 49.8293], [6.38122, 49.829277], [6.381239, 49.829205], [6.381262, 49.829185], [6.381361, 49.82913], [6.381399, 49.82911], [6.381456, 49.8291], [6.381483, 49.82909], [6.381498, 49.82907], [6.381483, 49.829056], [6.381441, 49.82904], [6.381392, 49.82904], [6.381353, 49.82903], [6.381338, 49.829018], [6.38135, 49.828995], [6.381376, 49.82897], [6.381441, 49.828945], [6.381514, 49.828915], [6.381563, 49.82888], [6.381609, 49.828842], [6.381712, 49.828793], [6.381838, 49.82874], [6.381952, 49.82868], [6.382013, 49.828636], [6.382155, 49.828487], [6.3822, 49.82847], [6.382246, 49.82845], [6.382307, 49.82845], [6.382364, 49.828438], [6.382399, 49.828423], [6.382448, 49.828403], [6.382517, 49.82839], [6.382574, 49.82837], [6.382647, 49.828346], [6.382723, 49.828335], [6.382799, 49.82834], [6.382975, 49.82831], [6.38307, 49.828278], [6.383135, 49.828243], [6.383188, 49.828197], [6.38323, 49.82814], [6.383272, 49.828056], [6.383345, 49.827988], [6.383379, 49.82796], [6.383459, 49.82792], [6.383497, 49.827885], [6.38357, 49.827763], [6.3836, 49.82774], [6.383638, 49.827705], [6.383684, 49.82768], [6.383722, 49.827656], [6.383867, 49.827515], [6.383951, 49.827435], [6.383997, 49.827408], [6.384058, 49.82737], [6.384108, 49.827305], [6.38413, 49.82724], [6.384176, 49.82719], [6.384214, 49.827133], [6.384211, 49.827072], [6.384195, 49.82701], [6.384199, 49.82699], [6.384226, 49.826965], [6.384279, 49.82694], [6.384325, 49.8269], [6.384336, 49.826878], [6.384336, 49.82683], [6.384333, 49.826782], [6.384352, 49.82676], [6.384398, 49.82673], [6.384462, 49.826675], [6.3845, 49.826633], [6.384516, 49.826576], [6.384516, 49.826527], [6.384497, 49.82645], [6.384512, 49.826435], [6.384543, 49.82643], [6.384577, 49.82644], [6.384592, 49.82645], [6.384607, 49.82648], [6.384623, 49.826504], [6.384642, 49.82651], [6.384657, 49.826508], [6.384718, 49.826466], [6.384806, 49.826385], [6.384859, 49.82633], [6.384867, 49.82631], [6.384851, 49.8263], [6.384821, 49.8263], [6.384779, 49.826324], [6.384748, 49.82633], [6.384737, 49.826317], [6.38476, 49.82629], [6.38479, 49.82627], [6.384825, 49.82626], [6.384882, 49.826256], [6.384909, 49.826244], [6.384939, 49.826214], [6.384966, 49.82617], [6.384974, 49.82613], [6.384981, 49.8261], [6.384901, 49.826065], [6.384832, 49.826065], [6.384798, 49.82605], [6.384779, 49.826035], [6.384771, 49.826015], [6.384779, 49.825993], [6.384806, 49.82598], [6.384836, 49.825993], [6.384863, 49.82599], [6.38489, 49.82598], [6.384935, 49.825954], [6.384966, 49.825924], [6.384974, 49.82584], [6.384993, 49.82577], [6.385035, 49.825695], [6.385084, 49.825634], [6.385126, 49.825573], [6.385126, 49.825527], [6.385138, 49.825497], [6.38521, 49.82541], [6.385225, 49.82536], [6.385267, 49.825287], [6.385332, 49.82522], [6.385359, 49.82516], [6.385401, 49.825092], [6.385427, 49.82502], [6.385462, 49.82499], [6.385534, 49.824924], [6.385656, 49.82479], [6.385721, 49.824764], [6.385851, 49.824642], [6.3859, 49.824615], [6.38595, 49.82459], [6.385984, 49.824562], [6.385992, 49.82454], [6.386, 49.824493], [6.386026, 49.824455], [6.386084, 49.8244], [6.386103, 49.824356], [6.386106, 49.82429], [6.386122, 49.824215], [6.386149, 49.824142], [6.386217, 49.824078], [6.386339, 49.82389], [6.386393, 49.823833], [6.386446, 49.82379], [6.38648, 49.823746], [6.386515, 49.82371], [6.386583, 49.82364], [6.386667, 49.823586], [6.386732, 49.82354], [6.38682, 49.823444], [6.386915, 49.823364], [6.386965, 49.82334], [6.387018, 49.823322], [6.387125, 49.82331], [6.387186, 49.823307], [6.387285, 49.823288], [6.387339, 49.82327], [6.387346, 49.823246], [6.387323, 49.823223], [6.387293, 49.823196], [6.387297, 49.823154], [6.387331, 49.823082], [6.387335, 49.823036], [6.387346, 49.823017], [6.387384, 49.822998], [6.387522, 49.822945], [6.387621, 49.82289], [6.387693, 49.822834], [6.387747, 49.822735], [6.387766, 49.822647], [6.387773, 49.822502], [6.387785, 49.82244], [6.387823, 49.8224], [6.387888, 49.82235], [6.387907, 49.82229], [6.387922, 49.822166], [6.387926, 49.822], [6.387915, 49.82196], [6.387842, 49.821815], [6.387598, 49.821156], [6.38777, 49.820805], [6.388201, 49.819912], [6.388376, 49.8195], [6.388529, 49.81907], [6.388605, 49.818848], [6.388792, 49.818314], [6.388857, 49.81814], [6.388865, 49.818108], [6.388933, 49.817917], [6.388941, 49.81788], [6.389086, 49.817463], [6.389097, 49.81744], [6.389139, 49.81732], [6.389162, 49.81723], [6.3892, 49.817047], [6.389254, 49.816658], [6.389429, 49.815678], [6.389517, 49.815105], [6.389585, 49.814747], [6.389585, 49.814682], [6.389544, 49.814293], [6.389486, 49.813927], [6.38936, 49.81299], [6.388765, 49.813034], [6.388727, 49.813034], [6.388613, 49.81304], [6.388525, 49.81311], [6.38843, 49.813194], [6.38817, 49.8134], [6.387983, 49.81333], [6.387838, 49.81327], [6.387415, 49.81311], [6.387075, 49.81298], [6.386969, 49.81293], [6.386766, 49.812855], [6.386435, 49.812725], [6.385824, 49.812492], [6.385698, 49.81244], [6.384546, 49.81201], [6.384268, 49.81191], [6.383249, 49.81151], [6.382784, 49.811314], [6.381868, 49.81088], [6.381811, 49.810856], [6.381769, 49.810837], [6.381639, 49.81078], [6.381132, 49.810566], [6.379667, 49.809975], [6.379469, 49.80988], [6.378614, 49.80941], [6.377005, 49.808544], [6.376036, 49.808025], [6.374949, 49.80692], [6.374826, 49.806797], [6.374788, 49.80676], [6.373926, 49.805885], [6.373766, 49.805725], [6.373739, 49.8057], [6.373289, 49.80525], [6.372725, 49.80467], [6.372484, 49.80442], [6.372423, 49.80436], [6.37221, 49.804165], [6.371073, 49.803154], [6.370958, 49.80302], [6.370466, 49.802567], [6.370382, 49.802464], [6.370287, 49.802395], [6.370184, 49.802094], [6.370138, 49.801994], [6.370039, 49.801865], [6.369982, 49.801743], [6.369967, 49.801655], [6.369936, 49.801594], [6.369883, 49.801525], [6.369764, 49.801216], [6.369612, 49.8009], [6.369574, 49.80086], [6.369345, 49.8006], [6.368937, 49.80001], [6.368975, 49.799496], [6.368578, 49.79908], [6.367845, 49.798363], [6.367357, 49.797844], [6.366941, 49.79685], [6.366507, 49.795807], [6.366472, 49.79564], [6.366396, 49.79561], [6.366457, 49.795578], [6.366426, 49.795563], [6.366377, 49.795536], [6.36635, 49.795517], [6.366362, 49.795486], [6.366377, 49.795464], [6.366392, 49.795444], [6.366384, 49.795433], [6.366354, 49.79542], [6.366243, 49.795406], [6.366121, 49.795395], [6.366026, 49.795376], [6.365969, 49.79535], [6.365938, 49.795315], [6.365919, 49.79527], [6.365923, 49.795216], [6.365919, 49.79518], [6.365904, 49.795162], [6.365885, 49.79515], [6.365774, 49.79513], [6.36569, 49.7951], [6.365595, 49.79509], [6.365496, 49.795094], [6.365335, 49.795113], [6.36516, 49.795113], [6.365095, 49.79512], [6.365045, 49.795128], [6.364992, 49.795124], [6.364878, 49.795094], [6.364813, 49.795086], [6.364759, 49.79508], [6.364691, 49.79507], [6.364607, 49.795044], [6.3645, 49.795017], [6.364386, 49.795002], [6.364263, 49.795002], [6.364157, 49.795006], [6.364027, 49.79503], [6.363893, 49.79506], [6.36381, 49.79508], [6.363726, 49.795082], [6.363646, 49.795082], [6.363535, 49.79507], [6.363447, 49.795063], [6.363386, 49.795067], [6.363298, 49.795082], [6.363218, 49.79509], [6.363092, 49.795097], [6.362989, 49.795124], [6.362902, 49.795135], [6.362822, 49.795135], [6.362814, 49.795147], [6.362783, 49.7952], [6.362745, 49.79527], [6.36278, 49.79528], [6.362776, 49.79529], [6.362753, 49.795338], [6.362749, 49.795387], [6.36276, 49.79545], [6.362806, 49.795544], [6.362848, 49.79564], [6.362875, 49.79572], [6.362879, 49.79584], [6.362867, 49.795918], [6.362848, 49.795986], [6.362799, 49.79607], [6.362745, 49.796158], [6.362665, 49.796257], [6.362604, 49.796314], [6.362535, 49.796356], [6.362452, 49.796383], [6.362345, 49.796406], [6.362284, 49.79643], [6.362238, 49.79646], [6.362188, 49.79651], [6.362173, 49.796547], [6.362177, 49.79658], [6.362204, 49.796604], [6.362242, 49.79662], [6.362287, 49.796616], [6.362341, 49.796608], [6.362368, 49.796616], [6.362375, 49.796627], [6.362371, 49.79665], [6.362337, 49.79668], [6.362284, 49.7967], [6.362211, 49.796722], [6.362169, 49.796745], [6.362131, 49.796783], [6.362063, 49.796867], [6.36202, 49.79691], [6.36199, 49.79693], [6.361967, 49.796932], [6.361944, 49.796925], [6.361921, 49.796906], [6.361895, 49.796898], [6.361864, 49.79691], [6.361799, 49.79696], [6.36178, 49.796997], [6.361811, 49.79703], [6.361818, 49.797085], [6.361795, 49.797157], [6.361761, 49.797234], [6.361734, 49.797325], [6.361712, 49.797367], [6.361654, 49.797394], [6.361601, 49.797405], [6.361505, 49.797413], [6.361395, 49.797405], [6.361307, 49.79741], [6.361235, 49.797432], [6.361158, 49.797474], [6.361074, 49.79753], [6.361017, 49.79759], [6.360987, 49.797626], [6.360983, 49.79769], [6.360975, 49.79778], [6.360964, 49.79785], [6.360937, 49.797897], [6.360891, 49.797935], [6.360811, 49.797985], [6.360609, 49.798073], [6.360529, 49.79812], [6.360472, 49.798138], [6.360415, 49.79815], [6.360319, 49.798153], [6.360197, 49.79816], [6.360094, 49.798164], [6.359987, 49.798187], [6.359896, 49.798218], [6.359789, 49.79827], [6.359713, 49.79829], [6.359633, 49.7983], [6.359457, 49.798317], [6.359411, 49.798332], [6.359354, 49.79836], [6.359266, 49.798416], [6.359186, 49.79846], [6.35911, 49.798485], [6.359045, 49.798496], [6.358988, 49.798504], [6.358858, 49.798508], [6.358675, 49.798508], [6.358599, 49.798515], [6.358499, 49.798534], [6.358393, 49.79857], [6.358248, 49.798634], [6.358053, 49.798748], [6.357874, 49.798847], [6.357775, 49.79894], [6.357706, 49.79888], [6.357611, 49.798836], [6.357489, 49.798805], [6.357321, 49.79876], [6.357248, 49.798756], [6.357157, 49.798767], [6.357012, 49.798805], [6.356802, 49.798874], [6.356741, 49.79889], [6.356684, 49.798893], [6.356649, 49.798885], [6.356516, 49.798847], [6.35647, 49.798843], [6.356405, 49.79885], [6.356169, 49.79891], [6.355928, 49.798996], [6.355734, 49.799007], [6.355707, 49.79903], [6.355696, 49.79906], [6.355658, 49.799084], [6.355497, 49.79915], [6.355425, 49.799194], [6.355261, 49.79931], [6.355192, 49.799362], [6.355093, 49.799408], [6.35499, 49.799442], [6.354864, 49.799473], [6.354765, 49.7995], [6.354719, 49.79952], [6.354704, 49.799538], [6.354696, 49.799595], [6.354689, 49.799644], [6.35465, 49.79974], [6.354628, 49.79984], [6.35462, 49.799923], [6.354616, 49.80002], [6.354689, 49.80029], [6.354696, 49.800358], [6.354689, 49.8004], [6.35467, 49.800438], [6.354612, 49.80049], [6.354559, 49.800556], [6.354528, 49.800613], [6.354494, 49.800724], [6.354471, 49.80077], [6.354425, 49.800816], [6.354338, 49.800907], [6.354284, 49.800983], [6.354261, 49.801006], [6.354239, 49.801018], [6.354132, 49.801056], [6.354086, 49.801098], [6.354067, 49.80115], [6.354067, 49.801266], [6.353476, 49.8012], [6.353075, 49.80117], [6.352686, 49.80116], [6.352224, 49.801144], [6.352179, 49.80111], [6.352091, 49.801033], [6.351778, 49.80075], [6.351732, 49.80071], [6.351347, 49.800385], [6.350752, 49.799885], [6.350412, 49.799873], [6.349997, 49.799862], [6.349791, 49.799854], [6.349737, 49.79985], [6.349657, 49.79949], [6.349611, 49.799244], [6.349596, 49.799107], [6.349554, 49.79879], [6.349512, 49.798615], [6.34944, 49.79838], [6.349329, 49.798336], [6.348799, 49.798122], [6.348383, 49.798412], [6.347639, 49.79892], [6.347467, 49.798565], [6.347036, 49.798813], [6.346933, 49.798874], [6.346819, 49.79895], [6.346628, 49.799072], [6.346502, 49.79915], [6.346407, 49.79923], [6.346037, 49.799553], [6.345816, 49.79945], [6.345716, 49.799408], [6.345545, 49.799328], [6.345488, 49.7993], [6.345385, 49.799255], [6.345186, 49.799164], [6.345129, 49.799137], [6.345015, 49.7995], [6.344965, 49.799603], [6.344862, 49.799824], [6.344843, 49.799873], [6.344816, 49.79995], [6.344244, 49.79981], [6.344004, 49.79975], [6.343733, 49.799686], [6.343595, 49.799656], [6.343515, 49.799637], [6.342974, 49.799515], [6.342482, 49.7994], [6.342543, 49.799328], [6.342478, 49.799294], [6.342009, 49.79907], [6.341345, 49.798763], [6.341047, 49.79864], [6.341024, 49.798634], [6.340654, 49.79848], [6.340437, 49.7984], [6.340185, 49.7983], [6.340017, 49.798252], [6.339926, 49.798225], [6.339849, 49.798203], [6.339682, 49.798145], [6.339636, 49.798122], [6.339186, 49.7979], [6.339129, 49.797882], [6.339079, 49.797867], [6.339014, 49.79786], [6.338919, 49.797855], [6.338865, 49.79785], [6.338533, 49.797756], [6.338434, 49.79773], [6.33803, 49.7976], [6.33787, 49.79754], [6.337767, 49.797493], [6.336504, 49.79763], [6.336248, 49.797657], [6.334509, 49.797764], [6.334394, 49.797768], [6.33425, 49.79778], [6.333902, 49.7978], [6.333677, 49.7978], [6.333532, 49.797802], [6.333315, 49.797813], [6.333166, 49.797817], [6.332869, 49.797817], [6.33256, 49.7978], [6.331884, 49.79777], [6.331716, 49.797768], [6.331625, 49.79777], [6.33148, 49.797794], [6.331381, 49.797817], [6.331228, 49.797844], [6.330923, 49.79791], [6.330782, 49.79793], [6.33069, 49.797947], [6.330607, 49.797955], [6.33053, 49.79796], [6.33045, 49.797962], [6.330336, 49.79795], [6.330229, 49.797943], [6.330156, 49.797947], [6.330084, 49.79797], [6.329973, 49.79802], [6.329897, 49.798035], [6.329805, 49.79803], [6.329653, 49.79801], [6.329599, 49.798], [6.329454, 49.79797], [6.329237, 49.79795], [6.329123, 49.79793], [6.328993, 49.797905], [6.328844, 49.79787], [6.328733, 49.79784], [6.328508, 49.797768], [6.32844, 49.797745], [6.328268, 49.797695], [6.328176, 49.79767], [6.328131, 49.797653], [6.328062, 49.79763], [6.327963, 49.7976], [6.327833, 49.797565], [6.327497, 49.797493], [6.327227, 49.797432], [6.327078, 49.7974], [6.326975, 49.797375], [6.326857, 49.79734], [6.326731, 49.797295], [6.326624, 49.79725], [6.326525, 49.79721], [6.326426, 49.797176], [6.32625, 49.79714], [6.325846, 49.79703], [6.325708, 49.796978], [6.325499, 49.796886], [6.325392, 49.796844], [6.325228, 49.796783], [6.325121, 49.796753], [6.324507, 49.796543], [6.324358, 49.79649], [6.324236, 49.79644], [6.323851, 49.79629], [6.323629, 49.796196], [6.323492, 49.796135], [6.32337, 49.796078], [6.32324, 49.79601], [6.323076, 49.79592], [6.322702, 49.79574], [6.322481, 49.79563], [6.32234, 49.795563], [6.322252, 49.795513], [6.322168, 49.795464], [6.322084, 49.795406], [6.321997, 49.79535], [6.321863, 49.795258], [6.321787, 49.795208], [6.321684, 49.79515], [6.321478, 49.79506], [6.321367, 49.795017], [6.321291, 49.794983], [6.321218, 49.79495], [6.321169, 49.794914], [6.321054, 49.794807], [6.32094, 49.794727], [6.320818, 49.794647], [6.3207, 49.794575], [6.320543, 49.794495], [6.320433, 49.794445], [6.320288, 49.7944], [6.320112, 49.79435], [6.320002, 49.79432], [6.31986, 49.794277], [6.319742, 49.79423], [6.319571, 49.79416], [6.319452, 49.7941], [6.319353, 49.79404], [6.319262, 49.79398], [6.319174, 49.793907], [6.319071, 49.793816], [6.318945, 49.7937], [6.31883, 49.793606], [6.318716, 49.793533], [6.318594, 49.793453], [6.318544, 49.793415], [6.318468, 49.79335], [6.318338, 49.793236], [6.318235, 49.793148], [6.318163, 49.793095], [6.318026, 49.79302], [6.317781, 49.792915], [6.317587, 49.792816], [6.317453, 49.792725], [6.317156, 49.79249], [6.316935, 49.79239], [6.316679, 49.79226], [6.316275, 49.79205], [6.316019, 49.79193], [6.315847, 49.79187], [6.315756, 49.791847], [6.314783, 49.791725], [6.314676, 49.79169], [6.314356, 49.79161], [6.31428, 49.791565], [6.31423, 49.791542], [6.314142, 49.791527], [6.3141, 49.79151], [6.314047, 49.791466], [6.313997, 49.79144], [6.313936, 49.79142], [6.313913, 49.791416], [6.313871, 49.79142], [6.313818, 49.791428], [6.313745, 49.791443], [6.313707, 49.791435], [6.31365, 49.791412], [6.313608, 49.79138], [6.313574, 49.791363], [6.313539, 49.79136], [6.313505, 49.79137], [6.313444, 49.7914], [6.313395, 49.791412], [6.313352, 49.79144], [6.313265, 49.791508], [6.312651, 49.792076], [6.312555, 49.7922], [6.312529, 49.792263], [6.312491, 49.792324], [6.312433, 49.792423], [6.312403, 49.792496], [6.312391, 49.792557], [6.312376, 49.79266], [6.312376, 49.792717], [6.312391, 49.79281], [6.312433, 49.79309], [6.312441, 49.793137], [6.312452, 49.793217], [6.312452, 49.793365], [6.312464, 49.7935], [6.312479, 49.793694], [6.312479, 49.793716], [6.312353, 49.793713], [6.31225, 49.7937], [6.311842, 49.7937], [6.311743, 49.793697], [6.311735, 49.793713], [6.311815, 49.793808], [6.311823, 49.79386], [6.31193, 49.79401], [6.311983, 49.79412], [6.311998, 49.7943], [6.311983, 49.794434], [6.311953, 49.7945], [6.31188, 49.79456], [6.311811, 49.79461], [6.31172, 49.794647], [6.31156, 49.794697], [6.311483, 49.79474], [6.311441, 49.79484], [6.311415, 49.7949], [6.31138, 49.794964], [6.311346, 49.795063], [6.311327, 49.795177], [6.311319, 49.795284], [6.311312, 49.795486]]]]}}]}