{"type": "FeatureCollection", "features": [{"type": "Feature", "properties": {"name": "Beaufort"}, "geometry": {"type": "MultiPolygon", "coordinates": [[[[6.254675, 49.830135], [6.254892, 49.830276], [6.255171, 49.83046], [6.255446, 49.830643], [6.255991, 49.831005], [6.256022, 49.831028], [6.2568, 49.831547], [6.257009, 49.831688], [6.257105, 49.83175], [6.257467, 49.831993], [6.257666, 49.832123], [6.257936, 49.832302], [6.258223, 49.83248], [6.258375, 49.83258], [6.258799, 49.832863], [6.259348, 49.833233], [6.2595, 49.833332], [6.259661, 49.83344], [6.260088, 49.833725], [6.2605, 49.834003], [6.260511, 49.83401], [6.260958, 49.8343], [6.261023, 49.834347], [6.262087, 49.83504], [6.262838, 49.835533], [6.263224, 49.83578], [6.263334, 49.835854], [6.26367, 49.83608], [6.263857, 49.8362], [6.264113, 49.836372], [6.264875, 49.836864], [6.265478, 49.837254], [6.265989, 49.83757], [6.266024, 49.837593], [6.266302, 49.83777], [6.266604, 49.83796], [6.266962, 49.83819], [6.267111, 49.838284], [6.267149, 49.838306], [6.267408, 49.838474], [6.26755, 49.838562], [6.267729, 49.838673], [6.26782, 49.838734], [6.267939, 49.83881], [6.268328, 49.839058], [6.268412, 49.83911], [6.268877, 49.83941], [6.268984, 49.839478], [6.269197, 49.839615], [6.269262, 49.839664], [6.270086, 49.8402], [6.270666, 49.840576], [6.271223, 49.84094], [6.271429, 49.841072], [6.271456, 49.841087], [6.271143, 49.84115], [6.27096, 49.84118], [6.270792, 49.8412], [6.270643, 49.8412], [6.270418, 49.841194], [6.269636, 49.841152], [6.269308, 49.84115], [6.269041, 49.84116], [6.268736, 49.84119], [6.268423, 49.841232], [6.267885, 49.841366], [6.266973, 49.84162], [6.266531, 49.841747], [6.266321, 49.841824], [6.266169, 49.841896], [6.266073, 49.84195], [6.266046, 49.841988], [6.266024, 49.842026], [6.265886, 49.84215], [6.265291, 49.84272], [6.264898, 49.84309], [6.264624, 49.84337], [6.264509, 49.84349], [6.263704, 49.844223], [6.263239, 49.84464], [6.262781, 49.84503], [6.2628, 49.845047], [6.262987, 49.845146], [6.263323, 49.84532], [6.263422, 49.84537], [6.264055, 49.845703], [6.264502, 49.845943], [6.265417, 49.846443], [6.265459, 49.846472], [6.265486, 49.84649], [6.265576, 49.846536], [6.265619, 49.846558], [6.266123, 49.84683], [6.266844, 49.847218], [6.267019, 49.847313], [6.266966, 49.847355], [6.266901, 49.847404], [6.266821, 49.847466], [6.266806, 49.847477], [6.267061, 49.84765], [6.26745, 49.847916], [6.267786, 49.848087], [6.268358, 49.848373], [6.268675, 49.848537], [6.268885, 49.848644], [6.268957, 49.848694], [6.269319, 49.849003], [6.269518, 49.849182], [6.269545, 49.84918], [6.269663, 49.849167], [6.269991, 49.84914], [6.270338, 49.849113], [6.270552, 49.849094], [6.270933, 49.849064], [6.27112, 49.84904], [6.271318, 49.84902], [6.271524, 49.848995], [6.272322, 49.848892], [6.273886, 49.848675], [6.274103, 49.848648], [6.274416, 49.848602], [6.274511, 49.84859], [6.274797, 49.84855], [6.274935, 49.848545], [6.274977, 49.84855], [6.275011, 49.848534], [6.275087, 49.848537], [6.275591, 49.84848], [6.276144, 49.848415], [6.276915, 49.848328], [6.27696, 49.84832], [6.277105, 49.84827], [6.277247, 49.848267], [6.277514, 49.84821], [6.277762, 49.848156], [6.277983, 49.848106], [6.278238, 49.84805], [6.278719, 49.847942], [6.278849, 49.847916], [6.278944, 49.847893], [6.278994, 49.847885], [6.279051, 49.847878], [6.279287, 49.847847], [6.279764, 49.847786], [6.280171, 49.847733], [6.280195, 49.84773], [6.280436, 49.8477], [6.280684, 49.847668], [6.28097, 49.84763], [6.281389, 49.847576], [6.281496, 49.847565], [6.281535, 49.84756], [6.28163, 49.847546], [6.281954, 49.847504], [6.282126, 49.84748], [6.282393, 49.847441], [6.282511, 49.84743], [6.282877, 49.847385], [6.282977, 49.847377], [6.283022, 49.847374], [6.283041, 49.84737], [6.283182, 49.847358], [6.283266, 49.84735], [6.283323, 49.847347], [6.283407, 49.847339], [6.283697, 49.847313], [6.283735, 49.847313], [6.283915, 49.847298], [6.283976, 49.84729], [6.284166, 49.84727], [6.284262, 49.847263], [6.284372, 49.847256], [6.284468, 49.847244], [6.284563, 49.847237], [6.284601, 49.847233], [6.284742, 49.84722], [6.284998, 49.8472], [6.285326, 49.847168], [6.285444, 49.847157], [6.285601, 49.847145], [6.285642, 49.84714], [6.285665, 49.847137], [6.285756, 49.84713], [6.285891, 49.84712], [6.286062, 49.84711], [6.28615, 49.847107], [6.286303, 49.847107], [6.286528, 49.847103], [6.286577, 49.84709], [6.286619, 49.847084], [6.286646, 49.8471], [6.286757, 49.847107], [6.286966, 49.847126], [6.287088, 49.847145], [6.287176, 49.847164], [6.287283, 49.84719], [6.28742, 49.84723], [6.287672, 49.8473], [6.287798, 49.847343], [6.288156, 49.847446], [6.288233, 49.847466], [6.288347, 49.847485], [6.288557, 49.847507], [6.28874, 49.847534], [6.2889, 49.84756], [6.289225, 49.84764], [6.2894, 49.84769], [6.28948, 49.847706], [6.289526, 49.847713], [6.28961, 49.847717], [6.289793, 49.847713], [6.290094, 49.847713], [6.290514, 49.847706], [6.290655, 49.8477], [6.290754, 49.847694], [6.290831, 49.8477], [6.290937, 49.847706], [6.290998, 49.847702], [6.29109, 49.8477], [6.291216, 49.84768], [6.291315, 49.847668], [6.291391, 49.847668], [6.291586, 49.84768], [6.291704, 49.84768], [6.29209, 49.847656], [6.292181, 49.847645], [6.292372, 49.847595], [6.292517, 49.84757], [6.292624, 49.84755], [6.292749, 49.847546], [6.292807, 49.847538], [6.292917, 49.84752], [6.293028, 49.847515], [6.293055, 49.847507], [6.293158, 49.847485], [6.293241, 49.847473], [6.293337, 49.84748], [6.293421, 49.847492], [6.293508, 49.84751], [6.293585, 49.847523], [6.293814, 49.84754], [6.293928, 49.847572], [6.294088, 49.847626], [6.294344, 49.8477], [6.294657, 49.847786], [6.294779, 49.847816], [6.294928, 49.84785], [6.29532, 49.84793], [6.295496, 49.847977], [6.295664, 49.848026], [6.295801, 49.848057], [6.296068, 49.84811], [6.296167, 49.84814], [6.296331, 49.848206], [6.296537, 49.84829], [6.296797, 49.848408], [6.296949, 49.848473], [6.297026, 49.84849], [6.297117, 49.848503], [6.297262, 49.8485], [6.297453, 49.848507], [6.297701, 49.848515], [6.297949, 49.84853], [6.298136, 49.84854], [6.298201, 49.848545], [6.29825, 49.848537], [6.298506, 49.848465], [6.298822, 49.84841], [6.299013, 49.848385], [6.299307, 49.84835], [6.299536, 49.848324], [6.299704, 49.848312], [6.299765, 49.8483], [6.299803, 49.84829], [6.299837, 49.848255], [6.299959, 49.84812], [6.300005, 49.84808], [6.300047, 49.848057], [6.300112, 49.848038], [6.300157, 49.848022], [6.300196, 49.848007], [6.300253, 49.847973], [6.300314, 49.84795], [6.300386, 49.847927], [6.300558, 49.847885], [6.300676, 49.84785], [6.300787, 49.847816], [6.300852, 49.847786], [6.300947, 49.84773], [6.301142, 49.84761], [6.30134, 49.84749], [6.301691, 49.84729], [6.301844, 49.847206], [6.301973, 49.84715], [6.302259, 49.84703], [6.302359, 49.84699], [6.302454, 49.846928], [6.302519, 49.84689], [6.302622, 49.846848], [6.302698, 49.84681], [6.302813, 49.846775], [6.303049, 49.84671], [6.303297, 49.846638], [6.303434, 49.846596], [6.303579, 49.84656], [6.303751, 49.846523], [6.304041, 49.846474], [6.30438, 49.846413], [6.304552, 49.84637], [6.304869, 49.846294], [6.304949, 49.84627], [6.30501, 49.846275], [6.305078, 49.84629], [6.305239, 49.846333], [6.305342, 49.846363], [6.30538, 49.84637], [6.305418, 49.846478], [6.305448, 49.846542], [6.305532, 49.846664], [6.305636, 49.846756], [6.305803, 49.84688], [6.305948, 49.84699], [6.306509, 49.847336], [6.306734, 49.847504], [6.307291, 49.847622], [6.307798, 49.847706], [6.308058, 49.847733], [6.308363, 49.84776], [6.308859, 49.847794], [6.309034, 49.847805], [6.309473, 49.847805], [6.310396, 49.847797], [6.310408, 49.848335], [6.310419, 49.848785], [6.310423, 49.848915], [6.310423, 49.848995], [6.310434, 49.849422], [6.310446, 49.85011], [6.310419, 49.8503], [6.310404, 49.850346], [6.310335, 49.850655], [6.310209, 49.851063], [6.310137, 49.851315], [6.310121, 49.85138], [6.310103, 49.851444], [6.310038, 49.85172], [6.310011, 49.851826], [6.309881, 49.852108], [6.309664, 49.852566], [6.309683, 49.85281], [6.309751, 49.85387], [6.309755, 49.85392], [6.309221, 49.85493], [6.309031, 49.855194], [6.308897, 49.855362], [6.308828, 49.855453], [6.308752, 49.85555], [6.308432, 49.85595], [6.308367, 49.85604], [6.308195, 49.856274], [6.307756, 49.85685], [6.307451, 49.857254], [6.307997, 49.85747], [6.308569, 49.85769], [6.309053, 49.857872], [6.309343, 49.858], [6.309572, 49.858112], [6.310003, 49.858315], [6.310121, 49.858368], [6.310755, 49.85862], [6.310858, 49.858654], [6.311304, 49.858837], [6.311464, 49.858902], [6.311998, 49.85904], [6.312387, 49.859276], [6.312429, 49.859303], [6.312551, 49.859352], [6.312803, 49.859447], [6.313021, 49.85953], [6.31323, 49.859604], [6.313452, 49.85967], [6.313486, 49.859676], [6.313681, 49.859726], [6.31386, 49.859768], [6.314062, 49.85987], [6.314123, 49.859882], [6.314135, 49.859884], [6.314154, 49.859854], [6.314199, 49.859785], [6.314268, 49.859682], [6.314409, 49.859461], [6.314505, 49.859331], [6.314673, 49.85911], [6.314768, 49.859045], [6.314878, 49.858915], [6.31497, 49.858809], [6.315065, 49.858721], [6.315126, 49.858595], [6.31526, 49.858438], [6.315344, 49.858381], [6.315489, 49.858198], [6.315542, 49.858168], [6.315603, 49.858065], [6.315699, 49.85795], [6.315836, 49.85774], [6.315912, 49.857691], [6.315924, 49.857637], [6.316008, 49.857527], [6.316107, 49.85737], [6.316259, 49.857206], [6.316343, 49.857012], [6.316446, 49.856855], [6.316591, 49.856577], [6.316801, 49.856279], [6.317072, 49.855921], [6.317213, 49.855715], [6.317385, 49.855539], [6.317495, 49.85539], [6.317587, 49.855318], [6.317827, 49.855108], [6.317919, 49.85504], [6.318064, 49.854944], [6.318293, 49.854822], [6.318445, 49.85475], [6.318552, 49.854677], [6.318659, 49.854624], [6.318846, 49.854521], [6.319162, 49.854357], [6.319479, 49.854147], [6.319819, 49.853979], [6.320162, 49.853731], [6.320539, 49.853491], [6.320558, 49.853441], [6.320715, 49.853369], [6.320948, 49.853243], [6.321127, 49.853113], [6.321261, 49.853018], [6.321783, 49.85261], [6.321993, 49.852388], [6.322279, 49.852041], [6.322424, 49.851816], [6.32255, 49.851515], [6.322573, 49.851255], [6.322584, 49.850946], [6.322573, 49.850756], [6.322538, 49.850603], [6.32247, 49.850336], [6.322416, 49.850092], [6.32234, 49.84976], [6.322233, 49.849443], [6.322172, 49.849241], [6.322123, 49.849058], [6.32197, 49.848589], [6.321875, 49.848112], [6.321791, 49.84767], [6.321672, 49.847441], [6.321672, 49.847334], [6.321631, 49.847174], [6.321562, 49.846937], [6.321489, 49.846796], [6.321394, 49.846643], [6.321272, 49.846529], [6.321142, 49.846392], [6.321058, 49.846228], [6.320906, 49.846151], [6.320593, 49.845785], [6.320345, 49.845503], [6.32028, 49.845297], [6.320253, 49.845262], [6.320181, 49.845167], [6.320093, 49.845076], [6.320013, 49.844858], [6.31999, 49.844683], [6.320047, 49.844408], [6.319925, 49.844027], [6.319918, 49.843832], [6.319838, 49.843687], [6.319776, 49.843592], [6.31967, 49.843405], [6.319559, 49.843214], [6.319513, 49.84297], [6.319529, 49.842787], [6.319567, 49.842707], [6.31962, 49.842527], [6.319632, 49.84231], [6.319735, 49.84207], [6.319792, 49.842039], [6.319826, 49.841959], [6.31978, 49.841963], [6.319685, 49.841825], [6.319677, 49.841631], [6.319696, 49.841379], [6.319689, 49.841169], [6.319704, 49.840879], [6.319716, 49.840677], [6.319769, 49.840399], [6.320028, 49.839876], [6.320162, 49.839727], [6.320448, 49.839384], [6.32062, 49.839235], [6.320772, 49.83898], [6.320929, 49.838823], [6.321089, 49.838678], [6.321188, 49.838671], [6.321272, 49.838621], [6.321424, 49.838453], [6.321524, 49.838499], [6.321604, 49.838484], [6.32165, 49.8384], [6.321749, 49.838366], [6.322016, 49.838266], [6.322161, 49.83819], [6.322393, 49.838022], [6.322645, 49.837851], [6.323305, 49.837519], [6.323751, 49.837313], [6.32427, 49.837069], [6.32498, 49.836737], [6.325174, 49.836645], [6.325335, 49.836565], [6.325724, 49.836393], [6.326078, 49.836237], [6.326441, 49.836115], [6.326853, 49.836012], [6.327166, 49.835939], [6.327616, 49.835894], [6.328402, 49.835901], [6.328802, 49.835932], [6.329142, 49.835958], [6.329271, 49.835997], [6.32976, 49.836046], [6.329794, 49.836046], [6.329821, 49.83595], [6.329718, 49.835938], [6.32974, 49.8359], [6.329767, 49.835854], [6.329821, 49.835766], [6.329859, 49.835705], [6.329924, 49.835682], [6.330019, 49.835495], [6.330088, 49.83534], [6.330126, 49.83512], [6.330168, 49.834785], [6.330168, 49.834503], [6.330141, 49.83431], [6.330095, 49.834152], [6.329939, 49.833878], [6.329927, 49.833862], [6.329878, 49.83377], [6.329828, 49.83365], [6.329805, 49.833576], [6.329786, 49.83345], [6.329783, 49.83333], [6.329832, 49.83313], [6.329912, 49.832935], [6.329977, 49.832825], [6.330034, 49.832763], [6.330175, 49.83261], [6.330336, 49.83242], [6.330442, 49.832344], [6.330557, 49.8323], [6.330603, 49.83225], [6.330629, 49.83218], [6.330603, 49.83208], [6.33053, 49.831924], [6.330412, 49.831738], [6.330309, 49.8315], [6.330213, 49.831264], [6.330172, 49.83113], [6.330107, 49.830997], [6.330069, 49.83094], [6.330053, 49.830914], [6.329931, 49.8308], [6.329863, 49.830746], [6.329771, 49.830627], [6.329744, 49.83055], [6.329744, 49.830486], [6.329767, 49.83041], [6.329805, 49.83035], [6.329851, 49.830288], [6.329863, 49.830235], [6.329874, 49.830173], [6.329866, 49.83012], [6.329821, 49.830044], [6.329733, 49.82995], [6.329664, 49.829884], [6.329641, 49.82983], [6.329626, 49.829758], [6.329611, 49.829727], [6.329622, 49.82966], [6.329653, 49.829533], [6.329718, 49.829365], [6.329756, 49.829212], [6.329794, 49.829117], [6.329859, 49.829033], [6.329962, 49.82893], [6.330065, 49.828804], [6.330168, 49.82867], [6.330179, 49.828568], [6.330156, 49.82842], [6.330107, 49.82818], [6.330072, 49.828083], [6.329988, 49.82795], [6.329962, 49.827923], [6.329885, 49.827816], [6.329691, 49.827667], [6.329443, 49.827515], [6.329317, 49.827408], [6.329225, 49.82731], [6.329157, 49.82722], [6.32913, 49.827156], [6.329149, 49.827084], [6.329225, 49.826927], [6.329252, 49.82682], [6.329264, 49.82676], [6.329214, 49.826717], [6.329138, 49.826668], [6.328947, 49.8266], [6.328646, 49.826553], [6.328337, 49.82651], [6.328161, 49.826477], [6.327967, 49.826405], [6.327799, 49.826305], [6.327642, 49.826157], [6.327463, 49.82603], [6.327414, 49.825977], [6.327414, 49.82593], [6.327452, 49.82587], [6.327547, 49.825737], [6.327646, 49.825584], [6.327681, 49.82547], [6.327696, 49.82539], [6.327673, 49.825333], [6.327604, 49.82526], [6.327467, 49.825146], [6.32733, 49.82506], [6.327211, 49.824905], [6.327139, 49.824787], [6.327108, 49.82461], [6.327063, 49.824398], [6.327059, 49.82434], [6.327059, 49.82427], [6.327089, 49.82418], [6.327124, 49.82387], [6.327127, 49.823772], [6.327093, 49.823673], [6.326982, 49.823505], [6.326891, 49.823418], [6.326777, 49.823338], [6.326643, 49.823273], [6.326555, 49.823242], [6.326498, 49.823204], [6.326437, 49.823154], [6.326227, 49.82301], [6.325987, 49.822857], [6.325869, 49.822784], [6.325815, 49.822746], [6.325796, 49.822662], [6.325769, 49.822533], [6.325708, 49.822437], [6.325594, 49.822407], [6.325464, 49.822395], [6.325338, 49.82241], [6.32519, 49.822426], [6.325109, 49.822422], [6.324991, 49.822407], [6.324907, 49.822365], [6.324865, 49.8223], [6.324877, 49.82222], [6.324896, 49.822178], [6.324903, 49.822155], [6.324884, 49.822136], [6.324812, 49.82211], [6.324728, 49.822056], [6.324709, 49.822014], [6.324713, 49.82196], [6.324736, 49.821922], [6.324781, 49.82187], [6.324797, 49.821823], [6.324736, 49.821762], [6.324621, 49.821724], [6.32445, 49.821663], [6.324358, 49.8216], [6.324293, 49.82155], [6.324213, 49.821526], [6.324156, 49.821537], [6.324064, 49.821568], [6.323984, 49.821575], [6.323908, 49.82156], [6.323862, 49.82152], [6.323847, 49.82147], [6.323862, 49.8214], [6.323854, 49.821358], [6.323824, 49.821312], [6.323736, 49.82128], [6.323511, 49.821236], [6.323347, 49.821205], [6.323252, 49.821175], [6.323191, 49.821114], [6.323126, 49.821053], [6.323065, 49.821033], [6.322943, 49.821007], [6.322863, 49.820946], [6.322763, 49.820915], [6.322676, 49.820927], [6.322493, 49.82096], [6.322298, 49.82097], [6.322134, 49.82096], [6.321978, 49.820915], [6.321772, 49.820816], [6.321642, 49.820763], [6.321394, 49.82071], [6.321257, 49.82066], [6.3211, 49.82064], [6.32102, 49.82062], [6.320883, 49.820526], [6.320791, 49.820484], [6.320631, 49.82042], [6.320452, 49.82036], [6.32036, 49.82036], [6.320288, 49.82039], [6.320211, 49.820457], [6.320162, 49.820496], [6.320097, 49.82051], [6.320005, 49.820503], [6.319864, 49.8205], [6.319811, 49.820515], [6.319769, 49.820545], [6.319742, 49.820625], [6.319723, 49.820652], [6.319685, 49.82067], [6.319571, 49.820686], [6.319399, 49.820705], [6.319323, 49.82071], [6.319273, 49.8207], [6.319147, 49.820656], [6.318907, 49.820618], [6.318697, 49.82059], [6.318594, 49.820595], [6.318533, 49.82061], [6.318483, 49.82064], [6.318426, 49.82068], [6.31838, 49.82073], [6.318327, 49.820763], [6.318281, 49.820778], [6.318167, 49.820778], [6.318106, 49.820747], [6.318041, 49.82072], [6.317984, 49.8207], [6.317934, 49.8207], [6.317869, 49.820717], [6.317816, 49.820747], [6.317778, 49.820786], [6.31774, 49.82086], [6.317705, 49.820934], [6.317671, 49.820957], [6.317625, 49.82097], [6.317568, 49.820984], [6.317488, 49.82097], [6.317446, 49.82097], [6.317377, 49.821], [6.31732, 49.821053], [6.317225, 49.82119], [6.317137, 49.8213], [6.317114, 49.821316], [6.317057, 49.82134], [6.316935, 49.821365], [6.316813, 49.821373], [6.316702, 49.821358], [6.316656, 49.821358], [6.316595, 49.821365], [6.316526, 49.821384], [6.316454, 49.821426], [6.316332, 49.821526], [6.316217, 49.821587], [6.315962, 49.82173], [6.315565, 49.821968], [6.315519, 49.82199], [6.315325, 49.82207], [6.315214, 49.822113], [6.315119, 49.822144], [6.315004, 49.822166], [6.314947, 49.82219], [6.314825, 49.82225], [6.314775, 49.822273], [6.314711, 49.822327], [6.314676, 49.822353], [6.314623, 49.822376], [6.314577, 49.822388], [6.314405, 49.82241], [6.314302, 49.822468], [6.314253, 49.822495], [6.314211, 49.822536], [6.314177, 49.82256], [6.314131, 49.822575], [6.314074, 49.82258], [6.31399, 49.822586], [6.31386, 49.82259], [6.31381, 49.822598], [6.313757, 49.822613], [6.313681, 49.822643], [6.313623, 49.822674], [6.313524, 49.822716], [6.313444, 49.822735], [6.31325, 49.82278], [6.312628, 49.822887], [6.312029, 49.82296], [6.311911, 49.82298], [6.311796, 49.82299], [6.311735, 49.822994], [6.311667, 49.82299], [6.31156, 49.82297], [6.311483, 49.822968], [6.31143, 49.82298], [6.311357, 49.82301], [6.311285, 49.823025], [6.311228, 49.823025], [6.311159, 49.823006], [6.311079, 49.82299], [6.311007, 49.82299], [6.310915, 49.822994], [6.310823, 49.82302], [6.310759, 49.82303], [6.310629, 49.82302], [6.310453, 49.822998], [6.310381, 49.823], [6.310236, 49.82302], [6.310018, 49.823074], [6.309896, 49.82312], [6.309774, 49.8232], [6.309656, 49.8233], [6.30958, 49.82334], [6.3095, 49.823368], [6.309401, 49.82338], [6.30924, 49.823395], [6.309198, 49.823406], [6.309084, 49.823513], [6.309019, 49.823555], [6.308973, 49.823574], [6.308912, 49.823597], [6.308851, 49.823643], [6.308798, 49.823673], [6.308622, 49.823765], [6.30855, 49.823822], [6.308413, 49.82391], [6.308329, 49.823948], [6.308256, 49.823967], [6.30818, 49.823975], [6.308104, 49.823975], [6.308024, 49.823956], [6.307905, 49.823944], [6.307829, 49.823944], [6.307737, 49.82395], [6.307619, 49.823948], [6.307531, 49.82394], [6.307474, 49.823925], [6.307421, 49.8239], [6.307383, 49.82388], [6.307344, 49.823864], [6.307306, 49.82386], [6.307222, 49.82386], [6.307116, 49.823864], [6.307001, 49.823864], [6.30691, 49.823856], [6.306757, 49.82383], [6.306582, 49.823784], [6.306341, 49.823727], [6.306242, 49.823696], [6.306177, 49.823666], [6.306124, 49.823635], [6.306089, 49.823624], [6.306051, 49.823616], [6.306002, 49.823612], [6.305891, 49.823612], [6.305834, 49.8236], [6.305765, 49.823578], [6.305685, 49.82356], [6.305624, 49.82355], [6.305563, 49.82355], [6.305491, 49.823563], [6.305399, 49.823574], [6.305334, 49.823574], [6.305239, 49.823555], [6.305159, 49.823536], [6.305075, 49.823524], [6.304937, 49.823524], [6.304834, 49.823513], [6.304709, 49.823486], [6.304609, 49.823456], [6.30451, 49.82343], [6.304438, 49.8234], [6.304254, 49.823353], [6.304182, 49.823326], [6.304087, 49.823288], [6.303953, 49.82323], [6.30385, 49.82321], [6.303739, 49.823215], [6.303472, 49.823215], [6.303411, 49.823204], [6.303328, 49.823196], [6.303267, 49.823185], [6.303217, 49.823177], [6.303091, 49.823174], [6.302969, 49.82317], [6.302862, 49.82318], [6.302763, 49.82317], [6.30271, 49.823147], [6.302687, 49.82312], [6.302668, 49.823093], [6.30266, 49.823063], [6.302641, 49.82304], [6.302584, 49.82301], [6.302488, 49.82297], [6.302355, 49.822945], [6.302103, 49.822903], [6.301912, 49.822876], [6.301779, 49.82284], [6.301691, 49.822815], [6.301645, 49.822792], [6.301496, 49.822693], [6.301413, 49.822647], [6.301313, 49.82261], [6.301199, 49.82258], [6.301134, 49.82257], [6.300989, 49.822563], [6.300772, 49.82254], [6.300589, 49.82252], [6.300505, 49.822502], [6.30044, 49.822475], [6.300367, 49.822437], [6.300314, 49.82241], [6.300238, 49.82241], [6.300142, 49.82242], [6.300039, 49.822422], [6.299952, 49.82242], [6.29986, 49.822407], [6.299787, 49.822357], [6.299719, 49.822327], [6.29962, 49.822315], [6.299528, 49.82231], [6.299421, 49.822334], [6.299322, 49.822357], [6.299246, 49.82237], [6.29915, 49.822376], [6.29904, 49.822357], [6.298899, 49.82232], [6.298838, 49.82228], [6.298761, 49.822216], [6.298693, 49.822163], [6.298616, 49.82213], [6.298506, 49.822098], [6.298391, 49.822063], [6.298338, 49.822037], [6.298285, 49.82203], [6.298239, 49.822025], [6.298193, 49.82203], [6.298151, 49.822052], [6.298101, 49.822098], [6.298056, 49.822155], [6.298033, 49.822186], [6.297968, 49.822212], [6.297903, 49.822212], [6.297823, 49.822197], [6.297743, 49.822186], [6.297674, 49.82219], [6.297529, 49.822197], [6.297392, 49.822174], [6.297277, 49.822147], [6.297174, 49.82212], [6.297083, 49.82211], [6.29701, 49.822105], [6.296923, 49.822124], [6.296862, 49.822144], [6.296812, 49.822174], [6.296774, 49.822212], [6.296743, 49.822273], [6.296717, 49.822346], [6.296698, 49.822395], [6.296652, 49.82244], [6.296583, 49.822495], [6.296545, 49.822517], [6.296503, 49.822525], [6.296446, 49.822525], [6.296324, 49.822514], [6.296255, 49.82252], [6.296183, 49.822544], [6.296118, 49.82259], [6.296064, 49.822647], [6.29603, 49.82268], [6.295992, 49.82271], [6.295961, 49.822716], [6.295805, 49.822716], [6.295771, 49.82273], [6.295748, 49.82275], [6.29574, 49.822773], [6.295744, 49.822792], [6.295816, 49.82283], [6.295885, 49.822857], [6.295923, 49.82288], [6.295942, 49.822906], [6.29595, 49.82298], [6.2959, 49.823025], [6.295847, 49.823063], [6.295797, 49.82312], [6.295786, 49.823177], [6.295801, 49.823223], [6.295832, 49.823273], [6.295896, 49.82333], [6.296041, 49.823414], [6.296164, 49.82347], [6.296217, 49.823494], [6.296263, 49.823498], [6.296316, 49.82351], [6.296358, 49.823524], [6.296392, 49.823563], [6.296389, 49.8236], [6.296373, 49.823627], [6.29635, 49.823643], [6.296293, 49.823654], [6.296228, 49.82367], [6.296186, 49.823696], [6.296122, 49.823742], [6.296087, 49.823784], [6.296064, 49.82383], [6.296045, 49.82388], [6.29603, 49.82393], [6.296019, 49.82394], [6.295977, 49.82396], [6.295923, 49.823975], [6.295851, 49.82399], [6.295805, 49.824013], [6.295775, 49.824043], [6.295752, 49.824074], [6.295595, 49.824238], [6.295553, 49.824265], [6.295511, 49.824284], [6.295454, 49.82429], [6.29542, 49.824287], [6.29537, 49.824284], [6.29534, 49.824284], [6.295305, 49.824287], [6.295263, 49.82429], [6.295206, 49.82429], [6.295172, 49.82428], [6.295126, 49.824276], [6.294859, 49.824398], [6.294756, 49.824425], [6.294683, 49.824425], [6.294615, 49.82441], [6.294542, 49.824345], [6.294474, 49.824314], [6.294413, 49.824314], [6.294325, 49.824345], [6.294195, 49.8244], [6.29413, 49.824413], [6.294004, 49.824406], [6.293882, 49.824398], [6.293753, 49.82441], [6.293589, 49.824463], [6.293508, 49.824467], [6.293436, 49.824455], [6.293371, 49.82443], [6.293257, 49.824398], [6.293192, 49.82439], [6.293077, 49.824398], [6.292879, 49.824436], [6.292803, 49.82444], [6.2927, 49.824432], [6.292574, 49.824444], [6.292425, 49.82446], [6.292299, 49.824482], [6.292211, 49.82449], [6.292109, 49.824474], [6.29196, 49.824432], [6.291826, 49.824413], [6.291632, 49.824394], [6.291399, 49.82438], [6.291163, 49.824368], [6.290926, 49.82438], [6.290758, 49.824383], [6.290617, 49.82439], [6.290491, 49.824375], [6.2904, 49.824352], [6.290289, 49.82435], [6.290117, 49.824368], [6.289991, 49.824375], [6.289831, 49.82437], [6.28964, 49.82439], [6.289488, 49.824425], [6.289381, 49.82444], [6.289289, 49.82445], [6.289206, 49.824448], [6.28911, 49.824448], [6.28903, 49.82447], [6.288862, 49.824482], [6.288717, 49.8245], [6.288477, 49.82456], [6.288412, 49.824566], [6.288343, 49.824562], [6.288279, 49.82454], [6.288191, 49.82452], [6.288057, 49.82452], [6.28792, 49.824524], [6.287733, 49.82455], [6.287619, 49.824562], [6.287493, 49.82456], [6.287375, 49.824547], [6.287306, 49.82455], [6.287168, 49.82459], [6.287081, 49.82461], [6.286962, 49.824608], [6.286833, 49.824585], [6.286612, 49.824528], [6.286406, 49.824474], [6.286066, 49.824394], [6.285925, 49.824375], [6.28583, 49.824394], [6.28578, 49.82444], [6.285723, 49.824486], [6.285669, 49.824497], [6.285627, 49.82449], [6.285574, 49.824467], [6.285471, 49.824368], [6.285391, 49.82432], [6.285311, 49.82429], [6.285238, 49.824303], [6.285124, 49.82433], [6.285032, 49.824364], [6.284948, 49.824375], [6.284857, 49.82437], [6.28446, 49.824276], [6.284376, 49.82426], [6.284307, 49.82427], [6.284224, 49.824284], [6.28417, 49.82432], [6.284124, 49.824375], [6.284075, 49.824398], [6.283857, 49.824444], [6.283735, 49.824455], [6.283632, 49.82445], [6.283571, 49.824425], [6.283518, 49.824368], [6.28348, 49.824306], [6.283426, 49.824276], [6.283327, 49.824272], [6.283098, 49.8243], [6.282976, 49.824295], [6.28282, 49.824272], [6.282621, 49.824226], [6.282366, 49.824146], [6.282164, 49.824062], [6.28195, 49.82395], [6.281866, 49.823917], [6.281782, 49.823902], [6.281687, 49.823906], [6.281595, 49.823902], [6.281508, 49.82386], [6.281363, 49.82376], [6.281179, 49.823704], [6.281107, 49.82369], [6.281042, 49.82368], [6.280723, 49.82359], [6.28071, 49.823586], [6.280348, 49.823475], [6.280245, 49.823452], [6.280062, 49.82343], [6.279833, 49.823414], [6.279482, 49.8234], [6.279394, 49.823383], [6.279306, 49.823353], [6.279242, 49.823326], [6.27918, 49.82332], [6.279077, 49.82334], [6.278732, 49.823405], [6.278424, 49.82343], [6.278203, 49.823418], [6.277956, 49.823419], [6.277868, 49.82346], [6.277742, 49.823444], [6.277586, 49.82345], [6.27746, 49.823437], [6.27738, 49.823418], [6.277155, 49.823322], [6.277079, 49.823307], [6.277029, 49.82332], [6.276976, 49.823368], [6.276922, 49.823383], [6.276869, 49.82337], [6.276781, 49.82334], [6.276705, 49.8233], [6.276651, 49.82325], [6.276602, 49.82323], [6.276525, 49.823223], [6.276487, 49.823227], [6.27643, 49.823242], [6.27635, 49.823296], [6.276319, 49.823307], [6.276262, 49.82329], [6.276217, 49.823265], [6.276155, 49.823227], [6.276079, 49.823174], [6.276026, 49.82315], [6.275915, 49.82313], [6.275793, 49.82314], [6.275587, 49.82316], [6.275438, 49.823154], [6.27532, 49.823135], [6.275248, 49.823116], [6.275061, 49.823032], [6.274931, 49.822983], [6.274817, 49.82298], [6.274767, 49.822983], [6.274721, 49.823017], [6.274698, 49.82307], [6.274664, 49.823112], [6.274614, 49.82312], [6.274523, 49.823112], [6.274443, 49.82309], [6.274382, 49.823044], [6.274294, 49.822945], [6.27426, 49.822884], [6.274225, 49.82286], [6.274179, 49.822857], [6.274115, 49.822872], [6.274023, 49.822906], [6.273947, 49.82291], [6.273886, 49.822895], [6.273821, 49.82287], [6.273542, 49.82271], [6.273416, 49.82268], [6.273264, 49.82266], [6.273172, 49.822636], [6.273123, 49.8226], [6.273089, 49.822536], [6.272989, 49.82245], [6.272814, 49.822346], [6.272642, 49.82223], [6.272558, 49.822186], [6.272406, 49.822136], [6.272314, 49.822094], [6.272249, 49.822056], [6.272192, 49.82197], [6.272158, 49.821896], [6.272123, 49.82185], [6.27199, 49.821804], [6.271669, 49.82168], [6.271566, 49.821655], [6.271086, 49.821564], [6.270876, 49.8215], [6.270781, 49.82145], [6.270769, 49.8214], [6.270781, 49.821346], [6.270761, 49.8213], [6.270701, 49.821274], [6.270628, 49.821266], [6.270517, 49.821274], [6.27043, 49.821274], [6.270346, 49.8213], [6.270285, 49.821312], [6.270193, 49.82132], [6.270159, 49.821297], [6.269754, 49.821053], [6.268911, 49.821087], [6.26882, 49.82106], [6.267858, 49.821068], [6.266657, 49.8211], [6.265779, 49.821136], [6.26549, 49.821182], [6.264696, 49.82132], [6.264254, 49.82141], [6.263243, 49.821644], [6.262087, 49.821926], [6.261667, 49.822033], [6.260191, 49.822304], [6.25963, 49.82244], [6.258856, 49.822662], [6.258459, 49.822773], [6.257662, 49.822937], [6.257254, 49.823025], [6.256926, 49.82312], [6.256601, 49.823227], [6.256052, 49.823395], [6.255693, 49.823486], [6.25569, 49.8235], [6.255659, 49.823692], [6.255655, 49.823727], [6.255617, 49.823956], [6.255602, 49.82406], [6.25559, 49.82412], [6.255529, 49.824486], [6.255449, 49.82503], [6.255373, 49.825447], [6.255293, 49.825977], [6.255205, 49.826485], [6.255125, 49.827026], [6.255045, 49.827534], [6.255003, 49.82778], [6.254961, 49.828064], [6.254877, 49.828568], [6.254824, 49.828964], [6.254808, 49.8291], [6.25469, 49.829967], [6.254694, 49.830013], [6.254675, 49.830135]]]]}}]}