{"type": "FeatureCollection", "features": [{"type": "Feature", "properties": {"name": "Sonnebierg", "kind": "nature_reserve"}, "geometry": {"type": "Polygon", "coordinates": [[[6.1436889, 49.6636675], [6.1441073, 49.6636072], [6.1441909, 49.6635961], [6.1443944, 49.6636022], [6.1446718, 49.6636654], [6.1447892, 49.663991], [6.1456496, 49.6653801], [6.1476955, 49.6658597], [6.1478135, 49.6657581], [6.1478966, 49.6656587], [6.1479711, 49.6655993], [6.1479342, 49.6654109], [6.1478913, 49.6652547], [6.1478162, 49.6651358], [6.1476673, 49.6650056], [6.147501, 49.664891], [6.1470598, 49.6644396], [6.1468251, 49.6642313], [6.1464939, 49.6639717], [6.1464013, 49.6637886], [6.1462913, 49.6635186], [6.1460709, 49.6632314], [6.1459306, 49.6628788], [6.1457428, 49.6626123], [6.1457147, 49.6625142], [6.1457241, 49.6624048], [6.1457737, 49.6622885], [6.1459896, 49.6619812], [6.1461438, 49.6618814], [6.1467473, 49.6616548], [6.1469557, 49.6615831], [6.1471872, 49.6615124], [6.1476071, 49.6614232], [6.1481972, 49.661326], [6.1486732, 49.661306], [6.1491157, 49.6612912], [6.1494684, 49.6613119], [6.149624, 49.6613128], [6.1503484, 49.6612955], [6.1505701, 49.6613187], [6.1508135, 49.6613614], [6.1511677, 49.6614531], [6.1513835, 49.6615151], [6.1513795, 49.6614248], [6.1510227, 49.6612293], [6.1501477, 49.6607929], [6.149793, 49.6606556], [6.1494848, 49.6605591], [6.1494564, 49.660548], [6.1490527, 49.6604577], [6.1478671, 49.6602493], [6.1475214, 49.6602003], [6.147261, 49.6601634], [6.1465086, 49.6600792], [6.1462095, 49.6600679], [6.1451903, 49.6600844], [6.1449003, 49.6600803], [6.1446222, 49.6600642], [6.1445464, 49.6600621], [6.1442562, 49.6600512], [6.1441751, 49.6604073], [6.1441155, 49.6605236], [6.1425579, 49.6605249], [6.1425645, 49.6606357], [6.1420782, 49.6607225], [6.1425097, 49.6617251], [6.1428621, 49.6625281], [6.1431558, 49.6624795], [6.1435473, 49.6633394], [6.1436489, 49.6635624], [6.1436889, 49.6636675]]]}}]}