{"type": "FeatureCollection", "features": [{"type": "Feature", "properties": {"name": "Everlange"}, "geometry": {"type": "Polygon", "coordinates": [[[5.9204854, 49.7655479], [5.92107, 49.7658127], [5.922032, 49.7662484], [5.9221284, 49.7662966], [5.9222946, 49.7664025], [5.9225176, 49.7665791], [5.9229207, 49.7668984], [5.9230502, 49.7670361], [5.9232727, 49.7672735], [5.923314, 49.7673176], [5.9235409, 49.767551], [5.9237862, 49.767821], [5.9240556, 49.7681081], [5.9243641, 49.7683577], [5.9247373, 49.7686553], [5.9249442, 49.7688168], [5.9249793, 49.768842], [5.9251531, 49.7689611], [5.9253362, 49.7690654], [5.9255027, 49.7691468], [5.9259155, 49.7693224], [5.9263023, 49.7694807], [5.9264558, 49.7695735], [5.926661, 49.769703], [5.926759, 49.7697626], [5.9268386, 49.7698095], [5.9268978, 49.7698371], [5.9269904, 49.7698681], [5.9273256, 49.7699601], [5.9275183, 49.7700256], [5.9278, 49.7700616], [5.9279002, 49.7700734], [5.9286679, 49.770455], [5.9291878, 49.7707404], [5.9296373, 49.7709857], [5.9298017, 49.7711208], [5.9301302, 49.771464], [5.9306031, 49.77186], [5.9309523, 49.7721519], [5.9311479, 49.7723692], [5.9312936, 49.7725374], [5.9313655, 49.7726175], [5.9314133, 49.7726706], [5.9324112, 49.7733132], [5.9320944, 49.7736538], [5.931753, 49.7740179], [5.9318145, 49.7741605], [5.9318956, 49.7743685], [5.9320789, 49.7745643], [5.9322224, 49.7747307], [5.9323305, 49.7748525], [5.9324136, 49.7751213], [5.9325547, 49.7753151], [5.9333738, 49.775305], [5.9334989, 49.7755843], [5.933548, 49.7756833], [5.9335913, 49.7757707], [5.9336328, 49.7758545], [5.933699, 49.775988], [5.933831, 49.7762223], [5.9347052, 49.7758397], [5.9350144, 49.7757076], [5.9353799, 49.7755947], [5.9356323, 49.7755167], [5.935984, 49.7752997], [5.9368207, 49.7748195], [5.9370679, 49.7746776], [5.9375802, 49.7743126], [5.9377361, 49.7742011], [5.9380308, 49.7738226], [5.9384265, 49.7737044], [5.9387429, 49.7739109], [5.9387841, 49.7739378], [5.9386334, 49.7740493], [5.9384755, 49.7741313], [5.9383374, 49.7742252], [5.9382525, 49.7743479], [5.9380942, 49.7744973], [5.9378491, 49.7746942], [5.9376776, 49.7748194], [5.9375239, 49.7749367], [5.9372101, 49.7751224], [5.9368671, 49.7753675], [5.9367469, 49.7754313], [5.9365779, 49.7755049], [5.9364664, 49.7756053], [5.936317, 49.7757488], [5.9361545, 49.7758531], [5.9359724, 49.7758776], [5.9357279, 49.7759438], [5.9354079, 49.7760346], [5.9352433, 49.7760951], [5.9350617, 49.7761791], [5.9350097, 49.7762031], [5.9348629, 49.7762826], [5.9346961, 49.7763541], [5.9343336, 49.7764842], [5.9341893, 49.7764976], [5.934096, 49.7765105], [5.9340405, 49.7765208], [5.9338203, 49.7766106], [5.9335935, 49.7766912], [5.9333645, 49.7767639], [5.9331156, 49.776834], [5.9328608, 49.7772048], [5.9324553, 49.7775127], [5.9322606, 49.7776606], [5.9321422, 49.7777505], [5.9320784, 49.777799], [5.931925, 49.7779154], [5.9312991, 49.7785538], [5.9312737, 49.7785782], [5.9315334, 49.7785813], [5.931875, 49.7786199], [5.9323541, 49.7786889], [5.9326536, 49.7787281], [5.9327519, 49.7787341], [5.9329421, 49.7787457], [5.9330173, 49.7788125], [5.9332391, 49.7788456], [5.9334695, 49.7789363], [5.9338226, 49.7789069], [5.9339895, 49.7788203], [5.934106, 49.7787805], [5.9342251, 49.7787397], [5.9344542, 49.7786578], [5.9346741, 49.7786151], [5.9349074, 49.7785784], [5.9349962, 49.7785733], [5.9350583, 49.7785787], [5.9350855, 49.7785778], [5.9351053, 49.7785841], [5.935229, 49.778623], [5.9352957, 49.778644], [5.9359601, 49.778814], [5.9368651, 49.779051], [5.9374707, 49.7791669], [5.9377917, 49.7792184], [5.9383338, 49.7792815], [5.9383757, 49.7792847], [5.9384199, 49.779288], [5.9385974, 49.7793016], [5.9390625, 49.7793199], [5.9392853, 49.7793132], [5.9399354, 49.7792962], [5.9400399, 49.7793116], [5.9402169, 49.7793824], [5.9414768, 49.7798833], [5.9417157, 49.7799922], [5.941971, 49.7801614], [5.9421629, 49.7802778], [5.9424199, 49.7804054], [5.9426876, 49.7805121], [5.9429145, 49.7805974], [5.9437679, 49.7808913], [5.9443745, 49.781116], [5.945273, 49.7814635], [5.9455726, 49.781569], [5.9455461, 49.7815985], [5.9452948, 49.7817571], [5.9451707, 49.7818362], [5.9449236, 49.7819937], [5.9448262, 49.7820559], [5.9446969, 49.7821384], [5.9445566, 49.7822268], [5.9442554, 49.7824166], [5.9440416, 49.7825514], [5.9452842, 49.7830076], [5.9468149, 49.7835599], [5.9468177, 49.7835563], [5.9468618, 49.7834989], [5.9484868, 49.7839265], [5.9490529, 49.7840699], [5.9501458, 49.7843396], [5.9501316, 49.7843851], [5.9501242, 49.7844089], [5.9501071, 49.7844636], [5.9501034, 49.7844757], [5.9500771, 49.78456], [5.9500379, 49.784686], [5.9500161, 49.784756], [5.9499916, 49.7848236], [5.9499622, 49.7849043], [5.9499266, 49.7850023], [5.950025, 49.7850099], [5.951058, 49.7850902], [5.9514034, 49.7851169], [5.9519633, 49.7851729], [5.952461, 49.7852192], [5.9525041, 49.7851042], [5.9525445, 49.7849962], [5.9525517, 49.7849769], [5.9525768, 49.78491], [5.952587, 49.7848828], [5.9526076, 49.7848159], [5.9526438, 49.7846981], [5.9526784, 49.7845854], [5.953399, 49.7845993], [5.953923, 49.7846181], [5.9542538, 49.7846351], [5.9544486, 49.784648], [5.9546353, 49.7846662], [5.9548775, 49.7846985], [5.955159, 49.7847578], [5.9554518, 49.7848365], [5.9557462, 49.7849233], [5.9560406, 49.7850126], [5.9560759, 49.7851588], [5.9561042, 49.7852763], [5.9561319, 49.7853909], [5.9561584, 49.785501], [5.956179, 49.7855862], [5.9562006, 49.7856801], [5.9562385, 49.7858453], [5.95629, 49.7860642], [5.956332, 49.7862427], [5.9561448, 49.7862487], [5.9557878, 49.7862602], [5.9557766, 49.7863255], [5.955762, 49.7864102], [5.9557521, 49.7864674], [5.955743, 49.7865203], [5.9557357, 49.7865625], [5.9557259, 49.786614], [5.9557156, 49.7866676], [5.9557041, 49.7867086], [5.9556763, 49.7868072], [5.9556508, 49.786898], [5.9565141, 49.7868474], [5.9567648, 49.7868445], [5.9571005, 49.7868422], [5.9572267, 49.7868434], [5.9574936, 49.7868555], [5.9580242, 49.786881], [5.9586186, 49.7869159], [5.9593979, 49.7869556], [5.9594318, 49.7869573], [5.9594383, 49.7869003], [5.9594601, 49.786738], [5.9594652, 49.7865354], [5.959456, 49.7862292], [5.9594324, 49.7858432], [5.9594117, 49.7857589], [5.9593492, 49.7856032], [5.9591806, 49.7851685], [5.9589725, 49.7846235], [5.9589339, 49.7845227], [5.958953, 49.7845165], [5.9593562, 49.7843204], [5.9596097, 49.7841971], [5.9597058, 49.7841486], [5.9599989, 49.7840003], [5.9601088, 49.7839448], [5.9602373, 49.7838739], [5.9602934, 49.7838408], [5.9605146, 49.78371], [5.960588, 49.7836643], [5.9607718, 49.7835498], [5.9608677, 49.78349], [5.9610013, 49.7834065], [5.9608538, 49.7833077], [5.9607061, 49.7832088], [5.9604195, 49.7830168], [5.9606669, 49.7828656], [5.9608254, 49.7827687], [5.9611179, 49.7825945], [5.9612111, 49.7825457], [5.9614076, 49.7824691], [5.9615634, 49.7824113], [5.9617073, 49.7823578], [5.9618611, 49.7823027], [5.9619995, 49.7822532], [5.9622009, 49.7821928], [5.9622604, 49.7821724], [5.9624074, 49.7821221], [5.9624737, 49.7820996], [5.9625938, 49.7820587], [5.9626678, 49.7820263], [5.9628155, 49.7819614], [5.9629415, 49.7819053], [5.962997, 49.7818806], [5.9631153, 49.7818279], [5.9628958, 49.7813921], [5.9627511, 49.7811186], [5.9625838, 49.780837], [5.9625438, 49.7807836], [5.9621308, 49.7803363], [5.9622941, 49.7802436], [5.962461, 49.7801488], [5.9614479, 49.7795021], [5.9607658, 49.7790529], [5.9610364, 49.7788784], [5.9613295, 49.7786894], [5.9615414, 49.7785528], [5.9616129, 49.7785249], [5.9614477, 49.778344], [5.961586, 49.7783635], [5.9616836, 49.778454], [5.9617087, 49.7784659], [5.9617103, 49.7784648], [5.961797, 49.7784083], [5.961679, 49.7782074], [5.9615923, 49.7780599], [5.9616907, 49.7780012], [5.9618259, 49.7781165], [5.9620972, 49.7779485], [5.9621687, 49.7779768], [5.9622294, 49.7779999], [5.9622684, 49.7780204], [5.962316, 49.7780525], [5.9623636, 49.7780935], [5.9624284, 49.7781652], [5.9629156, 49.7779283], [5.9626969, 49.7778115], [5.962528, 49.7777051], [5.9624609, 49.7776602], [5.9623917, 49.7776026], [5.9623333, 49.777545], [5.9622642, 49.7774553], [5.9622017, 49.7773645], [5.9621629, 49.7772915], [5.9621179, 49.7771623], [5.962102, 49.7770899], [5.9620765, 49.7769724], [5.9620411, 49.7768157], [5.9619456, 49.7763932], [5.9624923, 49.7761534], [5.9629843, 49.7759376], [5.9631597, 49.7758606], [5.9633522, 49.7757762], [5.9628403, 49.7749573], [5.9624111, 49.7742935], [5.9622287, 49.7740123], [5.9621055, 49.7738252], [5.962834, 49.7737639], [5.962926, 49.7737561], [5.963133, 49.7737387], [5.9632276, 49.7737307], [5.9636865, 49.7736857], [5.9637185, 49.7736826], [5.9642458, 49.7736236], [5.9642789, 49.7736141], [5.9639959, 49.7732889], [5.9638191, 49.7728494], [5.9636687, 49.7727398], [5.9633864, 49.7726587], [5.9634039, 49.7726321], [5.9631025, 49.772555], [5.9636818, 49.7725203], [5.9639176, 49.7725074], [5.9640738, 49.7724913], [5.96453, 49.7724349], [5.9647521, 49.7724149], [5.9650262, 49.7723935], [5.9650851, 49.7723889], [5.9651612, 49.7723273], [5.9652888, 49.7722242], [5.9654052, 49.7721301], [5.9654817, 49.7720832], [5.9655411, 49.772055], [5.9655824, 49.7720354], [5.9657127, 49.7719886], [5.9658221, 49.7719531], [5.9659348, 49.7719318], [5.9661413, 49.7719005], [5.9661968, 49.7718894], [5.9662455, 49.7718731], [5.9664557, 49.7717724], [5.9665217, 49.7717429], [5.9666189, 49.7717083], [5.9667161, 49.7716799], [5.9668324, 49.7716515], [5.9668897, 49.7716404], [5.9668912, 49.7715215], [5.9668544, 49.7713821], [5.9666872, 49.7712207], [5.9666627, 49.7711855], [5.9667408, 49.771155], [5.9669301, 49.7710838], [5.9671473, 49.7709678], [5.9673578, 49.7708129], [5.9675891, 49.7706356], [5.9676049, 49.7705917], [5.9676465, 49.7704816], [5.9677714, 49.7701507], [5.9678594, 49.7698948], [5.9678948, 49.7697918], [5.9679012, 49.7697733], [5.9679522, 49.7696251], [5.9679449, 49.7696248], [5.9675136, 49.7696059], [5.9670853, 49.7696001], [5.9665843, 49.7696033], [5.9659583, 49.7696247], [5.9659356, 49.769504], [5.9659272, 49.7694592], [5.9658761, 49.7691872], [5.9658701, 49.7691554], [5.9658548, 49.769074], [5.9658383, 49.7689676], [5.9658126, 49.7688012], [5.9658037, 49.7687441], [5.9657636, 49.7684856], [5.9657422, 49.7683673], [5.9657294, 49.7682963], [5.9653118, 49.7683112], [5.9649374, 49.7683093], [5.9646929, 49.768308], [5.964643, 49.7682038], [5.9645555, 49.76798], [5.9644785, 49.7677378], [5.9644411, 49.7675753], [5.9643885, 49.7672852], [5.9643786, 49.767182], [5.9643683, 49.7670993], [5.9640443, 49.7670987], [5.9637079, 49.7670981], [5.9637101, 49.7668601], [5.9637112, 49.7667406], [5.9637282, 49.7662656], [5.9633855, 49.7662691], [5.9629018, 49.7662742], [5.9625288, 49.766278], [5.962504, 49.766045], [5.9624892, 49.765854], [5.9624746, 49.7656068], [5.9624669, 49.7653882], [5.9624694, 49.7651983], [5.962479, 49.7649848], [5.9624939, 49.7647771], [5.9624964, 49.7647484], [5.9624995, 49.7647143], [5.9626362, 49.7637737], [5.9625856, 49.76377], [5.962552, 49.7639987], [5.9625292, 49.7639971], [5.9622786, 49.7639799], [5.9620914, 49.7639741], [5.9618714, 49.76397], [5.9616604, 49.7639733], [5.9613482, 49.7639874], [5.961155, 49.7640017], [5.9607357, 49.7640467], [5.9603282, 49.7641064], [5.9600428, 49.7641465], [5.960002, 49.7641514], [5.9600361, 49.7640889], [5.9600774, 49.7639736], [5.9601262, 49.7638447], [5.9602759, 49.7635127], [5.9603862, 49.7633119], [5.9604665, 49.7631888], [5.9606454, 49.7629699], [5.9607852, 49.7628251], [5.9609378, 49.7626975], [5.9610811, 49.7625687], [5.9612217, 49.7624197], [5.9612519, 49.7623632], [5.961318, 49.7622517], [5.9615723, 49.7617406], [5.9616285, 49.7616151], [5.9616234, 49.7615101], [5.9615753, 49.7614563], [5.9615149, 49.7611177], [5.9614603, 49.7608835], [5.9614002, 49.7606265], [5.9613125, 49.7603124], [5.9608368, 49.7600946], [5.9604963, 49.7599307], [5.9599523, 49.7596385], [5.9597913, 49.7595426], [5.9594473, 49.7593376], [5.9590663, 49.7591106], [5.9590382, 49.7590941], [5.959033, 49.7590911], [5.9587279, 49.7588999], [5.9583154, 49.7586468], [5.9582572, 49.758692], [5.9582163, 49.7587238], [5.9582009, 49.7587358], [5.9581788, 49.7587529], [5.9579005, 49.7589692], [5.9581832, 49.7592106], [5.9582656, 49.7592788], [5.9580041, 49.7594546], [5.9582448, 49.759559], [5.9584372, 49.7596472], [5.9585556, 49.7597137], [5.9588256, 49.7598934], [5.9587522, 49.759943], [5.9584303, 49.7601604], [5.9581561, 49.7603455], [5.9578045, 49.7605915], [5.9575785, 49.7607435], [5.9573321, 49.7609092], [5.9570898, 49.7607809], [5.9568474, 49.7606492], [5.9567612, 49.7607247], [5.956624, 49.7608452], [5.9563592, 49.7607164], [5.9565329, 49.7605645], [5.9561246, 49.7603889], [5.9558466, 49.7602598], [5.9553703, 49.7600374], [5.9552092, 49.7599586], [5.9548265, 49.759757], [5.9546787, 49.7596718], [5.9544647, 49.7595485], [5.9544736, 49.7595332], [5.9546466, 49.7592522], [5.9532877, 49.7584151], [5.9532232, 49.7584206], [5.9531958, 49.7583439], [5.9530998, 49.7582973], [5.9530752, 49.758308], [5.9530483, 49.7582967], [5.9527019, 49.7581041], [5.9522484, 49.757852], [5.9516249, 49.7575152], [5.9512494, 49.7573181], [5.9509792, 49.7571897], [5.9506812, 49.7570624], [5.9503573, 49.7574205], [5.9503533, 49.7574249], [5.9500234, 49.7578056], [5.9497791, 49.7581009], [5.9496485, 49.7582822], [5.9495346, 49.7584579], [5.9494191, 49.7586478], [5.9493653, 49.7587623], [5.9493484, 49.7588011], [5.9492539, 49.7589583], [5.9491123, 49.7589218], [5.9489249, 49.7588731], [5.9487326, 49.7588231], [5.9485117, 49.7587656], [5.9483734, 49.7587296], [5.9481382, 49.7586712], [5.9477065, 49.7585639], [5.9474749, 49.75893], [5.9473214, 49.7588395], [5.9471623, 49.758757], [5.9469661, 49.7586721], [5.9467478, 49.7585792], [5.9466238, 49.7585162], [5.946585, 49.7584933], [5.9465259, 49.7584486], [5.9464152, 49.7583428], [5.94638, 49.7583091], [5.9463283, 49.758269], [5.9462968, 49.7582495], [5.9462487, 49.75823], [5.946121, 49.7581772], [5.9460581, 49.7581429], [5.946022, 49.7581216], [5.9458651, 49.7580288], [5.9458177, 49.7580008], [5.945586, 49.7580785], [5.9454667, 49.7581185], [5.9450043, 49.7582878], [5.9449113, 49.7583219], [5.9448519, 49.7583389], [5.9447647, 49.7583478], [5.9445124, 49.7583748], [5.9443641, 49.7583756], [5.9442732, 49.7583743], [5.9442306, 49.7583719], [5.9441175, 49.7583592], [5.9440156, 49.7583441], [5.943847, 49.7583164], [5.9436135, 49.758268], [5.9432338, 49.758185], [5.9427651, 49.7580825], [5.9424391, 49.7580099], [5.9422557, 49.757973], [5.9421037, 49.7579476], [5.9419499, 49.7579291], [5.941772, 49.7579139], [5.9416367, 49.7578942], [5.9413347, 49.7578262], [5.9412477, 49.7578032], [5.9407606, 49.7576687], [5.9404124, 49.7575801], [5.9402549, 49.7575512], [5.9398176, 49.7574876], [5.9398024, 49.7574845], [5.9394045, 49.7574046], [5.9393562, 49.7573931], [5.9390248, 49.7573147], [5.9389648, 49.7572999], [5.9386291, 49.7572169], [5.9385079, 49.7571869], [5.9384747, 49.7571709], [5.9380064, 49.7573904], [5.9379564, 49.7573766], [5.9371491, 49.7571329], [5.9366195, 49.7569686], [5.9365429, 49.7570986], [5.9361873, 49.757018], [5.9359575, 49.756973], [5.9354573, 49.7568749], [5.9350516, 49.7567953], [5.9347923, 49.7567308], [5.9344387, 49.7566217], [5.9341866, 49.7565401], [5.9346206, 49.7561984], [5.934669, 49.7561563], [5.9348737, 49.7559968], [5.934924, 49.7559569], [5.935581, 49.7554422], [5.9354166, 49.7553162], [5.9345604, 49.7546975], [5.9341752, 49.7548971], [5.934148, 49.7549074], [5.9339592, 49.7549789], [5.933728, 49.7550665], [5.9331386, 49.7553075], [5.9329151, 49.7553989], [5.932527, 49.7555894], [5.9324705, 49.7556129], [5.9319467, 49.7558835], [5.931897, 49.7559092], [5.9318136, 49.7559522], [5.931461, 49.7561772], [5.931115, 49.7563877], [5.930806, 49.7566463], [5.93032, 49.7570632], [5.9298638, 49.7574574], [5.9296597, 49.7576345], [5.9296083, 49.7576791], [5.9295081, 49.7577661], [5.9295469, 49.7577844], [5.9305397, 49.7580217], [5.9309971, 49.758135], [5.9314454, 49.7582462], [5.9318547, 49.7583486], [5.9311465, 49.7589072], [5.9310822, 49.7589579], [5.9309295, 49.7590821], [5.9307921, 49.7591263], [5.9316181, 49.759817], [5.9318374, 49.7600004], [5.9320665, 49.760192], [5.9323282, 49.760132], [5.9324988, 49.7603275], [5.9326565, 49.7605083], [5.9324847, 49.7605497], [5.9320791, 49.7606476], [5.9308184, 49.7609579], [5.9296506, 49.7612501], [5.9296193, 49.7612653], [5.9294234, 49.7611404], [5.9294048, 49.7611518], [5.928634, 49.7619992], [5.9302226, 49.7622941], [5.9308173, 49.7624084], [5.9306395, 49.762738], [5.9310544, 49.7628428], [5.931397, 49.7629474], [5.9314472, 49.7629589], [5.9314433, 49.7629977], [5.9313652, 49.7634189], [5.9313423, 49.7635399], [5.9313103, 49.7636471], [5.9312053, 49.7638822], [5.9311192, 49.764043], [5.9310705, 49.7641331], [5.9310239, 49.7641809], [5.9309045, 49.7643269], [5.9306136, 49.7646677], [5.9305501, 49.76476], [5.9303931, 49.7650075], [5.9301443, 49.7654317], [5.9300694, 49.7655697], [5.9300415, 49.7655994], [5.9299297, 49.7657042], [5.9297341, 49.7658773], [5.9295403, 49.7660631], [5.9294657, 49.7661623], [5.9293816, 49.7662911], [5.9291946, 49.7665944], [5.9290713, 49.7667757], [5.9288735, 49.7670311], [5.9287428, 49.7672021], [5.9287095, 49.7671918], [5.928108, 49.7669325], [5.92799, 49.7667986], [5.9277374, 49.7668666], [5.9273008, 49.7662765], [5.9269894, 49.7658614], [5.9268511, 49.7656898], [5.9266224, 49.7654382], [5.9263697, 49.7651613], [5.9258962, 49.7652654], [5.925549, 49.76534], [5.9250881, 49.7654332], [5.9250793, 49.765435], [5.9248082, 49.7655006], [5.9243551, 49.7656196], [5.9238073, 49.7657566], [5.9230608, 49.7659423], [5.92206, 49.7658111], [5.9210383, 49.7656404], [5.9204854, 49.7655479]]]}}]}