{"type": "FeatureCollection", "features": [{"type": "Feature", "properties": {"name": "Jeannot Belling", "kind": "park"}, "geometry": {"type": "Polygon", "coordinates": [[[6.365365, 49.5434032], [6.3653795, 49.5433259], [6.3655043, 49.543198], [6.3653889, 49.5431275], [6.3655101, 49.5430359], [6.3655673, 49.5429926], [6.3654251, 49.5428838], [6.3654949, 49.5428308], [6.3653883, 49.5427221], [6.3653406, 49.5426734], [6.365169, 49.5424983], [6.3652594, 49.5423654], [6.3651717, 49.5422625], [6.3648029, 49.5419352], [6.3646037, 49.5417865], [6.3645755, 49.5417908], [6.3636267, 49.5423991], [6.3634457, 49.5425523], [6.363278, 49.5427585], [6.363211, 49.5429308], [6.3631922, 49.5431223], [6.3632391, 49.543178], [6.363504, 49.5432641], [6.3635241, 49.5432354], [6.3640257, 49.5433446], [6.3640083, 49.5433816], [6.3648579, 49.5434417], [6.3651371, 49.54349], [6.3651516, 49.5434565], [6.3651876, 49.5434309], [6.365365, 49.5434032]]]}}]}