{"type": "FeatureCollection", "features": [{"type": "Feature", "properties": {"name": "Junglinster"}, "geometry": {"type": "MultiPolygon", "coordinates": [[[[6.166998, 49.686916], [6.167017, 49.686943], [6.167208, 49.687054], [6.167795, 49.687347], [6.168001, 49.687447], [6.168119, 49.687492], [6.168959, 49.687748], [6.169626, 49.687946], [6.169882, 49.688007], [6.170435, 49.688126], [6.170603, 49.688175], [6.170813, 49.688244], [6.170992, 49.688305], [6.171297, 49.688427], [6.171503, 49.688507], [6.171846, 49.688663], [6.172316, 49.688873], [6.172968, 49.68917], [6.173193, 49.689255], [6.173468, 49.689354], [6.173807, 49.689438], [6.174154, 49.689495], [6.174421, 49.68952], [6.174704, 49.689537], [6.174978, 49.68954], [6.175226, 49.689545], [6.175398, 49.68954], [6.175455, 49.68954], [6.175604, 49.68955], [6.175695, 49.689552], [6.176092, 49.689495], [6.176325, 49.689453], [6.176428, 49.689434], [6.176554, 49.689407], [6.176668, 49.68938], [6.176802, 49.68935], [6.176931, 49.689312], [6.177027, 49.68928], [6.177065, 49.689266], [6.177153, 49.689236], [6.177317, 49.68939], [6.177347, 49.689415], [6.177504, 49.68956], [6.177572, 49.689625], [6.177618, 49.68967], [6.177675, 49.68972], [6.177896, 49.689934], [6.178026, 49.69001], [6.178156, 49.690083], [6.178205, 49.69011], [6.178419, 49.690224], [6.178602, 49.69032], [6.178663, 49.690353], [6.178896, 49.690475], [6.179079, 49.690575], [6.179354, 49.69038], [6.179487, 49.69029], [6.179647, 49.690174], [6.179777, 49.690086], [6.179836, 49.690043], [6.179861, 49.690025], [6.180231, 49.690216], [6.180426, 49.69032], [6.180597, 49.69043], [6.180746, 49.69053], [6.180899, 49.690643], [6.180983, 49.690723], [6.181074, 49.69083], [6.181139, 49.690926], [6.1812, 49.69104], [6.181227, 49.691135], [6.181234, 49.691208], [6.181238, 49.69126], [6.181234, 49.691326], [6.181219, 49.691395], [6.181189, 49.691475], [6.181158, 49.691536], [6.18112, 49.69159], [6.181108, 49.691605], [6.18099, 49.69177], [6.181055, 49.69183], [6.181166, 49.691906], [6.181498, 49.692142], [6.18162, 49.69223], [6.181936, 49.692455], [6.182077, 49.692554], [6.182924, 49.693153], [6.18265, 49.693302], [6.182459, 49.6934], [6.182234, 49.693527], [6.182066, 49.69363], [6.181833, 49.693794], [6.181784, 49.693832], [6.181726, 49.693874], [6.181589, 49.693985], [6.181437, 49.694115], [6.181131, 49.69436], [6.181067, 49.694405], [6.180551, 49.694748], [6.180441, 49.69483], [6.180342, 49.69491], [6.180254, 49.69499], [6.180166, 49.695076], [6.180101, 49.695145], [6.180071, 49.695187], [6.179964, 49.69532], [6.179911, 49.6954], [6.179857, 49.695496], [6.179823, 49.69556], [6.179304, 49.69598], [6.179075, 49.696167], [6.17959, 49.69642], [6.180502, 49.69685], [6.181078, 49.69712], [6.181017, 49.69719], [6.181154, 49.697235], [6.181265, 49.69726], [6.181368, 49.69728], [6.181482, 49.69729], [6.181555, 49.69729], [6.181688, 49.697277], [6.181749, 49.697266], [6.181833, 49.697258], [6.181902, 49.697254], [6.181978, 49.697258], [6.182043, 49.69727], [6.182108, 49.697285], [6.182165, 49.697315], [6.182253, 49.697346], [6.182356, 49.69736], [6.182501, 49.69737], [6.182585, 49.697388], [6.182657, 49.697426], [6.182753, 49.6975], [6.182836, 49.697582], [6.18289, 49.697613], [6.182962, 49.697662], [6.183035, 49.697735], [6.183081, 49.697803], [6.183104, 49.69782], [6.183146, 49.697838], [6.18321, 49.697845], [6.183317, 49.697865], [6.183461, 49.697914], [6.18354, 49.697941], [6.183596, 49.69796], [6.183836, 49.698166], [6.183851, 49.698307], [6.184019, 49.698368], [6.184133, 49.69842], [6.18424, 49.69848], [6.18437, 49.69857], [6.184488, 49.698673], [6.184561, 49.698742], [6.184693, 49.698739], [6.184915, 49.698734], [6.184973, 49.69876], [6.185045, 49.69896], [6.185053, 49.698997], [6.185022, 49.6991], [6.184984, 49.699104], [6.184946, 49.699116], [6.184942, 49.699127], [6.184961, 49.69916], [6.185015, 49.699226], [6.185179, 49.699406], [6.185255, 49.699577], [6.185263, 49.69961], [6.185255, 49.69963], [6.185068, 49.699886], [6.184915, 49.700096], [6.184797, 49.700253], [6.184652, 49.700455], [6.184588, 49.700542], [6.184549, 49.7006], [6.184511, 49.700645], [6.184362, 49.700836], [6.183817, 49.70148], [6.183779, 49.701515], [6.183748, 49.701546], [6.184149, 49.701824], [6.184294, 49.701927], [6.184889, 49.702335], [6.184961, 49.702526], [6.185053, 49.702763], [6.185076, 49.702827], [6.18511, 49.70291], [6.185133, 49.702976], [6.185225, 49.70322], [6.18545, 49.70412], [6.185453, 49.704155], [6.185526, 49.704487], [6.185579, 49.704643], [6.185625, 49.70478], [6.185736, 49.70494], [6.185846, 49.705086], [6.186052, 49.705307], [6.186247, 49.70549], [6.186491, 49.705685], [6.186674, 49.705822], [6.186899, 49.705975], [6.186995, 49.706036], [6.187231, 49.706184], [6.187075, 49.706326], [6.187029, 49.706367], [6.186792, 49.706585], [6.186735, 49.70664], [6.186449, 49.706917], [6.186369, 49.70699], [6.186209, 49.70714], [6.18614, 49.707207], [6.186136, 49.707226], [6.185926, 49.708042], [6.185957, 49.70818], [6.185987, 49.708305], [6.186022, 49.70846], [6.186113, 49.708565], [6.186472, 49.70898], [6.186781, 49.709312], [6.186796, 49.70933], [6.186789, 49.709476], [6.186789, 49.709534], [6.186785, 49.709682], [6.186785, 49.709763], [6.186777, 49.70996], [6.186777, 49.710102], [6.186789, 49.71019], [6.186819, 49.710278], [6.18688, 49.710472], [6.187021, 49.71091], [6.187067, 49.711056], [6.18701, 49.71118], [6.18696, 49.711304], [6.186911, 49.711422], [6.186838, 49.711605], [6.186815, 49.71167], [6.186804, 49.712337], [6.1868, 49.712894], [6.186514, 49.713528], [6.186365, 49.713627], [6.185953, 49.713913], [6.185541, 49.714195], [6.185472, 49.714237], [6.185206, 49.714397], [6.185015, 49.714508], [6.184893, 49.71458], [6.18516, 49.71471], [6.185709, 49.714993], [6.186266, 49.715275], [6.186564, 49.715424], [6.187319, 49.71579], [6.18791, 49.71608], [6.188059, 49.716152], [6.188478, 49.71636], [6.188951, 49.71659], [6.189001, 49.716618], [6.189055, 49.71664], [6.189184, 49.716705], [6.189394, 49.716812], [6.189451, 49.71684], [6.189737, 49.716972], [6.1905, 49.717304], [6.19084, 49.717453], [6.191381, 49.717686], [6.191919, 49.717922], [6.19235, 49.718113], [6.192373, 49.718124], [6.192392, 49.718132], [6.192423, 49.718143], [6.193094, 49.71844], [6.193136, 49.718464], [6.193502, 49.718624], [6.193514, 49.718628], [6.193582, 49.718662], [6.19441, 49.719032], [6.194857, 49.719227], [6.195085, 49.719326], [6.195379, 49.719456], [6.195948, 49.7197], [6.196207, 49.719723], [6.196436, 49.719734], [6.196711, 49.719746], [6.197058, 49.71976], [6.197416, 49.719776], [6.197752, 49.7198], [6.197905, 49.719814], [6.198072, 49.71983], [6.198275, 49.71984], [6.198576, 49.719852], [6.198732, 49.71986], [6.19882, 49.71987], [6.198969, 49.7199], [6.199072, 49.719925], [6.199305, 49.719994], [6.19945, 49.72004], [6.199655, 49.720116], [6.199835, 49.720184], [6.200022, 49.72027], [6.200132, 49.720318], [6.200235, 49.720356], [6.20038, 49.7204], [6.200506, 49.720448], [6.20072, 49.720524], [6.200979, 49.720608], [6.201189, 49.720673], [6.20138, 49.720722], [6.201551, 49.720768], [6.201601, 49.720783], [6.201662, 49.72081], [6.201796, 49.72086], [6.201895, 49.720882], [6.202169, 49.72092], [6.202265, 49.72094], [6.202394, 49.72097], [6.202543, 49.721], [6.202661, 49.72102], [6.202898, 49.72102], [6.203001, 49.721024], [6.203051, 49.72102], [6.203066, 49.72102], [6.203058, 49.721035], [6.202978, 49.721172], [6.202803, 49.721485], [6.202581, 49.721912], [6.202249, 49.722248], [6.201925, 49.722572], [6.201902, 49.72262], [6.201902, 49.72265], [6.201914, 49.722767], [6.201944, 49.723045], [6.201948, 49.723263], [6.201963, 49.723267], [6.202383, 49.723392], [6.202604, 49.723454], [6.20289, 49.72353], [6.202997, 49.723553], [6.204447, 49.7238], [6.204428, 49.723835], [6.204413, 49.72387], [6.204199, 49.72432], [6.204222, 49.72433], [6.204599, 49.724464], [6.204657, 49.724487], [6.204695, 49.724506], [6.20476, 49.724537], [6.204809, 49.724564], [6.204863, 49.724598], [6.204947, 49.72466], [6.205011, 49.72471], [6.205118, 49.72479], [6.205389, 49.72499], [6.205454, 49.725033], [6.205542, 49.725086], [6.205687, 49.72517], [6.205782, 49.725212], [6.205851, 49.72524], [6.205908, 49.725266], [6.205999, 49.7253], [6.206247, 49.725403], [6.205744, 49.726376], [6.205675, 49.726498], [6.207251, 49.72736], [6.207327, 49.727398], [6.20743, 49.727448], [6.208425, 49.727882], [6.209513, 49.728107], [6.209547, 49.728115], [6.209833, 49.728172], [6.210241, 49.728245], [6.210531, 49.72829], [6.210993, 49.728348], [6.2111, 49.728355], [6.211237, 49.72837], [6.211302, 49.728374], [6.211348, 49.728374], [6.211431, 49.72838], [6.211893, 49.728397], [6.21208, 49.7284], [6.21266, 49.728527], [6.212976, 49.728622], [6.213614, 49.728825], [6.214029, 49.72937], [6.213949, 49.72991], [6.214125, 49.730015], [6.215094, 49.73061], [6.216204, 49.731262], [6.216429, 49.731445], [6.216707, 49.731667], [6.216997, 49.73191], [6.217302, 49.732174], [6.217402, 49.732254], [6.217771, 49.732407], [6.218248, 49.732594], [6.218794, 49.732807], [6.219896, 49.733685], [6.220114, 49.73385], [6.220179, 49.733917], [6.220331, 49.734108], [6.220499, 49.734306], [6.220537, 49.734356], [6.220594, 49.73445], [6.220762, 49.73475], [6.220762, 49.734814], [6.220747, 49.73498], [6.220735, 49.73505], [6.220728, 49.73509], [6.220735, 49.73512], [6.220758, 49.735172], [6.220854, 49.735348], [6.221422, 49.735313], [6.221827, 49.736107], [6.221987, 49.73643], [6.222055, 49.73652], [6.222166, 49.73676], [6.222567, 49.737534], [6.222567, 49.73779], [6.222609, 49.73804], [6.222719, 49.73859], [6.222803, 49.738914], [6.223036, 49.739292], [6.223028, 49.73932], [6.223127, 49.73946], [6.224295, 49.741127], [6.224474, 49.74133], [6.224661, 49.741543], [6.224909, 49.741833], [6.225096, 49.74205], [6.225302, 49.742287], [6.225302, 49.742603], [6.225306, 49.74271], [6.225313, 49.74285], [6.225321, 49.742935], [6.225325, 49.743], [6.225344, 49.7432], [6.225363, 49.743313], [6.225374, 49.743362], [6.225405, 49.743492], [6.22542, 49.74355], [6.225534, 49.744026], [6.22558, 49.744205], [6.225614, 49.74437], [6.225637, 49.74449], [6.225649, 49.744545], [6.22566, 49.744625], [6.225691, 49.74482], [6.225729, 49.745132], [6.225779, 49.74549], [6.225794, 49.745575], [6.225809, 49.745636], [6.225824, 49.745686], [6.225855, 49.74575], [6.22603, 49.74605], [6.226145, 49.746254], [6.226202, 49.746357], [6.226233, 49.746407], [6.226255, 49.746456], [6.226259, 49.746487], [6.226252, 49.746513], [6.22624, 49.746544], [6.226206, 49.74662], [6.226172, 49.74668], [6.226118, 49.746746], [6.226088, 49.746777], [6.226034, 49.746807], [6.225946, 49.746845], [6.225977, 49.74694], [6.226015, 49.747055], [6.226057, 49.747128], [6.226099, 49.747192], [6.226152, 49.74726], [6.226263, 49.747387], [6.226492, 49.747646], [6.226561, 49.74772], [6.226698, 49.747875], [6.226908, 49.74811], [6.227095, 49.748318], [6.227263, 49.7485], [6.2274, 49.748653], [6.227426, 49.748856], [6.227484, 49.74914], [6.227503, 49.74926], [6.227522, 49.74936], [6.227533, 49.74944], [6.227587, 49.74972], [6.227869, 49.74955], [6.228193, 49.749332], [6.228231, 49.749073], [6.228487, 49.748894], [6.229067, 49.748447], [6.229219, 49.74835], [6.22938, 49.748253], [6.229498, 49.748188], [6.229864, 49.74799], [6.230146, 49.74784], [6.230284, 49.747765], [6.230681, 49.747543], [6.230741, 49.747536], [6.230932, 49.747627], [6.231363, 49.74759], [6.232115, 49.74752], [6.232386, 49.747498], [6.233007, 49.74746], [6.233793, 49.747417], [6.234091, 49.747402], [6.234259, 49.74739], [6.234388, 49.74738], [6.23472, 49.74736], [6.23506, 49.747337], [6.235365, 49.74732], [6.235838, 49.74725], [6.23641, 49.747166], [6.236864, 49.747105], [6.23712, 49.747066], [6.237249, 49.747044], [6.23736, 49.74702], [6.23749, 49.746986], [6.237623, 49.746952], [6.237753, 49.746914], [6.238119, 49.746803], [6.238317, 49.746746], [6.238569, 49.746677], [6.23868, 49.746643], [6.23889, 49.746586], [6.238989, 49.746563], [6.23921, 49.746517], [6.239477, 49.746464], [6.24032, 49.74631], [6.240934, 49.746197], [6.241243, 49.746147], [6.241365, 49.74613], [6.241621, 49.746105], [6.242132, 49.746063], [6.242521, 49.746033], [6.242666, 49.74602], [6.242975, 49.746006], [6.243231, 49.746], [6.243452, 49.74599], [6.243978, 49.74597], [6.244379, 49.745956], [6.244833, 49.745945], [6.245142, 49.74593], [6.245287, 49.745926], [6.245443, 49.74592], [6.245504, 49.745914], [6.245611, 49.745914], [6.246328, 49.745884], [6.246729, 49.745865], [6.246824, 49.745865], [6.247088, 49.745857], [6.247145, 49.745853], [6.247236, 49.745853], [6.247553, 49.74584], [6.247892, 49.7458], [6.248434, 49.745728], [6.249083, 49.745605], [6.249235, 49.745537], [6.249411, 49.745464], [6.249605, 49.745396], [6.249842, 49.745304], [6.250166, 49.7452], [6.250269, 49.74518], [6.250376, 49.74516], [6.25049, 49.74514], [6.250643, 49.74512], [6.250822, 49.745106], [6.250879, 49.745102], [6.251207, 49.745083], [6.251753, 49.745075], [6.252417, 49.745075], [6.252661, 49.745083], [6.252878, 49.745087], [6.252955, 49.74509], [6.25313, 49.745094], [6.253519, 49.745113], [6.253782, 49.745125], [6.254328, 49.745155], [6.254717, 49.745174], [6.254988, 49.74519], [6.255018, 49.74519], [6.255022, 49.745064], [6.255076, 49.745068], [6.255339, 49.74509], [6.255598, 49.745113], [6.256254, 49.745163], [6.256369, 49.745174], [6.256945, 49.74522], [6.257074, 49.745224], [6.257166, 49.745224], [6.257196, 49.745228], [6.257303, 49.745228], [6.257765, 49.74523], [6.258047, 49.745235], [6.258108, 49.745235], [6.258455, 49.745266], [6.258661, 49.745277], [6.258745, 49.745285], [6.258875, 49.745296], [6.258959, 49.7453], [6.259069, 49.745308], [6.259298, 49.745316], [6.25952, 49.74532], [6.260118, 49.745335], [6.260298, 49.74534], [6.260488, 49.74535], [6.260721, 49.745365], [6.261045, 49.74539], [6.26156, 49.745426], [6.262007, 49.74529], [6.262137, 49.745247], [6.262609, 49.7451], [6.262987, 49.744984], [6.263205, 49.744915], [6.263357, 49.74485], [6.263632, 49.74468], [6.263964, 49.744476], [6.264299, 49.744263], [6.264337, 49.74425], [6.26441, 49.74432], [6.26483, 49.74426], [6.26486, 49.744255], [6.264933, 49.74432], [6.264959, 49.74432], [6.265188, 49.744328], [6.265623, 49.744324], [6.265768, 49.74432], [6.266111, 49.74432], [6.26647, 49.744324], [6.266501, 49.744324], [6.26655, 49.74432], [6.267096, 49.7443], [6.268839, 49.744217], [6.269434, 49.744205], [6.270437, 49.744194], [6.271402, 49.744198], [6.271528, 49.744213], [6.271643, 49.744225], [6.271723, 49.74423], [6.271807, 49.744232], [6.271887, 49.744232], [6.271982, 49.74423], [6.272078, 49.744236], [6.272219, 49.744236], [6.272295, 49.74423], [6.272367, 49.74422], [6.272425, 49.74421], [6.272509, 49.744198], [6.272547, 49.74419], [6.272654, 49.74418], [6.272749, 49.74417], [6.272833, 49.744164], [6.27302, 49.744164], [6.273184, 49.74416], [6.273466, 49.744164], [6.2735, 49.74417], [6.27355, 49.744183], [6.273691, 49.744217], [6.273786, 49.744236], [6.273947, 49.744267], [6.274088, 49.74429], [6.274214, 49.74431], [6.274271, 49.744316], [6.27437, 49.744328], [6.274485, 49.74434], [6.274607, 49.744347], [6.274702, 49.74435], [6.274771, 49.744347], [6.274794, 49.744343], [6.274855, 49.744335], [6.27495, 49.744316], [6.275049, 49.74429], [6.275171, 49.744255], [6.275263, 49.74422], [6.275385, 49.744167], [6.275469, 49.744125], [6.275511, 49.7441], [6.27553, 49.74409], [6.275694, 49.743984], [6.275743, 49.74395], [6.275778, 49.743923], [6.275827, 49.74389], [6.275866, 49.74386], [6.275892, 49.74383], [6.275915, 49.74381], [6.275953, 49.743782], [6.275995, 49.74376], [6.276022, 49.743744], [6.276056, 49.74373], [6.27619, 49.743687], [6.276316, 49.74364], [6.276358, 49.743626], [6.276499, 49.743572], [6.27656, 49.743553], [6.276777, 49.743504], [6.276888, 49.743477], [6.277163, 49.743412], [6.277327, 49.743378], [6.2777, 49.74329], [6.277941, 49.743237], [6.278086, 49.743206], [6.278498, 49.743114], [6.27891, 49.74303], [6.279154, 49.742977], [6.279364, 49.742935], [6.279417, 49.74297], [6.279703, 49.742916], [6.280069, 49.742844], [6.2805, 49.742767], [6.280626, 49.742744], [6.280695, 49.742733], [6.280809, 49.742725], [6.28113, 49.7427], [6.281252, 49.74269], [6.281424, 49.742672], [6.282156, 49.74257], [6.282282, 49.74252], [6.282343, 49.742462], [6.282389, 49.742424], [6.282442, 49.74239], [6.282499, 49.74235], [6.282564, 49.742317], [6.282659, 49.742283], [6.28274, 49.742256], [6.282846, 49.74223], [6.282946, 49.742207], [6.283106, 49.742176], [6.283285, 49.7421], [6.283491, 49.74201], [6.283682, 49.74192], [6.283876, 49.741817], [6.284086, 49.741695], [6.28433, 49.741547], [6.284578, 49.741398], [6.284677, 49.741337], [6.284727, 49.741306], [6.284777, 49.741276], [6.285063, 49.74109], [6.285269, 49.740955], [6.285467, 49.74083], [6.286123, 49.740925], [6.286268, 49.740948], [6.286303, 49.74095], [6.286371, 49.74096], [6.286493, 49.74098], [6.287035, 49.74105], [6.287229, 49.741077], [6.287325, 49.741093], [6.287466, 49.74111], [6.287787, 49.741158], [6.287855, 49.741165], [6.28787, 49.74117], [6.288298, 49.741226], [6.288401, 49.74074], [6.288633, 49.74064], [6.288855, 49.740547], [6.289141, 49.740402], [6.28919, 49.74038], [6.28924, 49.74036], [6.289347, 49.74033], [6.289431, 49.74031], [6.289732, 49.740257], [6.289873, 49.74023], [6.290102, 49.740173], [6.290453, 49.74009], [6.290819, 49.739994], [6.291143, 49.739902], [6.291079, 49.73985], [6.291048, 49.73983], [6.291025, 49.73981], [6.290937, 49.739746], [6.290876, 49.7397], [6.290815, 49.73966], [6.290739, 49.739613], [6.29067, 49.739574], [6.291265, 49.739494], [6.292292, 49.73936], [6.292452, 49.73934], [6.292616, 49.739323], [6.293035, 49.73927], [6.293665, 49.739193], [6.293966, 49.739162], [6.294088, 49.739143], [6.294218, 49.73912], [6.294745, 49.739017], [6.295565, 49.738853], [6.295805, 49.738667], [6.296137, 49.738407], [6.296259, 49.73831], [6.296373, 49.738335], [6.297419, 49.73855], [6.298418, 49.738747], [6.298784, 49.73815], [6.298872, 49.738018], [6.298891, 49.737984], [6.298952, 49.737885], [6.299055, 49.73772], [6.29907, 49.737698], [6.299116, 49.73763], [6.299135, 49.73759], [6.299223, 49.737453], [6.299475, 49.737064], [6.299662, 49.736763], [6.299711, 49.73669], [6.29981, 49.736526], [6.299887, 49.736404], [6.299959, 49.73629], [6.300299, 49.736423], [6.300871, 49.736652], [6.300909, 49.736668], [6.300985, 49.73669], [6.301367, 49.73684], [6.301542, 49.7369], [6.301706, 49.73696], [6.301893, 49.737026], [6.301958, 49.737045], [6.302, 49.73706], [6.302088, 49.737087], [6.302237, 49.73713], [6.302385, 49.737164], [6.302526, 49.737186], [6.30261, 49.737198], [6.302683, 49.737206], [6.302824, 49.737217], [6.302992, 49.737225], [6.303156, 49.737236], [6.303228, 49.73724], [6.303221, 49.737385], [6.303221, 49.7376], [6.303217, 49.73776], [6.304136, 49.737797], [6.304117, 49.737724], [6.304045, 49.737396], [6.303938, 49.736988], [6.303884, 49.736805], [6.30382, 49.73661], [6.303679, 49.736248], [6.303442, 49.735737], [6.303698, 49.735794], [6.303873, 49.735836], [6.304197, 49.73591], [6.304312, 49.735935], [6.304666, 49.73602], [6.304709, 49.735905], [6.304834, 49.73554], [6.305708, 49.735638], [6.306604, 49.73573], [6.307234, 49.735783], [6.307245, 49.735733], [6.307276, 49.73553], [6.307299, 49.735447], [6.30731, 49.735382], [6.307325, 49.735302], [6.307844, 49.73536], [6.308145, 49.73539], [6.30847, 49.73519], [6.308516, 49.735165], [6.308825, 49.73498], [6.309244, 49.73473], [6.309324, 49.734615], [6.309629, 49.73411], [6.309641, 49.73409], [6.310259, 49.734188], [6.311426, 49.734356], [6.312098, 49.734455], [6.31262, 49.734524], [6.313158, 49.734623], [6.313486, 49.734695], [6.314096, 49.734882], [6.314485, 49.735016], [6.314985, 49.73517], [6.315062, 49.735165], [6.315176, 49.735184], [6.316412, 49.735493], [6.316496, 49.735355], [6.317038, 49.735348], [6.31711, 49.735348], [6.3174, 49.735344], [6.317602, 49.73534], [6.31772, 49.73534], [6.317816, 49.735336], [6.317873, 49.735336], [6.318201, 49.735317], [6.318304, 49.735313], [6.318605, 49.735294], [6.31877, 49.73528], [6.318933, 49.735268], [6.319429, 49.735233], [6.319586, 49.735233], [6.319845, 49.73525], [6.319937, 49.735252], [6.320112, 49.73526], [6.320204, 49.735268], [6.320311, 49.735275], [6.320421, 49.735283], [6.320551, 49.735294], [6.3206, 49.735294], [6.320753, 49.735302], [6.320913, 49.735306], [6.321211, 49.735317], [6.321478, 49.73533], [6.321913, 49.735348], [6.321993, 49.73535], [6.32205, 49.73535], [6.322065, 49.7352], [6.322081, 49.73504], [6.322447, 49.73505], [6.323606, 49.735096], [6.324171, 49.735123], [6.324858, 49.73515], [6.324865, 49.73504], [6.325838, 49.73507], [6.326788, 49.7351], [6.326803, 49.734848], [6.326899, 49.73485], [6.327185, 49.73487], [6.327341, 49.73488], [6.327772, 49.734905], [6.327925, 49.734913], [6.328085, 49.73492], [6.328245, 49.734932], [6.328718, 49.73496], [6.32873, 49.734856], [6.328737, 49.73471], [6.328753, 49.734516], [6.328764, 49.734386], [6.328775, 49.734272], [6.328779, 49.734184], [6.328791, 49.734085], [6.328791, 49.73407], [6.328806, 49.733883], [6.328833, 49.73363], [6.328833, 49.73361], [6.328848, 49.73347], [6.328852, 49.733402], [6.328859, 49.733315], [6.328871, 49.733253], [6.328882, 49.73316], [6.328993, 49.73312], [6.329561, 49.733128], [6.330599, 49.733128], [6.331747, 49.733124], [6.331774, 49.733135], [6.332846, 49.733063], [6.332838, 49.733036], [6.332834, 49.73301], [6.332762, 49.732647], [6.332731, 49.732517], [6.332724, 49.732468], [6.33272, 49.732456], [6.33272, 49.732445], [6.332666, 49.73216], [6.332453, 49.73217], [6.332315, 49.732174], [6.332121, 49.732162], [6.332007, 49.73218], [6.331896, 49.732224], [6.331678, 49.73234], [6.331556, 49.73242], [6.331408, 49.732376], [6.331316, 49.732365], [6.330927, 49.732338], [6.330625, 49.732323], [6.330225, 49.732346], [6.329912, 49.73232], [6.329573, 49.732327], [6.329199, 49.732296], [6.32889, 49.7323], [6.328535, 49.73227], [6.327993, 49.732227], [6.327772, 49.73221], [6.327314, 49.73216], [6.327269, 49.73215], [6.327234, 49.732132], [6.326624, 49.73168], [6.326548, 49.73163], [6.326502, 49.73161], [6.326441, 49.731598], [6.32593, 49.731537], [6.325743, 49.731518], [6.325529, 49.7315], [6.325075, 49.731464], [6.325037, 49.731457], [6.324858, 49.731415], [6.324644, 49.73136], [6.324537, 49.73133], [6.324346, 49.731274], [6.324289, 49.731266], [6.324217, 49.731262], [6.324091, 49.73127], [6.324011, 49.73127], [6.32395, 49.731262], [6.323809, 49.73123], [6.323709, 49.731194], [6.32361, 49.731163], [6.323538, 49.731148], [6.323477, 49.73114], [6.323343, 49.73114], [6.323217, 49.73115], [6.323015, 49.73117], [6.322603, 49.731205], [6.322512, 49.73121], [6.322123, 49.73121], [6.321951, 49.731205], [6.321894, 49.731205], [6.321581, 49.73118], [6.321447, 49.731167], [6.321115, 49.73112], [6.320806, 49.731075], [6.32081, 49.731056], [6.320894, 49.73082], [6.321039, 49.730396], [6.321131, 49.730183], [6.321115, 49.729843], [6.321104, 49.729565], [6.321108, 49.729523], [6.321115, 49.729214], [6.321112, 49.729164], [6.321112, 49.729084], [6.321108, 49.728912], [6.321108, 49.728863], [6.321104, 49.728664], [6.321112, 49.728622], [6.321131, 49.72848], [6.321142, 49.728447], [6.321157, 49.728405], [6.321203, 49.728302], [6.32123, 49.728252], [6.32128, 49.728184], [6.321333, 49.728123], [6.321367, 49.728085], [6.32152, 49.727924], [6.321752, 49.727684], [6.321184, 49.72736], [6.321123, 49.72732], [6.320936, 49.7272], [6.32089, 49.72717], [6.320536, 49.72691], [6.320478, 49.726852], [6.320158, 49.726547], [6.320108, 49.726494], [6.319819, 49.72621], [6.319597, 49.72599], [6.319372, 49.725773], [6.319159, 49.725563], [6.318579, 49.725014], [6.318323, 49.724773], [6.318075, 49.724545], [6.318174, 49.72439], [6.318304, 49.724186], [6.318327, 49.724148], [6.318468, 49.72393], [6.318495, 49.723873], [6.318506, 49.723835], [6.318529, 49.72374], [6.318579, 49.72371], [6.318327, 49.723553], [6.318235, 49.7235], [6.318132, 49.723434], [6.317934, 49.723316], [6.317869, 49.723274], [6.31756, 49.72309], [6.317499, 49.723053], [6.317388, 49.72297], [6.317183, 49.722843], [6.316813, 49.72261], [6.316763, 49.72258], [6.31666, 49.72261], [6.316603, 49.722626], [6.316576, 49.722633], [6.316469, 49.722652], [6.316416, 49.72266], [6.316267, 49.722675], [6.316206, 49.722683], [6.316065, 49.7227], [6.31603, 49.722702], [6.315947, 49.72271], [6.31568, 49.722733], [6.315653, 49.722733], [6.315615, 49.722736], [6.315588, 49.722736], [6.315352, 49.722744], [6.315268, 49.722744], [6.315214, 49.722748], [6.315001, 49.722755], [6.314936, 49.722755], [6.314802, 49.72276], [6.314505, 49.722767], [6.314638, 49.722565], [6.314676, 49.722504], [6.31502, 49.722], [6.315073, 49.72192], [6.315252, 49.72166], [6.315371, 49.721508], [6.315699, 49.721096], [6.315939, 49.720787], [6.316168, 49.72049], [6.316236, 49.7204], [6.316263, 49.720367], [6.31703, 49.720596], [6.318071, 49.720894], [6.318258, 49.720943], [6.318499, 49.72073], [6.318693, 49.720528], [6.318792, 49.720375], [6.318861, 49.72025], [6.318956, 49.72009], [6.319101, 49.719856], [6.319422, 49.719414], [6.319704, 49.719], [6.319952, 49.718555], [6.319998, 49.71847], [6.320036, 49.718353], [6.320135, 49.717964], [6.320185, 49.717327], [6.320238, 49.716774], [6.320288, 49.71661], [6.320696, 49.716057], [6.320841, 49.715805], [6.321039, 49.71555], [6.321341, 49.715282], [6.321928, 49.71453], [6.322157, 49.71428], [6.322378, 49.714054], [6.32255, 49.71393], [6.32271, 49.713825], [6.323088, 49.713726], [6.323225, 49.7137], [6.323229, 49.71366], [6.323267, 49.71309], [6.32332, 49.71289], [6.323172, 49.712727], [6.323084, 49.71266], [6.322908, 49.71257], [6.32284, 49.712532], [6.322496, 49.712444], [6.322428, 49.712425], [6.322027, 49.712353], [6.321569, 49.712265], [6.321508, 49.712254], [6.320585, 49.712063], [6.320917, 49.71172], [6.321012, 49.71162], [6.321058, 49.711586], [6.321073, 49.71157], [6.321241, 49.711433], [6.321261, 49.711414], [6.321493, 49.71122], [6.321588, 49.711136], [6.321631, 49.7111], [6.32173, 49.711018], [6.321833, 49.71093], [6.321947, 49.71083], [6.321993, 49.710793], [6.322065, 49.71073], [6.322187, 49.71063], [6.322222, 49.710598], [6.322413, 49.71043], [6.322496, 49.71035], [6.322569, 49.710285], [6.322756, 49.71009], [6.322885, 49.709957], [6.323011, 49.709824], [6.323385, 49.709435], [6.323439, 49.709377], [6.32353, 49.709286], [6.323755, 49.709053], [6.324408, 49.708366], [6.322939, 49.70787], [6.32255, 49.707756], [6.322283, 49.70768], [6.321459, 49.707493], [6.321596, 49.707054], [6.321657, 49.70697], [6.321684, 49.70692], [6.321619, 49.70681], [6.321531, 49.7067], [6.32144, 49.706604], [6.321272, 49.70648], [6.320944, 49.706303], [6.320387, 49.706066], [6.320227, 49.70597], [6.320002, 49.705875], [6.319841, 49.705845], [6.319716, 49.70584], [6.319509, 49.705853], [6.319342, 49.70583], [6.319189, 49.70578], [6.319059, 49.705578], [6.318815, 49.705326], [6.318685, 49.705208], [6.318552, 49.705147], [6.318335, 49.70508], [6.317774, 49.704887], [6.317438, 49.704765], [6.316889, 49.704536], [6.316511, 49.70438], [6.31613, 49.704254], [6.31592, 49.704178], [6.315859, 49.704147], [6.315771, 49.704086], [6.315668, 49.704], [6.315615, 49.703968], [6.315527, 49.703938], [6.314909, 49.703835], [6.31455, 49.703773], [6.314314, 49.703716], [6.313848, 49.703598], [6.313486, 49.70349], [6.313349, 49.703434], [6.313127, 49.703327], [6.313021, 49.7033], [6.312887, 49.703278], [6.312685, 49.703255], [6.312628, 49.70324], [6.312521, 49.703213], [6.312445, 49.703205], [6.312193, 49.70321], [6.312063, 49.703217], [6.311983, 49.70321], [6.31188, 49.703182], [6.311789, 49.70316], [6.311571, 49.703136], [6.311422, 49.70311], [6.311335, 49.70309], [6.311243, 49.70308], [6.311163, 49.70308], [6.31106, 49.70309], [6.310907, 49.703114], [6.310675, 49.70314], [6.310595, 49.70315], [6.310343, 49.70317], [6.31003, 49.703182], [6.309664, 49.70319], [6.309549, 49.703182], [6.309381, 49.703163], [6.309271, 49.703163], [6.308901, 49.703175], [6.308672, 49.70317], [6.308363, 49.70316], [6.308161, 49.703156], [6.308084, 49.70315], [6.307928, 49.703125], [6.307802, 49.703106], [6.307684, 49.7031], [6.307573, 49.703094], [6.30723, 49.703102], [6.307238, 49.703114], [6.307314, 49.703224], [6.307364, 49.703297], [6.307455, 49.703426], [6.307467, 49.70344], [6.307501, 49.703487], [6.307524, 49.703506], [6.30625, 49.70355], [6.305803, 49.703556], [6.304091, 49.703583], [6.303446, 49.703598], [6.302427, 49.70363], [6.301302, 49.70375], [6.300981, 49.703796], [6.300203, 49.703896], [6.299467, 49.703995], [6.299402, 49.704002], [6.299372, 49.70401], [6.299212, 49.703457], [6.29912, 49.703022], [6.298998, 49.70241], [6.298922, 49.701977], [6.298941, 49.701687], [6.298983, 49.70136], [6.299021, 49.701324], [6.299044, 49.701263], [6.299101, 49.7011], [6.299265, 49.700657], [6.299448, 49.700214], [6.299482, 49.70015], [6.299547, 49.70002], [6.299624, 49.69988], [6.299684, 49.69978], [6.299906, 49.6994], [6.300024, 49.699203], [6.300116, 49.69904], [6.300127, 49.699017], [6.300215, 49.698856], [6.300242, 49.69881], [6.300337, 49.69863], [6.300375, 49.698563], [6.300428, 49.698463], [6.300444, 49.698433], [6.300486, 49.69836], [6.300524, 49.698288], [6.300631, 49.698082], [6.300699, 49.697952], [6.300718, 49.697914], [6.300768, 49.697823], [6.300791, 49.697773], [6.300871, 49.697624], [6.300898, 49.697567], [6.300959, 49.697445], [6.301031, 49.69732], [6.301039, 49.697304], [6.301081, 49.697224], [6.3011, 49.697193], [6.301157, 49.697086], [6.301275, 49.696857], [6.301321, 49.69677], [6.301367, 49.696686], [6.301393, 49.696636], [6.301489, 49.69646], [6.30158, 49.696285], [6.301687, 49.69609], [6.301901, 49.69569], [6.302008, 49.695488], [6.302107, 49.695305], [6.302122, 49.695282], [6.302145, 49.695244], [6.30224, 49.695198], [6.302298, 49.695156], [6.302385, 49.695053], [6.302721, 49.6946], [6.303015, 49.694187], [6.302893, 49.694096], [6.30279, 49.694016], [6.30261, 49.69385], [6.302397, 49.693645], [6.302301, 49.693554], [6.302187, 49.693455], [6.302069, 49.693348], [6.301943, 49.693237], [6.301821, 49.69313], [6.301752, 49.693073], [6.301615, 49.692947], [6.301405, 49.692757], [6.301195, 49.692554], [6.301153, 49.692516], [6.301123, 49.6925], [6.301123, 49.69246], [6.301077, 49.692436], [6.301077, 49.692417], [6.301081, 49.692398], [6.30105, 49.69238], [6.301039, 49.69236], [6.301046, 49.69233], [6.30102, 49.692307], [6.301008, 49.69229], [6.301016, 49.692276], [6.301023, 49.69226], [6.301027, 49.692245], [6.301004, 49.692223], [6.300981, 49.692204], [6.300966, 49.692196], [6.300974, 49.69218], [6.300981, 49.69216], [6.300962, 49.69215], [6.300943, 49.692146], [6.300928, 49.69213], [6.300932, 49.6921], [6.300928, 49.69209], [6.300913, 49.69208], [6.300882, 49.692078], [6.300863, 49.692078], [6.300852, 49.692066], [6.300863, 49.69205], [6.300863, 49.692036], [6.300798, 49.69202], [6.300772, 49.69201], [6.300722, 49.691967], [6.300657, 49.691906], [6.300611, 49.691868], [6.300585, 49.691856], [6.300569, 49.691853], [6.300558, 49.69184], [6.300554, 49.691822], [6.300554, 49.691807], [6.300547, 49.691795], [6.300516, 49.691784], [6.300444, 49.691765], [6.300432, 49.691746], [6.300417, 49.691734], [6.300394, 49.69173], [6.300367, 49.69173], [6.300356, 49.691723], [6.300341, 49.691708], [6.300314, 49.6917], [6.300299, 49.691696], [6.300287, 49.69169], [6.300283, 49.691673], [6.300283, 49.69165], [6.300249, 49.691643], [6.300226, 49.69164], [6.300188, 49.691605], [6.300169, 49.691566], [6.300139, 49.69155], [6.300104, 49.69154], [6.300077, 49.691544], [6.300051, 49.69155], [6.300035, 49.69155], [6.300016, 49.691544], [6.300013, 49.691532], [6.300028, 49.691517], [6.300035, 49.691505], [6.300032, 49.691494], [6.299952, 49.691444], [6.299948, 49.691433], [6.299959, 49.69142], [6.299974, 49.691418], [6.299967, 49.691406], [6.299932, 49.691383], [6.299891, 49.69137], [6.299868, 49.691364], [6.299852, 49.691372], [6.299833, 49.69138], [6.299822, 49.691387], [6.29981, 49.69139], [6.299795, 49.69139], [6.299795, 49.691376], [6.29981, 49.69135], [6.299814, 49.69132], [6.299787, 49.691296], [6.299761, 49.691277], [6.299746, 49.69127], [6.299723, 49.691273], [6.299704, 49.691273], [6.299688, 49.69127], [6.299684, 49.691242], [6.2997, 49.691227], [6.299704, 49.69121], [6.299684, 49.691204], [6.299673, 49.691204], [6.299665, 49.69122], [6.299646, 49.69122], [6.299635, 49.691208], [6.29962, 49.69121], [6.299612, 49.691227], [6.299593, 49.691227], [6.299589, 49.691216], [6.299589, 49.69119], [6.299601, 49.69117], [6.299585, 49.691154], [6.299593, 49.69113], [6.299585, 49.69112], [6.299566, 49.691105], [6.299547, 49.6911], [6.299528, 49.69111], [6.299513, 49.691113], [6.299486, 49.691113], [6.299467, 49.6911], [6.299448, 49.691086], [6.299425, 49.691082], [6.29941, 49.69109], [6.299387, 49.691086], [6.299376, 49.69108], [6.299376, 49.691063], [6.299395, 49.69105], [6.29941, 49.691036], [6.299395, 49.691025], [6.29933, 49.691017], [6.299295, 49.691], [6.299272, 49.690987], [6.299261, 49.690952], [6.29925, 49.690926], [6.299238, 49.690907], [6.299185, 49.69088], [6.299177, 49.690865], [6.299166, 49.69085], [6.299147, 49.690845], [6.299131, 49.690853], [6.299116, 49.69086], [6.299093, 49.69086], [6.299074, 49.69085], [6.29907, 49.69083], [6.299074, 49.69081], [6.299067, 49.690792], [6.299051, 49.69077], [6.299013, 49.69075], [6.299002, 49.690727], [6.298998, 49.69071], [6.29899, 49.69068], [6.298971, 49.690678], [6.29896, 49.690674], [6.298952, 49.69066], [6.298944, 49.690643], [6.298902, 49.690636], [6.298891, 49.69063], [6.29888, 49.69061], [6.298853, 49.690594], [6.298834, 49.69059], [6.298815, 49.690594], [6.298796, 49.69059], [6.298777, 49.690567], [6.298769, 49.69055], [6.29875, 49.690544], [6.298697, 49.69053], [6.298658, 49.69051], [6.298513, 49.69042], [6.29846, 49.690376], [6.29833, 49.690292], [6.298269, 49.69024], [6.298246, 49.6902], [6.298223, 49.690147], [6.298189, 49.690105], [6.29814, 49.69006], [6.298105, 49.690025], [6.298071, 49.69], [6.298033, 49.68997], [6.298014, 49.689938], [6.297995, 49.689873], [6.297983, 49.68984], [6.297972, 49.68983], [6.297918, 49.689796], [6.297899, 49.689777], [6.298021, 49.689533], [6.297991, 49.689224], [6.298037, 49.68912], [6.298197, 49.688747], [6.298201, 49.688267], [6.298204, 49.68812], [6.298811, 49.688152], [6.299162, 49.688168], [6.299582, 49.68808], [6.29949, 49.687904], [6.298475, 49.68675], [6.299162, 49.686577], [6.299776, 49.686424], [6.299723, 49.686314], [6.299704, 49.68627], [6.299677, 49.686214], [6.299662, 49.686188], [6.299597, 49.686054], [6.299585, 49.686024], [6.299528, 49.68591], [6.299513, 49.685875], [6.299471, 49.685787], [6.29941, 49.685665], [6.299357, 49.685566], [6.299326, 49.6855], [6.299303, 49.68544], [6.299292, 49.685413], [6.299269, 49.685345], [6.299234, 49.685257], [6.299185, 49.68512], [6.29912, 49.684994], [6.299055, 49.68487], [6.299017, 49.6848], [6.299009, 49.684784], [6.298948, 49.684666], [6.29891, 49.684597], [6.2988, 49.684387], [6.298773, 49.68434], [6.29756, 49.684544], [6.296129, 49.684776], [6.296106, 49.684715], [6.296022, 49.68447], [6.295999, 49.684406], [6.295988, 49.68437], [6.295973, 49.68433], [6.295908, 49.684147], [6.295874, 49.684036], [6.295797, 49.683826], [6.295855, 49.683823], [6.295916, 49.683826], [6.295961, 49.683834], [6.296019, 49.68386], [6.296102, 49.68389], [6.296164, 49.683907], [6.296236, 49.683918], [6.296282, 49.683914], [6.296324, 49.683907], [6.296362, 49.68389], [6.296621, 49.6838], [6.296698, 49.683773], [6.29677, 49.683758], [6.296843, 49.68374], [6.296881, 49.683727], [6.296904, 49.68371], [6.296923, 49.68368], [6.296934, 49.683655], [6.296953, 49.683643], [6.296995, 49.68363], [6.297045, 49.68363], [6.29711, 49.683628], [6.297167, 49.683624], [6.297232, 49.68359], [6.297037, 49.683533], [6.29693, 49.683514], [6.296591, 49.68351], [6.296434, 49.683506], [6.296392, 49.683506], [6.296106, 49.683502], [6.295542, 49.683495], [6.295546, 49.683483], [6.295542, 49.68346], [6.295526, 49.68315], [6.295549, 49.68262], [6.295553, 49.68252], [6.295286, 49.682503], [6.295053, 49.682484], [6.294874, 49.682465], [6.294783, 49.682453], [6.294657, 49.682434], [6.294527, 49.682404], [6.29442, 49.682377], [6.294321, 49.682346], [6.294138, 49.682285], [6.293943, 49.682213], [6.293798, 49.68215], [6.293688, 49.6821], [6.293505, 49.682007], [6.293379, 49.68194], [6.293104, 49.682125], [6.293051, 49.682163], [6.292726, 49.68238], [6.292616, 49.68229], [6.292585, 49.68227], [6.292551, 49.68226], [6.292509, 49.68225], [6.292479, 49.682247], [6.292433, 49.68224], [6.292299, 49.682205], [6.292215, 49.68218], [6.292162, 49.682148], [6.29212, 49.682102], [6.292086, 49.68208], [6.292009, 49.682068], [6.291952, 49.682056], [6.291914, 49.682037], [6.291876, 49.68202], [6.291822, 49.682007], [6.29175, 49.681988], [6.291704, 49.68197], [6.291666, 49.681934], [6.291613, 49.681885], [6.291563, 49.68187], [6.291525, 49.68185], [6.291491, 49.68181], [6.291452, 49.68178], [6.291403, 49.68177], [6.291368, 49.68177], [6.291349, 49.68178], [6.291342, 49.6818], [6.29133, 49.681847], [6.291307, 49.681854], [6.291243, 49.68185], [6.291182, 49.681835], [6.29114, 49.681797], [6.29112, 49.68177], [6.291124, 49.681725], [6.291113, 49.681698], [6.291079, 49.681686], [6.291029, 49.681683], [6.290964, 49.681683], [6.290934, 49.68166], [6.290922, 49.681618], [6.290899, 49.68159], [6.290873, 49.681587], [6.290815, 49.68159], [6.290728, 49.681606], [6.290678, 49.68161], [6.290594, 49.681602], [6.290438, 49.681583], [6.290175, 49.681545], [6.2899, 49.681484], [6.289583, 49.681408], [6.289438, 49.68138], [6.289373, 49.68137], [6.289316, 49.681347], [6.289175, 49.681293], [6.289141, 49.681282], [6.288992, 49.68122], [6.288897, 49.68117], [6.288778, 49.68112], [6.288679, 49.681046], [6.288629, 49.681004], [6.28858, 49.680935], [6.288542, 49.680897], [6.288507, 49.680874], [6.288469, 49.680862], [6.288412, 49.68086], [6.288389, 49.680862], [6.288355, 49.680874], [6.288305, 49.680878], [6.288259, 49.680874], [6.288229, 49.68088], [6.288179, 49.680878], [6.288111, 49.680855], [6.288034, 49.68084], [6.287924, 49.6808], [6.28779, 49.680744], [6.287748, 49.680714], [6.287699, 49.68069], [6.287615, 49.680676], [6.287542, 49.680645], [6.287474, 49.680622], [6.287424, 49.680622], [6.287394, 49.680637], [6.287367, 49.68066], [6.28734, 49.680687], [6.287313, 49.68069], [6.287279, 49.68069], [6.287226, 49.68067], [6.287165, 49.680664], [6.287123, 49.680668], [6.287062, 49.680668], [6.286962, 49.680645], [6.286722, 49.680565], [6.286642, 49.680534], [6.2866, 49.680504], [6.286573, 49.680447], [6.286543, 49.680428], [6.286501, 49.680428], [6.28639, 49.68043], [6.286276, 49.680435], [6.286238, 49.680428], [6.286207, 49.68041], [6.286184, 49.68035], [6.286154, 49.680332], [6.286123, 49.68034], [6.286051, 49.680355], [6.285997, 49.680367], [6.28594, 49.680367], [6.285864, 49.680332], [6.285749, 49.68031], [6.285688, 49.680294], [6.285665, 49.68027], [6.285688, 49.68025], [6.285692, 49.68022], [6.285669, 49.6802], [6.285624, 49.680187], [6.285543, 49.680187], [6.285513, 49.680195], [6.285479, 49.680218], [6.285437, 49.680256], [6.285414, 49.680267], [6.285383, 49.68027], [6.285349, 49.680264], [6.285318, 49.680244], [6.285315, 49.680218], [6.285334, 49.680195], [6.285372, 49.680164], [6.285387, 49.68014], [6.285379, 49.680126], [6.285356, 49.68011], [6.285318, 49.680107], [6.285276, 49.680115], [6.285231, 49.68013], [6.285154, 49.68015], [6.285089, 49.680157], [6.285063, 49.68015], [6.285047, 49.680134], [6.285044, 49.680088], [6.285032, 49.68006], [6.284986, 49.680054], [6.28491, 49.68005], [6.284845, 49.680058], [6.284788, 49.680077], [6.284746, 49.68008], [6.284716, 49.68008], [6.284693, 49.680065], [6.284681, 49.680035], [6.284662, 49.68002], [6.284597, 49.68001], [6.284555, 49.680004], [6.284517, 49.679985], [6.284483, 49.67997], [6.284449, 49.679966], [6.28443, 49.679974], [6.284407, 49.68], [6.284338, 49.68002], [6.284296, 49.68002], [6.284224, 49.680042], [6.284151, 49.680046], [6.284121, 49.68004], [6.284105, 49.680023], [6.284105, 49.680008], [6.284132, 49.67998], [6.284143, 49.679962], [6.284124, 49.679943], [6.284086, 49.67993], [6.284056, 49.679935], [6.284006, 49.679955], [6.28393, 49.679962], [6.283854, 49.679962], [6.283823, 49.67995], [6.283827, 49.67993], [6.28385, 49.679916], [6.283888, 49.6799], [6.283892, 49.67988], [6.283865, 49.679863], [6.283831, 49.679863], [6.283796, 49.679848], [6.283758, 49.679817], [6.28372, 49.679817], [6.283682, 49.67983], [6.283663, 49.679848], [6.283663, 49.679882], [6.283651, 49.67991], [6.283625, 49.67992], [6.283575, 49.67992], [6.283518, 49.6799], [6.283503, 49.679886], [6.28351, 49.67987], [6.283567, 49.67981], [6.28359, 49.679787], [6.283579, 49.679768], [6.283541, 49.67975], [6.283503, 49.679745], [6.283445, 49.679752], [6.283411, 49.679768], [6.283373, 49.679794], [6.283304, 49.679825], [6.283243, 49.679836], [6.283178, 49.67983], [6.282991, 49.679802], [6.282812, 49.679768], [6.282633, 49.679745], [6.282568, 49.679733], [6.282538, 49.67971], [6.282515, 49.679676], [6.282476, 49.679653], [6.282427, 49.67963], [6.282343, 49.679626], [6.282305, 49.67962], [6.28227, 49.679604], [6.282247, 49.679585], [6.282194, 49.679573], [6.282129, 49.679573], [6.282061, 49.67958], [6.282003, 49.679585], [6.281969, 49.67957], [6.281935, 49.679543], [6.281908, 49.67951], [6.28187, 49.67949], [6.281775, 49.679478], [6.281645, 49.679474], [6.281584, 49.679462], [6.281538, 49.679432], [6.281488, 49.679363], [6.28145, 49.679337], [6.281416, 49.679325], [6.281378, 49.67933], [6.281347, 49.67934], [6.281332, 49.679356], [6.28134, 49.679382], [6.281374, 49.679417], [6.281385, 49.679432], [6.281378, 49.67945], [6.281351, 49.679466], [6.281305, 49.679478], [6.281229, 49.679485], [6.281149, 49.67948], [6.28108, 49.679462], [6.280992, 49.679436], [6.280928, 49.679432], [6.280859, 49.679447], [6.280703, 49.67949], [6.280657, 49.6795], [6.280619, 49.6795], [6.280584, 49.67948], [6.280569, 49.679455], [6.280569, 49.679436], [6.280588, 49.679417], [6.280634, 49.679405], [6.280695, 49.679405], [6.280733, 49.679398], [6.280741, 49.679375], [6.280737, 49.679363], [6.280714, 49.679344], [6.280664, 49.67933], [6.280626, 49.679333], [6.280584, 49.67935], [6.280539, 49.679375], [6.280481, 49.67939], [6.280451, 49.679394], [6.280417, 49.67939], [6.28039, 49.67938], [6.280374, 49.679363], [6.280378, 49.679348], [6.28039, 49.679333], [6.280394, 49.679317], [6.280367, 49.679302], [6.280333, 49.679306], [6.280291, 49.679306], [6.280241, 49.67929], [6.280207, 49.679287], [6.280172, 49.67929], [6.280134, 49.679306], [6.280104, 49.679314], [6.280069, 49.679314], [6.280027, 49.679295], [6.279955, 49.679245], [6.279913, 49.679226], [6.27989, 49.679222], [6.279867, 49.67923], [6.279848, 49.67925], [6.279844, 49.67929], [6.279856, 49.679314], [6.27989, 49.679333], [6.279936, 49.679344], [6.279989, 49.67935], [6.280005, 49.679363], [6.279993, 49.679375], [6.279959, 49.67939], [6.279909, 49.679413], [6.279867, 49.679436], [6.279833, 49.679462], [6.279802, 49.67948], [6.279772, 49.679485], [6.279745, 49.679478], [6.279741, 49.679455], [6.279741, 49.67942], [6.279722, 49.679386], [6.279684, 49.679363], [6.279646, 49.679337], [6.279635, 49.67931], [6.279638, 49.67927], [6.279654, 49.6792], [6.27965, 49.67918], [6.279623, 49.67917], [6.279589, 49.67917], [6.279585, 49.679153], [6.27957, 49.67911], [6.279516, 49.678967], [6.279497, 49.678905], [6.27944, 49.678825], [6.27936, 49.678738], [6.279104, 49.678566], [6.278872, 49.678402], [6.278646, 49.678265], [6.278486, 49.678173], [6.278208, 49.678047], [6.277933, 49.6779], [6.277376, 49.67759], [6.277121, 49.677452], [6.276556, 49.677254], [6.276426, 49.677197], [6.276342, 49.677162], [6.276144, 49.677067], [6.275869, 49.676933], [6.275545, 49.676765], [6.275389, 49.67668], [6.275038, 49.676502], [6.274672, 49.676315], [6.274103, 49.676], [6.274305, 49.675583], [6.273642, 49.675434], [6.273645, 49.67542], [6.273169, 49.675278], [6.272482, 49.67507], [6.272417, 49.675053], [6.272097, 49.67553], [6.272009, 49.675648], [6.271868, 49.67585], [6.271856, 49.675865], [6.271707, 49.676083], [6.271578, 49.676292], [6.271483, 49.676468], [6.271387, 49.676632], [6.271208, 49.676964], [6.271341, 49.677124], [6.27117, 49.67723], [6.27075, 49.6775], [6.270353, 49.677727], [6.270025, 49.677902], [6.269865, 49.677685], [6.269705, 49.677464], [6.269598, 49.67731], [6.269438, 49.67709], [6.269094, 49.676598], [6.269026, 49.67651], [6.268805, 49.67623], [6.26874, 49.676147], [6.268705, 49.676105], [6.268553, 49.676258], [6.268412, 49.67643], [6.268377, 49.67649], [6.268362, 49.67652], [6.268351, 49.67657], [6.268339, 49.676647], [6.26832, 49.67681], [6.268305, 49.676895], [6.26829, 49.676964], [6.268206, 49.677193], [6.268129, 49.67739], [6.268068, 49.677536], [6.268011, 49.677647], [6.267988, 49.677685], [6.267805, 49.67791], [6.267778, 49.677948], [6.267763, 49.678017], [6.267767, 49.67824], [6.267759, 49.678616], [6.267748, 49.678917], [6.267733, 49.679024], [6.267691, 49.679207], [6.267633, 49.67941], [6.267561, 49.679676], [6.267519, 49.679817], [6.267485, 49.67996], [6.267466, 49.6801], [6.267447, 49.6803], [6.267416, 49.680634], [6.267416, 49.680717], [6.267408, 49.68091], [6.267401, 49.68098], [6.267389, 49.68101], [6.267332, 49.68106], [6.267233, 49.681133], [6.266939, 49.68134], [6.266596, 49.681587], [6.266417, 49.681725], [6.266184, 49.68192], [6.265955, 49.682133], [6.265886, 49.682213], [6.265703, 49.682438], [6.265406, 49.6828], [6.265188, 49.683064], [6.264997, 49.68327], [6.264795, 49.68349], [6.26454, 49.683765], [6.26446, 49.683838], [6.264307, 49.683937], [6.264177, 49.68402], [6.264082, 49.684067], [6.26401, 49.68409], [6.263956, 49.6841], [6.263899, 49.68411], [6.263834, 49.68412], [6.263838, 49.684147], [6.263865, 49.68439], [6.263708, 49.684383], [6.263285, 49.684345], [6.263174, 49.684326], [6.262991, 49.68428], [6.262716, 49.68422], [6.262178, 49.684097], [6.261889, 49.6842], [6.26156, 49.684307], [6.261332, 49.684383], [6.261145, 49.68445], [6.261126, 49.684464], [6.261038, 49.68454], [6.260965, 49.684605], [6.260885, 49.684673], [6.260805, 49.684742], [6.259985, 49.684944], [6.259489, 49.685318], [6.259298, 49.685455], [6.259134, 49.68556], [6.259001, 49.685642], [6.258856, 49.685726], [6.25878, 49.685772], [6.258654, 49.68583], [6.258478, 49.685898], [6.25828, 49.685963], [6.258085, 49.68603], [6.257982, 49.68607], [6.257902, 49.686092], [6.257856, 49.686108], [6.257544, 49.686287], [6.257219, 49.685936], [6.257124, 49.68584], [6.257036, 49.685753], [6.256998, 49.68571], [6.256937, 49.685654], [6.256872, 49.685608], [6.256811, 49.68557], [6.256708, 49.685513], [6.256525, 49.685432], [6.25635, 49.685375], [6.256044, 49.685272], [6.255537, 49.685535], [6.25503, 49.68536], [6.254656, 49.685234], [6.254431, 49.685165], [6.25395, 49.685047], [6.25358, 49.68495], [6.253401, 49.684902], [6.25329, 49.684868], [6.253038, 49.685123], [6.252962, 49.685123], [6.252878, 49.685127], [6.252783, 49.685127], [6.252749, 49.685104], [6.252268, 49.684757], [6.252218, 49.684723], [6.252165, 49.68469], [6.252047, 49.68469], [6.251711, 49.6847], [6.251478, 49.684704], [6.251203, 49.684708], [6.251036, 49.684715], [6.250826, 49.684723], [6.250421, 49.68473], [6.250082, 49.68469], [6.249903, 49.684654], [6.249548, 49.684624], [6.249517, 49.68462], [6.249445, 49.684616], [6.249441, 49.684673], [6.249437, 49.68478], [6.249407, 49.684902], [6.249357, 49.685036], [6.249258, 49.685207], [6.249201, 49.685287], [6.249124, 49.68538], [6.249041, 49.685455], [6.24888, 49.685604], [6.248705, 49.68576], [6.248453, 49.685593], [6.248423, 49.685585], [6.247938, 49.68542], [6.247892, 49.68541], [6.24785, 49.685394], [6.24769, 49.685356], [6.247534, 49.685314], [6.247465, 49.6853], [6.247408, 49.685284], [6.247278, 49.68526], [6.247148, 49.68524], [6.246817, 49.685184], [6.245874, 49.685055], [6.245604, 49.68501], [6.245298, 49.684944], [6.244703, 49.684807], [6.244635, 49.68479], [6.244371, 49.68473], [6.2437, 49.68457], [6.242811, 49.684357], [6.242556, 49.6843], [6.242342, 49.68425], [6.241621, 49.68408], [6.241137, 49.683964], [6.241198, 49.684067], [6.241198, 49.68418], [6.241163, 49.684174], [6.239988, 49.683933], [6.239485, 49.683823], [6.239077, 49.683716], [6.238832, 49.683655], [6.238634, 49.683598], [6.238485, 49.68355], [6.238317, 49.683506], [6.238169, 49.68347], [6.237825, 49.68341], [6.237715, 49.683395], [6.237471, 49.683384], [6.237299, 49.683384], [6.237158, 49.683388], [6.23707, 49.683395], [6.236643, 49.68347], [6.236219, 49.683567], [6.235842, 49.68365], [6.235453, 49.68372], [6.235361, 49.683838], [6.235258, 49.683968], [6.23501, 49.684284], [6.234316, 49.685177], [6.234274, 49.685238], [6.234022, 49.685234], [6.233728, 49.68522], [6.233492, 49.685207], [6.233267, 49.685184], [6.233038, 49.685158], [6.232817, 49.685123], [6.232538, 49.685062], [6.232348, 49.685017], [6.231985, 49.684925], [6.231806, 49.684868], [6.231752, 49.68485], [6.23176, 49.684868], [6.2316, 49.684883], [6.231276, 49.684933], [6.231184, 49.684944], [6.231008, 49.684967], [6.230902, 49.684982], [6.230719, 49.685005], [6.230631, 49.685017], [6.230448, 49.68504], [6.230257, 49.685062], [6.229868, 49.685097], [6.229334, 49.685143], [6.229151, 49.685158], [6.228575, 49.6852], [6.22846, 49.685207], [6.228304, 49.68522], [6.227778, 49.68525], [6.227739, 49.68525], [6.227419, 49.685154], [6.22735, 49.68516], [6.227018, 49.6852], [6.226786, 49.685253], [6.226633, 49.68526], [6.226442, 49.68525], [6.226271, 49.68523], [6.226007, 49.685192], [6.225969, 49.685184], [6.225729, 49.68514], [6.225634, 49.685116], [6.225382, 49.685055], [6.225287, 49.685024], [6.2251, 49.68484], [6.22492, 49.684624], [6.224749, 49.684353], [6.22468, 49.68421], [6.224646, 49.68415], [6.22455, 49.683964], [6.224298, 49.68343], [6.224245, 49.683434], [6.224184, 49.68344], [6.224123, 49.68345], [6.22407, 49.683456], [6.223925, 49.68347], [6.223867, 49.68348], [6.223574, 49.683514], [6.223539, 49.683807], [6.223825, 49.684387], [6.223337, 49.684467], [6.223005, 49.684517], [6.222967, 49.684525], [6.223104, 49.684914], [6.223345, 49.685574], [6.222662, 49.68551], [6.222437, 49.685486], [6.222238, 49.685463], [6.220949, 49.685307], [6.22035, 49.685234], [6.219847, 49.685192], [6.219568, 49.685173], [6.219076, 49.685146], [6.218954, 49.685143], [6.218561, 49.68513], [6.218142, 49.685112], [6.21784, 49.685085], [6.217558, 49.685043], [6.217283, 49.684986], [6.217161, 49.684975], [6.216227, 49.6849], [6.215456, 49.68483], [6.215288, 49.684814], [6.214952, 49.684784], [6.214853, 49.684902], [6.214723, 49.684896], [6.214773, 49.684998], [6.21475, 49.685024], [6.214483, 49.685364], [6.214201, 49.685722], [6.214289, 49.686012], [6.214373, 49.6863], [6.214434, 49.686493], [6.214479, 49.686623], [6.214251, 49.687076], [6.214008, 49.687486], [6.213763, 49.687644], [6.213388, 49.688015], [6.213316, 49.688118], [6.213179, 49.688316], [6.213099, 49.688435], [6.212992, 49.688496], [6.212873, 49.688689], [6.212393, 49.688835], [6.212015, 49.68906], [6.211725, 49.689026], [6.211058, 49.688953], [6.210497, 49.688885], [6.210329, 49.688866], [6.209234, 49.688732], [6.207739, 49.68855], [6.207601, 49.688534], [6.206751, 49.68843], [6.205893, 49.68832], [6.20471, 49.68816], [6.204382, 49.688118], [6.204328, 49.688114], [6.203524, 49.688156], [6.2031, 49.688175], [6.202089, 49.688225], [6.201296, 49.688263], [6.201185, 49.688267], [6.200884, 49.68828], [6.20035, 49.688297], [6.20019, 49.688305], [6.199999, 49.688305], [6.199133, 49.688293], [6.198149, 49.688274], [6.197741, 49.688263], [6.197378, 49.688175], [6.196276, 49.68791], [6.196283, 49.68789], [6.196348, 49.68765], [6.196466, 49.687202], [6.196573, 49.68682], [6.196692, 49.68637], [6.197023, 49.6862], [6.19808, 49.685673], [6.198603, 49.684753], [6.197668, 49.684357], [6.19731, 49.68421], [6.196341, 49.68381], [6.195375, 49.683403], [6.194658, 49.68311], [6.19372, 49.68271], [6.193396, 49.682888], [6.193296, 49.682945], [6.193159, 49.683018], [6.193003, 49.683098], [6.192812, 49.683193], [6.192694, 49.683243], [6.192621, 49.683273], [6.192541, 49.683315], [6.192457, 49.68336], [6.191931, 49.683598], [6.191355, 49.683865], [6.190851, 49.6841], [6.190565, 49.684235], [6.190229, 49.684258], [6.189997, 49.684273], [6.189444, 49.684322], [6.188745, 49.68438], [6.188536, 49.6844], [6.188253, 49.684418], [6.188021, 49.684437], [6.187765, 49.68446], [6.187765, 49.684486], [6.18619, 49.68447], [6.185053, 49.684464], [6.183924, 49.684418], [6.182913, 49.684387], [6.18252, 49.684383], [6.18199, 49.6844], [6.181467, 49.68439], [6.181051, 49.684376], [6.180986, 49.684254], [6.180895, 49.684265], [6.180819, 49.684177], [6.180593, 49.683937], [6.180334, 49.683662], [6.179709, 49.683613], [6.179686, 49.683613], [6.179705, 49.683697], [6.179712, 49.683884], [6.179693, 49.683933], [6.179689, 49.683968], [6.179693, 49.684], [6.179709, 49.684025], [6.179735, 49.684055], [6.17975, 49.68409], [6.179754, 49.68413], [6.179754, 49.684162], [6.179766, 49.68419], [6.179777, 49.684208], [6.179796, 49.684227], [6.179827, 49.684246], [6.179869, 49.684254], [6.179914, 49.684277], [6.179945, 49.684303], [6.17996, 49.68434], [6.179964, 49.684364], [6.179953, 49.684395], [6.179933, 49.68441], [6.179888, 49.68443], [6.179853, 49.68445], [6.179827, 49.684475], [6.179808, 49.684517], [6.179617, 49.68452], [6.17943, 49.684532], [6.179323, 49.684555], [6.179163, 49.68461], [6.179049, 49.684654], [6.17898, 49.684708], [6.178965, 49.684723], [6.178987, 49.684765], [6.179136, 49.685074], [6.179602, 49.68599], [6.179754, 49.6863], [6.179831, 49.686447], [6.179869, 49.686523], [6.179827, 49.686528], [6.179674, 49.686546], [6.179602, 49.686554], [6.179483, 49.68657], [6.179399, 49.68658], [6.179281, 49.686596], [6.179171, 49.68661], [6.179068, 49.686626], [6.178835, 49.686665], [6.17877, 49.686672], [6.178652, 49.68669], [6.178553, 49.686707], [6.178476, 49.686714], [6.178389, 49.68672], [6.178236, 49.686733], [6.178114, 49.686733], [6.177992, 49.686737], [6.177694, 49.686745], [6.177336, 49.68675], [6.177027, 49.686756], [6.176718, 49.686764], [6.176619, 49.686764], [6.176401, 49.686775], [6.176222, 49.686787], [6.17605, 49.686802], [6.175863, 49.68682], [6.175673, 49.686844], [6.175592, 49.68685], [6.175634, 49.68678], [6.175684, 49.68669], [6.175253, 49.68669], [6.174932, 49.686687], [6.174734, 49.686565], [6.174433, 49.686375], [6.174105, 49.68617], [6.174036, 49.686123], [6.173769, 49.685947], [6.173662, 49.685886], [6.173605, 49.685852], [6.173563, 49.685825], [6.173494, 49.685772], [6.173414, 49.6857], [6.173368, 49.685654], [6.17322, 49.685535], [6.173017, 49.68556], [6.172674, 49.685596], [6.17227, 49.68565], [6.171514, 49.68574], [6.170626, 49.685852], [6.17013, 49.685913], [6.169664, 49.685974], [6.169298, 49.68602], [6.169081, 49.685963], [6.169031, 49.68595], [6.168737, 49.68613], [6.168096, 49.686455], [6.167818, 49.686592], [6.167501, 49.68672], [6.166998, 49.686916]]]]}}]}