{"type": "FeatureCollection", "features": [{"type": "Feature", "properties": {"name": "Niederfeulen"}, "geometry": {"type": "Polygon", "coordinates": [[[6.0628857, 49.8651994], [6.0631005, 49.8650947], [6.063366, 49.8649839], [6.0635895, 49.8648953], [6.0641409, 49.8647828], [6.06483, 49.8646847], [6.0647956, 49.8646586], [6.0646742, 49.8645634], [6.0643838, 49.8643357], [6.0643923, 49.8643086], [6.0644256, 49.8642021], [6.0645706, 49.8638207], [6.064599, 49.8637275], [6.0646347, 49.8636138], [6.0646569, 49.8635427], [6.0646983, 49.8634105], [6.0647389, 49.863281], [6.0647608, 49.8632213], [6.0647735, 49.8632016], [6.0648365, 49.8631042], [6.0648438, 49.863093], [6.0650784, 49.86273], [6.0650854, 49.8627191], [6.0652487, 49.8624478], [6.0652832, 49.8624084], [6.0653183, 49.8623683], [6.0653324, 49.8623545], [6.0654853, 49.8622054], [6.0654272, 49.8621434], [6.0652913, 49.8619986], [6.0655399, 49.8617287], [6.0649114, 49.8614657], [6.0642171, 49.8613726], [6.0643583, 49.8612085], [6.064418, 49.8611315], [6.0644738, 49.8610289], [6.0644898, 49.8609776], [6.0645158, 49.8608794], [6.064528, 49.8607447], [6.0643553, 49.8607249], [6.064344, 49.8607238], [6.0644336, 49.8603473], [6.0644678, 49.8600932], [6.0644681, 49.859972], [6.0644604, 49.8598385], [6.0644232, 49.8596421], [6.0644035, 49.8595593], [6.0643602, 49.8594027], [6.064297, 49.8592422], [6.0642438, 49.8590778], [6.0642025, 49.8588885], [6.0641927, 49.8588346], [6.0642093, 49.8588018], [6.0642226, 49.8587756], [6.0642365, 49.8587589], [6.0642922, 49.8587115], [6.0643399, 49.8586884], [6.0644551, 49.85865], [6.0646695, 49.8585693], [6.0649435, 49.858481], [6.0651996, 49.8584113], [6.0657158, 49.8582988], [6.0656564, 49.8581993], [6.0656376, 49.8581707], [6.0655754, 49.858076], [6.065514, 49.8580127], [6.0654957, 49.8579938], [6.0654645, 49.8579617], [6.065407, 49.8579128], [6.0652944, 49.8578251], [6.0652545, 49.857794], [6.0652224, 49.8577717], [6.0651231, 49.8577025], [6.065092, 49.8576809], [6.065039, 49.8574113], [6.0650115, 49.8572965], [6.0649701, 49.8571796], [6.0649068, 49.8570718], [6.064792, 49.856951], [6.0645848, 49.8567652], [6.0646613, 49.8567255], [6.0650091, 49.856545], [6.0650438, 49.8565258], [6.0651921, 49.8564439], [6.0652307, 49.8564225], [6.0653766, 49.8563419], [6.0653929, 49.8563328], [6.0654725, 49.8562882], [6.0656611, 49.8561824], [6.0657402, 49.8561381], [6.0658077, 49.8561023], [6.0658504, 49.8560797], [6.0659092, 49.8560486], [6.0661275, 49.8559329], [6.0661851, 49.8559024], [6.0662777, 49.8558478], [6.0664255, 49.8557607], [6.0664409, 49.8557503], [6.0664816, 49.8557226], [6.0665765, 49.8556582], [6.0666674, 49.8555949], [6.0668487, 49.8554685], [6.0669117, 49.8554159], [6.0669799, 49.8553589], [6.0670396, 49.8552947], [6.0670615, 49.8552473], [6.0671253, 49.8550792], [6.067044, 49.8550676], [6.0671158, 49.8548603], [6.0672071, 49.854872], [6.0672335, 49.8548025], [6.0672605, 49.8547314], [6.0672679, 49.8547117], [6.0673002, 49.8546268], [6.067308, 49.8546063], [6.0673436, 49.8545126], [6.0673501, 49.8544953], [6.0673845, 49.8544049], [6.06739, 49.8543904], [6.0674505, 49.8542311], [6.0674597, 49.8542101], [6.0674764, 49.8541721], [6.0675417, 49.8540081], [6.0675661, 49.8539469], [6.0676261, 49.8537994], [6.0676965, 49.8536263], [6.0678921, 49.8531452], [6.0679091, 49.8531033], [6.0679223, 49.8530735], [6.0679839, 49.852934], [6.0680444, 49.852925], [6.0682428, 49.852947], [6.0684312, 49.8529613], [6.0686237, 49.8529627], [6.0689213, 49.8529489], [6.0689173, 49.8529347], [6.0689197, 49.8529077], [6.0689505, 49.8525547], [6.068962, 49.8524233], [6.0689653, 49.8523958], [6.0689943, 49.8521499], [6.0690024, 49.852071], [6.0690108, 49.8518554], [6.0690032, 49.8517078], [6.0689776, 49.8515717], [6.0683168, 49.8516482], [6.0682597, 49.8514518], [6.0681906, 49.8512419], [6.0681607, 49.8511417], [6.0680948, 49.8509213], [6.0680212, 49.8506751], [6.0680133, 49.8506488], [6.066666, 49.8507638], [6.0652214, 49.8508941], [6.0641995, 49.8509695], [6.0642096, 49.8509333], [6.0642914, 49.8506449], [6.0643593, 49.8504158], [6.0641808, 49.8503939], [6.0640519, 49.8503809], [6.063921, 49.8503705], [6.0638079, 49.8503666], [6.0635798, 49.8503632], [6.0635197, 49.8501384], [6.0634814, 49.8499947], [6.0635034, 49.8499273], [6.063494, 49.8496591], [6.0635024, 49.8494396], [6.0635308, 49.8491367], [6.0635671, 49.8488448], [6.0637061, 49.8487667], [6.0637847, 49.8487225], [6.0639902, 49.8486071], [6.063814, 49.8484259], [6.0637071, 49.848336], [6.0636466, 49.8482935], [6.063612, 49.8482692], [6.0635387, 49.8482332], [6.0633762, 49.8481669], [6.0631958, 49.8481013], [6.0627695, 49.8479726], [6.0624305, 49.8478786], [6.0622045, 49.8478027], [6.0619567, 49.8477216], [6.0615259, 49.8475607], [6.0610799, 49.8473923], [6.0609079, 49.847321], [6.0608775, 49.8473073], [6.060859, 49.8472987], [6.0607664, 49.8472575], [6.0606605, 49.8472008], [6.0605349, 49.8471313], [6.0604542, 49.8470781], [6.060359, 49.8470051], [6.0602361, 49.8468876], [6.0600842, 49.8467341], [6.0598172, 49.8464604], [6.0596957, 49.8463463], [6.0595212, 49.8461928], [6.059422, 49.846113], [6.0592409, 49.84598], [6.058991, 49.8458023], [6.0587912, 49.8456666], [6.0587436, 49.8456869], [6.0583525, 49.8458539], [6.0583193, 49.8458684], [6.058178, 49.8457131], [6.0580406, 49.8455408], [6.0579033, 49.8453572], [6.0577831, 49.8452114], [6.0576973, 49.8451076], [6.0575255, 49.8449275], [6.0572982, 49.8447182], [6.0573388, 49.8446972], [6.0576403, 49.8445286], [6.057795, 49.8446367], [6.0581308, 49.8448753], [6.0581626, 49.8448967], [6.0584056, 49.8447838], [6.0585271, 49.8447274], [6.0586597, 49.8446692], [6.0586809, 49.8446615], [6.0588426, 49.8445871], [6.059227, 49.8444101], [6.0595107, 49.8442766], [6.0596579, 49.8442048], [6.0597681, 49.8441525], [6.0598276, 49.8441244], [6.059992, 49.844044], [6.0600808, 49.8439987], [6.060212, 49.8439362], [6.0603313, 49.8438773], [6.0601609, 49.8436766], [6.0600064, 49.8434905], [6.05984, 49.8432949], [6.0597832, 49.8432315], [6.0596907, 49.843132], [6.0596035, 49.843053], [6.0595334, 49.8429955], [6.0594594, 49.8429389], [6.0592558, 49.842811], [6.0589754, 49.8426351], [6.0585139, 49.8423398], [6.0582839, 49.8421828], [6.057882, 49.8419065], [6.0576294, 49.8417365], [6.0575633, 49.8416911], [6.0574403, 49.8416198], [6.0571825, 49.8414696], [6.0570396, 49.8413932], [6.056701, 49.8412163], [6.0564114, 49.8410626], [6.0562514, 49.8409759], [6.0561363, 49.8409192], [6.0560411, 49.8408754], [6.0557718, 49.8407511], [6.055629, 49.840685], [6.0557228, 49.8405265], [6.0557586, 49.8404828], [6.0557878, 49.8404588], [6.0558356, 49.8404092], [6.0560213, 49.8402465], [6.0560983, 49.8401806], [6.0563304, 49.8400146], [6.0564776, 49.8399076], [6.0566739, 49.8397869], [6.0567905, 49.8397167], [6.0568821, 49.8396577], [6.0569152, 49.8396312], [6.0569855, 49.839573], [6.0570744, 49.8394908], [6.0571487, 49.8394146], [6.057247, 49.8392853], [6.0573426, 49.8391568], [6.057502, 49.8389495], [6.0576069, 49.8388322], [6.0577104, 49.8387363], [6.0578032, 49.8386593], [6.0579041, 49.8385797], [6.0579863, 49.8385241], [6.058152, 49.8384308], [6.0581728, 49.8380332], [6.0582014, 49.8376647], [6.0585817, 49.8375296], [6.059015, 49.8373749], [6.0591396, 49.8373253], [6.0595359, 49.8371483], [6.0599839, 49.8369473], [6.0600539, 49.8369966], [6.0600716, 49.8370123], [6.0601396, 49.8369531], [6.0602887, 49.836807], [6.0604498, 49.8366756], [6.0604341, 49.8366665], [6.0595274, 49.8363108], [6.059339, 49.8365305], [6.0591074, 49.8364436], [6.0588138, 49.8363321], [6.0586701, 49.8362634], [6.0585323, 49.8361793], [6.0582131, 49.8359559], [6.058095, 49.8360282], [6.0579014, 49.8358831], [6.0577119, 49.8357213], [6.0574866, 49.8355057], [6.0572174, 49.8352054], [6.057076, 49.8350223], [6.0568858, 49.8351514], [6.0562593, 49.8346898], [6.0557445, 49.8343129], [6.055822, 49.8345005], [6.0558637, 49.8346299], [6.0558814, 49.8347347], [6.0558822, 49.8352798], [6.0558669, 49.8358282], [6.0555121, 49.8363031], [6.0551413, 49.8367528], [6.0548968, 49.8370346], [6.0547766, 49.8371444], [6.0546525, 49.8372438], [6.0544283, 49.8373794], [6.0541302, 49.8375382], [6.0538921, 49.8376453], [6.053706, 49.8377118], [6.05359, 49.8377453], [6.0533141, 49.8377954], [6.0527102, 49.8379112], [6.0521643, 49.8380265], [6.0518943, 49.8380792], [6.0517784, 49.8380946], [6.0515485, 49.8381099], [6.0514326, 49.8381111], [6.0512887, 49.8381006], [6.0510749, 49.8380622], [6.0508252, 49.8380012], [6.0508216, 49.8379933], [6.0507457, 49.8378291], [6.0507196, 49.8377878], [6.0506162, 49.837624], [6.0505306, 49.8375088], [6.050475, 49.8373535], [6.0503817, 49.8371019], [6.0503061, 49.8369544], [6.0502104, 49.8368508], [6.0500827, 49.8367369], [6.0500109, 49.836685], [6.0496078, 49.8364305], [6.0495204, 49.836365], [6.0488411, 49.8364607], [6.0488222, 49.8364633], [6.048837, 49.8365393], [6.048915, 49.836942], [6.0489342, 49.837052], [6.0490017, 49.8374393], [6.0490329, 49.8376302], [6.049096, 49.8380161], [6.0491022, 49.8380545], [6.0476955, 49.8378791], [6.0476871, 49.8380601], [6.0465484, 49.8378242], [6.0459214, 49.8376944], [6.0457354, 49.8376559], [6.0455083, 49.8379122], [6.0453195, 49.8381252], [6.045291, 49.8381574], [6.0450585, 49.8384198], [6.0449837, 49.8385042], [6.0449871, 49.8385372], [6.0449935, 49.8385992], [6.0450153, 49.838673], [6.0450531, 49.838748], [6.0450949, 49.8388089], [6.0451587, 49.8388697], [6.0452685, 49.8389384], [6.0453523, 49.8389734], [6.0455081, 49.8390214], [6.0456459, 49.8390584], [6.0464969, 49.8392468], [6.0468665, 49.8393352], [6.0470167, 49.8393833], [6.0471601, 49.8394292], [6.0476713, 49.8396289], [6.0478489, 49.8397093], [6.0476819, 49.8398431], [6.0476491, 49.8398693], [6.0474464, 49.8400316], [6.0474136, 49.8400543], [6.0473663, 49.8400871], [6.0470181, 49.8402723], [6.0469661, 49.8403011], [6.04692, 49.8403266], [6.0464274, 49.8406662], [6.0465971, 49.8407563], [6.0461801, 49.8412505], [6.0461019, 49.8413371], [6.0455557, 49.8416315], [6.0455109, 49.8416557], [6.0447789, 49.8420503], [6.0447343, 49.8420728], [6.0441225, 49.8423824], [6.0441144, 49.8423865], [6.0429456, 49.842957], [6.0428871, 49.842986], [6.0428458, 49.8430058], [6.0426444, 49.8431037], [6.041439, 49.8437403], [6.0417393, 49.8439458], [6.0418525, 49.8440233], [6.0419114, 49.8440636], [6.0419401, 49.8440833], [6.042, 49.8441259], [6.042057, 49.8441664], [6.0420836, 49.8441835], [6.0422184, 49.8442703], [6.042439, 49.8444089], [6.0424799, 49.8444346], [6.0425606, 49.8444757], [6.0426831, 49.8445255], [6.0429337, 49.844624], [6.0433194, 49.8447606], [6.0435839, 49.8448506], [6.0437078, 49.8448958], [6.0440504, 49.8450016], [6.0441564, 49.8450346], [6.0446222, 49.8451794], [6.0447299, 49.8452129], [6.0447432, 49.845217], [6.0448649, 49.8452547], [6.0451017, 49.8453282], [6.0450732, 49.8453631], [6.0447816, 49.8457196], [6.0447587, 49.845746], [6.0446828, 49.8458333], [6.0446602, 49.8458593], [6.0445572, 49.8459778], [6.0444596, 49.8460901], [6.0444336, 49.8461201], [6.0443384, 49.8462325], [6.0442177, 49.8463752], [6.0441871, 49.8464113], [6.0441113, 49.846501], [6.0440757, 49.846543], [6.0440578, 49.8465645], [6.0440333, 49.8465937], [6.0438675, 49.8467921], [6.0446794, 49.8471576], [6.0446999, 49.847168], [6.0445896, 49.8472774], [6.0436438, 49.8481789], [6.0436268, 49.8481688], [6.0432339, 49.8479703], [6.0431147, 49.8481089], [6.0434838, 49.8483056], [6.0435054, 49.8483181], [6.0431967, 49.8486167], [6.0430584, 49.8487265], [6.0425528, 49.8486151], [6.0425667, 49.849189], [6.0426666, 49.8493433], [6.0428958, 49.8496275], [6.0434087, 49.8501826], [6.0433641, 49.8501657], [6.0423564, 49.8496919], [6.042112, 49.8498746], [6.0420296, 49.8499363], [6.0418067, 49.8498235], [6.0416082, 49.849946], [6.0415138, 49.8500043], [6.0418186, 49.850147], [6.0417306, 49.8502082], [6.0416637, 49.8502546], [6.0414175, 49.8504104], [6.0413835, 49.8504362], [6.0411439, 49.8506729], [6.0410934, 49.8507215], [6.0410451, 49.8507665], [6.0409297, 49.8508624], [6.0408954, 49.8508889], [6.0408423, 49.8509298], [6.0407855, 49.8509733], [6.0407601, 49.8509928], [6.040628, 49.8510939], [6.0405193, 49.8511796], [6.040536, 49.8511868], [6.0404858, 49.8512255], [6.0405277, 49.8512452], [6.0408771, 49.8514101], [6.0407362, 49.8514728], [6.0406608, 49.8515072], [6.0406391, 49.8515132], [6.0405493, 49.851538], [6.040382, 49.8515696], [6.0402788, 49.8515813], [6.0401436, 49.8516066], [6.0400209, 49.8516461], [6.039848, 49.8517214], [6.0397029, 49.8517921], [6.0396691, 49.8518112], [6.0395474, 49.8518799], [6.0393812, 49.8519812], [6.0389541, 49.8517538], [6.0389012, 49.8518511], [6.0388365, 49.8519526], [6.0392565, 49.8521135], [6.0396521, 49.8522655], [6.0396398, 49.8522766], [6.0395503, 49.8523571], [6.0395207, 49.8523456], [6.0394341, 49.8523859], [6.0390891, 49.8525861], [6.0389811, 49.8526578], [6.0387779, 49.8528179], [6.038667, 49.8529053], [6.0384454, 49.8530609], [6.0384833, 49.8531119], [6.0381202, 49.8532512], [6.0381191, 49.8533367], [6.0381357, 49.8533976], [6.0381025, 49.853481], [6.0380933, 49.8535621], [6.0380678, 49.8537977], [6.0379983, 49.8544042], [6.0379745, 49.8544027], [6.0377804, 49.8543931], [6.0375806, 49.8543833], [6.0374573, 49.8543773], [6.0374128, 49.8543754], [6.0372433, 49.8543685], [6.0371384, 49.854359], [6.0370659, 49.8543526], [6.0368792, 49.854336], [6.0367062, 49.8543225], [6.0365302, 49.8543128], [6.0361988, 49.8542944], [6.0360884, 49.8545052], [6.0360565, 49.8545663], [6.0359806, 49.8547113], [6.0353479, 49.8546508], [6.0350351, 49.8546277], [6.0348786, 49.8546148], [6.0340767, 49.8545869], [6.0335608, 49.8545859], [6.0335622, 49.8546187], [6.0335139, 49.8546298], [6.0330643, 49.854733], [6.032297, 49.8549104], [6.0322378, 49.8549222], [6.0312533, 49.8550447], [6.0311512, 49.8548742], [6.0310237, 49.8546612], [6.0309814, 49.8545906], [6.0301609, 49.854684], [6.029332, 49.8552123], [6.0294448, 49.8553342], [6.0295006, 49.8553944], [6.0291168, 49.8555389], [6.0289521, 49.8556057], [6.0288431, 49.8556498], [6.02877, 49.8556825], [6.028545, 49.8557829], [6.0283674, 49.8558622], [6.0279233, 49.8560632], [6.0278552, 49.856094], [6.0278508, 49.8561219], [6.0280434, 49.8563017], [6.0280222, 49.8563112], [6.0273828, 49.8566132], [6.026855, 49.856851], [6.0266673, 49.8569301], [6.0265685, 49.8569573], [6.0264317, 49.856979], [6.0262343, 49.8569984], [6.0259848, 49.8570035], [6.0259174, 49.8570007], [6.0258721, 49.8569988], [6.0257227, 49.8569868], [6.0256058, 49.8569648], [6.0253279, 49.8570114], [6.0249419, 49.8570667], [6.025024, 49.8568387], [6.0240225, 49.8570759], [6.0236089, 49.8567968], [6.0232501, 49.8565876], [6.0230221, 49.8564674], [6.0227518, 49.8563376], [6.0223555, 49.856411], [6.0219592, 49.856483], [6.0216684, 49.8562855], [6.0216371, 49.8562619], [6.0213802, 49.856387], [6.0209595, 49.8566116], [6.0208253, 49.8567122], [6.0204844, 49.8570943], [6.0201451, 49.8574371], [6.0195759, 49.8581025], [6.0196095, 49.8581274], [6.0200773, 49.8585302], [6.0201355, 49.8585894], [6.0200212, 49.8586921], [6.0199561, 49.8587528], [6.0198963, 49.8588307], [6.0198523, 49.8589207], [6.0198309, 49.8589866], [6.0198241, 49.8590261], [6.019824, 49.8590809], [6.019841, 49.8591401], [6.019874, 49.8591915], [6.0199584, 49.8593065], [6.0199782, 49.8593434], [6.0199913, 49.8593785], [6.0199871, 49.8594496], [6.0199657, 49.8595182], [6.0199496, 49.8595807], [6.0199375, 49.8596355], [6.019936, 49.8596964], [6.01994, 49.8598097], [6.0199372, 49.8598716], [6.019999, 49.8600097], [6.0201557, 49.8603458], [6.0202862, 49.8605362], [6.0203018, 49.8606305], [6.0203017, 49.8606768], [6.0202391, 49.8607804], [6.0201207, 49.8609448], [6.0199506, 49.8611486], [6.0198562, 49.8612581], [6.0197007, 49.8614071], [6.0195905, 49.8615098], [6.0193673, 49.8617152], [6.0193075, 49.8617768], [6.0191467, 49.8619403], [6.0188944, 49.8621285], [6.0187935, 49.8622072], [6.0187974, 49.8622201], [6.018998, 49.8625774], [6.0188611, 49.8626057], [6.0190784, 49.863056], [6.019115, 49.8632275], [6.0191496, 49.8636267], [6.0188365, 49.8635765], [6.018653, 49.863547], [6.018472, 49.8635176], [6.0178611, 49.8634182], [6.0175112, 49.8633501], [6.0175152, 49.8633568], [6.0175579, 49.8634273], [6.0171781, 49.8635078], [6.0167631, 49.8635997], [6.0165165, 49.8636392], [6.0163893, 49.8636567], [6.0163091, 49.8636554], [6.0161663, 49.8636489], [6.015998, 49.8636638], [6.0158179, 49.863699], [6.0156006, 49.8637582], [6.0154204, 49.8638206], [6.0153755, 49.8637762], [6.0150817, 49.8638897], [6.0149035, 49.8639527], [6.014788, 49.863988], [6.0147038, 49.8640006], [6.0146412, 49.8639992], [6.014475, 49.8639927], [6.0143654, 49.8640077], [6.014291, 49.8640316], [6.0143199, 49.8641633], [6.0142024, 49.8642308], [6.0140553, 49.8643154], [6.0139083, 49.864405], [6.0138122, 49.8644745], [6.0137651, 49.8645237], [6.0137238, 49.8646047], [6.0136647, 49.8647227], [6.0136608, 49.8647305], [6.0136137, 49.8647899], [6.0135469, 49.8648619], [6.0134528, 49.864939], [6.0133978, 49.8649806], [6.0133155, 49.8650311], [6.0132489, 49.8650627], [6.0131431, 49.8651094], [6.0130413, 49.8651459], [6.0128807, 49.8651944], [6.0126321, 49.8652371], [6.0124344, 49.8652583], [6.0122388, 49.8652606], [6.0121671, 49.8652585], [6.011875, 49.86525], [6.0119196, 49.86535], [6.0119054, 49.8655316], [6.0118968, 49.8656391], [6.0118934, 49.8656808], [6.0118891, 49.8657352], [6.0118981, 49.8659775], [6.0120064, 49.8664806], [6.0120213, 49.8666257], [6.0120039, 49.8667464], [6.0119852, 49.8668619], [6.0116585, 49.8668596], [6.0114168, 49.8668489], [6.0111511, 49.8668475], [6.0109702, 49.8668394], [6.0109271, 49.8668352], [6.0108284, 49.8668255], [6.0107078, 49.8668095], [6.0106578, 49.8667995], [6.0105864, 49.8667852], [6.0105383, 49.8667755], [6.0104659, 49.8668335], [6.0100104, 49.8671981], [6.0098726, 49.8673109], [6.0098322, 49.8673439], [6.0097114, 49.8674633], [6.0096245, 49.8675492], [6.0095097, 49.8676591], [6.0092749, 49.8678839], [6.0091796, 49.8679751], [6.0091082, 49.868044], [6.0088787, 49.8682652], [6.0088595, 49.8682798], [6.0087986, 49.8683262], [6.0086686, 49.8684033], [6.0086532, 49.8684125], [6.0083068, 49.8686345], [6.0081573, 49.8684951], [6.0079866, 49.8683525], [6.0076435, 49.8680759], [6.0075718, 49.8680181], [6.007522, 49.8679815], [6.0073696, 49.8678664], [6.0069146, 49.868118], [6.0067975, 49.8681873], [6.0066468, 49.8682764], [6.0064932, 49.8683673], [6.0061922, 49.8685435], [6.006306, 49.8686885], [6.0063225, 49.8687082], [6.0061407, 49.8689578], [6.006059, 49.8689882], [6.0059727, 49.8689696], [6.0059108, 49.86894], [6.0058408, 49.868923], [6.005743, 49.8689123], [6.005637, 49.8689106], [6.0055766, 49.8689169], [6.0054641, 49.868942], [6.0053449, 49.8689819], [6.0051115, 49.8690638], [6.0046543, 49.8692551], [6.0046234, 49.869226], [6.0044356, 49.8693407], [6.0040647, 49.86957], [6.0040167, 49.8695991], [6.0038588, 49.8696947], [6.0036513, 49.869824], [6.0034471, 49.8699492], [6.0032788, 49.8700518], [6.0033172, 49.8701206], [6.0033323, 49.8701478], [6.003218, 49.870194], [6.0030972, 49.8702455], [6.0029943, 49.8702992], [6.0028751, 49.8703612], [6.0027738, 49.8704169], [6.0027199, 49.8704295], [6.0025976, 49.8704467], [6.0024883, 49.8704719], [6.0024246, 49.870496], [6.0023462, 49.8705297], [6.0022894, 49.8704589], [6.0019757, 49.8706493], [6.0018744, 49.8707156], [6.001809, 49.8707767], [6.0017599, 49.8708172], [6.0017207, 49.8708414], [6.0016717, 49.8708645], [6.0016015, 49.870895], [6.0015525, 49.8709265], [6.0015345, 49.8709476], [6.0015033, 49.8709918], [6.0014738, 49.8710329], [6.0014346, 49.8710582], [6.0013954, 49.8710803], [6.0013562, 49.8711118], [6.0012841, 49.8712019], [6.0012006, 49.8713082], [6.0011433, 49.8713704], [6.0010828, 49.8714367], [6.0010467, 49.8714873], [6.001009, 49.8715452], [6.0009796, 49.8715768], [6.0009206, 49.871641], [6.0008895, 49.8716895], [6.0008627, 49.8717438], [6.0008534, 49.8717627], [6.0007185, 49.8717376], [6.0006739, 49.8717293], [6.0005872, 49.8717132], [6.0000647, 49.8716161], [5.9993002, 49.8714803], [5.9992317, 49.8714681], [5.9989942, 49.8714221], [5.998448, 49.8723389], [5.9980657, 49.872986], [5.9978941, 49.8729131], [5.9977609, 49.8728511], [5.997484, 49.8727193], [5.9969322, 49.8725264], [5.9966812, 49.8723811], [5.9964925, 49.8722573], [5.9964172, 49.8723909], [5.9963124, 49.8725768], [5.9962546, 49.8726921], [5.9961182, 49.8729645], [5.9959969, 49.872934], [5.9958614, 49.8729137], [5.9957808, 49.8729017], [5.9956963, 49.87289], [5.9953939, 49.8728482], [5.9952287, 49.8728377], [5.9951194, 49.8728334], [5.9947973, 49.8728209], [5.9947368, 49.8728195], [5.9943222, 49.8728093], [5.994012, 49.8728063], [5.9936385, 49.8728026], [5.9934298, 49.8728051], [5.9930319, 49.8728218], [5.9928515, 49.8728749], [5.992743, 49.8729046], [5.9926719, 49.8729401], [5.9925971, 49.8730031], [5.9925222, 49.8730777], [5.9924919, 49.8731155], [5.9924044, 49.8732303], [5.9923267, 49.8733708], [5.9922979, 49.8734627], [5.9922817, 49.8735385], [5.9922922, 49.8736179], [5.9923039, 49.8737061], [5.9923188, 49.8738182], [5.9923414, 49.8739561], [5.9924037, 49.8741715], [5.9924389, 49.8742497], [5.9925937, 49.874417], [5.9926592, 49.8744826], [5.9928629, 49.8746391], [5.9929701, 49.8747156], [5.9931792, 49.8748354], [5.9933885, 49.8749195], [5.9936118, 49.8750393], [5.9935987, 49.8752189], [5.9936128, 49.8755023], [5.9939252, 49.8757712], [5.9941995, 49.8760091], [5.9944864, 49.8762568], [5.9942446, 49.8763728], [5.9940926, 49.8764436], [5.9940539, 49.8764674], [5.9939298, 49.8765441], [5.9936821, 49.8767669], [5.9935084, 49.8769405], [5.9934165, 49.877038], [5.9935075, 49.8770725], [5.9935713, 49.8770967], [5.9939703, 49.8772478], [5.9942936, 49.8773702], [5.9946757, 49.8775149], [5.9960062, 49.8780188], [5.9966054, 49.8783322], [5.9970158, 49.8786119], [5.997152, 49.8783805], [5.9972552, 49.8781443], [5.9974875, 49.8776401], [5.9975269, 49.8775622], [5.9977147, 49.8772093], [5.9978097, 49.877031], [5.9979632, 49.8767535], [5.9980711, 49.8765584], [5.9982242, 49.8764512], [5.9983683, 49.8763901], [5.9985596, 49.876309], [5.9988328, 49.8762145], [5.9990006, 49.8761592], [5.9991415, 49.8761171], [5.9992717, 49.8760809], [5.9994397, 49.8760373], [5.9996846, 49.8759774], [5.9998983, 49.8760645], [6.0002136, 49.8761929], [6.0003719, 49.8762574], [6.0008549, 49.8764409], [6.0009989, 49.8765124], [6.0011131, 49.8765691], [6.0012385, 49.8766313], [6.0016068, 49.8768439], [6.0018439, 49.8769846], [6.0020481, 49.8771607], [6.0022733, 49.8773401], [6.0023117, 49.8773707], [6.0024216, 49.8774648], [6.0027558, 49.8777491], [6.0028912, 49.8778711], [6.002897, 49.8778766], [6.0030796, 49.8780505], [6.0031859, 49.8781517], [6.0032005, 49.8781657], [6.0028089, 49.8782303], [6.0027821, 49.8782359], [6.0026684, 49.8782598], [6.0025744, 49.8782796], [6.0024677, 49.878302], [6.0023488, 49.8783262], [6.0022412, 49.878348], [6.0022294, 49.8783499], [6.002082, 49.8783742], [6.0020423, 49.8783783], [6.0019213, 49.8783909], [6.0018615, 49.878392], [6.0017512, 49.878394], [6.0016438, 49.8783891], [6.0014001, 49.8783781], [6.0012153, 49.8783696], [6.001153, 49.8785611], [6.001126, 49.8786438], [6.0012659, 49.8787507], [6.0013751, 49.878833], [6.00148, 49.8789087], [6.0020705, 49.8789412], [6.002234, 49.8789584], [6.0023055, 49.8789746], [6.0023492, 49.8789973], [6.0024017, 49.87902], [6.0024616, 49.8790315], [6.0027801, 49.8790638], [6.0031353, 49.8790999], [6.0032083, 49.8791029], [6.0032433, 49.8790982], [6.0032901, 49.8790851], [6.0033252, 49.8790766], [6.0033675, 49.8790852], [6.0034273, 49.8791004], [6.0034769, 49.879107], [6.0035814, 49.8791067], [6.0036778, 49.8791002], [6.0037202, 49.8790934], [6.0037654, 49.8790862], [6.0038589, 49.8790731], [6.0040241, 49.8790346], [6.004195, 49.8789962], [6.0042593, 49.8789859], [6.0042995, 49.8789892], [6.0044002, 49.8790101], [6.0045154, 49.8790481], [6.0045985, 49.8790737], [6.0046552, 49.8790865], [6.004762, 49.8791107], [6.0049108, 49.879143], [6.0049794, 49.8791545], [6.0050276, 49.8791555], [6.0051919, 49.8791373], [6.0053028, 49.8791273], [6.0055337, 49.8791066], [6.0058257, 49.8790789], [6.006205, 49.8790429], [6.0063162, 49.8790329], [6.0066483, 49.8790034], [6.0068162, 49.8789951], [6.0069447, 49.8789953], [6.0070261, 49.8790735], [6.0070568, 49.8791031], [6.0070972, 49.8791278], [6.0071341, 49.8791504], [6.0072157, 49.8791817], [6.0072945, 49.879212], [6.0074273, 49.8792529], [6.0075301, 49.8792845], [6.007711, 49.8793282], [6.0078292, 49.8793492], [6.0079968, 49.8793693], [6.0080993, 49.8793816], [6.0082182, 49.8793993], [6.0084065, 49.8794411], [6.0085305, 49.8794592], [6.0086809, 49.879467], [6.0089686, 49.8794703], [6.0090044, 49.8794707], [6.009081, 49.8794702], [6.0093665, 49.8794684], [6.0095169, 49.8794733], [6.009679, 49.8794735], [6.0097637, 49.8794661], [6.009836, 49.8794515], [6.009879, 49.8792675], [6.0100586, 49.8792649], [6.0101211, 49.8791398], [6.0102517, 49.8791724], [6.0103341, 49.879193], [6.0104567, 49.8792224], [6.0105034, 49.8792291], [6.0105983, 49.8792274], [6.0106562, 49.8792232], [6.0108827, 49.8795578], [6.0109261, 49.8796381], [6.0109582, 49.8796976], [6.0110065, 49.8798169], [6.0110451, 49.879914], [6.0111679, 49.8798714], [6.0112492, 49.8798361], [6.0113163, 49.8798236], [6.0114046, 49.8798066], [6.0115071, 49.8797839], [6.0115955, 49.8797532], [6.011675, 49.8797179], [6.0117617, 49.8796575], [6.0118981, 49.8795362], [6.0119457, 49.8795602], [6.0119845, 49.879566], [6.0120216, 49.8795637], [6.0120728, 49.8795592], [6.0121098, 49.8795616], [6.012138, 49.8795696], [6.0121733, 49.8795868], [6.0122086, 49.8795994], [6.0122633, 49.8796109], [6.0122631, 49.8796714], [6.0122752, 49.8797536], [6.0122875, 49.879773], [6.0123068, 49.8797924], [6.0123482, 49.8798193], [6.012357, 49.8798285], [6.0123605, 49.8798422], [6.0123534, 49.8798501], [6.0123446, 49.8798547], [6.0123092, 49.8798626], [6.0122403, 49.8798831], [6.0122156, 49.8798968], [6.0121961, 49.879915], [6.0121925, 49.8799344], [6.0121924, 49.8799527], [6.0122029, 49.8799767], [6.0122716, 49.8800498], [6.012348, 49.8800649], [6.0124156, 49.8800779], [6.0124368, 49.880083], [6.0125073, 49.8800966], [6.0128526, 49.8801701], [6.0131691, 49.8802554], [6.0134935, 49.8803407], [6.0136339, 49.8803726], [6.0137756, 49.8803916], [6.0138525, 49.8803994], [6.0140949, 49.8804075], [6.0141387, 49.8804075], [6.014242, 49.8804102], [6.0143423, 49.8804139], [6.0145092, 49.8804304], [6.0147265, 49.8804598], [6.0149622, 49.8804944], [6.0151609, 49.8805263], [6.0159376, 49.8808286], [6.0162569, 49.8809528], [6.0164144, 49.8810079], [6.0164766, 49.8810354], [6.0165, 49.8810495], [6.0165309, 49.881068], [6.0165784, 49.8811212], [6.0166167, 49.8811752], [6.0167075, 49.881381], [6.0168426, 49.8818145], [6.0168544, 49.8818525], [6.016899, 49.8819957], [6.0169214, 49.8820514], [6.0169438, 49.882108], [6.0169661, 49.8821569], [6.0170426, 49.8822787], [6.0171297, 49.8824151], [6.0172167, 49.8825523], [6.0173368, 49.882735], [6.0173605, 49.8827761], [6.0174528, 49.8829288], [6.0176685, 49.8830328], [6.01817, 49.8832725], [6.0183764, 49.8834047], [6.0186012, 49.8835499], [6.0187467, 49.8836417], [6.0188592, 49.8837087], [6.0188892, 49.8837248], [6.0190643, 49.8838187], [6.0191714, 49.8838797], [6.0195721, 49.8841664], [6.0197572, 49.8843192], [6.0199023, 49.8845456], [6.0201879, 49.8848131], [6.0202375, 49.8849203], [6.0202556, 49.8849594], [6.0203068, 49.8850308], [6.0206566, 49.8853821], [6.0206847, 49.8854114], [6.0210113, 49.8855539], [6.02112, 49.8856015], [6.0213549, 49.8855975], [6.021595, 49.8855953], [6.0217537, 49.885595], [6.021799, 49.8856073], [6.0217898, 49.8856788], [6.0217783, 49.8857009], [6.0217485, 49.8857423], [6.021686, 49.8858124], [6.0216677, 49.8858292], [6.0215719, 49.885928], [6.0215289, 49.8859772], [6.0215088, 49.8860278], [6.0215018, 49.8860433], [6.0213994, 49.8864222], [6.0213572, 49.8865721], [6.021298, 49.8868241], [6.021281, 49.8869604], [6.0212814, 49.8871429], [6.0213042, 49.8873058], [6.0213344, 49.887479], [6.0213881, 49.8875855], [6.0214574, 49.8879001], [6.021562, 49.8883535], [6.0215903, 49.8886475], [6.0215776, 49.8888934], [6.0215705, 49.8890777], [6.0215782, 49.8891778], [6.0215884, 49.8892876], [6.0216409, 49.8894522], [6.021712, 49.8896006], [6.0217779, 49.8897161], [6.021727, 49.8897336], [6.0218572, 49.8900894], [6.021998, 49.8904367], [6.0220413, 49.8905687], [6.022099, 49.8907822], [6.0221632, 49.891023], [6.0222436, 49.8911825], [6.0223915, 49.8913747], [6.0224884, 49.8913328], [6.0225428, 49.8913072], [6.0226251, 49.8912661], [6.0229132, 49.8911294], [6.0230751, 49.8910482], [6.0231203, 49.8910225], [6.0231708, 49.8909772], [6.0233037, 49.8908531], [6.0233768, 49.8907855], [6.0235349, 49.8906614], [6.0237089, 49.8905374], [6.0238285, 49.8904372], [6.0240731, 49.8902002], [6.024081, 49.8901663], [6.0241067, 49.8900557], [6.0241174, 49.8900096], [6.0241349, 49.8899346], [6.0241177, 49.8899181], [6.0240292, 49.8898186], [6.0239486, 49.8897353], [6.0238786, 49.8896316], [6.0238179, 49.8895312], [6.0237766, 49.8894465], [6.0237494, 49.8893906], [6.0238258, 49.889379], [6.0240904, 49.889339], [6.0242494, 49.8893149], [6.0242577, 49.8891916], [6.0242486, 49.8891067], [6.0242329, 49.8890578], [6.0241842, 49.8889318], [6.0243037, 49.8888522], [6.0244139, 49.8888121], [6.0245982, 49.8887703], [6.0248144, 49.8887209], [6.0250094, 49.8886663], [6.0251328, 49.8886236], [6.0253054, 49.8885484], [6.0254195, 49.8884946], [6.0256502, 49.8886358], [6.0260616, 49.888464], [6.026485, 49.8882923], [6.0266175, 49.8882985], [6.0266838, 49.888296], [6.0267832, 49.8882781], [6.0268774, 49.8882568], [6.0269663, 49.8882341], [6.0270445, 49.8882141], [6.0271595, 49.8881913], [6.0274742, 49.8881289], [6.0276506, 49.8880957], [6.0279503, 49.8880575], [6.0283268, 49.8880109], [6.0286848, 49.8879582], [6.0289487, 49.887937], [6.0289748, 49.8880673], [6.0292519, 49.8880402], [6.0295475, 49.88802], [6.029749, 49.8880066], [6.0298776, 49.8879947], [6.0300076, 49.887976], [6.03018, 49.8879385], [6.0305155, 49.8878669], [6.031546, 49.8876496], [6.0315777, 49.8876925], [6.0318674, 49.8876202], [6.0319026, 49.8876115], [6.0319476, 49.8876466], [6.032099, 49.8875551], [6.0329413, 49.8869875], [6.0331095, 49.8868742], [6.0331704, 49.8869137], [6.0334107, 49.886764], [6.0335033, 49.8868129], [6.0339947, 49.8864853], [6.0343312, 49.8862631], [6.0344815, 49.8863307], [6.0344828, 49.886317], [6.0344829, 49.8862964], [6.0344856, 49.8862887], [6.0345135, 49.8862519], [6.0345733, 49.8861963], [6.0346371, 49.8861415], [6.0346543, 49.8861347], [6.0346755, 49.8861355], [6.0347365, 49.886133], [6.0348015, 49.8861254], [6.0348505, 49.8861135], [6.0349103, 49.886081], [6.0349607, 49.8860433], [6.0350723, 49.8859458], [6.0351189, 49.8858892], [6.0351468, 49.8858601], [6.0351946, 49.8858259], [6.0352596, 49.8857909], [6.0353287, 49.8857438], [6.0354561, 49.8856617], [6.0355225, 49.8856275], [6.0355703, 49.8856027], [6.0356261, 49.8855573], [6.0356965, 49.8854948], [6.0357934, 49.8854195], [6.035901, 49.8853477], [6.0359833, 49.8852904], [6.0360033, 49.8852707], [6.0360193, 49.8852381], [6.0360376, 49.8851995], [6.0360579, 49.8851568], [6.0360672, 49.8851379], [6.0360965, 49.8851062], [6.0361257, 49.8850849], [6.0362093, 49.8850412], [6.0363526, 49.8849668], [6.0366487, 49.8847984], [6.0367588, 49.8847334], [6.0369433, 49.8846299], [6.0370375, 49.8845888], [6.0371358, 49.8845418], [6.037234, 49.8844862], [6.0372738, 49.8844571], [6.0373296, 49.8844161], [6.037493, 49.8842886], [6.0375713, 49.8842209], [6.0376218, 49.8841704], [6.0377441, 49.8840343], [6.0378787, 49.8838914], [6.0379546, 49.8838331], [6.0380915, 49.883741], [6.0381575, 49.8836961], [6.0381697, 49.8836811], [6.0382273, 49.8835747], [6.0383168, 49.8834241], [6.0383683, 49.8833476], [6.0384997, 49.8831967], [6.038531, 49.8831608], [6.0387367, 49.8829141], [6.0388615, 49.8827698], [6.0389765, 49.8826611], [6.0390364, 49.8826162], [6.0391599, 49.8825358], [6.0392466, 49.8824949], [6.0393138, 49.8824713], [6.0394933, 49.8824155], [6.0395641, 49.8823776], [6.0396961, 49.8823069], [6.0398317, 49.8822384], [6.0399294, 49.8822219], [6.0400453, 49.8821992], [6.0401149, 49.8821803], [6.040358, 49.8820843], [6.0399752, 49.8819506], [6.0400472, 49.8819364], [6.0403999, 49.8818974], [6.040445, 49.8819385], [6.0410691, 49.8817064], [6.0417897, 49.8814137], [6.0419836, 49.8813836], [6.0418532, 49.8810732], [6.0418335, 49.8810115], [6.041823, 49.8809481], [6.0418259, 49.8808641], [6.0418473, 49.880769], [6.0418634, 49.8807073], [6.0418794, 49.8806696], [6.0419194, 49.8805883], [6.0419713, 49.8804881], [6.0420578, 49.8803459], [6.0421801, 49.8801935], [6.0422728, 49.8802191], [6.0424827, 49.8802734], [6.0425288, 49.8802942], [6.0425376, 49.8803195], [6.0425468, 49.8803392], [6.042568, 49.8803581], [6.0426183, 49.8803881], [6.0426447, 49.880401], [6.0427281, 49.8804353], [6.0428195, 49.8804783], [6.0429346, 49.8805427], [6.0430034, 49.8805942], [6.0430205, 49.8806191], [6.0430271, 49.8806593], [6.043031, 49.880685], [6.0430653, 49.8807228], [6.0430825, 49.8807639], [6.0430996, 49.8808034], [6.0431286, 49.8808403], [6.0432464, 49.8809312], [6.0434302, 49.8810831], [6.043528, 49.8811758], [6.0436007, 49.8812547], [6.0436615, 49.8813105], [6.0436999, 49.8813371], [6.0437714, 49.8813731], [6.0438164, 49.8813809], [6.0438959, 49.8813947], [6.0439912, 49.8814359], [6.0440891, 49.8814892], [6.0441818, 49.8815432], [6.0442651, 49.8816016], [6.0443087, 49.8816411], [6.0443497, 49.8817062], [6.0443959, 49.8817834], [6.0444619, 49.8818529], [6.0445333, 49.8819155], [6.0446206, 49.8819936], [6.044692, 49.8820742], [6.0447382, 49.8821463], [6.0448214, 49.8822689], [6.0448835, 49.8823461], [6.0449231, 49.8823838], [6.0449866, 49.8824293], [6.0450872, 49.8824946], [6.0451732, 49.8825572], [6.045271, 49.882649], [6.0453198, 49.8826904], [6.0453488, 49.882702], [6.0453978, 49.8827226], [6.0454799, 49.8827544], [6.0455739, 49.8827956], [6.0458677, 49.8829322], [6.0460385, 49.8830086], [6.0460835, 49.8830224], [6.0462346, 49.8830303], [6.0463512, 49.8830312], [6.0464586, 49.8830262], [6.0465485, 49.8830246], [6.0466826, 49.8830222], [6.0469714, 49.8830524], [6.0471741, 49.8830801], [6.0472682, 49.8830905], [6.0473318, 49.8830922], [6.04741, 49.8830803], [6.0474909, 49.8830701], [6.0476009, 49.8830677], [6.0476806, 49.8830544], [6.0477373, 49.8830449], [6.0479443, 49.883002], [6.0480769, 49.8829679], [6.0482414, 49.8829141], [6.0484496, 49.882844], [6.0485995, 49.8827919], [6.0486751, 49.882756], [6.0487229, 49.8827278], [6.0487607, 49.8827101], [6.0487766, 49.8826861], [6.0487926, 49.8826518], [6.0488006, 49.8826236], [6.0488088, 49.882537], [6.0488211, 49.8823948], [6.048868, 49.8821849], [6.0488907, 49.8820984], [6.0489254, 49.8820041], [6.048956, 49.8819493], [6.0490239, 49.8818405], [6.0491036, 49.8817438], [6.0491873, 49.8816505], [6.0492976, 49.8815512], [6.0494157, 49.8814767], [6.0495976, 49.8813492], [6.0497224, 49.8812431], [6.0498872, 49.881083], [6.0499748, 49.8810008], [6.0500412, 49.8809495], [6.0501075, 49.8809153], [6.0502123, 49.8808828], [6.0502587, 49.8808674], [6.0503251, 49.8808367], [6.050487, 49.8807417], [6.050609, 49.8806835], [6.0507351, 49.8806331], [6.0508451, 49.8806032], [6.0509167, 49.8805913], [6.051048, 49.8805717], [6.0511593, 49.8805478], [6.0512376, 49.8805162], [6.0512933, 49.8804889], [6.0513358, 49.8804529], [6.0513439, 49.8804212], [6.0513612, 49.8803664], [6.0513971, 49.8803064], [6.0514503, 49.8802628], [6.0514861, 49.8802474], [6.0515179, 49.8802397], [6.051559, 49.8802337], [6.0515974, 49.8802338], [6.0516782, 49.8802441], [6.0517352, 49.8802536], [6.051816, 49.8802546], [6.0518916, 49.8802469], [6.0520056, 49.8802282], [6.0521077, 49.8802017], [6.0522046, 49.8801615], [6.0523346, 49.8801008], [6.0523916, 49.8800812], [6.0524221, 49.880076], [6.0524711, 49.8800761], [6.0525546, 49.8800822], [6.0526235, 49.8800771], [6.0527084, 49.8800575], [6.0533383, 49.8798636], [6.0536102, 49.8797679], [6.0537588, 49.8796986], [6.0538888, 49.8796447], [6.0539631, 49.8796088], [6.0540335, 49.8795669], [6.0540945, 49.8795267], [6.0541516, 49.8794753], [6.0541888, 49.8794351], [6.0542326, 49.8794025], [6.0542804, 49.8793777], [6.0543255, 49.8793555], [6.0543829, 49.8793242], [6.0545149, 49.8792727], [6.0546081, 49.879252], [6.0546619, 49.8792321], [6.0553242, 49.8787966], [6.0551788, 49.8786267], [6.0552822, 49.8785891], [6.0553721, 49.878686], [6.0554238, 49.8786664], [6.0553009, 49.8785223], [6.0553235, 49.8785129], [6.0562646, 49.8783895], [6.0560518, 49.8776052], [6.0560202, 49.87748], [6.0559979, 49.8773969], [6.0559808, 49.877324], [6.0559401, 49.877168], [6.0559005, 49.877045], [6.0558755, 49.8769704], [6.0558451, 49.8769087], [6.0556379, 49.8765588], [6.0556234, 49.8765314], [6.0555416, 49.8763693], [6.0557803, 49.8762898], [6.055913, 49.8762377], [6.0560085, 49.8761924], [6.0561093, 49.8761359], [6.0561956, 49.8760769], [6.0562845, 49.8760067], [6.0563709, 49.8759245], [6.0564519, 49.8758354], [6.0566326, 49.8755999], [6.0567058, 49.8754886], [6.0568055, 49.8753181], [6.0568921, 49.8751443], [6.0569254, 49.8750655], [6.0570027, 49.8748539], [6.0570401, 49.8747356], [6.0570708, 49.8746045], [6.0571152, 49.8743269], [6.0571206, 49.8742875], [6.0570153, 49.8739755], [6.0569771, 49.8738606], [6.0569693, 49.8737843], [6.0569656, 49.8736746], [6.0569658, 49.8735864], [6.0569765, 49.8735315], [6.0570191, 49.8734613], [6.0572225, 49.8731573], [6.0573675, 49.8729209], [6.057438, 49.8727907], [6.0575032, 49.8726554], [6.0575405, 49.8725671], [6.0575539, 49.8725217], [6.057562, 49.8724446], [6.0575795, 49.8723255], [6.0575782, 49.8723118], [6.0575837, 49.8722441], [6.0575972, 49.8721053], [6.0576147, 49.8719336], [6.0576589, 49.8716972], [6.0576897, 49.8715944], [6.0577202, 49.8715661], [6.05776, 49.8715447], [6.0580213, 49.8714053], [6.058198, 49.8713129], [6.0583092, 49.8712547], [6.0584882, 49.8711855], [6.0588847, 49.8710367], [6.0592573, 49.8709008], [6.0596035, 49.8707623], [6.0600199, 49.8705973], [6.0602725, 49.8704948], [6.0605475, 49.8703833], [6.0606776, 49.8703305], [6.0607148, 49.8703125], [6.0606097, 49.8702216], [6.0605577, 49.8701759], [6.0604368, 49.8700716], [6.0603694, 49.8700139], [6.0601329, 49.8698122], [6.0606158, 49.8695247], [6.060986, 49.8693039], [6.0612593, 49.8691328], [6.0614344, 49.8690164], [6.0615844, 49.8689128], [6.0617323, 49.868807], [6.0618727, 49.8687122], [6.0619172, 49.8686825], [6.0619521, 49.8686592], [6.0620634, 49.8685847], [6.0621614, 49.8685265], [6.0622798, 49.8684571], [6.0623992, 49.868387], [6.0625003, 49.8683313], [6.0626974, 49.8682228], [6.0627289, 49.8682051], [6.0629183, 49.8680986], [6.0629575, 49.8680766], [6.062977, 49.8680656], [6.0629917, 49.8680578], [6.0626712, 49.8675894], [6.0623565, 49.8671407], [6.0621559, 49.8668657], [6.0619927, 49.8666448], [6.0617842, 49.8663659], [6.0615399, 49.8658687], [6.0622348, 49.8655253], [6.0627809, 49.8652593], [6.0628857, 49.8651994]]]}}]}