{"type": "FeatureCollection", "features": [{"type": "Feature", "properties": {"name": "Parc Léi", "kind": "park"}, "geometry": {"type": "Polygon", "coordinates": [[[6.0999877, 49.4843493], [6.0999934, 49.484282], [6.0994459, 49.4842581], [6.0992787, 49.4842601], [6.0991193, 49.4842777], [6.0990027, 49.484309], [6.098886, 49.4843665], [6.0988002, 49.4844393], [6.0986835, 49.4845918], [6.0982718, 49.485375], [6.0982268, 49.4854329], [6.0981792, 49.4854705], [6.0981065, 49.4855329], [6.0981927, 49.4855458], [6.0984428, 49.4856399], [6.0984126, 49.4856525], [6.0984488, 49.4857305], [6.0982999, 49.485862], [6.0981102, 49.4858792], [6.0980869, 49.4861574], [6.0976771, 49.4861594], [6.0976822, 49.4863762], [6.0965538, 49.4864396], [6.0960039, 49.486383], [6.0955225, 49.4863752], [6.0955433, 49.4864268], [6.0955091, 49.4864598], [6.0954117, 49.4864763], [6.0953741, 49.4864827], [6.0953273, 49.4864634], [6.095288, 49.4863681], [6.0946078, 49.4863132], [6.0943474, 49.4863816], [6.0941828, 49.4861969], [6.0940709, 49.4862235], [6.0942162, 49.4865261], [6.0942294, 49.4865941], [6.0942887, 49.4867328], [6.0944184, 49.4867299], [6.0944805, 49.4866606], [6.0945904, 49.4867003], [6.0947818, 49.4867077], [6.0948867, 49.486684], [6.095034, 49.4866232], [6.0949285, 49.4867831], [6.0948946, 49.4868844], [6.0948747, 49.487043], [6.0949378, 49.4871061], [6.0947925, 49.4871358], [6.0947599, 49.4872246], [6.0945567, 49.4871302], [6.0943768, 49.486883], [6.0943209, 49.4868198], [6.0943379, 49.4868834], [6.0943762, 49.4869443], [6.0940942, 49.4873657], [6.0963315, 49.487977], [6.0962038, 49.4884338], [6.0963853, 49.4885224], [6.0972861, 49.4880179], [6.0974108, 49.4877739], [6.0976337, 49.4875933], [6.0977847, 49.4875344], [6.0980651, 49.4874882], [6.0981712, 49.4875322], [6.0984193, 49.4878388], [6.09854, 49.4877726], [6.0988062, 49.4879093], [6.0993889, 49.4880592], [6.0999048, 49.4883317], [6.1008089, 49.4885063], [6.1024046, 49.4885565], [6.1024887, 49.488503], [6.1026934, 49.4884765], [6.1026719, 49.4882927], [6.1027296, 49.4880636], [6.1029912, 49.4873623], [6.1029359, 49.4872893], [6.102979, 49.4871619], [6.1030112, 49.4870186], [6.1030763, 49.4870075], [6.1031459, 49.4869957], [6.1031481, 49.4869569], [6.1030139, 49.4869275], [6.1030152, 49.4868265], [6.1029916, 49.4867145], [6.1028381, 49.4864848], [6.1026853, 49.4863124], [6.1025727, 49.4862175], [6.1027377, 49.486192], [6.1034367, 49.4861708], [6.1047241, 49.4861904], [6.1048409, 49.4861998], [6.1056331, 49.4864085], [6.1056747, 49.4863602], [6.1060297, 49.4859459], [6.1064293, 49.4855151], [6.1063475, 49.4854792], [6.106323, 49.4854493], [6.1063293, 49.4854189], [6.1063507, 49.4853941], [6.1064123, 49.4853709], [6.1062602, 49.4851681], [6.1059676, 49.4849265], [6.1057186, 49.4847354], [6.1055788, 49.4846376], [6.1056768, 49.4843198], [6.1048869, 49.4841639], [6.1047788, 49.4840876], [6.1042094, 49.4840019], [6.1042246, 49.4840543], [6.1039627, 49.4839594], [6.103892, 49.483969], [6.1038763, 49.4839984], [6.1038117, 49.4839808], [6.1026505, 49.4837092], [6.1024754, 49.4836623], [6.102197, 49.4839809], [6.1021778, 49.4839594], [6.1020677, 49.4838361], [6.1020522, 49.4838249], [6.1020144, 49.4837974], [6.1019236, 49.4838473], [6.1015043, 49.484074], [6.1012506, 49.4841804], [6.100961, 49.4842554], [6.1007157, 49.4842931], [6.1006308, 49.4844698], [6.1001439, 49.4844497], [6.1001714, 49.4845495], [6.1002237, 49.4846793], [6.1002458, 49.4847198], [6.1002123, 49.4847242], [6.1001227, 49.4847319], [6.1000957, 49.484685], [6.0997188, 49.4845552], [6.099932, 49.4844872], [6.1000474, 49.4843905], [6.0999877, 49.4843493]], [[6.1023748, 49.4855848], [6.1027235, 49.4855201], [6.1028762, 49.4853677], [6.1028241, 49.4853184], [6.1028557, 49.4853124], [6.1029596, 49.4853924], [6.1028852, 49.4855009], [6.1030441, 49.4854608], [6.1033787, 49.4854639], [6.1035436, 49.4853776], [6.1036617, 49.4853445], [6.1037435, 49.4853959], [6.1036888, 49.4854475], [6.1035591, 49.4854661], [6.1036965, 49.4854682], [6.1036456, 49.4855562], [6.104303, 49.4854444], [6.1043067, 49.4852173], [6.1038843, 49.4851859], [6.1034323, 49.4854038], [6.1033321, 49.4853439], [6.1033824, 49.4852477], [6.1032171, 49.4852154], [6.1031631, 49.4851331], [6.1034538, 49.4849716], [6.1032633, 49.484854], [6.1029683, 49.4848462], [6.1022854, 49.4849887], [6.1022776, 49.4851816], [6.1020973, 49.48525], [6.101982, 49.4852509], [6.1019789, 49.4852877], [6.1019754, 49.4853305], [6.1022736, 49.4854072], [6.1022696, 49.4855687], [6.1023752, 49.4855698], [6.1023748, 49.4855848]], [[6.0997041, 49.4859632], [6.099465, 49.4862214], [6.0995733, 49.4862615], [6.0995941, 49.4862388], [6.0995518, 49.4862229], [6.0995633, 49.486209], [6.0996651, 49.4860988], [6.0996715, 49.4861013], [6.0997761, 49.4859825], [6.0997456, 49.4859635], [6.0997041, 49.4859632]], [[6.1008825, 49.4864272], [6.1009209, 49.486398], [6.1009703, 49.486377], [6.1010355, 49.486365], [6.1011031, 49.4863671], [6.1011662, 49.4863832], [6.101218, 49.4864115], [6.1012532, 49.4864491], [6.1012679, 49.48649], [6.1012626, 49.4865319], [6.1012379, 49.4865707], [6.1011962, 49.4866027], [6.1011461, 49.4866237], [6.1010889, 49.4866346], [6.1010293, 49.4866345], [6.1009722, 49.4866236], [6.1009221, 49.4866027], [6.1008831, 49.4865734], [6.1008584, 49.4865382], [6.10085, 49.4865002], [6.1008582, 49.4864622], [6.1008825, 49.4864272]], [[6.0987007, 49.4867269], [6.0988008, 49.4867677], [6.0991582, 49.4869118], [6.0993523, 49.4869899], [6.0993821, 49.4869566], [6.0994826, 49.4868444], [6.0994412, 49.4868291], [6.0989533, 49.4866396], [6.0986427, 49.4865131], [6.0984815, 49.4863714], [6.0980914, 49.4863621], [6.0981296, 49.4864344], [6.0981886, 49.4864884], [6.0982723, 49.4865382], [6.0987007, 49.4867269]], [[6.1003196, 49.4858991], [6.1001862, 49.4858472], [6.1001285, 49.4859095], [6.0998952, 49.4858189], [6.1000085, 49.4857074], [6.1000226, 49.4856673], [6.1000051, 49.4856316], [6.1000708, 49.4856351], [6.1002398, 49.4856873], [6.1004028, 49.4857514], [6.1004441, 49.4857769], [6.1005268, 49.485828], [6.1006301, 49.4859191], [6.1004859, 49.4860101], [6.1004645, 49.4860502], [6.1004571, 49.4861439], [6.1001771, 49.4861123], [6.1001397, 49.4860976], [6.1003196, 49.4858991]], [[6.0997761, 49.4859825], [6.0996715, 49.4861013], [6.0996651, 49.4860988], [6.0995633, 49.486209], [6.0995518, 49.4862229], [6.0995941, 49.4862388], [6.0995733, 49.4862615], [6.099465, 49.4862214], [6.0994496, 49.4862367], [6.0994466, 49.4862802], [6.0992786, 49.4864548], [6.0992413, 49.4864916], [6.0991535, 49.4865533], [6.0990657, 49.4865963], [6.0989533, 49.4866396], [6.0994412, 49.4868291], [6.0994826, 49.4868444], [6.0998911, 49.4864144], [6.1001771, 49.4861123], [6.1001397, 49.4860976], [6.1003196, 49.4858991], [6.1001862, 49.4858472], [6.1001285, 49.4859095], [6.0998952, 49.4858189], [6.0997711, 49.4859361], [6.0997979, 49.485947], [6.0998057, 49.4859503], [6.0997761, 49.4859825]], [[6.0997711, 49.4859361], [6.0997309, 49.4859343], [6.0997041, 49.4859632], [6.0997456, 49.4859635], [6.0997761, 49.4859825], [6.0998057, 49.4859503], [6.0997979, 49.485947], [6.0997711, 49.4859361]]]}}]}