{"type": "FeatureCollection", "features": [{"type": "Feature", "properties": {"name": "Parc Square Émile Mayrisch", "kind": "park"}, "geometry": {"type": "Polygon", "coordinates": [[[6.0860187, 49.4822419], [6.0859296, 49.4820163], [6.0858773, 49.4818307], [6.0857016, 49.4818751], [6.0857021, 49.4818634], [6.0857083, 49.4817106], [6.0857418, 49.481534], [6.0850619, 49.4814464], [6.0850364, 49.4815066], [6.0849948, 49.4817828], [6.0849845, 49.481881], [6.084976, 49.4819623], [6.0849418, 49.4822763], [6.0853895, 49.4822864], [6.0857432, 49.482294], [6.0859544, 49.4822941], [6.0859836, 49.4822905], [6.0860071, 49.4822787], [6.0860197, 49.4822612], [6.0860187, 49.4822419]]]}}]}