{"type": "FeatureCollection", "features": [{"type": "Feature", "properties": {"name": "Parc Street Workout", "kind": "park"}, "geometry": {"type": "Polygon", "coordinates": [[[6.0834391, 49.4763943], [6.0834834, 49.4763786], [6.0829999, 49.4758009], [6.082896, 49.4756685], [6.0833801, 49.4755608], [6.0832836, 49.4753068], [6.083238, 49.4752057], [6.083179, 49.4751073], [6.0836148, 49.4749421], [6.0836434, 49.4748606], [6.0836701, 49.4747818], [6.0835921, 49.4747691], [6.0834908, 49.4747604], [6.0833795, 49.4747648], [6.0825108, 49.4749582], [6.0823738, 49.4750033], [6.082493, 49.4750236], [6.082499, 49.475085], [6.082774, 49.4752502], [6.0828209, 49.4754157], [6.0828531, 49.4756667], [6.0834391, 49.4763943]]]}}]}