{"type": "FeatureCollection", "features": [{"type": "Feature", "properties": {"name": "Réserve naturelle Haard", "kind": "nature_reserve"}, "geometry": {"type": "Polygon", "coordinates": [[[6.0322051, 49.4496125], [6.031521, 49.4503599], [6.0305103, 49.4510895], [6.0303482, 49.4511229], [6.0302268, 49.4511312], [6.0300954, 49.4511181], [6.0295455, 49.4509874], [6.029048, 49.4509481], [6.028901, 49.4509653], [6.0295997, 49.4516734], [6.0316773, 49.453324], [6.0332694, 49.4537511], [6.0355578, 49.4533012], [6.0361324, 49.4527938], [6.03725, 49.4530866], [6.0378036, 49.4537092], [6.0371301, 49.4544156], [6.0359787, 49.4544567], [6.0346909, 49.4547733], [6.0339154, 49.4552623], [6.0340674, 49.4554048], [6.034627, 49.4559296], [6.0349702, 49.4560786], [6.0350219, 49.4561262], [6.0351606, 49.4563353], [6.0352479, 49.4563123], [6.0357922, 49.4565654], [6.0357578, 49.4565975], [6.0359855, 49.4567196], [6.0364837, 49.456984], [6.0368103, 49.4572586], [6.0370369, 49.4573931], [6.0367788, 49.4574844], [6.0367726, 49.4576252], [6.0363704, 49.4578205], [6.0361895, 49.4580243], [6.0360425, 49.4581242], [6.0362679, 49.4582913], [6.0360847, 49.4583818], [6.035862, 49.4582168], [6.0357282, 49.4582881], [6.0353796, 49.458415], [6.0350937, 49.4585619], [6.0346457, 49.4588194], [6.034204, 49.4591206], [6.0339953, 49.4592296], [6.0338714, 49.4593075], [6.0335822, 49.459577], [6.0336158, 49.4597025], [6.0336258, 49.4597456], [6.0337336, 49.4598279], [6.0336748, 49.45986], [6.0336225, 49.4599204], [6.0336158, 49.4599858], [6.0334504, 49.4600596], [6.0339693, 49.4605294], [6.0348565, 49.4610485], [6.0365104, 49.4622226], [6.0358521, 49.4630323], [6.0373285, 49.4646467], [6.0391426, 49.4642263], [6.0423398, 49.4634707], [6.0409156, 49.4647829], [6.0402365, 49.4654994], [6.0397816, 49.4657227], [6.0394541, 49.465994], [6.0387725, 49.4658484], [6.038403, 49.4658219], [6.036873, 49.4657123], [6.0368487, 49.465889], [6.0368264, 49.466041], [6.0368344, 49.4662886], [6.0368814, 49.4664585], [6.0369551, 49.4666259], [6.0370597, 49.4668167], [6.0378335, 49.4678617], [6.0416493, 49.4670079], [6.0422357, 49.4670267], [6.0424208, 49.4671832], [6.0424067, 49.4688257], [6.0424092, 49.4688655], [6.0424188, 49.4690181], [6.042517, 49.4701079], [6.0450883, 49.4712536], [6.0480656, 49.470637], [6.0483465, 49.4712389], [6.0484263, 49.4715036], [6.0484522, 49.4715895], [6.0485188, 49.4715748], [6.0488199, 49.4715134], [6.0498381, 49.4717005], [6.0508765, 49.4718807], [6.0514872, 49.4720338], [6.0514415, 49.4722446], [6.0518046, 49.4722668], [6.0521943, 49.472282], [6.0525837, 49.4722772], [6.0523853, 49.472324], [6.053214, 49.4723613], [6.0535755, 49.472374], [6.0536332, 49.472554], [6.0524328, 49.4725313], [6.0514203, 49.4725043], [6.0497674, 49.472404], [6.0497278, 49.4724424], [6.0488722, 49.4725008], [6.0481238, 49.4726812], [6.0480031, 49.472533], [6.047738, 49.4726323], [6.0477225, 49.4726377], [6.0477097, 49.4726429], [6.046975, 49.4729433], [6.0462031, 49.4733178], [6.0453307, 49.4736721], [6.045679, 49.4741469], [6.0448878, 49.4744354], [6.0442138, 49.4747757], [6.0434373, 49.4753003], [6.043385, 49.475358], [6.0434011, 49.4753865], [6.0434474, 49.4755312], [6.0435762, 49.4757665], [6.0436901, 49.4759307], [6.0437787, 49.4760353], [6.0439175, 49.4761442], [6.0444278, 49.4764606], [6.0447201, 49.4766235], [6.0450339, 49.4767708], [6.0453102, 49.4768806], [6.0457389, 49.4773325], [6.0457991, 49.4773923], [6.0460706, 49.4774966], [6.0468811, 49.4776031], [6.0470523, 49.4776256], [6.0474171, 49.4775891], [6.0493979, 49.4771559], [6.0520504, 49.4766578], [6.0524556, 49.4767777], [6.0528673, 49.4768588], [6.0535352, 49.4768849], [6.0538168, 49.4769198], [6.0547462, 49.4772291], [6.0545987, 49.4773546], [6.0539711, 49.4773459], [6.0523091, 49.4780042], [6.0521391, 49.4782051], [6.0521726, 49.4783863], [6.0520204, 49.4784408], [6.0520023, 49.4785013], [6.0521391, 49.4786895], [6.0504292, 49.4796097], [6.0505478, 49.4796815], [6.0502321, 49.4798946], [6.0507047, 49.4803227], [6.0500242, 49.481036], [6.0498887, 49.4813584], [6.0498632, 49.4817192], [6.0501645, 49.4819182], [6.0503236, 49.4819746], [6.050427, 49.4820134], [6.0504711, 49.4820366], [6.0504514, 49.4820525], [6.0502029, 49.4821925], [6.0503809, 49.482289], [6.0508409, 49.4824702], [6.0507792, 49.4825364], [6.0514576, 49.4827288], [6.0529317, 49.4831463], [6.0528848, 49.4833099], [6.054486, 49.4839192], [6.0545558, 49.483954], [6.0547154, 49.483883], [6.0554449, 49.4843548], [6.0560689, 49.4841875], [6.0562657, 49.4841413], [6.0568625, 49.4850396], [6.0572165, 49.4852696], [6.0583761, 49.4856949], [6.0594308, 49.485966], [6.0612547, 49.4864853], [6.062714, 49.4869887], [6.0633466, 49.4872566], [6.0635271, 49.4873706], [6.0636431, 49.4873196], [6.0637785, 49.4872499], [6.0638899, 49.4871723], [6.0648353, 49.4864484], [6.0651022, 49.4862837], [6.0654124, 49.4861431], [6.0656339, 49.4860684], [6.0656749, 49.4860136], [6.0657263, 49.4858422], [6.0656816, 49.4853776], [6.0656916, 49.4851797], [6.0657044, 49.4850962], [6.0657419, 49.4850082], [6.0657728, 49.4848967], [6.0658197, 49.4848344], [6.0658854, 49.4847869], [6.0659713, 49.4847599], [6.0663307, 49.4847029], [6.066647, 49.4846657], [6.0669042, 49.4846424], [6.0671581, 49.4845081], [6.0672835, 49.4843992], [6.0673157, 49.4842106], [6.0673881, 49.4840342], [6.0675088, 49.4838234], [6.0674676, 49.4837519], [6.0667085, 49.4840658], [6.0665925, 49.4840985], [6.0665027, 49.4843689], [6.0646033, 49.4837327], [6.0638684, 49.4817671], [6.0651439, 49.4812322], [6.0666884, 49.4805777], [6.0701418, 49.479313], [6.0683537, 49.4780936], [6.0695007, 49.477044], [6.075434, 49.4771418], [6.0765602, 49.4770701], [6.077014, 49.4769481], [6.0775087, 49.4766924], [6.0780412, 49.4764745], [6.0788269, 49.4761371], [6.0794096, 49.4759142], [6.0794102, 49.4757283], [6.0793872, 49.4756679], [6.0793034, 49.4754482], [6.0792522, 49.4753173], [6.079194, 49.4753096], [6.0789889, 49.4752825], [6.0789838, 49.4751605], [6.07898, 49.4750824], [6.0788881, 49.4750829], [6.0788861, 49.4749861], [6.0789759, 49.4749861], [6.0790162, 49.4747883], [6.0790068, 49.4745147], [6.0788633, 49.4745228], [6.0788217, 49.4745251], [6.0787982, 49.4744857], [6.0786849, 49.4743109], [6.0785874, 49.4742222], [6.0784392, 49.4741284], [6.0784653, 49.474105], [6.0785004, 49.4740736], [6.0788007, 49.4741027], [6.0788324, 49.4741029], [6.0790415, 49.4741022], [6.0785602, 49.4739476], [6.0786021, 49.4738682], [6.0778966, 49.4736344], [6.0779438, 49.4735368], [6.0776617, 49.4734794], [6.0776764, 49.4734498], [6.0760342, 49.4731731], [6.0760818, 49.4730358], [6.075999, 49.4729729], [6.0756367, 49.472968], [6.0747434, 49.4729365], [6.0737201, 49.4728451], [6.0736846, 49.4728754], [6.0736903, 49.4729092], [6.0737034, 49.4729487], [6.0732726, 49.4729121], [6.0730731, 49.4729243], [6.0730384, 49.4729265], [6.0728519, 49.4728969], [6.0725786, 49.4728442], [6.0724411, 49.4728171], [6.0724104, 49.4728111], [6.0723745, 49.4727781], [6.0724706, 49.4727346], [6.0726029, 49.4726746], [6.0727648, 49.4726013], [6.0727809, 49.472594], [6.0728572, 49.4725618], [6.0716346, 49.4717599], [6.0715801, 49.4717241], [6.0712337, 49.4714968], [6.0712124, 49.471356], [6.0717655, 49.4709992], [6.0725185, 49.4714585], [6.0730628, 49.4713813], [6.0747074, 49.4714763], [6.0753269, 49.471258], [6.0758583, 49.4711956], [6.0761012, 49.471167], [6.076087, 49.4711026], [6.0766763, 49.4710325], [6.0769408, 49.4710656], [6.0771466, 49.4711999], [6.0772076, 49.4711856], [6.0772412, 49.4711709], [6.0773009, 49.471148], [6.0776427, 49.4710095], [6.0776783, 49.4709951], [6.0779602, 49.470905], [6.0782798, 49.4707432], [6.0784023, 49.470615], [6.0784566, 49.4706362], [6.0785354, 49.4706131], [6.0785406, 49.470605], [6.0786366, 49.4704545], [6.0786369, 49.4704491], [6.0786755, 49.4696553], [6.0786388, 49.4693835], [6.0786494, 49.4690382], [6.0786559, 49.4688288], [6.0786436, 49.4686889], [6.0786816, 49.4683302], [6.0786557, 49.4681395], [6.0785532, 49.4673852], [6.0784829, 49.4668681], [6.0784943, 49.4662937], [6.0787798, 49.4639025], [6.0785427, 49.463894], [6.077814, 49.463856], [6.076021, 49.463837], [6.0754223, 49.46381], [6.0748463, 49.46377], [6.0745144, 49.46375], [6.0742474, 49.463726], [6.074114, 49.463715], [6.0739727, 49.463696], [6.0736713, 49.463646], [6.0736065, 49.463844], [6.0735493, 49.464012], [6.073536, 49.4640501], [6.073351, 49.464573], [6.073221, 49.464756], [6.0730762, 49.464954], [6.07292, 49.46513], [6.0727863, 49.46527], [6.072645, 49.46542], [6.072382, 49.46554], [6.072233, 49.46561], [6.071993, 49.465633], [6.071848, 49.46562], [6.071703, 49.465595], [6.071493, 49.46555], [6.0713253, 49.465508], [6.0706463, 49.46532], [6.0703373, 49.46524], [6.0701504, 49.46519], [6.070036, 49.465157], [6.0698833, 49.465103], [6.069582, 49.464985], [6.069544, 49.464977], [6.0692883, 49.46495], [6.069048, 49.464928], [6.068777, 49.46491], [6.0678196, 49.46483], [6.0674267, 49.464817], [6.06719, 49.46481], [6.0666485, 49.464817], [6.066309, 49.46482], [6.066248, 49.464825], [6.0661945, 49.464832], [6.066141, 49.46484], [6.0659924, 49.464874], [6.06584, 49.464905], [6.0657177, 49.464928], [6.065592, 49.464943], [6.0654354, 49.46496], [6.065321, 49.46497], [6.064886, 49.464977], [6.0647182, 49.464985], [6.064352, 49.46498], [6.0638485, 49.46499], [6.0637226, 49.464985], [6.0636578, 49.46499], [6.0633984, 49.465034], [6.062971, 49.465115], [6.0627155, 49.46516], [6.062521, 49.46518], [6.0620785, 49.465233], [6.0618496, 49.465263], [6.0614033, 49.46534], [6.0611362, 49.46539], [6.060755, 49.465515], [6.060499, 49.465603], [6.060152, 49.465714], [6.059599, 49.465885], [6.0589886, 49.466103], [6.058588, 49.46625], [6.0584507, 49.466297], [6.058218, 49.466393], [6.058105, 49.4664378], [6.05805, 49.466366], [6.057844, 49.466164], [6.057783, 49.46609], [6.057638, 49.465935], [6.0575047, 49.46579], [6.057417, 49.465706], [6.057169, 49.46545], [6.0566235, 49.465176], [6.056467, 49.465103], [6.056059, 49.464916], [6.055975, 49.464878], [6.055235, 49.46472], [6.0550556, 49.46469], [6.054491, 49.464577], [6.054125, 49.464413], [6.0536823, 49.46421], [6.053095, 49.4639], [6.0526066, 49.463326], [6.0524654, 49.463154], [6.052126, 49.46271], [6.0519466, 49.462467], [6.0518703, 49.462357], [6.05163, 49.462044], [6.0512714, 49.46158], [6.0511417, 49.4614], [6.050947, 49.461132], [6.0504208, 49.460403], [6.0502605, 49.460205], [6.050131, 49.460033], [6.050066, 49.45995], [6.05002, 49.459873], [6.0499043, 49.4596737], [6.0497873, 49.4594203], [6.0496949, 49.4591095], [6.0496201, 49.4589455], [6.0494823, 49.4587229], [6.0492966, 49.4584922], [6.0490741, 49.4581928], [6.0489074, 49.4579796], [6.0482719, 49.4571832], [6.0481655, 49.4570268], [6.047922, 49.4566935], [6.0478494, 49.4566017], [6.0473805, 49.4560604], [6.0469311, 49.4555526], [6.04692, 49.4550872], [6.0465839, 49.4546344], [6.0464896, 49.454499], [6.0463472, 49.4542878], [6.0458274, 49.4534844], [6.0457112, 49.4533221], [6.0453871, 49.4530169], [6.0451292, 49.4527607], [6.0447208, 49.4523786], [6.0441681, 49.4514979], [6.044085, 49.4513761], [6.0440079, 49.451277], [6.0438135, 49.4509614], [6.0431263, 49.449977], [6.0430135, 49.4496975], [6.0427062, 49.4491125], [6.0422067, 49.4483831], [6.0417732, 49.4478587], [6.0388147, 49.4484655], [6.0382342, 49.4485899], [6.0361391, 49.4487433], [6.0357068, 49.4488541], [6.0353534, 49.4489748], [6.0343323, 49.4493057], [6.0340464, 49.449341], [6.0329766, 49.4494362], [6.0325816, 49.4495358], [6.0322051, 49.4496125]]]}}]}