{"type": "FeatureCollection", "features": [{"type": "Feature", "properties": {"name": "Fensterdall Zone A", "kind": "nature_reserve"}, "geometry": {"type": "Polygon", "coordinates": [[[6.0349233, 49.758179], [6.0350776, 49.7585645], [6.0352559, 49.7588235], [6.0354993, 49.759083], [6.0360655, 49.7588906], [6.0358866, 49.7584695], [6.0358238, 49.7582809], [6.0358232, 49.7581045], [6.0358393, 49.757997], [6.0359278, 49.7578879], [6.0370418, 49.7572558], [6.034863, 49.7568759], [6.0348254, 49.7570111], [6.0348254, 49.7572615], [6.0349233, 49.758179]]]}}]}