{"type": "FeatureCollection", "features": [{"type": "Feature", "properties": {"name": "Puddel", "kind": "park"}, "geometry": {"type": "Polygon", "coordinates": [[[6.386508, 49.6005543], [6.3873933, 49.6006914], [6.3878898, 49.6007393], [6.3884241, 49.6007594], [6.3884434, 49.6007601], [6.3887376, 49.6002434], [6.388637, 49.6001904], [6.3884573, 49.6001799], [6.3883466, 49.6001712], [6.3882816, 49.6001947], [6.3872403, 49.6001685], [6.3866959, 49.6001316], [6.3860704, 49.6000891], [6.3860144, 49.6000626], [6.385957, 49.6001148], [6.3859499, 49.6001266], [6.3859426, 49.6001386], [6.3861663, 49.6001503], [6.3860393, 49.6002321], [6.385919, 49.6004379], [6.386508, 49.6005543]]]}}]}