{"type": "FeatureCollection", "features": [{"type": "Feature", "properties": {"name": "Belgrad", "kind": "nature_reserve"}, "geometry": {"type": "Polygon", "coordinates": [[[6.166087, 49.5058791], [6.1659046, 49.5060672], [6.1657206, 49.5060395], [6.1656133, 49.5060233], [6.1637619, 49.5053981], [6.1636506, 49.505378], [6.1635822, 49.5053833], [6.1635259, 49.5054294], [6.1633381, 49.5057063], [6.1632402, 49.5057952], [6.16309, 49.5058997], [6.1629975, 49.5059093], [6.1629291, 49.5058927], [6.1626917, 49.5057551], [6.1624812, 49.5056419], [6.1623269, 49.5055796], [6.1614478, 49.5056141], [6.1615688, 49.5051836], [6.1616383, 49.5049362], [6.1592195, 49.5042101], [6.1585407, 49.504], [6.1585052, 49.5040463], [6.1583195, 49.504288], [6.1579219, 49.5041563], [6.1573505, 49.503967], [6.157051, 49.5043234], [6.157018, 49.504382], [6.1569918, 49.5044286], [6.1569675, 49.5044718], [6.1596175, 49.5057049], [6.1605432, 49.5061601], [6.160845, 49.5063125], [6.1616966, 49.5068385], [6.1630672, 49.5076588], [6.1635929, 49.5079375], [6.1642417, 49.5082409], [6.1651406, 49.5086167], [6.1667935, 49.5092768], [6.167981, 49.5096008], [6.168435, 49.5097226], [6.1701087, 49.5101128], [6.170967, 49.5102173], [6.1730592, 49.5104332], [6.1749383, 49.5105119], [6.1764189, 49.5104701], [6.1769768, 49.5104283], [6.1768187, 49.5102734], [6.1767928, 49.5102495], [6.1767356, 49.5101361], [6.176209, 49.5102712], [6.1758075, 49.5103739], [6.1753687, 49.5104055], [6.1750396, 49.5104201], [6.1745843, 49.5102263], [6.1735972, 49.5095993], [6.172578, 49.5087076], [6.1721381, 49.5083036], [6.1711501, 49.5078282], [6.1703142, 49.507579], [6.1701543, 49.5075491], [6.1700297, 49.5075209], [6.1699172, 49.5074954], [6.1694988, 49.5072586], [6.1683079, 49.506743], [6.1680722, 49.5066206], [6.1676642, 49.5064086], [6.1665816, 49.5060412], [6.166087, 49.5058791]]]}}]}