{"type": "FeatureCollection", "features": [{"type": "Feature", "properties": {"name": "Parc Théophile Kirsch", "kind": "park"}, "geometry": {"type": "Polygon", "coordinates": [[[5.8760729, 49.5580284], [5.876095, 49.5580554], [5.8766816, 49.5582166], [5.8767153, 49.558209], [5.8768018, 49.5582311], [5.8774227, 49.5571785], [5.8777204, 49.5572494], [5.8778262, 49.5570798], [5.8778445, 49.5570504], [5.877912, 49.5569419], [5.8776916, 49.5568841], [5.8776783, 49.5569041], [5.8776315, 49.5569843], [5.8775933, 49.5569743], [5.8775736, 49.5569692], [5.8774327, 49.5569323], [5.8774235, 49.556947], [5.8773349, 49.5569238], [5.8773434, 49.5569103], [5.8773193, 49.5569039], [5.87716, 49.5571644], [5.8771376, 49.557184], [5.8771054, 49.5571953], [5.8770696, 49.5571981], [5.8770296, 49.5571888], [5.877001, 49.5571689], [5.8769893, 49.5571451], [5.8768895, 49.5571187], [5.8767314, 49.5570772], [5.8762176, 49.5577986], [5.8760729, 49.5580284]]]}}]}