{"type": "FeatureCollection", "features": [{"type": "Feature", "properties": {"name": "Dahlem"}, "geometry": {"type": "Polygon", "coordinates": [[[5.9418336, 49.6082455], [5.9422539, 49.6084249], [5.9422792, 49.6084194], [5.9422885, 49.6084089], [5.9423508, 49.6083392], [5.942377, 49.6083099], [5.9423937, 49.6082911], [5.9424332, 49.6082469], [5.9424803, 49.6081942], [5.9424906, 49.6081826], [5.9425555, 49.60811], [5.9426376, 49.6080181], [5.9426963, 49.6079524], [5.9428226, 49.6078054], [5.9428824, 49.6077404], [5.9429539, 49.6076713], [5.9430516, 49.6075768], [5.9431709, 49.6074615], [5.9432278, 49.6074], [5.9432573, 49.6073681], [5.9432832, 49.6073402], [5.9433383, 49.6072881], [5.9433689, 49.6072592], [5.9433958, 49.6072338], [5.9434344, 49.6072163], [5.9434624, 49.607206], [5.9434797, 49.6071878], [5.9435311, 49.6071337], [5.9437304, 49.607191], [5.9438721, 49.6072285], [5.9440085, 49.6072546], [5.944075, 49.6072651], [5.944152, 49.6072684], [5.9442291, 49.6072675], [5.9443289, 49.6072604], [5.9444784, 49.6072287], [5.9446187, 49.6071866], [5.9447134, 49.6071443], [5.944803, 49.6070896], [5.9448575, 49.6070411], [5.9449243, 49.6069678], [5.9449526, 49.6069196], [5.9449916, 49.6067986], [5.9450756, 49.6068153], [5.9451753, 49.6068486], [5.9452811, 49.6068975], [5.9455033, 49.6070002], [5.945513, 49.6069794], [5.9457308, 49.6070771], [5.9459539, 49.6071772], [5.9460934, 49.6072337], [5.9462934, 49.6073296], [5.9464791, 49.6074273], [5.9466421, 49.6075131], [5.946525, 49.6069401], [5.9468733, 49.6068881], [5.9468821, 49.6069171], [5.9472555, 49.6068936], [5.9473121, 49.6070516], [5.9473811, 49.6070312], [5.9476341, 49.6069445], [5.9478658, 49.6068533], [5.9480934, 49.6067582], [5.9481082, 49.6067499], [5.9481664, 49.6067173], [5.9480911, 49.6065661], [5.9480428, 49.6064577], [5.9480129, 49.6063594], [5.9480093, 49.606198], [5.9481177, 49.6061889], [5.9482007, 49.6061887], [5.9482284, 49.6061886], [5.948546, 49.6061878], [5.9488991, 49.6061848], [5.9489198, 49.6061101], [5.9489368, 49.6060571], [5.9489563, 49.6060147], [5.9489995, 49.6059584], [5.949051, 49.6059551], [5.9492423, 49.6059373], [5.949347, 49.605924], [5.9494236, 49.6059131], [5.9495157, 49.6058916], [5.9496106, 49.6058797], [5.9497166, 49.6058733], [5.9497817, 49.6058647], [5.949819, 49.6058537], [5.9499065, 49.6058176], [5.9499494, 49.6058023], [5.9500015, 49.6057947], [5.9501316, 49.6057884], [5.9501726, 49.6057797], [5.9502303, 49.6057534], [5.9502937, 49.6057315], [5.9503681, 49.6057141], [5.9505058, 49.6056968], [5.9505746, 49.6056848], [5.9507141, 49.6056466], [5.9510356, 49.6055299], [5.9512237, 49.6054621], [5.9512498, 49.6054522], [5.9516547, 49.6053529], [5.9517236, 49.6053332], [5.9517983, 49.6054122], [5.9518778, 49.6054963], [5.9519608, 49.6055841], [5.9520401, 49.6056679], [5.9527514, 49.605434], [5.9528696, 49.6053937], [5.9534202, 49.6052057], [5.9539474, 49.6050257], [5.9539993, 49.6050811], [5.954085, 49.6051725], [5.954135, 49.605226], [5.9542872, 49.6053884], [5.9543835, 49.6054912], [5.9546651, 49.6053679], [5.9552557, 49.6050994], [5.9558298, 49.6048492], [5.9563353, 49.6046287], [5.9565749, 49.6045091], [5.9568307, 49.604355], [5.9572287, 49.6040649], [5.9573339, 49.6041591], [5.9573651, 49.6041221], [5.9578764, 49.6038419], [5.9582412, 49.603622], [5.9584502, 49.6034687], [5.9586479, 49.6033043], [5.9589023, 49.6030896], [5.9590284, 49.6029694], [5.9593123, 49.6026935], [5.9593554, 49.60266], [5.9595718, 49.6025225], [5.9596855, 49.6024295], [5.9598435, 49.6023001], [5.9599398, 49.6022141], [5.9600308, 49.6021327], [5.9600513, 49.6021137], [5.9602808, 49.6019003], [5.9602861, 49.6019019], [5.9605182, 49.6019702], [5.9609264, 49.6021032], [5.9611735, 49.6021836], [5.9619664, 49.602463], [5.9620368, 49.6023703], [5.9622683, 49.6020547], [5.9624765, 49.6020727], [5.9626651, 49.6020836], [5.9628087, 49.6020862], [5.9629642, 49.6020812], [5.9634358, 49.6020552], [5.963654, 49.6020477], [5.9643392, 49.6020242], [5.9644808, 49.6020226], [5.9647561, 49.6018137], [5.9648998, 49.6016812], [5.9650433, 49.6015034], [5.9655334, 49.6008668], [5.9655053, 49.6007974], [5.9664406, 49.6001953], [5.9671927, 49.5997488], [5.9679154, 49.599338], [5.9680545, 49.5993031], [5.9686222, 49.5989668], [5.9687695, 49.5989125], [5.9687438, 49.5989022], [5.9685632, 49.5988289], [5.9684785, 49.5987898], [5.9683431, 49.5987156], [5.9682368, 49.5986595], [5.9681756, 49.5986338], [5.9681531, 49.5986131], [5.968157, 49.5985635], [5.9681548, 49.5985326], [5.9681181, 49.5984974], [5.9680891, 49.5984645], [5.9680807, 49.5984388], [5.9680864, 49.5984138], [5.9681168, 49.598359], [5.9681273, 49.5983222], [5.9681209, 49.5982782], [5.9680908, 49.5982541], [5.9680004, 49.5982473], [5.9679646, 49.5982472], [5.9679457, 49.5982372], [5.9678173, 49.5981374], [5.9677655, 49.5981156], [5.9677231, 49.5981094], [5.9676703, 49.5981154], [5.9676363, 49.5981371], [5.967611, 49.5981484], [5.9675677, 49.5981484], [5.9675439, 49.5981442], [5.9675137, 49.5981358], [5.9674609, 49.5981319], [5.9673997, 49.5981345], [5.9673685, 49.5981372], [5.9673469, 49.5981266], [5.9672746, 49.5980568], [5.9672474, 49.5980239], [5.9672456, 49.5980055], [5.9672947, 49.5979766], [5.9672995, 49.597966], [5.9672995, 49.5979526], [5.9672647, 49.5979436], [5.9672232, 49.5979424], [5.9671758, 49.5979266], [5.9671344, 49.5979154], [5.9670768, 49.5979197], [5.9670448, 49.5979102], [5.9670194, 49.5978934], [5.9669753, 49.597846], [5.9669499, 49.5978237], [5.966902, 49.5977912], [5.9668559, 49.5977633], [5.9667956, 49.5977554], [5.966756, 49.5977542], [5.9667297, 49.5977469], [5.9667099, 49.5977335], [5.9666739, 49.5976651], [5.9666551, 49.5976467], [5.9666202, 49.5976439], [5.9665938, 49.5976494], [5.9665824, 49.5976728], [5.9665776, 49.5976889], [5.9665747, 49.5977096], [5.9665671, 49.5977179], [5.9665454, 49.5977279], [5.9665275, 49.5977334], [5.9664756, 49.5977261], [5.9663937, 49.5977081], [5.9663071, 49.5976818], [5.9662271, 49.597651], [5.9660965, 49.5975796], [5.9660711, 49.5975606], [5.9660561, 49.5975416], [5.9660562, 49.5975093], [5.9660526, 49.5974753], [5.9660338, 49.5974619], [5.9660159, 49.5974519], [5.9659839, 49.5974541], [5.9659083, 49.5974801], [5.9658753, 49.5974851], [5.9658527, 49.59748], [5.9658339, 49.5974588], [5.965819, 49.5974237], [5.9657919, 49.5973763], [5.9657523, 49.597364], [5.9657316, 49.5973684], [5.9656786, 49.5973956], [5.9656419, 49.5974022], [5.9656042, 49.5973916], [5.9655685, 49.5973636], [5.9655318, 49.597343], [5.9654687, 49.5973239], [5.9654773, 49.5973138], [5.9654096, 49.5972903], [5.9653098, 49.5972589], [5.965183, 49.5972358], [5.9649346, 49.5972138], [5.9649311, 49.5971538], [5.9646876, 49.5971319], [5.9644319, 49.5971012], [5.9641483, 49.5970523], [5.9640806, 49.597035], [5.9639071, 49.5969669], [5.9637404, 49.5968889], [5.9636088, 49.5968186], [5.9634329, 49.5967053], [5.9633117, 49.5966175], [5.9631792, 49.5964884], [5.9630604, 49.5963335], [5.9628434, 49.5959999], [5.9624624, 49.5954633], [5.9623359, 49.5952816], [5.9621963, 49.5950932], [5.9620092, 49.5948195], [5.9619403, 49.594706], [5.961906, 49.5945921], [5.9618844, 49.5944303], [5.9618796, 49.5940511], [5.9618839, 49.5936671], [5.9618838, 49.5934684], [5.9619098, 49.5933435], [5.9619726, 49.5931941], [5.9620458, 49.5930546], [5.9612615, 49.592937], [5.9612838, 49.5928528], [5.9601852, 49.5925643], [5.9600806, 49.5925035], [5.9600086, 49.5924814], [5.959684, 49.5928131], [5.9591977, 49.5925576], [5.9586359, 49.5922824], [5.9584865, 49.5922193], [5.9582751, 49.5921345], [5.9577579, 49.5919179], [5.9576865, 49.5918868], [5.9576242, 49.5918598], [5.9575832, 49.5918419], [5.9575576, 49.5918308], [5.9574926, 49.5918026], [5.9574473, 49.5917829], [5.9572299, 49.5916825], [5.9570676, 49.5916076], [5.9570297, 49.59159], [5.9569905, 49.5915706], [5.9569441, 49.5915475], [5.9567244, 49.5914384], [5.9566788, 49.5914051], [5.9566351, 49.5913693], [5.9566318, 49.5913649], [5.9565618, 49.5912718], [5.956536, 49.5912374], [5.9562338, 49.5912676], [5.9561753, 49.5912757], [5.9557871, 49.5913296], [5.9553983, 49.5914064], [5.9552076, 49.5914527], [5.955111, 49.5914761], [5.9548787, 49.591544], [5.954762, 49.591577], [5.9545196, 49.5916456], [5.9541824, 49.591757], [5.954091, 49.5916829], [5.9538096, 49.5917908], [5.9537152, 49.5918323], [5.953554, 49.5919031], [5.9534613, 49.5919458], [5.9533598, 49.5919926], [5.9530029, 49.5921569], [5.9529375, 49.5921887], [5.9527871, 49.5922615], [5.9527349, 49.5922868], [5.952596, 49.5921354], [5.9524652, 49.5919947], [5.9524195, 49.5919413], [5.9523329, 49.5918397], [5.9522752, 49.5917636], [5.9522287, 49.591701], [5.9521812, 49.5916246], [5.9521513, 49.5915692], [5.9521216, 49.5915024], [5.9521038, 49.5914548], [5.9520942, 49.5914204], [5.9518795, 49.5914819], [5.9517403, 49.5915314], [5.9515805, 49.591605], [5.9513755, 49.5917064], [5.9512863, 49.5917621], [5.9510807, 49.5918972], [5.951046, 49.5919205], [5.9508899, 49.5920267], [5.9507939, 49.5920968], [5.9506699, 49.5921959], [5.9504679, 49.5923856], [5.9502116, 49.5926543], [5.9499667, 49.5921954], [5.9497846, 49.592223], [5.9495817, 49.5922569], [5.9495047, 49.592273], [5.9493862, 49.5923058], [5.9493193, 49.5923296], [5.9492026, 49.5923711], [5.9491059, 49.5924149], [5.9487997, 49.5925562], [5.9486184, 49.5923976], [5.9483945, 49.5925304], [5.9483101, 49.592577], [5.9482612, 49.592604], [5.9481264, 49.5926785], [5.947942, 49.5927706], [5.9477674, 49.5928431], [5.9475255, 49.5929448], [5.9468293, 49.5932154], [5.9462939, 49.5934231], [5.9462089, 49.5934531], [5.9456634, 49.5936454], [5.9456171, 49.5935635], [5.9450757, 49.593899], [5.9450155, 49.5939388], [5.9449245, 49.593999], [5.9447644, 49.5941047], [5.9446914, 49.5941529], [5.9445364, 49.5942552], [5.944366, 49.5943662], [5.9439603, 49.5946307], [5.9437641, 49.5947523], [5.9436372, 49.5948243], [5.9433912, 49.5949558], [5.9431479, 49.5950736], [5.9430526, 49.5951496], [5.9427656, 49.5952689], [5.9424116, 49.5954164], [5.9421171, 49.5955391], [5.9414583, 49.5957621], [5.9414287, 49.5957433], [5.9410126, 49.5958906], [5.9408471, 49.5959725], [5.9404692, 49.5961727], [5.9402454, 49.5962723], [5.9398126, 49.5964578], [5.9392619, 49.5966734], [5.939241, 49.5966955], [5.9398917, 49.596902], [5.9401723, 49.5969924], [5.9406616, 49.5971313], [5.9406331, 49.5971741], [5.9403869, 49.5975622], [5.9402018, 49.5978665], [5.940109, 49.5979951], [5.939934, 49.5982538], [5.9398556, 49.5983778], [5.9398291, 49.5984196], [5.9398586, 49.5986566], [5.9398685, 49.59874], [5.9394561, 49.5988185], [5.9390579, 49.5990146], [5.9387816, 49.5991509], [5.9385162, 49.5992639], [5.9385122, 49.5993365], [5.9385174, 49.5995797], [5.9385203, 49.5995959], [5.9385503, 49.5997621], [5.9386336, 49.6000525], [5.9387317, 49.6003183], [5.9388219, 49.6004792], [5.9389543, 49.6007929], [5.9390838, 49.601152], [5.9391471, 49.601394], [5.9391835, 49.6015995], [5.9391868, 49.6017196], [5.9391681, 49.6018619], [5.9391367, 49.6019556], [5.9390031, 49.6022493], [5.9389609, 49.6023738], [5.9388909, 49.6026112], [5.9400455, 49.6026882], [5.9400439, 49.602736], [5.9400552, 49.6028078], [5.940065, 49.6028697], [5.9400767, 49.6029442], [5.9400633, 49.6030262], [5.9400384, 49.6031002], [5.9399648, 49.6032616], [5.9399319, 49.6033451], [5.9399133, 49.6034154], [5.9398999, 49.6034997], [5.9398886, 49.6037033], [5.9398837, 49.6039018], [5.9398884, 49.6041142], [5.9398891, 49.6041439], [5.9398902, 49.6041938], [5.9398097, 49.6042071], [5.9395087, 49.6042566], [5.9394141, 49.6042654], [5.9393084, 49.6042751], [5.9393582, 49.6045666], [5.9394492, 49.6051004], [5.9392736, 49.6051434], [5.9394053, 49.6056915], [5.9394526, 49.6059083], [5.9395024, 49.6061406], [5.9395183, 49.606215], [5.9395744, 49.6063963], [5.9396654, 49.6066394], [5.9397912, 49.6068358], [5.9398257, 49.6068895], [5.9398712, 49.6069607], [5.939999, 49.6071605], [5.9400184, 49.6071815], [5.9401499, 49.6073239], [5.9403059, 49.6074454], [5.9402919, 49.6074524], [5.9403677, 49.607502], [5.9405692, 49.607628], [5.9406501, 49.6076716], [5.9409397, 49.6078255], [5.9411423, 49.6079303], [5.9413409, 49.6080251], [5.9415397, 49.6081142], [5.9418336, 49.6082455]]]}}]}