{"type": "FeatureCollection", "features": [{"type": "Feature", "properties": {"name": "Hivange"}, "geometry": {"type": "Polygon", "coordinates": [[[5.9392619, 49.5966734], [5.9392357, 49.5966571], [5.9390741, 49.5965549], [5.9387258, 49.5963137], [5.9381371, 49.5959179], [5.9378374, 49.5957169], [5.9377044, 49.5956277], [5.9376188, 49.5955644], [5.9374657, 49.595451], [5.9374112, 49.5954004], [5.9373586, 49.5953516], [5.9373242, 49.595309], [5.9372832, 49.5952583], [5.9370689, 49.5952128], [5.9369544, 49.5951793], [5.9367754, 49.5950983], [5.9366415, 49.5950205], [5.935829, 49.594495], [5.9357495, 49.5944384], [5.9357071, 49.594396], [5.9354806, 49.5941092], [5.9351046, 49.5936074], [5.9344755, 49.5928001], [5.934423, 49.5927327], [5.9340771, 49.5922889], [5.9336892, 49.591791], [5.9332637, 49.5912451], [5.9330832, 49.5913096], [5.9329897, 49.591343], [5.9328278, 49.5914128], [5.932672, 49.5914879], [5.9325224, 49.5915685], [5.9323089, 49.5916769], [5.9321572, 49.5917628], [5.9318523, 49.5919087], [5.9316883, 49.5919704], [5.9315056, 49.5920347], [5.9312379, 49.5921231], [5.9309592, 49.5922028], [5.9309432, 49.5922074], [5.9308346, 49.5922387], [5.9305988, 49.5923622], [5.9305314, 49.5923861], [5.9304865, 49.5923912], [5.9304368, 49.5923869], [5.9303696, 49.5923711], [5.9302896, 49.5923428], [5.9302, 49.5922989], [5.9300785, 49.5922371], [5.9299761, 49.5921983], [5.9298513, 49.5921679], [5.9296911, 49.5921373], [5.9295294, 49.5921078], [5.9292844, 49.5920583], [5.9290932, 49.5920236], [5.9290435, 49.5920194], [5.9288945, 49.5920097], [5.9287295, 49.5919979], [5.9286719, 49.5919935], [5.9285908, 49.5919874], [5.9285597, 49.591985], [5.9284563, 49.5919744], [5.9283035, 49.5919537], [5.9282689, 49.591949], [5.9282257, 49.5919477], [5.9281919, 49.5919467], [5.928107, 49.5919476], [5.928046, 49.591953], [5.9280044, 49.5919568], [5.9279258, 49.5919629], [5.9278697, 49.5919638], [5.9277575, 49.5919604], [5.9277134, 49.5919616], [5.9275748, 49.5919653], [5.9274546, 49.5919692], [5.9273455, 49.5919835], [5.92723, 49.5920062], [5.9271658, 49.5920228], [5.9271289, 49.5920373], [5.9270983, 49.5920602], [5.9270485, 49.5920955], [5.9269938, 49.5921277], [5.9269554, 49.5921483], [5.9269889, 49.5921838], [5.9270271, 49.5922255], [5.9270638, 49.5922538], [5.9271022, 49.5922789], [5.9271517, 49.5923046], [5.927222, 49.5923423], [5.9272732, 49.5923706], [5.927369, 49.5924479], [5.9273977, 49.5924792], [5.9274135, 49.5925147], [5.927423, 49.5925491], [5.9274276, 49.5925825], [5.9274387, 49.5926159], [5.9274513, 49.5926513], [5.9274752, 49.5926868], [5.9275022, 49.5927296], [5.9275405, 49.5927714], [5.9275851, 49.5928184], [5.9276314, 49.5928643], [5.9276728, 49.5929228], [5.9277125, 49.5929812], [5.9277459, 49.5930376], [5.9277757, 49.593081], [5.9277817, 49.593089], [5.9278139, 49.5931321], [5.9278458, 49.5931655], [5.9278873, 49.593199], [5.927956, 49.5932481], [5.9277853, 49.5933505], [5.9286322, 49.5940123], [5.9282154, 49.594329], [5.92809, 49.5944243], [5.9278004, 49.5946443], [5.9272015, 49.5943376], [5.9265418, 49.5947701], [5.926401, 49.5948624], [5.9263168, 49.5949176], [5.9262228, 49.5949792], [5.9261268, 49.5949342], [5.9260925, 49.5949517], [5.9260621, 49.5949673], [5.925924, 49.5950379], [5.9258269, 49.5950876], [5.9256346, 49.595186], [5.9256081, 49.5951991], [5.9255788, 49.5952137], [5.9255064, 49.5952497], [5.9254676, 49.595269], [5.9254112, 49.595297], [5.9252775, 49.5953627], [5.9251766, 49.5954122], [5.9250823, 49.5954576], [5.9250486, 49.5954737], [5.9250478, 49.5954742], [5.9249003, 49.5955451], [5.924812, 49.5955849], [5.9247191, 49.5956268], [5.9246413, 49.5956593], [5.924347, 49.5957819], [5.9241525, 49.595863], [5.9239688, 49.5959417], [5.9238522, 49.5959917], [5.9237534, 49.596037], [5.923669, 49.5960757], [5.9234655, 49.5961675], [5.9233863, 49.5962032], [5.9231655, 49.5963044], [5.9230059, 49.5963786], [5.9229711, 49.5963947], [5.9227124, 49.5965223], [5.9222492, 49.5967615], [5.9220282, 49.5965981], [5.9218272, 49.5964494], [5.9215736, 49.5965952], [5.9213613, 49.5967172], [5.9213163, 49.596743], [5.9210929, 49.5968739], [5.9210067, 49.5969289], [5.9208651, 49.5970194], [5.9208106, 49.5970541], [5.9206122, 49.5971808], [5.920513, 49.5972442], [5.9205235, 49.5972602], [5.9205378, 49.5973193], [5.9205376, 49.5973548], [5.9205341, 49.5974131], [5.920516, 49.5975079], [5.9204867, 49.5976069], [5.9204687, 49.5976736], [5.9204363, 49.5977381], [5.9204074, 49.5977835], [5.92033, 49.5978906], [5.9202203, 49.5980165], [5.9199239, 49.5983624], [5.9198316, 49.5984639], [5.9198155, 49.5984816], [5.9197547, 49.5985486], [5.919705, 49.5985991], [5.9196773, 49.5986273], [5.919637, 49.5986682], [5.9195835, 49.5987182], [5.9193075, 49.5989733], [5.9192029, 49.5990659], [5.9191513, 49.5991179], [5.9190772, 49.599199], [5.9189611, 49.5993312], [5.9188035, 49.5994971], [5.9182784, 49.5999921], [5.9179018, 49.6003409], [5.9178599, 49.6003762], [5.9179057, 49.6004991], [5.917931, 49.60057], [5.9179479, 49.6007212], [5.9179449, 49.6008447], [5.9179389, 49.6009428], [5.9178666, 49.6009347], [5.9177144, 49.6009175], [5.9175668, 49.6009009], [5.9174805, 49.6008911], [5.9173763, 49.6011324], [5.9173178, 49.6012662], [5.9172523, 49.6013955], [5.9171962, 49.6015037], [5.9171472, 49.6015878], [5.9170633, 49.601714], [5.91697, 49.6018447], [5.9171478, 49.6019249], [5.9170827, 49.6019849], [5.9168833, 49.6021569], [5.9167578, 49.6022605], [5.9166741, 49.6023235], [5.9165696, 49.602397], [5.9164698, 49.60246], [5.9163874, 49.6025013], [5.9163341, 49.6025223], [5.9162646, 49.6025372], [5.9161673, 49.6025535], [5.9160006, 49.6025712], [5.9157181, 49.6025992], [5.9153986, 49.6026286], [5.9152434, 49.6026508], [5.9150211, 49.6026835], [5.914632, 49.6027518], [5.914618, 49.6031569], [5.91462, 49.6032126], [5.9142271, 49.6032276], [5.9142292, 49.6032818], [5.9140407, 49.6034815], [5.9139127, 49.6036121], [5.9137569, 49.6037668], [5.9135732, 49.6039214], [5.9134245, 49.6040399], [5.9130948, 49.6042992], [5.9129014, 49.6041978], [5.9127346, 49.6043248], [5.9124859, 49.6045214], [5.9122535, 49.6047029], [5.9120537, 49.6048514], [5.911857, 49.6049901], [5.9116271, 49.6051386], [5.9114019, 49.605281], [5.9111697, 49.6054235], [5.9106166, 49.6057551], [5.9106037, 49.6057635], [5.9104986, 49.6058318], [5.9103254, 49.6059444], [5.9100583, 49.6061304], [5.9093776, 49.6066239], [5.9087875, 49.6070604], [5.9086411, 49.6071683], [5.9088231, 49.607344], [5.9088328, 49.6073533], [5.9087425, 49.6073944], [5.9086567, 49.6074318], [5.9086196, 49.6074483], [5.9084917, 49.6075548], [5.908415, 49.6076133], [5.9082989, 49.6076958], [5.9079618, 49.6079689], [5.9078479, 49.6080785], [5.9078246, 49.608107], [5.9078175, 49.6081341], [5.9078196, 49.6081687], [5.907831, 49.6082034], [5.9078563, 49.6082395], [5.9079, 49.6082893], [5.9079414, 49.608333], [5.9079736, 49.6083632], [5.908052, 49.6084205], [5.9080981, 49.6084567], [5.9081211, 49.6084854], [5.9081233, 49.6085064], [5.9081116, 49.608532], [5.9081367, 49.6085378], [5.9084213, 49.6086042], [5.908657, 49.608686], [5.9084597, 49.6087924], [5.908332, 49.6088583], [5.908267, 49.6089063], [5.9081996, 49.6089634], [5.9081506, 49.6090219], [5.908111, 49.609082], [5.9080741, 49.6091516], [5.9080586, 49.6091928], [5.9080459, 49.6092267], [5.90802, 49.6093079], [5.9079704, 49.6094959], [5.9079596, 49.6095314], [5.9079563, 49.6095425], [5.9079352, 49.6095876], [5.907884, 49.6096462], [5.907735, 49.6098083], [5.9074818, 49.6100989], [5.9073974, 49.6101945], [5.9073095, 49.6102941], [5.9071814, 49.610431], [5.9071395, 49.6104758], [5.9071301, 49.6104866], [5.907044, 49.6105854], [5.9070058, 49.6106282], [5.9069649, 49.610674], [5.906878, 49.6107846], [5.906867, 49.6107987], [5.906842, 49.6108394], [5.9068273, 49.6108633], [5.9068065, 49.6109047], [5.9067874, 49.6109685], [5.9067797, 49.6109961], [5.906752, 49.6110948], [5.9067214, 49.6112233], [5.9067071, 49.6113], [5.9066998, 49.6113647], [5.9066971, 49.6114279], [5.9066967, 49.6115106], [5.9066985, 49.6116024], [5.9067051, 49.6116752], [5.9067073, 49.6116987], [5.9067132, 49.6118755], [5.9067127, 49.6119853], [5.9067121, 49.6120951], [5.906702, 49.6122561], [5.9066964, 49.6122942], [5.9066779, 49.6124201], [5.9066421, 49.6126321], [5.9066184, 49.6127396], [5.9065549, 49.6129321], [5.9064963, 49.6130809], [5.9064749, 49.6131862], [5.906472, 49.6132148], [5.9064675, 49.6132584], [5.9064694, 49.6133366], [5.9064828, 49.6134314], [5.9065054, 49.6135458], [5.9065405, 49.613696], [5.9066433, 49.6136946], [5.9069227, 49.613699], [5.9075207, 49.6136833], [5.9082625, 49.6139478], [5.908795, 49.6141552], [5.9092695, 49.6143616], [5.9093643, 49.6144028], [5.9094393, 49.6144329], [5.91023, 49.6147177], [5.9103482, 49.614604], [5.9104529, 49.6145034], [5.9105023, 49.6144559], [5.9109337, 49.6145884], [5.9114838, 49.6147702], [5.9119782, 49.6149466], [5.9120131, 49.6149047], [5.9125481, 49.6150128], [5.9130205, 49.6151069], [5.9136073, 49.6152132], [5.9140203, 49.6152889], [5.9145073, 49.6153748], [5.9148177, 49.6154257], [5.9150277, 49.6154554], [5.9152004, 49.6154695], [5.9153727, 49.6154821], [5.9154711, 49.6154893], [5.916301, 49.6155498], [5.916378, 49.6155555], [5.9158994, 49.6160387], [5.9156588, 49.616263], [5.9157046, 49.6162897], [5.9159407, 49.6164672], [5.9160705, 49.6165649], [5.9162582, 49.6166995], [5.916412, 49.6167968], [5.9165743, 49.6168867], [5.9167479, 49.6169497], [5.9169378, 49.6169989], [5.9172001, 49.6170403], [5.9175291, 49.6170747], [5.9179285, 49.6170985], [5.9182991, 49.6170863], [5.9186949, 49.6170365], [5.919199, 49.6169312], [5.9194729, 49.6168484], [5.9197359, 49.6167614], [5.9202169, 49.6165665], [5.9202337, 49.6165599], [5.9203517, 49.6165134], [5.9207121, 49.6162923], [5.9211453, 49.6163203], [5.9213617, 49.6163343], [5.9220667, 49.6163665], [5.9225106, 49.6163777], [5.922675, 49.6163747], [5.9228922, 49.6163708], [5.9230437, 49.6163647], [5.9234803, 49.6165603], [5.9236583, 49.61664], [5.9240641, 49.6167983], [5.9243582, 49.6168821], [5.9245357, 49.6169124], [5.924641, 49.6167236], [5.9245792, 49.6167264], [5.9246577, 49.616576], [5.9246686, 49.6165551], [5.9247089, 49.6164779], [5.9247427, 49.6164131], [5.9249245, 49.616437], [5.9250141, 49.6164446], [5.9250897, 49.6164458], [5.9252226, 49.6164402], [5.9252645, 49.6163588], [5.925315, 49.6162085], [5.9253399, 49.616142], [5.9254261, 49.6159113], [5.925502, 49.615647], [5.9244646, 49.6155035], [5.9241017, 49.6154492], [5.924142, 49.615418], [5.9241917, 49.6153797], [5.9242467, 49.6153435], [5.9243034, 49.6153063], [5.9244266, 49.615233], [5.9244383, 49.6152261], [5.9245465, 49.6151684], [5.9246597, 49.6151205], [5.9247562, 49.6150933], [5.9249325, 49.6150504], [5.925399, 49.6149635], [5.9256204, 49.6149199], [5.9259161, 49.6148615], [5.9262, 49.6148055], [5.9262645, 49.6147906], [5.9264827, 49.6147403], [5.9265499, 49.6147217], [5.9266939, 49.6146819], [5.9267559, 49.6146625], [5.9269142, 49.614613], [5.9270425, 49.6145681], [5.9271122, 49.6145437], [5.927176, 49.6145187], [5.9273012, 49.6144696], [5.9273634, 49.6144461], [5.9271252, 49.6142444], [5.9271685, 49.614221], [5.927199, 49.6142024], [5.9273709, 49.6140978], [5.9274399, 49.6140559], [5.9275699, 49.6139767], [5.9279201, 49.6141431], [5.9282534, 49.6143014], [5.9283831, 49.614363], [5.9285198, 49.6142612], [5.9286765, 49.614132], [5.9287596, 49.6140461], [5.9288248, 49.6139647], [5.9288733, 49.613902], [5.9289335, 49.6138059], [5.9289654, 49.6137363], [5.9289957, 49.6136308], [5.9290161, 49.6135308], [5.9290227, 49.6134459], [5.9290338, 49.6133017], [5.9290621, 49.6129516], [5.9290717, 49.6128512], [5.9291024, 49.6125303], [5.9294468, 49.6123944], [5.9295134, 49.6123661], [5.9297015, 49.6122713], [5.9297821, 49.6122279], [5.930087, 49.6120165], [5.9302024, 49.6119296], [5.9303287, 49.6118345], [5.9305438, 49.6116331], [5.9305904, 49.6116018], [5.9307778, 49.611665], [5.9305726, 49.6119027], [5.9304286, 49.6120696], [5.9303704, 49.6121371], [5.930664, 49.6122383], [5.9310087, 49.6123572], [5.9311331, 49.6124002], [5.9311561, 49.6124081], [5.9311946, 49.6124214], [5.9313117, 49.6124617], [5.9314869, 49.6125222], [5.9314743, 49.6125394], [5.9314226, 49.6126105], [5.931614, 49.612701], [5.9317482, 49.6127631], [5.9319439, 49.6128322], [5.9321163, 49.6128895], [5.9322689, 49.612933], [5.9324016, 49.6129686], [5.9325069, 49.612994], [5.9325982, 49.6130109], [5.9326845, 49.6130199], [5.9327875, 49.6130221], [5.9329337, 49.6130155], [5.93305, 49.6130069], [5.9331614, 49.6129894], [5.9332644, 49.61297], [5.9333952, 49.612935], [5.93349, 49.6129068], [5.9336248, 49.6128609], [5.9340724, 49.6126812], [5.9347238, 49.6123914], [5.9350493, 49.6122375], [5.9353407, 49.6120859], [5.9354629, 49.6120176], [5.9355139, 49.6119891], [5.935592, 49.6119306], [5.9357254, 49.611819], [5.9359389, 49.611627], [5.9360777, 49.6114992], [5.9364387, 49.6111667], [5.9365392, 49.6110735], [5.9365538, 49.6110599], [5.9366255, 49.6110031], [5.9368154, 49.6108906], [5.9371781, 49.6106939], [5.9373242, 49.6106146], [5.9376457, 49.6104288], [5.9377523, 49.6103602], [5.9378517, 49.6102836], [5.9379501, 49.6101984], [5.9380503, 49.6100955], [5.9381588, 49.6099584], [5.9382963, 49.6100508], [5.9384982, 49.6101877], [5.9387714, 49.6100298], [5.9390112, 49.6098913], [5.939182, 49.6100322], [5.9392388, 49.6100791], [5.9393996, 49.6099972], [5.9395406, 49.6099253], [5.9396417, 49.6098738], [5.9398563, 49.6097673], [5.9398992, 49.609746], [5.9401288, 49.609632], [5.9408287, 49.6092922], [5.9409072, 49.6092541], [5.9410412, 49.6091879], [5.9410718, 49.6091713], [5.9407437, 49.6090224], [5.9407615, 49.6090103], [5.9408909, 49.6089158], [5.9414399, 49.6085148], [5.9415162, 49.6084608], [5.9414519, 49.6083939], [5.9415158, 49.6083228], [5.9418336, 49.6082455], [5.9415397, 49.6081142], [5.9413409, 49.6080251], [5.9411423, 49.6079303], [5.9409397, 49.6078255], [5.9406501, 49.6076716], [5.9405692, 49.607628], [5.9403677, 49.607502], [5.9402919, 49.6074524], [5.9403059, 49.6074454], [5.9401499, 49.6073239], [5.9400184, 49.6071815], [5.939999, 49.6071605], [5.9398712, 49.6069607], [5.9398257, 49.6068895], [5.9397912, 49.6068358], [5.9396654, 49.6066394], [5.9395744, 49.6063963], [5.9395183, 49.606215], [5.9395024, 49.6061406], [5.9394526, 49.6059083], [5.9394053, 49.6056915], [5.9392736, 49.6051434], [5.9394492, 49.6051004], [5.9393582, 49.6045666], [5.9393084, 49.6042751], [5.9394141, 49.6042654], [5.9395087, 49.6042566], [5.9398097, 49.6042071], [5.9398902, 49.6041938], [5.9398891, 49.6041439], [5.9398884, 49.6041142], [5.9398837, 49.6039018], [5.9398886, 49.6037033], [5.9398999, 49.6034997], [5.9399133, 49.6034154], [5.9399319, 49.6033451], [5.9399648, 49.6032616], [5.9400384, 49.6031002], [5.9400633, 49.6030262], [5.9400767, 49.6029442], [5.940065, 49.6028697], [5.9400552, 49.6028078], [5.9400439, 49.602736], [5.9400455, 49.6026882], [5.9388909, 49.6026112], [5.9389609, 49.6023738], [5.9390031, 49.6022493], [5.9391367, 49.6019556], [5.9391681, 49.6018619], [5.9391868, 49.6017196], [5.9391835, 49.6015995], [5.9391471, 49.601394], [5.9390838, 49.601152], [5.9389543, 49.6007929], [5.9388219, 49.6004792], [5.9387317, 49.6003183], [5.9386336, 49.6000525], [5.9385503, 49.5997621], [5.9385203, 49.5995959], [5.9385174, 49.5995797], [5.9385122, 49.5993365], [5.9385162, 49.5992639], [5.9387816, 49.5991509], [5.9390579, 49.5990146], [5.9394561, 49.5988185], [5.9398685, 49.59874], [5.9398586, 49.5986566], [5.9398291, 49.5984196], [5.9398556, 49.5983778], [5.939934, 49.5982538], [5.940109, 49.5979951], [5.9402018, 49.5978665], [5.9403869, 49.5975622], [5.9406331, 49.5971741], [5.9406616, 49.5971313], [5.9401723, 49.5969924], [5.9398917, 49.596902], [5.939241, 49.5966955], [5.9392619, 49.5966734]]]}}]}