{"type": "FeatureCollection", "features": [{"type": "Feature", "properties": {"name": "Bourscheid"}, "geometry": {"type": "MultiPolygon", "coordinates": [[[[6.011342, 49.893284], [6.011361, 49.893296], [6.012494, 49.89341], [6.013147, 49.893471], [6.013597, 49.893509], [6.014013, 49.893551], [6.01425, 49.893576], [6.015214, 49.893703], [6.015863, 49.893786], [6.015844, 49.893982], [6.015828, 49.894172], [6.015828, 49.894206], [6.015814, 49.894536], [6.014131, 49.894566], [6.014104, 49.894746], [6.014108, 49.894826], [6.014108, 49.894913], [6.014104, 49.895153], [6.014104, 49.895344], [6.014108, 49.895416], [6.014108, 49.895561], [6.014055, 49.896023], [6.014047, 49.896196], [6.014043, 49.896343], [6.014043, 49.896406], [6.014051, 49.896454], [6.014066, 49.896511], [6.014089, 49.896583], [6.014131, 49.896683], [6.014192, 49.89685], [6.014303, 49.897066], [6.014486, 49.897449], [6.014562, 49.897613], [6.014615, 49.897726], [6.01478, 49.897739], [6.014917, 49.897758], [6.015051, 49.897786], [6.015306, 49.897831], [6.015512, 49.897892], [6.015779, 49.897996], [6.015905, 49.898048], [6.016149, 49.898163], [6.016187, 49.898182], [6.016305, 49.898243], [6.016386, 49.898292], [6.016405, 49.8983], [6.016538, 49.898406], [6.016641, 49.898491], [6.016855, 49.898696], [6.017027, 49.898853], [6.017339, 49.899093], [6.017423, 49.899151], [6.017659, 49.899296], [6.018018, 49.899479], [6.018427, 49.899662], [6.018644, 49.899742], [6.018918, 49.899833], [6.019285, 49.899952], [6.019551, 49.900013], [6.019616, 49.90002], [6.020215, 49.900032], [6.020311, 49.900036], [6.020303, 49.90007], [6.020292, 49.900146], [6.020269, 49.900276], [6.0202, 49.900692], [6.020169, 49.900822], [6.020105, 49.900963], [6.01996, 49.901253], [6.019869, 49.901371], [6.019857, 49.901378], [6.0198, 49.90142], [6.019723, 49.901474], [6.019529, 49.9016], [6.019304, 49.901718], [6.019235, 49.901752], [6.019075, 49.90184], [6.018831, 49.90197], [6.018647, 49.902066], [6.018354, 49.902214], [6.018152, 49.902306], [6.017896, 49.90242], [6.017659, 49.902506], [6.017438, 49.90258], [6.017152, 49.902664], [6.016451, 49.902846], [6.016653, 49.903034], [6.017049, 49.903419], [6.017076, 49.903499], [6.017091, 49.90353], [6.017122, 49.903568], [6.01716, 49.903614], [6.017313, 49.903728], [6.017503, 49.903862], [6.017572, 49.9039], [6.017957, 49.904098], [6.018163, 49.904209], [6.018308, 49.904293], [6.018396, 49.904346], [6.018656, 49.90451], [6.018781, 49.904598], [6.018872, 49.904659], [6.018991, 49.904751], [6.019178, 49.904888], [6.019346, 49.905021], [6.019544, 49.905182], [6.019578, 49.905206], [6.019704, 49.905472], [6.019941, 49.905933], [6.020044, 49.906156], [6.020341, 49.906742], [6.020505, 49.9071], [6.020608, 49.907286], [6.020899, 49.90776], [6.02107, 49.908026], [6.021501, 49.90871], [6.021005, 49.908783], [6.020872, 49.908826], [6.020532, 49.908926], [6.020036, 49.909069], [6.019674, 49.909168], [6.019262, 49.909266], [6.018983, 49.909336], [6.01864, 49.909393], [6.018697, 49.909506], [6.018541, 49.909606], [6.018743, 49.909931], [6.0188, 49.909996], [6.018903, 49.910096], [6.019059, 49.910229], [6.019445, 49.910511], [6.019777, 49.910751], [6.019869, 49.910824], [6.019899, 49.91085], [6.020063, 49.911016], [6.020131, 49.911076], [6.020288, 49.911209], [6.020379, 49.911276], [6.02041, 49.911296], [6.020498, 49.91135], [6.020539, 49.911366], [6.020601, 49.911388], [6.020696, 49.911419], [6.020799, 49.911449], [6.020929, 49.91148], [6.021001, 49.911663], [6.021089, 49.911876], [6.021177, 49.912076], [6.02123, 49.912176], [6.021272, 49.912243], [6.021352, 49.912356], [6.021352, 49.912464], [6.021356, 49.91254], [6.021368, 49.912571], [6.021436, 49.912676], [6.021482, 49.912756], [6.021509, 49.912811], [6.021512, 49.912846], [6.021512, 49.912876], [6.021509, 49.912933], [6.021494, 49.913032], [6.021497, 49.913078], [6.021509, 49.913126], [6.021597, 49.913479], [6.021409, 49.913756], [6.021208, 49.914001], [6.021001, 49.914256], [6.020799, 49.914516], [6.020696, 49.914646], [6.020601, 49.914749], [6.021135, 49.915156], [6.021414, 49.915344], [6.021703, 49.915536], [6.021913, 49.915649], [6.02218, 49.915798], [6.022264, 49.915844], [6.022317, 49.91587], [6.022367, 49.91589], [6.02242, 49.915906], [6.022508, 49.915909], [6.022779, 49.915932], [6.022886, 49.915943], [6.023096, 49.915981], [6.023206, 49.916], [6.023244, 49.916004], [6.023278, 49.916004], [6.023344, 49.916], [6.023442, 49.915989], [6.023523, 49.915973], [6.023645, 49.915943], [6.023782, 49.915901], [6.023893, 49.915878], [6.023992, 49.915866], [6.024133, 49.915866], [6.024244, 49.915863], [6.024263, 49.91587], [6.024286, 49.915882], [6.024305, 49.915893], [6.024328, 49.915896], [6.024355, 49.915896], [6.024381, 49.915893], [6.024423, 49.915882], [6.02445, 49.915876], [6.024488, 49.915876], [6.024518, 49.915882], [6.024545, 49.915882], [6.024576, 49.915886], [6.024614, 49.91589], [6.024682, 49.915876], [6.024751, 49.915863], [6.024812, 49.915859], [6.024873, 49.915856], [6.024927, 49.915851], [6.024972, 49.915844], [6.025041, 49.915826], [6.025194, 49.915776], [6.025281, 49.915756], [6.025388, 49.915733], [6.025491, 49.915726], [6.025571, 49.915722], [6.025792, 49.915748], [6.025869, 49.915752], [6.026075, 49.915752], [6.026143, 49.915741], [6.026216, 49.915733], [6.026258, 49.915736], [6.026315, 49.915733], [6.026342, 49.915726], [6.026391, 49.915703], [6.026422, 49.915691], [6.026468, 49.915686], [6.026559, 49.915686], [6.026624, 49.915691], [6.026769, 49.915686], [6.026884, 49.915691], [6.026952, 49.915696], [6.027024, 49.915703], [6.027036, 49.915703], [6.027158, 49.915722], [6.02722, 49.915729], [6.027334, 49.915741], [6.027387, 49.915813], [6.027402, 49.91584], [6.027478, 49.915924], [6.027544, 49.915962], [6.027822, 49.916023], [6.027933, 49.916056], [6.02804, 49.916103], [6.028162, 49.91616], [6.028269, 49.916216], [6.028398, 49.916313], [6.028455, 49.916351], [6.028539, 49.916393], [6.028608, 49.916416], [6.028886, 49.916511], [6.029065, 49.916576], [6.029184, 49.91663], [6.029272, 49.916676], [6.029531, 49.916839], [6.029608, 49.916893], [6.029706, 49.916956], [6.029859, 49.917068], [6.029943, 49.917141], [6.030019, 49.917166], [6.030084, 49.917196], [6.030157, 49.91724], [6.030416, 49.917426], [6.030519, 49.917516], [6.03061, 49.917591], [6.030683, 49.917646], [6.030702, 49.917656], [6.030786, 49.917702], [6.03087, 49.917751], [6.030931, 49.917789], [6.030988, 49.917816], [6.031072, 49.917866], [6.031206, 49.917926], [6.031275, 49.917976], [6.031294, 49.918011], [6.031339, 49.918049], [6.03143, 49.918083], [6.031526, 49.918121], [6.031587, 49.918159], [6.031663, 49.918228], [6.031739, 49.918293], [6.031812, 49.918369], [6.031877, 49.918419], [6.03198, 49.918496], [6.032037, 49.918522], [6.032118, 49.91856], [6.032174, 49.918576], [6.032274, 49.918602], [6.032381, 49.918651], [6.032716, 49.918826], [6.032941, 49.918916], [6.033182, 49.918999], [6.033399, 49.919066], [6.033453, 49.919079], [6.033502, 49.91909], [6.033605, 49.919116], [6.033712, 49.919163], [6.033788, 49.919186], [6.033895, 49.919216], [6.034055, 49.91925], [6.034173, 49.919286], [6.034269, 49.919311], [6.034364, 49.919346], [6.034513, 49.919416], [6.034532, 49.919418], [6.034609, 49.919449], [6.034703, 49.919476], [6.03478, 49.919496], [6.034917, 49.919526], [6.035001, 49.91951], [6.035032, 49.919506], [6.035093, 49.919502], [6.035192, 49.919502], [6.035306, 49.91951], [6.035379, 49.919521], [6.035513, 49.919544], [6.035646, 49.919563], [6.035722, 49.919571], [6.035829, 49.919586], [6.035963, 49.919594], [6.036031, 49.919596], [6.036107, 49.919606], [6.036145, 49.919609], [6.03618, 49.919613], [6.036295, 49.919651], [6.036321, 49.919658], [6.036367, 49.919674], [6.036409, 49.919681], [6.036478, 49.919689], [6.036569, 49.919712], [6.036607, 49.91975], [6.03663, 49.919761], [6.036676, 49.919773], [6.036748, 49.9198], [6.036773, 49.919809], [6.036802, 49.919823], [6.036846, 49.919851], [6.037019, 49.91999], [6.037172, 49.920139], [6.03733, 49.920168], [6.037618, 49.919495], [6.03788, 49.91924], [6.038073, 49.919125], [6.038264, 49.91907], [6.038561, 49.919067], [6.038839, 49.919132], [6.039113, 49.919266], [6.039268, 49.919415], [6.039434, 49.91962], [6.039498, 49.919765], [6.039607, 49.920074], [6.039691, 49.920387], [6.039705, 49.92051], [6.039709, 49.920986], [6.039683, 49.92138], [6.039502, 49.922016], [6.039451, 49.92225], [6.039412, 49.92243], [6.039402, 49.922623], [6.039348, 49.922806], [6.038933, 49.923508], [6.038389, 49.924263], [6.038213, 49.92459], [6.038191, 49.924835], [6.038239, 49.92499], [6.038572, 49.925316], [6.039038, 49.925823], [6.039419, 49.926033], [6.039712, 49.926113], [6.0401, 49.926167], [6.040384, 49.926144], [6.040401, 49.926136], [6.041082, 49.92604], [6.042723, 49.925705], [6.043981, 49.92543], [6.045441, 49.92511], [6.04654, 49.92488], [6.047299, 49.924644], [6.047804, 49.924393], [6.048089, 49.924206], [6.048163, 49.92415], [6.048388, 49.92398], [6.048931, 49.923534], [6.049, 49.923492], [6.049067, 49.923485], [6.049104, 49.92349], [6.049162, 49.923508], [6.049203, 49.923534], [6.049244, 49.923588], [6.049279, 49.923763], [6.0493, 49.92392], [6.049299, 49.92403], [6.049222, 49.924324], [6.049077, 49.92475], [6.048963, 49.925076], [6.048845, 49.925392], [6.048704, 49.925762], [6.048409, 49.926453], [6.048211, 49.927055], [6.048086, 49.92749], [6.04796, 49.92782], [6.047807, 49.928104], [6.047656, 49.92832], [6.04755, 49.928482], [6.047425, 49.928635], [6.047142, 49.928875], [6.046449, 49.92921], [6.045778, 49.92953], [6.045478, 49.929646], [6.044721, 49.92998], [6.043887, 49.93041], [6.043731, 49.930557], [6.043577, 49.930794], [6.043523, 49.930996], [6.043514, 49.931023], [6.04351, 49.931183], [6.043538, 49.93129], [6.043576, 49.931362], [6.04363, 49.93159], [6.043639, 49.93167], [6.043648, 49.931747], [6.043667, 49.931885], [6.043722, 49.93202], [6.043797, 49.93208], [6.043808, 49.932087], [6.043882, 49.93214], [6.043894, 49.93215], [6.044008, 49.932236], [6.044187, 49.932446], [6.044302, 49.93266], [6.04434, 49.932777], [6.044371, 49.9329], [6.044371, 49.933002], [6.044309, 49.93315], [6.044185, 49.933315], [6.043973, 49.93351], [6.043829, 49.93363], [6.0437, 49.93365], [6.043685, 49.93365], [6.043593, 49.933666], [6.043579, 49.93367], [6.043423, 49.933693], [6.042198, 49.933952], [6.041778, 49.934044], [6.041537, 49.934155], [6.041325, 49.934284], [6.041148, 49.934456], [6.040993, 49.934704], [6.040905, 49.9349], [6.040885, 49.935], [6.040892, 49.93518], [6.040869, 49.935524], [6.040835, 49.935722], [6.040815, 49.935898], [6.040809, 49.93602], [6.0408, 49.936157], [6.040802, 49.936356], [6.040846, 49.936497], [6.040918, 49.93667], [6.041005, 49.936783], [6.041162, 49.936935], [6.041245, 49.937016], [6.041268, 49.937073], [6.041238, 49.93718], [6.041178, 49.937347], [6.041179, 49.937447], [6.041305, 49.93753], [6.041316, 49.93754], [6.041383, 49.93758], [6.041394, 49.937588], [6.041553, 49.93769], [6.041906, 49.93789], [6.042037, 49.93802], [6.042129, 49.938187], [6.042157, 49.93831], [6.042145, 49.938393], [6.042079, 49.93846], [6.041964, 49.938503], [6.041713, 49.93855], [6.041604, 49.938572], [6.041543, 49.93857], [6.041301, 49.938564], [6.040994, 49.938538], [6.040583, 49.93846], [6.04023, 49.93844], [6.040031, 49.938446], [6.039803, 49.938496], [6.038742, 49.93879], [6.038235, 49.938942], [6.038096, 49.939014], [6.038065, 49.939053], [6.038021, 49.939106], [6.037878, 49.939552], [6.037715, 49.940014], [6.037641, 49.940098], [6.037642, 49.9401], [6.037569, 49.94022], [6.037554, 49.940277], [6.037455, 49.940758], [6.037394, 49.94095], [6.037409, 49.941036], [6.037428, 49.941162], [6.037416, 49.941257], [6.037378, 49.94145], [6.037363, 49.941494], [6.037283, 49.941612], [6.037268, 49.941643], [6.037271, 49.941673], [6.037271, 49.941765], [6.037256, 49.94181], [6.037149, 49.94202], [6.037165, 49.94221], [6.037085, 49.94228], [6.036917, 49.94242], [6.036764, 49.942783], [6.036734, 49.94286], [6.036722, 49.94313], [6.036745, 49.94317], [6.036798, 49.943253], [6.036806, 49.943287], [6.036802, 49.943348], [6.03676, 49.94349], [6.036749, 49.943565], [6.036753, 49.9438], [6.036764, 49.94414], [6.036787, 49.94423], [6.036814, 49.944317], [6.03694, 49.944496], [6.037027, 49.9446], [6.03731, 49.944828], [6.037462, 49.944942], [6.037558, 49.94503], [6.03763, 49.945107], [6.037687, 49.945164], [6.037935, 49.945423], [6.038034, 49.945522], [6.03824, 49.945675], [6.038389, 49.945793], [6.038557, 49.945923], [6.038656, 49.94599], [6.038698, 49.946014], [6.038836, 49.94608], [6.038996, 49.94613], [6.039068, 49.94615], [6.039255, 49.94622], [6.039377, 49.94627], [6.039518, 49.946346], [6.039629, 49.946426], [6.039679, 49.946465], [6.039747, 49.94652], [6.039801, 49.946598], [6.039888, 49.946743], [6.039942, 49.94682], [6.040018, 49.946915], [6.040106, 49.94699], [6.040235, 49.94706], [6.040373, 49.947124], [6.0404, 49.947132], [6.040502, 49.94714], [6.040747, 49.94716], [6.040998, 49.94721], [6.04133, 49.94728], [6.041597, 49.94736], [6.041902, 49.947475], [6.042162, 49.947575], [6.042513, 49.947727], [6.042734, 49.94781], [6.042986, 49.94789], [6.043207, 49.947964], [6.043352, 49.948017], [6.043406, 49.94805], [6.043444, 49.94807], [6.043497, 49.948082], [6.043573, 49.94809], [6.043741, 49.94814], [6.043989, 49.94824], [6.044115, 49.948273], [6.044317, 49.948326], [6.044512, 49.94838], [6.044683, 49.948433], [6.044909, 49.94851], [6.04516, 49.94858], [6.045256, 49.94861], [6.045702, 49.94874], [6.045958, 49.948807], [6.046072, 49.948837], [6.046175, 49.948856], [6.046232, 49.948856], [6.046305, 49.94885], [6.046484, 49.948822], [6.046541, 49.94881], [6.046648, 49.94882], [6.046751, 49.94883], [6.046808, 49.948826], [6.046869, 49.94882], [6.046987, 49.94876], [6.047087, 49.94871], [6.047171, 49.94865], [6.047228, 49.94862], [6.047342, 49.948597], [6.047396, 49.948578], [6.047483, 49.948536], [6.047621, 49.948505], [6.047735, 49.948483], [6.047857, 49.94845], [6.047964, 49.948437], [6.048292, 49.948418], [6.048498, 49.948414], [6.04867, 49.948414], [6.048742, 49.948406], [6.048845, 49.94838], [6.048975, 49.948357], [6.049196, 49.94829], [6.049406, 49.948223], [6.049559, 49.948185], [6.04973, 49.94812], [6.049822, 49.9481], [6.049921, 49.948093], [6.049974, 49.9481], [6.050081, 49.948055], [6.050177, 49.94803], [6.050241, 49.948025], [6.050341, 49.948032], [6.050383, 49.948055], [6.050489, 49.948177], [6.050619, 49.948326], [6.050703, 49.948402], [6.050791, 49.94847], [6.050959, 49.9486], [6.051191, 49.94878], [6.051306, 49.948883], [6.051489, 49.949074], [6.051573, 49.94915], [6.051756, 49.949284], [6.051901, 49.9494], [6.052004, 49.949497], [6.052107, 49.94962], [6.052141, 49.94967], [6.052145, 49.94972], [6.052122, 49.949795], [6.052095, 49.94986], [6.052061, 49.9499], [6.052, 49.949944], [6.052084, 49.95001], [6.052221, 49.950104], [6.052259, 49.950134], [6.052282, 49.95015], [6.052446, 49.95026], [6.05266, 49.950382], [6.052835, 49.950474], [6.052854, 49.950485], [6.052969, 49.950535], [6.053083, 49.950577], [6.053175, 49.950607], [6.053232, 49.95062], [6.053713, 49.950718], [6.053846, 49.95075], [6.054579, 49.950893], [6.054396, 49.95118], [6.054312, 49.951283], [6.054254, 49.951336], [6.05419, 49.951366], [6.054129, 49.951385], [6.054087, 49.95139], [6.053888, 49.95141], [6.053396, 49.951454], [6.052923, 49.9515], [6.052877, 49.951504], [6.052092, 49.951576], [6.051844, 49.95165], [6.050951, 49.951916], [6.050787, 49.95197], [6.050676, 49.952374], [6.050817, 49.952427], [6.050852, 49.952442], [6.051062, 49.952522], [6.051237, 49.952587], [6.051275, 49.952602], [6.051355, 49.952633], [6.051741, 49.95277], [6.052153, 49.952915], [6.053003, 49.9532], [6.053339, 49.953373], [6.054113, 49.953754], [6.054396, 49.953884], [6.054457, 49.953903], [6.054514, 49.95392], [6.054541, 49.953922], [6.054674, 49.953945], [6.054823, 49.953968], [6.054899, 49.95398], [6.054976, 49.953987], [6.055273, 49.954018], [6.055429, 49.954033], [6.055464, 49.954037], [6.055479, 49.954037], [6.05559, 49.95404], [6.055655, 49.954044], [6.055727, 49.95404], [6.055792, 49.95403], [6.055822, 49.954025], [6.055876, 49.954018], [6.056051, 49.953987], [6.056154, 49.95397], [6.056315, 49.953945], [6.056482, 49.953926], [6.056539, 49.95393], [6.056665, 49.953938], [6.056753, 49.953953], [6.056784, 49.95396], [6.056848, 49.953976], [6.057001, 49.954018], [6.057157, 49.95406], [6.057249, 49.95408], [6.057306, 49.954094], [6.057455, 49.954132], [6.05781, 49.954224], [6.058081, 49.954292], [6.058195, 49.954323], [6.058394, 49.95438], [6.058866, 49.954544], [6.059092, 49.954624], [6.059256, 49.954674], [6.059542, 49.954754], [6.059935, 49.95485], [6.060053, 49.954876], [6.060225, 49.954933], [6.060968, 49.955204], [6.061098, 49.95525], [6.061109, 49.955254], [6.061149, 49.955242], [6.061195, 49.955223], [6.061313, 49.955154], [6.061407, 49.955128], [6.061459, 49.955116], [6.061523, 49.955093], [6.061657, 49.955013], [6.061826, 49.95495], [6.061894, 49.95494], [6.061959, 49.954937], [6.062022, 49.95493], [6.062108, 49.954914], [6.062242, 49.954872], [6.062529, 49.954838], [6.062647, 49.954834], [6.062706, 49.954823], [6.062851, 49.954792], [6.063048, 49.954777], [6.063115, 49.954773], [6.06319, 49.95477], [6.06326, 49.954765], [6.063486, 49.954723], [6.063753, 49.954674], [6.063798, 49.95466], [6.063846, 49.95464], [6.063974, 49.954567], [6.064041, 49.95453], [6.064128, 49.954502], [6.064204, 49.95448], [6.064354, 49.95445], [6.064461, 49.954422], [6.064494, 49.954407], [6.064527, 49.95439], [6.064537, 49.954372], [6.064549, 49.954327], [6.064557, 49.95425], [6.064568, 49.95417], [6.064593, 49.954037], [6.064593, 49.954006], [6.064575, 49.953987], [6.064515, 49.95395], [6.064256, 49.95383], [6.064001, 49.953716], [6.063739, 49.95359], [6.063624, 49.953537], [6.063485, 49.95349], [6.063377, 49.95346], [6.063233, 49.953426], [6.063048, 49.953392], [6.062938, 49.953354], [6.062822, 49.953304], [6.062702, 49.953228], [6.062679, 49.9532], [6.062666, 49.953175], [6.062663, 49.953144], [6.062737, 49.95283], [6.062744, 49.952785], [6.062736, 49.952717], [6.062731, 49.952644], [6.062741, 49.952602], [6.062775, 49.952534], [6.062843, 49.952423], [6.062885, 49.952377], [6.062938, 49.952347], [6.063064, 49.952297], [6.063228, 49.952232], [6.063486, 49.95211], [6.063531, 49.952095], [6.063565, 49.952095], [6.063647, 49.95211], [6.063698, 49.952114], [6.063736, 49.952103], [6.063841, 49.952053], [6.063893, 49.95202], [6.063919, 49.951984], [6.063928, 49.951946], [6.063957, 49.951897], [6.064004, 49.951866], [6.064104, 49.95182], [6.064142, 49.951786], [6.064173, 49.95174], [6.064215, 49.951683], [6.064296, 49.951622], [6.064461, 49.951515], [6.064519, 49.95148], [6.064579, 49.95147], [6.064662, 49.951458], [6.064735, 49.951427], [6.064806, 49.95139], [6.064895, 49.951317], [6.064942, 49.95127], [6.064978, 49.951214], [6.065009, 49.95115], [6.065047, 49.95101], [6.065088, 49.950905], [6.065137, 49.95081], [6.065191, 49.950737], [6.06527, 49.95067], [6.065371, 49.9506], [6.065404, 49.950565], [6.065439, 49.95051], [6.065438, 49.950466], [6.06542, 49.950413], [6.065425, 49.950386], [6.065444, 49.95033], [6.06548, 49.950245], [6.065491, 49.950184], [6.065487, 49.950092], [6.065449, 49.95001], [6.065441, 49.949947], [6.065472, 49.949825], [6.065476, 49.949776], [6.06544, 49.94966], [6.065397, 49.94955], [6.06534, 49.949425], [6.065341, 49.94938], [6.065389, 49.94927], [6.065381, 49.949245], [6.065349, 49.949223], [6.065239, 49.949165], [6.065122, 49.94907], [6.065002, 49.949], [6.064946, 49.948986], [6.06487, 49.948997], [6.064717, 49.949024], [6.064641, 49.949036], [6.064576, 49.949066], [6.064511, 49.949112], [6.064425, 49.949142], [6.064346, 49.949154], [6.064247, 49.949158], [6.064188, 49.949146], [6.064137, 49.949123], [6.064074, 49.949078], [6.064039, 49.94904], [6.063978, 49.948936], [6.063932, 49.948895], [6.063868, 49.948845], [6.0637, 49.948753], [6.063562, 49.948673], [6.06341, 49.948624], [6.063314, 49.94859], [6.063215, 49.948524], [6.063074, 49.948418], [6.063036, 49.94838], [6.063017, 49.94832], [6.063009, 49.948265], [6.063047, 49.94807], [6.063066, 49.947994], [6.063063, 49.947956], [6.06304, 49.947926], [6.063005, 49.947887], [6.062849, 49.94776], [6.062757, 49.94768], [6.062685, 49.947594], [6.062635, 49.94752], [6.062613, 49.947468], [6.062597, 49.947388], [6.06259, 49.947308], [6.062597, 49.94714], [6.06262, 49.947033], [6.062643, 49.946964], [6.062666, 49.946938], [6.062704, 49.9469], [6.063139, 49.9467], [6.063238, 49.94665], [6.063284, 49.946617], [6.06333, 49.946564], [6.06336, 49.94652], [6.063372, 49.946484], [6.063368, 49.94641], [6.063372, 49.94637], [6.063387, 49.94634], [6.063436, 49.9463], [6.063574, 49.946224], [6.063761, 49.94614], [6.0641, 49.945988], [6.064203, 49.945934], [6.064253, 49.945904], [6.064283, 49.945866], [6.064302, 49.94582], [6.06431, 49.945744], [6.064318, 49.945667], [6.064329, 49.945637], [6.064379, 49.945564], [6.064425, 49.9455], [6.064451, 49.94544], [6.064489, 49.94531], [6.064508, 49.945274], [6.0646, 49.945187], [6.064661, 49.94511], [6.064726, 49.94502], [6.064825, 49.944874], [6.064856, 49.944836], [6.064897, 49.944782], [6.064974, 49.944695], [6.065008, 49.944637], [6.065042, 49.94455], [6.065069, 49.944466], [6.065123, 49.944286], [6.06513, 49.944237], [6.065119, 49.94419], [6.065012, 49.94401], [6.064974, 49.943954], [6.064932, 49.94392], [6.064707, 49.94377], [6.064485, 49.943623], [6.064428, 49.943565], [6.064383, 49.943497], [6.06436, 49.943436], [6.064348, 49.943317], [6.064352, 49.943176], [6.064348, 49.943077], [6.064333, 49.942955], [6.064318, 49.94291], [6.064276, 49.942856], [6.064218, 49.9428], [6.064123, 49.94272], [6.063978, 49.94257], [6.063669, 49.942245], [6.0636, 49.942184], [6.063505, 49.942112], [6.063425, 49.94204], [6.063379, 49.941975], [6.063318, 49.941853], [6.063276, 49.941723], [6.063253, 49.941586], [6.063257, 49.941463], [6.063273, 49.94137], [6.063303, 49.941307], [6.063387, 49.94114], [6.063532, 49.94076], [6.063562, 49.940697], [6.06357, 49.940685], [6.063616, 49.94059], [6.06362, 49.940575], [6.063784, 49.94023], [6.063921, 49.9399], [6.064035, 49.939613], [6.064192, 49.93922], [6.064241, 49.939133], [6.064276, 49.939095], [6.064337, 49.939053], [6.06439, 49.939007], [6.064432, 49.938946], [6.064508, 49.93882], [6.064577, 49.938713], [6.064661, 49.93857], [6.064794, 49.938343], [6.064844, 49.938217], [6.064882, 49.938057], [6.064917, 49.93796], [6.064955, 49.93782], [6.064959, 49.937775], [6.064966, 49.937714], [6.06497, 49.937584], [6.064974, 49.937504], [6.064966, 49.937443], [6.064947, 49.93741], [6.064936, 49.937374], [6.064951, 49.937344], [6.064989, 49.937305], [6.065027, 49.937256], [6.065039, 49.937214], [6.06505, 49.937027], [6.065073, 49.93672], [6.065065, 49.9366], [6.065046, 49.93646], [6.065065, 49.936306], [6.065088, 49.936253], [6.065126, 49.936172], [6.065142, 49.93608], [6.065149, 49.935993], [6.065199, 49.935757], [6.065222, 49.935555], [6.065245, 49.93548], [6.06534, 49.935238], [6.065401, 49.9351], [6.065443, 49.935036], [6.065477, 49.93501], [6.065519, 49.93499], [6.065588, 49.934975], [6.06571, 49.934967], [6.065828, 49.93495], [6.065947, 49.93493], [6.066023, 49.93492], [6.066134, 49.934925], [6.066252, 49.934937], [6.066343, 49.93495], [6.066454, 49.93498], [6.066591, 49.935028], [6.066668, 49.93505], [6.066713, 49.935055], [6.066778, 49.93505], [6.066824, 49.935043], [6.066877, 49.935024], [6.066938, 49.934986], [6.066988, 49.934963], [6.067061, 49.934956], [6.067141, 49.93495], [6.067255, 49.93496], [6.067427, 49.934975], [6.067514, 49.934975], [6.067606, 49.93496], [6.067728, 49.934937], [6.067816, 49.934906], [6.067881, 49.93487], [6.067934, 49.93483], [6.06798, 49.93478], [6.068079, 49.934643], [6.068228, 49.93445], [6.068308, 49.93436], [6.068373, 49.93431], [6.068438, 49.93427], [6.068514, 49.934246], [6.068613, 49.934223], [6.068727, 49.934216], [6.068876, 49.934208], [6.068979, 49.93421], [6.069204, 49.93422], [6.069467, 49.934235], [6.069559, 49.93425], [6.069666, 49.934273], [6.069811, 49.934315], [6.069879, 49.93433], [6.069921, 49.93433], [6.069952, 49.934326], [6.070086, 49.93429], [6.0702, 49.93426], [6.070276, 49.934235], [6.070337, 49.93421], [6.070433, 49.934162], [6.070593, 49.93409], [6.07062, 49.934063], [6.070631, 49.934], [6.070642, 49.93396], [6.070684, 49.93389], [6.070688, 49.933853], [6.070684, 49.933807], [6.070665, 49.93374], [6.070658, 49.93369], [6.070677, 49.93362], [6.070688, 49.93357], [6.070688, 49.93354], [6.070642, 49.933437], [6.070627, 49.933384], [6.070635, 49.93329], [6.070631, 49.93323], [6.070608, 49.93319], [6.07057, 49.933155], [6.070456, 49.93307], [6.070425, 49.933037], [6.070406, 49.932976], [6.070391, 49.932785], [6.070364, 49.932545], [6.070353, 49.9325], [6.070345, 49.932476], [6.070311, 49.932304], [6.070337, 49.932312], [6.070467, 49.932354], [6.070597, 49.932453], [6.070757, 49.93257], [6.070913, 49.93271], [6.070967, 49.932777], [6.071077, 49.932953], [6.071207, 49.933266], [6.071306, 49.933575], [6.071329, 49.93377], [6.071318, 49.933964], [6.071276, 49.934113], [6.071211, 49.934223], [6.071035, 49.934547], [6.071089, 49.934555], [6.071314, 49.934505], [6.072569, 49.93419], [6.073332, 49.933994], [6.073515, 49.933956], [6.07374, 49.933914], [6.073942, 49.933357], [6.074366, 49.933178], [6.074602, 49.933376], [6.074652, 49.93325], [6.074678, 49.93317], [6.074732, 49.933086], [6.074781, 49.933037], [6.074854, 49.932983], [6.075022, 49.932896], [6.075315, 49.932774], [6.075413, 49.932724], [6.075663, 49.93258], [6.075884, 49.932728], [6.076029, 49.9327], [6.076624, 49.932613], [6.076963, 49.93257], [6.077356, 49.932526], [6.077711, 49.932484], [6.078257, 49.932423], [6.078623, 49.932392], [6.078943, 49.932365], [6.079081, 49.932358], [6.079214, 49.93236], [6.079348, 49.932373], [6.07968, 49.932438], [6.079626, 49.93267], [6.079977, 49.93284], [6.080187, 49.93293], [6.080538, 49.93305], [6.081171, 49.933258], [6.081762, 49.933456], [6.081873, 49.93349], [6.082159, 49.93356], [6.082453, 49.933624], [6.082517, 49.933636], [6.082781, 49.933693], [6.082917, 49.933723], [6.083349, 49.933834], [6.083386, 49.93384], [6.083417, 49.93385], [6.083559, 49.933876], [6.083702, 49.933907], [6.083774, 49.93392], [6.084504, 49.93399], [6.084935, 49.93396], [6.085545, 49.93391], [6.085813, 49.93378], [6.085847, 49.933544], [6.085874, 49.933422], [6.085923, 49.9333], [6.085973, 49.933205], [6.086011, 49.933163], [6.086131, 49.933155], [6.086347, 49.93315], [6.086481, 49.93315], [6.08661, 49.933155], [6.086704, 49.933163], [6.086889, 49.93318], [6.087014, 49.9332], [6.087138, 49.933228], [6.087351, 49.933292], [6.087385, 49.933304], [6.087323, 49.933407], [6.087286, 49.93348], [6.087173, 49.9337], [6.087126, 49.933823], [6.087033, 49.934116], [6.087125, 49.93413], [6.087564, 49.934216], [6.087576, 49.934218], [6.087687, 49.934116], [6.087763, 49.93406], [6.08782, 49.934002], [6.087877, 49.933933], [6.087995, 49.933773], [6.088091, 49.933662], [6.088182, 49.933594], [6.088251, 49.93353], [6.088407, 49.933327], [6.088472, 49.933258], [6.088598, 49.93313], [6.088717, 49.933033], [6.08885, 49.932934], [6.088999, 49.932846], [6.089136, 49.93279], [6.089228, 49.932743], [6.089312, 49.93269], [6.089388, 49.932613], [6.089418, 49.93256], [6.089445, 49.932503], [6.089479, 49.932446], [6.089552, 49.932396], [6.089655, 49.932335], [6.089823, 49.932278], [6.09009, 49.932205], [6.09017, 49.93219], [6.090311, 49.932186], [6.090433, 49.932182], [6.09059, 49.93219], [6.090693, 49.932205], [6.090818, 49.93225], [6.091017, 49.932343], [6.091223, 49.932434], [6.091299, 49.93246], [6.091383, 49.93248], [6.091444, 49.932484], [6.091524, 49.93248], [6.091646, 49.932457], [6.091726, 49.93244], [6.092051, 49.93236], [6.092493, 49.932285], [6.09265, 49.93226], [6.092737, 49.932255], [6.092848, 49.932247], [6.092916, 49.932255], [6.092985, 49.932266], [6.093122, 49.932304], [6.09329, 49.932358], [6.093561, 49.932446], [6.093718, 49.93249], [6.093893, 49.932533], [6.094011, 49.932564], [6.094137, 49.932575], [6.09421, 49.93258], [6.094263, 49.93258], [6.094339, 49.93257], [6.094492, 49.93254], [6.094591, 49.932487], [6.09485, 49.932323], [6.09495, 49.932255], [6.095007, 49.932186], [6.095083, 49.932034], [6.095141, 49.931915], [6.09519, 49.93171], [6.095194, 49.931686], [6.095186, 49.931664], [6.095098, 49.931576], [6.094961, 49.93147], [6.094812, 49.931393], [6.094721, 49.93135], [6.094648, 49.931324], [6.094381, 49.93129], [6.094309, 49.93126], [6.094271, 49.931236], [6.09421, 49.931213], [6.094126, 49.931206], [6.094065, 49.931194], [6.094034, 49.93118], [6.094015, 49.93116], [6.09403, 49.93116], [6.094046, 49.931114], [6.094072, 49.930965], [6.09408, 49.93094], [6.094103, 49.93093], [6.094122, 49.930935], [6.09416, 49.930946], [6.094183, 49.930954], [6.09421, 49.930965], [6.094236, 49.930965], [6.094267, 49.930958], [6.094286, 49.930946], [6.094297, 49.930935], [6.094324, 49.93085], [6.094339, 49.9307], [6.094336, 49.930573], [6.094328, 49.930416], [6.094381, 49.9304], [6.094461, 49.930347], [6.094481, 49.930325], [6.094488, 49.93029], [6.094488, 49.930237], [6.094481, 49.930195], [6.094465, 49.930183], [6.094412, 49.930122], [6.094278, 49.930004], [6.094271, 49.929993], [6.094267, 49.92997], [6.094313, 49.929947], [6.094347, 49.929924], [6.094355, 49.9299], [6.094366, 49.92982], [6.094393, 49.92971], [6.094423, 49.929615], [6.094431, 49.929573], [6.094435, 49.929523], [6.094435, 49.92949], [6.094423, 49.929478], [6.094374, 49.929455], [6.094439, 49.92931], [6.094488, 49.929157], [6.094534, 49.929], [6.09458, 49.928944], [6.094656, 49.928856], [6.094847, 49.92867], [6.094912, 49.92861], [6.095041, 49.928535], [6.095148, 49.928463], [6.095194, 49.928425], [6.095285, 49.928314], [6.09532, 49.928265], [6.095365, 49.928204], [6.095392, 49.928116], [6.095427, 49.92801], [6.095468, 49.927944], [6.095526, 49.927895], [6.095671, 49.92781], [6.095835, 49.92774], [6.09593, 49.927685], [6.095972, 49.927643], [6.096029, 49.92757], [6.096102, 49.927452], [6.096155, 49.927376], [6.096159, 49.927357], [6.096163, 49.927322], [6.096136, 49.92728], [6.09609, 49.927242], [6.096052, 49.92722], [6.095987, 49.927204], [6.095934, 49.927193], [6.095884, 49.927174], [6.095423, 49.926903], [6.095404, 49.92685], [6.095373, 49.92675], [6.095346, 49.926548], [6.095331, 49.92646], [6.095343, 49.926407], [6.0954, 49.92627], [6.09551, 49.92603], [6.09556, 49.925983], [6.095678, 49.92591], [6.09572, 49.925877], [6.095766, 49.925835], [6.095808, 49.925755], [6.09582, 49.925648], [6.09582, 49.925636], [6.095808, 49.92548], [6.095797, 49.925415], [6.095789, 49.92534], [6.095793, 49.925198], [6.095793, 49.92511], [6.095774, 49.925007], [6.095755, 49.92492], [6.095739, 49.92484], [6.095739, 49.924778], [6.095755, 49.924686], [6.095777, 49.924618], [6.095816, 49.92452], [6.095839, 49.92449], [6.095865, 49.92447], [6.096033, 49.92438], [6.096155, 49.92433], [6.096266, 49.92429], [6.096285, 49.92428], [6.0963, 49.924263], [6.096323, 49.92424], [6.096354, 49.92422], [6.096388, 49.924206], [6.096598, 49.924168], [6.096869, 49.924175], [6.097376, 49.924232], [6.098234, 49.92427], [6.098265, 49.924282], [6.098303, 49.9243], [6.098333, 49.92431], [6.098356, 49.92431], [6.098875, 49.924232], [6.099146, 49.92419], [6.099363, 49.92413], [6.099546, 49.92407], [6.099783, 49.923946], [6.099897, 49.92386], [6.10008, 49.92367], [6.100252, 49.923466], [6.100416, 49.923332], [6.100569, 49.92322], [6.100641, 49.923172], [6.100721, 49.923115], [6.100885, 49.92302], [6.101, 49.922947], [6.101046, 49.92292], [6.101194, 49.92286], [6.101572, 49.92273], [6.101908, 49.922607], [6.102056, 49.92256], [6.102255, 49.9225], [6.102415, 49.92248], [6.102629, 49.922462], [6.102861, 49.922432], [6.103014, 49.922417], [6.103128, 49.922405], [6.103315, 49.922344], [6.103525, 49.922268], [6.103632, 49.922245], [6.103773, 49.922222], [6.103949, 49.9222], [6.104132, 49.92216], [6.104189, 49.922157], [6.104345, 49.922153], [6.104406, 49.922146], [6.104456, 49.92213], [6.104544, 49.922073], [6.104639, 49.922016], [6.104944, 49.92184], [6.105078, 49.92177], [6.105112, 49.921753], [6.105143, 49.92175], [6.105207, 49.921806], [6.105253, 49.92185], [6.105291, 49.921856], [6.105337, 49.921856], [6.105448, 49.92184], [6.105596, 49.921814], [6.105715, 49.92179], [6.106031, 49.9217], [6.106207, 49.92163], [6.106386, 49.92155], [6.106424, 49.921528], [6.106489, 49.921494], [6.106546, 49.921467], [6.106619, 49.92145], [6.106657, 49.92144], [6.106707, 49.921425], [6.106756, 49.9214], [6.106798, 49.921364], [6.106863, 49.921318], [6.10689, 49.92131], [6.106989, 49.92131], [6.107214, 49.921303], [6.107275, 49.92129], [6.10737, 49.921265], [6.107462, 49.921223], [6.107534, 49.921207], [6.107687, 49.921192], [6.10776, 49.921177], [6.107878, 49.921158], [6.107962, 49.921143], [6.108046, 49.92113], [6.108061, 49.921127], [6.10811, 49.921112], [6.108152, 49.921093], [6.108221, 49.921043], [6.108305, 49.920967], [6.108355, 49.920933], [6.108439, 49.920883], [6.108576, 49.92081], [6.108629, 49.920773], [6.108671, 49.920734], [6.108713, 49.920673], [6.10874, 49.920624], [6.108755, 49.920574], [6.108763, 49.920498], [6.108763, 49.920406], [6.10874, 49.920242], [6.108725, 49.92016], [6.108644, 49.919956], [6.108648, 49.919914], [6.108656, 49.91988], [6.108679, 49.91985], [6.108706, 49.91981], [6.108736, 49.919785], [6.108805, 49.91974], [6.108931, 49.91967], [6.109114, 49.919586], [6.109469, 49.919456], [6.110117, 49.919197], [6.110216, 49.91915], [6.110323, 49.91912], [6.110521, 49.91908], [6.110731, 49.91903], [6.111059, 49.918934], [6.111216, 49.918884], [6.111452, 49.91884], [6.111536, 49.918816], [6.111666, 49.918785], [6.111734, 49.918766], [6.111799, 49.918755], [6.112001, 49.91873], [6.112158, 49.91871], [6.112291, 49.91869], [6.112425, 49.91869], [6.112516, 49.918705], [6.112677, 49.91874], [6.112875, 49.918793], [6.112986, 49.918823], [6.113058, 49.91884], [6.113134, 49.918846], [6.113226, 49.918854], [6.113329, 49.918858], [6.113501, 49.918846], [6.113676, 49.91884], [6.114046, 49.918823], [6.114489, 49.918816], [6.114878, 49.91882], [6.115198, 49.918827], [6.115557, 49.91884], [6.116209, 49.91888], [6.116423, 49.918896], [6.116476, 49.918907], [6.116617, 49.918938], [6.116739, 49.91898], [6.116831, 49.919014], [6.116957, 49.91908], [6.117002, 49.919113], [6.117094, 49.9192], [6.117113, 49.919197], [6.117498, 49.919106], [6.11759, 49.919067], [6.117762, 49.91897], [6.118032, 49.918777], [6.118223, 49.918636], [6.118238, 49.91861], [6.118689, 49.918167], [6.118727, 49.918144], [6.118734, 49.918125], [6.118597, 49.918087], [6.118769, 49.917824], [6.118837, 49.91772], [6.118742, 49.91774], [6.11809, 49.91788], [6.11717, 49.918083], [6.117155, 49.918102], [6.117147, 49.918175], [6.117128, 49.91822], [6.11709, 49.91826], [6.117029, 49.918285], [6.116949, 49.91831], [6.11688, 49.918316], [6.116816, 49.918312], [6.116751, 49.918297], [6.116667, 49.91826], [6.116583, 49.918198], [6.116491, 49.918118], [6.116365, 49.918007], [6.116262, 49.91793], [6.116198, 49.917896], [6.116125, 49.917873], [6.116049, 49.917862], [6.115976, 49.91787], [6.115892, 49.91788], [6.115755, 49.917908], [6.115671, 49.91791], [6.115602, 49.917908], [6.115507, 49.91789], [6.115442, 49.91787], [6.115389, 49.917847], [6.115347, 49.91782], [6.115313, 49.91779], [6.115286, 49.91775], [6.115164, 49.917522], [6.115099, 49.917423], [6.115049, 49.91737], [6.114992, 49.91733], [6.114958, 49.917313], [6.114912, 49.917294], [6.114737, 49.917263], [6.114599, 49.917244], [6.114042, 49.917206], [6.113962, 49.9172], [6.113878, 49.91718], [6.113798, 49.91715], [6.113722, 49.917114], [6.113676, 49.917088], [6.113615, 49.917038], [6.113581, 49.917004], [6.113554, 49.91696], [6.113527, 49.916904], [6.113504, 49.916817], [6.113478, 49.91669], [6.113451, 49.916534], [6.11344, 49.91645], [6.113459, 49.91645], [6.11368, 49.916443], [6.113836, 49.91643], [6.113913, 49.916416], [6.113977, 49.916393], [6.114073, 49.91633], [6.114134, 49.916252], [6.114164, 49.91614], [6.114195, 49.91604], [6.11421, 49.915966], [6.114244, 49.9159], [6.114283, 49.91583], [6.114469, 49.91551], [6.114508, 49.91543], [6.114534, 49.915314], [6.114542, 49.915264], [6.114576, 49.915134], [6.114618, 49.915016], [6.114675, 49.914898], [6.114824, 49.914635], [6.114901, 49.91447], [6.114973, 49.914257], [6.115053, 49.913975], [6.115164, 49.91349], [6.11524, 49.91309], [6.115267, 49.912926], [6.115271, 49.912838], [6.115274, 49.91241], [6.115778, 49.912373], [6.115824, 49.9122], [6.115862, 49.91198], [6.115885, 49.91168], [6.115595, 49.91172], [6.115255, 49.911774], [6.114855, 49.911835], [6.114534, 49.91188], [6.114309, 49.911915], [6.114107, 49.911926], [6.113878, 49.91192], [6.113733, 49.91191], [6.113604, 49.911892], [6.113569, 49.911865], [6.113508, 49.91168], [6.113489, 49.9116], [6.113462, 49.911476], [6.113401, 49.91108], [6.113344, 49.910526], [6.113314, 49.910385], [6.113276, 49.910275], [6.113237, 49.9102], [6.11318, 49.910126], [6.113108, 49.910065], [6.11305, 49.910027], [6.112974, 49.909992], [6.112947, 49.909966], [6.112844, 49.90991], [6.112646, 49.90983], [6.112467, 49.909775], [6.112307, 49.909733], [6.112219, 49.90972], [6.112169, 49.90971], [6.111898, 49.909683], [6.111757, 49.90968], [6.111502, 49.909687], [6.111254, 49.90971], [6.111006, 49.909748], [6.110769, 49.90979], [6.110498, 49.909855], [6.110346, 49.909904], [6.110201, 49.90996], [6.110098, 49.910015], [6.110033, 49.910057], [6.109987, 49.910088], [6.109903, 49.910137], [6.109816, 49.91018], [6.109671, 49.91023], [6.109541, 49.910267], [6.109495, 49.91029], [6.109426, 49.910343], [6.109362, 49.910408], [6.109285, 49.91049], [6.109243, 49.910538], [6.109217, 49.91057], [6.109137, 49.910675], [6.109117, 49.910694], [6.108961, 49.91068], [6.108828, 49.910645], [6.108728, 49.910603], [6.10866, 49.91057], [6.10861, 49.91052], [6.108599, 49.910477], [6.108629, 49.910465], [6.108866, 49.91038], [6.109053, 49.9103], [6.109236, 49.910194], [6.109423, 49.910057], [6.109575, 49.909966], [6.109781, 49.90989], [6.109915, 49.90984], [6.110033, 49.90977], [6.110228, 49.90964], [6.110426, 49.909485], [6.11067, 49.909294], [6.11072, 49.90925], [6.110819, 49.90917], [6.111067, 49.908962], [6.110899, 49.908955], [6.110834, 49.90895], [6.11146, 49.908615], [6.111761, 49.90845], [6.111948, 49.908333], [6.112204, 49.90815], [6.112364, 49.908016], [6.112486, 49.908115], [6.112486, 49.908215], [6.112501, 49.908302], [6.113092, 49.908302], [6.113401, 49.90831], [6.113745, 49.908333], [6.114, 49.90836], [6.114306, 49.908405], [6.11466, 49.908474], [6.115, 49.90856], [6.115595, 49.908745], [6.116003, 49.908867], [6.116144, 49.908897], [6.116606, 49.90896], [6.117022, 49.909027], [6.117247, 49.909058], [6.117418, 49.909077], [6.117643, 49.90909], [6.11783, 49.909092], [6.118036, 49.90909], [6.118368, 49.909077], [6.118429, 49.909058], [6.118612, 49.908955], [6.118734, 49.908867], [6.118811, 49.908802], [6.118891, 49.908703], [6.118925, 49.908646], [6.118952, 49.908577], [6.119001, 49.90842], [6.119062, 49.908157], [6.119089, 49.908077], [6.119131, 49.90799], [6.119234, 49.907845], [6.118471, 49.90717], [6.118322, 49.907036], [6.117983, 49.90671], [6.117853, 49.9067], [6.117849, 49.90667], [6.117788, 49.906425], [6.117731, 49.906315], [6.117666, 49.906208], [6.117621, 49.906147], [6.117456, 49.90597], [6.11735, 49.90587], [6.117338, 49.905857], [6.117098, 49.905663], [6.11801, 49.905136], [6.118116, 49.905067], [6.118597, 49.90475], [6.119005, 49.904457], [6.119509, 49.90408], [6.119886, 49.903847], [6.120417, 49.903557], [6.12108, 49.903275], [6.121767, 49.90302], [6.122488, 49.90283], [6.123259, 49.902668], [6.123667, 49.902603], [6.124464, 49.90254], [6.124765, 49.90252], [6.125021, 49.902534], [6.125769, 49.90258], [6.12594, 49.902603], [6.126497, 49.90264], [6.126966, 49.90268], [6.127111, 49.90269], [6.127245, 49.9027], [6.127707, 49.902706], [6.12789, 49.902714], [6.127996, 49.902714], [6.128126, 49.902706], [6.12837, 49.902683], [6.128675, 49.90265], [6.128839, 49.902634], [6.129015, 49.90262], [6.129068, 49.90263], [6.129213, 49.90266], [6.129606, 49.90261], [6.130014, 49.902584], [6.130346, 49.902584], [6.13061, 49.90262], [6.131014, 49.902687], [6.131189, 49.902687], [6.131384, 49.902645], [6.131399, 49.902596], [6.131411, 49.902554], [6.131617, 49.90226], [6.131716, 49.902264], [6.13172, 49.902233], [6.13172, 49.902195], [6.131529, 49.902187], [6.131399, 49.90196], [6.130964, 49.901344], [6.130674, 49.90096], [6.130526, 49.900803], [6.130476, 49.900753], [6.130617, 49.900616], [6.130545, 49.90058], [6.130148, 49.900406], [6.129652, 49.90008], [6.129465, 49.89997], [6.129023, 49.899704], [6.128954, 49.89966], [6.128878, 49.89961], [6.128706, 49.899494], [6.128355, 49.89924], [6.12797, 49.898975], [6.12715, 49.89842], [6.127317, 49.898308], [6.127482, 49.898197], [6.127256, 49.898026], [6.127085, 49.897884], [6.127001, 49.897804], [6.126928, 49.89771], [6.126856, 49.897587], [6.126783, 49.897453], [6.126734, 49.897343], [6.1266, 49.896988], [6.126551, 49.896873], [6.126413, 49.896572], [6.126261, 49.89628], [6.126116, 49.896008], [6.125959, 49.895786], [6.125803, 49.895573], [6.125734, 49.895477], [6.125639, 49.89537], [6.125509, 49.895245], [6.12536, 49.89517], [6.125021, 49.89502], [6.124868, 49.894962], [6.124693, 49.894894], [6.124475, 49.894817], [6.124315, 49.894768], [6.124163, 49.894733], [6.123854, 49.89468], [6.123518, 49.894627], [6.122583, 49.89449], [6.122183, 49.89443], [6.121881, 49.89439], [6.121729, 49.894375], [6.121485, 49.89436], [6.121286, 49.89435], [6.121077, 49.894333], [6.120787, 49.8943], [6.120398, 49.89425], [6.119898, 49.89418], [6.11997, 49.894306], [6.120039, 49.89441], [6.120112, 49.894497], [6.120172, 49.894566], [6.120405, 49.89479], [6.120466, 49.89511], [6.120336, 49.89513], [6.120008, 49.895184], [6.118662, 49.895393], [6.117346, 49.89542], [6.116781, 49.895435], [6.116545, 49.895454], [6.11664, 49.89606], [6.116339, 49.896576], [6.115141, 49.89708], [6.113886, 49.897335], [6.111223, 49.897305], [6.109617, 49.897293], [6.10887, 49.8973], [6.108065, 49.89714], [6.107553, 49.897], [6.107092, 49.896763], [6.106726, 49.89641], [6.106199, 49.895508], [6.105993, 49.895195], [6.105627, 49.894325], [6.105467, 49.893997], [6.105143, 49.893475], [6.10465, 49.89277], [6.104395, 49.892548], [6.103663, 49.891926], [6.103205, 49.89149], [6.102774, 49.890987], [6.102518, 49.89054], [6.102095, 49.889793], [6.101751, 49.88912], [6.101584, 49.888763], [6.1015, 49.88849], [6.101454, 49.88833], [6.101248, 49.887833], [6.101004, 49.887608], [6.100874, 49.88754], [6.100862, 49.88753], [6.100782, 49.887486], [6.100653, 49.887417], [6.099749, 49.887276], [6.099024, 49.88729], [6.098112, 49.887325], [6.097666, 49.887325], [6.097322, 49.887268], [6.096945, 49.887203], [6.096449, 49.887196], [6.095968, 49.88725], [6.095377, 49.887398], [6.094999, 49.887554], [6.094496, 49.88786], [6.094259, 49.888054], [6.094141, 49.88821], [6.094068, 49.88844], [6.094068, 49.88861], [6.094191, 49.888844], [6.094473, 49.889046], [6.094748, 49.889206], [6.094938, 49.889275], [6.095217, 49.88933], [6.095694, 49.889404], [6.096289, 49.8895], [6.096548, 49.88959], [6.096807, 49.889725], [6.096891, 49.889797], [6.097074, 49.889965], [6.097212, 49.89009], [6.097288, 49.8902], [6.097345, 49.890263], [6.097376, 49.89033], [6.097406, 49.890423], [6.097406, 49.890526], [6.097399, 49.89068], [6.097376, 49.89083], [6.097319, 49.890953], [6.097254, 49.891064], [6.0972, 49.89114], [6.097139, 49.8912], [6.097048, 49.89127], [6.096777, 49.89144], [6.09664, 49.89152], [6.096499, 49.89159], [6.0963, 49.891674], [6.096071, 49.89176], [6.095884, 49.89182], [6.095606, 49.891903], [6.095324, 49.892], [6.09511, 49.892086], [6.094892, 49.892178], [6.094614, 49.89231], [6.094397, 49.89242], [6.094099, 49.892605], [6.093889, 49.892754], [6.09379, 49.892834], [6.093752, 49.892876], [6.093725, 49.89292], [6.093607, 49.893074], [6.093222, 49.893524], [6.092863, 49.894016], [6.09255, 49.89444], [6.092501, 49.894505], [6.092268, 49.89472], [6.091917, 49.89503], [6.091684, 49.895184], [6.091543, 49.89528], [6.09112, 49.8955], [6.091089, 49.89551], [6.090857, 49.89561], [6.090342, 49.89579], [6.089979, 49.895905], [6.089376, 49.896046], [6.088915, 49.89625], [6.088579, 49.896442], [6.088507, 49.896526], [6.088366, 49.896786], [6.08819, 49.89703], [6.087713, 49.897625], [6.087465, 49.897972], [6.087297, 49.898182], [6.086966, 49.898453], [6.086489, 49.89884], [6.085978, 49.899376], [6.085409, 49.89998], [6.085112, 49.900288], [6.084822, 49.90076], [6.084547, 49.90124], [6.084395, 49.90164], [6.084272, 49.90194], [6.084158, 49.9022], [6.084112, 49.90238], [6.08404, 49.90264], [6.084002, 49.902866], [6.083967, 49.90292], [6.08391, 49.902912], [6.083902, 49.90295], [6.083731, 49.902863], [6.083582, 49.902832], [6.083555, 49.90283], [6.083509, 49.902935], [6.083479, 49.902992], [6.083422, 49.90304], [6.083376, 49.90307], [6.083296, 49.90308], [6.083033, 49.903072], [6.082922, 49.90308], [6.082701, 49.903103], [6.082369, 49.903156], [6.082201, 49.903175], [6.082033, 49.90317], [6.081759, 49.903168], [6.081572, 49.903175], [6.081121, 49.903225], [6.080912, 49.903236], [6.080763, 49.903225], [6.080065, 49.903183], [6.07971, 49.90315], [6.079554, 49.90314], [6.079294, 49.90314], [6.079172, 49.90313], [6.079149, 49.903065], [6.078947, 49.90301], [6.078871, 49.902973], [6.078806, 49.90294], [6.078653, 49.90288], [6.078569, 49.90284], [6.078478, 49.902782], [6.078333, 49.90268], [6.078276, 49.902645], [6.078127, 49.902576], [6.078009, 49.90251], [6.07789, 49.90246], [6.077841, 49.902428], [6.0777, 49.902325], [6.077669, 49.90231], [6.077497, 49.90224], [6.077414, 49.902203], [6.077284, 49.90212], [6.077135, 49.90204], [6.077085, 49.902008], [6.076967, 49.901928], [6.07675, 49.901825], [6.07662, 49.901737], [6.076574, 49.901657], [6.076494, 49.90148], [6.076372, 49.901268], [6.076231, 49.901012], [6.076178, 49.90089], [6.076067, 49.90062], [6.076006, 49.900467], [6.075926, 49.900234], [6.075884, 49.900135], [6.075865, 49.900105], [6.075735, 49.899906], [6.075571, 49.899616], [6.075495, 49.899437], [6.075422, 49.899258], [6.075357, 49.89917], [6.075106, 49.898907], [6.074938, 49.898705], [6.074667, 49.898415], [6.074648, 49.898296], [6.074026, 49.898376], [6.073992, 49.898342], [6.073881, 49.898247], [6.073751, 49.89838], [6.073698, 49.898464], [6.07366, 49.898544], [6.073618, 49.89873], [6.073572, 49.898907], [6.073545, 49.89895], [6.073515, 49.898964], [6.073343, 49.899017], [6.073236, 49.89904], [6.073172, 49.899048], [6.073111, 49.89904], [6.073042, 49.89901], [6.072836, 49.898903], [6.072687, 49.898827], [6.072573, 49.89879], [6.072363, 49.89874], [6.072081, 49.89868], [6.071913, 49.898643], [6.071886, 49.898632], [6.07184, 49.89861], [6.071802, 49.898582], [6.071772, 49.898533], [6.07176, 49.898487], [6.071749, 49.898388], [6.071749, 49.89821], [6.071798, 49.89794], [6.071814, 49.89787], [6.071871, 49.897682], [6.071867, 49.897644], [6.071764, 49.897392], [6.071752, 49.897373], [6.071859, 49.89735], [6.072027, 49.89728], [6.07226, 49.897194], [6.072412, 49.897106], [6.072577, 49.896942], [6.07284, 49.89683], [6.072924, 49.89674], [6.073011, 49.896652], [6.073141, 49.89657], [6.073324, 49.896458], [6.073465, 49.896378], [6.07361, 49.896305], [6.073801, 49.896217], [6.073877, 49.896183], [6.073942, 49.896137], [6.074156, 49.895977], [6.074431, 49.8958], [6.074709, 49.89565], [6.07477, 49.895607], [6.074881, 49.895523], [6.074991, 49.895443], [6.075098, 49.89538], [6.075266, 49.895294], [6.075407, 49.89523], [6.075552, 49.895176], [6.075579, 49.89514], [6.075647, 49.89506], [6.075335, 49.89485], [6.074472, 49.894516], [6.074308, 49.89443], [6.074434, 49.89437], [6.074511, 49.89434], [6.074541, 49.89433], [6.074934, 49.894222], [6.074949, 49.89422], [6.075075, 49.894188], [6.075254, 49.894146], [6.075296, 49.894135], [6.07548, 49.894085], [6.075556, 49.89406], [6.075682, 49.894], [6.075735, 49.89397], [6.075937, 49.89387], [6.076082, 49.893814], [6.076128, 49.89379], [6.076166, 49.893772], [6.076212, 49.89374], [6.07633, 49.893646], [6.076479, 49.893497], [6.076666, 49.893322], [6.076689, 49.893032], [6.076696, 49.892982], [6.076719, 49.892918], [6.076723, 49.892887], [6.076723, 49.892826], [6.076715, 49.89275], [6.076693, 49.892567], [6.0767, 49.89246], [6.076719, 49.89233], [6.076742, 49.892204], [6.076754, 49.89217], [6.07678, 49.89213], [6.076872, 49.892002], [6.07694, 49.8919], [6.076994, 49.8918], [6.077017, 49.89173], [6.07707, 49.891537], [6.077097, 49.89149], [6.077189, 49.89137], [6.077276, 49.891262], [6.077364, 49.89117], [6.077444, 49.891083], [6.077517, 49.891006], [6.077696, 49.890812], [6.077818, 49.890656], [6.07786, 49.890606], [6.077963, 49.890472], [6.078035, 49.89039], [6.078131, 49.890293], [6.078291, 49.89017], [6.07844, 49.890076], [6.078589, 49.88998], [6.078844, 49.889835], [6.079069, 49.889717], [6.079203, 49.88966], [6.079313, 49.88962], [6.079557, 49.889557], [6.079794, 49.889515], [6.079813, 49.889503], [6.079409, 49.889294], [6.079222, 49.889206], [6.079042, 49.889114], [6.078905, 49.889038], [6.078745, 49.88899], [6.078398, 49.888905], [6.078268, 49.888878], [6.078218, 49.888874], [6.078196, 49.888855], [6.077982, 49.888733], [6.077845, 49.888657], [6.077757, 49.888607], [6.077635, 49.88854], [6.077539, 49.88849], [6.077436, 49.888454], [6.077238, 49.888405], [6.077021, 49.888348], [6.076872, 49.888298], [6.076483, 49.88815], [6.076132, 49.887997], [6.075899, 49.8879], [6.075727, 49.887814], [6.07567, 49.88779], [6.075468, 49.887726], [6.075407, 49.887703], [6.075293, 49.887646], [6.075148, 49.887554], [6.074999, 49.88744], [6.074907, 49.88736], [6.074839, 49.887283], [6.074675, 49.887016], [6.074656, 49.886894], [6.074602, 49.886845], [6.07448, 49.886723], [6.074686, 49.886387], [6.07482, 49.886234], [6.074919, 49.886135], [6.075045, 49.886032], [6.075178, 49.885933], [6.07535, 49.885838], [6.075422, 49.885784], [6.075499, 49.8857], [6.075521, 49.88565], [6.075529, 49.885605], [6.075518, 49.88557], [6.075453, 49.885506], [6.075258, 49.885372], [6.074945, 49.88513], [6.07469, 49.884937], [6.074446, 49.88474], [6.074381, 49.884686], [6.074301, 49.88464], [6.074064, 49.88459], [6.073801, 49.884552], [6.073484, 49.884487], [6.073187, 49.88441], [6.073072, 49.88437], [6.072954, 49.8843], [6.072832, 49.884224], [6.072641, 49.884148], [6.072531, 49.88409], [6.072485, 49.884045], [6.07247, 49.883972], [6.072481, 49.883915], [6.072523, 49.883842], [6.072615, 49.883766], [6.072809, 49.883644], [6.072962, 49.88353], [6.073133, 49.883427], [6.073286, 49.88336], [6.073469, 49.883312], [6.073587, 49.883305], [6.073797, 49.883312], [6.07398, 49.883316], [6.074091, 49.883305], [6.074263, 49.88328], [6.074438, 49.88327], [6.074667, 49.88327], [6.074896, 49.883255], [6.075033, 49.883194], [6.075228, 49.883087], [6.075426, 49.883003], [6.075586, 49.882946], [6.075701, 49.882874], [6.075762, 49.8828], [6.075823, 49.882698], [6.07588, 49.882652], [6.075983, 49.882572], [6.07604, 49.8825], [6.076071, 49.882393], [6.076086, 49.88228], [6.076109, 49.88219], [6.076178, 49.882046], [6.076185, 49.88201], [6.076178, 49.88193], [6.076136, 49.881805], [6.076082, 49.881516], [6.076071, 49.88142], [6.076078, 49.88134], [6.076117, 49.88119], [6.076147, 49.881058], [6.07614, 49.88103], [6.076052, 49.880936], [6.075949, 49.880836], [6.075899, 49.88075], [6.075857, 49.880615], [6.07585, 49.880424], [6.075884, 49.880306], [6.075884, 49.88028], [6.075876, 49.88023], [6.075827, 49.880135], [6.075605, 49.879913], [6.07556, 49.879845], [6.075552, 49.879772], [6.075563, 49.87963], [6.075598, 49.879524], [6.075685, 49.87936], [6.075754, 49.87928], [6.075815, 49.879234], [6.075983, 49.87915], [6.076181, 49.87906], [6.076387, 49.878983], [6.076662, 49.878914], [6.07696, 49.87887], [6.077551, 49.878815], [6.077604, 49.8788], [6.077631, 49.87878], [6.077639, 49.878757], [6.077631, 49.87874], [6.077597, 49.87871], [6.077539, 49.87868], [6.077375, 49.878624], [6.077108, 49.87854], [6.076963, 49.878475], [6.076883, 49.87843], [6.076792, 49.87835], [6.076761, 49.878315], [6.076639, 49.87818], [6.076536, 49.878033], [6.07646, 49.877903], [6.076407, 49.877792], [6.076323, 49.877666], [6.076258, 49.877567], [6.076216, 49.87749], [6.0762, 49.877415], [6.07622, 49.877342], [6.076265, 49.877205], [6.076277, 49.87706], [6.076265, 49.87695], [6.076208, 49.876682], [6.076155, 49.876583], [6.076101, 49.87653], [6.076059, 49.87649], [6.07601, 49.876465], [6.075911, 49.87643], [6.075872, 49.876392], [6.075842, 49.87633], [6.0758, 49.876278], [6.075735, 49.87616], [6.075533, 49.875854], [6.075464, 49.87571], [6.075441, 49.87561], [6.075487, 49.875313], [6.07548, 49.875237], [6.07546, 49.875126], [6.075422, 49.875004], [6.075415, 49.87495], [6.075422, 49.87488], [6.075457, 49.874813], [6.075499, 49.874767], [6.07583, 49.874504], [6.076143, 49.874237], [6.076227, 49.874157], [6.076265, 49.874096], [6.076334, 49.873936], [6.076475, 49.87351], [6.076502, 49.87325], [6.076521, 49.87316], [6.076597, 49.872993], [6.076651, 49.872913], [6.076761, 49.872795], [6.076868, 49.872684], [6.077124, 49.87251], [6.077494, 49.87227], [6.077757, 49.872135], [6.078043, 49.872032], [6.078146, 49.872005], [6.078218, 49.871998], [6.078238, 49.871998], [6.078287, 49.871994], [6.078394, 49.871983], [6.078493, 49.871964], [6.0786, 49.871918], [6.078764, 49.871822], [6.079023, 49.8717], [6.079046, 49.87169], [6.079092, 49.871666], [6.079248, 49.871593], [6.079344, 49.87154], [6.079409, 49.871487], [6.079431, 49.871452], [6.079428, 49.871407], [6.079397, 49.871323], [6.079359, 49.871246], [6.079313, 49.871197], [6.079184, 49.871105], [6.079134, 49.871048], [6.079096, 49.870964], [6.079046, 49.87079], [6.079016, 49.87072], [6.078924, 49.870605], [6.078745, 49.870415], [6.078669, 49.87032], [6.07865, 49.87025], [6.07863, 49.870125], [6.07863, 49.870056], [6.07865, 49.869965], [6.078772, 49.869686], [6.078905, 49.869457], [6.079069, 49.869198], [6.079172, 49.869072], [6.079264, 49.868977], [6.079309, 49.868923], [6.079355, 49.868824], [6.079424, 49.86867], [6.079458, 49.86853], [6.079466, 49.868465], [6.079458, 49.868397], [6.079416, 49.86829], [6.079325, 49.86814], [6.079214, 49.867985], [6.079065, 49.867832], [6.078932, 49.867744], [6.078341, 49.867477], [6.078325, 49.867474], [6.078295, 49.86746], [6.078184, 49.86758], [6.078108, 49.867775], [6.07802, 49.867767], [6.077913, 49.867775], [6.077845, 49.867775], [6.07781, 49.86777], [6.077696, 49.867744], [6.07752, 49.86772], [6.077425, 49.867702], [6.077208, 49.86764], [6.077166, 49.86767], [6.077146, 49.86768], [6.077101, 49.867702], [6.077051, 49.867714], [6.076971, 49.86772], [6.076902, 49.86772], [6.076548, 49.86771], [6.076467, 49.86771], [6.076342, 49.867714], [6.076254, 49.86771], [6.076078, 49.867687], [6.075884, 49.86765], [6.075747, 49.867626], [6.075643, 49.86761], [6.075586, 49.86761], [6.075529, 49.86763], [6.075487, 49.867634], [6.075445, 49.86763], [6.075418, 49.867615], [6.075388, 49.86759], [6.075361, 49.867584], [6.075308, 49.867588], [6.075266, 49.86758], [6.075117, 49.867523], [6.075056, 49.867504], [6.07493, 49.867504], [6.074888, 49.867485], [6.074861, 49.867477], [6.07482, 49.867474], [6.074728, 49.867477], [6.074686, 49.86747], [6.074637, 49.86746], [6.074534, 49.867424], [6.074465, 49.867413], [6.074404, 49.86741], [6.07432, 49.86741], [6.074236, 49.8674], [6.074186, 49.8674], [6.074106, 49.86741], [6.074034, 49.867405], [6.073961, 49.86741], [6.073893, 49.867413], [6.073866, 49.86742], [6.073774, 49.86745], [6.073725, 49.867462], [6.07361, 49.86747], [6.073267, 49.867477], [6.073042, 49.867485], [6.07295, 49.867493], [6.072596, 49.86751], [6.072481, 49.86752], [6.072359, 49.867523], [6.072107, 49.867516], [6.071958, 49.86751], [6.071848, 49.867504], [6.071752, 49.867493], [6.071627, 49.86746], [6.071569, 49.867455], [6.071451, 49.867462], [6.071375, 49.86747], [6.071318, 49.86746], [6.071268, 49.867443], [6.071207, 49.867413], [6.071154, 49.8674], [6.071054, 49.86739], [6.071001, 49.867374], [6.070974, 49.867363], [6.070929, 49.86734], [6.070845, 49.867302], [6.070734, 49.867245], [6.070589, 49.867172], [6.07049, 49.867115], [6.070429, 49.86707], [6.070383, 49.867016], [6.070337, 49.86696], [6.07028, 49.8669], [6.07025, 49.86686], [6.070196, 49.86676], [6.070154, 49.866722], [6.070086, 49.86668], [6.069983, 49.86663], [6.069929, 49.8666], [6.069887, 49.86656], [6.069834, 49.86653], [6.069746, 49.866486], [6.069708, 49.86646], [6.069651, 49.866398], [6.069609, 49.866375], [6.069487, 49.866337], [6.069437, 49.866318], [6.069403, 49.866295], [6.069315, 49.86624], [6.06917, 49.866165], [6.06901, 49.866093], [6.068873, 49.866043], [6.068605, 49.865963], [6.068308, 49.865883], [6.068132, 49.865833], [6.068052, 49.865818], [6.067789, 49.86578], [6.067671, 49.86576], [6.067602, 49.865753], [6.067522, 49.865738], [6.067438, 49.86572], [6.067148, 49.865635], [6.067091, 49.86562], [6.067041, 49.865616], [6.066976, 49.86562], [6.066919, 49.86562], [6.066881, 49.865612], [6.066828, 49.865593], [6.066782, 49.86559], [6.066671, 49.86558], [6.066526, 49.865578], [6.066423, 49.86557], [6.066355, 49.86557], [6.066229, 49.865574], [6.066046, 49.865585], [6.065844, 49.86561], [6.065668, 49.86562], [6.065607, 49.865623], [6.065268, 49.865593], [6.065107, 49.86559], [6.064875, 49.86558], [6.064722, 49.865578], [6.064688, 49.86558], [6.064283, 49.865643], [6.063883, 49.865635], [6.06365, 49.86562], [6.063261, 49.86559], [6.062944, 49.865562], [6.062902, 49.86556], [6.062925, 49.86518], [6.062883, 49.865154], [6.062765, 49.865223], [6.062246, 49.86554], [6.061544, 49.865902], [6.06156, 49.86602], [6.061613, 49.866127], [6.061785, 49.866367], [6.061995, 49.866646], [6.062159, 49.866867], [6.062357, 49.86714], [6.062674, 49.86759], [6.062994, 49.86806], [6.062979, 49.86807], [6.062731, 49.86821], [6.0627, 49.868225], [6.062502, 49.868336], [6.062399, 49.86839], [6.062162, 49.86853], [6.062075, 49.86858], [6.061953, 49.868664], [6.061754, 49.868797], [6.061586, 49.868916], [6.061262, 49.869137], [6.060988, 49.86931], [6.060617, 49.869526], [6.060133, 49.869816], [6.060194, 49.86986], [6.060327, 49.869976], [6.06037, 49.870018], [6.06061, 49.870224], [6.060717, 49.870316], [6.060678, 49.870335], [6.060274, 49.8705], [6.059603, 49.870766], [6.059259, 49.870903], [6.058886, 49.87104], [6.05831, 49.871258], [6.058199, 49.871315], [6.058024, 49.871407], [6.05776, 49.871548], [6.057722, 49.87157], [6.057692, 49.871597], [6.057661, 49.8717], [6.057615, 49.871937], [6.0576, 49.87211], [6.057585, 49.872246], [6.057581, 49.872314], [6.057581, 49.87233], [6.057562, 49.872448], [6.057554, 49.872524], [6.057543, 49.87257], [6.057505, 49.872658], [6.05744, 49.872795], [6.057367, 49.872925], [6.057222, 49.87316], [6.05702, 49.873463], [6.056978, 49.873535], [6.056967, 49.87359], [6.056967, 49.873676], [6.056971, 49.873787], [6.056978, 49.873863], [6.057016, 49.873978], [6.057123, 49.87429], [6.057116, 49.87433], [6.057074, 49.874607], [6.057043, 49.874737], [6.057005, 49.874855], [6.056925, 49.87507], [6.056894, 49.87515], [6.056807, 49.87532], [6.056707, 49.875492], [6.056635, 49.875603], [6.056452, 49.87584], [6.056372, 49.875927], [6.056284, 49.87601], [6.056196, 49.87608], [6.056112, 49.87614], [6.056009, 49.876194], [6.055914, 49.87624], [6.05578, 49.876293], [6.055544, 49.876373], [6.055624, 49.876534], [6.055845, 49.87691], [6.055876, 49.876972], [6.055903, 49.87705], [6.055941, 49.87717], [6.055983, 49.877327], [6.055998, 49.8774], [6.056021, 49.877483], [6.056051, 49.87761], [6.056265, 49.87839], [6.055326, 49.878517], [6.055304, 49.878525], [6.055426, 49.87867], [6.055372, 49.87869], [6.055284, 49.878593], [6.055181, 49.878628], [6.055326, 49.8788], [6.054663, 49.879234], [6.054609, 49.879253], [6.054518, 49.879276], [6.054384, 49.879326], [6.054327, 49.87936], [6.054281, 49.87938], [6.054235, 49.879406], [6.05419, 49.879436], [6.054151, 49.87948], [6.054094, 49.879528], [6.054033, 49.87957], [6.053965, 49.879612], [6.053888, 49.879646], [6.053759, 49.8797], [6.05361, 49.879772], [6.053339, 49.879868], [6.05271, 49.880062], [6.052626, 49.88008], [6.052557, 49.880085], [6.052473, 49.880077], [6.052423, 49.880077], [6.052393, 49.880085], [6.052336, 49.880104], [6.052206, 49.880165], [6.052111, 49.880203], [6.052008, 49.88023], [6.051893, 49.88025], [6.051817, 49.880257], [6.051737, 49.880257], [6.05168, 49.880245], [6.0516, 49.880238], [6.051561, 49.880238], [6.051519, 49.88024], [6.051489, 49.88025], [6.051451, 49.880264], [6.051397, 49.88031], [6.051363, 49.88037], [6.051344, 49.880424], [6.051336, 49.880455], [6.051294, 49.880493], [6.051237, 49.88052], [6.051161, 49.88055], [6.05105, 49.880573], [6.050917, 49.880592], [6.050737, 49.880634], [6.050611, 49.880688], [6.050489, 49.880745], [6.050325, 49.88084], [6.050261, 49.88087], [6.050215, 49.880886], [6.050108, 49.880917], [6.050043, 49.88095], [6.049974, 49.881004], [6.049887, 49.881084], [6.049723, 49.881245], [6.049601, 49.88135], [6.049417, 49.88148], [6.049299, 49.881554], [6.049189, 49.881653], [6.049105, 49.88175], [6.049025, 49.881844], [6.048956, 49.88195], [6.048925, 49.882008], [6.048891, 49.882103], [6.048868, 49.882187], [6.048822, 49.882397], [6.048811, 49.88254], [6.048803, 49.882626], [6.048792, 49.882656], [6.048777, 49.88269], [6.048761, 49.882713], [6.048723, 49.882732], [6.048677, 49.88276], [6.048601, 49.882793], [6.048452, 49.882847], [6.048243, 49.882915], [6.048078, 49.88297], [6.047945, 49.883003], [6.047785, 49.88304], [6.047602, 49.88307], [6.047491, 49.88307], [6.047335, 49.883095], [6.04727, 49.883095], [6.046972, 49.883057], [6.046682, 49.883026], [6.046583, 49.883022], [6.046461, 49.88303], [6.04635, 49.883034], [6.046236, 49.883034], [6.046083, 49.883026], [6.046042, 49.88301], [6.04587, 49.882935], [6.045576, 49.882797], [6.045481, 49.88276], [6.045401, 49.882725], [6.04532, 49.882694], [6.045271, 49.882652], [6.045176, 49.88256], [6.045088, 49.882496], [6.044989, 49.88243], [6.044924, 49.882385], [6.044886, 49.882347], [6.044821, 49.88227], [6.044741, 49.88215], [6.044695, 49.882076], [6.044622, 49.881996], [6.044535, 49.88192], [6.044462, 49.881855], [6.044397, 49.881786], [6.044352, 49.88171], [6.04431, 49.881645], [6.044268, 49.881603], [6.044184, 49.881546], [6.043993, 49.88144], [6.043898, 49.881397], [6.043818, 49.881382], [6.043772, 49.881374], [6.043699, 49.88134], [6.043661, 49.881313], [6.0436, 49.881256], [6.043528, 49.88118], [6.043432, 49.881084], [6.043249, 49.880936], [6.043131, 49.880844], [6.0431, 49.880806], [6.043085, 49.880768], [6.043066, 49.880726], [6.043032, 49.880688], [6.043028, 49.88066], [6.04302, 49.880623], [6.043005, 49.880596], [6.042936, 49.880547], [6.042822, 49.88048], [6.04273, 49.88044], [6.042646, 49.880405], [6.04262, 49.88039], [6.04257, 49.88036], [6.042547, 49.88034], [6.04254, 49.88032], [6.042528, 49.8803], [6.042482, 49.880276], [6.042273, 49.880222], [6.042181, 49.880196], [6.042059, 49.88035], [6.041971, 49.88049], [6.041922, 49.880592], [6.04188, 49.880672], [6.041864, 49.88071], [6.041849, 49.88077], [6.041826, 49.880867], [6.041822, 49.88095], [6.041834, 49.881016], [6.041853, 49.881077], [6.041987, 49.881386], [6.041792, 49.881416], [6.041071, 49.88171], [6.040445, 49.881943], [6.0404, 49.8819], [6.040049, 49.88194], [6.039976, 49.881954], [6.040358, 49.882088], [6.040117, 49.882183], [6.040045, 49.882202], [6.03993, 49.882225], [6.039831, 49.88224], [6.039564, 49.88238], [6.039496, 49.88242], [6.039316, 49.882473], [6.039248, 49.882496], [6.03916, 49.882538], [6.039038, 49.882618], [6.038977, 49.882664], [6.038862, 49.882774], [6.038736, 49.882915], [6.03853, 49.883163], [6.03837, 49.88335], [6.038317, 49.883427], [6.038229, 49.88358], [6.038172, 49.883682], [6.03816, 49.883698], [6.038092, 49.883743], [6.037954, 49.883835], [6.037878, 49.883896], [6.037744, 49.884037], [6.037623, 49.884174], [6.037573, 49.884224], [6.037493, 49.884293], [6.037332, 49.88442], [6.037275, 49.88446], [6.037233, 49.88449], [6.037138, 49.884544], [6.037039, 49.88459], [6.036943, 49.884632], [6.03676, 49.884735], [6.03665, 49.8848], [6.036352, 49.884968], [6.036211, 49.885044], [6.036127, 49.885086], [6.036097, 49.88511], [6.03607, 49.88514], [6.036058, 49.88516], [6.03602, 49.885242], [6.036005, 49.885273], [6.035986, 49.885292], [6.035902, 49.88535], [6.035795, 49.88542], [6.035696, 49.885498], [6.035627, 49.88556], [6.03557, 49.885605], [6.035524, 49.88563], [6.035456, 49.885666], [6.03533, 49.885746], [6.035261, 49.885796], [6.035196, 49.88583], [6.035147, 49.885864], [6.03512, 49.88589], [6.035074, 49.88595], [6.034964, 49.886047], [6.03491, 49.886086], [6.034853, 49.886116], [6.034803, 49.886127], [6.034738, 49.886135], [6.034677, 49.88614], [6.034655, 49.88614], [6.034639, 49.886143], [6.034514, 49.886253], [6.034487, 49.886295], [6.034483, 49.88632], [6.034483, 49.886333], [6.034334, 49.886265], [6.033995, 49.88649], [6.033503, 49.886814], [6.033411, 49.88677], [6.033171, 49.886917], [6.03311, 49.886875], [6.032942, 49.88699], [6.032099, 49.887558], [6.03195, 49.88765], [6.031904, 49.887615], [6.03187, 49.887623], [6.03158, 49.887695], [6.031546, 49.887653], [6.030516, 49.88787], [6.03018, 49.887943], [6.030008, 49.887978], [6.029879, 49.887997], [6.029749, 49.88801], [6.029253, 49.888042], [6.028975, 49.88807], [6.028952, 49.88794], [6.028685, 49.887962], [6.028326, 49.888012], [6.027952, 49.88806], [6.027651, 49.8881], [6.027475, 49.88813], [6.027159, 49.888195], [6.027044, 49.888218], [6.026968, 49.888237], [6.02688, 49.88826], [6.026785, 49.888283], [6.026686, 49.888298], [6.026617, 49.8883], [6.026487, 49.888294], [6.026064, 49.888466], [6.025652, 49.888638], [6.025419, 49.888496], [6.025305, 49.88855], [6.025133, 49.888626], [6.025011, 49.888668], [6.024816, 49.888725], [6.024416, 49.888817], [6.024305, 49.888855], [6.024187, 49.888935], [6.024233, 49.88906], [6.024248, 49.88911], [6.02426, 49.889194], [6.024252, 49.889317], [6.024092, 49.889343], [6.023828, 49.88938], [6.023752, 49.889393], [6.023779, 49.88945], [6.023821, 49.889534], [6.023878, 49.889633], [6.023951, 49.88974], [6.024031, 49.88982], [6.024118, 49.88992], [6.024138, 49.88994], [6.024118, 49.89001], [6.024107, 49.89006], [6.024073, 49.8902], [6.023828, 49.89044], [6.02371, 49.89054], [6.023535, 49.890663], [6.023378, 49.89079], [6.023306, 49.890858], [6.023172, 49.89098], [6.023123, 49.891026], [6.023077, 49.891052], [6.022913, 49.891132], [6.022627, 49.89127], [6.022489, 49.891335], [6.022394, 49.891376], [6.022245, 49.891186], [6.022165, 49.891026], [6.022043, 49.89057], [6.021998, 49.890438], [6.02186, 49.89009], [6.021727, 49.889736], [6.02178, 49.889717], [6.021711, 49.889603], [6.021643, 49.889454], [6.021589, 49.88929], [6.021578, 49.88918], [6.02157, 49.88908], [6.021578, 49.888897], [6.021593, 49.88865], [6.021563, 49.888355], [6.02146, 49.8879], [6.021391, 49.88759], [6.02136, 49.88747], [6.02133, 49.8873], [6.021311, 49.887135], [6.021311, 49.88695], [6.021326, 49.886818], [6.021387, 49.886566], [6.021433, 49.886414], [6.021532, 49.88603], [6.021551, 49.88598], [6.021692, 49.885826], [6.021711, 49.88581], [6.021776, 49.88574], [6.021807, 49.885696], [6.021818, 49.885674], [6.02183, 49.885605], [6.021784, 49.88559], [6.021376, 49.885597], [6.021132, 49.8856], [6.021021, 49.885555], [6.020685, 49.885414], [6.020658, 49.885384], [6.020311, 49.88503], [6.020262, 49.88496], [6.020246, 49.88492], [6.020197, 49.88481], [6.019903, 49.88455], [6.019758, 49.884323], [6.019575, 49.88417], [6.019171, 49.88388], [6.019064, 49.883823], [6.018889, 49.883728], [6.018862, 49.883713], [6.018747, 49.883644], [6.018602, 49.883553], [6.018377, 49.883408], [6.018171, 49.883274], [6.017668, 49.883034], [6.017454, 49.88293], [6.017363, 49.88278], [6.01734, 49.882736], [6.017218, 49.882557], [6.017042, 49.882282], [6.016966, 49.88216], [6.016943, 49.88211], [6.016924, 49.882053], [6.016901, 49.882], [6.016855, 49.881855], [6.016844, 49.881817], [6.01671, 49.881382], [6.016619, 49.88118], [6.016581, 49.881123], [6.016531, 49.88107], [6.016501, 49.881054], [6.016478, 49.88104], [6.016416, 49.881012], [6.016256, 49.880955], [6.01594, 49.880833], [6.015161, 49.880527], [6.014963, 49.880497], [6.014509, 49.880432], [6.014345, 49.880417], [6.014242, 49.880413], [6.014139, 49.88041], [6.014097, 49.88041], [6.013853, 49.8804], [6.013777, 49.880394], [6.013636, 49.880375], [6.013495, 49.880344], [6.01317, 49.880257], [6.012854, 49.880173], [6.01251, 49.8801], [6.012438, 49.880085], [6.01235, 49.880066], [6.012273, 49.88005], [6.012251, 49.880184], [6.012254, 49.880279], [6.012265, 49.880428], [6.012273, 49.880566], [6.011853, 49.880592], [6.011647, 49.880606], [6.011617, 49.880611], [6.011567, 49.880764], [6.011533, 49.880913], [6.011507, 49.881111], [6.011709, 49.881416], [6.011774, 49.881504], [6.011827, 49.881566], [6.011937, 49.881679], [6.012113, 49.881836], [6.012682, 49.882278], [6.013067, 49.882561], [6.013261, 49.882713], [6.013372, 49.882806], [6.01344, 49.882873], [6.013505, 49.882946], [6.013543, 49.882992], [6.013589, 49.883066], [6.013627, 49.88314], [6.013643, 49.883196], [6.013665, 49.883306], [6.013674, 49.88335], [6.01373, 49.883346], [6.013849, 49.883339], [6.013746, 49.883823], [6.013712, 49.88398], [6.013669, 49.884178], [6.013571, 49.884466], [6.013627, 49.884486], [6.013647, 49.884706], [6.013674, 49.884872], [6.01373, 49.885181], [6.013734, 49.88528], [6.01373, 49.885299], [6.013692, 49.885414], [6.013677, 49.885521], [6.013669, 49.885658], [6.013696, 49.885773], [6.013753, 49.886006], [6.013765, 49.88607], [6.013761, 49.886156], [6.013742, 49.886253], [6.013715, 49.886349], [6.013647, 49.886524], [6.013571, 49.886501], [6.01354, 49.886493], [6.013475, 49.886596], [6.013426, 49.886666], [6.013372, 49.886726], [6.01325, 49.886829], [6.013173, 49.886906], [6.013097, 49.886993], [6.013052, 49.887066], [6.012911, 49.887348], [6.012857, 49.887474], [6.012651, 49.887832], [6.012586, 49.887958], [6.012529, 49.888099], [6.012472, 49.888256], [6.012754, 49.888316], [6.012773, 49.888382], [6.012808, 49.88847], [6.013075, 49.889006], [6.01333, 49.889553], [6.013345, 49.889583], [6.013361, 49.88961], [6.01341, 49.889706], [6.013257, 49.890236], [6.01325, 49.890251], [6.013032, 49.890516], [6.012952, 49.890616], [6.012838, 49.8908], [6.01283, 49.890816], [6.012823, 49.890826], [6.012685, 49.891036], [6.012658, 49.891079], [6.01262, 49.891136], [6.01251, 49.891296], [6.012452, 49.891372], [6.01272, 49.891453], [6.013113, 49.891559], [6.013486, 49.891656], [6.013857, 49.891746], [6.014119, 49.891804], [6.014822, 49.891941], [6.014852, 49.891949], [6.014177, 49.892101], [6.013639, 49.892231], [6.013094, 49.892353], [6.012422, 49.892513], [6.012251, 49.892566], [6.012174, 49.892601], [6.012132, 49.892626], [6.012033, 49.892704], [6.011945, 49.892766], [6.01177, 49.892921], [6.01159, 49.893074], [6.011488, 49.893166], [6.011342, 49.893284]]]]}}]}