{"type": "FeatureCollection", "features": [{"type": "Feature", "properties": {"name": "Diekirch"}, "geometry": {"type": "MultiPolygon", "coordinates": [[[[6.117529, 49.87719], [6.117571, 49.8775], [6.117609, 49.87784], [6.117643, 49.8781], [6.117651, 49.878162], [6.117674, 49.878365], [6.117685, 49.87845], [6.117697, 49.878525], [6.117819, 49.87858], [6.118059, 49.87889], [6.11828, 49.879208], [6.118456, 49.879463], [6.118494, 49.87953], [6.11854, 49.87963], [6.118563, 49.879704], [6.118574, 49.879787], [6.118589, 49.879887], [6.118551, 49.88021], [6.118517, 49.880432], [6.118517, 49.880466], [6.118532, 49.88061], [6.11857, 49.88084], [6.118692, 49.881317], [6.11878, 49.881626], [6.118818, 49.88175], [6.118956, 49.881973], [6.119158, 49.882294], [6.119413, 49.88268], [6.1196, 49.882965], [6.119963, 49.883522], [6.119986, 49.88357], [6.120008, 49.88369], [6.120043, 49.88389], [6.120077, 49.884197], [6.120047, 49.88444], [6.119989, 49.88479], [6.11994, 49.885067], [6.119883, 49.885433], [6.119867, 49.885593], [6.11986, 49.88579], [6.11986, 49.88591], [6.119886, 49.885998], [6.119928, 49.886116], [6.119951, 49.88617], [6.12015, 49.88667], [6.120226, 49.886787], [6.120295, 49.886887], [6.12042, 49.887054], [6.120535, 49.887196], [6.120649, 49.887325], [6.120794, 49.887535], [6.12089, 49.887856], [6.120943, 49.888054], [6.12097, 49.888165], [6.121042, 49.888527], [6.121237, 49.888855], [6.121344, 49.88901], [6.121393, 49.889084], [6.121626, 49.88918], [6.121786, 49.889236], [6.121904, 49.88928], [6.122072, 49.88932], [6.122171, 49.88934], [6.122984, 49.88945], [6.123816, 49.88957], [6.124109, 49.889606], [6.124113, 49.88972], [6.124132, 49.890026], [6.12414, 49.89035], [6.124151, 49.890472], [6.124163, 49.89053], [6.124182, 49.890575], [6.124212, 49.890633], [6.124269, 49.89072], [6.124308, 49.890762], [6.124403, 49.890827], [6.124491, 49.890873], [6.12459, 49.89091], [6.124674, 49.890934], [6.124754, 49.890945], [6.125044, 49.890965], [6.125212, 49.89097], [6.125429, 49.890972], [6.125971, 49.890972], [6.126059, 49.89096], [6.126745, 49.89088], [6.127222, 49.89187], [6.127287, 49.892006], [6.127371, 49.892216], [6.127432, 49.8924], [6.127474, 49.892574], [6.127512, 49.89282], [6.127562, 49.89331], [6.127554, 49.89339], [6.12768, 49.893433], [6.127817, 49.893486], [6.127859, 49.89351], [6.12797, 49.893597], [6.128046, 49.893642], [6.128138, 49.893684], [6.12818, 49.89371], [6.128222, 49.893772], [6.128263, 49.893818], [6.128324, 49.89387], [6.128485, 49.89383], [6.128656, 49.893795], [6.12879, 49.89377], [6.129137, 49.893707], [6.1294, 49.893997], [6.129732, 49.894382], [6.130545, 49.894394], [6.130892, 49.894184], [6.131098, 49.8949], [6.131197, 49.895233], [6.131254, 49.895344], [6.131411, 49.895622], [6.13164, 49.89597], [6.131987, 49.896206], [6.132048, 49.89625], [6.13212, 49.896297], [6.132177, 49.896336], [6.132406, 49.896523], [6.132605, 49.896675], [6.132731, 49.896774], [6.132811, 49.896828], [6.133905, 49.89737], [6.134199, 49.897533], [6.134527, 49.897724], [6.134569, 49.897755], [6.134607, 49.897793], [6.134649, 49.897877], [6.134729, 49.89801], [6.134851, 49.898163], [6.135004, 49.898327], [6.134981, 49.898438], [6.135477, 49.89867], [6.135538, 49.898636], [6.13558, 49.89861], [6.135641, 49.898552], [6.135675, 49.898525], [6.135687, 49.898514], [6.135694, 49.89846], [6.13571, 49.898445], [6.135729, 49.898434], [6.135782, 49.898422], [6.135828, 49.898396], [6.135908, 49.8983], [6.13595, 49.898273], [6.136209, 49.89815], [6.13624, 49.89813], [6.136274, 49.89811], [6.136301, 49.898098], [6.136316, 49.898083], [6.136347, 49.89806], [6.136389, 49.898037], [6.136484, 49.898], [6.136576, 49.897934], [6.136606, 49.897926], [6.136656, 49.897915], [6.13669, 49.8979], [6.136793, 49.897835], [6.13682, 49.897827], [6.136869, 49.89782], [6.136892, 49.897816], [6.136938, 49.897797], [6.136988, 49.897762], [6.13703, 49.89773], [6.137056, 49.89772], [6.13714, 49.89771], [6.13719, 49.8977], [6.137236, 49.89768], [6.13727, 49.897636], [6.137289, 49.89762], [6.13732, 49.897606], [6.137354, 49.8976], [6.137468, 49.89759], [6.137518, 49.89757], [6.137629, 49.89752], [6.137674, 49.8975], [6.137827, 49.89746], [6.137953, 49.89741], [6.13801, 49.897396], [6.138102, 49.897385], [6.138136, 49.897385], [6.138182, 49.897373], [6.138304, 49.897324], [6.138407, 49.897285], [6.138449, 49.897266], [6.138521, 49.897255], [6.138624, 49.897247], [6.138735, 49.89723], [6.138792, 49.897213], [6.138819, 49.8972], [6.138857, 49.897205], [6.138907, 49.897194], [6.138964, 49.897175], [6.139032, 49.897156], [6.139078, 49.897137], [6.139135, 49.89713], [6.139177, 49.89712], [6.139219, 49.897102], [6.139261, 49.897095], [6.139303, 49.897083], [6.139315, 49.897064], [6.139334, 49.897022], [6.139349, 49.896996], [6.139387, 49.89697], [6.139452, 49.89694], [6.139574, 49.896893], [6.139749, 49.896812], [6.139852, 49.89676], [6.13991, 49.896732], [6.140036, 49.896683], [6.140093, 49.896656], [6.140196, 49.896603], [6.140242, 49.89657], [6.140276, 49.89653], [6.140303, 49.89649], [6.140314, 49.896477], [6.140364, 49.89645], [6.14044, 49.896427], [6.14057, 49.89638], [6.140638, 49.896343], [6.140718, 49.896294], [6.140837, 49.89621], [6.140917, 49.896164], [6.141027, 49.89609], [6.141092, 49.896053], [6.141161, 49.89603], [6.141264, 49.896008], [6.141359, 49.89599], [6.141474, 49.89598], [6.141581, 49.895977], [6.141661, 49.895966], [6.141718, 49.895954], [6.141775, 49.895947], [6.141863, 49.89594], [6.141951, 49.89593], [6.142008, 49.89593], [6.142057, 49.89594], [6.142107, 49.895943], [6.142164, 49.895943], [6.14226, 49.895927], [6.142336, 49.895912], [6.142416, 49.8959], [6.142519, 49.895893], [6.142614, 49.89589], [6.142721, 49.89588], [6.142786, 49.89587], [6.142851, 49.89585], [6.142904, 49.895832], [6.142958, 49.89582], [6.142988, 49.895817], [6.143057, 49.89582], [6.143114, 49.895832], [6.143202, 49.895855], [6.143339, 49.895916], [6.143446, 49.895954], [6.14353, 49.89598], [6.143621, 49.896004], [6.143728, 49.896023], [6.143805, 49.896046], [6.143869, 49.896072], [6.143961, 49.896095], [6.144041, 49.896114], [6.144083, 49.89613], [6.144152, 49.89615], [6.144251, 49.89617], [6.144567, 49.896202], [6.144594, 49.896103], [6.144674, 49.89589], [6.144712, 49.89581], [6.144808, 49.895668], [6.144979, 49.89544], [6.145086, 49.895317], [6.145128, 49.895275], [6.145369, 49.895096], [6.145872, 49.8943], [6.145945, 49.89413], [6.146025, 49.89392], [6.146135, 49.8937], [6.146177, 49.893627], [6.146223, 49.893555], [6.146357, 49.893375], [6.146276, 49.893356], [6.144751, 49.892975], [6.144842, 49.89274], [6.144464, 49.89265], [6.144323, 49.89262], [6.144197, 49.89261], [6.14398, 49.89259], [6.14332, 49.89219], [6.142992, 49.892345], [6.142672, 49.89247], [6.14253, 49.892517], [6.141474, 49.89244], [6.14131, 49.892437], [6.140875, 49.892483], [6.140631, 49.892506], [6.140474, 49.89252], [6.139887, 49.89238], [6.139792, 49.89234], [6.139593, 49.892258], [6.139051, 49.892143], [6.138926, 49.89212], [6.138632, 49.89208], [6.138502, 49.89205], [6.138273, 49.891994], [6.138128, 49.891956], [6.138002, 49.89191], [6.137983, 49.891895], [6.137976, 49.89185], [6.137941, 49.891674], [6.137918, 49.89157], [6.137915, 49.89154], [6.137896, 49.891525], [6.137789, 49.89147], [6.137781, 49.891407], [6.13801, 49.891438], [6.138723, 49.891533], [6.138937, 49.891285], [6.138941, 49.891254], [6.138937, 49.891125], [6.138945, 49.890884], [6.139807, 49.89084], [6.140207, 49.890816], [6.140608, 49.89078], [6.140585, 49.89071], [6.141027, 49.89052], [6.141401, 49.890373], [6.141645, 49.890293], [6.14184, 49.89024], [6.142038, 49.890194], [6.142221, 49.89016], [6.142355, 49.890152], [6.142576, 49.89015], [6.142801, 49.89015], [6.142813, 49.89009], [6.142817, 49.890022], [6.142817, 49.88996], [6.143457, 49.89008], [6.143801, 49.89015], [6.144312, 49.890278], [6.144796, 49.890408], [6.144869, 49.89043], [6.145517, 49.890614], [6.145834, 49.89071], [6.146238, 49.89082], [6.146765, 49.89095], [6.146776, 49.890907], [6.14681, 49.890785], [6.146833, 49.890682], [6.14686, 49.890568], [6.146887, 49.89047], [6.147177, 49.89034], [6.147303, 49.890263], [6.147489, 49.890125], [6.147688, 49.889957], [6.14789, 49.88979], [6.148104, 49.889618], [6.148176, 49.88957], [6.148245, 49.889523], [6.148432, 49.889412], [6.149305, 49.888958], [6.149538, 49.888847], [6.149752, 49.888763], [6.150248, 49.888573], [6.15048, 49.8886], [6.151056, 49.888245], [6.151602, 49.887897], [6.151682, 49.88783], [6.151815, 49.887672], [6.152311, 49.887035], [6.152365, 49.886963], [6.152685, 49.886547], [6.153017, 49.88608], [6.153067, 49.886], [6.153398, 49.885654], [6.153543, 49.885513], [6.153799, 49.8853], [6.154425, 49.884693], [6.154799, 49.884377], [6.155424, 49.883907], [6.1556, 49.883793], [6.155626, 49.88383], [6.155684, 49.883877], [6.155798, 49.883907], [6.155912, 49.883926], [6.156027, 49.883938], [6.156061, 49.883915], [6.156656, 49.883675], [6.15735, 49.883404], [6.158655, 49.882915], [6.158255, 49.882412], [6.159002, 49.8822], [6.15933, 49.8821], [6.159433, 49.882084], [6.159647, 49.882076], [6.160021, 49.88206], [6.160166, 49.88205], [6.160315, 49.88203], [6.160524, 49.882], [6.160616, 49.88198], [6.160704, 49.88195], [6.161451, 49.881668], [6.16263, 49.88188], [6.163439, 49.882027], [6.1635, 49.882034], [6.163534, 49.882034], [6.163672, 49.882023], [6.164015, 49.881985], [6.164137, 49.88197], [6.164351, 49.88195], [6.164511, 49.882378], [6.164866, 49.882282], [6.165148, 49.8822], [6.165522, 49.882072], [6.16564, 49.882023], [6.166037, 49.881752], [6.165682, 49.881462], [6.166231, 49.881115], [6.166575, 49.880905], [6.166788, 49.88076], [6.166826, 49.880733], [6.166864, 49.880703], [6.166922, 49.88067], [6.16712, 49.880527], [6.167437, 49.880333], [6.168089, 49.87995], [6.168543, 49.879707], [6.168928, 49.879513], [6.169168, 49.879402], [6.169642, 49.87922], [6.17016, 49.87901], [6.17021, 49.878994], [6.17042, 49.878918], [6.1709, 49.878784], [6.171038, 49.878742], [6.171183, 49.878685], [6.171419, 49.878563], [6.171591, 49.878475], [6.171911, 49.878304], [6.172251, 49.878094], [6.172609, 49.877876], [6.172854, 49.877724], [6.173105, 49.877934], [6.173307, 49.87783], [6.173452, 49.87776], [6.173635, 49.8777], [6.173845, 49.877632], [6.173902, 49.87761], [6.173994, 49.87756], [6.174097, 49.87751], [6.174246, 49.87748], [6.174406, 49.87744], [6.17457, 49.877384], [6.174658, 49.877346], [6.174738, 49.877296], [6.174776, 49.87727], [6.174898, 49.87719], [6.175169, 49.87699], [6.17536, 49.876972], [6.17555, 49.876953], [6.175585, 49.876953], [6.175608, 49.876965], [6.175947, 49.876938], [6.176172, 49.876923], [6.176382, 49.87691], [6.176401, 49.876907], [6.176428, 49.876907], [6.176539, 49.876896], [6.1765, 49.87682], [6.176451, 49.87663], [6.176432, 49.87653], [6.176409, 49.87635], [6.176397, 49.876163], [6.176397, 49.87612], [6.176405, 49.875877], [6.176409, 49.87564], [6.176413, 49.87559], [6.17642, 49.875393], [6.176447, 49.875126], [6.176626, 49.875122], [6.176813, 49.875122], [6.176989, 49.875126], [6.177698, 49.87513], [6.177664, 49.87474], [6.177637, 49.874416], [6.177622, 49.87407], [6.177607, 49.873775], [6.178316, 49.873844], [6.178518, 49.873863], [6.178686, 49.87388], [6.178949, 49.8739], [6.179254, 49.873928], [6.179899, 49.873985], [6.180017, 49.8737], [6.180075, 49.87357], [6.180101, 49.873505], [6.180231, 49.87327], [6.180319, 49.87312], [6.180338, 49.873085], [6.180403, 49.872974], [6.180536, 49.872738], [6.180548, 49.87272], [6.180597, 49.872635], [6.18062, 49.872604], [6.180632, 49.872578], [6.180658, 49.872524], [6.180487, 49.872482], [6.180277, 49.872437], [6.180025, 49.87238], [6.179914, 49.872353], [6.179918, 49.87234], [6.17993, 49.872322], [6.179819, 49.872303], [6.179731, 49.872295], [6.179632, 49.872303], [6.179117, 49.8724], [6.179007, 49.872425], [6.178904, 49.87243], [6.178747, 49.872425], [6.178457, 49.872395], [6.178377, 49.87238], [6.178259, 49.87235], [6.177984, 49.87227], [6.177946, 49.872265], [6.177923, 49.872272], [6.177774, 49.872364], [6.17779, 49.87239], [6.177599, 49.87252], [6.177282, 49.872334], [6.177107, 49.872246], [6.177, 49.872204], [6.176874, 49.872166], [6.176756, 49.87214], [6.176519, 49.872097], [6.176386, 49.872074], [6.176386, 49.872063], [6.176397, 49.871986], [6.176401, 49.871944], [6.176397, 49.87179], [6.17642, 49.87172], [6.176424, 49.871685], [6.17642, 49.871624], [6.176424, 49.871593], [6.176462, 49.871483], [6.17647, 49.87137], [6.176489, 49.87129], [6.176508, 49.87129], [6.176626, 49.870995], [6.176676, 49.870865], [6.176874, 49.87047], [6.176947, 49.870396], [6.176981, 49.870346], [6.177038, 49.870235], [6.177057, 49.870186], [6.17716, 49.86999], [6.177538, 49.87002], [6.177595, 49.87003], [6.177923, 49.870056], [6.178205, 49.870094], [6.178431, 49.870132], [6.178469, 49.87014], [6.178675, 49.87017], [6.178942, 49.869236], [6.178949, 49.869217], [6.178961, 49.86918], [6.179182, 49.86921], [6.179529, 49.868633], [6.17956, 49.86855], [6.178801, 49.868416], [6.178507, 49.868378], [6.177733, 49.86829], [6.17708, 49.86822], [6.175699, 49.868107], [6.175722, 49.868008], [6.175726, 49.86798], [6.175757, 49.867867], [6.175776, 49.86779], [6.175924, 49.867046], [6.176024, 49.866703], [6.176035, 49.86667], [6.176241, 49.86671], [6.17647, 49.866184], [6.176149, 49.866066], [6.176035, 49.866047], [6.175924, 49.866035], [6.175947, 49.865997], [6.175821, 49.865982], [6.175329, 49.86592], [6.175379, 49.865818], [6.175325, 49.865803], [6.175421, 49.865696], [6.175474, 49.865635], [6.175577, 49.86551], [6.175661, 49.865414], [6.175749, 49.865303], [6.175878, 49.865143], [6.176138, 49.86482], [6.176283, 49.864628], [6.176184, 49.864582], [6.176012, 49.864506], [6.175905, 49.864456], [6.175787, 49.864403], [6.175699, 49.864365], [6.175688, 49.864357], [6.175661, 49.864346], [6.175543, 49.864273], [6.175459, 49.864254], [6.175283, 49.864212], [6.174902, 49.86412], [6.174845, 49.864105], [6.17473, 49.864094], [6.174471, 49.864063], [6.174158, 49.864033], [6.173986, 49.864006], [6.173872, 49.86399], [6.173689, 49.86396], [6.173563, 49.86394], [6.17341, 49.86392], [6.173342, 49.863907], [6.17317, 49.86388], [6.17309, 49.86387], [6.173071, 49.863865], [6.172892, 49.86384], [6.172766, 49.86382], [6.172502, 49.86379], [6.172422, 49.863777], [6.172358, 49.86377], [6.172289, 49.863758], [6.172274, 49.863758], [6.171808, 49.863686], [6.171648, 49.863663], [6.171591, 49.86365], [6.171522, 49.863644], [6.170694, 49.863514], [6.170519, 49.86349], [6.170382, 49.863472], [6.170187, 49.863453], [6.169676, 49.863415], [6.169538, 49.863403], [6.169069, 49.86336], [6.168997, 49.863354], [6.168478, 49.863308], [6.168409, 49.863304], [6.168203, 49.863285], [6.167898, 49.86326], [6.167952, 49.86314], [6.168013, 49.862984], [6.168028, 49.862946], [6.168081, 49.86274], [6.168104, 49.862648], [6.168108, 49.86258], [6.168108, 49.862446], [6.167948, 49.86255], [6.167826, 49.86261], [6.167726, 49.862648], [6.16762, 49.862686], [6.167494, 49.862705], [6.167387, 49.862705], [6.167231, 49.862682], [6.166975, 49.862648], [6.166666, 49.862595], [6.166426, 49.862556], [6.166296, 49.862545], [6.166098, 49.86255], [6.165964, 49.86255], [6.165789, 49.86253], [6.165453, 49.862488], [6.165338, 49.862473], [6.165068, 49.862442], [6.164923, 49.86241], [6.164659, 49.862347], [6.164419, 49.86228], [6.164453, 49.862152], [6.16448, 49.862045], [6.164496, 49.861973], [6.16453, 49.86184], [6.164541, 49.861794], [6.164553, 49.861744], [6.164579, 49.86162], [6.164599, 49.861538], [6.164621, 49.861443], [6.164667, 49.86127], [6.164709, 49.861095], [6.164736, 49.86097], [6.164763, 49.86084], [6.164854, 49.86043], [6.164862, 49.86039], [6.164915, 49.86018], [6.164923, 49.860138], [6.164957, 49.859978], [6.165007, 49.859695], [6.165018, 49.859642], [6.164755, 49.859535], [6.164637, 49.859486], [6.16416, 49.85928], [6.16387, 49.859146], [6.16371, 49.859077], [6.163576, 49.85904], [6.163496, 49.85899], [6.163412, 49.858955], [6.163332, 49.858932], [6.163218, 49.858925], [6.16308, 49.85893], [6.162828, 49.858936], [6.162668, 49.85893], [6.162538, 49.85892], [6.162355, 49.858887], [6.162203, 49.858845], [6.162077, 49.8588], [6.161959, 49.858734], [6.161798, 49.85861], [6.161653, 49.858517], [6.16149, 49.858433], [6.161314, 49.858337], [6.161165, 49.858273], [6.160975, 49.858208], [6.160826, 49.85814], [6.160639, 49.85804], [6.160589, 49.85804], [6.160215, 49.85798], [6.160105, 49.85784], [6.160051, 49.857784], [6.160002, 49.857742], [6.159937, 49.8577], [6.159914, 49.85767], [6.159754, 49.85742], [6.15967, 49.857307], [6.159517, 49.857162], [6.159342, 49.857014], [6.159128, 49.856846], [6.158751, 49.85656], [6.15859, 49.856445], [6.158316, 49.85627], [6.158129, 49.85616], [6.157953, 49.85608], [6.157579, 49.855934], [6.157835, 49.855442], [6.158064, 49.855038], [6.158285, 49.854694], [6.158613, 49.854107], [6.158743, 49.85384], [6.158945, 49.85326], [6.158976, 49.853157], [6.158983, 49.85311], [6.158983, 49.853077], [6.158968, 49.853043], [6.158922, 49.85298], [6.158617, 49.852665], [6.158426, 49.85243], [6.158277, 49.852158], [6.158216, 49.85207], [6.158121, 49.85196], [6.158026, 49.85186], [6.157873, 49.851696], [6.157774, 49.851593], [6.157606, 49.851444], [6.157244, 49.85113], [6.157099, 49.850998], [6.156878, 49.85083], [6.15674, 49.85074], [6.15653, 49.850636], [6.156359, 49.850563], [6.156187, 49.850502], [6.155996, 49.850445], [6.156012, 49.85033], [6.155977, 49.850315], [6.156042, 49.84963], [6.15616, 49.848736], [6.156252, 49.848026], [6.156294, 49.848026], [6.156042, 49.847668], [6.155977, 49.847572], [6.155878, 49.847416], [6.15584, 49.84733], [6.155809, 49.847256], [6.155783, 49.847157], [6.155779, 49.84712], [6.155775, 49.8471], [6.155771, 49.84703], [6.155767, 49.84693], [6.155771, 49.84685], [6.155771, 49.846832], [6.155783, 49.846607], [6.155813, 49.846233], [6.155844, 49.84577], [6.155886, 49.84543], [6.15592, 49.84531], [6.155931, 49.845154], [6.155924, 49.845066], [6.155912, 49.844975], [6.155897, 49.844822], [6.155893, 49.8448], [6.155886, 49.84473], [6.155851, 49.844532], [6.155806, 49.844364], [6.15571, 49.84411], [6.155687, 49.844048], [6.155703, 49.844], [6.155794, 49.8437], [6.155802, 49.843647], [6.155798, 49.843605], [6.155733, 49.84331], [6.155729, 49.843254], [6.15579, 49.84324], [6.155851, 49.843227], [6.155943, 49.84323], [6.156061, 49.84324], [6.156241, 49.843254], [6.156347, 49.84326], [6.156488, 49.84325], [6.156599, 49.843246], [6.156824, 49.843258], [6.157209, 49.843273], [6.157473, 49.84327], [6.157675, 49.843277], [6.158052, 49.843296], [6.158407, 49.84329], [6.158655, 49.843296], [6.159094, 49.843304], [6.159273, 49.843304], [6.159487, 49.843296], [6.159662, 49.843304], [6.159773, 49.843307], [6.16012, 49.8433], [6.160284, 49.843285], [6.160563, 49.843246], [6.160654, 49.843243], [6.160986, 49.843243], [6.161119, 49.843227], [6.161207, 49.843216], [6.161661, 49.843094], [6.162291, 49.842934], [6.162512, 49.842865], [6.163027, 49.842678], [6.163286, 49.842583], [6.163435, 49.84253], [6.163492, 49.842506], [6.163424, 49.8425], [6.163362, 49.842506], [6.163305, 49.842503], [6.163271, 49.8425], [6.16321, 49.84248], [6.16316, 49.84245], [6.163095, 49.842434], [6.163042, 49.84242], [6.163008, 49.8424], [6.162966, 49.842396], [6.162924, 49.84239], [6.162893, 49.842373], [6.16287, 49.842358], [6.162847, 49.84235], [6.162798, 49.842342], [6.16271, 49.842316], [6.162676, 49.842297], [6.162653, 49.84229], [6.162554, 49.842278], [6.162485, 49.842274], [6.162439, 49.842262], [6.16239, 49.84224], [6.162355, 49.842236], [6.162298, 49.842224], [6.162249, 49.842213], [6.162199, 49.84219], [6.16218, 49.842186], [6.162088, 49.842186], [6.162058, 49.842175], [6.162008, 49.842144], [6.16192, 49.842133], [6.161867, 49.842113], [6.161829, 49.842102], [6.161734, 49.842045], [6.161539, 49.84196], [6.16149, 49.841934], [6.161448, 49.841904], [6.161398, 49.841854], [6.161386, 49.84185], [6.161375, 49.84185], [6.161337, 49.841854], [6.161318, 49.841846], [6.161306, 49.841835], [6.161287, 49.841812], [6.161261, 49.841793], [6.161203, 49.841763], [6.161154, 49.841736], [6.161135, 49.841705], [6.161116, 49.841694], [6.161104, 49.841686], [6.161074, 49.841686], [6.161013, 49.841682], [6.160986, 49.84167], [6.160971, 49.841644], [6.160948, 49.84162], [6.160933, 49.841618], [6.160906, 49.84163], [6.160871, 49.841637], [6.160845, 49.841625], [6.160726, 49.841553], [6.160658, 49.84151], [6.160566, 49.84147], [6.160341, 49.841366], [6.160234, 49.841312], [6.160185, 49.84127], [6.160162, 49.841255], [6.16007, 49.841232], [6.159994, 49.84119], [6.159933, 49.841167], [6.159887, 49.841152], [6.159834, 49.84111], [6.159803, 49.84109], [6.159777, 49.841076], [6.159738, 49.84106], [6.1597, 49.841034], [6.159662, 49.841015], [6.159624, 49.840992], [6.159544, 49.840958], [6.159464, 49.84092], [6.159418, 49.84089], [6.159369, 49.840847], [6.159353, 49.84079], [6.159208, 49.840736], [6.159189, 49.84072], [6.159166, 49.840706], [6.159059, 49.84065], [6.159033, 49.84061], [6.159018, 49.84059], [6.158949, 49.84056], [6.158911, 49.84054], [6.158892, 49.84052], [6.158861, 49.840492], [6.158789, 49.840446], [6.158758, 49.840405], [6.158716, 49.840374], [6.158655, 49.840343], [6.158613, 49.840305], [6.158514, 49.84025], [6.158403, 49.84015], [6.158319, 49.840076], [6.158247, 49.840023], [6.158209, 49.840004], [6.157923, 49.839916], [6.157755, 49.839836], [6.157389, 49.839653], [6.157007, 49.839478], [6.156809, 49.839394], [6.156607, 49.839314], [6.156359, 49.839222], [6.156141, 49.83915], [6.155848, 49.839066], [6.155817, 49.83905], [6.155523, 49.83946], [6.155493, 49.83945], [6.154757, 49.839195], [6.154421, 49.839077], [6.154196, 49.83898], [6.153902, 49.83885], [6.153536, 49.83865], [6.152903, 49.83851], [6.152239, 49.838364], [6.152262, 49.838272], [6.152323, 49.838043], [6.152418, 49.837708], [6.152491, 49.83744], [6.152506, 49.83736], [6.152521, 49.837326], [6.152769, 49.83687], [6.152895, 49.836624], [6.153002, 49.83581], [6.152853, 49.83531], [6.152746, 49.83496], [6.152445, 49.835003], [6.152361, 49.835014], [6.151751, 49.835102], [6.150694, 49.835247], [6.149626, 49.835396], [6.148649, 49.835526], [6.147585, 49.835674], [6.146742, 49.835793], [6.145517, 49.835964], [6.144449, 49.83611], [6.143244, 49.83625], [6.143217, 49.836266], [6.14321, 49.836277], [6.14321, 49.836304], [6.143225, 49.836315], [6.14324, 49.836334], [6.14324, 49.836346], [6.143225, 49.836365], [6.143221, 49.836388], [6.143236, 49.8364], [6.143267, 49.836414], [6.143282, 49.836437], [6.143297, 49.83645], [6.143305, 49.83646], [6.143312, 49.836475], [6.143328, 49.836487], [6.143343, 49.836487], [6.14337, 49.83649], [6.143393, 49.8365], [6.143408, 49.83651], [6.143442, 49.83652], [6.143461, 49.836536], [6.14348, 49.836555], [6.143488, 49.83661], [6.143484, 49.83663], [6.143477, 49.83665], [6.143473, 49.836666], [6.14348, 49.83668], [6.143515, 49.83671], [6.143496, 49.836742], [6.14348, 49.83675], [6.143484, 49.83676], [6.143515, 49.83679], [6.143534, 49.836796], [6.143564, 49.836796], [6.143602, 49.836792], [6.143629, 49.836792], [6.14366, 49.836803], [6.143682, 49.83683], [6.143698, 49.83685], [6.143724, 49.83687], [6.143747, 49.836903], [6.143751, 49.836918], [6.143759, 49.83694], [6.14377, 49.836964], [6.143797, 49.837006], [6.143793, 49.837032], [6.143793, 49.837044], [6.143816, 49.837063], [6.14385, 49.837097], [6.143866, 49.837128], [6.143892, 49.83731], [6.143881, 49.837334], [6.143854, 49.83736], [6.143847, 49.837383], [6.14385, 49.8374], [6.143831, 49.83741], [6.143831, 49.83742], [6.143835, 49.837463], [6.143835, 49.837513], [6.143805, 49.837563], [6.143805, 49.837597], [6.143793, 49.83764], [6.143763, 49.83767], [6.143751, 49.83768], [6.143751, 49.837704], [6.143759, 49.83774], [6.143744, 49.837765], [6.143667, 49.837864], [6.143641, 49.837902], [6.143633, 49.83792], [6.143656, 49.83796], [6.143656, 49.83799], [6.143652, 49.83803], [6.143667, 49.83805], [6.143698, 49.83808], [6.143713, 49.838104], [6.143705, 49.83813], [6.143702, 49.838146], [6.143713, 49.83817], [6.143736, 49.83818], [6.143797, 49.838203], [6.143824, 49.83823], [6.143847, 49.838272], [6.143862, 49.83829], [6.143877, 49.838295], [6.143908, 49.838303], [6.143938, 49.838333], [6.143972, 49.838383], [6.144014, 49.838417], [6.14403, 49.838444], [6.14403, 49.838478], [6.143972, 49.838524], [6.144011, 49.838696], [6.144182, 49.839355], [6.14422, 49.83949], [6.144148, 49.839718], [6.145983, 49.840218], [6.14636, 49.84032], [6.147287, 49.840565], [6.148069, 49.840755], [6.148752, 49.840927], [6.149572, 49.841125], [6.150808, 49.841557], [6.150869, 49.84158], [6.151167, 49.84178], [6.151533, 49.84204], [6.151621, 49.842075], [6.151667, 49.842155], [6.151689, 49.842186], [6.151949, 49.842552], [6.152151, 49.842823], [6.152269, 49.84297], [6.152575, 49.843315], [6.152872, 49.843643], [6.15304, 49.84383], [6.153059, 49.84387], [6.15307, 49.843914], [6.153086, 49.844273], [6.15307, 49.84433], [6.152838, 49.844883], [6.152822, 49.844917], [6.152857, 49.84493], [6.153166, 49.845055], [6.153269, 49.84522], [6.153219, 49.845253], [6.153315, 49.84542], [6.153421, 49.845646], [6.153471, 49.845776], [6.153521, 49.845963], [6.153532, 49.84608], [6.153532, 49.84619], [6.153517, 49.846386], [6.153494, 49.846542], [6.153467, 49.846706], [6.153437, 49.84685], [6.153379, 49.847042], [6.153334, 49.84719], [6.153299, 49.847275], [6.153158, 49.847282], [6.152365, 49.8481], [6.152441, 49.848137], [6.152166, 49.848457], [6.151865, 49.84875], [6.151621, 49.848934], [6.151571, 49.848904], [6.151529, 49.848877], [6.150862, 49.849518], [6.150618, 49.849743], [6.150312, 49.850014], [6.149717, 49.850525], [6.149363, 49.850803], [6.148855, 49.851166], [6.148371, 49.851494], [6.148211, 49.85179], [6.148138, 49.851894], [6.147173, 49.852196], [6.146769, 49.852318], [6.146746, 49.852337], [6.146666, 49.852337], [6.146604, 49.852367], [6.146528, 49.852425], [6.146421, 49.85252], [6.146418, 49.852573], [6.146414, 49.85267], [6.146425, 49.85281], [6.146463, 49.85293], [6.146528, 49.853046], [6.146658, 49.85322], [6.146868, 49.853493], [6.146982, 49.85366], [6.147135, 49.85393], [6.147234, 49.85405], [6.147383, 49.854195], [6.147482, 49.85432], [6.147551, 49.854424], [6.147684, 49.85465], [6.147726, 49.85473], [6.147852, 49.85499], [6.148054, 49.85536], [6.148157, 49.85552], [6.148218, 49.85562], [6.148252, 49.8558], [6.148283, 49.855904], [6.148401, 49.85617], [6.148554, 49.856464], [6.148722, 49.856785], [6.149034, 49.857338], [6.148985, 49.85732], [6.148565, 49.85702], [6.148478, 49.856964], [6.148188, 49.85675], [6.147921, 49.856556], [6.147543, 49.856834], [6.147112, 49.857143], [6.146895, 49.857285], [6.146791, 49.857346], [6.146696, 49.8574], [6.146292, 49.857613], [6.146158, 49.85769], [6.145975, 49.8578], [6.145357, 49.85818], [6.145376, 49.858192], [6.145163, 49.85832], [6.145033, 49.85831], [6.144911, 49.858315], [6.144808, 49.85833], [6.144751, 49.858353], [6.144709, 49.858376], [6.144671, 49.858387], [6.144625, 49.858387], [6.144602, 49.85839], [6.144583, 49.858406], [6.144541, 49.858463], [6.144525, 49.858475], [6.144487, 49.858494], [6.144361, 49.858524], [6.144159, 49.858982], [6.143965, 49.858997], [6.14393, 49.859024], [6.143908, 49.85904], [6.143843, 49.85909], [6.143724, 49.859173], [6.143549, 49.859303], [6.143305, 49.859478], [6.143225, 49.859535], [6.142984, 49.859703], [6.142954, 49.859726], [6.142858, 49.85979], [6.142824, 49.859814], [6.142748, 49.85987], [6.142328, 49.86017], [6.14226, 49.860218], [6.142183, 49.860275], [6.142137, 49.860306], [6.141832, 49.860527], [6.141417, 49.86082], [6.141375, 49.860847], [6.141268, 49.860924], [6.141211, 49.860962], [6.141024, 49.860855], [6.140821, 49.86101], [6.14068, 49.861122], [6.140604, 49.86117], [6.140524, 49.861225], [6.140501, 49.86124], [6.140367, 49.861324], [6.140108, 49.861553], [6.140463, 49.86171], [6.140932, 49.86192], [6.140734, 49.8621], [6.140307, 49.862473], [6.1401, 49.86265], [6.140261, 49.862732], [6.139978, 49.86297], [6.139803, 49.863106], [6.139349, 49.863453], [6.138357, 49.86297], [6.138056, 49.862823], [6.137816, 49.862717], [6.137629, 49.86264], [6.137247, 49.86248], [6.136877, 49.86261], [6.136202, 49.86285], [6.136095, 49.86288], [6.135996, 49.8629], [6.13582, 49.862926], [6.135763, 49.862934], [6.135702, 49.86294], [6.134737, 49.863102], [6.134741, 49.86342], [6.134733, 49.86353], [6.134718, 49.863586], [6.134703, 49.86362], [6.134668, 49.86367], [6.134615, 49.86372], [6.134451, 49.863846], [6.134287, 49.863712], [6.134111, 49.863583], [6.133513, 49.863457], [6.133196, 49.863472], [6.132853, 49.8635], [6.132841, 49.8635], [6.132151, 49.863564], [6.131926, 49.863594], [6.131353, 49.863663], [6.131159, 49.86369], [6.130899, 49.863724], [6.130663, 49.86376], [6.130453, 49.863785], [6.130262, 49.863804], [6.130339, 49.864067], [6.130362, 49.86416], [6.130434, 49.864468], [6.130499, 49.86475], [6.130541, 49.864975], [6.130587, 49.86516], [6.130678, 49.86541], [6.130709, 49.865456], [6.13085, 49.865738], [6.130918, 49.86587], [6.130945, 49.865917], [6.131002, 49.86601], [6.131063, 49.866104], [6.131121, 49.866188], [6.131182, 49.866272], [6.131304, 49.866436], [6.131441, 49.866615], [6.131578, 49.86681], [6.13172, 49.86705], [6.131807, 49.86725], [6.131842, 49.867363], [6.131933, 49.867767], [6.131956, 49.867928], [6.131971, 49.86812], [6.131971, 49.868263], [6.131967, 49.86839], [6.132006, 49.868393], [6.131937, 49.86882], [6.131945, 49.86892], [6.131967, 49.869072], [6.131979, 49.86913], [6.132055, 49.869446], [6.132055, 49.86946], [6.132063, 49.86948], [6.132254, 49.8696], [6.132307, 49.869633], [6.132368, 49.869686], [6.132422, 49.869747], [6.132456, 49.869797], [6.132475, 49.86984], [6.132486, 49.86989], [6.132498, 49.869976], [6.132494, 49.86999], [6.13249, 49.870052], [6.132471, 49.870132], [6.132376, 49.870358], [6.132307, 49.870495], [6.132132, 49.870804], [6.132029, 49.871006], [6.132006, 49.87101], [6.131987, 49.87101], [6.131712, 49.87106], [6.131597, 49.871067], [6.13154, 49.871067], [6.131498, 49.871056], [6.131327, 49.87097], [6.1313, 49.870987], [6.13114, 49.871082], [6.130918, 49.871212], [6.13072, 49.871334], [6.130335, 49.871563], [6.130228, 49.871624], [6.130114, 49.871704], [6.129984, 49.871788], [6.129881, 49.87185], [6.129667, 49.871983], [6.129599, 49.87202], [6.129587, 49.87203], [6.130865, 49.874363], [6.131628, 49.875732], [6.131556, 49.87573], [6.13154, 49.87573], [6.130861, 49.875687], [6.130419, 49.87566], [6.13035, 49.875664], [6.130213, 49.875694], [6.130087, 49.875725], [6.129747, 49.87591], [6.129561, 49.876003], [6.129362, 49.87609], [6.12919, 49.876167], [6.12911, 49.87621], [6.128988, 49.876278], [6.128901, 49.876316], [6.128531, 49.87645], [6.128481, 49.876484], [6.12834, 49.876595], [6.128191, 49.876724], [6.128122, 49.8768], [6.128057, 49.87686], [6.128004, 49.876896], [6.127859, 49.876976], [6.127718, 49.87705], [6.127394, 49.877213], [6.12726, 49.877277], [6.127169, 49.87731], [6.127085, 49.877327], [6.126921, 49.877346], [6.126783, 49.877354], [6.126696, 49.87735], [6.126615, 49.877335], [6.126478, 49.877293], [6.12565, 49.877464], [6.125444, 49.877235], [6.125372, 49.877174], [6.125307, 49.87713], [6.125261, 49.877098], [6.125227, 49.87708], [6.125166, 49.87705], [6.12512, 49.87703], [6.125029, 49.876995], [6.124891, 49.876965], [6.12472, 49.876923], [6.124624, 49.876904], [6.124525, 49.876873], [6.12438, 49.876823], [6.124212, 49.87676], [6.12398, 49.87666], [6.12385, 49.876614], [6.123686, 49.876564], [6.123499, 49.876728], [6.123262, 49.876926], [6.123175, 49.876995], [6.123114, 49.87704], [6.123041, 49.877075], [6.122976, 49.877098], [6.122927, 49.87711], [6.122789, 49.877125], [6.122732, 49.877125], [6.122263, 49.877136], [6.122225, 49.877083], [6.122103, 49.876923], [6.121805, 49.876713], [6.121256, 49.87671], [6.121, 49.87671], [6.120112, 49.876923], [6.120108, 49.876873], [6.120039, 49.876827], [6.119326, 49.876335], [6.119028, 49.876236], [6.118795, 49.876167], [6.118521, 49.876415], [6.11833, 49.876583], [6.118128, 49.87675], [6.118113, 49.876762], [6.11809, 49.876778], [6.118063, 49.8768], [6.117643, 49.87711], [6.117529, 49.87719]]]]}}]}