{"type": "FeatureCollection", "features": [{"type": "Feature", "properties": {"name": "Private Park \"Banque de Luxembourg\"", "kind": "park"}, "geometry": {"type": "Polygon", "coordinates": [[[6.1345842, 49.5774391], [6.1344648, 49.5774804], [6.1343709, 49.5775761], [6.1336125, 49.5782974], [6.1335562, 49.5783609], [6.1335401, 49.5784583], [6.1335576, 49.57854], [6.1336769, 49.578734], [6.1338848, 49.5790244], [6.1340141, 49.5790483], [6.1343931, 49.5789361], [6.1343105, 49.5788189], [6.1342572, 49.5788018], [6.1341906, 49.5788199], [6.134183, 49.5788084], [6.1341762, 49.578798], [6.1342415, 49.5787761], [6.1342537, 49.5787423], [6.1342142, 49.5786841], [6.1339712, 49.5783323], [6.134095, 49.5782937], [6.1341203, 49.5782384], [6.1340876, 49.5781856], [6.1342907, 49.578123], [6.1342438, 49.5780602], [6.1344802, 49.5779866], [6.1344916, 49.5779557], [6.134437, 49.57789], [6.1344688, 49.5778796], [6.1345072, 49.5778671], [6.1345649, 49.5779342], [6.1346138, 49.5779428], [6.1348074, 49.5778863], [6.1347846, 49.5778457], [6.1349013, 49.5778235], [6.1350497, 49.5778297], [6.1357147, 49.5779761], [6.1357821, 49.5779885], [6.1358519, 49.5780014], [6.1360166, 49.5779411], [6.1353725, 49.5770945], [6.1345842, 49.5774391]]]}}]}