{"type": "FeatureCollection", "features": [{"type": "Feature", "properties": {"name": "Wickrange"}, "geometry": {"type": "Polygon", "coordinates": [[[6.0409516, 49.5478064], [6.0411206, 49.5475191], [6.0412607, 49.5472744], [6.0414056, 49.5470667], [6.0415167, 49.5469074], [6.0414344, 49.5468762], [6.0412522, 49.5468062], [6.0408866, 49.5466668], [6.0405487, 49.546538], [6.0401852, 49.5463946], [6.0398752, 49.5462725], [6.0395588, 49.5461386], [6.0391902, 49.5459827], [6.0389229, 49.5458713], [6.038769, 49.5458169], [6.0386186, 49.5457667], [6.0383101, 49.5456769], [6.0378792, 49.5455577], [6.0374873, 49.5454474], [6.0371625, 49.545356], [6.0370953, 49.5453371], [6.0370584, 49.5453224], [6.0370736, 49.5450463], [6.0370787, 49.5449352], [6.0371078, 49.5448356], [6.0371562, 49.5447388], [6.0371298, 49.5447251], [6.0368821, 49.544639], [6.0366182, 49.5445438], [6.0363119, 49.5444234], [6.0358235, 49.5442225], [6.0354998, 49.5440896], [6.0351332, 49.5439469], [6.0351495, 49.543906], [6.035253, 49.5436459], [6.0352658, 49.5436146], [6.0352704, 49.5436035], [6.0353378, 49.5434457], [6.035348, 49.5434249], [6.0353521, 49.543415], [6.0353629, 49.5433888], [6.035364, 49.5433861], [6.035098, 49.5433528], [6.0351275, 49.5432862], [6.0348325, 49.5432274], [6.034946, 49.5430112], [6.034869, 49.5430005], [6.034408, 49.542936], [6.0344539, 49.5428543], [6.0342387, 49.5428066], [6.0342976, 49.5427002], [6.0342372, 49.5426889], [6.0341978, 49.5426814], [6.0339457, 49.5426341], [6.033376, 49.5424865], [6.0325633, 49.5422729], [6.0319006, 49.542098], [6.0312153, 49.5419098], [6.0308702, 49.5418129], [6.0308079, 49.5417954], [6.0299599, 49.5415356], [6.0296364, 49.5414379], [6.0293334, 49.5413417], [6.028954, 49.5412255], [6.0290101, 49.5411489], [6.029135, 49.5409885], [6.0291515, 49.5409721], [6.0291739, 49.5409498], [6.0292156, 49.5409084], [6.0292614, 49.540863], [6.0292089, 49.5408333], [6.0289557, 49.5406912], [6.028797, 49.540602], [6.0286335, 49.54051], [6.028477, 49.5404088], [6.0280463, 49.5401304], [6.0278549, 49.5400064], [6.0275821, 49.5398297], [6.0273658, 49.5396895], [6.0272254, 49.5395986], [6.0269539, 49.5394236], [6.0270743, 49.5393396], [6.0269944, 49.5392962], [6.0256143, 49.5385481], [6.0252288, 49.5383228], [6.025002, 49.5381902], [6.0248074, 49.5380764], [6.0245135, 49.5379046], [6.0244514, 49.5378683], [6.0243748, 49.5377628], [6.0243675, 49.5377586], [6.0243603, 49.5377545], [6.0242002, 49.537662], [6.0237449, 49.5374033], [6.0236353, 49.5373404], [6.0235476, 49.53729], [6.0235312, 49.5372722], [6.023417, 49.537109], [6.0233056, 49.5369504], [6.0232512, 49.5368743], [6.0231565, 49.5367417], [6.0230635, 49.5366116], [6.0228229, 49.5362721], [6.0227081, 49.5363007], [6.0226688, 49.5363119], [6.0225932, 49.5363335], [6.0225654, 49.5363443], [6.0225371, 49.5363554], [6.0224486, 49.5364], [6.022346, 49.5364573], [6.0222502, 49.5365181], [6.0221092, 49.5366151], [6.0220221, 49.5366782], [6.0219104, 49.5367698], [6.0219003, 49.5367653], [6.0218903, 49.5367607], [6.0216467, 49.5366506], [6.0213383, 49.5365255], [6.0212988, 49.5365084], [6.0211444, 49.5364522], [6.0209944, 49.5363979], [6.0207818, 49.5363316], [6.0207501, 49.5363238], [6.0205735, 49.5362798], [6.0204305, 49.53625], [6.0201593, 49.5362015], [6.0201317, 49.5362769], [6.0199816, 49.5362705], [6.0197384, 49.5362627], [6.019532, 49.536259], [6.01938, 49.5362555], [6.0193464, 49.5362554], [6.0191818, 49.5362552], [6.0189349, 49.5362641], [6.0184896, 49.5362879], [6.0180881, 49.5363068], [6.0176378, 49.5363281], [6.0171965, 49.5363502], [6.0171783, 49.5363933], [6.0171282, 49.5365163], [6.0171018, 49.5365811], [6.0167581, 49.5364997], [6.0163788, 49.5364099], [6.0161486, 49.536356], [6.0161284, 49.5363506], [6.0161255, 49.53635], [6.0158237, 49.5362845], [6.0156788, 49.5362529], [6.0155451, 49.5362238], [6.0155222, 49.5362188], [6.015228, 49.5361547], [6.015007, 49.5361066], [6.014835, 49.5360691], [6.0142255, 49.5359378], [6.0138545, 49.5358653], [6.0135692, 49.5358147], [6.0131722, 49.5357511], [6.0131738, 49.5357645], [6.0131696, 49.5358159], [6.013167, 49.5358471], [6.0131607, 49.5358742], [6.0131195, 49.5361156], [6.0130971, 49.5362142], [6.0129286, 49.5361922], [6.0128803, 49.5361864], [6.0126641, 49.5361596], [6.0125328, 49.5361433], [6.0124707, 49.5361356], [6.0124227, 49.5361332], [6.0123155, 49.5361277], [6.0120305, 49.5361132], [6.0118152, 49.5361022], [6.0116693, 49.536178], [6.0113341, 49.5363521], [6.0110066, 49.5365223], [6.0109184, 49.5365682], [6.0105454, 49.5367689], [6.0102849, 49.5369091], [6.0101257, 49.5369947], [6.0100142, 49.5370565], [6.0099869, 49.5370716], [6.0100822, 49.5371661], [6.0102233, 49.5373061], [6.0103108, 49.5373929], [6.0104635, 49.5375444], [6.0103407, 49.5375982], [6.009962, 49.5377528], [6.0096578, 49.5378785], [6.0095225, 49.5379316], [6.0094165, 49.5379629], [6.0093153, 49.5379867], [6.0092336, 49.5380013], [6.0091355, 49.5380178], [6.0090062, 49.5380372], [6.0088296, 49.5380614], [6.008703, 49.5380743], [6.0085909, 49.5380839], [6.0084802, 49.5380927], [6.0084046, 49.5380983], [6.0082477, 49.5381062], [6.0081291, 49.5381077], [6.0080157, 49.5381084], [6.0078863, 49.538107], [6.0078162, 49.5382764], [6.007672, 49.5386214], [6.0075989, 49.5387998], [6.0075087, 49.5387845], [6.0074923, 49.5387818], [6.007371, 49.5387612], [6.0071722, 49.5387275], [6.0071526, 49.5387741], [6.0071499, 49.5387807], [6.0071461, 49.5387897], [6.0071372, 49.5388108], [6.007131, 49.5388255], [6.0071165, 49.53886], [6.0070829, 49.5389369], [6.0069691, 49.5391981], [6.0069268, 49.5392917], [6.0068513, 49.5394586], [6.0068248, 49.5395172], [6.0067751, 49.5396285], [6.006718, 49.5397564], [6.0067023, 49.5397916], [6.0066976, 49.5398022], [6.006692, 49.5398146], [6.0066623, 49.5398813], [6.0066483, 49.5399125], [6.0066162, 49.5399841], [6.006553, 49.540125], [6.0065288, 49.540179], [6.0065119, 49.5402158], [6.0065086, 49.540223], [6.006508, 49.5402244], [6.0065029, 49.5402355], [6.0064945, 49.5402538], [6.0064745, 49.5402972], [6.0064702, 49.5403068], [6.0064688, 49.5403097], [6.0064428, 49.5403665], [6.0064052, 49.5404492], [6.0064027, 49.5404546], [6.0064025, 49.5404551], [6.0064011, 49.5404583], [6.0063997, 49.5404614], [6.0063512, 49.540568], [6.0063478, 49.5405754], [6.0063461, 49.5405793], [6.0062597, 49.5407694], [6.0064558, 49.5408257], [6.006568, 49.540858], [6.0066967, 49.5408949], [6.006993, 49.54098], [6.0071554, 49.5410267], [6.0072734, 49.5408186], [6.0077177, 49.5410109], [6.0080386, 49.5411548], [6.0082067, 49.5412375], [6.0084155, 49.5413492], [6.0088109, 49.5415894], [6.0091158, 49.5417798], [6.0090388, 49.541871], [6.0089761, 49.5419454], [6.0092275, 49.5420298], [6.0096929, 49.5421798], [6.0100331, 49.5422861], [6.0103032, 49.5423537], [6.0105649, 49.542413], [6.0107389, 49.5424435], [6.0109463, 49.5424721], [6.0112455, 49.542503], [6.0115923, 49.5425235], [6.0119697, 49.542545], [6.0127915, 49.5425871], [6.0127896, 49.5426492], [6.0131594, 49.5426433], [6.0134944, 49.5426406], [6.0137988, 49.5426441], [6.0142442, 49.5426584], [6.0145868, 49.5426735], [6.0147585, 49.5426864], [6.0149693, 49.5427077], [6.0151992, 49.5427476], [6.0153132, 49.5424528], [6.015461, 49.542461], [6.0155275, 49.5424646], [6.0156481, 49.5424785], [6.0157475, 49.5425016], [6.016179, 49.5426178], [6.0163891, 49.5426729], [6.0167124, 49.5427577], [6.0167635, 49.5427711], [6.0174368, 49.5429352], [6.0176284, 49.5429819], [6.0182214, 49.5431352], [6.0182335, 49.5431377], [6.018251, 49.5430696], [6.0182789, 49.5428825], [6.0182861, 49.5428295], [6.0182969, 49.5428326], [6.0184382, 49.5428737], [6.0185449, 49.5429048], [6.0186745, 49.5429425], [6.018702, 49.542951], [6.0189166, 49.5430177], [6.0189525, 49.5430288], [6.0189721, 49.5430391], [6.0189817, 49.5430034], [6.0190456, 49.5428268], [6.0191168, 49.5427194], [6.0192441, 49.5426019], [6.0193163, 49.5425529], [6.0197639, 49.5423415], [6.0198145, 49.54231], [6.0199159, 49.542247], [6.0199853, 49.5422015], [6.0200344, 49.5423224], [6.0200698, 49.5424477], [6.0201671, 49.5424559], [6.0204253, 49.5424777], [6.0206908, 49.5425091], [6.0207479, 49.5425185], [6.0208843, 49.5425408], [6.0209511, 49.5425528], [6.0212259, 49.54262], [6.0215425, 49.5427052], [6.0216859, 49.5427484], [6.0218452, 49.5427996], [6.0219634, 49.5428394], [6.0220544, 49.542875], [6.0221243, 49.5429087], [6.0222737, 49.5429857], [6.0228028, 49.5432484], [6.0230514, 49.5433758], [6.0233029, 49.5435023], [6.023339, 49.5434252], [6.0233479, 49.5434061], [6.0233664, 49.5433666], [6.0235118, 49.5434346], [6.0235173, 49.5435072], [6.0235275, 49.5436406], [6.0235315, 49.5437321], [6.0235314, 49.5437879], [6.0235269, 49.5438326], [6.0235136, 49.543922], [6.0234872, 49.5440262], [6.0234739, 49.5440578], [6.023462, 49.544086], [6.0234402, 49.5441285], [6.0234781, 49.5441337], [6.0235391, 49.544142], [6.0235321, 49.5441608], [6.0234975, 49.5442536], [6.0234537, 49.5443716], [6.0233979, 49.5445033], [6.0233377, 49.5446405], [6.0238367, 49.5448801], [6.0239864, 49.5449457], [6.0241137, 49.5450016], [6.0242103, 49.544937], [6.0243612, 49.544844], [6.0244617, 49.5447927], [6.0245686, 49.5447491], [6.0246779, 49.5447147], [6.0248004, 49.544679], [6.0249448, 49.5446471], [6.0250107, 49.5446336], [6.0251316, 49.5446163], [6.0252258, 49.5446048], [6.0253387, 49.544601], [6.0254446, 49.5446002], [6.0255506, 49.5445994], [6.0256824, 49.5446036], [6.0258534, 49.5446048], [6.0259365, 49.5446097], [6.0261138, 49.5446225], [6.0263114, 49.5446393], [6.0264181, 49.5446472], [6.026455, 49.5446455], [6.0264809, 49.5446443], [6.027176, 49.5446122], [6.0271841, 49.5445404], [6.0273065, 49.544549], [6.0273661, 49.5445533], [6.0274587, 49.5445563], [6.0277097, 49.5445721], [6.0279293, 49.5445879], [6.0281661, 49.5446115], [6.0284296, 49.5446467], [6.0284941, 49.5446549], [6.0286084, 49.5446693], [6.0287062, 49.5446828], [6.0288536, 49.5447091], [6.0289563, 49.5447313], [6.029012, 49.5447433], [6.0291265, 49.5447764], [6.0293851, 49.5448573], [6.0294598, 49.5448812], [6.0296798, 49.5449518], [6.0296291, 49.5450408], [6.0297433, 49.5450678], [6.0299582, 49.5451088], [6.0301667, 49.545145], [6.0304271, 49.545187], [6.030683, 49.5452218], [6.0309277, 49.5452531], [6.0310469, 49.5452669], [6.0312351, 49.5452845], [6.0314861, 49.5453052], [6.0318092, 49.5453299], [6.0322568, 49.5453633], [6.0321933, 49.5456126], [6.0325514, 49.5456619], [6.0327805, 49.5456934], [6.0329622, 49.5457184], [6.0330648, 49.5457325], [6.0331731, 49.5457479], [6.0332829, 49.5457635], [6.033396, 49.5457796], [6.033489, 49.5457928], [6.0336702, 49.5458186], [6.0339204, 49.5458534], [6.0340452, 49.5458708], [6.034172, 49.5458884], [6.0342908, 49.5459049], [6.0343696, 49.5460128], [6.0344134, 49.5460934], [6.0344268, 49.546125], [6.0344554, 49.5461924], [6.0344974, 49.5463254], [6.0345562, 49.5465599], [6.0345794, 49.5466686], [6.0346103, 49.5468217], [6.0346784, 49.5471599], [6.0347276, 49.547492], [6.0347177, 49.5475654], [6.0347069, 49.5476448], [6.034696, 49.5477252], [6.0346799, 49.5478437], [6.0346735, 49.5478911], [6.0346671, 49.5479338], [6.0346623, 49.5479726], [6.0349036, 49.5480709], [6.0351435, 49.5481556], [6.03544, 49.5482618], [6.0357566, 49.548363], [6.0361878, 49.5484945], [6.0365468, 49.548593], [6.0368259, 49.5486641], [6.0371826, 49.5487533], [6.0373331, 49.5487884], [6.0375275, 49.548842], [6.0376859, 49.5488906], [6.0379195, 49.5489637], [6.0383536, 49.5491225], [6.0386875, 49.5492558], [6.039095, 49.5494154], [6.0394242, 49.5495487], [6.0394749, 49.5495655], [6.0398957, 49.549225], [6.0402213, 49.5489454], [6.0404549, 49.5487062], [6.0406359, 49.5484628], [6.0409516, 49.5478064]]]}}]}