{"type": "FeatureCollection", "features": [{"type": "Feature", "properties": {"name": "Mersch"}, "geometry": {"type": "MultiPolygon", "coordinates": [[[[6.037321, 49.743317], [6.037416, 49.74359], [6.037516, 49.74386], [6.037767, 49.744522], [6.038515, 49.74546], [6.03787, 49.745823], [6.038027, 49.745945], [6.0385, 49.74631], [6.038942, 49.74667], [6.040682, 49.746826], [6.041262, 49.74688], [6.041868, 49.747128], [6.042082, 49.747215], [6.040613, 49.748066], [6.04011, 49.748363], [6.040483, 49.748684], [6.040663, 49.748837], [6.040754, 49.748917], [6.04085, 49.748997], [6.041117, 49.749226], [6.041521, 49.749577], [6.041567, 49.749622], [6.042105, 49.749893], [6.042349, 49.750015], [6.042376, 49.749996], [6.042425, 49.75001], [6.042692, 49.7501], [6.04286, 49.75016], [6.042986, 49.750214], [6.043169, 49.75029], [6.043272, 49.750343], [6.043352, 49.75039], [6.043417, 49.750435], [6.043516, 49.75052], [6.043592, 49.750584], [6.043676, 49.75067], [6.043745, 49.750755], [6.043795, 49.750828], [6.043833, 49.75089], [6.043886, 49.75099], [6.043963, 49.75117], [6.044069, 49.751453], [6.044149, 49.751648], [6.044233, 49.751816], [6.044413, 49.75209], [6.044516, 49.752213], [6.044466, 49.75236], [6.044424, 49.752487], [6.044306, 49.75283], [6.04423, 49.75313], [6.044275, 49.753296], [6.044333, 49.753563], [6.044363, 49.753777], [6.044367, 49.7538], [6.044374, 49.75389], [6.044374, 49.75397], [6.044371, 49.75412], [6.044355, 49.75434], [6.044336, 49.7545], [6.044275, 49.754692], [6.044226, 49.754814], [6.044138, 49.754982], [6.043947, 49.755333], [6.04384, 49.7555], [6.043684, 49.755722], [6.04357, 49.75582], [6.043413, 49.75595], [6.043383, 49.75597], [6.043238, 49.75608], [6.042887, 49.75634], [6.043581, 49.756573], [6.043482, 49.757027], [6.043318, 49.75776], [6.043241, 49.75813], [6.042726, 49.7581], [6.042608, 49.758152], [6.042288, 49.75827], [6.04207, 49.758343], [6.041994, 49.758377], [6.041857, 49.758442], [6.041712, 49.758503], [6.041643, 49.75854], [6.041605, 49.758568], [6.041532, 49.758595], [6.041449, 49.758614], [6.041372, 49.75864], [6.041323, 49.758667], [6.041273, 49.7587], [6.041231, 49.75876], [6.041193, 49.758774], [6.041151, 49.7588], [6.041109, 49.75885], [6.041086, 49.75887], [6.041037, 49.758904], [6.041006, 49.758926], [6.040957, 49.75897], [6.04093, 49.75899], [6.040793, 49.75908], [6.040773, 49.759098], [6.04075, 49.759125], [6.040739, 49.759144], [6.04072, 49.759193], [6.040693, 49.759274], [6.04067, 49.759304], [6.040663, 49.759335], [6.040678, 49.75938], [6.040674, 49.759403], [6.040655, 49.759434], [6.040613, 49.759468], [6.040583, 49.759502], [6.040556, 49.759525], [6.040529, 49.75957], [6.040514, 49.759605], [6.040514, 49.759632], [6.040522, 49.759655], [6.040525, 49.75968], [6.040533, 49.75972], [6.040533, 49.759735], [6.040522, 49.75977], [6.040522, 49.75979], [6.040529, 49.759815], [6.040545, 49.759834], [6.04059, 49.75988], [6.040628, 49.75992], [6.040659, 49.759956], [6.040674, 49.75998], [6.04069, 49.760017], [6.040697, 49.76007], [6.040712, 49.760124], [6.040731, 49.76016], [6.040743, 49.7602], [6.040747, 49.760227], [6.040705, 49.760323], [6.040697, 49.76035], [6.040697, 49.760395], [6.040712, 49.760418], [6.040747, 49.760456], [6.040781, 49.76047], [6.040827, 49.76049], [6.040896, 49.760506], [6.040911, 49.760513], [6.040922, 49.76052], [6.040922, 49.760536], [6.040915, 49.76055], [6.040873, 49.760586], [6.040865, 49.7606], [6.040865, 49.76062], [6.04088, 49.76064], [6.040899, 49.760654], [6.040926, 49.760662], [6.040953, 49.760666], [6.040968, 49.76067], [6.040983, 49.76068], [6.040995, 49.760693], [6.040995, 49.760708], [6.040991, 49.76072], [6.040976, 49.76074], [6.040953, 49.760765], [6.040949, 49.76078], [6.040953, 49.760796], [6.040968, 49.76082], [6.040991, 49.760838], [6.040991, 49.760864], [6.040976, 49.760876], [6.040957, 49.760895], [6.04096, 49.760914], [6.040972, 49.76092], [6.041048, 49.76092], [6.041063, 49.760933], [6.041075, 49.760956], [6.041075, 49.760975], [6.041086, 49.760998], [6.041101, 49.761013], [6.041109, 49.76103], [6.041124, 49.76105], [6.041155, 49.76107], [6.041205, 49.7611], [6.041224, 49.761124], [6.041231, 49.76117], [6.041231, 49.76119], [6.041224, 49.761227], [6.041227, 49.76125], [6.041246, 49.76127], [6.041281, 49.76129], [6.041311, 49.761303], [6.041353, 49.76133], [6.041368, 49.76135], [6.04138, 49.761368], [6.04138, 49.761406], [6.041368, 49.76143], [6.041357, 49.761448], [6.041357, 49.76146], [6.041368, 49.76149], [6.04138, 49.761524], [6.041395, 49.761555], [6.04141, 49.761574], [6.041426, 49.761585], [6.041437, 49.761604], [6.041452, 49.761635], [6.041456, 49.761658], [6.041452, 49.761673], [6.04146, 49.761692], [6.041475, 49.761715], [6.041487, 49.761738], [6.041494, 49.761776], [6.041502, 49.761795], [6.041513, 49.76181], [6.041552, 49.76183], [6.041575, 49.761833], [6.041601, 49.76185], [6.041613, 49.761856], [6.04162, 49.761875], [6.041639, 49.761948], [6.041651, 49.762012], [6.041651, 49.762054], [6.041655, 49.76207], [6.041662, 49.76208], [6.041681, 49.762093], [6.041696, 49.762108], [6.041708, 49.762127], [6.041712, 49.76217], [6.041712, 49.762203], [6.041716, 49.762234], [6.041723, 49.762264], [6.041739, 49.7623], [6.041758, 49.762325], [6.041807, 49.76236], [6.041834, 49.762383], [6.041853, 49.762413], [6.041857, 49.76243], [6.041845, 49.76245], [6.041826, 49.76247], [6.041769, 49.7625], [6.041754, 49.76252], [6.041746, 49.76254], [6.041746, 49.76255], [6.041754, 49.762573], [6.041761, 49.762592], [6.041769, 49.762627], [6.041773, 49.76267], [6.041777, 49.7627], [6.041799, 49.762756], [6.04183, 49.762814], [6.041864, 49.76285], [6.041922, 49.7629], [6.041975, 49.76293], [6.042013, 49.76295], [6.042032, 49.762966], [6.042051, 49.762985], [6.042055, 49.763], [6.042047, 49.763023], [6.042036, 49.76304], [6.042028, 49.76305], [6.042028, 49.76306], [6.042032, 49.76308], [6.042063, 49.763126], [6.042131, 49.763226], [6.042211, 49.763393], [6.042238, 49.76346], [6.042238, 49.763474], [6.042215, 49.76351], [6.042196, 49.763527], [6.042166, 49.76355], [6.042158, 49.76356], [6.04215, 49.763588], [6.042143, 49.7636], [6.042124, 49.763615], [6.042109, 49.763622], [6.042101, 49.763634], [6.042101, 49.763653], [6.042112, 49.763683], [6.042135, 49.763718], [6.042166, 49.763756], [6.0422, 49.76381], [6.042231, 49.763836], [6.042379, 49.76384], [6.042692, 49.763515], [6.043188, 49.76302], [6.043589, 49.76263], [6.043615, 49.762638], [6.043634, 49.762646], [6.044691, 49.763], [6.044832, 49.76305], [6.044325, 49.763958], [6.044664, 49.764053], [6.044954, 49.76418], [6.045301, 49.764362], [6.045549, 49.764503], [6.045851, 49.76469], [6.046099, 49.764854], [6.046614, 49.765186], [6.046987, 49.765408], [6.047804, 49.765903], [6.048059, 49.766052], [6.048502, 49.766277], [6.048876, 49.76645], [6.049139, 49.766552], [6.049357, 49.766624], [6.049662, 49.7667], [6.04983, 49.76678], [6.050039, 49.766937], [6.050245, 49.767082], [6.050608, 49.767292], [6.050974, 49.767498], [6.051279, 49.767654], [6.051603, 49.76781], [6.051844, 49.767925], [6.052374, 49.768196], [6.052443, 49.76836], [6.052526, 49.76854], [6.05258, 49.768642], [6.052595, 49.768814], [6.05242, 49.76881], [6.052431, 49.768856], [6.052492, 49.76886], [6.053328, 49.76887], [6.054979, 49.768898], [6.054991, 49.768963], [6.055029, 49.769142], [6.055067, 49.769154], [6.055166, 49.769188], [6.055841, 49.76943], [6.056242, 49.769577], [6.056707, 49.76976], [6.056662, 49.76984], [6.056852, 49.76992], [6.057054, 49.77], [6.057264, 49.77009], [6.05747, 49.770164], [6.057886, 49.770325], [6.058119, 49.77041], [6.058252, 49.770462], [6.058458, 49.770535], [6.058554, 49.77057], [6.058645, 49.770576], [6.058721, 49.770588], [6.058905, 49.770645], [6.059027, 49.770676], [6.05908, 49.770676], [6.059118, 49.77066], [6.059133, 49.770645], [6.059133, 49.770622], [6.059145, 49.77061], [6.059172, 49.77061], [6.059275, 49.770653], [6.059339, 49.770683], [6.059351, 49.770702], [6.059343, 49.77072], [6.059324, 49.77074], [6.059336, 49.770752], [6.059366, 49.77076], [6.059397, 49.770752], [6.059423, 49.770752], [6.059446, 49.770763], [6.059469, 49.77077], [6.059504, 49.77076], [6.059515, 49.770744], [6.059519, 49.77073], [6.059538, 49.77072], [6.059603, 49.770737], [6.059671, 49.770763], [6.059675, 49.77078], [6.059656, 49.77079], [6.059618, 49.770798], [6.05961, 49.77081], [6.059652, 49.770824], [6.059694, 49.770824], [6.059748, 49.770817], [6.059824, 49.770817], [6.059839, 49.77083], [6.059843, 49.770844], [6.059832, 49.77086], [6.059835, 49.770874], [6.059858, 49.77089], [6.05995, 49.77091], [6.059996, 49.770912], [6.06003, 49.770897], [6.060049, 49.770885], [6.060087, 49.770893], [6.060137, 49.77092], [6.060221, 49.770958], [6.060354, 49.771004], [6.060392, 49.771027], [6.060438, 49.771027], [6.06048, 49.77103], [6.06053, 49.77106], [6.060602, 49.77107], [6.06069, 49.77104], [6.060743, 49.771034], [6.060854, 49.77104], [6.060873, 49.77103], [6.060881, 49.77101], [6.060858, 49.770992], [6.060865, 49.770977], [6.0609, 49.770977], [6.061037, 49.77102], [6.061056, 49.771038], [6.061045, 49.771057], [6.061052, 49.771076], [6.061075, 49.771088], [6.061121, 49.7711], [6.061152, 49.77109], [6.061171, 49.771088], [6.061186, 49.7711], [6.061262, 49.771088], [6.061327, 49.771133], [6.061373, 49.771152], [6.061403, 49.77116], [6.061483, 49.771152], [6.06156, 49.771137], [6.061598, 49.771133], [6.061632, 49.771133], [6.061655, 49.77114], [6.061686, 49.771164], [6.061705, 49.771168], [6.061731, 49.77117], [6.061758, 49.771168], [6.061773, 49.771164], [6.061789, 49.771145], [6.0618, 49.771114], [6.061823, 49.771088], [6.061846, 49.77108], [6.061876, 49.771084], [6.061895, 49.771095], [6.061903, 49.771107], [6.061892, 49.771133], [6.061888, 49.771156], [6.061888, 49.77118], [6.061899, 49.77119], [6.061918, 49.77119], [6.061975, 49.771183], [6.061995, 49.771183], [6.062014, 49.771187], [6.062036, 49.771183], [6.062056, 49.771175], [6.062071, 49.77117], [6.06209, 49.771168], [6.062109, 49.771175], [6.062139, 49.77119], [6.062155, 49.77119], [6.062303, 49.771187], [6.062349, 49.77117], [6.062353, 49.771152], [6.062345, 49.77114], [6.062361, 49.771122], [6.062376, 49.771114], [6.062403, 49.77111], [6.062426, 49.771114], [6.062513, 49.771126], [6.062525, 49.771133], [6.06254, 49.77115], [6.062513, 49.77116], [6.062521, 49.771175], [6.062532, 49.77118], [6.062567, 49.771183], [6.062601, 49.771183], [6.06262, 49.77119], [6.062639, 49.771202], [6.062666, 49.77121], [6.0627, 49.771214], [6.062716, 49.771214], [6.062731, 49.771206], [6.062738, 49.771194], [6.06275, 49.771187], [6.062773, 49.771183], [6.062792, 49.771187], [6.062803, 49.771194], [6.062811, 49.771206], [6.062818, 49.771225], [6.062838, 49.771233], [6.062864, 49.77124], [6.062883, 49.771244], [6.062902, 49.77124], [6.062914, 49.771236], [6.062921, 49.77122], [6.062933, 49.771214], [6.062948, 49.771214], [6.062964, 49.771217], [6.063005, 49.771236], [6.063051, 49.771244], [6.063154, 49.77123], [6.063177, 49.771236], [6.063185, 49.771248], [6.063169, 49.771263], [6.063177, 49.771275], [6.063196, 49.771282], [6.063269, 49.771294], [6.063376, 49.7713], [6.063398, 49.771305], [6.063421, 49.771317], [6.063436, 49.771336], [6.063456, 49.771374], [6.063471, 49.77139], [6.063498, 49.7714], [6.063517, 49.771404], [6.06354, 49.7714], [6.063551, 49.77139], [6.063566, 49.77137], [6.063585, 49.771355], [6.063612, 49.77135], [6.063643, 49.771347], [6.063673, 49.77135], [6.063719, 49.77136], [6.063757, 49.771366], [6.063784, 49.771362], [6.063818, 49.77136], [6.063875, 49.77133], [6.063948, 49.771313], [6.06399, 49.771294], [6.064009, 49.77129], [6.064039, 49.77128], [6.064066, 49.77126], [6.064123, 49.771255], [6.064146, 49.77124], [6.064165, 49.77123], [6.064203, 49.77122], [6.064241, 49.771217], [6.06428, 49.771206], [6.064314, 49.771194], [6.064344, 49.771187], [6.06436, 49.77119], [6.064383, 49.7712], [6.064398, 49.77122], [6.064417, 49.77123], [6.064447, 49.771233], [6.064478, 49.77123], [6.064501, 49.77122], [6.064508, 49.77121], [6.064516, 49.771194], [6.064535, 49.771187], [6.064554, 49.77119], [6.064577, 49.771202], [6.064585, 49.77122], [6.064592, 49.771233], [6.064608, 49.771236], [6.064634, 49.77124], [6.064657, 49.77124], [6.06468, 49.771236], [6.064695, 49.771225], [6.064699, 49.77121], [6.064695, 49.77117], [6.064711, 49.771156], [6.06473, 49.771152], [6.064772, 49.77115], [6.064806, 49.77116], [6.064939, 49.771206], [6.065012, 49.77122], [6.065069, 49.77122], [6.065104, 49.771214], [6.065092, 49.7712], [6.065092, 49.77118], [6.065126, 49.771164], [6.065145, 49.771156], [6.06521, 49.771152], [6.065287, 49.77115], [6.065409, 49.77115], [6.065416, 49.771137], [6.065416, 49.77112], [6.065405, 49.7711], [6.065412, 49.771088], [6.065428, 49.771088], [6.065447, 49.77109], [6.065455, 49.771107], [6.065451, 49.771137], [6.065474, 49.77115], [6.065512, 49.771152], [6.065527, 49.77114], [6.065538, 49.771126], [6.065538, 49.771103], [6.06555, 49.771095], [6.065569, 49.77109], [6.065588, 49.771095], [6.065607, 49.771103], [6.065619, 49.77111], [6.065645, 49.77111], [6.06568, 49.77109], [6.065718, 49.771088], [6.065741, 49.771095], [6.065737, 49.771114], [6.065729, 49.771126], [6.065737, 49.771137], [6.065756, 49.771145], [6.065775, 49.771145], [6.06579, 49.771133], [6.065813, 49.77113], [6.065844, 49.771133], [6.065874, 49.771126], [6.065931, 49.7711], [6.06592, 49.77108], [6.065901, 49.771072], [6.065893, 49.77106], [6.065916, 49.771053], [6.065947, 49.77106], [6.065966, 49.77107], [6.066, 49.7711], [6.066015, 49.771107], [6.066034, 49.77111], [6.06605, 49.771107], [6.066065, 49.77109], [6.066065, 49.771076], [6.066095, 49.77107], [6.066111, 49.771057], [6.066122, 49.77104], [6.066141, 49.771034], [6.066191, 49.771027], [6.06621, 49.771027], [6.066236, 49.771015], [6.066279, 49.771], [6.06632, 49.77098], [6.066389, 49.77096], [6.066458, 49.77096], [6.066553, 49.770935], [6.066584, 49.77093], [6.066637, 49.770935], [6.066675, 49.770943], [6.066706, 49.770958], [6.066713, 49.770985], [6.066732, 49.770996], [6.066782, 49.771008], [6.066816, 49.771015], [6.066843, 49.77103], [6.066885, 49.771046], [6.066935, 49.77103], [6.066976, 49.771023], [6.066988, 49.771008], [6.066999, 49.770985], [6.067015, 49.770973], [6.067041, 49.770973], [6.067061, 49.77098], [6.06708, 49.770977], [6.067141, 49.77094], [6.067167, 49.77094], [6.067198, 49.77095], [6.067225, 49.77095], [6.06724, 49.770943], [6.067247, 49.77093], [6.06724, 49.770912], [6.067236, 49.7709], [6.067247, 49.77089], [6.06727, 49.77088], [6.067282, 49.770874], [6.067282, 49.77086], [6.067247, 49.770836], [6.067255, 49.770824], [6.067278, 49.770813], [6.067324, 49.77081], [6.067469, 49.77074], [6.067507, 49.77071], [6.067549, 49.77067], [6.067572, 49.77066], [6.067614, 49.77064], [6.067625, 49.770634], [6.067659, 49.77058], [6.067709, 49.77052], [6.067728, 49.77051], [6.067785, 49.770496], [6.067812, 49.77048], [6.067831, 49.770466], [6.067884, 49.77045], [6.067938, 49.770443], [6.068045, 49.770435], [6.068121, 49.770428], [6.068193, 49.770416], [6.068258, 49.770412], [6.0683, 49.770397], [6.068358, 49.770367], [6.068422, 49.770332], [6.068457, 49.770317], [6.068479, 49.770313], [6.068491, 49.770317], [6.068502, 49.77033], [6.068502, 49.770348], [6.068487, 49.770374], [6.068491, 49.77039], [6.06851, 49.77041], [6.068537, 49.770412], [6.068582, 49.770405], [6.068621, 49.770393], [6.068727, 49.77034], [6.06877, 49.77033], [6.068846, 49.770298], [6.068876, 49.770294], [6.068899, 49.770298], [6.068914, 49.77031], [6.06893, 49.770332], [6.068953, 49.77037], [6.068964, 49.77038], [6.068994, 49.770397], [6.069029, 49.77041], [6.069071, 49.770416], [6.069128, 49.770416], [6.069181, 49.770405], [6.069239, 49.77038], [6.069273, 49.77035], [6.069304, 49.77034], [6.069338, 49.770336], [6.069391, 49.770332], [6.069433, 49.77032], [6.069475, 49.770306], [6.069506, 49.77029], [6.069529, 49.770267], [6.069548, 49.77025], [6.069567, 49.770237], [6.069628, 49.77023], [6.069674, 49.77022], [6.069704, 49.77021], [6.069731, 49.770195], [6.069765, 49.77019], [6.069822, 49.770195], [6.069864, 49.770195], [6.06991, 49.770187], [6.069979, 49.770164], [6.070147, 49.77012], [6.0702, 49.770096], [6.070246, 49.770065], [6.070295, 49.770027], [6.07033, 49.770008], [6.070417, 49.769978], [6.070463, 49.769955], [6.070482, 49.769936], [6.070509, 49.769897], [6.070524, 49.76985], [6.070555, 49.769783], [6.07057, 49.76977], [6.070593, 49.76976], [6.070677, 49.76974], [6.070692, 49.769733], [6.070696, 49.76972], [6.070696, 49.76969], [6.070711, 49.769672], [6.07073, 49.769653], [6.070761, 49.769634], [6.070852, 49.76959], [6.071001, 49.769524], [6.071108, 49.76947], [6.071188, 49.769432], [6.071245, 49.769394], [6.071291, 49.769352], [6.071318, 49.769318], [6.071337, 49.769283], [6.071352, 49.76925], [6.071371, 49.76922], [6.071394, 49.7692], [6.071425, 49.76918], [6.071455, 49.769173], [6.071474, 49.769165], [6.071497, 49.76917], [6.071528, 49.769184], [6.071577, 49.769203], [6.071623, 49.76921], [6.071657, 49.76921], [6.071703, 49.769207], [6.071733, 49.76919], [6.071772, 49.76917], [6.071802, 49.769142], [6.071833, 49.769108], [6.071848, 49.769104], [6.071894, 49.76909], [6.071909, 49.769073], [6.071924, 49.769073], [6.071951, 49.76909], [6.07197, 49.76908], [6.071974, 49.769062], [6.071985, 49.76905], [6.072008, 49.769035], [6.072016, 49.76902], [6.072012, 49.768993], [6.07202, 49.76898], [6.072103, 49.768963], [6.072126, 49.768955], [6.072161, 49.768936], [6.072191, 49.76892], [6.072203, 49.76892], [6.072229, 49.768925], [6.072279, 49.768948], [6.072302, 49.768948], [6.072374, 49.768925], [6.072393, 49.76893], [6.072412, 49.768932], [6.072432, 49.76893], [6.072462, 49.768913], [6.072523, 49.768864], [6.072542, 49.768852], [6.072573, 49.768845], [6.072622, 49.76884], [6.072668, 49.768845], [6.072695, 49.76885], [6.072721, 49.76884], [6.072741, 49.76883], [6.072756, 49.768814], [6.072779, 49.76877], [6.072798, 49.768753], [6.072832, 49.768738], [6.072866, 49.768734], [6.072977, 49.76873], [6.072996, 49.76872], [6.073015, 49.76869], [6.073019, 49.768654], [6.073027, 49.768635], [6.073038, 49.76862], [6.073053, 49.768612], [6.07308, 49.76861], [6.073095, 49.768604], [6.073126, 49.76863], [6.073133, 49.76865], [6.073152, 49.76866], [6.073187, 49.768665], [6.07321, 49.768665], [6.073236, 49.768658], [6.073271, 49.76864], [6.073324, 49.76861], [6.073362, 49.768593], [6.0734, 49.768593], [6.073439, 49.768597], [6.073515, 49.768612], [6.073564, 49.768604], [6.07358, 49.768593], [6.073591, 49.76858], [6.073587, 49.768547], [6.073591, 49.76849], [6.073607, 49.76847], [6.073629, 49.76846], [6.073645, 49.76846], [6.073664, 49.768467], [6.073675, 49.768475], [6.07369, 49.768475], [6.073706, 49.768467], [6.073755, 49.76843], [6.073797, 49.768402], [6.073858, 49.768402], [6.073896, 49.7684], [6.073927, 49.76839], [6.073942, 49.76838], [6.073946, 49.768368], [6.073946, 49.768337], [6.073931, 49.768307], [6.073927, 49.768284], [6.073942, 49.768272], [6.073973, 49.768257], [6.074064, 49.76824], [6.074102, 49.768238], [6.074156, 49.768223], [6.074186, 49.76822], [6.074224, 49.76822], [6.074243, 49.76821], [6.07427, 49.7682], [6.074301, 49.768177], [6.074327, 49.768147], [6.074358, 49.768124], [6.074381, 49.768116], [6.074434, 49.76811], [6.074526, 49.768097], [6.07456, 49.768085], [6.074594, 49.768066], [6.074656, 49.76806], [6.074751, 49.76806], [6.074789, 49.768047], [6.074842, 49.76802], [6.074873, 49.767998], [6.074892, 49.767982], [6.074911, 49.767982], [6.074945, 49.767994], [6.075022, 49.767986], [6.075083, 49.76796], [6.075209, 49.7679], [6.075235, 49.767883], [6.075262, 49.767876], [6.0753, 49.767876], [6.075335, 49.76788], [6.075384, 49.76788], [6.075415, 49.76787], [6.075457, 49.767853], [6.075499, 49.76783], [6.075544, 49.7678], [6.075602, 49.767765], [6.07564, 49.767754], [6.075682, 49.767746], [6.075827, 49.767742], [6.075876, 49.767735], [6.075918, 49.76771], [6.075952, 49.767685], [6.076029, 49.767616], [6.076078, 49.767582], [6.076105, 49.76757], [6.076132, 49.76756], [6.076174, 49.767555], [6.076269, 49.767555], [6.0763, 49.76755], [6.076357, 49.767536], [6.076391, 49.767525], [6.076429, 49.767517], [6.076475, 49.767513], [6.076647, 49.767513], [6.076799, 49.767483], [6.076876, 49.767467], [6.076956, 49.767467], [6.076998, 49.76746], [6.077063, 49.767445], [6.077078, 49.767437], [6.077089, 49.767433], [6.077146, 49.767445], [6.077208, 49.76744], [6.077257, 49.767433], [6.077295, 49.76742], [6.077345, 49.767406], [6.077318, 49.76765], [6.077387, 49.76766], [6.077631, 49.76769], [6.077875, 49.767723], [6.078096, 49.76776], [6.078257, 49.76779], [6.078455, 49.76783], [6.078695, 49.767895], [6.078096, 49.768677], [6.078188, 49.76896], [6.078333, 49.769413], [6.078512, 49.77008], [6.078546, 49.770226], [6.078592, 49.77045], [6.078634, 49.77067], [6.078653, 49.77095], [6.078688, 49.771404], [6.078722, 49.771835], [6.078733, 49.77188], [6.078764, 49.77197], [6.078821, 49.772076], [6.078898, 49.772198], [6.078958, 49.77227], [6.079126, 49.772427], [6.079294, 49.77258], [6.079428, 49.772705], [6.079565, 49.772858], [6.079687, 49.773], [6.079855, 49.77317], [6.080069, 49.77338], [6.080214, 49.7735], [6.080385, 49.773617], [6.080568, 49.773724], [6.080732, 49.77381], [6.081068, 49.773975], [6.081507, 49.774216], [6.081659, 49.77429], [6.081922, 49.774384], [6.082197, 49.77447], [6.082537, 49.774567], [6.082632, 49.774599], [6.082437, 49.774742], [6.082518, 49.77477], [6.082846, 49.774868], [6.08386, 49.77518], [6.084341, 49.775333], [6.084707, 49.775455], [6.085123, 49.775574], [6.085222, 49.7756], [6.086542, 49.77599], [6.087637, 49.77629], [6.088045, 49.776405], [6.088209, 49.776447], [6.088354, 49.77648], [6.088633, 49.77656], [6.088755, 49.776596], [6.088896, 49.77663], [6.089025, 49.776665], [6.089174, 49.776695], [6.089338, 49.776737], [6.089521, 49.77677], [6.08972, 49.776814], [6.090174, 49.776905], [6.090372, 49.776947], [6.090536, 49.77698], [6.090704, 49.777016], [6.090902, 49.77706], [6.091089, 49.777107], [6.091257, 49.77715], [6.091696, 49.777252], [6.092192, 49.777348], [6.092699, 49.777428], [6.092802, 49.77745], [6.093653, 49.777687], [6.094194, 49.777832], [6.094454, 49.777905], [6.094568, 49.777935], [6.095285, 49.77813], [6.096052, 49.778336], [6.09638, 49.77843], [6.096441, 49.77845], [6.09646, 49.77846], [6.096514, 49.778492], [6.096628, 49.77855], [6.096712, 49.7786], [6.096785, 49.778652], [6.096888, 49.77873], [6.096987, 49.77881], [6.097094, 49.778908], [6.097193, 49.779003], [6.09733, 49.77914], [6.097387, 49.7792], [6.097456, 49.779278], [6.097548, 49.779392], [6.097586, 49.779434], [6.097651, 49.779484], [6.097879, 49.779663], [6.09804, 49.779797], [6.098379, 49.780094], [6.09844, 49.780148], [6.098478, 49.780186], [6.098505, 49.78023], [6.09852, 49.780262], [6.098539, 49.780293], [6.098585, 49.78033], [6.09865, 49.78036], [6.098723, 49.780388], [6.098803, 49.78041], [6.098848, 49.78043], [6.098875, 49.780453], [6.098894, 49.780483], [6.098932, 49.780514], [6.098978, 49.780537], [6.099405, 49.780735], [6.099337, 49.780827], [6.099291, 49.780823], [6.099176, 49.780815], [6.099039, 49.78085], [6.09886, 49.78087], [6.098734, 49.780876], [6.098631, 49.78088], [6.098551, 49.780876], [6.098452, 49.780865], [6.098394, 49.780865], [6.098322, 49.78087], [6.098226, 49.78089], [6.098116, 49.780914], [6.098017, 49.78093], [6.097929, 49.780937], [6.09783, 49.780933], [6.097738, 49.780922], [6.097616, 49.780914], [6.097506, 49.780914], [6.097368, 49.780926], [6.097235, 49.780945], [6.09723, 49.780956], [6.097197, 49.781033], [6.097059, 49.78137], [6.097002, 49.781483], [6.096907, 49.78165], [6.09675, 49.781914], [6.096556, 49.782265], [6.096421, 49.782503], [6.096407, 49.782528], [6.096044, 49.783173], [6.096529, 49.78332], [6.09683, 49.78283], [6.096895, 49.782722], [6.097322, 49.782818], [6.097158, 49.783062], [6.096407, 49.784145], [6.096209, 49.78444], [6.09717, 49.784756], [6.097807, 49.784958], [6.097746, 49.78517], [6.097879, 49.78523], [6.09791, 49.78524], [6.097895, 49.78529], [6.097795, 49.785625], [6.097727, 49.78589], [6.097704, 49.78599], [6.097685, 49.78618], [6.097677, 49.786335], [6.097704, 49.786457], [6.09775, 49.786613], [6.097788, 49.78663], [6.098585, 49.786945], [6.099348, 49.78726], [6.100401, 49.787685], [6.10103, 49.787937], [6.100767, 49.78828], [6.100725, 49.788334], [6.100641, 49.788437], [6.100607, 49.788486], [6.100584, 49.788513], [6.10095, 49.788662], [6.101683, 49.788982], [6.10232, 49.789272], [6.102838, 49.78949], [6.103544, 49.78976], [6.10499, 49.79032], [6.10634, 49.790833], [6.107168, 49.791145], [6.10747, 49.791272], [6.107501, 49.79124], [6.107851, 49.79088], [6.107851, 49.79073], [6.107861, 49.790115], [6.107846, 49.789978], [6.107847, 49.789513], [6.107856, 49.789383], [6.107864, 49.789318], [6.107895, 49.789143], [6.10799, 49.789143], [6.108055, 49.78915], [6.108091, 49.789173], [6.108125, 49.789215], [6.108155, 49.789265], [6.108192, 49.789288], [6.108242, 49.7893], [6.108301, 49.789303], [6.108453, 49.789314], [6.108678, 49.789387], [6.1088, 49.789394], [6.108861, 49.789425], [6.108963, 49.789482], [6.109109, 49.789597], [6.109184, 49.789635], [6.109313, 49.789673], [6.109461, 49.78971], [6.109841, 49.789787], [6.110213, 49.78983], [6.11037, 49.789856], [6.110517, 49.78989], [6.110633, 49.789936], [6.110881, 49.790043], [6.111085, 49.7901], [6.111225, 49.79013], [6.111293, 49.79014], [6.111475, 49.79013], [6.111625, 49.790123], [6.11182, 49.790134], [6.111971, 49.790157], [6.112059, 49.79018], [6.112154, 49.790207], [6.112457, 49.790302], [6.112624, 49.790344], [6.113005, 49.790432], [6.113163, 49.79048], [6.113289, 49.790527], [6.113483, 49.790607], [6.113571, 49.790634], [6.113659, 49.79065], [6.11377, 49.79065], [6.11401, 49.790634], [6.114377, 49.79057], [6.114465, 49.790565], [6.114539, 49.790577], [6.114663, 49.790596], [6.114753, 49.79062], [6.114836, 49.79063], [6.114919, 49.790627], [6.115038, 49.79062], [6.115539, 49.790565], [6.115638, 49.790558], [6.115769, 49.79057], [6.115881, 49.79059], [6.116096, 49.790627], [6.116456, 49.790703], [6.116949, 49.79078], [6.11708, 49.79083], [6.117135, 49.790825], [6.117209, 49.790802], [6.117273, 49.790775], [6.117329, 49.790737], [6.117424, 49.79065], [6.117436, 49.790638], [6.11747, 49.79062], [6.117526, 49.790607], [6.117592, 49.79061], [6.117693, 49.79062], [6.118033, 49.790676], [6.118507, 49.790775], [6.11884, 49.790848], [6.119126, 49.79092], [6.119247, 49.79095], [6.119807, 49.7911], [6.119863, 49.791115], [6.11997, 49.791145], [6.120197, 49.791214], [6.120224, 49.790916], [6.120219, 49.790657], [6.120214, 49.79048], [6.120204, 49.79038], [6.120192, 49.7903], [6.120115, 49.79], [6.119974, 49.78955], [6.120697, 49.78946], [6.120763, 49.78945], [6.120777, 49.789307], [6.120763, 49.7892], [6.120719, 49.7891], [6.120661, 49.789013], [6.120485, 49.78882], [6.120403, 49.78872], [6.120359, 49.788643], [6.120312, 49.78849], [6.120286, 49.788425], [6.120275, 49.788414], [6.120329, 49.78841], [6.12042, 49.788395], [6.120571, 49.788372], [6.120673, 49.788334], [6.12075, 49.788292], [6.120896, 49.788383], [6.121024, 49.788467], [6.121124, 49.788555], [6.12118, 49.78853], [6.121432, 49.788387], [6.12149, 49.788364], [6.121894, 49.78833], [6.122495, 49.78811], [6.122681, 49.788036], [6.122918, 49.787956], [6.123114, 49.7879], [6.123254, 49.78786], [6.123301, 49.78786], [6.123416, 49.787857], [6.123594, 49.78787], [6.123768, 49.787872], [6.123893, 49.787884], [6.124024, 49.787907], [6.124281, 49.787975], [6.12491, 49.788143], [6.125097, 49.788185], [6.125264, 49.788216], [6.125341, 49.78825], [6.125395, 49.78828], [6.125496, 49.78836], [6.125586, 49.788445], [6.125622, 49.788467], [6.125648, 49.78848], [6.125783, 49.788494], [6.125807, 49.7885], [6.125895, 49.788574], [6.12595, 49.7886], [6.126105, 49.78864], [6.126173, 49.788692], [6.126296, 49.78871], [6.126369, 49.788734], [6.126511, 49.788815], [6.126571, 49.78889], [6.126614, 49.788937], [6.126674, 49.788975], [6.12691, 49.789093], [6.127017, 49.78911], [6.127066, 49.789104], [6.127187, 49.789074], [6.127286, 49.789085], [6.127412, 49.78914], [6.127536, 49.78917], [6.127588, 49.78917], [6.127749, 49.789154], [6.127823, 49.78916], [6.127983, 49.789207], [6.128095, 49.789253], [6.128185, 49.789295], [6.128314, 49.789307], [6.128456, 49.789333], [6.12851, 49.78937], [6.12856, 49.78946], [6.128628, 49.789516], [6.128713, 49.78957], [6.128938, 49.78968], [6.129155, 49.789818], [6.129651, 49.790066], [6.129782, 49.7901], [6.129868, 49.79011], [6.130003, 49.7901], [6.130221, 49.790077], [6.130378, 49.79005], [6.130525, 49.790012], [6.130579, 49.790012], [6.130634, 49.790066], [6.130728, 49.790077], [6.130739, 49.789974], [6.131291, 49.789967], [6.131376, 49.789993], [6.131439, 49.790054], [6.131506, 49.79009], [6.131596, 49.790104], [6.131755, 49.790127], [6.131946, 49.790142], [6.132111, 49.790154], [6.132298, 49.790188], [6.132437, 49.790195], [6.1326, 49.790188], [6.132682, 49.790176], [6.132745, 49.790195], [6.132745, 49.790234], [6.13272, 49.790264], [6.132751, 49.79032], [6.132852, 49.79039], [6.13297, 49.79047], [6.13305, 49.79047], [6.133076, 49.790478], [6.133102, 49.790493], [6.133129, 49.79052], [6.133237, 49.79055], [6.133398, 49.79057], [6.133789, 49.79008], [6.134145, 49.789646], [6.134534, 49.789177], [6.134858, 49.788776], [6.135247, 49.788315], [6.135641, 49.787834], [6.136028, 49.787365], [6.136347, 49.786976], [6.136735, 49.7865], [6.137142, 49.786003], [6.137534, 49.78553], [6.137814, 49.7852], [6.138736, 49.78569], [6.139316, 49.785206], [6.139481, 49.785072], [6.14042, 49.785378], [6.140276, 49.785034], [6.14007, 49.78451], [6.139981, 49.784172], [6.139871, 49.78368], [6.139791, 49.78329], [6.139758, 49.78305], [6.139752, 49.782898], [6.139747, 49.782738], [6.139743, 49.782623], [6.140048, 49.78247], [6.140269, 49.78236], [6.140411, 49.782234], [6.140487, 49.782158], [6.140536, 49.782093], [6.140582, 49.782013], [6.140617, 49.781914], [6.140708, 49.781612], [6.140927, 49.781273], [6.141048, 49.78111], [6.141055, 49.781055], [6.141053, 49.780983], [6.141043, 49.780933], [6.141016, 49.78087], [6.140961, 49.78077], [6.14062, 49.780384], [6.141138, 49.780132], [6.141892, 49.780727], [6.142227, 49.78099], [6.142482, 49.78119], [6.143631, 49.781395], [6.144145, 49.78149], [6.144215, 49.7815], [6.144302, 49.781406], [6.144716, 49.780956], [6.144745, 49.780922], [6.144775, 49.78089], [6.144994, 49.78064], [6.145093, 49.780704], [6.145347, 49.780396], [6.145773, 49.779865], [6.146147, 49.779408], [6.146382, 49.779026], [6.146532, 49.778927], [6.146697, 49.77878], [6.146772, 49.77874], [6.146898, 49.778713], [6.147087, 49.7785], [6.147161, 49.7784], [6.147266, 49.778324], [6.147368, 49.778244], [6.147469, 49.778133], [6.147556, 49.778072], [6.147536, 49.778057], [6.147162, 49.77778], [6.146923, 49.777576], [6.146702, 49.77739], [6.146875, 49.777325], [6.147805, 49.77709], [6.147894, 49.777058], [6.148067, 49.776974], [6.148339, 49.776737], [6.149004, 49.776127], [6.149063, 49.77543], [6.149098, 49.775017], [6.149107, 49.7749], [6.149141, 49.774506], [6.149164, 49.77423], [6.149209, 49.773697], [6.149255, 49.773148], [6.149299, 49.77263], [6.149354, 49.771976], [6.14941, 49.771996], [6.150267, 49.77229], [6.151109, 49.772507], [6.151198, 49.77253], [6.151294, 49.772396], [6.15152, 49.77208], [6.151568, 49.77201], [6.151689, 49.771835], [6.151788, 49.77169], [6.151861, 49.771595], [6.151926, 49.77151], [6.151996, 49.771423], [6.152277, 49.77108], [6.152368, 49.770985], [6.152487, 49.77088], [6.152678, 49.77071], [6.152819, 49.77058], [6.153032, 49.770382], [6.153117, 49.770302], [6.153193, 49.77023], [6.153208, 49.770214], [6.153334, 49.7701], [6.153441, 49.77], [6.153482, 49.76996], [6.153501, 49.76994], [6.153578, 49.769867], [6.153719, 49.769737], [6.153776, 49.769688], [6.153791, 49.769672], [6.153898, 49.769577], [6.153921, 49.769554], [6.15394, 49.76954], [6.154097, 49.769417], [6.154211, 49.76933], [6.154242, 49.769302], [6.154303, 49.769257], [6.154409, 49.769173], [6.154432, 49.769157], [6.154619, 49.76901], [6.15436, 49.76889], [6.154173, 49.768806], [6.152231, 49.767925], [6.152201, 49.767914], [6.151609, 49.76822], [6.151586, 49.76821], [6.15114, 49.76804], [6.150724, 49.76788], [6.150515, 49.767796], [6.151293, 49.767178], [6.15214, 49.766525], [6.151815, 49.766308], [6.152403, 49.76584], [6.152136, 49.76568], [6.152063, 49.765636], [6.151327, 49.766167], [6.150705, 49.76661], [6.150541, 49.766525], [6.150412, 49.766457], [6.150183, 49.76634], [6.150099, 49.7663], [6.150003, 49.76625], [6.151114, 49.765347], [6.150938, 49.76523], [6.150297, 49.76481], [6.149725, 49.764442], [6.148729, 49.76381], [6.14868, 49.76378], [6.148626, 49.763744], [6.148584, 49.763718], [6.148104, 49.763412], [6.147017, 49.762737], [6.147169, 49.762573], [6.147203, 49.76254], [6.147383, 49.762344], [6.14752, 49.762203], [6.147879, 49.76182], [6.14681, 49.76137], [6.146772, 49.761353], [6.146746, 49.76134], [6.146959, 49.760754], [6.146986, 49.76066], [6.147009, 49.76057], [6.147024, 49.76052], [6.147024, 49.76049], [6.146998, 49.760384], [6.146959, 49.760242], [6.146952, 49.76022], [6.146875, 49.760025], [6.146826, 49.76001], [6.14702, 49.75989], [6.147058, 49.75986], [6.147165, 49.759773], [6.147184, 49.759758], [6.147322, 49.75962], [6.147451, 49.75947], [6.147253, 49.759018], [6.147165, 49.75882], [6.147146, 49.75878], [6.146769, 49.758587], [6.146151, 49.758266], [6.145784, 49.75807], [6.145628, 49.75799], [6.144873, 49.757744], [6.144728, 49.7577], [6.14459, 49.757675], [6.144449, 49.757656], [6.144278, 49.757652], [6.14427, 49.75763], [6.144278, 49.757565], [6.144293, 49.757465], [6.14493, 49.757397], [6.14559, 49.757412], [6.146021, 49.757477], [6.14617, 49.757496], [6.146673, 49.757565], [6.147066, 49.757626], [6.147398, 49.757675], [6.147684, 49.757755], [6.147791, 49.757782], [6.14786, 49.7578], [6.148199, 49.757908], [6.148287, 49.757946], [6.148786, 49.758167], [6.149824, 49.75853], [6.149912, 49.75856], [6.149984, 49.758583], [6.150392, 49.75872], [6.15106, 49.758865], [6.151846, 49.758667], [6.152124, 49.75838], [6.152189, 49.758312], [6.152323, 49.75818], [6.152151, 49.758118], [6.152041, 49.758087], [6.151896, 49.758064], [6.15177, 49.75804], [6.151689, 49.75802], [6.151632, 49.75799], [6.151606, 49.75797], [6.151556, 49.75792], [6.151537, 49.75787], [6.151499, 49.757774], [6.151465, 49.757744], [6.151426, 49.757725], [6.151377, 49.757717], [6.151323, 49.757717], [6.151274, 49.757736], [6.151213, 49.757767], [6.15111, 49.757847], [6.151075, 49.75786], [6.151041, 49.757854], [6.150984, 49.757847], [6.150892, 49.757824], [6.150801, 49.75779], [6.15061, 49.75771], [6.150484, 49.75765], [6.150297, 49.75757], [6.150221, 49.7575], [6.150175, 49.757473], [6.150122, 49.757446], [6.150068, 49.75744], [6.149973, 49.757435], [6.1499, 49.757416], [6.149805, 49.757393], [6.149672, 49.757374], [6.149603, 49.757366], [6.149538, 49.75735], [6.14945, 49.757313], [6.149294, 49.75722], [6.14926, 49.75719], [6.149229, 49.757168], [6.14916, 49.757133], [6.149019, 49.757084], [6.14889, 49.75704], [6.148779, 49.756996], [6.148695, 49.756973], [6.148546, 49.75695], [6.148436, 49.75693], [6.148348, 49.756897], [6.148188, 49.75679], [6.148115, 49.756737], [6.148058, 49.756706], [6.148001, 49.75668], [6.147947, 49.756664], [6.14789, 49.756657], [6.147772, 49.756653], [6.147696, 49.75664], [6.147566, 49.756615], [6.147421, 49.75657], [6.147188, 49.75648], [6.146925, 49.75637], [6.146872, 49.75633], [6.146849, 49.756294], [6.146822, 49.7561], [6.146799, 49.756065], [6.146769, 49.756035], [6.146723, 49.756016], [6.146688, 49.75601], [6.146627, 49.756016], [6.146563, 49.756023], [6.146532, 49.75602], [6.146498, 49.75601], [6.146467, 49.755993], [6.146437, 49.755985], [6.14636, 49.75599], [6.146315, 49.755978], [6.146028, 49.755886], [6.145807, 49.75582], [6.145609, 49.755756], [6.145441, 49.755695], [6.145254, 49.755604], [6.145205, 49.755573], [6.145155, 49.75553], [6.145033, 49.7554], [6.144964, 49.755306], [6.144842, 49.75521], [6.144751, 49.75517], [6.14464, 49.755123], [6.14456, 49.755096], [6.144518, 49.755085], [6.144426, 49.755047], [6.144335, 49.755016], [6.144224, 49.755], [6.144087, 49.754997], [6.144007, 49.754993], [6.143949, 49.75497], [6.143881, 49.75493], [6.14382, 49.75488], [6.143774, 49.75485], [6.143702, 49.75481], [6.143656, 49.75478], [6.143629, 49.75474], [6.143606, 49.754715], [6.143572, 49.754696], [6.143511, 49.75469], [6.143393, 49.75469], [6.143286, 49.754692], [6.143244, 49.75468], [6.143198, 49.754665], [6.143164, 49.75464], [6.143152, 49.75461], [6.143164, 49.754562], [6.143202, 49.754528], [6.14329, 49.75448], [6.143324, 49.75445], [6.143328, 49.754433], [6.143312, 49.754414], [6.14327, 49.75439], [6.143202, 49.75438], [6.143145, 49.75438], [6.143065, 49.7544], [6.142996, 49.754406], [6.142839, 49.7544], [6.142599, 49.754337], [6.142439, 49.754303], [6.142412, 49.75429], [6.142385, 49.754265], [6.142366, 49.754234], [6.142343, 49.75418], [6.142328, 49.75416], [6.142294, 49.75413], [6.14218, 49.75402], [6.14208, 49.753902], [6.142042, 49.753864], [6.142012, 49.75384], [6.141962, 49.753822], [6.141859, 49.753796], [6.141783, 49.75378], [6.141703, 49.753777], [6.141714, 49.75377], [6.141928, 49.75361], [6.142752, 49.752956], [6.143312, 49.752502], [6.143602, 49.75227], [6.143724, 49.752174], [6.143839, 49.7521], [6.143889, 49.75207], [6.143972, 49.752026], [6.144342, 49.751823], [6.144808, 49.751575], [6.14501, 49.75141], [6.145243, 49.751213], [6.1453, 49.751167], [6.145922, 49.750584], [6.146181, 49.750343], [6.146242, 49.75027], [6.146456, 49.750004], [6.146898, 49.749462], [6.14744, 49.74883], [6.148089, 49.74878], [6.148512, 49.748837], [6.149046, 49.74901], [6.150026, 49.749344], [6.150492, 49.749657], [6.150358, 49.74985], [6.150202, 49.75008], [6.150042, 49.750313], [6.14995, 49.750443], [6.149763, 49.750717], [6.149565, 49.75101], [6.14958, 49.75102], [6.150824, 49.751354], [6.15196, 49.75166], [6.152098, 49.751698], [6.1537, 49.752132], [6.155165, 49.75252], [6.155333, 49.752567], [6.156519, 49.752884], [6.15653, 49.75287], [6.157331, 49.753044], [6.157877, 49.753178], [6.158331, 49.753292], [6.158876, 49.753433], [6.158647, 49.7532], [6.158537, 49.75304], [6.158461, 49.752857], [6.158419, 49.752666], [6.158411, 49.752506], [6.158434, 49.752243], [6.158472, 49.752003], [6.158525, 49.751778], [6.158583, 49.751583], [6.158655, 49.75146], [6.158781, 49.751305], [6.158968, 49.751137], [6.158941, 49.75112], [6.158842, 49.7511], [6.158773, 49.751083], [6.158751, 49.751076], [6.158724, 49.75106], [6.158712, 49.751045], [6.158701, 49.75101], [6.158693, 49.751], [6.158655, 49.750977], [6.158644, 49.75096], [6.158636, 49.750946], [6.158609, 49.750927], [6.158598, 49.75091], [6.158583, 49.750874], [6.158564, 49.75086], [6.158506, 49.750835], [6.158472, 49.75081], [6.158438, 49.75079], [6.158419, 49.75077], [6.158411, 49.750748], [6.158407, 49.750713], [6.158403, 49.750694], [6.1584, 49.750683], [6.158392, 49.75067], [6.158365, 49.750656], [6.158319, 49.75063], [6.15827, 49.750618], [6.158216, 49.750603], [6.158197, 49.75059], [6.158163, 49.75058], [6.158133, 49.75057], [6.158087, 49.750565], [6.15806, 49.750565], [6.158041, 49.75056], [6.158014, 49.75055], [6.157972, 49.750526], [6.157953, 49.75052], [6.157934, 49.750515], [6.157907, 49.75051], [6.157885, 49.750504], [6.157831, 49.75048], [6.157751, 49.75044], [6.15761, 49.750366], [6.157553, 49.75034], [6.157446, 49.7503], [6.157232, 49.750225], [6.157007, 49.75015], [6.156954, 49.75013], [6.156916, 49.750114], [6.156889, 49.750095], [6.156858, 49.750065], [6.15682, 49.75002], [6.156794, 49.749992], [6.156759, 49.74997], [6.156691, 49.74994], [6.15663, 49.749916], [6.156538, 49.749878], [6.156477, 49.749847], [6.156443, 49.749825], [6.156404, 49.749813], [6.156374, 49.7498], [6.156347, 49.74979], [6.156328, 49.74977], [6.156317, 49.749763], [6.15629, 49.74976], [6.156263, 49.749752], [6.156248, 49.74974], [6.156233, 49.749725], [6.156202, 49.749714], [6.156122, 49.7497], [6.156107, 49.749695], [6.156088, 49.74968], [6.156073, 49.74967], [6.156053, 49.74966], [6.156015, 49.74965], [6.155989, 49.74964], [6.15597, 49.749626], [6.155966, 49.749603], [6.155962, 49.74954], [6.156229, 49.749447], [6.15642, 49.749405], [6.156668, 49.74939], [6.156878, 49.749382], [6.157, 49.749363], [6.157064, 49.74935], [6.157152, 49.749374], [6.157671, 49.74925], [6.157915, 49.74918], [6.157301, 49.74845], [6.156908, 49.74799], [6.156694, 49.7477], [6.156427, 49.747387], [6.156015, 49.746918], [6.156073, 49.746803], [6.156103, 49.746746], [6.156241, 49.746437], [6.156508, 49.74582], [6.156591, 49.745617], [6.156664, 49.745445], [6.156748, 49.745243], [6.156794, 49.74514], [6.15687, 49.74496], [6.156675, 49.744747], [6.156504, 49.744545], [6.156439, 49.744453], [6.156515, 49.744473], [6.156786, 49.74453], [6.157053, 49.744583], [6.157057, 49.744568], [6.157057, 49.744507], [6.157053, 49.744442], [6.157034, 49.74433], [6.157007, 49.74426], [6.156958, 49.744183], [6.156897, 49.744095], [6.156813, 49.743984], [6.156755, 49.74391], [6.156683, 49.743828], [6.156584, 49.74374], [6.156492, 49.74366], [6.156271, 49.743473], [6.156096, 49.743332], [6.156061, 49.7433], [6.156023, 49.743275], [6.15597, 49.743233], [6.155931, 49.743233], [6.155901, 49.743244], [6.155725, 49.743114], [6.155359, 49.742847], [6.154528, 49.742233], [6.153967, 49.741837], [6.153009, 49.741108], [6.15291, 49.741035], [6.152319, 49.74058], [6.151937, 49.74028], [6.15151, 49.73996], [6.151258, 49.73977], [6.151007, 49.739582], [6.150862, 49.739502], [6.150515, 49.73936], [6.150084, 49.739185], [6.149469, 49.73899], [6.148951, 49.738827], [6.147871, 49.738503], [6.147177, 49.738297], [6.146837, 49.738235], [6.142767, 49.73758], [6.142691, 49.737617], [6.142599, 49.73759], [6.139223, 49.73652], [6.139185, 49.7365], [6.138765, 49.736263], [6.138201, 49.735943], [6.137548, 49.735565], [6.137198, 49.735367], [6.136892, 49.735207], [6.136732, 49.735126], [6.136534, 49.735035], [6.136332, 49.734943], [6.13616, 49.73487], [6.135954, 49.734795], [6.135748, 49.734715], [6.13537, 49.7346], [6.135206, 49.73456], [6.134962, 49.734497], [6.135084, 49.734432], [6.135241, 49.734352], [6.134691, 49.733807], [6.134336, 49.733437], [6.134169, 49.733257], [6.134092, 49.733173], [6.134047, 49.733124], [6.13394, 49.733], [6.133925, 49.732986], [6.133833, 49.732887], [6.133448, 49.732446], [6.132944, 49.73187], [6.132432, 49.731188], [6.132193, 49.73087], [6.131697, 49.730232], [6.13167, 49.730145], [6.131628, 49.73005], [6.131559, 49.729965], [6.131289, 49.729664], [6.131125, 49.729492], [6.130957, 49.729332], [6.1308, 49.729206], [6.130674, 49.72911], [6.130529, 49.729015], [6.130426, 49.728962], [6.130316, 49.72891], [6.130144, 49.72886], [6.130114, 49.72885], [6.129888, 49.728798], [6.129736, 49.72877], [6.129591, 49.72874], [6.129446, 49.728714], [6.129282, 49.728687], [6.129171, 49.72867], [6.129, 49.72865], [6.128916, 49.728634], [6.12887, 49.728622], [6.128763, 49.728596], [6.128622, 49.728542], [6.128519, 49.728516], [6.128462, 49.728508], [6.128336, 49.72848], [6.128176, 49.72844], [6.127851, 49.72836], [6.127691, 49.728313], [6.127607, 49.728424], [6.127508, 49.728405], [6.12742, 49.728386], [6.127142, 49.728336], [6.12631, 49.728184], [6.126165, 49.728157], [6.125769, 49.72809], [6.125731, 49.728085], [6.125376, 49.728024], [6.125273, 49.72801], [6.125235, 49.728], [6.125063, 49.72797], [6.124872, 49.72794], [6.124678, 49.727913], [6.124296, 49.727848], [6.124086, 49.727811], [6.124033, 49.727802], [6.123678, 49.727745], [6.123655, 49.727742], [6.123587, 49.727734], [6.123499, 49.727722], [6.123251, 49.72767], [6.123289, 49.727577], [6.123327, 49.727478], [6.123182, 49.72746], [6.122717, 49.72739], [6.122732, 49.727333], [6.122763, 49.7272], [6.122789, 49.727074], [6.122854, 49.72679], [6.1229, 49.7266], [6.121943, 49.7265], [6.121733, 49.72647], [6.12166, 49.726463], [6.120676, 49.72635], [6.119245, 49.72619], [6.119173, 49.72618], [6.118998, 49.726162], [6.118563, 49.726116], [6.118368, 49.726093], [6.118338, 49.726162], [6.118288, 49.72628], [6.118185, 49.72651], [6.118067, 49.726784], [6.117922, 49.727116], [6.117914, 49.72713], [6.117762, 49.727512], [6.117605, 49.72787], [6.117563, 49.727962], [6.117521, 49.72806], [6.117514, 49.728077], [6.117479, 49.728146], [6.117754, 49.728245], [6.117926, 49.72832], [6.118055, 49.728443], [6.118189, 49.72873], [6.118296, 49.729015], [6.118288, 49.729084], [6.118258, 49.72915], [6.118093, 49.729454], [6.118059, 49.72956], [6.118051, 49.729683], [6.118063, 49.72976], [6.118105, 49.729813], [6.118166, 49.729843], [6.118338, 49.7299], [6.118364, 49.72993], [6.11838, 49.729973], [6.118387, 49.730022], [6.118372, 49.730087], [6.118341, 49.730175], [6.118307, 49.730316], [6.118319, 49.730408], [6.118334, 49.730465], [6.118334, 49.7305], [6.118326, 49.730526], [6.118269, 49.730602], [6.118147, 49.730713], [6.118006, 49.730804], [6.117895, 49.730896], [6.117853, 49.73095], [6.117804, 49.73105], [6.117784, 49.731155], [6.117769, 49.731197], [6.117754, 49.731224], [6.117716, 49.731243], [6.117632, 49.73126], [6.117506, 49.731266], [6.117269, 49.731274], [6.117209, 49.731285], [6.117186, 49.7313], [6.11717, 49.73132], [6.11717, 49.73134], [6.117201, 49.731365], [6.117231, 49.731377], [6.117285, 49.731396], [6.11735, 49.731407], [6.117422, 49.73142], [6.117456, 49.73143], [6.117498, 49.73146], [6.117517, 49.73151], [6.117521, 49.73154], [6.117498, 49.731598], [6.117464, 49.73166], [6.117411, 49.731773], [6.11738, 49.73183], [6.117376, 49.731888], [6.117392, 49.73195], [6.117426, 49.73199], [6.117437, 49.73202], [6.117433, 49.73205], [6.117414, 49.732094], [6.117399, 49.732166], [6.117392, 49.732204], [6.117361, 49.732246], [6.117269, 49.73232], [6.117151, 49.732395], [6.117109, 49.73241], [6.117071, 49.732414], [6.117037, 49.732407], [6.117002, 49.732403], [6.116953, 49.732407], [6.116919, 49.732418], [6.116842, 49.73245], [6.116644, 49.732563], [6.116484, 49.73268], [6.116407, 49.73277], [6.116274, 49.732887], [6.116159, 49.73294], [6.116098, 49.73297], [6.116037, 49.732994], [6.115992, 49.733006], [6.115953, 49.73301], [6.1159, 49.73302], [6.115839, 49.733036], [6.115782, 49.733032], [6.115725, 49.73303], [6.115694, 49.73303], [6.115664, 49.733036], [6.11561, 49.733025], [6.115568, 49.733013], [6.115534, 49.733013], [6.115492, 49.733032], [6.115477, 49.733055], [6.115503, 49.733177], [6.115538, 49.733307], [6.115522, 49.73338], [6.115389, 49.73351], [6.115362, 49.73359], [6.115274, 49.733738], [6.115202, 49.73388], [6.11511, 49.734035], [6.11503, 49.734188], [6.114977, 49.734283], [6.11492, 49.73432], [6.114881, 49.73435], [6.114851, 49.734367], [6.114798, 49.734493], [6.11471, 49.734596], [6.114683, 49.734634], [6.114664, 49.734684], [6.114588, 49.734833], [6.114572, 49.73486], [6.114584, 49.734913], [6.114618, 49.734936], [6.114679, 49.73497], [6.114828, 49.735016], [6.114885, 49.735043], [6.114912, 49.735077], [6.114927, 49.735092], [6.114931, 49.735115], [6.114908, 49.735165], [6.114847, 49.735283], [6.114801, 49.735386], [6.11479, 49.735424], [6.114763, 49.735462], [6.114683, 49.735516], [6.114531, 49.73561], [6.114367, 49.735714], [6.114222, 49.73578], [6.114115, 49.735798], [6.114046, 49.735794], [6.113977, 49.735783], [6.113913, 49.735764], [6.113638, 49.735703], [6.113584, 49.735695], [6.113527, 49.7357], [6.113459, 49.735703], [6.113363, 49.735714], [6.113245, 49.735733], [6.112925, 49.735794], [6.112791, 49.735817], [6.112742, 49.73582], [6.112696, 49.735806], [6.112635, 49.7358], [6.1126, 49.7358], [6.112539, 49.73582], [6.112497, 49.735847], [6.112448, 49.735912], [6.112444, 49.736], [6.112471, 49.736046], [6.112505, 49.73609], [6.1126, 49.736156], [6.112654, 49.73622], [6.112673, 49.736294], [6.112669, 49.736378], [6.112642, 49.73643], [6.112555, 49.73653], [6.112486, 49.7366], [6.112383, 49.736694], [6.112295, 49.736786], [6.112246, 49.73685], [6.112207, 49.736927], [6.112207, 49.736958], [6.112234, 49.736988], [6.112387, 49.73713], [6.112413, 49.737175], [6.112421, 49.737206], [6.112417, 49.737247], [6.11239, 49.737297], [6.112368, 49.73741], [6.112349, 49.737522], [6.112368, 49.73758], [6.112459, 49.737633], [6.112539, 49.73769], [6.112608, 49.737736], [6.112795, 49.73785], [6.112871, 49.737923], [6.112863, 49.737988], [6.112787, 49.73809], [6.112661, 49.738213], [6.112577, 49.738262], [6.112486, 49.738285], [6.112261, 49.738293], [6.112081, 49.73828], [6.112009, 49.73826], [6.111967, 49.738247], [6.111921, 49.73825], [6.111776, 49.738277], [6.111708, 49.738277], [6.111628, 49.738266], [6.111521, 49.738228], [6.111307, 49.73818], [6.111189, 49.738155], [6.111109, 49.738155], [6.111048, 49.738167], [6.110857, 49.738247], [6.110346, 49.7386], [6.110208, 49.73869], [6.11009, 49.738773], [6.109892, 49.738934], [6.109736, 49.73905], [6.109529, 49.739174], [6.109354, 49.73929], [6.109186, 49.739388], [6.109045, 49.739548], [6.108927, 49.739723], [6.108885, 49.739864], [6.108892, 49.73994], [6.108843, 49.739952], [6.107305, 49.740658], [6.107019, 49.740425], [6.10679, 49.740406], [6.106543, 49.74048], [6.106035, 49.740623], [6.105936, 49.740654], [6.1056, 49.74075], [6.105555, 49.74076], [6.105333, 49.740574], [6.105249, 49.7405], [6.104826, 49.740154], [6.104784, 49.740124], [6.104662, 49.740025], [6.104643, 49.740005], [6.104608, 49.73998], [6.104505, 49.739883], [6.104475, 49.73986], [6.104269, 49.73968], [6.104006, 49.739445], [6.103891, 49.739346], [6.103849, 49.739307], [6.103788, 49.739254], [6.103636, 49.739117], [6.103476, 49.73898], [6.103445, 49.738953], [6.103376, 49.73889], [6.103327, 49.73885], [6.103197, 49.73873], [6.10301, 49.738567], [6.102743, 49.738342], [6.10253, 49.738113], [6.102377, 49.737915], [6.102289, 49.737797], [6.102224, 49.73766], [6.102213, 49.737583], [6.102209, 49.73752], [6.102232, 49.737366], [6.102255, 49.737236], [6.102259, 49.737152], [6.102282, 49.73694], [6.102278, 49.736866], [6.102278, 49.736782], [6.102274, 49.736725], [6.102266, 49.736656], [6.102266, 49.736618], [6.102259, 49.736553], [6.102259, 49.73653], [6.102247, 49.736385], [6.102243, 49.736294], [6.10224, 49.736225], [6.10224, 49.736134], [6.102247, 49.73597], [6.102266, 49.735863], [6.102316, 49.735725], [6.102404, 49.735535], [6.102446, 49.73546], [6.102491, 49.73538], [6.102549, 49.7353], [6.102617, 49.735226], [6.102701, 49.73515], [6.102827, 49.735065], [6.103002, 49.734955], [6.103117, 49.734882], [6.103174, 49.734844], [6.103224, 49.73482], [6.103285, 49.734802], [6.103342, 49.734783], [6.103418, 49.73476], [6.103472, 49.734734], [6.103579, 49.734673], [6.103735, 49.734592], [6.103903, 49.734497], [6.104048, 49.73441], [6.104147, 49.734364], [6.104334, 49.734303], [6.104635, 49.73422], [6.104517, 49.734127], [6.104402, 49.73403], [6.104322, 49.733967], [6.104124, 49.733807], [6.104624, 49.733555], [6.104929, 49.733387], [6.105074, 49.7333], [6.105204, 49.733208], [6.105394, 49.733078], [6.105665, 49.732807], [6.106058, 49.73245], [6.106237, 49.732243], [6.106417, 49.73194], [6.106554, 49.73161], [6.106566, 49.73155], [6.106573, 49.731525], [6.106321, 49.731483], [6.106085, 49.731445], [6.106058, 49.731422], [6.104223, 49.73112], [6.104216, 49.73111], [6.104155, 49.73111], [6.104002, 49.731083], [6.103884, 49.731064], [6.10364, 49.731026], [6.103083, 49.73044], [6.102705, 49.73004], [6.102602, 49.72993], [6.10256, 49.729923], [6.102514, 49.72986], [6.10243, 49.72974], [6.102354, 49.729637], [6.102316, 49.729576], [6.102297, 49.729527], [6.102255, 49.72943], [6.102236, 49.72936], [6.10224, 49.729317], [6.102236, 49.729248], [6.102224, 49.729214], [6.102198, 49.72917], [6.102121, 49.729103], [6.10206, 49.729042], [6.102014, 49.728977], [6.10198, 49.728916], [6.101969, 49.72889], [6.101965, 49.728855], [6.101973, 49.72871], [6.101973, 49.728565], [6.101961, 49.72853], [6.101919, 49.728485], [6.101866, 49.728466], [6.101786, 49.72844], [6.101744, 49.728428], [6.101706, 49.72841], [6.101652, 49.72836], [6.101606, 49.728302], [6.10158, 49.72827], [6.101541, 49.728207], [6.101538, 49.728172], [6.101545, 49.728146], [6.101561, 49.728127], [6.101641, 49.728058], [6.101721, 49.727993], [6.101778, 49.72788], [6.101786, 49.72784], [6.101751, 49.727596], [6.101713, 49.727455], [6.101706, 49.72729], [6.101686, 49.72721], [6.101641, 49.72711], [6.101587, 49.72701], [6.10153, 49.726917], [6.101454, 49.726818], [6.101412, 49.726753], [6.101397, 49.726704], [6.101389, 49.726654], [6.101385, 49.726498], [6.101389, 49.726437], [6.101381, 49.72637], [6.101347, 49.726257], [6.101297, 49.726143], [6.101236, 49.725994], [6.101214, 49.725918], [6.101214, 49.72588], [6.101217, 49.72585], [6.101236, 49.72581], [6.101332, 49.7257], [6.101389, 49.725616], [6.101408, 49.72554], [6.101416, 49.725426], [6.101412, 49.725254], [6.101404, 49.72514], [6.101423, 49.72509], [6.101461, 49.72501], [6.101465, 49.72497], [6.101454, 49.724926], [6.101419, 49.72488], [6.101339, 49.72481], [6.101263, 49.724747], [6.101236, 49.7247], [6.101229, 49.724625], [6.10124, 49.724575], [6.101252, 49.724518], [6.101248, 49.72447], [6.101229, 49.724407], [6.101194, 49.724342], [6.101183, 49.724297], [6.101164, 49.72426], [6.101168, 49.724205], [6.101175, 49.724155], [6.101183, 49.72411], [6.101198, 49.72406], [6.101198, 49.724026], [6.101187, 49.723976], [6.101156, 49.723927], [6.100981, 49.72363], [6.100905, 49.72353], [6.10087, 49.72346], [6.100855, 49.723385], [6.10084, 49.723293], [6.100832, 49.723198], [6.100821, 49.72313], [6.100805, 49.723057], [6.100771, 49.72298], [6.100725, 49.722893], [6.100676, 49.722828], [6.100592, 49.722748], [6.100561, 49.722725], [6.100737, 49.722633], [6.100817, 49.722694], [6.100862, 49.722675], [6.100939, 49.722645], [6.10071, 49.72236], [6.100691, 49.72234], [6.100454, 49.7221], [6.099596, 49.7215], [6.099535, 49.72146], [6.099642, 49.721397], [6.099928, 49.721237], [6.100813, 49.720737], [6.101515, 49.720375], [6.101755, 49.72025], [6.102087, 49.720085], [6.102266, 49.719967], [6.10232, 49.719925], [6.10261, 49.7197], [6.103163, 49.719273], [6.103865, 49.718704], [6.103983, 49.71865], [6.104063, 49.718616], [6.104219, 49.71854], [6.104349, 49.718464], [6.104624, 49.718292], [6.105185, 49.71791], [6.105555, 49.717648], [6.105814, 49.71684], [6.105848, 49.716774], [6.105909, 49.716545], [6.105974, 49.716354], [6.106005, 49.716255], [6.105997, 49.716087], [6.105978, 49.71589], [6.105948, 49.715767], [6.10589, 49.71559], [6.105844, 49.715473], [6.1057, 49.71513], [6.105574, 49.71483], [6.105486, 49.71463], [6.105341, 49.714336], [6.10486, 49.713512], [6.104719, 49.713284], [6.104532, 49.712975], [6.104288, 49.71249], [6.104273, 49.712433], [6.104223, 49.712414], [6.104216, 49.71235], [6.10428, 49.71202], [6.104311, 49.71189], [6.104361, 49.71172], [6.104429, 49.71151], [6.10459, 49.711067], [6.104666, 49.71086], [6.104773, 49.710625], [6.104883, 49.710434], [6.104944, 49.71033], [6.105188, 49.71011], [6.105337, 49.70999], [6.1057, 49.709667], [6.105951, 49.709427], [6.106241, 49.70853], [6.106253, 49.708458], [6.106222, 49.70835], [6.105886, 49.707592], [6.10549, 49.70669], [6.105219, 49.70609], [6.105051, 49.70571], [6.104975, 49.70562], [6.104792, 49.705475], [6.104261, 49.70506], [6.103964, 49.70488], [6.103769, 49.704777], [6.103422, 49.704575], [6.102671, 49.70414], [6.102007, 49.70377], [6.101839, 49.703674], [6.101458, 49.703465], [6.101179, 49.703327], [6.101114, 49.703297], [6.100847, 49.703167], [6.099939, 49.70272], [6.099188, 49.702316], [6.097807, 49.701576], [6.09778, 49.70156], [6.096415, 49.700832], [6.096182, 49.700706], [6.096109, 49.700676], [6.095911, 49.700607], [6.095465, 49.700462], [6.094862, 49.700268], [6.094137, 49.700043], [6.093809, 49.69994], [6.093573, 49.699867], [6.093569, 49.699726], [6.093573, 49.69959], [6.093576, 49.699505], [6.093584, 49.699413], [6.093618, 49.69907], [6.093679, 49.69871], [6.093492, 49.69836], [6.093351, 49.698032], [6.093264, 49.69779], [6.093214, 49.697613], [6.093184, 49.697456], [6.093172, 49.697414], [6.093157, 49.6973], [6.093164, 49.696796], [6.093161, 49.696487], [6.093157, 49.69643], [6.093073, 49.69596], [6.09305, 49.695805], [6.093035, 49.695496], [6.093039, 49.695408], [6.093039, 49.69535], [6.093027, 49.695286], [6.092829, 49.694626], [6.092672, 49.693993], [6.092657, 49.69392], [6.09263, 49.6938], [6.092611, 49.693703], [6.092543, 49.693172], [6.09162, 49.69312], [6.090914, 49.693073], [6.090857, 49.69306], [6.090769, 49.6931], [6.090654, 49.693142], [6.090532, 49.69323], [6.090452, 49.693325], [6.09041, 49.693398], [6.090418, 49.693516], [6.090452, 49.693638], [6.09049, 49.693707], [6.090548, 49.69377], [6.090662, 49.69382], [6.090795, 49.693863], [6.090914, 49.693977], [6.090979, 49.69414], [6.091013, 49.69429], [6.091024, 49.694485], [6.091017, 49.69458], [6.090998, 49.69462], [6.090898, 49.694687], [6.090738, 49.69479], [6.090635, 49.694866], [6.090616, 49.694912], [6.090616, 49.69495], [6.090651, 49.694996], [6.09075, 49.695095], [6.090803, 49.695194], [6.090845, 49.69525], [6.090929, 49.695293], [6.091105, 49.695362], [6.091208, 49.695408], [6.091246, 49.69543], [6.091249, 49.695488], [6.091238, 49.695534], [6.091208, 49.695564], [6.091158, 49.69559], [6.091055, 49.695618], [6.090513, 49.6957], [6.090273, 49.69574], [6.090189, 49.69578], [6.090166, 49.69582], [6.090174, 49.69591], [6.090197, 49.696026], [6.090212, 49.696125], [6.090239, 49.696205], [6.090273, 49.69625], [6.09033, 49.69628], [6.090471, 49.69633], [6.090536, 49.696384], [6.090555, 49.69644], [6.090567, 49.696537], [6.090544, 49.696625], [6.090548, 49.696686], [6.09057, 49.696766], [6.090582, 49.69682], [6.090563, 49.696915], [6.09057, 49.696957], [6.09059, 49.69701], [6.090628, 49.69705], [6.090898, 49.69726], [6.091005, 49.697426], [6.091028, 49.69751], [6.091017, 49.69757], [6.090986, 49.69761], [6.090914, 49.69766], [6.09083, 49.697697], [6.0907, 49.697742], [6.090612, 49.697792], [6.09059, 49.69782], [6.090574, 49.697914], [6.090559, 49.69808], [6.090528, 49.69829], [6.090456, 49.69856], [6.090399, 49.698692], [6.090357, 49.698692], [6.089735, 49.69868], [6.088743, 49.69864], [6.088335, 49.69863], [6.087904, 49.698627], [6.087694, 49.69863], [6.08758, 49.698635], [6.087442, 49.698643], [6.087294, 49.698654], [6.087088, 49.698673], [6.086927, 49.6987], [6.086821, 49.69871], [6.086794, 49.698715], [6.086775, 49.69871], [6.086756, 49.698696], [6.086741, 49.698673], [6.086733, 49.698635], [6.086718, 49.69862], [6.086687, 49.698605], [6.086641, 49.69858], [6.086622, 49.698578], [6.086607, 49.698578], [6.086588, 49.698593], [6.086542, 49.69861], [6.086519, 49.698605], [6.086489, 49.698593], [6.086416, 49.69855], [6.086336, 49.6985], [6.086325, 49.698486], [6.086321, 49.698467], [6.08634, 49.698444], [6.086351, 49.698425], [6.086348, 49.69841], [6.086328, 49.6984], [6.086306, 49.698402], [6.086283, 49.698425], [6.086267, 49.698425], [6.086252, 49.698418], [6.086241, 49.698402], [6.086233, 49.69838], [6.086229, 49.69835], [6.086214, 49.698334], [6.086199, 49.698322], [6.086164, 49.698315], [6.086111, 49.698303], [6.086096, 49.698296], [6.086077, 49.698277], [6.086061, 49.698242], [6.086054, 49.698227], [6.086039, 49.698215], [6.086016, 49.698208], [6.086008, 49.698196], [6.085981, 49.69815], [6.085962, 49.698112], [6.085943, 49.698097], [6.085916, 49.698082], [6.08589, 49.69807], [6.085875, 49.69807], [6.085856, 49.69808], [6.085836, 49.69808], [6.085817, 49.69807], [6.085802, 49.698063], [6.085779, 49.698036], [6.08576, 49.69802], [6.085737, 49.69801], [6.085718, 49.698006], [6.085703, 49.697998], [6.085676, 49.697956], [6.085627, 49.69792], [6.085562, 49.69789], [6.085497, 49.697865], [6.085401, 49.69783], [6.085348, 49.6978], [6.085318, 49.697773], [6.085302, 49.697758], [6.085276, 49.697746], [6.085257, 49.69775], [6.085234, 49.69776], [6.085215, 49.697765], [6.08518, 49.697765], [6.085161, 49.697758], [6.085131, 49.69774], [6.085115, 49.697727], [6.085112, 49.69771], [6.085104, 49.697693], [6.085089, 49.69768], [6.085051, 49.697678], [6.085024, 49.69767], [6.08486, 49.69756], [6.084829, 49.697544], [6.084806, 49.697533], [6.084742, 49.69749], [6.084639, 49.697464], [6.084471, 49.69742], [6.084352, 49.697395], [6.084238, 49.697376], [6.084154, 49.69736], [6.084116, 49.697346], [6.084078, 49.69733], [6.084047, 49.69731], [6.084024, 49.697285], [6.083994, 49.69725], [6.083952, 49.69719], [6.083925, 49.69716], [6.08388, 49.697124], [6.083818, 49.697098], [6.08375, 49.697063], [6.083719, 49.697044], [6.0837, 49.697025], [6.083673, 49.69698], [6.083654, 49.69696], [6.083624, 49.69694], [6.083586, 49.696922], [6.083532, 49.6969], [6.083494, 49.69688], [6.08346, 49.69687], [6.083311, 49.696835], [6.083235, 49.69681], [6.083212, 49.6968], [6.083197, 49.696785], [6.0832, 49.69677], [6.08322, 49.69675], [6.083235, 49.69673], [6.083231, 49.69671], [6.083223, 49.69669], [6.08317, 49.696636], [6.083143, 49.6966], [6.083109, 49.69654], [6.083078, 49.696476], [6.083056, 49.69645], [6.083036, 49.696434], [6.083006, 49.69642], [6.082949, 49.696407], [6.082926, 49.6964], [6.082903, 49.696384], [6.082842, 49.696335], [6.082815, 49.696323], [6.08275, 49.696304], [6.082731, 49.696293], [6.082716, 49.696285], [6.082712, 49.696262], [6.08272, 49.69624], [6.082708, 49.696224], [6.082624, 49.69617], [6.082228, 49.69595], [6.082167, 49.69592], [6.082136, 49.695904], [6.08206, 49.69588], [6.081911, 49.69584], [6.081804, 49.695812], [6.081766, 49.695797], [6.081736, 49.695786], [6.08169, 49.69576], [6.081598, 49.695705], [6.081507, 49.695656], [6.081438, 49.69562], [6.081331, 49.69558], [6.081278, 49.695557], [6.081224, 49.695545], [6.081171, 49.695538], [6.081099, 49.695522], [6.081037, 49.695496], [6.080957, 49.695465], [6.080885, 49.69545], [6.080809, 49.695442], [6.080698, 49.69544], [6.080629, 49.695435], [6.08058, 49.695423], [6.080538, 49.695404], [6.080462, 49.69536], [6.080404, 49.69534], [6.080305, 49.69532], [6.080172, 49.695312], [6.08005, 49.695293], [6.079946, 49.695286], [6.079847, 49.69528], [6.079748, 49.69525], [6.079699, 49.69524], [6.079596, 49.69521], [6.079512, 49.695175], [6.079435, 49.695145], [6.079382, 49.695133], [6.079321, 49.69512], [6.079271, 49.695126], [6.079138, 49.695145], [6.079104, 49.695137], [6.079061, 49.695118], [6.079016, 49.69508], [6.078993, 49.695057], [6.078951, 49.695034], [6.07892, 49.695015], [6.078886, 49.695004], [6.078852, 49.694996], [6.078791, 49.695], [6.078745, 49.695007], [6.0786, 49.695038], [6.078546, 49.69504], [6.078489, 49.695034], [6.078436, 49.69502], [6.07839, 49.694996], [6.078356, 49.69499], [6.078291, 49.694984], [6.078203, 49.694977], [6.078146, 49.694973], [6.078096, 49.69496], [6.078062, 49.694942], [6.078005, 49.694904], [6.077982, 49.694893], [6.077951, 49.69488], [6.077883, 49.69487], [6.077787, 49.69486], [6.077723, 49.694843], [6.077555, 49.694798], [6.077253, 49.69472], [6.07712, 49.694683], [6.076952, 49.694626], [6.076761, 49.694557], [6.076658, 49.69451], [6.076616, 49.694496], [6.076593, 49.694492], [6.076563, 49.694496], [6.07651, 49.694504], [6.076452, 49.694508], [6.076391, 49.694504], [6.076345, 49.694496], [6.076174, 49.694473], [6.07609, 49.694466], [6.075975, 49.694447], [6.075907, 49.694435], [6.075823, 49.694424], [6.075632, 49.69441], [6.075422, 49.694397], [6.075369, 49.694393], [6.075323, 49.694336], [6.07522, 49.694336], [6.075041, 49.69442], [6.07469, 49.694572], [6.074335, 49.69473], [6.074049, 49.694862], [6.073862, 49.69495], [6.07366, 49.695065], [6.073362, 49.695248], [6.073065, 49.695446], [6.072863, 49.69558], [6.07276, 49.69567], [6.072653, 49.695766], [6.072584, 49.695805], [6.072355, 49.696022], [6.072107, 49.69626], [6.071867, 49.696484], [6.071787, 49.696552], [6.071741, 49.696587], [6.071989, 49.69673], [6.072355, 49.696945], [6.072092, 49.697384], [6.072081, 49.697483], [6.072096, 49.697506], [6.072226, 49.697666], [6.072348, 49.69781], [6.072809, 49.698376], [6.072836, 49.698406], [6.07279, 49.69843], [6.072485, 49.698586], [6.07202, 49.698828], [6.072203, 49.698904], [6.072237, 49.698958], [6.07234, 49.699106], [6.072355, 49.699132], [6.07247, 49.699297], [6.072603, 49.699499], [6.072817, 49.699812], [6.073054, 49.700167], [6.07321, 49.700419], [6.073351, 49.700636], [6.073469, 49.700832], [6.073481, 49.700846], [6.073546, 49.700949], [6.073599, 49.701032], [6.073671, 49.701142], [6.07374, 49.701252], [6.073893, 49.701492], [6.0739, 49.70151], [6.074007, 49.701658], [6.07411, 49.701812], [6.0744, 49.702232], [6.074507, 49.702272], [6.074652, 49.702311], [6.074694, 49.702349], [6.074782, 49.702505], [6.07474, 49.702522], [6.074831, 49.702677], [6.074942, 49.702872], [6.075171, 49.703554], [6.075892, 49.704672], [6.076902, 49.706252], [6.077044, 49.706465], [6.0772, 49.706637], [6.077368, 49.706816], [6.077761, 49.707222], [6.078036, 49.707457], [6.078142, 49.707532], [6.078215, 49.707579], [6.078455, 49.708075], [6.078722, 49.708632], [6.079119, 49.709478], [6.07931, 49.709902], [6.079409, 49.710072], [6.079619, 49.710402], [6.080202, 49.711292], [6.080374, 49.711599], [6.080645, 49.712107], [6.080984, 49.712797], [6.081713, 49.714232], [6.0819, 49.714338], [6.082827, 49.714682], [6.083551, 49.714956], [6.083792, 49.715048], [6.083769, 49.715056], [6.083674, 49.715086], [6.083311, 49.715208], [6.082785, 49.715382], [6.082655, 49.715418], [6.082537, 49.715437], [6.081553, 49.715632], [6.081099, 49.715738], [6.080691, 49.715868], [6.079546, 49.716222], [6.078818, 49.716444], [6.078646, 49.716502], [6.078508, 49.716542], [6.078447, 49.716555], [6.078337, 49.716585], [6.078295, 49.716597], [6.077749, 49.716566], [6.077047, 49.716745], [6.07651, 49.716776], [6.076132, 49.716795], [6.075415, 49.716782], [6.073694, 49.71678], [6.073576, 49.716719], [6.073282, 49.716432], [6.073011, 49.716379], [6.072794, 49.716342], [6.072535, 49.716307], [6.072256, 49.716276], [6.071757, 49.716234], [6.071085, 49.716182], [6.070482, 49.716132], [6.070387, 49.716122], [6.069796, 49.715956], [6.069693, 49.716012], [6.069616, 49.716074], [6.069571, 49.716127], [6.06954, 49.716196], [6.069536, 49.716219], [6.069536, 49.716307], [6.06938, 49.716459], [6.069269, 49.716566], [6.069254, 49.716582], [6.069369, 49.716646], [6.069571, 49.716782], [6.069742, 49.716936], [6.069872, 49.717082], [6.06999, 49.717162], [6.070177, 49.717295], [6.070231, 49.71736], [6.070261, 49.717422], [6.070284, 49.717459], [6.070368, 49.717492], [6.070463, 49.717512], [6.07052, 49.717516], [6.070677, 49.717508], [6.070917, 49.717497], [6.071085, 49.717502], [6.071322, 49.717455], [6.071497, 49.717405], [6.071589, 49.717392], [6.071684, 49.717394], [6.071795, 49.717428], [6.071955, 49.717474], [6.072058, 49.717535], [6.072207, 49.717622], [6.072271, 49.717692], [6.072329, 49.717749], [6.072561, 49.717872], [6.072638, 49.717909], [6.072752, 49.717947], [6.072924, 49.717955], [6.073065, 49.717952], [6.073317, 49.717939], [6.073565, 49.717942], [6.073782, 49.717978], [6.0739, 49.718008], [6.073877, 49.718042], [6.073492, 49.718502], [6.073446, 49.718538], [6.073408, 49.718572], [6.073042, 49.718969], [6.072954, 49.719175], [6.072806, 49.71958], [6.07258, 49.719847], [6.072107, 49.720415], [6.071814, 49.720762], [6.071497, 49.721132], [6.071158, 49.721522], [6.070772, 49.721972], [6.070437, 49.722365], [6.070013, 49.722685], [6.069914, 49.722757], [6.069376, 49.723154], [6.068815, 49.723566], [6.068346, 49.723922], [6.067873, 49.724276], [6.067679, 49.724417], [6.06727, 49.72468], [6.067286, 49.724692], [6.066725, 49.725027], [6.066324, 49.724862], [6.065928, 49.724676], [6.06576, 49.724577], [6.065638, 49.724497], [6.065237, 49.724268], [6.064802, 49.724024], [6.06436, 49.723848], [6.064104, 49.723745], [6.063326, 49.723448], [6.062868, 49.723262], [6.062727, 49.723208], [6.062693, 49.723188], [6.062426, 49.723036], [6.062296, 49.722956], [6.062155, 49.722862], [6.06196, 49.722715], [6.061789, 49.722582], [6.061636, 49.72246], [6.06143, 49.722319], [6.061235, 49.722204], [6.061018, 49.722102], [6.060782, 49.721992], [6.060656, 49.721922], [6.060408, 49.721758], [6.060328, 49.721716], [6.060194, 49.721647], [6.059481, 49.721362], [6.059355, 49.721308], [6.059286, 49.721277], [6.059225, 49.721252], [6.059168, 49.721228], [6.058676, 49.720968], [6.058664, 49.720965], [6.058649, 49.720976], [6.058623, 49.721006], [6.058619, 49.721022], [6.058611, 49.721042], [6.058619, 49.721062], [6.05863, 49.721106], [6.058657, 49.721148], [6.058699, 49.721212], [6.05876, 49.721292], [6.058775, 49.721327], [6.058783, 49.721352], [6.058771, 49.721382], [6.058729, 49.721426], [6.05866, 49.721457], [6.058588, 49.721556], [6.058512, 49.721636], [6.058489, 49.721659], [6.058466, 49.721686], [6.058435, 49.721732], [6.058405, 49.721785], [6.058375, 49.721832], [6.058313, 49.721899], [6.058272, 49.721937], [6.058218, 49.721982], [6.058172, 49.722025], [6.058092, 49.722092], [6.058073, 49.722102], [6.058058, 49.722105], [6.058031, 49.722105], [6.057924, 49.722222], [6.057772, 49.722395], [6.057722, 49.722452], [6.057699, 49.722482], [6.057631, 49.722555], [6.057585, 49.722597], [6.057547, 49.722628], [6.057478, 49.722677], [6.057402, 49.722722], [6.057314, 49.722765], [6.057249, 49.722815], [6.057219, 49.722849], [6.0572, 49.722902], [6.057154, 49.723009], [6.057127, 49.723102], [6.057089, 49.723269], [6.057043, 49.723482], [6.057009, 49.723597], [6.056955, 49.723732], [6.056894, 49.723842], [6.05686, 49.723909], [6.056822, 49.723974], [6.056803, 49.724016], [6.05678, 49.724039], [6.056772, 49.724066], [6.056765, 49.724102], [6.05673, 49.724215], [6.056727, 49.724262], [6.056727, 49.724306], [6.056742, 49.724394], [6.056769, 49.724512], [6.05678, 49.724768], [6.056791, 49.724798], [6.056814, 49.724852], [6.056814, 49.724867], [6.05681, 49.724886], [6.056795, 49.724912], [6.056769, 49.724939], [6.056761, 49.724959], [6.056769, 49.724982], [6.056799, 49.725027], [6.056845, 49.725077], [6.056906, 49.725138], [6.056936, 49.725187], [6.056944, 49.725226], [6.056936, 49.725262], [6.056913, 49.725355], [6.05691, 49.725402], [6.056906, 49.725485], [6.056879, 49.725607], [6.056856, 49.725718], [6.056833, 49.72576], [6.056818, 49.725782], [6.056791, 49.725817], [6.056749, 49.725855], [6.056536, 49.726042], [6.056471, 49.726112], [6.056418, 49.726179], [6.056383, 49.726232], [6.056345, 49.726309], [6.056326, 49.726352], [6.056276, 49.726534], [6.056254, 49.72658], [6.056231, 49.726614], [6.056196, 49.726637], [6.056166, 49.726645], [6.056132, 49.726648], [6.056105, 49.726642], [6.056009, 49.726602], [6.055979, 49.726599], [6.055944, 49.726602], [6.055887, 49.726612], [6.055834, 49.726626], [6.055807, 49.726637], [6.055788, 49.726652], [6.055727, 49.726722], [6.055685, 49.726762], [6.055643, 49.726797], [6.055597, 49.726828], [6.055555, 49.726852], [6.055529, 49.726877], [6.055513, 49.726892], [6.055506, 49.726908], [6.055498, 49.726946], [6.055487, 49.726982], [6.055479, 49.726999], [6.055456, 49.727022], [6.055437, 49.727042], [6.05538, 49.727122], [6.055349, 49.727152], [6.055307, 49.727182], [6.055281, 49.727198], [6.055246, 49.727209], [6.055197, 49.727224], [6.055162, 49.727232], [6.055109, 49.727262], [6.055086, 49.727285], [6.055067, 49.72732], [6.055044, 49.727352], [6.055018, 49.727372], [6.054991, 49.727388], [6.054964, 49.727396], [6.054869, 49.727412], [6.054819, 49.727427], [6.0548, 49.727438], [6.054777, 49.727462], [6.054754, 49.727507], [6.054754, 49.727545], [6.05475, 49.727594], [6.054743, 49.727622], [6.054712, 49.727648], [6.05469, 49.727659], [6.054644, 49.727678], [6.054632, 49.727692], [6.054621, 49.727722], [6.054598, 49.727759], [6.054587, 49.72777], [6.054548, 49.727789], [6.054491, 49.727808], [6.054483, 49.727822], [6.054453, 49.727872], [6.05443, 49.7279], [6.054407, 49.727915], [6.054377, 49.727932], [6.054365, 49.727945], [6.054369, 49.727964], [6.054384, 49.727976], [6.054461, 49.728012], [6.054472, 49.728018], [6.054476, 49.728029], [6.05448, 49.728045], [6.054472, 49.728062], [6.054468, 49.728082], [6.054434, 49.728129], [6.054403, 49.728162], [6.054369, 49.72819], [6.0543, 49.728242], [6.054186, 49.728322], [6.05414, 49.72835], [6.054117, 49.728362], [6.054075, 49.728369], [6.054033, 49.728369], [6.053972, 49.728365], [6.053873, 49.728365], [6.053839, 49.728369], [6.053766, 49.728382], [6.053713, 49.728396], [6.053663, 49.728412], [6.053618, 49.728426], [6.053556, 49.728442], [6.053522, 49.728449], [6.053469, 49.728452], [6.053389, 49.728449], [6.05335, 49.728449], [6.05332, 49.728452], [6.053301, 49.728457], [6.053251, 49.728479], [6.053217, 49.728495], [6.053171, 49.728502], [6.053137, 49.728502], [6.053057, 49.728506], [6.052961, 49.728502], [6.052927, 49.728506], [6.0529, 49.728512], [6.052839, 49.728512], [6.052786, 49.728506], [6.052763, 49.728506], [6.052736, 49.728512], [6.052702, 49.728529], [6.052679, 49.728548], [6.052656, 49.728582], [6.05263, 49.728628], [6.052599, 49.728655], [6.052557, 49.728682], [6.052504, 49.728708], [6.052416, 49.728742], [6.052382, 49.728747], [6.052336, 49.728747], [6.052275, 49.728732], [6.052145, 49.728705], [6.052118, 49.728702], [6.052088, 49.728702], [6.05205, 49.728708], [6.052004, 49.728722], [6.05197, 49.728739], [6.051939, 49.728762], [6.051912, 49.728792], [6.051863, 49.728822], [6.051828, 49.728834], [6.051783, 49.728834], [6.051752, 49.728832], [6.051714, 49.728827], [6.051703, 49.728822], [6.051676, 49.728822], [6.051634, 49.728827], [6.051588, 49.728834], [6.051558, 49.728838], [6.051516, 49.728838], [6.05147, 49.728834], [6.051436, 49.728827], [6.05139, 49.728832], [6.051352, 49.728834], [6.051321, 49.728838], [6.051275, 49.728827], [6.051237, 49.728819], [6.051207, 49.728822], [6.051176, 49.728838], [6.051138, 49.728872], [6.051115, 49.728907], [6.051096, 49.728949], [6.051073, 49.728964], [6.051054, 49.728969], [6.051024, 49.728964], [6.05097, 49.728945], [6.050943, 49.728937], [6.050921, 49.728942], [6.050898, 49.728949], [6.050867, 49.728969], [6.050848, 49.728992], [6.050829, 49.729013], [6.050791, 49.729042], [6.050749, 49.729062], [6.050692, 49.729082], [6.050654, 49.729087], [6.050619, 49.729087], [6.05057, 49.729082], [6.050516, 49.729059], [6.050474, 49.729048], [6.05044, 49.729048], [6.050394, 49.729056], [6.050352, 49.729067], [6.05031, 49.729087], [6.050299, 49.729102], [6.050291, 49.729123], [6.050283, 49.729155], [6.050283, 49.729185], [6.050272, 49.729213], [6.050245, 49.72927], [6.050226, 49.729289], [6.0502, 49.729303], [6.050169, 49.729315], [6.050127, 49.729312], [6.050078, 49.729303], [6.049994, 49.729284], [6.049936, 49.729282], [6.049837, 49.729277], [6.049776, 49.729284], [6.049749, 49.729292], [6.04973, 49.729307], [6.049719, 49.729322], [6.049719, 49.729362], [6.049708, 49.729372], [6.049681, 49.72938], [6.049643, 49.72938], [6.049479, 49.729368], [6.049456, 49.729372], [6.049433, 49.729382], [6.049414, 49.729406], [6.049387, 49.729442], [6.049357, 49.729509], [6.049307, 49.729542], [6.049231, 49.729563], [6.049185, 49.729582], [6.049143, 49.729593], [6.049109, 49.729593], [6.049078, 49.729591], [6.049048, 49.729578], [6.049028, 49.729578], [6.049002, 49.729582], [6.048971, 49.729591], [6.048941, 49.729616], [6.048925, 49.729633], [6.048918, 49.729655], [6.048906, 49.729672], [6.048876, 49.729704], [6.048872, 49.72972], [6.04888, 49.729735], [6.048899, 49.729746], [6.04891, 49.729757], [6.048922, 49.729765], [6.048925, 49.729782], [6.048918, 49.729796], [6.048895, 49.729813], [6.048842, 49.72983], [6.048777, 49.729872], [6.048746, 49.729882], [6.048723, 49.729892], [6.0487, 49.729887], [6.04867, 49.729877], [6.048544, 49.729813], [6.04851, 49.729799], [6.048479, 49.729796], [6.048452, 49.729799], [6.048437, 49.729813], [6.048418, 49.729842], [6.048407, 49.729892], [6.048399, 49.729942], [6.048384, 49.729968], [6.048365, 49.729994], [6.048243, 49.730047], [6.048185, 49.730078], [6.048144, 49.730102], [6.048117, 49.730109], [6.048094, 49.730117], [6.048071, 49.730112], [6.048044, 49.730102], [6.048021, 49.730083], [6.048014, 49.730066], [6.048014, 49.730043], [6.048021, 49.730029], [6.048025, 49.730005], [6.048021, 49.729987], [6.048006, 49.729976], [6.047968, 49.729972], [6.047937, 49.729976], [6.047915, 49.729979], [6.047899, 49.729994], [6.047896, 49.730005], [6.047899, 49.730017], [6.047926, 49.730052], [6.047945, 49.730072], [6.047949, 49.730083], [6.047937, 49.730097], [6.047926, 49.730109], [6.047892, 49.730112], [6.047857, 49.730112], [6.047819, 49.730109], [6.047777, 49.730105], [6.047762, 49.730105], [6.047747, 49.730112], [6.047735, 49.73012], [6.047728, 49.730136], [6.047728, 49.730153], [6.047732, 49.730182], [6.047739, 49.730209], [6.047724, 49.730227], [6.047682, 49.730263], [6.047659, 49.730283], [6.04764, 49.730326], [6.047613, 49.730353], [6.04759, 49.730368], [6.047568, 49.730373], [6.047545, 49.730373], [6.047525, 49.730364], [6.047503, 49.730353], [6.047491, 49.730345], [6.047472, 49.730342], [6.047442, 49.730353], [6.047415, 49.730368], [6.047388, 49.730379], [6.047327, 49.730379], [6.047293, 49.730368], [6.047205, 49.730345], [6.047159, 49.73035], [6.047121, 49.730356], [6.047056, 49.730373], [6.047003, 49.730387], [6.046892, 49.730432], [6.046827, 49.730452], [6.04677, 49.730475], [6.046736, 49.730497], [6.046709, 49.730513], [6.046675, 49.730525], [6.046633, 49.730528], [6.046614, 49.730528], [6.046591, 49.730532], [6.046568, 49.730542], [6.046541, 49.730553], [6.046515, 49.730556], [6.046495, 49.730562], [6.046484, 49.730573], [6.046473, 49.73059], [6.046465, 49.730612], [6.046457, 49.730632], [6.046434, 49.730643], [6.046404, 49.730652], [6.046381, 49.730662], [6.046236, 49.730716], [6.046175, 49.730749], [6.046084, 49.730795], [6.04603, 49.730832], [6.046023, 49.730857], [6.046011, 49.73093], [6.046007, 49.730975], [6.046, 49.730992], [6.046011, 49.731023], [6.046026, 49.731054], [6.04603, 49.731071], [6.045981, 49.731184], [6.045946, 49.731268], [6.045927, 49.731293], [6.045908, 49.731302], [6.045874, 49.731307], [6.045836, 49.731299], [6.045813, 49.731279], [6.045786, 49.731262], [6.045767, 49.731249], [6.045748, 49.731252], [6.045736, 49.731257], [6.045713, 49.731293], [6.045694, 49.731302], [6.045683, 49.73131], [6.045614, 49.73131], [6.045595, 49.731312], [6.045576, 49.731302], [6.045546, 49.731272], [6.045538, 49.731262], [6.045538, 49.731245], [6.045549, 49.73123], [6.045569, 49.731218], [6.045641, 49.731136], [6.045656, 49.731116], [6.045656, 49.731102], [6.045649, 49.731085], [6.04563, 49.731077], [6.045611, 49.731077], [6.045546, 49.731093], [6.045523, 49.731105], [6.045469, 49.731142], [6.045408, 49.731166], [6.045248, 49.731207], [6.045038, 49.731257], [6.045, 49.731272], [6.044981, 49.731282], [6.044974, 49.731302], [6.04497, 49.731342], [6.044974, 49.731367], [6.044993, 49.731383], [6.045008, 49.731383], [6.04505, 49.731372], [6.045088, 49.731363], [6.045111, 49.731363], [6.045126, 49.731372], [6.04513, 49.731386], [6.04513, 49.731405], [6.045103, 49.731432], [6.045046, 49.731508], [6.045038, 49.731532], [6.045023, 49.731592], [6.045004, 49.731622], [6.044977, 49.731646], [6.044958, 49.731657], [6.044905, 49.731665], [6.04479, 49.731665], [6.044653, 49.731662], [6.044623, 49.731665], [6.044592, 49.731676], [6.044569, 49.731682], [6.044558, 49.731699], [6.044565, 49.73173], [6.0446, 49.731763], [6.044607, 49.731775], [6.044592, 49.731792], [6.044558, 49.731794], [6.044539, 49.731798], [6.044527, 49.731803], [6.044512, 49.731806], [6.044489, 49.731836], [6.044481, 49.731862], [6.044455, 49.731898], [6.044451, 49.731922], [6.044455, 49.731958], [6.044462, 49.731997], [6.044455, 49.732013], [6.044439, 49.73202], [6.044413, 49.732028], [6.044378, 49.732028], [6.044344, 49.732022], [6.044291, 49.732013], [6.044264, 49.732013], [6.044226, 49.732028], [6.04418, 49.73205], [6.044153, 49.732082], [6.044153, 49.732107], [6.044165, 49.732134], [6.044226, 49.732196], [6.04426, 49.732226], [6.044279, 49.732253], [6.044287, 49.732276], [6.044283, 49.732309], [6.044275, 49.73234], [6.044264, 49.732372], [6.044245, 49.732393], [6.044214, 49.73241], [6.044134, 49.732436], [6.044107, 49.732455], [6.044088, 49.732478], [6.044077, 49.732504], [6.044081, 49.732527], [6.044107, 49.732608], [6.0441, 49.732627], [6.044081, 49.73265], [6.044035, 49.732672], [6.044004, 49.73268], [6.043963, 49.732669], [6.043928, 49.73265], [6.043852, 49.732612], [6.043818, 49.732593], [6.043795, 49.732572], [6.043772, 49.732569], [6.043745, 49.732572], [6.043718, 49.732588], [6.043688, 49.732618], [6.04365, 49.732642], [6.043612, 49.73265], [6.043562, 49.732653], [6.043524, 49.732653], [6.043493, 49.732669], [6.043467, 49.732702], [6.043448, 49.732718], [6.043421, 49.732726], [6.043387, 49.732723], [6.043364, 49.732723], [6.043341, 49.732726], [6.04331, 49.732732], [6.043299, 49.732757], [6.043314, 49.732779], [6.043345, 49.732802], [6.043367, 49.732824], [6.043375, 49.732836], [6.043371, 49.732855], [6.043345, 49.732874], [6.043184, 49.732967], [6.043173, 49.732982], [6.043158, 49.733008], [6.043139, 49.733069], [6.04312, 49.733092], [6.043093, 49.733103], [6.043078, 49.733112], [6.043062, 49.733145], [6.043051, 49.733165], [6.043032, 49.733173], [6.043001, 49.733172], [6.042978, 49.73316], [6.042955, 49.733132], [6.042921, 49.733108], [6.042898, 49.733095], [6.042879, 49.733095], [6.042856, 49.733099], [6.042801, 49.733125], [6.042735, 49.733156], [6.042692, 49.733179], [6.042665, 49.733198], [6.04264, 49.733234], [6.04262, 49.733271], [6.04259, 49.733307], [6.042575, 49.73333], [6.042559, 49.733358], [6.042551, 49.73338], [6.042555, 49.733402], [6.042555, 49.73342], [6.042582, 49.73343], [6.042604, 49.733433], [6.042631, 49.73344], [6.042646, 49.73347], [6.042658, 49.733486], [6.042692, 49.733517], [6.0427, 49.733532], [6.042704, 49.73355], [6.042688, 49.733566], [6.042669, 49.73358], [6.042616, 49.7336], [6.042589, 49.73362], [6.042574, 49.73363], [6.042562, 49.733646], [6.042551, 49.733677], [6.04254, 49.73369], [6.042528, 49.7337], [6.042513, 49.73371], [6.04249, 49.73372], [6.042433, 49.733727], [6.042383, 49.733734], [6.042349, 49.73374], [6.042326, 49.73376], [6.042326, 49.733772], [6.042356, 49.733818], [6.042421, 49.733883], [6.042448, 49.733913], [6.042448, 49.733932], [6.042437, 49.73395], [6.042399, 49.733967], [6.042349, 49.733986], [6.042276, 49.734016], [6.042223, 49.734047], [6.042185, 49.73407], [6.042173, 49.734085], [6.042162, 49.734093], [6.042158, 49.734104], [6.042158, 49.734116], [6.04217, 49.734127], [6.042192, 49.734142], [6.042273, 49.734158], [6.042311, 49.73416], [6.04233, 49.734165], [6.042341, 49.734177], [6.042345, 49.734196], [6.042341, 49.73421], [6.042326, 49.734222], [6.042311, 49.734238], [6.042303, 49.73425], [6.042299, 49.73428], [6.042292, 49.7343], [6.042276, 49.73431], [6.042238, 49.734314], [6.042166, 49.734314], [6.04212, 49.73431], [6.04209, 49.734314], [6.042051, 49.73432], [6.042032, 49.73433], [6.042017, 49.734352], [6.042017, 49.734386], [6.042021, 49.734417], [6.042067, 49.734505], [6.042074, 49.73453], [6.042074, 49.734543], [6.04207, 49.734554], [6.042059, 49.734573], [6.042044, 49.73458], [6.042032, 49.734573], [6.042006, 49.734562], [6.041971, 49.734543], [6.041948, 49.734535], [6.041929, 49.73453], [6.041914, 49.734528], [6.041891, 49.73453], [6.041872, 49.734535], [6.041853, 49.734543], [6.041796, 49.73458], [6.041765, 49.734596], [6.04175, 49.7346], [6.041716, 49.734608], [6.041689, 49.73461], [6.041666, 49.734615], [6.041647, 49.734627], [6.041639, 49.734646], [6.041651, 49.73467], [6.041681, 49.734695], [6.041723, 49.73472], [6.041773, 49.734734], [6.041796, 49.73475], [6.041799, 49.734768], [6.041758, 49.734787], [6.041742, 49.734795], [6.041742, 49.734806], [6.041754, 49.73482], [6.041773, 49.734833], [6.041788, 49.734844], [6.041792, 49.734856], [6.041777, 49.734875], [6.041769, 49.734898], [6.041769, 49.734913], [6.041773, 49.73494], [6.041773, 49.734955], [6.041761, 49.734966], [6.041742, 49.73497], [6.041693, 49.734966], [6.041662, 49.734962], [6.041628, 49.73496], [6.041586, 49.734962], [6.041555, 49.73497], [6.041521, 49.73499], [6.041472, 49.73504], [6.041441, 49.735077], [6.04138, 49.73511], [6.041307, 49.73516], [6.041254, 49.735207], [6.041239, 49.73524], [6.041235, 49.735268], [6.041246, 49.7353], [6.041246, 49.735355], [6.041235, 49.735397], [6.041201, 49.735428], [6.041182, 49.73545], [6.041174, 49.735466], [6.041185, 49.735477], [6.041201, 49.735485], [6.041216, 49.73549], [6.041254, 49.73549], [6.041269, 49.735497], [6.041285, 49.735508], [6.041288, 49.735523], [6.041285, 49.73554], [6.041273, 49.735554], [6.04125, 49.73556], [6.041227, 49.73557], [6.041205, 49.735573], [6.041174, 49.73557], [6.04114, 49.735565], [6.041094, 49.73556], [6.041075, 49.73556], [6.041052, 49.735565], [6.041029, 49.735577], [6.041017, 49.73559], [6.041014, 49.73561], [6.041017, 49.735622], [6.041029, 49.735634], [6.04106, 49.735653], [6.041098, 49.735672], [6.041136, 49.735683], [6.041174, 49.735687], [6.041208, 49.735683], [6.041235, 49.735664], [6.041258, 49.735653], [6.041281, 49.735645], [6.041307, 49.73565], [6.041338, 49.735657], [6.041357, 49.735664], [6.041391, 49.735683], [6.041414, 49.73569], [6.041426, 49.735695], [6.041452, 49.7357], [6.041491, 49.735703], [6.04151, 49.735706], [6.041525, 49.73572], [6.041532, 49.735756], [6.041513, 49.735775], [6.041472, 49.735798], [6.041452, 49.73581], [6.041452, 49.73582], [6.041456, 49.735832], [6.041479, 49.735847], [6.041506, 49.73586], [6.041517, 49.735867], [6.041525, 49.735878], [6.04151, 49.735886], [6.041475, 49.735886], [6.041441, 49.735878], [6.041403, 49.735878], [6.04138, 49.735886], [6.041365, 49.735905], [6.041361, 49.735943], [6.041365, 49.735985], [6.041376, 49.736015], [6.041388, 49.736034], [6.04141, 49.736053], [6.041468, 49.73609], [6.041487, 49.73611], [6.041494, 49.73613], [6.041494, 49.736145], [6.041483, 49.736156], [6.04146, 49.736168], [6.041353, 49.736168], [6.041292, 49.736164], [6.041277, 49.736168], [6.041258, 49.73618], [6.041254, 49.736202], [6.041292, 49.736248], [6.041292, 49.73626], [6.041285, 49.73627], [6.041269, 49.736275], [6.041227, 49.736282], [6.041197, 49.736294], [6.04117, 49.736294], [6.041147, 49.73629], [6.041117, 49.73627], [6.041086, 49.736248], [6.041056, 49.736214], [6.041037, 49.736202], [6.041021, 49.736195], [6.041002, 49.736195], [6.040979, 49.73621], [6.040972, 49.736225], [6.040968, 49.73625], [6.040968, 49.736275], [6.040934, 49.736332], [6.040937, 49.736347], [6.040949, 49.73636], [6.040957, 49.736374], [6.040949, 49.736385], [6.040937, 49.736404], [6.040819, 49.736523], [6.040789, 49.736565], [6.040781, 49.73658], [6.040781, 49.736595], [6.040785, 49.73661], [6.040804, 49.736626], [6.040834, 49.73664], [6.040896, 49.736664], [6.040911, 49.736675], [6.040922, 49.7367], [6.040918, 49.736717], [6.040918, 49.736732], [6.040926, 49.736748], [6.040945, 49.736767], [6.040964, 49.73678], [6.040972, 49.736794], [6.040949, 49.73682], [6.040869, 49.73684], [6.040819, 49.736862], [6.040793, 49.73689], [6.04077, 49.73692], [6.040735, 49.736988], [6.040716, 49.737038], [6.040709, 49.737072], [6.040697, 49.737103], [6.040686, 49.73712], [6.040667, 49.737133], [6.040651, 49.737137], [6.040617, 49.737137], [6.040594, 49.73714], [6.040564, 49.73715], [6.040541, 49.73717], [6.040545, 49.737183], [6.040564, 49.73721], [6.040575, 49.737232], [6.040579, 49.73725], [6.040575, 49.73727], [6.040545, 49.737297], [6.040514, 49.737316], [6.040495, 49.73733], [6.040476, 49.73735], [6.040468, 49.737373], [6.040468, 49.737404], [6.040461, 49.737423], [6.040453, 49.737434], [6.040426, 49.737465], [6.040411, 49.737484], [6.040407, 49.7375], [6.040411, 49.737537], [6.040407, 49.737553], [6.040396, 49.737564], [6.04038, 49.73757], [6.040354, 49.737587], [6.040335, 49.737595], [6.040327, 49.73761], [6.040338, 49.737625], [6.040354, 49.73764], [6.040373, 49.737648], [6.040377, 49.73766], [6.040369, 49.73767], [6.040346, 49.73769], [6.040312, 49.73771], [6.040297, 49.737724], [6.040293, 49.737736], [6.040293, 49.737747], [6.040304, 49.73776], [6.040327, 49.737766], [6.040358, 49.737778], [6.040373, 49.737785], [6.040377, 49.737797], [6.040373, 49.73781], [6.040361, 49.737816], [6.040323, 49.737823], [6.040308, 49.737835], [6.040304, 49.737846], [6.040304, 49.73786], [6.040308, 49.73788], [6.040319, 49.737907], [6.040323, 49.737923], [6.040312, 49.737957], [6.040312, 49.737976], [6.040323, 49.738014], [6.040319, 49.738037], [6.040319, 49.738075], [6.04035, 49.7381], [6.040358, 49.73813], [6.040354, 49.73817], [6.040354, 49.738197], [6.040346, 49.738224], [6.040346, 49.738243], [6.040365, 49.73826], [6.040396, 49.73827], [6.040411, 49.73828], [6.040422, 49.738293], [6.040422, 49.738308], [6.040411, 49.738327], [6.040396, 49.738342], [6.040338, 49.73838], [6.040327, 49.738396], [6.040319, 49.73841], [6.040316, 49.73843], [6.040319, 49.738445], [6.040335, 49.738487], [6.040342, 49.738503], [6.040346, 49.738518], [6.040335, 49.738533], [6.040323, 49.73854], [6.040297, 49.73855], [6.040274, 49.738552], [6.040251, 49.73856], [6.040239, 49.738567], [6.040239, 49.73858], [6.04027, 49.73859], [6.040304, 49.738598], [6.040338, 49.73861], [6.040361, 49.73862], [6.040373, 49.73864], [6.04038, 49.738655], [6.040373, 49.738674], [6.04035, 49.738693], [6.040335, 49.738697], [6.040277, 49.738697], [6.040232, 49.738693], [6.040205, 49.738697], [6.040174, 49.738712], [6.040167, 49.738724], [6.040163, 49.738735], [6.040171, 49.738747], [6.040186, 49.73876], [6.040224, 49.73881], [6.040232, 49.73883], [6.04022, 49.738842], [6.040201, 49.738853], [6.040174, 49.73886], [6.040144, 49.738873], [6.040129, 49.738903], [6.040133, 49.738922], [6.040152, 49.738934], [6.040171, 49.738937], [6.040201, 49.73893], [6.04022, 49.738937], [6.040235, 49.73895], [6.040251, 49.73895], [6.040285, 49.738953], [6.040304, 49.738953], [6.040319, 49.738964], [6.040327, 49.73898], [6.040327, 49.739], [6.040316, 49.739014], [6.040297, 49.739025], [6.040281, 49.739025], [6.040266, 49.739033], [6.040243, 49.73904], [6.040213, 49.739044], [6.040186, 49.739044], [6.040163, 49.73904], [6.040144, 49.739044], [6.040121, 49.739048], [6.040094, 49.739063], [6.040068, 49.739082], [6.040052, 49.739098], [6.040052, 49.73911], [6.040056, 49.73912], [6.040071, 49.73914], [6.040094, 49.73915], [6.040106, 49.73917], [6.040083, 49.73918], [6.04006, 49.739185], [6.040018, 49.739197], [6.039988, 49.7392], [6.039965, 49.739197], [6.039953, 49.739174], [6.039953, 49.73916], [6.039938, 49.739147], [6.039915, 49.73914], [6.039869, 49.739147], [6.039827, 49.73916], [6.039804, 49.73918], [6.039789, 49.739197], [6.039774, 49.739216], [6.039774, 49.739235], [6.039789, 49.739243], [6.03982, 49.739254], [6.039846, 49.73925], [6.039869, 49.739246], [6.039892, 49.739254], [6.039892, 49.73927], [6.039896, 49.73929], [6.039919, 49.739307], [6.03993, 49.739323], [6.039919, 49.739346], [6.039881, 49.73935], [6.039854, 49.739365], [6.039831, 49.739372], [6.039797, 49.73938], [6.039778, 49.739395], [6.039778, 49.739418], [6.039793, 49.73945], [6.039812, 49.739468], [6.03982, 49.739487], [6.039812, 49.739502], [6.039789, 49.739513], [6.039751, 49.739517], [6.039736, 49.739525], [6.039724, 49.73954], [6.039709, 49.739628], [6.039698, 49.739647], [6.039675, 49.73967], [6.039667, 49.739685], [6.039663, 49.73971], [6.039652, 49.739735], [6.039629, 49.739754], [6.039572, 49.739788], [6.039534, 49.739838], [6.039526, 49.739853], [6.039541, 49.739883], [6.039576, 49.7399], [6.039606, 49.7399], [6.039671, 49.739872], [6.03972, 49.739857], [6.039759, 49.739864], [6.039782, 49.739887], [6.039789, 49.739906], [6.039793, 49.739925], [6.039804, 49.739944], [6.039816, 49.73996], [6.039839, 49.739964], [6.039865, 49.73996], [6.039896, 49.73996], [6.039915, 49.739964], [6.039926, 49.739975], [6.039926, 49.740005], [6.039911, 49.740017], [6.039862, 49.740025], [6.039827, 49.74004], [6.039801, 49.740055], [6.039759, 49.74007], [6.039732, 49.740093], [6.039717, 49.74011], [6.039686, 49.74011], [6.039652, 49.74009], [6.039621, 49.74006], [6.039583, 49.74003], [6.039553, 49.740005], [6.039465, 49.73998], [6.039434, 49.739983], [6.039411, 49.739994], [6.039404, 49.740013], [6.039408, 49.74005], [6.039423, 49.740074], [6.039442, 49.740086], [6.039484, 49.740093], [6.039541, 49.740097], [6.039568, 49.74011], [6.039587, 49.74012], [6.039595, 49.74015], [6.039614, 49.740192], [6.039618, 49.740223], [6.03961, 49.74024], [6.039595, 49.740246], [6.039568, 49.740242], [6.039549, 49.740227], [6.039522, 49.740204], [6.039496, 49.740185], [6.03945, 49.740173], [6.039427, 49.74017], [6.039408, 49.740147], [6.039389, 49.74014], [6.03937, 49.740143], [6.039358, 49.740154], [6.039366, 49.740173], [6.039385, 49.74019], [6.039385, 49.740204], [6.039373, 49.740215], [6.039343, 49.74022], [6.039324, 49.740246], [6.039289, 49.740257], [6.03927, 49.74027], [6.039274, 49.74029], [6.039305, 49.740314], [6.039343, 49.740334], [6.03937, 49.74036], [6.039385, 49.740387], [6.0394, 49.74043], [6.039465, 49.74047], [6.039499, 49.7405], [6.039518, 49.740536], [6.039537, 49.740593], [6.039545, 49.74062], [6.039446, 49.740685], [6.039392, 49.740704], [6.039354, 49.74071], [6.039316, 49.74072], [6.039282, 49.740734], [6.039236, 49.74074], [6.039232, 49.740753], [6.039251, 49.740776], [6.039267, 49.740803], [6.039251, 49.740826], [6.039225, 49.740826], [6.03919, 49.74083], [6.039175, 49.74084], [6.039194, 49.74089], [6.039183, 49.74091], [6.039133, 49.740925], [6.03908, 49.74094], [6.039038, 49.740948], [6.039, 49.740963], [6.038992, 49.740986], [6.038981, 49.741016], [6.038919, 49.741062], [6.038885, 49.74108], [6.038862, 49.741116], [6.038836, 49.741123], [6.038782, 49.741158], [6.038759, 49.74117], [6.038729, 49.74118], [6.038725, 49.741196], [6.03874, 49.741222], [6.038733, 49.74125], [6.038694, 49.741257], [6.038672, 49.74127], [6.038672, 49.741287], [6.038725, 49.74134], [6.038752, 49.741383], [6.038755, 49.741425], [6.038694, 49.741478], [6.038652, 49.741505], [6.03861, 49.74153], [6.038569, 49.741543], [6.038526, 49.74155], [6.038504, 49.741573], [6.038473, 49.7416], [6.038443, 49.741623], [6.038439, 49.741653], [6.038466, 49.74169], [6.038481, 49.741726], [6.038458, 49.741756], [6.038458, 49.741787], [6.038488, 49.74182], [6.038526, 49.74184], [6.038534, 49.74187], [6.0385, 49.74189], [6.038469, 49.741894], [6.038439, 49.741917], [6.038427, 49.74194], [6.038378, 49.741974], [6.038343, 49.74198], [6.038302, 49.741985], [6.038267, 49.741997], [6.038252, 49.74201], [6.038233, 49.74203], [6.038172, 49.742058], [6.038153, 49.742073], [6.038145, 49.74209], [6.038145, 49.742104], [6.038168, 49.74213], [6.038183, 49.74215], [6.038164, 49.742157], [6.038137, 49.74217], [6.038118, 49.742184], [6.038095, 49.742226], [6.038054, 49.742264], [6.038065, 49.7423], [6.038054, 49.742313], [6.038031, 49.742336], [6.038015, 49.74236], [6.037989, 49.74237], [6.037958, 49.742393], [6.037935, 49.74242], [6.037935, 49.742462], [6.037954, 49.74249], [6.03795, 49.742527], [6.037947, 49.74255], [6.037935, 49.742584], [6.037943, 49.742622], [6.037935, 49.742664], [6.037924, 49.742695], [6.037863, 49.742737], [6.037806, 49.74277], [6.037623, 49.742832], [6.037321, 49.743317]]]]}}]}