{"type": "FeatureCollection", "features": [{"type": "Feature", "properties": {"name": "Parc Hummerland", "kind": "park"}, "geometry": {"type": "Polygon", "coordinates": [[[6.038208, 49.4748255], [6.0382882, 49.4749744], [6.0380394, 49.4750162], [6.0380624, 49.4750706], [6.0380036, 49.4751042], [6.037812, 49.475133], [6.0376139, 49.4751672], [6.0368044, 49.4753178], [6.0368261, 49.4753666], [6.0357439, 49.4755934], [6.035705, 49.4755118], [6.0361123, 49.4754257], [6.0359008, 49.4749195], [6.0363397, 49.4748501], [6.0364089, 49.474985], [6.0364715, 49.4749747], [6.0365022, 49.4749697], [6.0367913, 49.4749221], [6.0374705, 49.4748103], [6.0375329, 49.4747261], [6.0377478, 49.4746926], [6.0377736, 49.4747593], [6.0378468, 49.4747478], [6.0379026, 49.4748743], [6.038208, 49.4748255]]]}}]}