{"type": "FeatureCollection", "features": [{"type": "Feature", "properties": {"name": "Réserve Naturelle Leiffrächen", "kind": "nature_reserve"}, "geometry": {"type": "Polygon", "coordinates": [[[6.0092519, 49.4834225], [6.0093659, 49.4837466], [6.0096958, 49.4839958], [6.0096918, 49.4841797], [6.0102953, 49.4843574], [6.0102645, 49.4847381], [6.0108556, 49.485016], [6.0107566, 49.4850858], [6.0103127, 49.4850091], [6.0098943, 49.4849098], [6.0093954, 49.4847521], [6.0084218, 49.48436], [6.0081455, 49.4842764], [6.0077351, 49.4841753], [6.0074079, 49.4841161], [6.0071182, 49.4840795], [6.0067722, 49.4840568], [6.0063176, 49.4840699], [6.0060373, 49.4840899], [6.0057154, 49.4841387], [6.005289, 49.4841631], [6.0051589, 49.4839592], [6.0051522, 49.4838381], [6.0051785, 49.4837696], [6.0054673, 49.4833136], [6.0055934, 49.4830941], [6.0056403, 49.4829189], [6.0056376, 49.4827621], [6.0056269, 49.4826053], [6.0054982, 49.4822602], [6.0054485, 49.4822689], [6.0052823, 49.4820886], [6.0049403, 49.4818316], [6.0048335, 49.481779], [6.0045218, 49.4815336], [6.004318, 49.4814578], [6.0041396, 49.4813549], [6.0041343, 49.4812922], [6.0039411, 49.4810944], [6.0038339, 49.4808461], [6.003799, 49.4806291], [6.0037413, 49.4805438], [6.0037514, 49.4803869], [6.0037702, 49.4803168], [6.0038171, 49.4801843], [6.0039197, 49.4800027], [6.0041707, 49.479619], [6.004934, 49.4785566], [6.0053681, 49.4779262], [6.0060273, 49.477], [6.0062408, 49.4767653], [6.0064219, 49.4768072], [6.0065587, 49.476651], [6.0069337, 49.4763667], [6.0069507, 49.4763586], [6.0069758, 49.4763465], [6.0073779, 49.4761728], [6.0081244, 49.4754912], [6.0077057, 49.4753311], [6.0081818, 49.4749036], [6.008814, 49.4743359], [6.0090843, 49.4740154], [6.0091835, 49.4737836], [6.0094464, 49.4727831], [6.0095751, 49.4724973], [6.009787, 49.4721818], [6.0102524, 49.4716485], [6.0105555, 49.4711865], [6.0106748, 49.4710964], [6.0106627, 49.4709966], [6.0107848, 49.4707282], [6.0108733, 49.470363], [6.0109001, 49.4701094], [6.0106131, 49.4670338], [6.0106198, 49.4669091], [6.0106507, 49.4667496], [6.0107177, 49.4665675], [6.010825, 49.4664054], [6.0109477, 49.4662646], [6.0110342, 49.4661875], [6.0142649, 49.4644129], [6.0144261, 49.4645017], [6.0146207, 49.4646383], [6.0147555, 49.4647609], [6.0148012, 49.4648324], [6.0151233, 49.465099], [6.0154412, 49.4652053], [6.0157183, 49.4652171], [6.0163815, 49.4653647], [6.0165288, 49.4653316], [6.016736, 49.4652169], [6.0185581, 49.4643197], [6.0191466, 49.4643327], [6.0196563, 49.4644163], [6.0199861, 49.464535], [6.0203998, 49.4646155], [6.0211736, 49.4648162], [6.0215794, 49.4649242], [6.0225101, 49.4652499], [6.0229372, 49.4654632], [6.0231684, 49.4657168], [6.0246814, 49.4658667], [6.0248189, 49.4658723], [6.0249454, 49.4658621], [6.0250992, 49.4658412], [6.0253787, 49.4657639], [6.025891, 49.4656018], [6.0260707, 49.4655721], [6.026229, 49.4655643], [6.0263912, 49.46558], [6.0265629, 49.4656166], [6.0267748, 49.4656785], [6.027039, 49.4657691], [6.0269345, 49.465996], [6.0268735, 49.4659844], [6.026799, 49.4660238], [6.0266915, 49.4661708], [6.0266832, 49.4665525], [6.0267399, 49.4666808], [6.0266404, 49.4668873], [6.0266583, 49.4670116], [6.0265536, 49.4673644], [6.0266005, 49.4674325], [6.0270392, 49.4676706], [6.0273551, 49.4678637], [6.0274705, 49.4678662], [6.0279322, 49.4677235], [6.0289082, 49.4671689], [6.0292508, 49.4674006], [6.0293878, 49.4674933], [6.0293369, 49.4675294], [6.0292029, 49.4677008], [6.0291378, 49.4677632], [6.0288868, 49.4679222], [6.0280829, 49.4683655], [6.028024, 49.4683311], [6.0278321, 49.4683972], [6.0277128, 49.4684302], [6.02733, 49.4683716], [6.0270162, 49.468464], [6.0269599, 49.4685986], [6.0266714, 49.4686754], [6.0270865, 49.468724], [6.0273554, 49.4686644], [6.027372, 49.4687502], [6.0274634, 49.4688256], [6.0273769, 49.4688749], [6.0272107, 49.4689459], [6.0269827, 49.4689965], [6.0268264, 49.4690161], [6.0266682, 49.4690139], [6.0264972, 49.4689895], [6.0257743, 49.4688169], [6.0257086, 49.4689102], [6.0259983, 49.469095], [6.0266371, 49.4693787], [6.027052, 49.4695423], [6.0276809, 49.4697663], [6.0279414, 49.4695834], [6.0282952, 49.4693288], [6.0284151, 49.4691844], [6.0285221, 49.4691375], [6.0286206, 49.4690034], [6.0287271, 49.4688285], [6.0287756, 49.4686694], [6.0289465, 49.4683265], [6.0291599, 49.4681646], [6.0295576, 49.467568], [6.0297839, 49.4676808], [6.0298503, 49.4674905], [6.0302221, 49.4670229], [6.0309086, 49.467068], [6.03092, 49.46711], [6.0314617, 49.467133], [6.0315, 49.467487], [6.031519, 49.4676395], [6.0315777, 49.4677746], [6.0316012, 49.4678286], [6.0316058, 49.4678423], [6.0315558, 49.4678567], [6.0315851, 49.4679077], [6.0316278, 49.4679818], [6.0316071, 49.4679868], [6.0309011, 49.4681581], [6.030975, 49.4683829], [6.0310661, 49.4685367], [6.0312655, 49.4688729], [6.0316309, 49.4687934], [6.031757, 49.4689302], [6.0321084, 49.4692013], [6.032673, 49.4690666], [6.0328802, 49.4694126], [6.0336291, 49.4709951], [6.0335112, 49.4713295], [6.0334979, 49.4714384], [6.0333749, 49.4724489], [6.0331965, 49.4727378], [6.0330633, 49.4728435], [6.0328709, 49.4729963], [6.0323633, 49.4732509], [6.0317776, 49.4733428], [6.031562, 49.4732967], [6.0315102, 49.4733931], [6.0314535, 49.4734105], [6.0315212, 49.4735442], [6.0297869, 49.4740066], [6.0296171, 49.4740261], [6.0289978, 49.4740524], [6.0281903, 49.4739672], [6.0272348, 49.4739291], [6.0271248, 49.4739631], [6.0268838, 49.4740116], [6.0258025, 49.4739866], [6.0253023, 49.4738629], [6.0251158, 49.4736903], [6.024, 49.4737034], [6.0236701, 49.4736555], [6.0236207, 49.4737724], [6.0223835, 49.4734476], [6.0224019, 49.473546], [6.0223899, 49.4737064], [6.0223694, 49.4737335], [6.0222479, 49.4737056], [6.0219827, 49.4735363], [6.0218624, 49.4734995], [6.021773, 49.4736408], [6.0217926, 49.4737147], [6.0217175, 49.4738188], [6.0216484, 49.4738393], [6.0214493, 49.474316], [6.0219897, 49.4742777], [6.0220373, 49.4741979], [6.0236348, 49.4746679], [6.024517, 49.4749426], [6.0255957, 49.4752194], [6.0258961, 49.4752939], [6.0271211, 49.475598], [6.0270845, 49.4758958], [6.0271949, 49.4759653], [6.0279711, 49.476119], [6.0299427, 49.4761128], [6.0300252, 49.4767981], [6.0301624, 49.4766932], [6.0306975, 49.4768091], [6.0315961, 49.4771132], [6.0319152, 49.4772709], [6.0322894, 49.4775263], [6.0325938, 49.4777999], [6.0328882, 49.4781345], [6.0326535, 49.4781846], [6.0326415, 49.4786696], [6.0325506, 49.4789677], [6.0323099, 49.4793749], [6.0327998, 49.4794137], [6.0325106, 49.4796761], [6.0324703, 49.4802439], [6.0324509, 49.4804412], [6.0322539, 49.4803569], [6.0313911, 49.4808075], [6.0305375, 49.481043], [6.0305149, 49.4811697], [6.0304096, 49.4812412], [6.0302932, 49.4810482], [6.0302674, 49.4810539], [6.0302212, 49.4810563], [6.0283747, 49.4811415], [6.0275406, 49.4812304], [6.02687, 49.4812304], [6.0265721, 49.4811809], [6.0256951, 49.4811408], [6.0252806, 49.4813949], [6.0242763, 49.4807686], [6.0242012, 49.4808095], [6.0233523, 49.4802436], [6.0231902, 49.4804377], [6.0232235, 49.4804662], [6.0236739, 49.4808421], [6.0238572, 49.4810042], [6.0235019, 49.4811928], [6.0231712, 49.4809925], [6.0217926, 49.4796925], [6.02135, 49.4792459], [6.021471, 49.4790934], [6.0214837, 49.47893], [6.0213736, 49.4787829], [6.0211679, 49.4786886], [6.0209177, 49.4786703], [6.020685, 49.4787328], [6.0204951, 49.4788403], [6.020072, 49.4786926], [6.0201558, 49.4786333], [6.0201833, 49.4784948], [6.0200293, 49.4784715], [6.0197582, 49.4785032], [6.0195181, 49.4786137], [6.0197977, 49.4787105], [6.0203294, 49.47889], [6.020443, 49.4789153], [6.020421, 49.4790202], [6.0204559, 49.4791383], [6.0205468, 49.4792429], [6.0206844, 49.4793233], [6.0208542, 49.479371], [6.0210386, 49.4793809], [6.0212182, 49.4793522], [6.0216451, 49.4797526], [6.0230212, 49.481136], [6.0233456, 49.4812757], [6.0245794, 49.4820424], [6.024279, 49.4822567], [6.0223746, 49.482614], [6.0214359, 49.4827011], [6.02054, 49.4825861], [6.0202074, 49.4827778], [6.0200196, 49.4826767], [6.0199177, 49.4827621], [6.0198587, 49.4827173], [6.0187, 49.4818368], [6.018354, 49.4820198], [6.0181394, 49.4818742], [6.0178394, 49.4820436], [6.0178048, 49.4820873], [6.0178559, 49.4821339], [6.0177886, 49.4821515], [6.0173053, 49.4822777], [6.0171202, 49.4823822], [6.0171336, 49.4826087], [6.0167394, 49.4828677], [6.0156515, 49.4830095], [6.0147853, 49.4829538], [6.014441, 49.4834347], [6.0144125, 49.4834739], [6.0144286, 49.4835227], [6.0143696, 49.483538], [6.0143776, 49.483575], [6.0143575, 49.4835807], [6.014161, 49.4836434], [6.0140008, 49.4835972], [6.0138291, 49.483558], [6.013514, 49.4835009], [6.0132142, 49.4834672], [6.0128327, 49.4834312], [6.0125539, 49.4834184], [6.0108155, 49.4833381], [6.0105481, 49.4832731], [6.0105608, 49.4831123], [6.0104093, 49.4827412], [6.0101759, 49.4827482], [6.0088657, 49.4829337], [6.0082712, 49.4829059], [6.0081657, 49.4826471], [6.0079328, 49.4824612], [6.0075007, 49.4823463], [6.0074231, 49.4824351], [6.006921, 49.4832926], [6.0068574, 49.4834132], [6.0067554, 49.4834956], [6.0068602, 49.4836389], [6.0071076, 49.4837263], [6.008245, 49.4835055], [6.0092519, 49.4834225]]]}}]}