{"type": "FeatureCollection", "features": [{"type": "Feature", "properties": {"name": "Nommerlayen", "kind": "nature_reserve"}, "geometry": {"type": "Polygon", "coordinates": [[[6.1820438, 49.7841286], [6.1813837, 49.7836738], [6.1793445, 49.7829427], [6.1786748, 49.7827038], [6.1782997, 49.7825163], [6.1757506, 49.7809842], [6.174425, 49.7801066], [6.1739338, 49.7798279], [6.1732611, 49.7795022], [6.173222, 49.7794787], [6.1726607, 49.7791406], [6.1739358, 49.7770967], [6.173945, 49.777082], [6.1736244, 49.7768925], [6.1726736, 49.7763218], [6.1723396, 49.7761927], [6.1721342, 49.776108], [6.1720419, 49.7760637], [6.1708644, 49.7755644], [6.1696896, 49.7750681], [6.169184, 49.7748581], [6.1689113, 49.7747929], [6.1679168, 49.7747139], [6.1666523, 49.774607], [6.1652364, 49.7744265], [6.1647463, 49.7744074], [6.1646447, 49.774406], [6.1645686, 49.7744186], [6.1644793, 49.7744544], [6.1643376, 49.774634], [6.1641782, 49.7747847], [6.1640006, 49.7747525], [6.1635621, 49.7745914], [6.1634521, 49.7745498], [6.1616832, 49.776113], [6.1614083, 49.7754358], [6.1612733, 49.7753599], [6.1605822, 49.7753318], [6.1598164, 49.7751015], [6.1593647, 49.7750625], [6.1589541, 49.7751876], [6.1588181, 49.7753243], [6.158961, 49.7756636], [6.1590101, 49.7756619], [6.1591776, 49.7757589], [6.1590245, 49.7757555], [6.1585386, 49.7758415], [6.1580716, 49.7758014], [6.1575693, 49.7758009], [6.1571355, 49.7758472], [6.156868, 49.7760636], [6.1562957, 49.7759123], [6.1561917, 49.7758693], [6.1560627, 49.7757896], [6.1560065, 49.7757378], [6.15589, 49.7755962], [6.155838, 49.7755166], [6.1557583, 49.775373], [6.1559229, 49.7751623], [6.1560663, 49.7749787], [6.1558235, 49.7750748], [6.1556112, 49.7752176], [6.1554739, 49.775337], [6.1553302, 49.7754736], [6.1552262, 49.7755924], [6.1549743, 49.7759772], [6.1548764, 49.7760961], [6.1536993, 49.7768363], [6.1532112, 49.7771341], [6.1529505, 49.7772788], [6.1525485, 49.777414], [6.1524514, 49.7774697], [6.1523167, 49.7776116], [6.1523015, 49.7776971], [6.1522603, 49.7782815], [6.1522445, 49.7785085], [6.152278, 49.7787804], [6.1524013, 49.7789743], [6.1527398, 49.7794021], [6.1529201, 49.7795665], [6.1531034, 49.7796934], [6.1538713, 49.7800837], [6.1540604, 49.7800413], [6.1541864, 49.779998], [6.1542964, 49.7800123], [6.1544004, 49.7800434], [6.1546558, 49.7802782], [6.1547812, 49.7803531], [6.1549582, 49.780441], [6.1551212, 49.7804765], [6.155492, 49.7805154], [6.1557233, 49.7806189], [6.1567702, 49.7813282], [6.157116, 49.7814994], [6.1572912, 49.7815633], [6.1575687, 49.7816128], [6.1580466, 49.7816445], [6.1581816, 49.7816659], [6.1584364, 49.7817724], [6.158738, 49.7820109], [6.1590452, 49.7821984], [6.1592422, 49.7822823], [6.1598816, 49.7824254], [6.1601036, 49.7824747], [6.1603024, 49.7825196], [6.1606371, 49.7825369], [6.1608752, 49.7825057], [6.1612072, 49.7824095], [6.1611933, 49.7818153], [6.1611534, 49.7815423], [6.1610776, 49.7811376], [6.161869, 49.7810292], [6.1623633, 49.7813627], [6.1629025, 49.7816883], [6.1633789, 49.7819291], [6.1642013, 49.7821383], [6.164544, 49.7826828], [6.1647906, 49.7827335], [6.1651391, 49.7827292], [6.1656984, 49.7827119], [6.1659604, 49.782681], [6.1662896, 49.782621], [6.1664897, 49.7833163], [6.1668397, 49.7832644], [6.1670087, 49.7835085], [6.167186, 49.7836624], [6.1677864, 49.7838567], [6.1679784, 49.7837138], [6.1682024, 49.7838341], [6.1690066, 49.7840607], [6.1691084, 49.784084], [6.1694959, 49.784121], [6.1696978, 49.7841174], [6.1699159, 49.7840834], [6.170022, 49.784053], [6.1701941, 49.7839886], [6.1703638, 49.7839044], [6.170513, 49.7837787], [6.1707618, 49.7833534], [6.1708751, 49.783056], [6.1709845, 49.7826321], [6.1709783, 49.7821592], [6.1714753, 49.7821549], [6.1716145, 49.7826476], [6.1716996, 49.7830808], [6.1717245, 49.783237], [6.1717509, 49.7835597], [6.1718667, 49.7840024], [6.172192, 49.7843165], [6.1731621, 49.7842802], [6.1740486, 49.7841498], [6.1741482, 49.7842275], [6.1733922, 49.7846797], [6.1733272, 49.784739], [6.172965, 49.7850695], [6.1732127, 49.7851296], [6.1736203, 49.7851745], [6.1742515, 49.7852986], [6.1751466, 49.7855508], [6.1755127, 49.7856872], [6.1756991, 49.785779], [6.1758352, 49.7859334], [6.1761195, 49.7862218], [6.1762449, 49.7863297], [6.1764514, 49.7864388], [6.1766928, 49.7865254], [6.1771125, 49.7867011], [6.1783947, 49.7871358], [6.1785892, 49.7871817], [6.1787366, 49.787189], [6.1788151, 49.7871801], [6.1789003, 49.787147], [6.1789546, 49.7870899], [6.1789768, 49.7870404], [6.1789935, 49.7869951], [6.1789406, 49.7869388], [6.1784932, 49.7866679], [6.1783286, 49.786516], [6.1782286, 49.7863862], [6.1781198, 49.7861946], [6.1780674, 49.7860795], [6.1780621, 49.7859547], [6.1781037, 49.7858162], [6.178126, 49.7857833], [6.1781909, 49.7857062], [6.178333, 49.7856067], [6.1784112, 49.785582], [6.1785761, 49.7855391], [6.1787188, 49.7855216], [6.1788584, 49.7855269], [6.1790159, 49.7855548], [6.1791913, 49.7856178], [6.1798572, 49.7859205], [6.1799759, 49.7859502], [6.1800888, 49.785973], [6.1801632, 49.7859747], [6.1803177, 49.7859642], [6.1804157, 49.7859397], [6.1805585, 49.7858909], [6.1809442, 49.7857045], [6.1811872, 49.7856279], [6.1813666, 49.785617], [6.1815485, 49.785613], [6.1820881, 49.7857677], [6.1821501, 49.7856393], [6.183097, 49.7856265], [6.1834332, 49.7856151], [6.1835032, 49.7855864], [6.1834837, 49.7855361], [6.1840299, 49.7851434], [6.1840727, 49.7851102], [6.1842918, 49.7851072], [6.1845061, 49.784907], [6.1839064, 49.7845932], [6.1836145, 49.7847787], [6.183371, 49.7847038], [6.1830431, 49.7845474], [6.1827802, 49.7844409], [6.1820438, 49.7841286]]]}}]}