{"type": "FeatureCollection", "features": [{"type": "Feature", "properties": {"name": "Fischbach"}, "geometry": {"type": "MultiPolygon", "coordinates": [[[[6.141703, 49.753777], [6.141783, 49.75378], [6.141859, 49.753796], [6.141962, 49.753822], [6.142012, 49.75384], [6.142042, 49.753864], [6.14208, 49.753902], [6.14218, 49.75402], [6.142294, 49.75413], [6.142328, 49.75416], [6.142343, 49.75418], [6.142366, 49.754234], [6.142385, 49.754265], [6.142412, 49.75429], [6.142439, 49.754303], [6.142599, 49.754337], [6.142839, 49.7544], [6.142996, 49.754406], [6.143065, 49.7544], [6.143145, 49.75438], [6.143202, 49.75438], [6.14327, 49.75439], [6.143312, 49.754414], [6.143328, 49.754433], [6.143324, 49.75445], [6.14329, 49.75448], [6.143202, 49.754528], [6.143164, 49.754562], [6.143152, 49.75461], [6.143164, 49.75464], [6.143198, 49.754665], [6.143244, 49.75468], [6.143286, 49.754692], [6.143393, 49.75469], [6.143511, 49.75469], [6.143572, 49.754696], [6.143606, 49.754715], [6.143629, 49.75474], [6.143656, 49.75478], [6.143702, 49.75481], [6.143774, 49.75485], [6.14382, 49.75488], [6.143881, 49.75493], [6.143949, 49.75497], [6.144007, 49.754993], [6.144087, 49.754997], [6.144224, 49.755], [6.144335, 49.755016], [6.144426, 49.755047], [6.144518, 49.755085], [6.14456, 49.755096], [6.14464, 49.755123], [6.144751, 49.75517], [6.144842, 49.75521], [6.144964, 49.755306], [6.145033, 49.7554], [6.145155, 49.75553], [6.145205, 49.755573], [6.145254, 49.755604], [6.145441, 49.755695], [6.145609, 49.755756], [6.145807, 49.75582], [6.146028, 49.755886], [6.146315, 49.755978], [6.14636, 49.75599], [6.146437, 49.755985], [6.146467, 49.755993], [6.146498, 49.75601], [6.146532, 49.75602], [6.146563, 49.756023], [6.146627, 49.756016], [6.146688, 49.75601], [6.146723, 49.756016], [6.146769, 49.756035], [6.146799, 49.756065], [6.146822, 49.7561], [6.146849, 49.756294], [6.146872, 49.75633], [6.146925, 49.75637], [6.147188, 49.75648], [6.147421, 49.75657], [6.147566, 49.756615], [6.147696, 49.75664], [6.147772, 49.756653], [6.14789, 49.756657], [6.147947, 49.756664], [6.148001, 49.75668], [6.148058, 49.756706], [6.148115, 49.756737], [6.148188, 49.75679], [6.148348, 49.756897], [6.148436, 49.75693], [6.148546, 49.75695], [6.148695, 49.756973], [6.148779, 49.756996], [6.14889, 49.75704], [6.149019, 49.757084], [6.14916, 49.757133], [6.149229, 49.757168], [6.14926, 49.75719], [6.149294, 49.75722], [6.14945, 49.757313], [6.149538, 49.75735], [6.149603, 49.757366], [6.149672, 49.757374], [6.149805, 49.757393], [6.1499, 49.757416], [6.149973, 49.757435], [6.150068, 49.75744], [6.150122, 49.757446], [6.150175, 49.757473], [6.150221, 49.7575], [6.150297, 49.75757], [6.150484, 49.75765], [6.15061, 49.75771], [6.150801, 49.75779], [6.150892, 49.757824], [6.150984, 49.757847], [6.151041, 49.757854], [6.151075, 49.75786], [6.15111, 49.757847], [6.151213, 49.757767], [6.151274, 49.757736], [6.151323, 49.757717], [6.151377, 49.757717], [6.151426, 49.757725], [6.151465, 49.757744], [6.151499, 49.757774], [6.151537, 49.75787], [6.151556, 49.75792], [6.151606, 49.75797], [6.151632, 49.75799], [6.151689, 49.75802], [6.15177, 49.75804], [6.151896, 49.758064], [6.152041, 49.758087], [6.152151, 49.758118], [6.152323, 49.75818], [6.152189, 49.758312], [6.152124, 49.75838], [6.151846, 49.758667], [6.15106, 49.758865], [6.150392, 49.75872], [6.149984, 49.758583], [6.149912, 49.75856], [6.149824, 49.75853], [6.148786, 49.758167], [6.148287, 49.757946], [6.148199, 49.757908], [6.14786, 49.7578], [6.147791, 49.757782], [6.147684, 49.757755], [6.147398, 49.757675], [6.147066, 49.757626], [6.146673, 49.757565], [6.14617, 49.757496], [6.146021, 49.757477], [6.14559, 49.757412], [6.14493, 49.757397], [6.144293, 49.757465], [6.144278, 49.757565], [6.14427, 49.75763], [6.144278, 49.757652], [6.144449, 49.757656], [6.14459, 49.757675], [6.144728, 49.7577], [6.144873, 49.757744], [6.145628, 49.75799], [6.145784, 49.75807], [6.146151, 49.758266], [6.146769, 49.758587], [6.147146, 49.75878], [6.147165, 49.75882], [6.147253, 49.759018], [6.147451, 49.75947], [6.147322, 49.75962], [6.147184, 49.759758], [6.147165, 49.759773], [6.147058, 49.75986], [6.14702, 49.75989], [6.146826, 49.76001], [6.146875, 49.760025], [6.146952, 49.76022], [6.146959, 49.760242], [6.146998, 49.760384], [6.147024, 49.76049], [6.147024, 49.76052], [6.147009, 49.76057], [6.146986, 49.76066], [6.146959, 49.760754], [6.146746, 49.76134], [6.146772, 49.761353], [6.14681, 49.76137], [6.147879, 49.76182], [6.14752, 49.762203], [6.147383, 49.762344], [6.147203, 49.76254], [6.147169, 49.762573], [6.147017, 49.762737], [6.148104, 49.763412], [6.148584, 49.763718], [6.148626, 49.763744], [6.14868, 49.76378], [6.148729, 49.76381], [6.149725, 49.764442], [6.150297, 49.76481], [6.150938, 49.76523], [6.151114, 49.765347], [6.150003, 49.76625], [6.150099, 49.7663], [6.150183, 49.76634], [6.150412, 49.766457], [6.150541, 49.766525], [6.150705, 49.76661], [6.151327, 49.766167], [6.152063, 49.765636], [6.152136, 49.76568], [6.152403, 49.76584], [6.151815, 49.766308], [6.15214, 49.766525], [6.151293, 49.767178], [6.150515, 49.767796], [6.150724, 49.76788], [6.15114, 49.76804], [6.151586, 49.76821], [6.151609, 49.76822], [6.152201, 49.767914], [6.152231, 49.767925], [6.154173, 49.768806], [6.15436, 49.76889], [6.154619, 49.76901], [6.154432, 49.769157], [6.154409, 49.769173], [6.154303, 49.769257], [6.154242, 49.769302], [6.154211, 49.76933], [6.154097, 49.769417], [6.15394, 49.76954], [6.153921, 49.769554], [6.153898, 49.769577], [6.153791, 49.769672], [6.153776, 49.769688], [6.153719, 49.769737], [6.153578, 49.769867], [6.153501, 49.76994], [6.153482, 49.76996], [6.153441, 49.77], [6.153334, 49.7701], [6.153208, 49.770214], [6.153193, 49.77023], [6.153117, 49.770302], [6.153032, 49.770382], [6.152819, 49.77058], [6.152678, 49.77071], [6.152487, 49.77088], [6.152368, 49.770985], [6.152277, 49.77108], [6.153206, 49.771236], [6.153583, 49.771286], [6.153846, 49.77133], [6.154349, 49.771458], [6.15522, 49.77168], [6.156631, 49.77204], [6.156718, 49.772064], [6.156862, 49.772106], [6.157052, 49.772175], [6.157249, 49.77225], [6.157535, 49.772373], [6.157584, 49.772392], [6.157817, 49.772495], [6.15786, 49.77251], [6.158052, 49.77263], [6.158167, 49.7727], [6.158193, 49.772717], [6.158395, 49.77285], [6.15904, 49.773277], [6.159223, 49.7734], [6.159514, 49.7732], [6.159643, 49.773113], [6.15967, 49.77309], [6.160452, 49.77349], [6.161272, 49.77389], [6.161684, 49.77408], [6.161825, 49.774136], [6.16192, 49.774162], [6.162149, 49.774193], [6.162394, 49.77424], [6.162832, 49.774357], [6.163328, 49.7745], [6.164156, 49.77475], [6.164434, 49.77445], [6.164492, 49.774406], [6.164576, 49.774384], [6.164682, 49.77437], [6.164885, 49.774384], [6.165407, 49.77444], [6.166861, 49.774597], [6.166887, 49.774574], [6.167654, 49.773808], [6.167704, 49.773754], [6.167868, 49.773586], [6.167307, 49.773323], [6.167406, 49.77322], [6.167513, 49.773094], [6.167547, 49.773052], [6.167646, 49.772923], [6.167761, 49.772785], [6.167932, 49.77257], [6.168005, 49.77248], [6.168043, 49.77243], [6.168192, 49.772243], [6.168325, 49.772053], [6.168375, 49.77198], [6.168512, 49.771828], [6.168711, 49.771595], [6.168852, 49.77141], [6.169023, 49.771156], [6.169111, 49.77104], [6.169271, 49.770824], [6.169405, 49.770634], [6.169474, 49.77054], [6.169825, 49.77007], [6.170446, 49.770126], [6.170481, 49.769207], [6.170759, 49.7692], [6.170988, 49.76919], [6.170874, 49.76825], [6.171141, 49.768215], [6.171297, 49.768436], [6.171526, 49.768307], [6.171587, 49.768276], [6.171621, 49.768265], [6.171717, 49.76823], [6.171896, 49.768173], [6.172052, 49.768124], [6.172228, 49.76807], [6.172419, 49.768013], [6.172472, 49.767994], [6.172586, 49.767956], [6.172705, 49.767914], [6.172789, 49.767876], [6.172888, 49.767822], [6.173037, 49.767723], [6.173197, 49.767612], [6.173418, 49.767456], [6.172712, 49.767014], [6.172403, 49.76677], [6.172072, 49.766514], [6.172339, 49.766346], [6.173456, 49.766125], [6.173506, 49.76604], [6.173704, 49.76572], [6.173727, 49.765686], [6.173796, 49.765575], [6.173933, 49.765358], [6.173952, 49.765327], [6.174036, 49.7652], [6.174108, 49.765095], [6.174158, 49.76502], [6.174337, 49.764744], [6.174429, 49.764584], [6.174837, 49.763912], [6.175508, 49.764], [6.175654, 49.76348], [6.175165, 49.763386], [6.174997, 49.763348], [6.175363, 49.762417], [6.175562, 49.76191], [6.17568, 49.761578], [6.175692, 49.76154], [6.178148, 49.76188], [6.178457, 49.761932], [6.17869, 49.761974], [6.178801, 49.76199], [6.178881, 49.761993], [6.179769, 49.76196], [6.179766, 49.761932], [6.17975, 49.761856], [6.17967, 49.76151], [6.179666, 49.76149], [6.179636, 49.76136], [6.179606, 49.761196], [6.180334, 49.76101], [6.180773, 49.7609], [6.181108, 49.760803], [6.18128, 49.760925], [6.18133, 49.76087], [6.181837, 49.76029], [6.181875, 49.760242], [6.18189, 49.760227], [6.182035, 49.76006], [6.182241, 49.759804], [6.182638, 49.759323], [6.182783, 49.75914], [6.184153, 49.75904], [6.184183, 49.75904], [6.184214, 49.759323], [6.184469, 49.759525], [6.184645, 49.759617], [6.184828, 49.7597], [6.185446, 49.759975], [6.185495, 49.759975], [6.185507, 49.760006], [6.185701, 49.760773], [6.185858, 49.761414], [6.185873, 49.761448], [6.187082, 49.761448], [6.18857, 49.761456], [6.190065, 49.761513], [6.191976, 49.761528], [6.192652, 49.761543], [6.194147, 49.761497], [6.194563, 49.76147], [6.196383, 49.76129], [6.197092, 49.761246], [6.197325, 49.76118], [6.197996, 49.761017], [6.198164, 49.76099], [6.198484, 49.760967], [6.199419, 49.760918], [6.200178, 49.760868], [6.200952, 49.760773], [6.201159, 49.76073], [6.201403, 49.760677], [6.201929, 49.760643], [6.202612, 49.760612], [6.202898, 49.76061], [6.203726, 49.760616], [6.203966, 49.760628], [6.203981, 49.760593], [6.204145, 49.760178], [6.204153, 49.76016], [6.204222, 49.75997], [6.204981, 49.759876], [6.205267, 49.759834], [6.205652, 49.759785], [6.205702, 49.759777], [6.205862, 49.75973], [6.205965, 49.759705], [6.206034, 49.759686], [6.206579, 49.759605], [6.206671, 49.759594], [6.20706, 49.75944], [6.207018, 49.759335], [6.206953, 49.759148], [6.206823, 49.758675], [6.206755, 49.75842], [6.206896, 49.75839], [6.207167, 49.758293], [6.20754, 49.758156], [6.20788, 49.758022], [6.208197, 49.757896], [6.208372, 49.75782], [6.208902, 49.757553], [6.209513, 49.757248], [6.209555, 49.757225], [6.209665, 49.75717], [6.209806, 49.757114], [6.209822, 49.757107], [6.20989, 49.757133], [6.209959, 49.75716], [6.210241, 49.757236], [6.210478, 49.757282], [6.210638, 49.757298], [6.211092, 49.75727], [6.211534, 49.757256], [6.212076, 49.757244], [6.212641, 49.757244], [6.212954, 49.757256], [6.213312, 49.757286], [6.213694, 49.75734], [6.214411, 49.7574], [6.214727, 49.757442], [6.214937, 49.757473], [6.215025, 49.75747], [6.215219, 49.757416], [6.215509, 49.75738], [6.215582, 49.757343], [6.215601, 49.7573], [6.21562, 49.757183], [6.215658, 49.75716], [6.215719, 49.757164], [6.215811, 49.757195], [6.216009, 49.75724], [6.216074, 49.757286], [6.216124, 49.757385], [6.216066, 49.75747], [6.215986, 49.757538], [6.215994, 49.757584], [6.216024, 49.7576], [6.216131, 49.757633], [6.216208, 49.757656], [6.216291, 49.757664], [6.216352, 49.757656], [6.216398, 49.75762], [6.216444, 49.75756], [6.216471, 49.757484], [6.216517, 49.757435], [6.216581, 49.757397], [6.216608, 49.757397], [6.216723, 49.757446], [6.216913, 49.7575], [6.216993, 49.757576], [6.217077, 49.757767], [6.217173, 49.75785], [6.217337, 49.757965], [6.217443, 49.758003], [6.217821, 49.758064], [6.218199, 49.758152], [6.218443, 49.7582], [6.218546, 49.758186], [6.218656, 49.758118], [6.21874, 49.75809], [6.218824, 49.758095], [6.219152, 49.7582], [6.21924, 49.758198], [6.219275, 49.75817], [6.219282, 49.758137], [6.219286, 49.758095], [6.219328, 49.758068], [6.219389, 49.758053], [6.219564, 49.75806], [6.219648, 49.758087], [6.219732, 49.758152], [6.219778, 49.758213], [6.219931, 49.758274], [6.219999, 49.75833], [6.220083, 49.758347], [6.220175, 49.758354], [6.220209, 49.758373], [6.220243, 49.758465], [6.220381, 49.758575], [6.220465, 49.75861], [6.220549, 49.758617], [6.220739, 49.758583], [6.220873, 49.758583], [6.220938, 49.758602], [6.221029, 49.75865], [6.221235, 49.75888], [6.221395, 49.75908], [6.22143, 49.75913], [6.221548, 49.759205], [6.221662, 49.75936], [6.221647, 49.75941], [6.221628, 49.759464], [6.221651, 49.75951], [6.221712, 49.759556], [6.221884, 49.759678], [6.221933, 49.75973], [6.221956, 49.759727], [6.222044, 49.759686], [6.22249, 49.75948], [6.222998, 49.759254], [6.223417, 49.759155], [6.22405, 49.75901], [6.224608, 49.75907], [6.225287, 49.75906], [6.225485, 49.75904], [6.225992, 49.759003], [6.226599, 49.758957], [6.226996, 49.75893], [6.227228, 49.758625], [6.227411, 49.75838], [6.227484, 49.758217], [6.227594, 49.757977], [6.227655, 49.75784], [6.227667, 49.757774], [6.227732, 49.75743], [6.227735, 49.757225], [6.227743, 49.757133], [6.227778, 49.756924], [6.227816, 49.75666], [6.227827, 49.756588], [6.227846, 49.756287], [6.227861, 49.75599], [6.227247, 49.75589], [6.226973, 49.755848], [6.226614, 49.7558], [6.226316, 49.75577], [6.226126, 49.755753], [6.225779, 49.75573], [6.225462, 49.75577], [6.225275, 49.7558], [6.225168, 49.755814], [6.224871, 49.755856], [6.223787, 49.75592], [6.22323, 49.755707], [6.222742, 49.755516], [6.22267, 49.755154], [6.22262, 49.754856], [6.222567, 49.754646], [6.222784, 49.75442], [6.222929, 49.754272], [6.222956, 49.75425], [6.223024, 49.754177], [6.223124, 49.754074], [6.223364, 49.754063], [6.223833, 49.75404], [6.224585, 49.753998], [6.224981, 49.753975], [6.225145, 49.75372], [6.225287, 49.753445], [6.225431, 49.75317], [6.225859, 49.75287], [6.226126, 49.75268], [6.226267, 49.752678], [6.226393, 49.75267], [6.226538, 49.752666], [6.226755, 49.752666], [6.227266, 49.7527], [6.228293, 49.752785], [6.22827, 49.752705], [6.22819, 49.75245], [6.228151, 49.752316], [6.228113, 49.752193], [6.228075, 49.752064], [6.228037, 49.751938], [6.227911, 49.751526], [6.227869, 49.751385], [6.227827, 49.751255], [6.227789, 49.75112], [6.227739, 49.750965], [6.22772, 49.750893], [6.227671, 49.75049], [6.227629, 49.750084], [6.227594, 49.7498], [6.227587, 49.74972], [6.227533, 49.74944], [6.227522, 49.74936], [6.227503, 49.74926], [6.227484, 49.74914], [6.227426, 49.748856], [6.2274, 49.748653], [6.227263, 49.7485], [6.227095, 49.748318], [6.226908, 49.74811], [6.226698, 49.747875], [6.226561, 49.74772], [6.226492, 49.747646], [6.226263, 49.747387], [6.226152, 49.74726], [6.226099, 49.747192], [6.226057, 49.747128], [6.226015, 49.747055], [6.225977, 49.74694], [6.225946, 49.746845], [6.226034, 49.746807], [6.226088, 49.746777], [6.226118, 49.746746], [6.226172, 49.74668], [6.226206, 49.74662], [6.22624, 49.746544], [6.226252, 49.746513], [6.226259, 49.746487], [6.226255, 49.746456], [6.226233, 49.746407], [6.226202, 49.746357], [6.226145, 49.746254], [6.22603, 49.74605], [6.225855, 49.74575], [6.225824, 49.745686], [6.225809, 49.745636], [6.225794, 49.745575], [6.225779, 49.74549], [6.225729, 49.745132], [6.225691, 49.74482], [6.22566, 49.744625], [6.225649, 49.744545], [6.225637, 49.74449], [6.225614, 49.74437], [6.22558, 49.744205], [6.225534, 49.744026], [6.22542, 49.74355], [6.225405, 49.743492], [6.225374, 49.743362], [6.225363, 49.743313], [6.225344, 49.7432], [6.225325, 49.743], [6.225321, 49.742935], [6.225313, 49.74285], [6.225306, 49.74271], [6.225302, 49.742603], [6.225302, 49.742287], [6.225096, 49.74205], [6.224909, 49.741833], [6.224661, 49.741543], [6.224474, 49.74133], [6.224295, 49.741127], [6.223127, 49.73946], [6.223028, 49.73932], [6.223036, 49.739292], [6.222803, 49.738914], [6.222719, 49.73859], [6.222609, 49.73804], [6.222567, 49.73779], [6.222567, 49.737534], [6.222166, 49.73676], [6.222055, 49.73652], [6.221987, 49.73643], [6.221827, 49.736107], [6.221422, 49.735313], [6.220854, 49.735348], [6.220758, 49.735172], [6.220735, 49.73512], [6.220728, 49.73509], [6.220735, 49.73505], [6.220747, 49.73498], [6.220762, 49.734814], [6.220762, 49.73475], [6.220594, 49.73445], [6.220537, 49.734356], [6.220499, 49.734306], [6.220331, 49.734108], [6.220179, 49.733917], [6.220114, 49.73385], [6.219896, 49.733685], [6.218794, 49.732807], [6.218248, 49.732594], [6.217771, 49.732407], [6.217402, 49.732254], [6.217302, 49.732174], [6.216997, 49.73191], [6.216707, 49.731667], [6.216429, 49.731445], [6.216204, 49.731262], [6.215094, 49.73061], [6.214125, 49.730015], [6.213949, 49.72991], [6.214029, 49.72937], [6.213614, 49.728825], [6.212976, 49.728622], [6.21266, 49.728527], [6.21208, 49.7284], [6.211893, 49.728397], [6.211431, 49.72838], [6.211348, 49.728374], [6.211302, 49.728374], [6.211237, 49.72837], [6.2111, 49.728355], [6.210993, 49.728348], [6.210531, 49.72829], [6.210241, 49.728245], [6.209833, 49.728172], [6.209547, 49.728115], [6.209513, 49.728107], [6.208425, 49.727882], [6.20743, 49.727448], [6.207327, 49.727398], [6.207251, 49.72736], [6.205675, 49.726498], [6.205744, 49.726376], [6.206247, 49.725403], [6.205999, 49.7253], [6.205908, 49.725266], [6.205851, 49.72524], [6.205782, 49.725212], [6.205687, 49.72517], [6.205542, 49.725086], [6.205454, 49.725033], [6.205389, 49.72499], [6.205118, 49.72479], [6.205011, 49.72471], [6.204947, 49.72466], [6.204863, 49.724598], [6.204809, 49.724564], [6.20476, 49.724537], [6.204695, 49.724506], [6.204657, 49.724487], [6.204599, 49.724464], [6.204222, 49.72433], [6.204199, 49.72432], [6.204413, 49.72387], [6.204428, 49.723835], [6.204447, 49.7238], [6.202997, 49.723553], [6.20289, 49.72353], [6.202604, 49.723454], [6.202383, 49.723392], [6.201963, 49.723267], [6.201948, 49.723263], [6.201944, 49.723045], [6.201914, 49.722767], [6.201902, 49.72265], [6.201902, 49.72262], [6.201925, 49.722572], [6.202249, 49.722248], [6.202581, 49.721912], [6.202803, 49.721485], [6.202978, 49.721172], [6.203058, 49.721035], [6.203066, 49.72102], [6.203051, 49.72102], [6.203001, 49.721024], [6.202898, 49.72102], [6.202661, 49.72102], [6.202543, 49.721], [6.202394, 49.72097], [6.202265, 49.72094], [6.202169, 49.72092], [6.201895, 49.720882], [6.201796, 49.72086], [6.201662, 49.72081], [6.201601, 49.720783], [6.201551, 49.720768], [6.20138, 49.720722], [6.201189, 49.720673], [6.200979, 49.720608], [6.20072, 49.720524], [6.200506, 49.720448], [6.20038, 49.7204], [6.200235, 49.720356], [6.200132, 49.720318], [6.200022, 49.72027], [6.199835, 49.720184], [6.199655, 49.720116], [6.19945, 49.72004], [6.199305, 49.719994], [6.199072, 49.719925], [6.198969, 49.7199], [6.19882, 49.71987], [6.198732, 49.71986], [6.198576, 49.719852], [6.198275, 49.71984], [6.198072, 49.71983], [6.197905, 49.719814], [6.197752, 49.7198], [6.197416, 49.719776], [6.197058, 49.71976], [6.196711, 49.719746], [6.196436, 49.719734], [6.196207, 49.719723], [6.195948, 49.7197], [6.195379, 49.719456], [6.195085, 49.719326], [6.194857, 49.719227], [6.19441, 49.719032], [6.193582, 49.718662], [6.193514, 49.718628], [6.193502, 49.718624], [6.193136, 49.718464], [6.193094, 49.71844], [6.192423, 49.718143], [6.192392, 49.718132], [6.192373, 49.718124], [6.19235, 49.718113], [6.191919, 49.717922], [6.191381, 49.717686], [6.19084, 49.717453], [6.1905, 49.717304], [6.189737, 49.716972], [6.189451, 49.71684], [6.189394, 49.716812], [6.189184, 49.716705], [6.189055, 49.71664], [6.189001, 49.716618], [6.188951, 49.71659], [6.188478, 49.71636], [6.188059, 49.716152], [6.18791, 49.71608], [6.187319, 49.71579], [6.186564, 49.715424], [6.186266, 49.715275], [6.185709, 49.714993], [6.18516, 49.71471], [6.184893, 49.71458], [6.184877, 49.71464], [6.184855, 49.71472], [6.184832, 49.714813], [6.184812, 49.71488], [6.184797, 49.71493], [6.184759, 49.71508], [6.184736, 49.715153], [6.184557, 49.715637], [6.184462, 49.71592], [6.184385, 49.71613], [6.184328, 49.716293], [6.184092, 49.71624], [6.183458, 49.716084], [6.182993, 49.71595], [6.182558, 49.7158], [6.181864, 49.715538], [6.181681, 49.715755], [6.181437, 49.71605], [6.18117, 49.7162], [6.180857, 49.71638], [6.180658, 49.716496], [6.180418, 49.71664], [6.180254, 49.71682], [6.180181, 49.716885], [6.180113, 49.716953], [6.179983, 49.717094], [6.179144, 49.716843], [6.179022, 49.716938], [6.178995, 49.716953], [6.178587, 49.71724], [6.178427, 49.717346], [6.178362, 49.7174], [6.17835, 49.717407], [6.178255, 49.71746], [6.177977, 49.71762], [6.177458, 49.717915], [6.17779, 49.718063], [6.1779, 49.718105], [6.178007, 49.718132], [6.178152, 49.71816], [6.178278, 49.71817], [6.178408, 49.718178], [6.178488, 49.7182], [6.178617, 49.718243], [6.178766, 49.71831], [6.178972, 49.718426], [6.178591, 49.718742], [6.178461, 49.718857], [6.178308, 49.718998], [6.178141, 49.71918], [6.177843, 49.719494], [6.177393, 49.719936], [6.177141, 49.72018], [6.177031, 49.720154], [6.176851, 49.720432], [6.176763, 49.720566], [6.17668, 49.7207], [6.176603, 49.72084], [6.176491, 49.72108], [6.176416, 49.72127], [6.176409, 49.721306], [6.176298, 49.721672], [6.176138, 49.722206], [6.176046, 49.722435], [6.176451, 49.722874], [6.176813, 49.72328], [6.177084, 49.7236], [6.177267, 49.723812], [6.177298, 49.72385], [6.177526, 49.724125], [6.177908, 49.724586], [6.178041, 49.724754], [6.178114, 49.724827], [6.178373, 49.72515], [6.178335, 49.72524], [6.178228, 49.72546], [6.178499, 49.72549], [6.179304, 49.725586], [6.179304, 49.72562], [6.17956, 49.72564], [6.179773, 49.725662], [6.180433, 49.725864], [6.180536, 49.725883], [6.18091, 49.7259], [6.181013, 49.725933], [6.18128, 49.72613], [6.181154, 49.72649], [6.182333, 49.72682], [6.183237, 49.727077], [6.184572, 49.727448], [6.184629, 49.727467], [6.184809, 49.7278], [6.184782, 49.727833], [6.184767, 49.727913], [6.184748, 49.72814], [6.184763, 49.728233], [6.184832, 49.728462], [6.18487, 49.728603], [6.184893, 49.72872], [6.184893, 49.728893], [6.184896, 49.72897], [6.184877, 49.729206], [6.184832, 49.729412], [6.184786, 49.72963], [6.184763, 49.72973], [6.18466, 49.730087], [6.184435, 49.73082], [6.184359, 49.730953], [6.184023, 49.731506], [6.183626, 49.73188], [6.182901, 49.73251], [6.182459, 49.732903], [6.182333, 49.73302], [6.182226, 49.7331], [6.181761, 49.733395], [6.181379, 49.73364], [6.181322, 49.733673], [6.18125, 49.73371], [6.180853, 49.73392], [6.180571, 49.734066], [6.180086, 49.734318], [6.179975, 49.73437], [6.179949, 49.7344], [6.179743, 49.734493], [6.179564, 49.734585], [6.179312, 49.73471], [6.178816, 49.734974], [6.178755, 49.73499], [6.177412, 49.735703], [6.176729, 49.736073], [6.175829, 49.73674], [6.175421, 49.737072], [6.175314, 49.73716], [6.175089, 49.737343], [6.17499, 49.737427], [6.174856, 49.737534], [6.174635, 49.737713], [6.174604, 49.73774], [6.174219, 49.73806], [6.173983, 49.73826], [6.173906, 49.738323], [6.17383, 49.738384], [6.173742, 49.73845], [6.173666, 49.73851], [6.173533, 49.738613], [6.173307, 49.73878], [6.173227, 49.73884], [6.173105, 49.73893], [6.173067, 49.738926], [6.173029, 49.73897], [6.172968, 49.73905], [6.172956, 49.739067], [6.172834, 49.73922], [6.172785, 49.73928], [6.17277, 49.73931], [6.172697, 49.73946], [6.172632, 49.739597], [6.172586, 49.73971], [6.172537, 49.739838], [6.172487, 49.739964], [6.17248, 49.73998], [6.1723, 49.740475], [6.172266, 49.74144], [6.172209, 49.742203], [6.172106, 49.743164], [6.172026, 49.743862], [6.171335, 49.74383], [6.171061, 49.743813], [6.170645, 49.743782], [6.170233, 49.743755], [6.169962, 49.743736], [6.169939, 49.743935], [6.16929, 49.743965], [6.168985, 49.743977], [6.168886, 49.74398], [6.168531, 49.74397], [6.168047, 49.743935], [6.167887, 49.743927], [6.167643, 49.743923], [6.167467, 49.74393], [6.167372, 49.743923], [6.166445, 49.74366], [6.165514, 49.743248], [6.16472, 49.743073], [6.164656, 49.743095], [6.164576, 49.74312], [6.164404, 49.74317], [6.164328, 49.743195], [6.164274, 49.74321], [6.164347, 49.743454], [6.163736, 49.743397], [6.163214, 49.743332], [6.163054, 49.74332], [6.162619, 49.743298], [6.162516, 49.743294], [6.162172, 49.743275], [6.16149, 49.743256], [6.160772, 49.74325], [6.160482, 49.74327], [6.160051, 49.743404], [6.159838, 49.743515], [6.159388, 49.743755], [6.159025, 49.74402], [6.158731, 49.744102], [6.158613, 49.744133], [6.158514, 49.744164], [6.158098, 49.74428], [6.157854, 49.744354], [6.157705, 49.744392], [6.157679, 49.744404], [6.157557, 49.74444], [6.157053, 49.744583], [6.156786, 49.74453], [6.156515, 49.744473], [6.156439, 49.744453], [6.156504, 49.744545], [6.156675, 49.744747], [6.15687, 49.74496], [6.156794, 49.74514], [6.156748, 49.745243], [6.156664, 49.745445], [6.156591, 49.745617], [6.156508, 49.74582], [6.156241, 49.746437], [6.156103, 49.746746], [6.156073, 49.746803], [6.156015, 49.746918], [6.156427, 49.747387], [6.156694, 49.7477], [6.156908, 49.74799], [6.157301, 49.74845], [6.157915, 49.74918], [6.157671, 49.74925], [6.157152, 49.749374], [6.157064, 49.74935], [6.157, 49.749363], [6.156878, 49.749382], [6.156668, 49.74939], [6.15642, 49.749405], [6.156229, 49.749447], [6.155962, 49.74954], [6.155966, 49.749603], [6.15597, 49.749626], [6.155989, 49.74964], [6.156015, 49.74965], [6.156053, 49.74966], [6.156073, 49.74967], [6.156088, 49.74968], [6.156107, 49.749695], [6.156122, 49.7497], [6.156202, 49.749714], [6.156233, 49.749725], [6.156248, 49.74974], [6.156263, 49.749752], [6.15629, 49.74976], [6.156317, 49.749763], [6.156328, 49.74977], [6.156347, 49.74979], [6.156374, 49.7498], [6.156404, 49.749813], [6.156443, 49.749825], [6.156477, 49.749847], [6.156538, 49.749878], [6.15663, 49.749916], [6.156691, 49.74994], [6.156759, 49.74997], [6.156794, 49.749992], [6.15682, 49.75002], [6.156858, 49.750065], [6.156889, 49.750095], [6.156916, 49.750114], [6.156954, 49.75013], [6.157007, 49.75015], [6.157232, 49.750225], [6.157446, 49.7503], [6.157553, 49.75034], [6.15761, 49.750366], [6.157751, 49.75044], [6.157831, 49.75048], [6.157885, 49.750504], [6.157907, 49.75051], [6.157934, 49.750515], [6.157953, 49.75052], [6.157972, 49.750526], [6.158014, 49.75055], [6.158041, 49.75056], [6.15806, 49.750565], [6.158087, 49.750565], [6.158133, 49.75057], [6.158163, 49.75058], [6.158197, 49.75059], [6.158216, 49.750603], [6.15827, 49.750618], [6.158319, 49.75063], [6.158365, 49.750656], [6.158392, 49.75067], [6.1584, 49.750683], [6.158403, 49.750694], [6.158407, 49.750713], [6.158411, 49.750748], [6.158419, 49.75077], [6.158438, 49.75079], [6.158472, 49.75081], [6.158506, 49.750835], [6.158564, 49.75086], [6.158583, 49.750874], [6.158598, 49.75091], [6.158609, 49.750927], [6.158636, 49.750946], [6.158644, 49.75096], [6.158655, 49.750977], [6.158693, 49.751], [6.158701, 49.75101], [6.158712, 49.751045], [6.158724, 49.75106], [6.158751, 49.751076], [6.158773, 49.751083], [6.158842, 49.7511], [6.158941, 49.75112], [6.158968, 49.751137], [6.158781, 49.751305], [6.158655, 49.75146], [6.158583, 49.751583], [6.158525, 49.751778], [6.158472, 49.752003], [6.158434, 49.752243], [6.158411, 49.752506], [6.158419, 49.752666], [6.158461, 49.752857], [6.158537, 49.75304], [6.158647, 49.7532], [6.158876, 49.753433], [6.158331, 49.753292], [6.157877, 49.753178], [6.157331, 49.753044], [6.15653, 49.75287], [6.156519, 49.752884], [6.155333, 49.752567], [6.155165, 49.75252], [6.1537, 49.752132], [6.152098, 49.751698], [6.15196, 49.75166], [6.150824, 49.751354], [6.14958, 49.75102], [6.149565, 49.75101], [6.149763, 49.750717], [6.14995, 49.750443], [6.150042, 49.750313], [6.150202, 49.75008], [6.150358, 49.74985], [6.150492, 49.749657], [6.150026, 49.749344], [6.149046, 49.74901], [6.148512, 49.748837], [6.148089, 49.74878], [6.14744, 49.74883], [6.146898, 49.749462], [6.146456, 49.750004], [6.146242, 49.75027], [6.146181, 49.750343], [6.145922, 49.750584], [6.1453, 49.751167], [6.145243, 49.751213], [6.14501, 49.75141], [6.144808, 49.751575], [6.144342, 49.751823], [6.143972, 49.752026], [6.143889, 49.75207], [6.143839, 49.7521], [6.143724, 49.752174], [6.143602, 49.75227], [6.143312, 49.752502], [6.142752, 49.752956], [6.141928, 49.75361], [6.141714, 49.75377], [6.141703, 49.753777]]]]}}]}