{"type": "FeatureCollection", "features": [{"type": "Feature", "properties": {"name": "Bilsdorf"}, "geometry": {"type": "Polygon", "coordinates": [[[5.8266093, 49.8670124], [5.8267478, 49.8668791], [5.8268055, 49.8668217], [5.8273362, 49.8662939], [5.8273468, 49.8662699], [5.8273739, 49.8662084], [5.8273931, 49.8661136], [5.8274013, 49.8659572], [5.8274016, 49.865915], [5.8273892, 49.8657859], [5.8273367, 49.8654752], [5.8273309, 49.8654455], [5.8271704, 49.8654336], [5.8270346, 49.8654115], [5.8269483, 49.8653896], [5.8267422, 49.8653262], [5.8265222, 49.8652319], [5.8263006, 49.8651125], [5.8261793, 49.8650379], [5.8260325, 49.8649496], [5.8259781, 49.8649083], [5.8259537, 49.864866], [5.8259576, 49.864818], [5.8259863, 49.8647405], [5.8260744, 49.8646414], [5.8261968, 49.864555], [5.8263103, 49.8644891], [5.8265669, 49.8644019], [5.8268216, 49.8643182], [5.8269766, 49.8642421], [5.8272424, 49.864099], [5.8277075, 49.8638618], [5.8280793, 49.8636916], [5.8282865, 49.8635986], [5.8283766, 49.8635595], [5.8286309, 49.8634209], [5.8287037, 49.8633595], [5.8287465, 49.8632968], [5.8287646, 49.8632352], [5.828747, 49.8630913], [5.8286902, 49.862889], [5.8286798, 49.8627348], [5.8287053, 49.8626242], [5.8287682, 49.8624588], [5.8288605, 49.8622638], [5.8289759, 49.8620369], [5.8291112, 49.8618752], [5.8291629, 49.861808], [5.8291704, 49.8617463], [5.8291578, 49.8616458], [5.829097, 49.8615086], [5.8290451, 49.8613646], [5.8290313, 49.8612093], [5.8290237, 49.8610528], [5.8290151, 49.8608781], [5.8290252, 49.8605778], [5.8290722, 49.8602811], [5.8291217, 49.8600266], [5.8291709, 49.8597995], [5.8292206, 49.8595165], [5.829243, 49.8593304], [5.8292763, 49.858988], [5.8292995, 49.8588202], [5.8293483, 49.8586662], [5.8294871, 49.8582426], [5.8309399, 49.8580908], [5.8307406, 49.8579202], [5.8296691, 49.8569664], [5.8288798, 49.8561556], [5.828397, 49.8557257], [5.8269463, 49.8543515], [5.8270093, 49.8540605], [5.8270156, 49.8539098], [5.82699, 49.8537551], [5.8269584, 49.853602], [5.826907, 49.8532616], [5.8268991, 49.853128], [5.8269398, 49.8527422], [5.8269829, 49.8527206], [5.8270835, 49.8526621], [5.8271938, 49.8525979], [5.8272575, 49.8525594], [5.8275019, 49.8524116], [5.8276643, 49.8523134], [5.8278044, 49.8522286], [5.8274081, 49.85199], [5.8275592, 49.8519152], [5.8276649, 49.8518628], [5.8278331, 49.8517648], [5.8278403, 49.8517606], [5.8279485, 49.8516912], [5.8279573, 49.8516856], [5.8280856, 49.851586], [5.8280922, 49.8515809], [5.8281467, 49.8515137], [5.8282181, 49.8514031], [5.8282679, 49.8513531], [5.8283441, 49.8513008], [5.8283256, 49.8512767], [5.8279967, 49.8509983], [5.8275065, 49.850555], [5.8268593, 49.8499136], [5.8268218, 49.8498839], [5.826847, 49.8496978], [5.8268871, 49.8495153], [5.8269222, 49.8494046], [5.8269652, 49.8493248], [5.8270079, 49.8492747], [5.8270735, 49.8492269], [5.8272081, 49.8491657], [5.8274002, 49.849076], [5.8277489, 49.8489218], [5.8279225, 49.8488321], [5.8281652, 49.8486923], [5.8284528, 49.8485097], [5.8286686, 49.8483594], [5.8289093, 49.8481856], [5.8291378, 49.8479943], [5.8292684, 49.8478692], [5.8295365, 49.8475431], [5.8295041, 49.8475295], [5.8292831, 49.8474272], [5.8288573, 49.8472302], [5.8283167, 49.8469835], [5.8277256, 49.8467214], [5.8272073, 49.8465201], [5.826691, 49.846297], [5.8265961, 49.8462658], [5.8264075, 49.8462037], [5.8261276, 49.8461138], [5.8257094, 49.8459824], [5.8256486, 49.8459636], [5.8253889, 49.8458833], [5.8251635, 49.8458221], [5.8245726, 49.8456792], [5.8245229, 49.8456672], [5.8243297, 49.8456154], [5.8240612, 49.8455434], [5.8238589, 49.8454892], [5.8236573, 49.8454352], [5.8224151, 49.8451666], [5.8223144, 49.8451503], [5.8219725, 49.8450945], [5.8218242, 49.8447298], [5.8217146, 49.8445091], [5.8215236, 49.8443224], [5.8213814, 49.8441062], [5.8208499, 49.8435291], [5.8204032, 49.8430722], [5.8202559, 49.8429553], [5.8196925, 49.8427403], [5.8191521, 49.8424269], [5.8184393, 49.8420503], [5.8177511, 49.8416874], [5.8168678, 49.8412326], [5.8165959, 49.8412534], [5.8163531, 49.8411614], [5.8159422, 49.8410014], [5.8156517, 49.8409195], [5.815405, 49.840873], [5.8150652, 49.8408431], [5.8148801, 49.8408151], [5.8148153, 49.84084], [5.8147166, 49.8408169], [5.8146444, 49.840803], [5.8145333, 49.8407878], [5.8139779, 49.8407404], [5.8138438, 49.8407332], [5.8137648, 49.8407393], [5.8138265, 49.8408023], [5.813954, 49.8409234], [5.8140154, 49.8409817], [5.8142612, 49.8412188], [5.8143157, 49.8412673], [5.8143765, 49.8413215], [5.8144701, 49.8413961], [5.8146016, 49.8415011], [5.8146976, 49.8415777], [5.8148332, 49.8416895], [5.8148798, 49.8417279], [5.8149318, 49.8417705], [5.8149923, 49.8418202], [5.8150354, 49.841865], [5.8150557, 49.841891], [5.8151365, 49.8419943], [5.8151962, 49.8420739], [5.8152335, 49.8421235], [5.8152565, 49.8421472], [5.8153223, 49.8422149], [5.8153695, 49.8422615], [5.815404, 49.8422945], [5.8154334, 49.8423227], [5.8155308, 49.8423943], [5.8156365, 49.8424737], [5.8157352, 49.842554], [5.8158032, 49.8426195], [5.8158407, 49.8426566], [5.8158651, 49.842689], [5.8158809, 49.84271], [5.8158961, 49.8427358], [5.8158945, 49.8427573], [5.8158803, 49.8427822], [5.815786, 49.8428705], [5.8157452, 49.8429099], [5.8157247, 49.8429418], [5.8156957, 49.8429871], [5.8156517, 49.8430686], [5.815609, 49.8431751], [5.8155895, 49.8432187], [5.8155749, 49.8432515], [5.8155382, 49.8432987], [5.8154803, 49.8433801], [5.8154731, 49.8434025], [5.8154594, 49.8435803], [5.8154577, 49.8436036], [5.8153149, 49.843664], [5.8152683, 49.8436838], [5.815197, 49.843732], [5.8151784, 49.8437446], [5.8150459, 49.843836], [5.81499, 49.8438746], [5.8149496, 49.8438976], [5.8148861, 49.8439336], [5.8148286, 49.8439558], [5.8147754, 49.843966], [5.814638, 49.8440111], [5.8146044, 49.8440187], [5.8142971, 49.8440447], [5.8140937, 49.8440619], [5.8139998, 49.8441316], [5.8139404, 49.8441757], [5.8138836, 49.8442276], [5.8138587, 49.8442503], [5.8138293, 49.8442809], [5.8138151, 49.8442957], [5.8137971, 49.8443253], [5.8137853, 49.8443446], [5.8137722, 49.844378], [5.8137522, 49.8444289], [5.8137397, 49.8444605], [5.8137166, 49.8445381], [5.8136941, 49.8446136], [5.8136867, 49.8446383], [5.8136611, 49.8447027], [5.8136522, 49.8447379], [5.8136423, 49.8447774], [5.8136319, 49.8448496], [5.8136232, 49.8449097], [5.8136101, 49.8449674], [5.8135986, 49.845018], [5.8135747, 49.8450883], [5.813566, 49.8451142], [5.8135543, 49.8451485], [5.8134883, 49.8452874], [5.8134634, 49.8453399], [5.8135248, 49.8453616], [5.8134961, 49.8454369], [5.8134777, 49.8454852], [5.813192, 49.8457379], [5.8130581, 49.8458776], [5.8129748, 49.845978], [5.8129483, 49.8460168], [5.8129126, 49.8460689], [5.8128814, 49.8461315], [5.8128571, 49.8462019], [5.8128469, 49.8462655], [5.8128419, 49.8463394], [5.812839, 49.8463824], [5.8128441, 49.8464478], [5.8128603, 49.8465329], [5.8128849, 49.8466043], [5.8128889, 49.846631], [5.8128242, 49.8466832], [5.8128703, 49.8466988], [5.8129037, 49.8467178], [5.8129454, 49.8467575], [5.8130465, 49.8468833], [5.8130867, 49.8469419], [5.8130866, 49.8469548], [5.8130655, 49.8469607], [5.8130153, 49.846952], [5.8129636, 49.8469372], [5.8129273, 49.8469371], [5.8128964, 49.8469447], [5.8128782, 49.846955], [5.8128711, 49.8469696], [5.8128791, 49.8470177], [5.8129067, 49.8470702], [5.8129453, 49.8471452], [5.8129769, 49.8472312], [5.8129861, 49.8473052], [5.8129844, 49.8473524], [5.8129672, 49.8474031], [5.8129219, 49.8474812], [5.8128936, 49.8475189], [5.8128609, 49.8475591], [5.8128118, 49.8476193], [5.8126949, 49.8477483], [5.8126285, 49.8478216], [5.8125692, 49.8478962], [5.8124774, 49.8480283], [5.8124565, 49.8480631], [5.8124009, 49.8481561], [5.8123541, 49.8482462], [5.8123242, 49.8483209], [5.8122534, 49.8484953], [5.8122458, 49.8485141], [5.8120929, 49.848579], [5.8120704, 49.8485952], [5.8120379, 49.8486433], [5.8120335, 49.8486622], [5.8120655, 49.8486932], [5.8121168, 49.8487544], [5.81215, 49.8488044], [5.8121678, 49.8488569], [5.8121633, 49.8488895], [5.8121491, 49.8489204], [5.81207, 49.8490371], [5.8120032, 49.8491223], [5.8119237, 49.8492238], [5.8118803, 49.8492774], [5.8117623, 49.8494195], [5.8117208, 49.8494604], [5.8116763, 49.8495043], [5.8115735, 49.8496055], [5.8114651, 49.8497014], [5.8113962, 49.8497519], [5.8113455, 49.8497973], [5.8112467, 49.8499062], [5.811165, 49.8499962], [5.8111063, 49.8500561], [5.8110903, 49.8500724], [5.8110087, 49.8501461], [5.8109524, 49.8501872], [5.8108484, 49.8502565], [5.810809, 49.8502916], [5.8107639, 49.8503448], [5.8106819, 49.850464], [5.810655, 49.8505044], [5.8106144, 49.8505655], [5.8105833, 49.8506123], [5.8105447, 49.8506703], [5.8105036, 49.8507321], [5.8104782, 49.8507703], [5.8106781, 49.8507812], [5.8106139, 49.8509521], [5.8105998, 49.8509957], [5.8105825, 49.8510491], [5.8105536, 49.8511703], [5.8105515, 49.851184], [5.8105433, 49.8512364], [5.8105272, 49.8513404], [5.8105154, 49.8514229], [5.8105108, 49.8514787], [5.8104984, 49.8516326], [5.8104881, 49.8517332], [5.8104698, 49.8519111], [5.8104608, 49.8519986], [5.8104503, 49.8520906], [5.810455, 49.8522109], [5.8104564, 49.8522745], [5.8104571, 49.8523055], [5.8104597, 49.8523279], [5.8104806, 49.8523477], [5.81056, 49.8523875], [5.8106368, 49.8524092], [5.8107513, 49.8524311], [5.8107422, 49.8525728], [5.8107379, 49.8526399], [5.8107292, 49.8527765], [5.8106997, 49.853177], [5.8106866, 49.8534392], [5.8106726, 49.8536188], [5.8106636, 49.8537039], [5.8106459, 49.8538319], [5.8106412, 49.8538963], [5.8106465, 49.8539393], [5.8106698, 49.8540125], [5.8107345, 49.8541545], [5.8107523, 49.8542001], [5.8107743, 49.85425], [5.8107893, 49.8543059], [5.8107945, 49.854355], [5.8107854, 49.8544555], [5.8107906, 49.8545054], [5.8108055, 49.8545647], [5.810855, 49.8546869], [5.8109541, 49.8549064], [5.8110368, 49.8550778], [5.8110601, 49.8551414], [5.8110682, 49.8551827], [5.8110623, 49.8552222], [5.811032, 49.8553485], [5.8110119, 49.8554321], [5.8109974, 49.8554928], [5.8110379, 49.855499], [5.8110219, 49.8555814], [5.8109978, 49.8556329], [5.8109638, 49.8556775], [5.8109202, 49.8557126], [5.8108528, 49.8557511], [5.810572, 49.8558912], [5.8102252, 49.8560604], [5.8095922, 49.8563541], [5.8094181, 49.8564387], [5.8092861, 49.8565165], [5.8090709, 49.856668], [5.8088038, 49.8568528], [5.8086, 49.8569811], [5.808229, 49.8572018], [5.8079285, 49.8573642], [5.8072773, 49.857732], [5.8071231, 49.857823], [5.8070707, 49.8578467], [5.8070358, 49.8578626], [5.806985, 49.8578809], [5.806893, 49.8579078], [5.8068169, 49.8579193], [5.8067805, 49.8579211], [5.8067441, 49.8579181], [5.8066572, 49.8578954], [5.8065436, 49.8578571], [5.806634, 49.8580471], [5.8063562, 49.8581513], [5.8064222, 49.8582127], [5.806485, 49.8582859], [5.8065131, 49.8583336], [5.8065472, 49.8584242], [5.8065624, 49.8585185], [5.8065634, 49.8585954], [5.8065644, 49.8586674], [5.8065751, 49.858717], [5.8066846, 49.8588895], [5.8067345, 49.8589976], [5.8067592, 49.8590842], [5.8067605, 49.8591241], [5.806742, 49.8592699], [5.8067382, 49.8593565], [5.8067433, 49.8595121], [5.8067294, 49.8596813], [5.8066951, 49.8599137], [5.8066844, 49.8599865], [5.8066671, 49.860181], [5.8066433, 49.8601897], [5.8066523, 49.8602529], [5.8066677, 49.8603231], [5.8066918, 49.8604335], [5.8066982, 49.8604631], [5.8067427, 49.8605866], [5.806776, 49.8606792], [5.8068626, 49.8609198], [5.806812, 49.8609206], [5.8068496, 49.8611745], [5.8068785, 49.8613419], [5.806895, 49.8614237], [5.806909, 49.8614928], [5.8069223, 49.861538], [5.8069566, 49.8616544], [5.8069877, 49.8617605], [5.8070055, 49.8618186], [5.8070526, 49.8619721], [5.8070974, 49.8621187], [5.8071291, 49.8621217], [5.8071313, 49.8621384], [5.8071471, 49.8622579], [5.8071577, 49.8623163], [5.8071657, 49.8623409], [5.8071732, 49.862364], [5.8072122, 49.8624322], [5.8072278, 49.8624731], [5.8072321, 49.8625218], [5.8072351, 49.8625579], [5.8072365, 49.8625743], [5.807245, 49.8625957], [5.8072601, 49.8626334], [5.8072707, 49.86266], [5.8072846, 49.8627019], [5.8072937, 49.8627972], [5.8072964, 49.8628254], [5.8072983, 49.8628779], [5.8073008, 49.862949], [5.8073055, 49.8630822], [5.8073087, 49.8631863], [5.8073095, 49.8632134], [5.8073106, 49.8632495], [5.8073031, 49.8634177], [5.8073011, 49.8634615], [5.8072985, 49.8634896], [5.8072942, 49.8635363], [5.807292, 49.8635693], [5.8072907, 49.8635898], [5.8072821, 49.8636193], [5.8072728, 49.863651], [5.8072596, 49.8636864], [5.8072438, 49.8637287], [5.8072272, 49.8637636], [5.8071955, 49.8638307], [5.8071571, 49.8638909], [5.807122, 49.8639239], [5.8070294, 49.8639836], [5.8069359, 49.8640439], [5.8067578, 49.8641503], [5.8065703, 49.864245], [5.8064585, 49.86429], [5.8063449, 49.8643358], [5.8061996, 49.8643787], [5.8060755, 49.8643981], [5.8061276, 49.8645045], [5.8061634, 49.8646793], [5.8061669, 49.8649122], [5.8061301, 49.8652444], [5.8061369, 49.8657411], [5.8062042, 49.8659537], [5.806288, 49.8660875], [5.8063789, 49.8663173], [5.8066303, 49.8666881], [5.8068092, 49.8668462], [5.8071369, 49.8669363], [5.8074593, 49.8670332], [5.8076014, 49.8671467], [5.8076585, 49.8673044], [5.807805, 49.8679009], [5.8078779, 49.8680758], [5.8080627, 49.8681483], [5.8082899, 49.8682141], [5.808565, 49.8682629], [5.8092215, 49.8682889], [5.8096926, 49.8683315], [5.8103192, 49.8684601], [5.8109697, 49.8685957], [5.8115414, 49.8686352], [5.8124057, 49.8686149], [5.8124465, 49.8686128], [5.8129033, 49.8685297], [5.8147006, 49.868268], [5.8157501, 49.8681582], [5.817703, 49.8679517], [5.8183066, 49.8678815], [5.8189495, 49.8677727], [5.8196947, 49.8676948], [5.8204789, 49.8676424], [5.8212108, 49.8675041], [5.8218217, 49.8672387], [5.8222759, 49.8670483], [5.822934, 49.8668584], [5.8236134, 49.8666412], [5.8238683, 49.8665392], [5.8241024, 49.8663994], [5.8242774, 49.8663657], [5.8245262, 49.8663733], [5.8249016, 49.8664566], [5.8252266, 49.8665603], [5.8259928, 49.8668092], [5.8266093, 49.8670124]]]}}]}