{"type": "FeatureCollection", "features": [{"type": "Feature", "properties": {"name": "Folschette"}, "geometry": {"type": "Polygon", "coordinates": [[[5.9020518, 49.811504], [5.9018491, 49.8110435], [5.9017485, 49.8108141], [5.9017445, 49.8108044], [5.901919, 49.8108177], [5.9020754, 49.810817], [5.9022228, 49.8108034], [5.9023284, 49.8107811], [5.9024286, 49.8107471], [5.9025343, 49.8106992], [5.9025945, 49.8106811], [5.9026509, 49.8106716], [5.9027509, 49.8106686], [5.902851, 49.8106646], [5.902921, 49.8106551], [5.903023, 49.8106307], [5.9030831, 49.8106105], [5.9031123, 49.8105913], [5.903127, 49.8105732], [5.9031271, 49.8105411], [5.9031309, 49.8105197], [5.9031437, 49.8105058], [5.9032787, 49.8104354], [5.9033699, 49.8103821], [5.9034191, 49.810364], [5.9034846, 49.8103642], [5.9035173, 49.8103589], [5.9035701, 49.8103451], [5.9035956, 49.8103473], [5.9036082, 49.8103623], [5.9036133, 49.8104223], [5.9036314, 49.8104491], [5.9036695, 49.8104641], [5.9037295, 49.8104664], [5.9037732, 49.8104505], [5.9038262, 49.8104163], [5.9038789, 49.8104122], [5.9039552, 49.8104284], [5.9039943, 49.8104349], [5.904058, 49.8104286], [5.9041417, 49.8104074], [5.9042381, 49.8103991], [5.9042873, 49.8103863], [5.9043348, 49.8103543], [5.904364, 49.8103234], [5.9044024, 49.8102978], [5.904417, 49.8102764], [5.9044099, 49.8102507], [5.9044046, 49.8102293], [5.904421, 49.81021], [5.9044758, 49.810177], [5.9044868, 49.8101609], [5.9044887, 49.8101342], [5.9044726, 49.8100935], [5.9044872, 49.8100807], [5.9045199, 49.8100818], [5.9045943, 49.8101066], [5.9046307, 49.8101077], [5.9046617, 49.8100982], [5.9046745, 49.8100854], [5.9046792, 49.8100458], [5.9046848, 49.8100222], [5.9047086, 49.8100052], [5.904858, 49.8099423], [5.9049327, 49.809919], [5.9049745, 49.8099158], [5.9050091, 49.8099234], [5.905067, 49.8099653], [5.9051015, 49.8099793], [5.9052014, 49.8100084], [5.9052231, 49.810017], [5.9052523, 49.810016], [5.9052833, 49.81], [5.9053106, 49.8099776], [5.9053434, 49.8099659], [5.9053944, 49.8099628], [5.9054326, 49.8099543], [5.9054491, 49.8099405], [5.9054821, 49.8098913], [5.9055058, 49.8098796], [5.9055385, 49.8098711], [5.9056003, 49.8098766], [5.9056476, 49.8098788], [5.9056822, 49.8098725], [5.9057168, 49.8098565], [5.9057351, 49.8098416], [5.905738, 49.8098148], [5.9057272, 49.8097934], [5.9057054, 49.8097837], [5.9056491, 49.8097825], [5.9056182, 49.8097771], [5.9055928, 49.8097631], [5.9055802, 49.8097406], [5.9055895, 49.8097064], [5.9056132, 49.8096775], [5.9056479, 49.8096562], [5.9057008, 49.8096349], [5.9059066, 49.8095679], [5.9059111, 49.8095213], [5.9059026, 49.8094887], [5.9058967, 49.8094473], [5.9058929, 49.8094203], [5.9059044, 49.8093906], [5.9059274, 49.809349], [5.9059751, 49.809277], [5.9059956, 49.8092317], [5.9060072, 49.8091745], [5.906, 49.8091202], [5.9059799, 49.8090964], [5.9058791, 49.8090404], [5.9058533, 49.8090418], [5.9057553, 49.8090439], [5.9057295, 49.8090445], [5.9057049, 49.8090462], [5.9056272, 49.8090517], [5.905569, 49.8090583], [5.90554, 49.8090641], [5.9055197, 49.8090745], [5.9055006, 49.8091012], [5.9054829, 49.8091138], [5.905455, 49.8091182], [5.9054311, 49.8091159], [5.9053983, 49.8091017], [5.9053643, 49.8090831], [5.9053441, 49.8090815], [5.9053226, 49.8090882], [5.9052972, 49.8091097], [5.9052756, 49.8091349], [5.9052503, 49.8091438], [5.9052263, 49.8091459], [5.905196, 49.8091422], [5.9051645, 49.8091294], [5.9051242, 49.8091078], [5.9050494, 49.8090608], [5.9050387, 49.8090533], [5.9048927, 49.8091779], [5.9048306, 49.8092194], [5.9047851, 49.8092408], [5.9047396, 49.8092459], [5.904703, 49.8092421], [5.9046689, 49.8092317], [5.9045941, 49.8091809], [5.9045525, 49.80916], [5.9045121, 49.809157], [5.9044767, 49.8091621], [5.9044401, 49.8091702], [5.9044135, 49.8091701], [5.9043883, 49.8091611], [5.9043619, 49.8091395], [5.9043216, 49.8091157], [5.9042587, 49.8090843], [5.9042373, 49.8090642], [5.90424, 49.8090419], [5.9042439, 49.8090077], [5.9042415, 49.8089936], [5.90422, 49.8089883], [5.9041683, 49.8089867], [5.9041367, 49.8089814], [5.9041204, 49.8089717], [5.9041116, 49.8089524], [5.9041206, 49.8089279], [5.904134, 49.8089041], [5.9041392, 49.8088789], [5.9041243, 49.8088246], [5.9040955, 49.8087777], [5.9040578, 49.8087575], [5.9040086, 49.8087329], [5.9039658, 49.808709], [5.9039344, 49.8086851], [5.9039041, 49.8086732], [5.9038814, 49.8086739], [5.9038561, 49.8086894], [5.9038407, 49.8087303], [5.9038329, 49.8087719], [5.9038113, 49.8087949], [5.9037872, 49.808806], [5.9037557, 49.8088081], [5.9037279, 49.8088028], [5.9037103, 49.8087931], [5.9036952, 49.808776], [5.9037004, 49.808747], [5.9037272, 49.8087032], [5.9037362, 49.8086758], [5.9037312, 49.8086572], [5.9037098, 49.8086467], [5.9036896, 49.8086452], [5.9036631, 49.8086518], [5.9036428, 49.8086622], [5.9036098, 49.8086896], [5.9035933, 49.8087066], [5.9035769, 49.8087111], [5.9035377, 49.8087088], [5.9035125, 49.808708], [5.9034695, 49.8087123], [5.9034449, 49.8087152], [5.9034095, 49.80871], [5.9033881, 49.808698], [5.903368, 49.8086749], [5.9033594, 49.8086429], [5.9033394, 49.8085946], [5.9033358, 49.808573], [5.9033447, 49.8085567], [5.9033713, 49.8085344], [5.9033803, 49.8085166], [5.9033829, 49.8084995], [5.903364, 49.8084824], [5.90333, 49.8084645], [5.9032979, 49.8084547], [5.9032374, 49.8084405], [5.9031086, 49.8084253], [5.9030317, 49.808414], [5.9029976, 49.8084042], [5.902975, 49.8083893], [5.9029625, 49.808361], [5.9029565, 49.8082964], [5.9029415, 49.8082703], [5.9029188, 49.8082576], [5.9028482, 49.8082426], [5.9028054, 49.8082276], [5.9027789, 49.808209], [5.9027657, 49.8081941], [5.9027432, 49.8081539], [5.9027219, 49.808133], [5.9026778, 49.8081158], [5.9026008, 49.8081008], [5.902515, 49.8080947], [5.902438, 49.8080833], [5.9024052, 49.8080751], [5.9023561, 49.8080534], [5.9023209, 49.8080147], [5.9022872, 49.8079574], [5.902252, 49.8079313], [5.9022174, 49.8079074], [5.9021795, 49.8078939], [5.902143, 49.8078864], [5.9021127, 49.8078841], [5.9020924, 49.80789], [5.9020709, 49.8078959], [5.9020549, 49.8078942], [5.9020285, 49.8078896], [5.9018477, 49.8078578], [5.9016233, 49.8078059], [5.9014097, 49.8077514], [5.9012115, 49.8076778], [5.9009819, 49.8075852], [5.9008518, 49.8075368], [5.9007267, 49.8075022], [5.9006139, 49.807478], [5.9005364, 49.8074675], [5.9004782, 49.8074571], [5.9003549, 49.8074225], [5.9002192, 49.8073834], [5.9000729, 49.8073625], [5.8999018, 49.8073564], [5.8998136, 49.807347], [5.8997326, 49.8073286], [5.899648, 49.8073055], [5.899611, 49.8072997], [5.8994629, 49.8072914], [5.8994153, 49.8072844], [5.8993836, 49.8072661], [5.8993274, 49.8072214], [5.8992467, 49.8071423], [5.8992027, 49.8071205], [5.8990636, 49.8070631], [5.898921, 49.8070102], [5.8987818, 49.8069779], [5.8986744, 49.8069365], [5.8985459, 49.8068779], [5.898472, 49.8068458], [5.8983364, 49.8067975], [5.8981166, 49.8066715], [5.8980586, 49.8066325], [5.8979653, 49.8065946], [5.8978437, 49.8065658], [5.8977926, 49.8065496], [5.8976906, 49.806498], [5.8975708, 49.8064589], [5.8974856, 49.8064396], [5.8974281, 49.8064265], [5.8972977, 49.8063908], [5.8972132, 49.8063575], [5.8971236, 49.8062944], [5.8970587, 49.806236], [5.8969603, 49.8061649], [5.8969516, 49.8061272], [5.8969451, 49.8060415], [5.8969189, 49.805982], [5.896902, 49.8059344], [5.8965053, 49.806117], [5.8964947, 49.8061227], [5.896514, 49.8061479], [5.8965402, 49.8061868], [5.8965524, 49.8062154], [5.8965682, 49.8062314], [5.8965911, 49.8062452], [5.8966333, 49.8062624], [5.8966562, 49.8062739], [5.8966808, 49.8062946], [5.8967123, 49.8063323], [5.8967246, 49.8063461], [5.8967457, 49.8063667], [5.8968765, 49.8064908], [5.8970475, 49.806653], [5.8965571, 49.8069535], [5.8963238, 49.8067897], [5.8960984, 49.8066314], [5.8956809, 49.806293], [5.8956014, 49.8062292], [5.8955471, 49.8061662], [5.8955016, 49.806101], [5.8954369, 49.8059957], [5.8953705, 49.8058699], [5.8953044, 49.8057098], [5.8952887, 49.8056789], [5.8952503, 49.8056091], [5.8951942, 49.805537], [5.895005, 49.8053057], [5.8949279, 49.8052119], [5.8949568, 49.8050607], [5.8950024, 49.8048224], [5.8950498, 49.8045494], [5.895072, 49.8043598], [5.8950256, 49.8041335], [5.8949343, 49.8037505], [5.8947836, 49.8032463], [5.8947472, 49.803132], [5.89473, 49.8030675], [5.8946917, 49.80296], [5.8946586, 49.8028948], [5.8945851, 49.8027941], [5.8944677, 49.8026396], [5.8943958, 49.8025663], [5.894294, 49.8024815], [5.8941849, 49.8024207], [5.8939401, 49.8023504], [5.8937903, 49.8023203], [5.8937181, 49.8022985], [5.893653, 49.8022709], [5.8935932, 49.8022365], [5.8935458, 49.8021941], [5.8935038, 49.8021414], [5.8934704, 49.8021185], [5.8932961, 49.8020609], [5.893164, 49.8020172], [5.8931006, 49.8019931], [5.8930162, 49.8019426], [5.8929371, 49.8019013], [5.8928192, 49.8018507], [5.892747, 49.8018186], [5.8927102, 49.8017865], [5.8926927, 49.8017544], [5.8926578, 49.8016927], [5.8926227, 49.8016537], [5.8925771, 49.8016114], [5.892505, 49.8015609], [5.892403, 49.801507], [5.8922165, 49.8014277], [5.8921074, 49.8013783], [5.8920229, 49.801337], [5.8919385, 49.8012899], [5.8918876, 49.8012464], [5.8918578, 49.8012211], [5.8917996, 49.801205], [5.89153, 49.8011575], [5.8915089, 49.8011449], [5.8915002, 49.8011277], [5.8914985, 49.8011106], [5.8914863, 49.8010969], [5.8914598, 49.8010899], [5.8913945, 49.8010944], [5.8912604, 49.8011078], [5.8912145, 49.8011099], [5.8911104, 49.8011085], [5.8910012, 49.80109], [5.8909202, 49.8010601], [5.8908974, 49.8010372], [5.8908343, 49.8009639], [5.8907992, 49.8009296], [5.8907711, 49.8009078], [5.8906919, 49.8008687], [5.8906287, 49.8008297], [5.8905865, 49.8007988], [5.8904796, 49.8006763], [5.8904182, 49.8006133], [5.8903743, 49.8005801], [5.89026, 49.8005101], [5.8901809, 49.8004562], [5.8900795, 49.8003006], [5.8900515, 49.8002708], [5.8900286, 49.8002525], [5.8899987, 49.8002364], [5.8899618, 49.8002203], [5.8898861, 49.8001938], [5.8898105, 49.8001525], [5.8897491, 49.8000884], [5.8897088, 49.8000415], [5.8896595, 49.8000139], [5.8896049, 49.8000012], [5.889524, 49.7999707], [5.8893039, 49.7998936], [5.8890239, 49.7998026], [5.888927, 49.7997853], [5.888624, 49.7997114], [5.888432, 49.7996618], [5.8882753, 49.7996169], [5.8881221, 49.7995674], [5.8879954, 49.7995134], [5.8880043, 49.7994986], [5.8881026, 49.7992749], [5.8871899, 49.799085], [5.8871509, 49.7990768], [5.8870134, 49.7990668], [5.8868652, 49.7990584], [5.8867277, 49.7990455], [5.8865832, 49.7990258], [5.8864263, 49.7990094], [5.8863204, 49.7990057], [5.8862481, 49.7990101], [5.886151, 49.7990287], [5.8859585, 49.7990591], [5.8858366, 49.7990839], [5.8857572, 49.7990952], [5.8856831, 49.7991053], [5.8856283, 49.7991097], [5.8855825, 49.7991119], [5.8855472, 49.7991107], [5.8854961, 49.7990974], [5.8852414, 49.7992088], [5.8850275, 49.7992894], [5.8847358, 49.799404], [5.8846066, 49.79947], [5.8845305, 49.7995235], [5.884486, 49.7995857], [5.8844202, 49.7996815], [5.8843527, 49.7997613], [5.8842622, 49.7998434], [5.8841703, 49.7998797], [5.8840518, 49.799928], [5.8839174, 49.7999825], [5.883776, 49.8000301], [5.8835621, 49.8001119], [5.8834648, 49.8001562], [5.8833266, 49.8002661], [5.8832414, 49.8003505], [5.8830607, 49.8004837], [5.8829509, 49.8005577], [5.8828713, 49.8005935], [5.8827618, 49.8006218], [5.8826664, 49.8006376], [5.8825623, 49.8006464], [5.8824458, 49.8006587], [5.8823415, 49.8006893], [5.882292, 49.8007052], [5.8822195, 49.8007324], [5.8821453, 49.8007563], [5.8820162, 49.8008119], [5.8819457, 49.8008072], [5.8818061, 49.8008451], [5.8815695, 49.80088], [5.8814418, 49.8009962], [5.8811803, 49.8010687], [5.8809312, 49.8011337], [5.8808109, 49.8011792], [5.8806306, 49.801253], [5.8806129, 49.8012564], [5.880521, 49.801287], [5.8804838, 49.8013017], [5.8803563, 49.8013951], [5.8802273, 49.8014325], [5.8801599, 49.8014946], [5.880041, 49.8016017], [5.8800145, 49.8016188], [5.8799188, 49.8016848], [5.8798373, 49.801752], [5.8797788, 49.8017919], [5.8797027, 49.8018334], [5.8796389, 49.8018858], [5.8795716, 49.8019348], [5.8795255, 49.8019724], [5.8795041, 49.8020043], [5.8794916, 49.8020294], [5.8794789, 49.8020877], [5.8794521, 49.802159], [5.8794414, 49.8021795], [5.8794058, 49.8022309], [5.8793649, 49.8022799], [5.8793133, 49.8023529], [5.879283, 49.8024088], [5.8792633, 49.8024613], [5.8792521, 49.802567], [5.8792486, 49.8025788], [5.8792251, 49.8026583], [5.8791804, 49.802745], [5.879093, 49.8029042], [5.8790003, 49.8030777], [5.879009, 49.8030937], [5.8790018, 49.8031154], [5.8789752, 49.8031336], [5.8789381, 49.8031506], [5.8788674, 49.8031722], [5.8788827, 49.8032665], [5.8788887, 49.8033915], [5.878889, 49.8033979], [5.8788975, 49.8034448], [5.8789287, 49.8035425], [5.878968, 49.8037586], [5.8789661, 49.8037894], [5.8789303, 49.8038625], [5.8789231, 49.8038973], [5.878928, 49.8039521], [5.8789242, 49.8040001], [5.8789062, 49.8040641], [5.8788864, 49.804128], [5.8789464, 49.8041293], [5.8790568, 49.8045563], [5.8789703, 49.8046884], [5.8791982, 49.804802], [5.8792468, 49.8048261], [5.8794346, 49.8049197], [5.8794205, 49.8049483], [5.8791601, 49.8054029], [5.8789284, 49.805796], [5.8787947, 49.8060179], [5.8788005, 49.8060213], [5.8789688, 49.80612], [5.8792693, 49.8063224], [5.8795662, 49.8065414], [5.8797453, 49.8066749], [5.8799456, 49.806824], [5.8801142, 49.8069529], [5.8801528, 49.806985], [5.8802836, 49.8070714], [5.880441, 49.8071754], [5.8805439, 49.8072433], [5.88097, 49.8075246], [5.8811618, 49.8076524], [5.8813408, 49.8077718], [5.8812841, 49.8078164], [5.8811336, 49.8079109], [5.880969, 49.8079996], [5.8807939, 49.8080757], [5.8805321, 49.8081802], [5.880219, 49.8083228], [5.8799925, 49.8084365], [5.8797535, 49.8085639], [5.879373, 49.8087726], [5.8791658, 49.8088967], [5.8788558, 49.8091101], [5.8786484, 49.8092627], [5.8785421, 49.809336], [5.8784872, 49.8093737], [5.8784288, 49.8094256], [5.8784038, 49.8094478], [5.8780259, 49.8097982], [5.8780642, 49.8098891], [5.8780958, 49.8099218], [5.8779925, 49.8100809], [5.8779299, 49.8102179], [5.8778904, 49.8103377], [5.8778739, 49.8104411], [5.8778627, 49.8105416], [5.877871, 49.8106376], [5.877876, 49.8106822], [5.8778353, 49.8106941], [5.8772276, 49.8108254], [5.8768177, 49.8109192], [5.8763246, 49.8110408], [5.8761461, 49.8110883], [5.8758546, 49.8111527], [5.8758477, 49.811154], [5.8755561, 49.8112085], [5.8753213, 49.8112482], [5.8748758, 49.8113171], [5.8744696, 49.811377], [5.8744734, 49.8112581], [5.8741919, 49.8112771], [5.8740349, 49.8112877], [5.8738129, 49.8113028], [5.8734478, 49.8113274], [5.8731062, 49.8115554], [5.8725675, 49.8115999], [5.8720004, 49.8116408], [5.8719476, 49.8116187], [5.8718302, 49.8116574], [5.8716323, 49.8117129], [5.8714023, 49.8117798], [5.8714696, 49.8118253], [5.8714289, 49.8118455], [5.8713974, 49.8118268], [5.8710419, 49.8119318], [5.8707606, 49.81202], [5.8704948, 49.8120922], [5.870181, 49.8121765], [5.8700303, 49.8122182], [5.8699681, 49.8122382], [5.8702007, 49.8123496], [5.8703384, 49.8124149], [5.8701102, 49.812763], [5.8700902, 49.8127569], [5.8698687, 49.8130241], [5.8696488, 49.8132873], [5.8695276, 49.8134249], [5.8692675, 49.813687], [5.8689378, 49.8139948], [5.8688835, 49.8140437], [5.8685629, 49.8143586], [5.8682439, 49.8146725], [5.8679482, 49.8149624], [5.867791, 49.8151292], [5.867663, 49.8152698], [5.8675238, 49.8154227], [5.8674553, 49.815485], [5.8672553, 49.8156085], [5.8670089, 49.8157483], [5.8667923, 49.8158575], [5.8665188, 49.8159929], [5.8664183, 49.8159399], [5.8658527, 49.8163186], [5.865524, 49.8165415], [5.8652753, 49.8167208], [5.8649471, 49.8169589], [5.86483, 49.8170443], [5.8648978, 49.8170871], [5.8649587, 49.8171317], [5.8653464, 49.8173961], [5.8653734, 49.8174129], [5.8647923, 49.8177027], [5.864442, 49.8178527], [5.8641481, 49.818025], [5.8638508, 49.8182328], [5.8636089, 49.8183615], [5.8633577, 49.8184684], [5.8630417, 49.8186768], [5.8628183, 49.8188128], [5.8625582, 49.8189321], [5.8621289, 49.8191132], [5.8616502, 49.8193075], [5.8612475, 49.8194749], [5.8610068, 49.8195759], [5.8608865, 49.8196362], [5.8607411, 49.8197329], [5.8603352, 49.8200101], [5.8603915, 49.8200285], [5.8608316, 49.8202176], [5.8613104, 49.8204142], [5.8614494, 49.8204786], [5.8615743, 49.8205446], [5.8618256, 49.8207064], [5.8619874, 49.8208039], [5.8620929, 49.8208636], [5.8622108, 49.8209216], [5.8623199, 49.8209676], [5.8625734, 49.8210746], [5.8630784, 49.8213027], [5.8633675, 49.8213686], [5.8632436, 49.821422], [5.8630471, 49.8215243], [5.8628292, 49.8216545], [5.8627777, 49.8216978], [5.8629376, 49.8218056], [5.8632979, 49.822054], [5.8633998, 49.8221274], [5.8634892, 49.8222144], [5.863654, 49.8223903], [5.8637452, 49.8224922], [5.8638029, 49.8225678], [5.863894, 49.8226851], [5.8639791, 49.8227974], [5.8639938, 49.8228168], [5.8640637, 49.8229175], [5.8641319, 49.8230256], [5.8641738, 49.8231012], [5.8641963, 49.8231709], [5.8642114, 49.8232887], [5.8643031, 49.8233006], [5.864386, 49.8233076], [5.8645006, 49.8233354], [5.8646609, 49.8233872], [5.8647524, 49.8234194], [5.8649866, 49.8235103], [5.8653563, 49.8236581], [5.8655271, 49.8237259], [5.8657102, 49.8237893], [5.8662847, 49.8239342], [5.8665825, 49.8240058], [5.8667852, 49.8240474], [5.8667863, 49.8240476], [5.8669492, 49.8240713], [5.8671203, 49.8240877], [5.8673479, 49.82411], [5.8676477, 49.8241416], [5.8678258, 49.824165], [5.8679297, 49.8242041], [5.8679755, 49.8242202], [5.8684101, 49.8244401], [5.8685993, 49.8243806], [5.8688768, 49.824315], [5.8688913, 49.8243124], [5.86911, 49.8242722], [5.8693397, 49.8242323], [5.8695076, 49.8242064], [5.8695359, 49.8242052], [5.8696876, 49.8241989], [5.8698519, 49.8241856], [5.869995, 49.8241585], [5.8704226, 49.8240768], [5.8709368, 49.8239798], [5.8711524, 49.8239387], [5.8711653, 49.8239525], [5.8712365, 49.8240288], [5.8712716, 49.8240664], [5.8713754, 49.8241919], [5.8714713, 49.824308], [5.8712339, 49.8244513], [5.8711703, 49.8244717], [5.8714895, 49.8245183], [5.8719356, 49.8245834], [5.8721847, 49.8246206], [5.8725157, 49.82467], [5.872916, 49.8247281], [5.8733921, 49.8248019], [5.8739687, 49.8248879], [5.8744607, 49.8249606], [5.8744731, 49.8249617], [5.8745866, 49.8248649], [5.8746186, 49.8248364], [5.8746416, 49.8248228], [5.8746876, 49.8248046], [5.8747813, 49.8247786], [5.8748873, 49.824756], [5.8749686, 49.8247447], [5.8750269, 49.8247369], [5.8750296, 49.8247459], [5.8753105, 49.8249831], [5.8755314, 49.8249437], [5.8756744, 49.8249309], [5.8758703, 49.824928], [5.8760398, 49.8249204], [5.8762729, 49.824897], [5.8763591, 49.8249463], [5.8767126, 49.8251672], [5.87806, 49.8259852], [5.8791804, 49.8266653], [5.8792679, 49.8267184], [5.8792695, 49.8267401], [5.8793662, 49.826702], [5.8795207, 49.8266413], [5.8797295, 49.826555], [5.8798816, 49.8265028], [5.8801327, 49.8264189], [5.8805837, 49.8262743], [5.8806397, 49.8262581], [5.8807641, 49.8262039], [5.8808403, 49.8261607], [5.8808864, 49.8261276], [5.8809456, 49.8260761], [5.8809786, 49.8260473], [5.8811436, 49.825898], [5.8812395, 49.8258114], [5.8813369, 49.8257431], [5.881406, 49.8256993], [5.8816062, 49.8255821], [5.8817957, 49.8254649], [5.8818489, 49.8254273], [5.8818968, 49.8253783], [5.8819644, 49.8252991], [5.8820676, 49.8251519], [5.8821495, 49.8250242], [5.8822528, 49.8248707], [5.882434, 49.8246632], [5.882633, 49.8244415], [5.8827365, 49.8243185], [5.8827645, 49.8242853], [5.8828378, 49.8241306], [5.8829183, 49.823956], [5.8830323, 49.8237615], [5.883191, 49.8235008], [5.8833658, 49.8231999], [5.8834596, 49.8230301], [5.883559, 49.8228699], [5.883652, 49.8227438], [5.8837848, 49.8226005], [5.8839044, 49.8224931], [5.8839771, 49.8224287], [5.8841915, 49.8222385], [5.8843717, 49.8220835], [5.8846655, 49.8218339], [5.8849776, 49.8215229], [5.8852372, 49.821279], [5.8852827, 49.8211889], [5.8853989, 49.821178], [5.8855968, 49.8210306], [5.8859059, 49.8208004], [5.886131, 49.8206302], [5.8863774, 49.8204331], [5.8866063, 49.8202286], [5.8870604, 49.8198292], [5.8871987, 49.819705], [5.8874668, 49.81944], [5.8880333, 49.8194231], [5.8882293, 49.8194064], [5.88842, 49.8193869], [5.8887502, 49.8193511], [5.8890346, 49.8193118], [5.8895627, 49.8189274], [5.8897954, 49.8186692], [5.8898185, 49.8186476], [5.8899259, 49.8185478], [5.8900792, 49.8184053], [5.8900915, 49.8184145], [5.8907061, 49.8180189], [5.8915812, 49.8174297], [5.8920171, 49.8171223], [5.8922209, 49.8169719], [5.8926799, 49.8166354], [5.8927782, 49.8164947], [5.8928853, 49.8163413], [5.8929289, 49.8162789], [5.8930526, 49.8159381], [5.8930829, 49.8158588], [5.8931386, 49.8157132], [5.8931755, 49.8154242], [5.8931944, 49.8152959], [5.8932387, 49.8149492], [5.8933397, 49.8142513], [5.8936132, 49.8142646], [5.8937263, 49.81427], [5.8938866, 49.8142778], [5.8938808, 49.8140572], [5.8938871, 49.8138853], [5.8938985, 49.8137402], [5.8939297, 49.8135215], [5.893957, 49.8133707], [5.8940004, 49.8131869], [5.894033, 49.8130378], [5.8940996, 49.8128112], [5.894202, 49.8124778], [5.8948456, 49.8125598], [5.8953727, 49.8126388], [5.8953825, 49.8126405], [5.8954997, 49.8126608], [5.896011, 49.8127334], [5.8965011, 49.8128111], [5.8967479, 49.8128505], [5.8969225, 49.8128681], [5.8971906, 49.812891], [5.8973475, 49.8129039], [5.8975645, 49.8129124], [5.8979332, 49.8129224], [5.8984077, 49.8129278], [5.8985766, 49.8129252], [5.8988513, 49.8129219], [5.8992392, 49.8129078], [5.8995388, 49.8128885], [5.8996509, 49.8128743], [5.8998554, 49.8128432], [5.9001581, 49.812789], [5.9001273, 49.8126271], [5.9000774, 49.8123152], [5.8999868, 49.8118085], [5.90077, 49.8117763], [5.9012299, 49.8117534], [5.9021412, 49.8117045], [5.9020518, 49.811504]]]}}]}