{"type": "FeatureCollection", "features": [{"type": "Feature", "properties": {"name": "Holtz"}, "geometry": {"type": "Polygon", "coordinates": [[[5.8160664, 49.8181916], [5.8159973, 49.8180578], [5.8159269, 49.8179593], [5.8158483, 49.8178516], [5.8156928, 49.8176335], [5.8155879, 49.8174961], [5.8155389, 49.8174462], [5.8154619, 49.8173569], [5.8153905, 49.8172911], [5.8152989, 49.8172067], [5.8152302, 49.8171469], [5.8150727, 49.8170095], [5.8148675, 49.8168346], [5.8145429, 49.8165668], [5.8143463, 49.8164314], [5.8141373, 49.8162925], [5.8139389, 49.8161565], [5.8138441, 49.816082], [5.8136548, 49.815906], [5.8135023, 49.815765], [5.8133743, 49.8156526], [5.8132603, 49.8155643], [5.813197, 49.8155304], [5.8131461, 49.8155006], [5.8130123, 49.8154464], [5.8128627, 49.8153934], [5.812706, 49.8153541], [5.812602, 49.8153355], [5.8123869, 49.8153074], [5.8121312, 49.8152855], [5.8118366, 49.8152777], [5.8116088, 49.8152942], [5.8095937, 49.8155234], [5.8095778, 49.8155222], [5.8095678, 49.8154467], [5.8095544, 49.8153484], [5.8095449, 49.8152526], [5.8095221, 49.8150696], [5.8095113, 49.8150267], [5.8094783, 49.814966], [5.8094193, 49.8148938], [5.8093861, 49.8148525], [5.8093808, 49.8148159], [5.8093742, 49.8147095], [5.809362, 49.8145951], [5.8093645, 49.8145116], [5.8093614, 49.8144247], [5.8093726, 49.8144202], [5.8093813, 49.8142601], [5.8093742, 49.8142018], [5.8094791, 49.814098], [5.8095484, 49.8140388], [5.8096631, 49.8139436], [5.8097969, 49.8138442], [5.8099272, 49.8137475], [5.8100747, 49.8136379], [5.8101817, 49.8135584], [5.8103678, 49.8133706], [5.8103837, 49.8133584], [5.8103891, 49.8133543], [5.8106289, 49.8131706], [5.8107415, 49.8130843], [5.8108863, 49.8130024], [5.8112125, 49.8128189], [5.811096, 49.8126341], [5.8111641, 49.812608], [5.81151, 49.8124436], [5.8115807, 49.81241], [5.8117516, 49.8123288], [5.8121097, 49.8121685], [5.8119044, 49.8119154], [5.8112606, 49.8111218], [5.8103117, 49.8110343], [5.8102072, 49.8107266], [5.8102054, 49.8107213], [5.8102025, 49.8107127], [5.8101591, 49.810652], [5.8099357, 49.8103397], [5.8097736, 49.8101305], [5.8095784, 49.8098834], [5.8094424, 49.8096623], [5.8093373, 49.8095016], [5.8093101, 49.8094601], [5.8092806, 49.8094208], [5.8092629, 49.8093971], [5.8092088, 49.8093248], [5.809172, 49.8092812], [5.809098, 49.8092204], [5.8090499, 49.8091962], [5.8090129, 49.8091755], [5.8089702, 49.8091623], [5.8089015, 49.8091472], [5.8088402, 49.8091447], [5.8087882, 49.8091434], [5.808625, 49.8091429], [5.8085223, 49.8091426], [5.8086711, 49.80788], [5.8084441, 49.807901], [5.8084354, 49.8078255], [5.8089145, 49.807669], [5.8092265, 49.8075671], [5.8093113, 49.8075395], [5.8093025, 49.8075183], [5.8091505, 49.807153], [5.8090282, 49.8068513], [5.8088675, 49.806458], [5.8087469, 49.806178], [5.8088137, 49.8061352], [5.8088678, 49.8061005], [5.8089301, 49.8060379], [5.8089864, 49.8059718], [5.8090187, 49.805877], [5.8084902, 49.8059411], [5.8083293, 49.8058377], [5.8081411, 49.8057098], [5.8081332, 49.8057044], [5.8080321, 49.8056374], [5.8079945, 49.8056125], [5.8079041, 49.8055536], [5.8078631, 49.8055269], [5.8077503, 49.8054522], [5.8076991, 49.8054191], [5.8076152, 49.8053649], [5.8074912, 49.8052936], [5.807388, 49.8052392], [5.8073449, 49.8052165], [5.8072764, 49.8051831], [5.8072281, 49.8051584], [5.8071036, 49.8050947], [5.8069245, 49.8050031], [5.8068339, 49.8049388], [5.806821, 49.8049284], [5.8067908, 49.8049079], [5.8067821, 49.804902], [5.8065528, 49.8047418], [5.8064178, 49.804651], [5.8061329, 49.8044711], [5.8060199, 49.8044113], [5.8059569, 49.8043883], [5.8057465, 49.8042832], [5.8054612, 49.8041408], [5.8053869, 49.8041036], [5.8055117, 49.8040686], [5.8056123, 49.8040403], [5.8059605, 49.8039533], [5.8062147, 49.8038662], [5.8063706, 49.8038071], [5.8066243, 49.8036827], [5.8067568, 49.80361], [5.806797, 49.803591], [5.8069583, 49.803504], [5.8070008, 49.803481], [5.8070876, 49.8034342], [5.8071096, 49.8034223], [5.8075722, 49.8032036], [5.8078734, 49.8030648], [5.8079396, 49.8030344], [5.8080758, 49.802969], [5.8075836, 49.8029137], [5.8075632, 49.8029114], [5.8071752, 49.8028634], [5.8071602, 49.8028615], [5.8069596, 49.8028369], [5.8068445, 49.802796], [5.8068299, 49.8027908], [5.8062477, 49.8025831], [5.8056026, 49.8023438], [5.8056757, 49.802227], [5.8056902, 49.8021995], [5.8057307, 49.8021226], [5.8057366, 49.8021104], [5.8057534, 49.8020681], [5.8057709, 49.8020174], [5.8057819, 49.8019859], [5.8057828, 49.8019051], [5.8057658, 49.801845], [5.8057222, 49.8017519], [5.80568, 49.8016899], [5.8056464, 49.8016544], [5.8056302, 49.8016372], [5.805569, 49.8016147], [5.8053161, 49.8016177], [5.8051615, 49.8016196], [5.8050801, 49.8016206], [5.8050634, 49.8016208], [5.8048148, 49.8016238], [5.8046991, 49.8011323], [5.8046666, 49.8010007], [5.8046469, 49.8009097], [5.8046018, 49.8007186], [5.8045909, 49.8006852], [5.8046885, 49.8006737], [5.8047536, 49.8006661], [5.804782, 49.8006638], [5.8048636, 49.8006572], [5.8049621, 49.8004935], [5.8050296, 49.8004068], [5.8050952, 49.800342], [5.8051738, 49.8002643], [5.8053217, 49.8001218], [5.8053629, 49.8000836], [5.8056047, 49.7998099], [5.8056479, 49.7997563], [5.8055048, 49.7997046], [5.8053049, 49.7996323], [5.8053783, 49.7995079], [5.8054085, 49.7994462], [5.8054332, 49.7993834], [5.8054523, 49.79932], [5.8054589, 49.7991817], [5.8057918, 49.7991618], [5.8062399, 49.7991349], [5.8062207, 49.7989673], [5.8061879, 49.7988723], [5.8061633, 49.7988261], [5.8061494, 49.7988002], [5.8060888, 49.7987005], [5.8060644, 49.7986639], [5.8060521, 49.7986455], [5.8059931, 49.7985807], [5.8059136, 49.7985198], [5.8058828, 49.7984971], [5.805738, 49.7983901], [5.8056456, 49.7983154], [5.8055865, 49.7982632], [5.8055276, 49.7981898], [5.8054688, 49.7980947], [5.8053875, 49.797917], [5.8053677, 49.7978732], [5.8053573, 49.7978502], [5.8053391, 49.7977896], [5.8053429, 49.7975289], [5.805366, 49.7974243], [5.8054321, 49.7972884], [5.8054158, 49.7972767], [5.8054707, 49.7971499], [5.8054991, 49.7970757], [5.8055088, 49.7970208], [5.8055057, 49.7969396], [5.8055023, 49.7968893], [5.8054933, 49.7968481], [5.805477, 49.7967988], [5.8054163, 49.7967077], [5.8053556, 49.7966286], [5.8052745, 49.7965415], [5.8052728, 49.7965106], [5.8050309, 49.7963023], [5.8049937, 49.7962749], [5.8048701, 49.796184], [5.804748, 49.7961051], [5.804687, 49.7960656], [5.8045518, 49.7959938], [5.8042759, 49.7958568], [5.8040407, 49.7957406], [5.8038723, 49.7956468], [5.8038205, 49.7956135], [5.8037392, 49.7955538], [5.803669, 49.7954895], [5.8036266, 49.7954425], [5.8036103, 49.7953979], [5.8036069, 49.7953487], [5.8036147, 49.7952984], [5.8036355, 49.795251], [5.8037219, 49.7951278], [5.8037712, 49.7950728], [5.8039418, 49.7948824], [5.8041793, 49.7946174], [5.804202, 49.7945603], [5.8041915, 49.7944717], [5.8041534, 49.7943446], [5.8041188, 49.794253], [5.8039699, 49.7939243], [5.8039286, 49.7938333], [5.8039097, 49.7937882], [5.8038593, 49.7936679], [5.803816, 49.7935454], [5.8037992, 49.7934401], [5.8037989, 49.7933649], [5.8038092, 49.793285], [5.8038273, 49.793221], [5.8038811, 49.7930967], [5.8038954, 49.7930761], [5.804043, 49.7929184], [5.8041819, 49.7927952], [5.8044185, 49.7926164], [5.8036746, 49.7922229], [5.8034392, 49.7921011], [5.8029921, 49.7924522], [5.8027864, 49.7923647], [5.8026281, 49.7923059], [5.8024767, 49.7922632], [5.8022831, 49.7922123], [5.8022039, 49.7921949], [5.8019398, 49.7921261], [5.8012902, 49.7919686], [5.8006617, 49.7918095], [5.7997689, 49.7915747], [5.7997303, 49.7915658], [5.7996961, 49.7915963], [5.7995964, 49.7915708], [5.7993256, 49.7914694], [5.7991199, 49.7913819], [5.7989512, 49.7913002], [5.7987131, 49.7916037], [5.7986681, 49.7916611], [5.7985328, 49.7918217], [5.7983924, 49.7919768], [5.7983817, 49.7919886], [5.7982786, 49.79209], [5.798219, 49.7921404], [5.7981561, 49.7921936], [5.7978686, 49.7924298], [5.7977603, 49.7925197], [5.7975775, 49.7926682], [5.7973911, 49.7928276], [5.7973697, 49.792823], [5.7971728, 49.7927805], [5.7970365, 49.7927511], [5.7970219, 49.7927479], [5.7968587, 49.7927127], [5.7968412, 49.792709], [5.7965618, 49.7926487], [5.7965388, 49.7926437], [5.796405, 49.7926148], [5.7961831, 49.7925554], [5.7961216, 49.792539], [5.7954946, 49.7921919], [5.7950854, 49.7919615], [5.7944286, 49.7915887], [5.7939006, 49.7912861], [5.7938017, 49.791233], [5.793297, 49.7905727], [5.7932744, 49.7906136], [5.7928774, 49.791327], [5.7922653, 49.7924063], [5.7922459, 49.7924413], [5.791698, 49.7934253], [5.7914736, 49.7938299], [5.7913636, 49.7938014], [5.7911557, 49.7942502], [5.7909727, 49.7944448], [5.7907396, 49.7949465], [5.7905057, 49.7954458], [5.7904087, 49.7956555], [5.7903622, 49.7957561], [5.7900401, 49.7958154], [5.7897986, 49.79593], [5.7891198, 49.796284], [5.7886682, 49.7965497], [5.7885744, 49.7965962], [5.7884835, 49.7966199], [5.7884358, 49.7966232], [5.7884182, 49.7966208], [5.7883863, 49.7966504], [5.7880608, 49.7965683], [5.7880219, 49.7965853], [5.787976, 49.7965931], [5.7879478, 49.7965919], [5.7878193, 49.7965709], [5.7874065, 49.7964942], [5.7869053, 49.7963989], [5.7867931, 49.7964876], [5.7864717, 49.7964466], [5.7861371, 49.7964044], [5.7858853, 49.7963727], [5.7857092, 49.7963413], [5.7854761, 49.7962892], [5.7853091, 49.7962293], [5.7851915, 49.7961695], [5.7851022, 49.7960938], [5.7850551, 49.7960218], [5.7850361, 49.7959726], [5.7850303, 49.7959315], [5.7850227, 49.7957704], [5.7850024, 49.7955546], [5.7849876, 49.7954186], [5.7849671, 49.7953364], [5.7849166, 49.7952631], [5.7848807, 49.795231], [5.7847984, 49.7951588], [5.7847146, 49.7950558], [5.7846203, 49.7949436], [5.7844874, 49.7948027], [5.7843291, 49.7946435], [5.7842783, 49.7946079], [5.7842224, 49.7945426], [5.7841795, 49.7945014], [5.7841165, 49.7944486], [5.7839466, 49.7943168], [5.7837267, 49.7941425], [5.7835725, 49.7940289], [5.7834165, 49.7939234], [5.7833996, 49.7939359], [5.7831534, 49.7940846], [5.7834173, 49.7942545], [5.7835716, 49.7943658], [5.7837537, 49.7945251], [5.7838559, 49.7946305], [5.7839989, 49.7948285], [5.784134, 49.7950173], [5.7841791, 49.7951168], [5.7842674, 49.7953192], [5.7843176, 49.7954324], [5.784336, 49.7954553], [5.7843446, 49.7954805], [5.7842995, 49.7956036], [5.7842794, 49.7956983], [5.7842383, 49.795874], [5.7842072, 49.7960292], [5.7841843, 49.7961353], [5.7841408, 49.7962893], [5.7840853, 49.7963976], [5.7840203, 49.7964751], [5.7839351, 49.7965513], [5.7838568, 49.7966469], [5.7837543, 49.7967893], [5.7836635, 49.7968952], [5.7836246, 49.7969202], [5.7835233, 49.7970249], [5.7834032, 49.7971661], [5.7833177, 49.7972777], [5.7832445, 49.7973917], [5.7831306, 49.7976345], [5.7830804, 49.7977497], [5.7830496, 49.7978535], [5.7830318, 49.7979847], [5.7830338, 49.7981743], [5.7830072, 49.7983078], [5.7829815, 49.7984424], [5.7829449, 49.7986067], [5.78294, 49.7986706], [5.7829372, 49.7988042], [5.782942, 49.798867], [5.7829975, 49.7990819], [5.783017, 49.7991447], [5.7830296, 49.7991853], [5.783044, 49.7992316], [5.7831801, 49.7995095], [5.7831947, 49.7995465], [5.7832026, 49.7995667], [5.7832218, 49.7995965], [5.7832318, 49.7996707], [5.7832455, 49.7997233], [5.7832664, 49.7997542], [5.7832636, 49.799769], [5.783265, 49.7997848], [5.7832733, 49.7998821], [5.7832675, 49.7999483], [5.7832298, 49.8001377], [5.7831667, 49.8003179], [5.7830707, 49.8005357], [5.7830151, 49.8006508], [5.7830145, 49.8007239], [5.7829999, 49.8007981], [5.7829274, 49.8009268], [5.7828982, 49.8010512], [5.7828628, 49.8011904], [5.7828461, 49.801292], [5.7828279, 49.8013627], [5.7828099, 49.8014072], [5.7827902, 49.8014448], [5.7827263, 49.8015096], [5.7826738, 49.801562], [5.7826631, 49.8015802], [5.7826468, 49.801635], [5.782698, 49.8016249], [5.7826621, 49.8017081], [5.7827979, 49.801704], [5.7828861, 49.801694], [5.7829161, 49.801693], [5.7829707, 49.8016966], [5.7830552, 49.8017185], [5.7831043, 49.8017415], [5.7831657, 49.8017863], [5.7832007, 49.8018184], [5.7832215, 49.8018573], [5.7832184, 49.8019212], [5.7832268, 49.8019737], [5.7832494, 49.8020126], [5.7832965, 49.8020802], [5.7833734, 49.8021672], [5.7834135, 49.8022244], [5.7834368, 49.8022816], [5.7834539, 49.8023536], [5.7834535, 49.8023993], [5.7832674, 49.8029787], [5.7831937, 49.8032445], [5.7831509, 49.8036428], [5.7831354, 49.8038152], [5.7831158, 49.8039499], [5.7830758, 49.8041005], [5.7830448, 49.8042294], [5.7830309, 49.8043207], [5.7830406, 49.804428], [5.7830653, 49.8047593], [5.7830943, 49.8048861], [5.7831295, 49.8049981], [5.7832376, 49.805156], [5.7832577, 49.8051835], [5.7832994, 49.8052613], [5.783404, 49.8054158], [5.7835137, 49.8055806], [5.7835579, 49.8056846], [5.7835766, 49.8057669], [5.7835724, 49.8058571], [5.7835575, 49.8059529], [5.783504, 49.8061435], [5.7834661, 49.8062541], [5.7834499, 49.8062997], [5.7833898, 49.8064205], [5.7833628, 49.8064912], [5.7833566, 49.8065289], [5.7833511, 49.8065529], [5.7833411, 49.8065608], [5.7832168, 49.8066498], [5.7831883, 49.8066702], [5.7830697, 49.8067371], [5.7829529, 49.8067847], [5.7827991, 49.806831], [5.7826525, 49.8068636], [5.7826511, 49.8071537], [5.7826652, 49.8071583], [5.7827214, 49.8071802], [5.7827741, 49.8072066], [5.7828161, 49.8072501], [5.7828414, 49.8073158], [5.7828878, 49.8074365], [5.7830554, 49.8077533], [5.7830954, 49.8078265], [5.7832307, 49.8081101], [5.7832965, 49.8082685], [5.7833197, 49.8083244], [5.7832962, 49.808323], [5.7832185, 49.808333], [5.7830383, 49.8083781], [5.7824329, 49.8085422], [5.7824863, 49.8086172], [5.7825143, 49.8086424], [5.7823737, 49.8087008], [5.7822092, 49.8087659], [5.7820942, 49.8088134], [5.7818817, 49.8089303], [5.7817719, 49.8089928], [5.7816947, 49.8090524], [5.7815364, 49.8092346], [5.781423, 49.8093934], [5.781199, 49.8097073], [5.7811944, 49.8097194], [5.781162, 49.8097281], [5.7811244, 49.8097423], [5.7810337, 49.8097939], [5.7807153, 49.8099902], [5.7805683, 49.8100841], [5.7803857, 49.8102056], [5.7803122, 49.8102511], [5.7801102, 49.8103771], [5.7799826, 49.8104486], [5.7798216, 49.8105269], [5.7797048, 49.8105733], [5.7795819, 49.8106186], [5.7795363, 49.8106244], [5.7790865, 49.8107437], [5.7787947, 49.8108523], [5.7786603, 49.8108987], [5.778466, 49.8109391], [5.7782753, 49.8109682], [5.778156, 49.8110111], [5.7780287, 49.8110473], [5.7778839, 49.8110765], [5.7776888, 49.8111071], [5.7776286, 49.8111165], [5.7775112, 49.8111349], [5.7774832, 49.8111396], [5.7774364, 49.8111174], [5.777396, 49.8111071], [5.7773529, 49.811107], [5.7772811, 49.8111135], [5.7771726, 49.811136], [5.7770327, 49.8111668], [5.7769137, 49.8111867], [5.7767295, 49.8112122], [5.7765871, 49.8112329], [5.7764721, 49.811257], [5.7764354, 49.8112696], [5.7764048, 49.8112732], [5.7763405, 49.8112826], [5.775907, 49.8113455], [5.7758909, 49.811349], [5.7755123, 49.811431], [5.7754451, 49.8114455], [5.7752665, 49.8114975], [5.7751215, 49.8115461], [5.7748402, 49.811665], [5.7747164, 49.8117125], [5.7743019, 49.8118333], [5.7742612, 49.8118492], [5.7740805, 49.8119536], [5.7738385, 49.812116], [5.7735581, 49.8123275], [5.7735267, 49.8123547], [5.7734983, 49.8123793], [5.7734019, 49.8124628], [5.773104, 49.8127678], [5.7729358, 49.8129671], [5.7728662, 49.813065], [5.772816, 49.813163], [5.7726866, 49.8132056], [5.7725994, 49.8132342], [5.7726073, 49.8133702], [5.7726274, 49.8135027], [5.772635, 49.8135392], [5.7726687, 49.8137289], [5.7727187, 49.8138752], [5.7727855, 49.8140056], [5.7728498, 49.8141269], [5.7728634, 49.8141851], [5.7728682, 49.8142411], [5.7728629, 49.8143484], [5.7728699, 49.8143644], [5.7729119, 49.8143977], [5.7729384, 49.8143966], [5.7730322, 49.814357], [5.7731223, 49.814331], [5.7731523, 49.8143323], [5.7732613, 49.8143749], [5.7734563, 49.8144646], [5.7736825, 49.8146172], [5.7738028, 49.8146862], [5.7739855, 49.8147736], [5.7741381, 49.8148677], [5.7742802, 49.8149652], [5.774332, 49.8150066], [5.7744003, 49.8150639], [5.7744415, 49.815096], [5.7745275, 49.8151397], [5.774814, 49.815256], [5.7748104, 49.8152708], [5.7752188, 49.8154652], [5.7753329, 49.8155363], [5.7754732, 49.8156316], [5.7759297, 49.8158786], [5.7761096, 49.8159877], [5.7761957, 49.8160257], [5.776359, 49.8161084], [5.7765547, 49.8162313], [5.7767142, 49.8163414], [5.7767826, 49.8163953], [5.7768262, 49.816456], [5.7768589, 49.8165531], [5.7769097, 49.8167063], [5.7769235, 49.816752], [5.7769231, 49.8168], [5.7769246, 49.816824], [5.7769297, 49.816848], [5.7769419, 49.8168754], [5.7769654, 49.8169155], [5.7769844, 49.8169555], [5.7770517, 49.8171487], [5.7771507, 49.817439], [5.7772587, 49.817718], [5.7772861, 49.817814], [5.7773051, 49.8178689], [5.7773434, 49.8180414], [5.7773466, 49.8180848], [5.7773599, 49.8181842], [5.7773592, 49.8182676], [5.7773533, 49.8183486], [5.7773376, 49.8184319], [5.7773268, 49.8184638], [5.7772964, 49.818514], [5.7772625, 49.818563], [5.7772391, 49.8186154], [5.777198, 49.8186849], [5.7771366, 49.8187589], [5.7770122, 49.8188784], [5.7769713, 49.8189217], [5.7769498, 49.8189581], [5.7769156, 49.8190391], [5.7768644, 49.8191622], [5.7768143, 49.8192557], [5.776752, 49.8193183], [5.7766615, 49.8193888], [5.7765765, 49.8194341], [5.7764517, 49.8194931], [5.7762483, 49.8195655], [5.7761174, 49.8196153], [5.7759652, 49.8196799], [5.7758606, 49.8197423], [5.7757755, 49.8198002], [5.7757018, 49.8198617], [5.7755898, 49.8199732], [5.7755613, 49.820013], [5.7754986, 49.820135], [5.7754592, 49.8202068], [5.7753985, 49.8202911], [5.7752614, 49.8204231], [5.7751334, 49.8208714], [5.7752044, 49.8208725], [5.7754279, 49.8208758], [5.7754206, 49.8209043], [5.7754304, 49.8210026], [5.7754521, 49.8211602], [5.7755429, 49.8213786], [5.7755961, 49.8214689], [5.7756325, 49.8215308], [5.7756918, 49.821612], [5.7757483, 49.8216031], [5.7759057, 49.8217749], [5.7761534, 49.8220087], [5.7763585, 49.8221658], [5.7767225, 49.8224114], [5.7770145, 49.8226167], [5.777181, 49.8227486], [5.7773437, 49.8229101], [5.7774321, 49.8229949], [5.7774776, 49.8230373], [5.7776459, 49.8231624], [5.7776937, 49.8231374], [5.7780627, 49.8234252], [5.7785668, 49.8237969], [5.7787628, 49.8239859], [5.7789054, 49.8241394], [5.7795546, 49.8246748], [5.7799123, 49.8249145], [5.7800965, 49.8250465], [5.7803349, 49.8252231], [5.7805392, 49.8253699], [5.7805822, 49.8253862], [5.78065, 49.8254183], [5.7807077, 49.8254778], [5.7807721, 49.8255888], [5.7808335, 49.8257409], [5.7808591, 49.8258449], [5.7808636, 49.8259511], [5.7808735, 49.8260367], [5.7808984, 49.8261156], [5.7809189, 49.8261956], [5.7809168, 49.826247], [5.7808874, 49.8263873], [5.7808484, 49.8266669], [5.780836, 49.826756], [5.7810196, 49.8267303], [5.7811076, 49.8268631], [5.7811828, 49.8269455], [5.7812828, 49.8270155], [5.7814111, 49.8270719], [5.7815661, 49.8271032], [5.7816305, 49.827112], [5.7818498, 49.8271418], [5.7819904, 49.8271617], [5.7821836, 49.8271943], [5.7823, 49.8272187], [5.7826367, 49.8273079], [5.7827466, 49.8273397], [5.7828605, 49.8273727], [5.7829557, 49.8274004], [5.7833159, 49.8275297], [5.7835027, 49.8275978], [5.7837476, 49.8276821], [5.7841616, 49.8278218], [5.7844824, 49.8279189], [5.7845123, 49.8279282], [5.7846057, 49.8279571], [5.7846938, 49.8279928], [5.7847622, 49.8280285], [5.7848372, 49.8280676], [5.7849752, 49.8281527], [5.7850367, 49.8281986], [5.7850436, 49.8282046], [5.78507, 49.8282273], [5.7851296, 49.8282859], [5.7851822, 49.8283386], [5.785189, 49.8283463], [5.785226, 49.828388], [5.7853497, 49.828356], [5.78575, 49.8282524], [5.7858158, 49.8283252], [5.7858787, 49.8283947], [5.7858003, 49.8284825], [5.7857627, 49.8285418], [5.7857589, 49.8285738], [5.7857657, 49.8286127], [5.785804, 49.8286872], [5.7858537, 49.8287617], [5.7859062, 49.8288293], [5.7859728, 49.8289027], [5.7860815, 49.8289969], [5.7861711, 49.8290669], [5.7862598, 49.8291278], [5.7863324, 49.8291713], [5.786346, 49.8291795], [5.786448, 49.8292393], [5.7867455, 49.8293764], [5.7869181, 49.8294502], [5.7870404, 49.8295009], [5.7871233, 49.8295297], [5.7872114, 49.8295586], [5.7873383, 49.8295945], [5.7875552, 49.8296455], [5.7875772, 49.829653], [5.7876308, 49.8296711], [5.7876609, 49.8296813], [5.787712, 49.8296998], [5.7877807, 49.8297297], [5.7878581, 49.8297746], [5.787902, 49.8297987], [5.7879715, 49.8298378], [5.7880558, 49.8299056], [5.7881643, 49.830034], [5.7882447, 49.8301429], [5.7883065, 49.8302655], [5.7883514, 49.8303914], [5.7883858, 49.8305162], [5.7884019, 49.830602], [5.7884084, 49.8306775], [5.7884072, 49.8306801], [5.7883886, 49.8307209], [5.7883493, 49.8307791], [5.7882958, 49.8308418], [5.7882466, 49.830924], [5.7882074, 49.8309593], [5.7881737, 49.8309867], [5.7881044, 49.8310356], [5.7880296, 49.8311108], [5.7879831, 49.8311793], [5.7879391, 49.8312695], [5.7879193, 49.831314], [5.787912, 49.831354], [5.7879079, 49.8314249], [5.7879142, 49.8315244], [5.7879223, 49.8316194], [5.7879205, 49.8316216], [5.7878954, 49.8317702], [5.7878268, 49.8319679], [5.7879703, 49.8320232], [5.7879284, 49.832182], [5.7878671, 49.8324517], [5.7878629, 49.8325386], [5.7878545, 49.8327101], [5.7878632, 49.8327838], [5.7878678, 49.8328222], [5.787888, 49.8329481], [5.7878437, 49.8329566], [5.787913, 49.8330612], [5.7880122, 49.833211], [5.7881122, 49.8333591], [5.7881135, 49.8333611], [5.7881984, 49.8334643], [5.7883002, 49.8335584], [5.7884353, 49.833679], [5.7885986, 49.833811], [5.7890892, 49.8341717], [5.7891266, 49.8341978], [5.7891316, 49.8341776], [5.7891467, 49.8340464], [5.7891449, 49.833947], [5.7891301, 49.8338088], [5.7890855, 49.8336465], [5.7890113, 49.8334236], [5.7890445, 49.8333609], [5.7890621, 49.8332548], [5.7890826, 49.8331122], [5.7890974, 49.8330163], [5.789121, 49.8329421], [5.7891398, 49.8328977], [5.789215, 49.8327643], [5.7892275, 49.8327427], [5.7892722, 49.8326629], [5.7892883, 49.8326355], [5.7893338, 49.8325626], [5.7893552, 49.8325319], [5.7894263, 49.832467], [5.7894885, 49.8324033], [5.7895242, 49.8323509], [5.7895737, 49.83223], [5.7897102, 49.8319187], [5.7901939, 49.8319808], [5.7908768, 49.8320698], [5.7914725, 49.8321482], [5.792069, 49.8322255], [5.7930997, 49.8322825], [5.7942891, 49.8323492], [5.795271, 49.8323226], [5.7958172, 49.8322856], [5.7961208, 49.8322637], [5.7966318, 49.8322299], [5.7968577, 49.832217], [5.7971543, 49.8321905], [5.7974914, 49.8321607], [5.7975114, 49.8320877], [5.7973977, 49.8318453], [5.7973406, 49.8317012], [5.7972757, 49.8315298], [5.7972497, 49.8314692], [5.7972236, 49.8314314], [5.7971431, 49.8313455], [5.7970187, 49.8312298], [5.7969338, 49.831145], [5.7968971, 49.831097], [5.7968815, 49.8310615], [5.7968818, 49.8310284], [5.7968874, 49.8309782], [5.7969074, 49.8308995], [5.7969499, 49.8307637], [5.7969662, 49.8307078], [5.7969739, 49.8306348], [5.7969817, 49.830532], [5.7970082, 49.8305241], [5.7970454, 49.8305083], [5.797079, 49.8304889], [5.7971244, 49.8304423], [5.7971441, 49.8304069], [5.7971834, 49.8303363], [5.7972176, 49.8302439], [5.7972304, 49.8301857], [5.7972271, 49.8301617], [5.7972152, 49.8301046], [5.7971938, 49.8300166], [5.7971553, 49.8299811], [5.7971431, 49.8299582], [5.7971433, 49.8299297], [5.7971594, 49.8299035], [5.7971458, 49.8298292], [5.7971477, 49.8298166], [5.7971621, 49.8297824], [5.7971605, 49.8297607], [5.7971509, 49.8297459], [5.797116, 49.8296909], [5.7970776, 49.8296337], [5.7970356, 49.829597], [5.7969145, 49.829511], [5.7968936, 49.8294824], [5.7968902, 49.8294584], [5.7969063, 49.8294368], [5.7969074, 49.8293991], [5.7968726, 49.8293362], [5.7968535, 49.8292996], [5.7968608, 49.8292699], [5.7968735, 49.8292289], [5.7968649, 49.829198], [5.7968317, 49.8291511], [5.7968336, 49.8291363], [5.7968515, 49.8291066], [5.7968776, 49.8290371], [5.7968812, 49.8290268], [5.7968919, 49.8290086], [5.7969202, 49.8289927], [5.796938, 49.8289744], [5.7969382, 49.828955], [5.7969366, 49.8289276], [5.7969456, 49.8289094], [5.7969811, 49.8288741], [5.7969954, 49.8288525], [5.796992, 49.8288308], [5.7969853, 49.8287908], [5.7969715, 49.8287519], [5.7969717, 49.8287245], [5.7969842, 49.8286983], [5.7970102, 49.8286447], [5.7970283, 49.8285842], [5.7970375, 49.8285397], [5.7970483, 49.8285055], [5.797054, 49.8284541], [5.7970543, 49.828421], [5.7970404, 49.8283879], [5.7970276, 49.8283285], [5.7970331, 49.8283102], [5.7970455, 49.8282931], [5.7970899, 49.8282602], [5.7971201, 49.8282328], [5.7971345, 49.8281998], [5.7971454, 49.8281576], [5.7971704, 49.8281154], [5.7971988, 49.8280869], [5.7972361, 49.8280528], [5.7972558, 49.8280163], [5.7972604, 49.8279878], [5.7972626, 49.827933], [5.7972542, 49.8278827], [5.7972704, 49.8278314], [5.7972936, 49.8278007], [5.7973274, 49.8277665], [5.797356, 49.8277152], [5.7973792, 49.8276799], [5.797391, 49.8276365], [5.7974017, 49.8276183], [5.7974496, 49.8275831], [5.7974942, 49.8275193], [5.7975315, 49.8274828], [5.7975512, 49.8274452], [5.7976136, 49.8273644], [5.7976703, 49.82732], [5.7977104, 49.8272756], [5.797778, 49.827189], [5.7978208, 49.8271275], [5.7978511, 49.8270991], [5.7978794, 49.8270797], [5.7979201, 49.8270628], [5.7979537, 49.8270571], [5.7980084, 49.8270562], [5.7980648, 49.8270552], [5.7981125, 49.8270497], [5.7981585, 49.8270315], [5.7982469, 49.8269987], [5.7983317, 49.8269796], [5.7983724, 49.826974], [5.7984756, 49.8269743], [5.7985268, 49.8269653], [5.7985869, 49.8269461], [5.7986171, 49.82692], [5.7986473, 49.8268904], [5.7987216, 49.8268541], [5.7987729, 49.8268348], [5.7988118, 49.8268281], [5.7988488, 49.8268328], [5.7989086, 49.8268604], [5.7989314, 49.826873], [5.7989666, 49.8268868], [5.7990099, 49.826892], [5.7990688, 49.8268928], [5.7991005, 49.8268987], [5.7991216, 49.8269113], [5.7991444, 49.8269296], [5.7991883, 49.8269526], [5.7992359, 49.8269539], [5.7993154, 49.8269359], [5.7993924, 49.8269042], [5.799426, 49.8268963], [5.7994771, 49.8269056], [5.7995053, 49.8268999], [5.7995425, 49.8268875], [5.7995973, 49.8268694], [5.7996361, 49.8268661], [5.7996944, 49.826864], [5.7998124, 49.8268804], [5.7999569, 49.8269014], [5.8000591, 49.8269131], [5.800179, 49.8269215], [5.8002891, 49.826959], [5.800372, 49.8269844], [5.8004425, 49.8269972], [5.80027, 49.8272631], [5.7999026, 49.8278383], [5.8001427, 49.8279786], [5.8001656, 49.8279981], [5.8003796, 49.8281932], [5.8006664, 49.8284628], [5.8007178, 49.828439], [5.8009625, 49.8283265], [5.8012086, 49.8282461], [5.8014778, 49.8281669], [5.8015328, 49.8282449], [5.8015837, 49.8282919], [5.8016682, 49.8283368], [5.8017157, 49.8283609], [5.8018263, 49.8284562], [5.8019089, 49.8285148], [5.801995, 49.8285665], [5.8021192, 49.8286218], [5.8024462, 49.828011], [5.8024982, 49.827906], [5.8025777, 49.8277896], [5.8026186, 49.8277543], [5.8026772, 49.8277144], [5.802773, 49.8276701], [5.8028579, 49.8276441], [5.8029234, 49.8276283], [5.8031462, 49.827605], [5.80381, 49.8275533], [5.8041865, 49.8275259], [5.804472, 49.8274971], [5.8045834, 49.8274814], [5.8047921, 49.8274432], [5.8050381, 49.8273936], [5.8052416, 49.8273428], [5.8053602, 49.8273077], [5.8055878, 49.8272295], [5.8057891, 49.8271543], [5.8060709, 49.8270305], [5.8065282, 49.8268295], [5.8066488, 49.8267613], [5.8068982, 49.8266042], [5.806955, 49.826569], [5.8072016, 49.8264291], [5.8073834, 49.8263278], [5.807451, 49.8262709], [5.8076041, 49.8261067], [5.8077153, 49.825995], [5.8079533, 49.8260632], [5.8079566, 49.826064], [5.808082, 49.8260967], [5.8081685, 49.8261141], [5.8084278, 49.8261607], [5.8084728, 49.8261666], [5.8087463, 49.8262074], [5.8088328, 49.8262214], [5.8088751, 49.8262307], [5.8091874, 49.8262911], [5.8092156, 49.8262969], [5.8093108, 49.8263178], [5.8094184, 49.8263387], [5.8095419, 49.8263677], [5.8096327, 49.8263897], [5.809675, 49.8264024], [5.8099607, 49.8264719], [5.8102516, 49.8265448], [5.8103027, 49.8265599], [5.8104121, 49.8265877], [5.810435, 49.8265946], [5.8105655, 49.826627], [5.810815, 49.8266849], [5.8110109, 49.8267187], [5.8110267, 49.8267222], [5.8112509, 49.8267457], [5.8114999, 49.8267591], [5.8117798, 49.8267691], [5.8119105, 49.8267775], [5.8120146, 49.8267893], [5.8124065, 49.8268362], [5.8124824, 49.8268399], [5.8126248, 49.8268209], [5.8127486, 49.8268041], [5.8130527, 49.8267673], [5.8132206, 49.8267529], [5.8135476, 49.8267356], [5.813588, 49.8266431], [5.8137486, 49.8266676], [5.8139868, 49.8266992], [5.8140409, 49.826707], [5.8140839, 49.8267133], [5.814341, 49.8267675], [5.8144032, 49.8267806], [5.8144121, 49.8265387], [5.8144054, 49.8264405], [5.8143857, 49.8263468], [5.8143703, 49.8262966], [5.8143358, 49.8261903], [5.8143084, 49.8261285], [5.8142845, 49.8260851], [5.8142571, 49.8260279], [5.8141957, 49.8259124], [5.8141627, 49.8258529], [5.8141005, 49.8257225], [5.8140805, 49.8256665], [5.8140069, 49.8254425], [5.8139705, 49.8253431], [5.8139229, 49.8252481], [5.8138192, 49.8250777], [5.8137512, 49.8249861], [5.8136739, 49.8248934], [5.8135735, 49.8247846], [5.8133171, 49.8245475], [5.8131022, 49.8243493], [5.8129417, 49.824205], [5.8127812, 49.8240617], [5.812677, 49.8239598], [5.8125942, 49.8238591], [5.8123909, 49.8236084], [5.8123468, 49.8235432], [5.8123247, 49.8235111], [5.8122789, 49.8234356], [5.8122221, 49.8233327], [5.8121681, 49.8232218], [5.8121187, 49.8231234], [5.8121095, 49.8231074], [5.8120134, 49.8229176], [5.8118597, 49.8226122], [5.8123347, 49.8225338], [5.8125224, 49.8225046], [5.8127306, 49.8224813], [5.8130037, 49.8224604], [5.8133306, 49.8224443], [5.8136862, 49.8224351], [5.8143993, 49.8224225], [5.8146565, 49.8224175], [5.8148664, 49.8224136], [5.8150019, 49.822422], [5.8152766, 49.8224411], [5.8155271, 49.8224544], [5.8157582, 49.8224631], [5.8159588, 49.8224637], [5.8161668, 49.8224552], [5.8164399, 49.8224309], [5.8164919, 49.8224265], [5.8165978, 49.8224177], [5.8165631, 49.8223445], [5.8164759, 49.8222027], [5.8164575, 49.8221809], [5.8163857, 49.8220939], [5.8163434, 49.8220458], [5.8162992, 49.8219841], [5.8162782, 49.8219452], [5.8162599, 49.8218994], [5.8162527, 49.8218754], [5.8162492, 49.8218412], [5.8162513, 49.8218115], [5.8162704, 49.821735], [5.816297, 49.8216529], [5.816317, 49.8215833], [5.8163738, 49.8214282], [5.8164271, 49.8212571], [5.8164318, 49.821248], [5.8164604, 49.8211442], [5.8164756, 49.8210974], [5.8165023, 49.820989], [5.8165104, 49.8209555], [5.8165215, 49.8209091], [5.8165328, 49.8208645], [5.8165444, 49.820819], [5.8165591, 49.8207151], [5.8165657, 49.8205713], [5.8165868, 49.8203487], [5.8166009, 49.8202003], [5.8165988, 49.8201067], [5.8165888, 49.8199422], [5.8165822, 49.8198349], [5.816571, 49.8197069], [5.8165426, 49.8195356], [5.8165283, 49.8194545], [5.8165193, 49.8194145], [5.8164823, 49.8192659], [5.8164441, 49.8191551], [5.816404, 49.819051], [5.8163284, 49.8188601], [5.8162737, 49.8187149], [5.8162182, 49.8185595], [5.8161382, 49.8183309], [5.8160664, 49.8181916]]]}}]}