{"type": "FeatureCollection", "features": [{"type": "Feature", "properties": {"name": "Rambrouch"}, "geometry": {"type": "Polygon", "coordinates": [[[5.8344351, 49.8137988], [5.8341754, 49.8138601], [5.8338798, 49.8139298], [5.8335593, 49.8140055], [5.8331879, 49.8140931], [5.8329, 49.8141611], [5.8328388, 49.814177], [5.8334536, 49.8150107], [5.8336351, 49.8152623], [5.8336065, 49.8152828], [5.8333359, 49.8154641], [5.8332717, 49.8155071], [5.833241, 49.8155286], [5.833094, 49.8156469], [5.8323694, 49.8155614], [5.8316973, 49.815481], [5.8316941, 49.8154806], [5.8312303, 49.8154313], [5.8308882, 49.8153949], [5.8306899, 49.8153649], [5.8305797, 49.8153483], [5.8304052, 49.8153204], [5.8302202, 49.8152856], [5.8300126, 49.8152434], [5.8300035, 49.8152415], [5.8296056, 49.8151543], [5.8291713, 49.815049], [5.8286434, 49.8149185], [5.8284445, 49.8148697], [5.828145, 49.8147963], [5.8279899, 49.8147583], [5.827657, 49.8146705], [5.8271321, 49.8145273], [5.8269698, 49.8144781], [5.8267624, 49.8144153], [5.826654, 49.8145144], [5.8273245, 49.8147838], [5.8283345, 49.8151878], [5.8279387, 49.8155191], [5.8273866, 49.8159825], [5.8268291, 49.8164699], [5.8264011, 49.8168594], [5.8261779, 49.8170836], [5.8261423, 49.8171269], [5.8260943, 49.8171724], [5.8260322, 49.8172294], [5.825915, 49.817325], [5.8258014, 49.8174195], [5.825679, 49.817506], [5.8255443, 49.8175958], [5.8253723, 49.8177062], [5.8252831, 49.817644], [5.8252244, 49.817603], [5.8250681, 49.8174941], [5.82495, 49.8174117], [5.824849, 49.8173413], [5.8247576, 49.8172873], [5.824623, 49.8173623], [5.8244247, 49.8174577], [5.8242335, 49.8175463], [5.8240405, 49.8176303], [5.8238228, 49.817721], [5.8236264, 49.8177993], [5.8235025, 49.8178469], [5.8233465, 49.8177036], [5.8233079, 49.8176658], [5.8228837, 49.8172703], [5.8225804, 49.8169861], [5.8224647, 49.8168806], [5.8223808, 49.8168052], [5.8223086, 49.816743], [5.8221475, 49.8166175], [5.8219804, 49.8164873], [5.8206391, 49.8171163], [5.8206076, 49.8171311], [5.82059, 49.8171271], [5.8203831, 49.8169311], [5.8202884, 49.8168565], [5.8202234, 49.8168118], [5.8201217, 49.8167246], [5.8199446, 49.8165653], [5.8198867, 49.816516], [5.8196796, 49.8166022], [5.8197319, 49.8166995], [5.819786, 49.8167842], [5.8198263, 49.8168243], [5.819928, 49.8169057], [5.8200229, 49.81697], [5.8201178, 49.817016], [5.8201916, 49.817063], [5.8202724, 49.8171227], [5.8203334, 49.8171757], [5.82036, 49.8172115], [5.8203699, 49.8172436], [5.820372, 49.8172504], [5.8204035, 49.8172939], [5.8204753, 49.8173729], [5.8205209, 49.8174131], [5.8205841, 49.8174578], [5.8207211, 49.8175513], [5.8208106, 49.8176202], [5.8209228, 49.8177165], [5.8210456, 49.8178208], [5.8212684, 49.8179991], [5.8214351, 49.8181436], [5.8216051, 49.8182989], [5.8217613, 49.8184285], [5.8219351, 49.818557], [5.8220106, 49.8186103], [5.8220843, 49.81867], [5.8221246, 49.8187055], [5.8220097, 49.8187349], [5.8219796, 49.8187428], [5.8219018, 49.8187631], [5.8205828, 49.8191151], [5.8196121, 49.819379], [5.8195473, 49.8193011], [5.8194686, 49.8192083], [5.8193915, 49.8191258], [5.8192916, 49.8190335], [5.8191216, 49.8188731], [5.8189305, 49.8186977], [5.8187516, 49.8185355], [5.8185975, 49.818375], [5.818545, 49.818316], [5.8184696, 49.8182427], [5.8183931, 49.8181759], [5.8183749, 49.8181601], [5.8181469, 49.8179709], [5.8179661, 49.8178316], [5.8177977, 49.8176985], [5.8176221, 49.8175683], [5.817218, 49.8177719], [5.8172024, 49.8177797], [5.8171042, 49.817826], [5.817089, 49.8178331], [5.8170094, 49.8178671], [5.8168466, 49.8179318], [5.8166041, 49.8180213], [5.81633, 49.8181125], [5.8161053, 49.8181826], [5.8160664, 49.8181916], [5.8161382, 49.8183309], [5.8162182, 49.8185595], [5.8162737, 49.8187149], [5.8163284, 49.8188601], [5.816404, 49.819051], [5.8164441, 49.8191551], [5.8164823, 49.8192659], [5.8165193, 49.8194145], [5.8165283, 49.8194545], [5.8165426, 49.8195356], [5.816571, 49.8197069], [5.8165822, 49.8198349], [5.8165888, 49.8199422], [5.8165988, 49.8201067], [5.8166009, 49.8202003], [5.8165868, 49.8203487], [5.8165657, 49.8205713], [5.8165591, 49.8207151], [5.8165444, 49.820819], [5.8165328, 49.8208645], [5.8165215, 49.8209091], [5.8165104, 49.8209555], [5.8165023, 49.820989], [5.8164756, 49.8210974], [5.8164604, 49.8211442], [5.8164318, 49.821248], [5.8164271, 49.8212571], [5.8163738, 49.8214282], [5.816317, 49.8215833], [5.816297, 49.8216529], [5.8162704, 49.821735], [5.8162513, 49.8218115], [5.8162492, 49.8218412], [5.8162527, 49.8218754], [5.8162599, 49.8218994], [5.8162782, 49.8219452], [5.8162992, 49.8219841], [5.8163434, 49.8220458], [5.8163857, 49.8220939], [5.8164575, 49.8221809], [5.8164759, 49.8222027], [5.8165631, 49.8223445], [5.8165978, 49.8224177], [5.8164919, 49.8224265], [5.8164399, 49.8224309], [5.8161668, 49.8224552], [5.8159588, 49.8224637], [5.8157582, 49.8224631], [5.8155271, 49.8224544], [5.8152766, 49.8224411], [5.8150019, 49.822422], [5.8148664, 49.8224136], [5.8146565, 49.8224175], [5.8143993, 49.8224225], [5.8136862, 49.8224351], [5.8133306, 49.8224443], [5.8130037, 49.8224604], [5.8127306, 49.8224813], [5.8125224, 49.8225046], [5.8123347, 49.8225338], [5.8118597, 49.8226122], [5.8120134, 49.8229176], [5.8121095, 49.8231074], [5.8121187, 49.8231234], [5.8121681, 49.8232218], [5.8122221, 49.8233327], [5.8122789, 49.8234356], [5.8123247, 49.8235111], [5.8123468, 49.8235432], [5.8123909, 49.8236084], [5.8125942, 49.8238591], [5.812677, 49.8239598], [5.8127812, 49.8240617], [5.8129417, 49.824205], [5.8131022, 49.8243493], [5.8133171, 49.8245475], [5.8135735, 49.8247846], [5.8136739, 49.8248934], [5.8137512, 49.8249861], [5.8138192, 49.8250777], [5.8139229, 49.8252481], [5.8139705, 49.8253431], [5.8140069, 49.8254425], [5.8140805, 49.8256665], [5.8141005, 49.8257225], [5.8141627, 49.8258529], [5.8141957, 49.8259124], [5.8142571, 49.8260279], [5.8142845, 49.8260851], [5.8143084, 49.8261285], [5.8143358, 49.8261903], [5.8143703, 49.8262966], [5.8143857, 49.8263468], [5.8144054, 49.8264405], [5.8144121, 49.8265387], [5.8144032, 49.8267806], [5.8143859, 49.8269287], [5.8143543, 49.8270275], [5.8142932, 49.8271602], [5.814151, 49.8274905], [5.8141146, 49.8275863], [5.8140945, 49.8276731], [5.8140905, 49.827769], [5.8140948, 49.827844], [5.8141135, 49.8279559], [5.8141436, 49.8280639], [5.8141706, 49.8281479], [5.8142515, 49.8284229], [5.8142594, 49.8284529], [5.8142543, 49.8284789], [5.8142112, 49.8286076], [5.8141515, 49.8287623], [5.8141285, 49.8288062], [5.8141103, 49.8288411], [5.8140856, 49.828887], [5.8139886, 49.8290516], [5.8139426, 49.8291104], [5.8139049, 49.8291572], [5.8138035, 49.8292538], [5.8137234, 49.8293155], [5.8136271, 49.8293782], [5.8135193, 49.8294438], [5.8133986, 49.8295163], [5.813317, 49.829564], [5.8132639, 49.8297077], [5.813236, 49.8297466], [5.8132049, 49.8297815], [5.8131804, 49.8298024], [5.8131069, 49.8298441], [5.8130417, 49.8298799], [5.8130009, 49.8299068], [5.8129566, 49.8299616], [5.8129022, 49.8300583], [5.8128449, 49.8301271], [5.8127941, 49.8301809], [5.8127614, 49.8302137], [5.8126795, 49.8302964], [5.8126582, 49.8303183], [5.8126189, 49.8303672], [5.812604, 49.8303951], [5.8125841, 49.830457], [5.8125605, 49.8305688], [5.8125452, 49.8306637], [5.8125382, 49.8307346], [5.8125412, 49.8307646], [5.8125472, 49.8308325], [5.8125614, 49.8308915], [5.8125773, 49.8309345], [5.8125998, 49.8309706], [5.8126465, 49.8310337], [5.8126657, 49.8310667], [5.8126766, 49.8311307], [5.8126971, 49.8312186], [5.8127259, 49.8312857], [5.8127741, 49.8313647], [5.8128143, 49.8314178], [5.8128369, 49.8314449], [5.8128625, 49.8314999], [5.8128735, 49.8315409], [5.8128797, 49.8315909], [5.8128809, 49.8316478], [5.8128708, 49.8316927], [5.8128477, 49.8317396], [5.8127737, 49.8318653], [5.8127112, 49.831963], [5.8127028, 49.8319989], [5.812681, 49.8320948], [5.8126756, 49.8321607], [5.8126849, 49.8322297], [5.8127016, 49.8322687], [5.8127419, 49.8323068], [5.8128196, 49.832349], [5.8128747, 49.8323721], [5.8129509, 49.8323994], [5.8135511, 49.8325501], [5.8138836, 49.83263], [5.8141885, 49.8327119], [5.8140766, 49.8329083], [5.8147223, 49.8330592], [5.8147677, 49.8330663], [5.8151655, 49.8331145], [5.8160472, 49.833221], [5.8163897, 49.83327], [5.8165115, 49.8332884], [5.8165925, 49.8333166], [5.8166282, 49.8333347], [5.8166993, 49.8333859], [5.8167784, 49.833456], [5.8168284, 49.8335081], [5.8168478, 49.8335312], [5.8168557, 49.8335512], [5.816854, 49.8335732], [5.8168421, 49.8336371], [5.8168385, 49.833693], [5.8168431, 49.833731], [5.8168575, 49.833764], [5.8168816, 49.833795], [5.8169479, 49.8338472], [5.8172197, 49.8340129], [5.8173573, 49.8340892], [5.8174561, 49.8341305], [5.8175031, 49.8341456], [5.8176021, 49.8341699], [5.8176832, 49.8341941], [5.8177577, 49.8342253], [5.8178128, 49.8342544], [5.8178808, 49.8342826], [5.8179408, 49.8343018], [5.8179927, 49.8343109], [5.8180365, 49.8343281], [5.8180867, 49.8343522], [5.8181805, 49.8344114], [5.8183018, 49.8344927], [5.8184263, 49.834585], [5.8185135, 49.8346682], [5.8186818, 49.834551], [5.8187925, 49.8346301], [5.8188434, 49.8346703], [5.8189154, 49.8347219], [5.8190061, 49.8347867], [5.819156, 49.8348929], [5.8192879, 49.8349721], [5.8193969, 49.8350273], [5.819499, 49.835071], [5.8196187, 49.8351125], [5.819798, 49.8352181], [5.8200194, 49.8353628], [5.820239, 49.8355108], [5.8205377, 49.8357185], [5.820585, 49.8357632], [5.8206586, 49.8358434], [5.8207269, 49.8359167], [5.8208565, 49.8360611], [5.8208827, 49.8360977], [5.8209248, 49.8361356], [5.8209881, 49.8361803], [5.8211041, 49.8362435], [5.8212361, 49.8363079], [5.8213382, 49.8363482], [5.8214296, 49.8364067], [5.8215241, 49.8364779], [5.8216556, 49.8365982], [5.8217678, 49.8367151], [5.8218535, 49.8368193], [5.8218816, 49.8368514], [5.8219655, 49.8369659], [5.8220196, 49.8370518], [5.8227307, 49.8375436], [5.8227346, 49.8375464], [5.8228164, 49.8376033], [5.8230262, 49.8377495], [5.8234461, 49.8380455], [5.8234988, 49.8380742], [5.8237068, 49.8381308], [5.8238777, 49.8381724], [5.8241786, 49.8383196], [5.8250845, 49.8387889], [5.8252527, 49.8390462], [5.8254046, 49.8390351], [5.8260672, 49.8389848], [5.8271896, 49.8389418], [5.8278986, 49.8389618], [5.8283342, 49.8389958], [5.8288371, 49.8390697], [5.8297544, 49.839148], [5.8317933, 49.8394833], [5.8328517, 49.8396121], [5.8333736, 49.839676], [5.8340953, 49.839712], [5.8368558, 49.8395819], [5.8375777, 49.8395044], [5.837812, 49.8394109], [5.838239, 49.8392153], [5.8385971, 49.8390459], [5.8393204, 49.8387936], [5.839676, 49.838685], [5.8410375, 49.8383746], [5.8410822, 49.8383111], [5.8420213, 49.837285], [5.8425726, 49.836681], [5.842594, 49.8366571], [5.84255, 49.8366364], [5.8420601, 49.8360724], [5.8420385, 49.8360511], [5.8433021, 49.8358353], [5.8438371, 49.8354978], [5.8438587, 49.8355013], [5.843957, 49.8354378], [5.8439598, 49.8354204], [5.8440361, 49.8353723], [5.8444828, 49.835097], [5.8444918, 49.8350673], [5.8451672, 49.8346488], [5.8454076, 49.8345992], [5.8455455, 49.8345596], [5.8457243, 49.8344949], [5.8459439, 49.8343893], [5.8461424, 49.8337271], [5.8462633, 49.833331], [5.8462105, 49.8333207], [5.8451934, 49.8330831], [5.8453635, 49.8326517], [5.8453875, 49.8326163], [5.8454313, 49.8325681], [5.8454787, 49.8325098], [5.8456034, 49.8324108], [5.8456659, 49.832358], [5.8457073, 49.8323257], [5.8459075, 49.8322008], [5.8461427, 49.8320793], [5.8463437, 49.8320031], [5.8467971, 49.8318304], [5.8471908, 49.8316909], [5.8476412, 49.8315334], [5.8484367, 49.8312415], [5.8486355, 49.8311233], [5.8488281, 49.8309907], [5.8489364, 49.8308753], [5.849053, 49.8306819], [5.8493243, 49.830265], [5.8494172, 49.8300788], [5.8494768, 49.8300502], [5.8497875, 49.8299728], [5.8499033, 49.8298357], [5.8500951, 49.8295505], [5.8503617, 49.8291745], [5.8505029, 49.8289222], [5.8506242, 49.8287303], [5.8507712, 49.8284556], [5.85084, 49.8282909], [5.8509241, 49.8280897], [5.8509624, 49.8279413], [5.8511415, 49.8277577], [5.8512416, 49.8276756], [5.8514506, 49.8274841], [5.8516181, 49.8272657], [5.8517706, 49.8270298], [5.8519464, 49.8266855], [5.8520817, 49.8264893], [5.8522599, 49.8262242], [5.8524096, 49.8259254], [5.8527271, 49.8254799], [5.8529666, 49.8250559], [5.8530524, 49.8248033], [5.8531355, 49.8247258], [5.8533407, 49.824489], [5.8535101, 49.8242169], [5.8536905, 49.823882], [5.853951, 49.8234491], [5.8542453, 49.8229626], [5.854676, 49.8221377], [5.8546112, 49.822053], [5.85446, 49.8219657], [5.8542366, 49.8218474], [5.8539992, 49.8217274], [5.8536983, 49.8215872], [5.8534853, 49.8214986], [5.8532089, 49.8213922], [5.8529994, 49.8213173], [5.8527899, 49.8212425], [5.8525609, 49.8211653], [5.8523232, 49.8210864], [5.8523978, 49.8210089], [5.8520562, 49.820896], [5.8520983, 49.8208436], [5.8521772, 49.8207455], [5.8522937, 49.8205968], [5.8521557, 49.8205727], [5.8519269, 49.8205328], [5.8518348, 49.8205167], [5.8517146, 49.8204974], [5.8516685, 49.82049], [5.8514295, 49.8204528], [5.8513622, 49.8204448], [5.8513445, 49.8204427], [5.8510861, 49.8204118], [5.8510779, 49.8204108], [5.8509512, 49.8203993], [5.8507924, 49.8203849], [5.8506513, 49.8203811], [5.8504372, 49.8203715], [5.8503798, 49.8203689], [5.8502939, 49.8201574], [5.8502194, 49.8199494], [5.8501272, 49.8196238], [5.8500803, 49.8193816], [5.8500619, 49.8192285], [5.8500427, 49.8190526], [5.8500279, 49.8188984], [5.8500248, 49.8187009], [5.8500357, 49.8182557], [5.8496674, 49.8182009], [5.8497821, 49.8180639], [5.849862, 49.8179685], [5.8499384, 49.81789], [5.8500838, 49.8177579], [5.8502062, 49.8176509], [5.8502914, 49.8175735], [5.8503731, 49.8174847], [5.8506183, 49.8172044], [5.8507586, 49.8170495], [5.8509478, 49.8168342], [5.8511681, 49.8165962], [5.8514367, 49.8163041], [5.8515985, 49.8161281], [5.8517599, 49.8159858], [5.8519295, 49.8158798], [5.8518188, 49.8158821], [5.8517446, 49.8158978], [5.8516739, 49.8159251], [5.8516333, 49.8159318], [5.8515522, 49.8159293], [5.8515204, 49.8159315], [5.8514904, 49.8159383], [5.8514656, 49.8159496], [5.851455, 49.8159599], [5.8514443, 49.8159815], [5.8514283, 49.8159963], [5.8513965, 49.8160065], [5.8513471, 49.8160155], [5.8512818, 49.8160222], [5.8512151, 49.8160457], [5.8511799, 49.8159936], [5.8510719, 49.815834], [5.8513816, 49.815721], [5.8515867, 49.8156337], [5.8517177, 49.8155655], [5.8517567, 49.8155336], [5.8518126, 49.8154835], [5.8518802, 49.8153912], [5.8520316, 49.8151507], [5.8520929, 49.8150112], [5.8520953, 49.8149833], [5.8521122, 49.8147825], [5.8521272, 49.8146087], [5.8521682, 49.814354], [5.8521943, 49.8142542], [5.852233, 49.8141449], [5.8522367, 49.8141344], [5.8523074, 49.8139427], [5.8523431, 49.813794], [5.852686, 49.813744], [5.8527064, 49.8136781], [5.8524164, 49.8135594], [5.8520561, 49.8134435], [5.8513795, 49.8132886], [5.8511611, 49.8132318], [5.851065, 49.8132068], [5.8510531, 49.8132021], [5.8510419, 49.8131977], [5.8510138, 49.8131865], [5.850974, 49.8131935], [5.8509462, 49.8131905], [5.8508985, 49.8131798], [5.8508799, 49.8131828], [5.8508521, 49.8131907], [5.8507592, 49.8132254], [5.8506988, 49.8132523], [5.8506323, 49.8132651], [5.8505768, 49.8132599], [5.850512, 49.8132458], [5.850472, 49.8132317], [5.8504241, 49.8132305], [5.8503793, 49.8132404], [5.8503298, 49.8132593], [5.850271, 49.8132721], [5.8502463, 49.813275], [5.8502015, 49.8132749], [5.8501721, 49.8132818], [5.8501473, 49.8133037], [5.8501318, 49.8133107], [5.8501102, 49.8133136], [5.850073, 49.8133265], [5.8500435, 49.8133585], [5.8500202, 49.8133744], [5.849997, 49.8133763], [5.8499692, 49.8133762], [5.8499507, 49.8133852], [5.8499505, 49.8134052], [5.8499596, 49.8134332], [5.8499502, 49.8134522], [5.8499255, 49.8134571], [5.8498545, 49.8134529], [5.8497786, 49.8134558], [5.8497503, 49.8134755], [5.8497253, 49.8134942], [5.8497179, 49.8135072], [5.8497146, 49.8135275], [5.8497024, 49.8135447], [5.849683, 49.8135566], [5.8496516, 49.8135623], [5.8496202, 49.8135596], [5.8495905, 49.813547], [5.8495712, 49.8135464], [5.8495559, 49.8135513], [5.8495348, 49.8135716], [5.8494871, 49.8135991], [5.8494428, 49.8136089], [5.8494025, 49.8136119], [5.8493775, 49.8136175], [5.8493606, 49.8136305], [5.8493452, 49.8136472], [5.8493218, 49.8136507], [5.8492751, 49.8136496], [5.8492574, 49.8136511], [5.849238, 49.8136578], [5.8491436, 49.8137034], [5.84897, 49.8137756], [5.8488579, 49.8138092], [5.848683, 49.8138491], [5.8486225, 49.8138667], [5.8485775, 49.8138745], [5.8485395, 49.813881], [5.8485137, 49.8138987], [5.8484822, 49.8139142], [5.848462, 49.8139168], [5.8484355, 49.8139042], [5.8484106, 49.8138963], [5.8483865, 49.8138978], [5.8483494, 49.8139086], [5.8482807, 49.8139486], [5.8482428, 49.8139586], [5.8482114, 49.8139612], [5.8481744, 49.8139616], [5.8481213, 49.8139588], [5.8481003, 49.8139671], [5.8480671, 49.8139999], [5.8480308, 49.8140102], [5.8479784, 49.8140121], [5.8479519, 49.8140027], [5.8479263, 49.8139922], [5.8478812, 49.8139889], [5.8478491, 49.8139695], [5.8478058, 49.8139504], [5.8477808, 49.8139545], [5.8477542, 49.8139685], [5.8477242, 49.8139945], [5.8476991, 49.814021], [5.8476652, 49.8140334], [5.8476257, 49.8140375], [5.8475605, 49.8140389], [5.8475026, 49.8140356], [5.8474382, 49.8140286], [5.8474053, 49.8140212], [5.8474013, 49.8140165], [5.8473965, 49.814009], [5.8473886, 49.8139817], [5.8473839, 49.813961], [5.8473736, 49.8139437], [5.8473544, 49.8139275], [5.8473351, 49.8139212], [5.8472989, 49.8139154], [5.8472539, 49.8139116], [5.8472242, 49.8139032], [5.8472041, 49.8138938], [5.8471776, 49.8138781], [5.8471472, 49.8138613], [5.8471158, 49.8138508], [5.8470764, 49.8138444], [5.8469084, 49.8138208], [5.846933, 49.8136888], [5.8469408, 49.813686], [5.8469466, 49.8136611], [5.8469397, 49.8136529], [5.8469484, 49.8136059], [5.8465691, 49.8135209], [5.8465605, 49.8134935], [5.8464902, 49.81327], [5.8464287, 49.813083], [5.8463884, 49.8129726], [5.8463614, 49.8129137], [5.8463018, 49.8127991], [5.8462718, 49.8127099], [5.8462481, 49.8126418], [5.8461834, 49.8124412], [5.845721, 49.8123792], [5.8455192, 49.8123469], [5.845098, 49.8122725], [5.8448129, 49.8122146], [5.8447465, 49.8122011], [5.8445409, 49.8121594], [5.8445302, 49.8119498], [5.8444999, 49.8117973], [5.8444575, 49.8116299], [5.8444231, 49.8115313], [5.844358, 49.811345], [5.8442819, 49.8111689], [5.8440224, 49.8106248], [5.8437683, 49.8106976], [5.8437037, 49.8106099], [5.843695, 49.8105945], [5.843625, 49.8104705], [5.8435959, 49.8103832], [5.8435782, 49.8103303], [5.843554, 49.8102577], [5.8435278, 49.8100508], [5.8435233, 49.8100119], [5.8431314, 49.8102987], [5.8430624, 49.8103339], [5.8430431, 49.8103163], [5.8423644, 49.8097019], [5.8419797, 49.8096878], [5.8416887, 49.8096772], [5.8414169, 49.8096936], [5.8410145, 49.8097119], [5.8409156, 49.8097219], [5.840529, 49.8097539], [5.8403302, 49.8097797], [5.839729, 49.8098579], [5.839125, 49.8099334], [5.8384858, 49.8100132], [5.838209, 49.8100458], [5.8378918, 49.8100831], [5.8374051, 49.8101404], [5.837189, 49.8101657], [5.8365784, 49.8102374], [5.8365264, 49.8102435], [5.8358936, 49.8103177], [5.8358334, 49.8106032], [5.8357702, 49.8110669], [5.8357605, 49.8112006], [5.8357416, 49.8113902], [5.8357006, 49.8115605], [5.8356853, 49.8116243], [5.8356615, 49.8117464], [5.8356369, 49.8119863], [5.8355681, 49.8127676], [5.8354604, 49.8135477], [5.8350576, 49.8136463], [5.834685, 49.8137376], [5.8344351, 49.8137988]]]}}]}