{"type": "FeatureCollection", "features": [{"type": "Feature", "properties": {"name": "Schwiedelbrouch"}, "geometry": {"type": "Polygon", "coordinates": [[[5.8792679, 49.8267184], [5.8791804, 49.8266653], [5.87806, 49.8259852], [5.8767126, 49.8251672], [5.8763591, 49.8249463], [5.8762729, 49.824897], [5.8760398, 49.8249204], [5.8758703, 49.824928], [5.8756744, 49.8249309], [5.8755314, 49.8249437], [5.8753105, 49.8249831], [5.8750296, 49.8247459], [5.8750269, 49.8247369], [5.8749686, 49.8247447], [5.8748873, 49.824756], [5.8747813, 49.8247786], [5.8746876, 49.8248046], [5.8746416, 49.8248228], [5.8746186, 49.8248364], [5.8745866, 49.8248649], [5.8744731, 49.8249617], [5.8744607, 49.8249606], [5.8739687, 49.8248879], [5.8733921, 49.8248019], [5.872916, 49.8247281], [5.8725157, 49.82467], [5.8721847, 49.8246206], [5.8719356, 49.8245834], [5.8714895, 49.8245183], [5.8711703, 49.8244717], [5.8712339, 49.8244513], [5.8714713, 49.824308], [5.8713754, 49.8241919], [5.8712716, 49.8240664], [5.8712365, 49.8240288], [5.8711653, 49.8239525], [5.8711524, 49.8239387], [5.8709368, 49.8239798], [5.8704226, 49.8240768], [5.869995, 49.8241585], [5.8698519, 49.8241856], [5.8696876, 49.8241989], [5.8695359, 49.8242052], [5.8695076, 49.8242064], [5.8693397, 49.8242323], [5.86911, 49.8242722], [5.8688913, 49.8243124], [5.8688768, 49.824315], [5.8685993, 49.8243806], [5.8684101, 49.8244401], [5.8679755, 49.8242202], [5.8679297, 49.8242041], [5.8678258, 49.824165], [5.8676477, 49.8241416], [5.8673479, 49.82411], [5.8671203, 49.8240877], [5.8669492, 49.8240713], [5.8667863, 49.8240476], [5.8667852, 49.8240474], [5.8665825, 49.8240058], [5.8662847, 49.8239342], [5.8657102, 49.8237893], [5.8655271, 49.8237259], [5.8653563, 49.8236581], [5.8649866, 49.8235103], [5.8647524, 49.8234194], [5.8646609, 49.8233872], [5.8645006, 49.8233354], [5.864386, 49.8233076], [5.8643031, 49.8233006], [5.8642114, 49.8232887], [5.8641963, 49.8231709], [5.8641738, 49.8231012], [5.8641319, 49.8230256], [5.8640637, 49.8229175], [5.8639938, 49.8228168], [5.8639791, 49.8227974], [5.863894, 49.8226851], [5.8638029, 49.8225678], [5.8637452, 49.8224922], [5.863654, 49.8223903], [5.8634892, 49.8222144], [5.8633998, 49.8221274], [5.8632979, 49.822054], [5.8629376, 49.8218056], [5.8627777, 49.8216978], [5.8628292, 49.8216545], [5.8630471, 49.8215243], [5.8632436, 49.821422], [5.8633675, 49.8213686], [5.8630784, 49.8213027], [5.8630041, 49.8213307], [5.8628608, 49.8213977], [5.8627227, 49.8214682], [5.8626253, 49.8215182], [5.862535, 49.8215671], [5.8624783, 49.8216001], [5.8624464, 49.8216286], [5.8623912, 49.8217027], [5.8623519, 49.8217683], [5.8622933, 49.8218287], [5.8620945, 49.822015], [5.8618884, 49.822227], [5.8618174, 49.8222908], [5.8617358, 49.8223557], [5.8616756, 49.8223978], [5.8615605, 49.8224586], [5.8614065, 49.8225291], [5.8611874, 49.8225628], [5.8609702, 49.8225896], [5.8607494, 49.822617], [5.8606805, 49.8226248], [5.8606416, 49.8226327], [5.8605567, 49.8226633], [5.8603833, 49.8227372], [5.8603249, 49.8227621], [5.8602506, 49.8227894], [5.8601852, 49.8228018], [5.8600492, 49.8228231], [5.8599222, 49.8228206], [5.8598851, 49.8228198], [5.8596733, 49.8228215], [5.8595674, 49.8228235], [5.8591666, 49.8228425], [5.8588154, 49.8228495], [5.8586566, 49.8228445], [5.8584802, 49.8228235], [5.8583533, 49.8227923], [5.8582723, 49.822767], [5.8582728, 49.8226893], [5.858266, 49.8226076], [5.8578976, 49.8225809], [5.8575588, 49.822568], [5.8571882, 49.8225624], [5.8567275, 49.8225732], [5.8564115, 49.8225803], [5.856018, 49.8225815], [5.8559297, 49.822579], [5.8558861, 49.8225046], [5.8557484, 49.8225174], [5.8555824, 49.8225284], [5.8555627, 49.8224875], [5.8553978, 49.8221445], [5.8553142, 49.8219649], [5.8553003, 49.8219297], [5.8547081, 49.8220869], [5.854676, 49.8221377], [5.8542453, 49.8229626], [5.853951, 49.8234491], [5.8536905, 49.823882], [5.8535101, 49.8242169], [5.8533407, 49.824489], [5.8531355, 49.8247258], [5.8530524, 49.8248033], [5.8529666, 49.8250559], [5.8527271, 49.8254799], [5.8524096, 49.8259254], [5.8522599, 49.8262242], [5.8520817, 49.8264893], [5.8519464, 49.8266855], [5.8517706, 49.8270298], [5.8516181, 49.8272657], [5.8514506, 49.8274841], [5.8512416, 49.8276756], [5.8511415, 49.8277577], [5.8509624, 49.8279413], [5.8509241, 49.8280897], [5.85084, 49.8282909], [5.8507712, 49.8284556], [5.8506242, 49.8287303], [5.8505029, 49.8289222], [5.8503617, 49.8291745], [5.8500951, 49.8295505], [5.8499033, 49.8298357], [5.8497875, 49.8299728], [5.8494768, 49.8300502], [5.8494172, 49.8300788], [5.8493243, 49.830265], [5.849053, 49.8306819], [5.8489364, 49.8308753], [5.8488281, 49.8309907], [5.8486355, 49.8311233], [5.8484367, 49.8312415], [5.8476412, 49.8315334], [5.8471908, 49.8316909], [5.8467971, 49.8318304], [5.8463437, 49.8320031], [5.8461427, 49.8320793], [5.8459075, 49.8322008], [5.8457073, 49.8323257], [5.8456659, 49.832358], [5.8456034, 49.8324108], [5.8454787, 49.8325098], [5.8454313, 49.8325681], [5.8453875, 49.8326163], [5.8453635, 49.8326517], [5.8451934, 49.8330831], [5.8462105, 49.8333207], [5.8462633, 49.833331], [5.8461424, 49.8337271], [5.8459439, 49.8343893], [5.8457243, 49.8344949], [5.8455455, 49.8345596], [5.8454076, 49.8345992], [5.8451672, 49.8346488], [5.8444918, 49.8350673], [5.8444828, 49.835097], [5.8440361, 49.8353723], [5.8439598, 49.8354204], [5.843957, 49.8354378], [5.8438587, 49.8355013], [5.8438371, 49.8354978], [5.8433021, 49.8358353], [5.8420385, 49.8360511], [5.8420601, 49.8360724], [5.84255, 49.8366364], [5.842594, 49.8366571], [5.8425726, 49.836681], [5.8420213, 49.837285], [5.8410822, 49.8383111], [5.8410375, 49.8383746], [5.8411148, 49.8384297], [5.841138, 49.8384377], [5.8421015, 49.8387695], [5.8421545, 49.8387628], [5.8423099, 49.8387576], [5.8423576, 49.8387554], [5.8424229, 49.8387624], [5.8428802, 49.8388369], [5.8435975, 49.8389367], [5.8436539, 49.8389446], [5.8439286, 49.8391691], [5.8439627, 49.8391987], [5.8445546, 49.8397064], [5.8446511, 49.8397855], [5.844739, 49.8398497], [5.8448357, 49.8399071], [5.8449096, 49.8399416], [5.8448759, 49.839969], [5.845001, 49.8400047], [5.8451281, 49.8400176], [5.845234, 49.8400179], [5.8452476, 49.8400162], [5.8453418, 49.8400045], [5.8454605, 49.8402002], [5.8455213, 49.8403466], [5.8455315, 49.8404118], [5.8456814, 49.8404579], [5.8462803, 49.8406424], [5.8463085, 49.8406516], [5.8464512, 49.8406954], [5.8472951, 49.8409674], [5.8473797, 49.840995], [5.8476263, 49.8410837], [5.8479769, 49.8409213], [5.8482938, 49.8407976], [5.848683, 49.8406844], [5.8489835, 49.8406235], [5.8492381, 49.8405728], [5.8494766, 49.8405369], [5.8496021, 49.8405213], [5.8498706, 49.8404934], [5.8501162, 49.840477], [5.8503705, 49.840464], [5.8506583, 49.8404545], [5.8508508, 49.8404516], [5.8510309, 49.8404532], [5.8509417, 49.8408563], [5.8509048, 49.8411098], [5.8508764, 49.8413965], [5.8508588, 49.8416558], [5.8512289, 49.8416709], [5.8520468, 49.8416979], [5.8524316, 49.8417047], [5.8526254, 49.8420142], [5.8526564, 49.842132], [5.8528021, 49.8420275], [5.852958, 49.8419157], [5.8534477, 49.8415412], [5.8534925, 49.8415093], [5.8536872, 49.8413704], [5.8538732, 49.8412704], [5.8540592, 49.8411795], [5.8542645, 49.8411012], [5.8545192, 49.8410219], [5.8547703, 49.8409689], [5.8549541, 49.8409351], [5.8553853, 49.8408746], [5.8556699, 49.8411027], [5.8560281, 49.8414041], [5.8570671, 49.8412778], [5.8579739, 49.8411054], [5.8582851, 49.8410286], [5.8584656, 49.8409696], [5.8585488, 49.8409333], [5.8586197, 49.8408958], [5.8586747, 49.8408502], [5.8587226, 49.8408035], [5.8587813, 49.8407363], [5.8588188, 49.8406792], [5.8588867, 49.8405489], [5.8589194, 49.8405597], [5.8592262, 49.840661], [5.8590406, 49.8408749], [5.8587383, 49.8412078], [5.8585765, 49.841389], [5.8584913, 49.8414608], [5.8584381, 49.8414972], [5.8583478, 49.8415369], [5.8582487, 49.8415721], [5.8581462, 49.8415958], [5.858832, 49.8420318], [5.8595688, 49.8423138], [5.8596316, 49.8423378], [5.8604649, 49.8426325], [5.8610673, 49.8428478], [5.8612268, 49.8435931], [5.8613281, 49.8437805], [5.8613991, 49.8437897], [5.8618213, 49.8437109], [5.8620069, 49.8436814], [5.8623269, 49.8436492], [5.8624042, 49.8436444], [5.862769, 49.8436194], [5.8629668, 49.8436019], [5.863678, 49.8435308], [5.8638094, 49.8435182], [5.8641247, 49.843488], [5.8643612, 49.8434666], [5.8647896, 49.8434007], [5.8650556, 49.8433515], [5.8653356, 49.8433032], [5.8655088, 49.8432747], [5.865668, 49.8432611], [5.8661223, 49.8432373], [5.8663496, 49.8437177], [5.8664685, 49.843975], [5.8665447, 49.8441371], [5.8665716, 49.8441899], [5.8666642, 49.8442082], [5.8667846, 49.8442325], [5.8668447, 49.8442496], [5.8669279, 49.8442838], [5.8670558, 49.8443371], [5.8671713, 49.8443944], [5.8672961, 49.8444567], [5.8674085, 49.844511], [5.8675796, 49.8445764], [5.8677724, 49.8446409], [5.8679651, 49.8446974], [5.8681965, 49.844756], [5.8682262, 49.8447624], [5.868357, 49.8447904], [5.8687334, 49.8448783], [5.8690142, 49.844946], [5.8694477, 49.8450391], [5.8694817, 49.8450442], [5.8698351, 49.8451071], [5.8701051, 49.8451748], [5.8703564, 49.8452524], [5.8704243, 49.8452796], [5.8704557, 49.8452894], [5.8706125, 49.8451659], [5.8708422, 49.8449945], [5.8709571, 49.8448998], [5.8711872, 49.8446595], [5.8713799, 49.8444771], [5.8715414, 49.8443345], [5.8717682, 49.8441441], [5.871925, 49.8440176], [5.872074, 49.843902], [5.8721608, 49.8438522], [5.8722708, 49.8437985], [5.8723104, 49.8438068], [5.8726221, 49.8438706], [5.8727964, 49.843912], [5.8729707, 49.8439534], [5.873148, 49.8440169], [5.8734933, 49.8441427], [5.8737784, 49.8442564], [5.8740004, 49.8443399], [5.8744167, 49.8444779], [5.8749687, 49.8446563], [5.875032, 49.8446755], [5.8751976, 49.8447354], [5.8754055, 49.8448124], [5.8758071, 49.844962], [5.8759005, 49.8449976], [5.876223, 49.8450979], [5.8762442, 49.8451036], [5.8766284, 49.8452223], [5.8770388, 49.8453437], [5.8772435, 49.8454043], [5.8774385, 49.8454616], [5.8775573, 49.8454965], [5.8776895, 49.8455357], [5.8776962, 49.8455375], [5.8778622, 49.845583], [5.8785674, 49.8457732], [5.8786502, 49.845794], [5.8787419, 49.8458296], [5.8789197, 49.8459078], [5.8791538, 49.8460295], [5.8794494, 49.8462119], [5.8796341, 49.846338], [5.8797624, 49.8464389], [5.879917, 49.8465684], [5.8801505, 49.8467929], [5.8803065, 49.8469943], [5.8804464, 49.8472175], [5.8806248, 49.8475139], [5.8807015, 49.8476729], [5.8807642, 49.8478273], [5.8808266, 49.8480194], [5.8808743, 49.8483211], [5.8808768, 49.8484959], [5.8808158, 49.8486523], [5.8806447, 49.8489226], [5.8810736, 49.8489443], [5.8820037, 49.8490288], [5.8820337, 49.8490335], [5.882023, 49.8490517], [5.8820548, 49.8490575], [5.8822207, 49.8490762], [5.8823689, 49.8490857], [5.8825138, 49.8490769], [5.8826906, 49.8490431], [5.8828709, 49.8490115], [5.8830494, 49.8489846], [5.8832544, 49.8489576], [5.8835141, 49.8489389], [5.8838002, 49.8489258], [5.8838338, 49.8489258], [5.8841131, 49.848914], [5.884392, 49.8489023], [5.8845942, 49.8488878], [5.8848053, 49.8488726], [5.8849914, 49.8488593], [5.8852028, 49.8488441], [5.8854472, 49.8487932], [5.8856822, 49.8487442], [5.8857579, 49.8485793], [5.8859525, 49.8481556], [5.8859773, 49.848048], [5.8861072, 49.8478712], [5.8856878, 49.8477296], [5.8853988, 49.8476181], [5.8852104, 49.8475354], [5.884492, 49.8471794], [5.8844586, 49.8471622], [5.8842966, 49.8470773], [5.8838776, 49.8468649], [5.8826839, 49.846277], [5.8826328, 49.8462583], [5.8824638, 49.84617], [5.8823178, 49.8460748], [5.8820575, 49.8458868], [5.8818219, 49.8457217], [5.8816372, 49.8456081], [5.8814013, 49.8454864], [5.8804152, 49.8450304], [5.8799679, 49.844827], [5.8799362, 49.8448098], [5.8792281, 49.8445236], [5.8788935, 49.8443845], [5.8784759, 49.8442315], [5.8781357, 49.8441381], [5.8777213, 49.8440411], [5.8771712, 49.8439243], [5.8769278, 49.8438746], [5.8767426, 49.8438467], [5.8762717, 49.8438222], [5.87589, 49.8438023], [5.8755617, 49.8437832], [5.8753605, 49.8437678], [5.8751188, 49.8437364], [5.8749001, 49.8436947], [5.8746939, 49.8436404], [5.8745229, 49.8436023], [5.8742936, 49.8435595], [5.873999, 49.8435164], [5.8739501, 49.8435349], [5.873934, 49.8435309], [5.8733801, 49.8434146], [5.8723232, 49.843188], [5.8712539, 49.8429703], [5.8708157, 49.8428872], [5.8699605, 49.842764], [5.8690004, 49.8426356], [5.868721, 49.8425909], [5.8687383, 49.842547], [5.8687932, 49.8424082], [5.8688088, 49.8423872], [5.8688507, 49.8423523], [5.8689143, 49.8423225], [5.8690009, 49.8423007], [5.8691143, 49.8422818], [5.8692313, 49.8422623], [5.869748, 49.8421617], [5.8701038, 49.8420826], [5.870192, 49.8420559], [5.8702059, 49.8420489], [5.8704617, 49.8419166], [5.8706802, 49.8418022], [5.8708569, 49.8417067], [5.8709392, 49.8416379], [5.8709641, 49.84161], [5.8709765, 49.841595], [5.8710217, 49.8415251], [5.8710703, 49.8414213], [5.8710809, 49.8413892], [5.8711049, 49.8413164], [5.8711069, 49.8412414], [5.871092, 49.8411494], [5.8710573, 49.8410194], [5.8710145, 49.8409383], [5.8711917, 49.8410097], [5.8713907, 49.8410692], [5.8717711, 49.8411781], [5.8719605, 49.8408543], [5.8724039, 49.8400826], [5.8726397, 49.8396643], [5.8727965, 49.8393418], [5.8728901, 49.8391431], [5.8730105, 49.8388895], [5.873065, 49.8388326], [5.8731365, 49.8387478], [5.8731848, 49.838679], [5.8732473, 49.8385652], [5.8733128, 49.8384614], [5.8733736, 49.8383736], [5.8734795, 49.8382339], [5.8735744, 49.8381221], [5.8736692, 49.8380214], [5.8737687, 49.8379267], [5.8738139, 49.8378568], [5.8738219, 49.8378128], [5.8738473, 49.8376909], [5.8738368, 49.8376429], [5.8738557, 49.837587], [5.87389, 49.8375281], [5.8740874, 49.8373347], [5.8741233, 49.8372678], [5.8741733, 49.8371659], [5.8742309, 49.8370941], [5.8744594, 49.8368647], [5.8746709, 49.83665], [5.87478, 49.836577], [5.8748845, 49.8365236], [5.8750544, 49.8364475], [5.8752985, 49.836363], [5.8753421, 49.836354], [5.8757512, 49.8362419], [5.8757865, 49.8362442], [5.8759244, 49.8361989], [5.875952, 49.836205], [5.8761361, 49.8362348], [5.8762543, 49.8362523], [5.876339, 49.8362536], [5.8764097, 49.8362447], [5.8764839, 49.8362277], [5.8765865, 49.8361903], [5.8766876, 49.8361082], [5.8767995, 49.836004], [5.8768687, 49.8359436], [5.8769059, 49.8359243], [5.8769766, 49.8358982], [5.8770633, 49.8358721], [5.877173, 49.8358381], [5.8772279, 49.8358097], [5.8773041, 49.8357584], [5.8773697, 49.8356992], [5.8774213, 49.835641], [5.8775067, 49.8355344], [5.8775601, 49.8354511], [5.8776047, 49.835377], [5.8776673, 49.8352383], [5.8777087, 49.8351139], [5.8777293, 49.8349163], [5.8772853, 49.8348928], [5.8772405, 49.8348848], [5.876507, 49.8347332], [5.8763783, 49.8347066], [5.8763338, 49.8346901], [5.876262, 49.8346635], [5.8757443, 49.8344565], [5.875621, 49.8344094], [5.8757064, 49.8342913], [5.8753101, 49.8341395], [5.8752906, 49.83416], [5.8750347, 49.8340817], [5.8748201, 49.834016], [5.8749154, 49.8337403], [5.8745085, 49.8335902], [5.8744135, 49.8335595], [5.8743198, 49.8335194], [5.8742861, 49.8335042], [5.8740454, 49.833311], [5.8739822, 49.8332549], [5.8739365, 49.8332273], [5.873852, 49.8331894], [5.8735755, 49.8330813], [5.873778, 49.8328354], [5.8738426, 49.8327569], [5.8739614, 49.8326127], [5.8731304, 49.832249], [5.8725992, 49.8320157], [5.8727743, 49.8318739], [5.8728737, 49.8317919], [5.8729257, 49.8317486], [5.8730512, 49.8316442], [5.8730955, 49.8316074], [5.8732535, 49.8317392], [5.8737819, 49.8313527], [5.8738103, 49.8313287], [5.8738636, 49.8312752], [5.8740201, 49.8310808], [5.8742175, 49.8308333], [5.8746177, 49.8303396], [5.8748791, 49.8300153], [5.8746577, 49.8298502], [5.8743817, 49.8296587], [5.8742727, 49.8295813], [5.8740354, 49.8294276], [5.8738876, 49.8293427], [5.8741058, 49.8291697], [5.8742836, 49.8290288], [5.8743527, 49.8289855], [5.8744323, 49.8289503], [5.8745972, 49.8288365], [5.8747301, 49.8287397], [5.8751573, 49.8284431], [5.8752193, 49.8284021], [5.8752813, 49.8283783], [5.8755994, 49.8283151], [5.8759935, 49.828231], [5.8762852, 49.8281506], [5.8765169, 49.8280655], [5.8767276, 49.8279677], [5.8770002, 49.8278376], [5.8773277, 49.8276773], [5.8777065, 49.8274891], [5.8781898, 49.827255], [5.8784783, 49.8271214], [5.8786198, 49.8270658], [5.8786288, 49.8270401], [5.8792052, 49.8267499], [5.8792679, 49.8267184]]]}}]}