{"type": "FeatureCollection", "features": [{"type": "Feature", "properties": {"name": "Parc Jaquinot", "kind": "park"}, "geometry": {"type": "Polygon", "coordinates": [[[6.1021516, 49.5135863], [6.1020704, 49.5135763], [6.1018128, 49.5134515], [6.10177, 49.5134992], [6.1017358, 49.5135741], [6.1017144, 49.5136585], [6.1017197, 49.5137326], [6.1019692, 49.5143316], [6.1020317, 49.5144949], [6.102331, 49.5154889], [6.1025832, 49.5154581], [6.1026742, 49.5157727], [6.102422, 49.5158034], [6.1024842, 49.5160108], [6.1025432, 49.5160042], [6.102564, 49.5160306], [6.1025992, 49.5160702], [6.102636, 49.5160998], [6.1026826, 49.5161122], [6.1027469, 49.5161116], [6.102801, 49.5161052], [6.1028506, 49.5160891], [6.1028949, 49.5160648], [6.1029396, 49.5160468], [6.1028829, 49.5157932], [6.10296, 49.5157859], [6.1031533, 49.5157677], [6.1032171, 49.5160661], [6.1033069, 49.51609], [6.1033862, 49.5159366], [6.1034857, 49.5157416], [6.1035, 49.5157184], [6.1036535, 49.5154432], [6.1037282, 49.5154608], [6.1038491, 49.515484], [6.1039165, 49.515499], [6.1042454, 49.515523], [6.1043922, 49.5156734], [6.1045216, 49.5156186], [6.1043278, 49.5155058], [6.1040412, 49.5152263], [6.1042877, 49.5151269], [6.1035742, 49.5144343], [6.1040322, 49.5142349], [6.1038013, 49.5140115], [6.1034512, 49.5141641], [6.1033207, 49.5142245], [6.10254, 49.5134845], [6.1023562, 49.513562], [6.1023286, 49.5135501], [6.1021516, 49.5135863]]]}}]}