{"type": "FeatureCollection", "features": [{"type": "Feature", "properties": {"name": "Parc Michel Hack", "kind": "park"}, "geometry": {"type": "Polygon", "coordinates": [[[6.0948749, 49.5144961], [6.0949121, 49.5144695], [6.0949506, 49.5144196], [6.0949555, 49.514389], [6.0949195, 49.5143431], [6.0948625, 49.5143084], [6.0947831, 49.5142843], [6.0947297, 49.5142802], [6.0946603, 49.5142996], [6.0946429, 49.5143237], [6.0946727, 49.5143568], [6.094659, 49.5144196], [6.0946789, 49.5144558], [6.094721, 49.5144824], [6.0947905, 49.5145042], [6.0948426, 49.5145042], [6.0948749, 49.5144961]]]}}]}