{"type": "FeatureCollection", "features": [{"type": "Feature", "properties": {"name": "Um Bierg", "kind": "nature_reserve"}, "geometry": {"type": "Polygon", "coordinates": [[[6.1168512, 49.5153208], [6.1170673, 49.514908], [6.1177379, 49.5151214], [6.1181805, 49.5153268], [6.1186633, 49.5155976], [6.1197415, 49.5163029], [6.120111, 49.5165166], [6.1212569, 49.5171732], [6.1220719, 49.517726], [6.1217496, 49.517972], [6.1215879, 49.5180845], [6.1207911, 49.5186371], [6.1206114, 49.5187218], [6.1204655, 49.5187906], [6.1201694, 49.5189063], [6.1197509, 49.5190324], [6.1183635, 49.519979], [6.1187861, 49.5202334], [6.1181788, 49.5206677], [6.118153, 49.5206861], [6.1174464, 49.5207325], [6.1169835, 49.5206744], [6.1170298, 49.520408], [6.1170579, 49.5199797], [6.1171585, 49.5191038], [6.1171478, 49.5186197], [6.1171049, 49.5181931], [6.116944, 49.5173782], [6.1169936, 49.5169664], [6.1169976, 49.5167513], [6.1167686, 49.5156971], [6.1167582, 49.5156494], [6.1167607, 49.5155915], [6.1167629, 49.5155432], [6.1167654, 49.515488], [6.1168512, 49.5153208]]]}}]}