{"type": "FeatureCollection", "features": [{"type": "Feature", "properties": {"name": "Esch-sur-Sûre"}, "geometry": {"type": "MultiPolygon", "coordinates": [[[[5.845255, 49.90007], [5.845255, 49.900166], [5.845262, 49.900295], [5.845301, 49.900406], [5.845358, 49.900543], [5.84548, 49.900692], [5.845598, 49.900806], [5.845686, 49.900875], [5.845835, 49.900967], [5.847013, 49.901344], [5.847826, 49.90156], [5.848192, 49.901638], [5.848692, 49.901688], [5.849127, 49.90168], [5.849573, 49.90162], [5.849997, 49.901505], [5.850367, 49.90134], [5.850973, 49.90104], [5.852015, 49.900494], [5.853136, 49.89997], [5.853868, 49.899582], [5.85428, 49.899456], [5.854399, 49.899452], [5.854536, 49.8995], [5.854754, 49.899624], [5.855059, 49.89988], [5.855329, 49.90014], [5.855532, 49.900356], [5.855696, 49.900623], [5.855833, 49.90092], [5.855909, 49.90119], [5.855955, 49.901455], [5.855944, 49.90167], [5.855948, 49.90203], [5.855898, 49.902573], [5.855841, 49.90274], [5.855768, 49.902866], [5.855635, 49.902996], [5.855452, 49.903133], [5.855158, 49.903316], [5.85441, 49.903694], [5.854128, 49.903843], [5.853807, 49.904057], [5.853281, 49.904545], [5.853045, 49.90475], [5.852697, 49.904972], [5.852484, 49.905155], [5.852243, 49.90546], [5.852133, 49.90569], [5.852087, 49.90588], [5.852056, 49.906082], [5.852064, 49.906204], [5.85211, 49.906376], [5.852179, 49.906586], [5.85227, 49.906784], [5.852438, 49.907013], [5.852655, 49.90722], [5.852961, 49.907413], [5.853247, 49.907524], [5.853525, 49.907665], [5.855761, 49.907593], [5.856173, 49.90753], [5.85676, 49.90734], [5.857348, 49.906826], [5.857714, 49.906216], [5.858408, 49.904907], [5.859034, 49.904053], [5.85969, 49.903553], [5.860537, 49.90309], [5.861052, 49.90287], [5.861586, 49.902534], [5.861917, 49.902145], [5.862055, 49.9018], [5.862162, 49.90143], [5.862146, 49.900963], [5.862013, 49.900673], [5.861292, 49.90008], [5.860609, 49.89976], [5.859991, 49.899338], [5.859716, 49.89902], [5.859549, 49.89847], [5.859709, 49.89805], [5.859896, 49.89784], [5.860468, 49.897564], [5.861139, 49.897484], [5.862066, 49.89743], [5.863596, 49.897606], [5.864229, 49.89782], [5.864935, 49.898148], [5.865309, 49.89878], [5.865645, 49.899765], [5.865828, 49.90065], [5.866049, 49.901337], [5.866304, 49.901844], [5.866938, 49.902332], [5.86788, 49.90263], [5.869322, 49.902813], [5.870562, 49.902817], [5.871801, 49.90272], [5.873468, 49.90247], [5.87459, 49.90217], [5.875071, 49.902065], [5.875673, 49.902042], [5.876306, 49.90214], [5.876722, 49.90211], [5.877409, 49.901955], [5.877874, 49.90204], [5.878939, 49.90239], [5.879862, 49.902943], [5.880426, 49.90329], [5.880686, 49.903603], [5.880854, 49.90411], [5.880869, 49.9047], [5.881022, 49.90503], [5.881327, 49.905327], [5.881773, 49.90556], [5.882288, 49.90572], [5.883146, 49.90588], [5.883749, 49.90591], [5.884195, 49.90604], [5.88471, 49.90642], [5.886183, 49.907593], [5.886473, 49.90798], [5.886572, 49.908257], [5.886416, 49.90846], [5.886328, 49.908627], [5.886416, 49.908913], [5.887457, 49.91011], [5.888037, 49.91063], [5.888861, 49.9111], [5.890062, 49.911545], [5.890799, 49.91176], [5.891752, 49.911728], [5.892721, 49.91166], [5.894014, 49.91149], [5.894613, 49.911438], [5.895166, 49.911564], [5.895788, 49.911808], [5.896204, 49.91202], [5.896456, 49.91246], [5.897047, 49.91351], [5.897486, 49.91385], [5.898405, 49.913994], [5.899355, 49.9138], [5.900072, 49.91346], [5.900721, 49.912823], [5.902185, 49.91078], [5.903204, 49.909695], [5.90365, 49.908703], [5.903627, 49.90828], [5.903837, 49.90794], [5.904276, 49.9076], [5.904787, 49.907417], [5.905409, 49.907463], [5.905916, 49.90769], [5.906397, 49.908], [5.906786, 49.908413], [5.907202, 49.90871], [5.907984, 49.909153], [5.908487, 49.90941], [5.909018, 49.909863], [5.909338, 49.910515], [5.909712, 49.91113], [5.909895, 49.911205], [5.910685, 49.9113], [5.911451, 49.911274], [5.911879, 49.911163], [5.912134, 49.911015], [5.91234, 49.910797], [5.912477, 49.91039], [5.912394, 49.91002], [5.912092, 49.909473], [5.911924, 49.909206], [5.911852, 49.90888], [5.911852, 49.908783], [5.912378, 49.90883], [5.912844, 49.908115], [5.913259, 49.90731], [5.913561, 49.90687], [5.913885, 49.90647], [5.914911, 49.905533], [5.915754, 49.904633], [5.916193, 49.904316], [5.916914, 49.90384], [5.917345, 49.903664], [5.917799, 49.90367], [5.918566, 49.90376], [5.918928, 49.90389], [5.919138, 49.90401], [5.91934, 49.90428], [5.919466, 49.90472], [5.919565, 49.90513], [5.919546, 49.905533], [5.919397, 49.906], [5.919218, 49.9065], [5.919096, 49.90687], [5.918993, 49.907043], [5.918741, 49.90733], [5.918322, 49.908047], [5.918436, 49.908096], [5.918215, 49.908543], [5.918024, 49.90887], [5.917841, 49.90911], [5.917719, 49.909424], [5.917654, 49.909756], [5.917688, 49.910168], [5.917856, 49.910805], [5.91799, 49.91116], [5.918161, 49.911377], [5.918352, 49.911594], [5.918592, 49.91175], [5.919023, 49.911896], [5.919714, 49.9121], [5.920301, 49.91226], [5.920786, 49.91234], [5.921141, 49.91235], [5.921427, 49.91232], [5.921659, 49.912277], [5.921984, 49.912167], [5.922293, 49.911995], [5.922537, 49.91182], [5.922621, 49.911766], [5.922708, 49.911713], [5.922842, 49.91163], [5.923018, 49.91152], [5.923979, 49.91059], [5.924269, 49.910732], [5.925127, 49.911083], [5.925436, 49.91121], [5.926237, 49.911533], [5.926081, 49.911816], [5.926035, 49.911907], [5.925993, 49.912083], [5.925482, 49.912453], [5.925119, 49.91278], [5.924105, 49.913795], [5.924314, 49.9143], [5.924334, 49.91442], [5.924311, 49.914543], [5.924376, 49.914772], [5.924417, 49.91486], [5.924486, 49.914963], [5.924559, 49.915047], [5.924662, 49.915146], [5.924742, 49.915207], [5.924883, 49.91529], [5.924994, 49.915348], [5.925188, 49.91542], [5.925413, 49.915485], [5.925535, 49.915516], [5.925692, 49.915546], [5.925875, 49.91557], [5.925989, 49.915565], [5.926172, 49.915546], [5.926756, 49.915455], [5.926916, 49.91578], [5.926966, 49.9159], [5.927175, 49.916332], [5.927259, 49.916515], [5.927332, 49.91672], [5.927351, 49.916756], [5.927385, 49.916782], [5.92742, 49.916798], [5.927459, 49.9168], [5.927493, 49.91679], [5.92751, 49.916769], [5.927543, 49.916637], [5.927609, 49.91648], [5.927647, 49.91638], [5.927666, 49.91632], [5.927678, 49.916252], [5.927665, 49.916183], [5.927594, 49.915962], [5.927522, 49.915752], [5.927481, 49.9156], [5.927449, 49.91547], [5.927431, 49.915356], [5.927427, 49.91526], [5.927438, 49.915092], [5.927454, 49.91495], [5.927477, 49.914856], [5.927523, 49.91478], [5.92757, 49.914715], [5.927638, 49.914654], [5.927818, 49.914555], [5.927942, 49.914482], [5.928029, 49.91442], [5.928076, 49.914383], [5.928136, 49.91432], [5.928187, 49.91426], [5.928394, 49.91406], [5.928434, 49.914013], [5.928491, 49.913933], [5.928532, 49.91383], [5.928534, 49.913757], [5.928523, 49.913696], [5.9285, 49.91364], [5.92848, 49.913605], [5.92839, 49.913532], [5.92848, 49.913292], [5.928553, 49.913074], [5.928575, 49.913033], [5.928638, 49.912933], [5.928702, 49.912865], [5.928753, 49.912827], [5.92889, 49.912766], [5.928933, 49.912743], [5.928986, 49.9127], [5.929107, 49.912586], [5.929263, 49.912422], [5.929303, 49.912388], [5.929419, 49.912327], [5.929612, 49.912266], [5.929855, 49.9122], [5.930002, 49.912163], [5.930128, 49.912117], [5.930203, 49.912083], [5.930263, 49.91205], [5.930333, 49.91203], [5.930454, 49.912003], [5.930464, 49.912018], [5.930586, 49.912212], [5.930634, 49.91229], [5.931236, 49.91221], [5.931193, 49.912144], [5.932015, 49.91209], [5.931957, 49.912197], [5.931881, 49.91238], [5.931782, 49.91264], [5.931714, 49.91283], [5.93171, 49.912907], [5.931709, 49.91294], [5.931707, 49.912975], [5.931704, 49.913048], [5.931706, 49.91309], [5.931711, 49.913193], [5.93172, 49.913322], [5.931733, 49.913452], [5.93174, 49.91353], [5.931756, 49.913708], [5.931764, 49.913788], [5.931772, 49.91387], [5.931791, 49.913937], [5.931835, 49.914047], [5.931942, 49.91429], [5.931982, 49.914406], [5.932036, 49.914543], [5.932064, 49.9146], [5.932107, 49.914658], [5.932187, 49.91475], [5.932374, 49.914932], [5.932478, 49.915043], [5.932602, 49.91516], [5.932804, 49.915333], [5.932881, 49.915413], [5.932954, 49.915497], [5.933005, 49.91556], [5.93307, 49.91563], [5.933119, 49.915676], [5.933171, 49.915714], [5.933268, 49.91577], [5.933328, 49.9158], [5.933374, 49.915813], [5.933466, 49.915833], [5.933543, 49.915844], [5.933618, 49.91585], [5.933717, 49.91585], [5.933804, 49.91584], [5.933932, 49.915813], [5.934104, 49.915768], [5.934225, 49.915737], [5.934386, 49.915707], [5.934647, 49.915676], [5.934469, 49.915188], [5.934694, 49.9151], [5.93479, 49.91506], [5.934855, 49.91502], [5.934931, 49.91497], [5.935003, 49.914906], [5.935041, 49.914867], [5.935087, 49.914818], [5.935152, 49.91473], [5.935194, 49.91468], [5.935339, 49.91477], [5.935457, 49.91484], [5.935614, 49.914825], [5.935675, 49.91483], [5.935816, 49.91484], [5.936003, 49.914864], [5.936094, 49.91488], [5.936297, 49.914894], [5.936487, 49.914906], [5.936647, 49.91492], [5.936731, 49.91493], [5.936865, 49.914948], [5.937113, 49.91499], [5.937288, 49.91502], [5.93746, 49.915047], [5.937517, 49.91506], [5.937628, 49.915066], [5.937742, 49.915073], [5.937841, 49.915073], [5.937956, 49.915062], [5.938025, 49.91505], [5.938128, 49.915024], [5.938173, 49.915012], [5.93825, 49.91499], [5.938326, 49.914955], [5.938387, 49.914925], [5.938479, 49.914867], [5.938578, 49.9148], [5.938643, 49.914745], [5.938723, 49.91468], [5.938799, 49.914616], [5.938875, 49.91454], [5.938932, 49.914482], [5.938993, 49.91441], [5.939043, 49.914337], [5.939074, 49.91428], [5.939093, 49.91422], [5.939115, 49.914112], [5.939135, 49.913937], [5.939146, 49.913696], [5.939295, 49.913647], [5.939421, 49.913597], [5.939493, 49.913555], [5.939562, 49.913513], [5.939592, 49.91349], [5.939653, 49.913445], [5.93973, 49.913383], [5.939768, 49.91334], [5.939787, 49.91332], [5.939817, 49.913277], [5.939848, 49.91322], [5.939875, 49.913155], [5.939901, 49.913063], [5.939905, 49.91303], [5.939905, 49.91297], [5.939901, 49.912933], [5.939886, 49.912907], [5.939856, 49.912865], [5.939791, 49.91278], [5.93976, 49.91274], [5.939749, 49.91272], [5.939726, 49.91268], [5.939711, 49.912643], [5.939692, 49.912563], [5.939741, 49.912518], [5.939821, 49.912445], [5.939871, 49.91241], [5.939901, 49.912388], [5.93992, 49.912346], [5.939936, 49.912285], [5.93994, 49.912224], [5.939901, 49.91179], [5.93989, 49.91168], [5.939814, 49.91164], [5.939749, 49.911602], [5.939718, 49.911568], [5.939653, 49.911465], [5.939608, 49.91141], [5.939527, 49.911327], [5.939501, 49.911285], [5.939485, 49.91125], [5.939482, 49.911217], [5.939478, 49.911175], [5.939478, 49.9111], [5.939485, 49.91102], [5.939489, 49.911], [5.939508, 49.91091], [5.939547, 49.91078], [5.939619, 49.910557], [5.939726, 49.910263], [5.939787, 49.91006], [5.93989, 49.909782], [5.939966, 49.90956], [5.940222, 49.909626], [5.940474, 49.909695], [5.940664, 49.909767], [5.940821, 49.909843], [5.94105, 49.909977], [5.941221, 49.910084], [5.941339, 49.910145], [5.941465, 49.91019], [5.94187, 49.9103], [5.942236, 49.91041], [5.942373, 49.91045], [5.942533, 49.910484], [5.942903, 49.910557], [5.943064, 49.910587], [5.94322, 49.91063], [5.943361, 49.910664], [5.943464, 49.91069], [5.943853, 49.91076], [5.943895, 49.910625], [5.943903, 49.910595], [5.943914, 49.91056], [5.943933, 49.910492], [5.94393, 49.91043], [5.943922, 49.910336], [5.943922, 49.910316], [5.944097, 49.910408], [5.944231, 49.91047], [5.944265, 49.910477], [5.944311, 49.910477], [5.944364, 49.91046], [5.944445, 49.91042], [5.944498, 49.910393], [5.944532, 49.910393], [5.944605, 49.910416], [5.94475, 49.910458], [5.944776, 49.91046], [5.944826, 49.910465], [5.944925, 49.91047], [5.945067, 49.91047], [5.9452, 49.910473], [5.94557, 49.910503], [5.945951, 49.91055], [5.946043, 49.910557], [5.94618, 49.910553], [5.946249, 49.910553], [5.946321, 49.910564], [5.946554, 49.910618], [5.946627, 49.91063], [5.946714, 49.91063], [5.946836, 49.910606], [5.94697, 49.91058], [5.947046, 49.910572], [5.947157, 49.910583], [5.947321, 49.910603], [5.947405, 49.910606], [5.947538, 49.910606], [5.947649, 49.910606], [5.947695, 49.91062], [5.947729, 49.910645], [5.947752, 49.910645], [5.947874, 49.91065], [5.948107, 49.91064], [5.948301, 49.91062], [5.948504, 49.910587], [5.948679, 49.910553], [5.948839, 49.91051], [5.948816, 49.91067], [5.948893, 49.910675], [5.949705, 49.9107], [5.949827, 49.9107], [5.949892, 49.910703], [5.949961, 49.910023], [5.950033, 49.90995], [5.950117, 49.90986], [5.950174, 49.909763], [5.950308, 49.909584], [5.950415, 49.909447], [5.950598, 49.909264], [5.950964, 49.908966], [5.95117, 49.908806], [5.951483, 49.9085], [5.951529, 49.90847], [5.952341, 49.908203], [5.952581, 49.9081], [5.952784, 49.908005], [5.952963, 49.907898], [5.953051, 49.907867], [5.953157, 49.907837], [5.953249, 49.9078], [5.953306, 49.907764], [5.953447, 49.907604], [5.953531, 49.90749], [5.953596, 49.907356], [5.953638, 49.90718], [5.953718, 49.90698], [5.953749, 49.90686], [5.953749, 49.90675], [5.953772, 49.906555], [5.953783, 49.906445], [5.95376, 49.906254], [5.953779, 49.906216], [5.953783, 49.90617], [5.953787, 49.906136], [5.953791, 49.906113], [5.953817, 49.905987], [5.953852, 49.905903], [5.953943, 49.90574], [5.95402, 49.905663], [5.954191, 49.905563], [5.954592, 49.905342], [5.955175, 49.905045], [5.955244, 49.904894], [5.956071, 49.905489], [5.956792, 49.906005], [5.957399, 49.906295], [5.95815, 49.906639], [5.958699, 49.906756], [5.959219, 49.906814], [5.959836, 49.906821], [5.96026, 49.906783], [5.960794, 49.906649], [5.961408, 49.906439], [5.962072, 49.906239], [5.962289, 49.906139], [5.962442, 49.906049], [5.962545, 49.905883], [5.962709, 49.905309], [5.962896, 49.904989], [5.963056, 49.904834], [5.963262, 49.904715], [5.963384, 49.904666], [5.963499, 49.904624], [5.963861, 49.904624], [5.964777, 49.904742], [5.965497, 49.904959], [5.966142, 49.905211], [5.966512, 49.905425], [5.966901, 49.905699], [5.967249, 49.906079], [5.96742, 49.906449], [5.96763, 49.907153], [5.967909, 49.907709], [5.968191, 49.907989], [5.968564, 49.908175], [5.96911, 49.908439], [5.969697, 49.908606], [5.97022, 49.908622], [5.970784, 49.908559], [5.971517, 49.908289], [5.972421, 49.907992], [5.973134, 49.907947], [5.974302, 49.908023], [5.975046, 49.908175], [5.975595, 49.908409], [5.975682, 49.908584], [5.975621, 49.908809], [5.975504, 49.909159], [5.97542, 49.909747], [5.975316, 49.910361], [5.975347, 49.910599], [5.975454, 49.910819], [5.975717, 49.911063], [5.976213, 49.911309], [5.976567, 49.911353], [5.977254, 49.911319], [5.978433, 49.911169], [5.979067, 49.910983], [5.979513, 49.910679], [5.980108, 49.910201], [5.980443, 49.909797], [5.980539, 49.909553], [5.980402, 49.909199], [5.979905, 49.908282], [5.97978, 49.907771], [5.979707, 49.907191], [5.979593, 49.905779], [5.979547, 49.905375], [5.979623, 49.904956], [5.979913, 49.904475], [5.980226, 49.904242], [5.980982, 49.904009], [5.981378, 49.903953], [5.981916, 49.903979], [5.983267, 49.904124], [5.984185, 49.904279], [5.98464, 49.904369], [5.985105, 49.904506], [5.985555, 49.904666], [5.986185, 49.904944], [5.986638, 49.905169], [5.987199, 49.905529], [5.987573, 49.905955], [5.987875, 49.906417], [5.988123, 49.907079], [5.988191, 49.907481], [5.988249, 49.908252], [5.988218, 49.908709], [5.988123, 49.908965], [5.987756, 49.909699], [5.987413, 49.910537], [5.98702, 49.911319], [5.986821, 49.911619], [5.986493, 49.911982], [5.986311, 49.912289], [5.986196, 49.912619], [5.986158, 49.912932], [5.9862, 49.913104], [5.986341, 49.913245], [5.986612, 49.913379], [5.987104, 49.913519], [5.987646, 49.913611], [5.98821, 49.913672], [5.989759, 49.913769], [5.991327, 49.913852], [5.99214, 49.913913], [5.992727, 49.913962], [5.99307, 49.913959], [5.993852, 49.913821], [5.995893, 49.913623], [5.997209, 49.913512], [5.998644, 49.913339], [5.999562, 49.913269], [5.999665, 49.913259], [6.000219, 49.913219], [6.000849, 49.913142], [6.001001, 49.913123], [6.001241, 49.913093], [6.001664, 49.913099], [6.001829, 49.913119], [6.002073, 49.913149], [6.002516, 49.913264], [6.002805, 49.913413], [6.003061, 49.913619], [6.003236, 49.913787], [6.003305, 49.913974], [6.003362, 49.914454], [6.003389, 49.914859], [6.003457, 49.915702], [6.003534, 49.916041], [6.003484, 49.916236], [6.003316, 49.916429], [6.002973, 49.916675], [6.002611, 49.916861], [6.002012, 49.917069], [6.00147, 49.917289], [6.001173, 49.917422], [6.001112, 49.917514], [6.001047, 49.917743], [6.001146, 49.918559], [6.001257, 49.919333], [6.001322, 49.919616], [6.001531, 49.920149], [6.001748, 49.920726], [6.002187, 49.921523], [6.002611, 49.922109], [6.003476, 49.922819], [6.003893, 49.923219], [6.003984, 49.923312], [6.004323, 49.923749], [6.00467, 49.924029], [6.004914, 49.924102], [6.005223, 49.924113], [6.005666, 49.924009], [6.005998, 49.923984], [6.006368, 49.924087], [6.006913, 49.924334], [6.007417, 49.924666], [6.008168, 49.925249], [6.008504, 49.925574], [6.00879, 49.925849], [6.009023, 49.926002], [6.009267, 49.926109], [6.00971, 49.926239], [6.010114, 49.926246], [6.01108, 49.926131], [6.012026, 49.926019], [6.012944, 49.925909], [6.013635, 49.925742], [6.014028, 49.925479], [6.014593, 49.924914], [6.015279, 49.924136], [6.015699, 49.923804], [6.016367, 49.923509], [6.016885, 49.923269], [6.017988, 49.922709], [6.019311, 49.922202], [6.020238, 49.921737], [6.0207, 49.921579], [6.021802, 49.921306], [6.022878, 49.920979], [6.024019, 49.920579], [6.024781, 49.920287], [6.025118, 49.920104], [6.025427, 49.919742], [6.025671, 49.919509], [6.026365, 49.919135], [6.027024, 49.918789], [6.027677, 49.918513], [6.028173, 49.918359], [6.02852, 49.918292], [6.028982, 49.918277], [6.02939, 49.918359], [6.029775, 49.918544], [6.030202, 49.918739], [6.030519, 49.919055], [6.030977, 49.919654], [6.031286, 49.919951], [6.031682, 49.920134], [6.031881, 49.920264], [6.032274, 49.920689], [6.032567, 49.920901], [6.032842, 49.921073], [6.033231, 49.921226], [6.033575, 49.921329], [6.033944, 49.921405], [6.034361, 49.921462], [6.034753, 49.921493], [6.035611, 49.921542], [6.036111, 49.921573], [6.036524, 49.921561], [6.036714, 49.921527], [6.036908, 49.921454], [6.037076, 49.921336], [6.037184, 49.921203], [6.037225, 49.921023], [6.037263, 49.920615], [6.037309, 49.920257], [6.037325, 49.920207], [6.037332, 49.920168], [6.03733, 49.920168], [6.037172, 49.920139], [6.037019, 49.91999], [6.036846, 49.919851], [6.036802, 49.919823], [6.036773, 49.919809], [6.036748, 49.9198], [6.036676, 49.919773], [6.03663, 49.919761], [6.036607, 49.91975], [6.036569, 49.919712], [6.036478, 49.919689], [6.036409, 49.919681], [6.036367, 49.919674], [6.036321, 49.919658], [6.036295, 49.919651], [6.03618, 49.919613], [6.036145, 49.919609], [6.036107, 49.919606], [6.036031, 49.919596], [6.035963, 49.919594], [6.035829, 49.919586], [6.035722, 49.919571], [6.035646, 49.919563], [6.035513, 49.919544], [6.035379, 49.919521], [6.035306, 49.91951], [6.035192, 49.919502], [6.035093, 49.919502], [6.035032, 49.919506], [6.035001, 49.91951], [6.034917, 49.919526], [6.03478, 49.919496], [6.034703, 49.919476], [6.034609, 49.919449], [6.034532, 49.919418], [6.034513, 49.919416], [6.034364, 49.919346], [6.034269, 49.919311], [6.034173, 49.919286], [6.034055, 49.91925], [6.033895, 49.919216], [6.033788, 49.919186], [6.033712, 49.919163], [6.033605, 49.919116], [6.033502, 49.91909], [6.033453, 49.919079], [6.033399, 49.919066], [6.033182, 49.918999], [6.032941, 49.918916], [6.032716, 49.918826], [6.032381, 49.918651], [6.032274, 49.918602], [6.032174, 49.918576], [6.032118, 49.91856], [6.032037, 49.918522], [6.03198, 49.918496], [6.031877, 49.918419], [6.031812, 49.918369], [6.031739, 49.918293], [6.031663, 49.918228], [6.031587, 49.918159], [6.031526, 49.918121], [6.03143, 49.918083], [6.031339, 49.918049], [6.031294, 49.918011], [6.031275, 49.917976], [6.031206, 49.917926], [6.031072, 49.917866], [6.030988, 49.917816], [6.030931, 49.917789], [6.03087, 49.917751], [6.030786, 49.917702], [6.030702, 49.917656], [6.030683, 49.917646], [6.03061, 49.917591], [6.030519, 49.917516], [6.030416, 49.917426], [6.030157, 49.91724], [6.030084, 49.917196], [6.030019, 49.917166], [6.029943, 49.917141], [6.029859, 49.917068], [6.029706, 49.916956], [6.029608, 49.916893], [6.029531, 49.916839], [6.029272, 49.916676], [6.029184, 49.91663], [6.029065, 49.916576], [6.028886, 49.916511], [6.028608, 49.916416], [6.028539, 49.916393], [6.028455, 49.916351], [6.028398, 49.916313], [6.028269, 49.916216], [6.028162, 49.91616], [6.02804, 49.916103], [6.027933, 49.916056], [6.027822, 49.916023], [6.027544, 49.915962], [6.027478, 49.915924], [6.027402, 49.91584], [6.027387, 49.915813], [6.027334, 49.915741], [6.02722, 49.915729], [6.027158, 49.915722], [6.027036, 49.915703], [6.027024, 49.915703], [6.026952, 49.915696], [6.026884, 49.915691], [6.026769, 49.915686], [6.026624, 49.915691], [6.026559, 49.915686], [6.026468, 49.915686], [6.026422, 49.915691], [6.026391, 49.915703], [6.026342, 49.915726], [6.026315, 49.915733], [6.026258, 49.915736], [6.026216, 49.915733], [6.026143, 49.915741], [6.026075, 49.915752], [6.025869, 49.915752], [6.025792, 49.915748], [6.025571, 49.915722], [6.025491, 49.915726], [6.025388, 49.915733], [6.025281, 49.915756], [6.025194, 49.915776], [6.025041, 49.915826], [6.024972, 49.915844], [6.024927, 49.915851], [6.024873, 49.915856], [6.024812, 49.915859], [6.024751, 49.915863], [6.024682, 49.915876], [6.024614, 49.91589], [6.024576, 49.915886], [6.024545, 49.915882], [6.024518, 49.915882], [6.024488, 49.915876], [6.02445, 49.915876], [6.024423, 49.915882], [6.024381, 49.915893], [6.024355, 49.915896], [6.024328, 49.915896], [6.024305, 49.915893], [6.024286, 49.915882], [6.024263, 49.91587], [6.024244, 49.915863], [6.024133, 49.915866], [6.023992, 49.915866], [6.023893, 49.915878], [6.023782, 49.915901], [6.023645, 49.915943], [6.023523, 49.915973], [6.023442, 49.915989], [6.023344, 49.916], [6.023278, 49.916004], [6.023244, 49.916004], [6.023206, 49.916], [6.023096, 49.915981], [6.022886, 49.915943], [6.022779, 49.915932], [6.022508, 49.915909], [6.02242, 49.915906], [6.022367, 49.91589], [6.022317, 49.91587], [6.022264, 49.915844], [6.02218, 49.915798], [6.021913, 49.915649], [6.021703, 49.915536], [6.021414, 49.915344], [6.021135, 49.915156], [6.020601, 49.914749], [6.020696, 49.914646], [6.020799, 49.914516], [6.021001, 49.914256], [6.021208, 49.914001], [6.021409, 49.913756], [6.021597, 49.913479], [6.021509, 49.913126], [6.021497, 49.913078], [6.021494, 49.913032], [6.021509, 49.912933], [6.021512, 49.912876], [6.021512, 49.912846], [6.021509, 49.912811], [6.021482, 49.912756], [6.021436, 49.912676], [6.021368, 49.912571], [6.021356, 49.91254], [6.021352, 49.912464], [6.021352, 49.912356], [6.021272, 49.912243], [6.02123, 49.912176], [6.021177, 49.912076], [6.021089, 49.911876], [6.021001, 49.911663], [6.020929, 49.91148], [6.020799, 49.911449], [6.020696, 49.911419], [6.020601, 49.911388], [6.020539, 49.911366], [6.020498, 49.91135], [6.02041, 49.911296], [6.020379, 49.911276], [6.020288, 49.911209], [6.020131, 49.911076], [6.020063, 49.911016], [6.019899, 49.91085], [6.019869, 49.910824], [6.019777, 49.910751], [6.019445, 49.910511], [6.019059, 49.910229], [6.018903, 49.910096], [6.0188, 49.909996], [6.018743, 49.909931], [6.018541, 49.909606], [6.018697, 49.909506], [6.01864, 49.909393], [6.018983, 49.909336], [6.019262, 49.909266], [6.019674, 49.909168], [6.020036, 49.909069], [6.020532, 49.908926], [6.020872, 49.908826], [6.021005, 49.908783], [6.021501, 49.90871], [6.02107, 49.908026], [6.020899, 49.90776], [6.020608, 49.907286], [6.020505, 49.9071], [6.020341, 49.906742], [6.020044, 49.906156], [6.019941, 49.905933], [6.019704, 49.905472], [6.019578, 49.905206], [6.019544, 49.905182], [6.019346, 49.905021], [6.019178, 49.904888], [6.018991, 49.904751], [6.018872, 49.904659], [6.018781, 49.904598], [6.018656, 49.90451], [6.018396, 49.904346], [6.018308, 49.904293], [6.018163, 49.904209], [6.017957, 49.904098], [6.017572, 49.9039], [6.017503, 49.903862], [6.017313, 49.903728], [6.01716, 49.903614], [6.017122, 49.903568], [6.017091, 49.90353], [6.017076, 49.903499], [6.017049, 49.903419], [6.016653, 49.903034], [6.016451, 49.902846], [6.017152, 49.902664], [6.017438, 49.90258], [6.017659, 49.902506], [6.017896, 49.90242], [6.018152, 49.902306], [6.018354, 49.902214], [6.018647, 49.902066], [6.018831, 49.90197], [6.019075, 49.90184], [6.019235, 49.901752], [6.019304, 49.901718], [6.019529, 49.9016], [6.019723, 49.901474], [6.0198, 49.90142], [6.019857, 49.901378], [6.019869, 49.901371], [6.01996, 49.901253], [6.020105, 49.900963], [6.020169, 49.900822], [6.0202, 49.900692], [6.020269, 49.900276], [6.020292, 49.900146], [6.020303, 49.90007], [6.020311, 49.900036], [6.020215, 49.900032], [6.019616, 49.90002], [6.019551, 49.900013], [6.019285, 49.899952], [6.018918, 49.899833], [6.018644, 49.899742], [6.018427, 49.899662], [6.018018, 49.899479], [6.017659, 49.899296], [6.017423, 49.899151], [6.017339, 49.899093], [6.017027, 49.898853], [6.016855, 49.898696], [6.016641, 49.898491], [6.016538, 49.898406], [6.016405, 49.8983], [6.016386, 49.898292], [6.016305, 49.898243], [6.016187, 49.898182], [6.016149, 49.898163], [6.015905, 49.898048], [6.015779, 49.897996], [6.015512, 49.897892], [6.015306, 49.897831], [6.015051, 49.897786], [6.014917, 49.897758], [6.01478, 49.897739], [6.014615, 49.897726], [6.014562, 49.897613], [6.014486, 49.897449], [6.014303, 49.897066], [6.014192, 49.89685], [6.014131, 49.896683], [6.014089, 49.896583], [6.014066, 49.896511], [6.014051, 49.896454], [6.014043, 49.896406], [6.014043, 49.896343], [6.014047, 49.896196], [6.014055, 49.896023], [6.014108, 49.895561], [6.014108, 49.895416], [6.014104, 49.895344], [6.014104, 49.895153], [6.014108, 49.894913], [6.014108, 49.894826], [6.014104, 49.894746], [6.014131, 49.894566], [6.015814, 49.894536], [6.015828, 49.894206], [6.015828, 49.894172], [6.015844, 49.893982], [6.015863, 49.893786], [6.015214, 49.893703], [6.01425, 49.893576], [6.014013, 49.893551], [6.013597, 49.893509], [6.013147, 49.893471], [6.012494, 49.89341], [6.011361, 49.893296], [6.011342, 49.893284], [6.011488, 49.893166], [6.01159, 49.893074], [6.01177, 49.892921], [6.011945, 49.892766], [6.012033, 49.892704], [6.012132, 49.892626], [6.012174, 49.892601], [6.012251, 49.892566], [6.012422, 49.892513], [6.013094, 49.892353], [6.013639, 49.892231], [6.014177, 49.892101], [6.014852, 49.891949], [6.014822, 49.891941], [6.014119, 49.891804], [6.013857, 49.891746], [6.013486, 49.891656], [6.013113, 49.891559], [6.01272, 49.891453], [6.012452, 49.891372], [6.01251, 49.891296], [6.01262, 49.891136], [6.012658, 49.891079], [6.012685, 49.891036], [6.012823, 49.890826], [6.01283, 49.890816], [6.012838, 49.8908], [6.012952, 49.890616], [6.013032, 49.890516], [6.01325, 49.890251], [6.013257, 49.890236], [6.01341, 49.889706], [6.013361, 49.88961], [6.013345, 49.889583], [6.01333, 49.889553], [6.013075, 49.889006], [6.012808, 49.88847], [6.012773, 49.888382], [6.012754, 49.888316], [6.012472, 49.888256], [6.012529, 49.888099], [6.012586, 49.887958], [6.012651, 49.887832], [6.012857, 49.887474], [6.012911, 49.887348], [6.013052, 49.887066], [6.013097, 49.886993], [6.013173, 49.886906], [6.01325, 49.886829], [6.013372, 49.886726], [6.013426, 49.886666], [6.013475, 49.886596], [6.01354, 49.886493], [6.013571, 49.886501], [6.013647, 49.886524], [6.013715, 49.886349], [6.013742, 49.886253], [6.013761, 49.886156], [6.013765, 49.88607], [6.013753, 49.886006], [6.013696, 49.885773], [6.013669, 49.885658], [6.013677, 49.885521], [6.013692, 49.885414], [6.01373, 49.885299], [6.013734, 49.88528], [6.01373, 49.885181], [6.013674, 49.884872], [6.013647, 49.884706], [6.013627, 49.884486], [6.013571, 49.884466], [6.013669, 49.884178], [6.013712, 49.88398], [6.013746, 49.883823], [6.013849, 49.883339], [6.01373, 49.883346], [6.013674, 49.88335], [6.013665, 49.883306], [6.013643, 49.883196], [6.013627, 49.88314], [6.013589, 49.883066], [6.013543, 49.882992], [6.013505, 49.882946], [6.01344, 49.882873], [6.013372, 49.882806], [6.013261, 49.882713], [6.013067, 49.882561], [6.012682, 49.882278], [6.012113, 49.881836], [6.011937, 49.881679], [6.011827, 49.881566], [6.011774, 49.881504], [6.011709, 49.881416], [6.011507, 49.881111], [6.011533, 49.880913], [6.011567, 49.880764], [6.011617, 49.880611], [6.011647, 49.880606], [6.011853, 49.880592], [6.012273, 49.880566], [6.012265, 49.880428], [6.012254, 49.880279], [6.012251, 49.880184], [6.012273, 49.88005], [6.012205, 49.87998], [6.012194, 49.879955], [6.012194, 49.879936], [6.012197, 49.879917], [6.012217, 49.879898], [6.012243, 49.879887], [6.012312, 49.879864], [6.01235, 49.879856], [6.012361, 49.879845], [6.012358, 49.879833], [6.01235, 49.87982], [6.012308, 49.879795], [6.012289, 49.879776], [6.012278, 49.879757], [6.012262, 49.879673], [6.012266, 49.879612], [6.012209, 49.8796], [6.012175, 49.87959], [6.01214, 49.879574], [6.01211, 49.879566], [6.012075, 49.879562], [6.012022, 49.879566], [6.011984, 49.87957], [6.011946, 49.879562], [6.0119, 49.87954], [6.011763, 49.87966], [6.011675, 49.879723], [6.011595, 49.879757], [6.011507, 49.879787], [6.011404, 49.87981], [6.011316, 49.879826], [6.011251, 49.879837], [6.011167, 49.879875], [6.011045, 49.879917], [6.011007, 49.879818], [6.010958, 49.8797], [6.010885, 49.879562], [6.010656, 49.879227], [6.010599, 49.87923], [6.010504, 49.87923], [6.010458, 49.879227], [6.010336, 49.879196], [6.010252, 49.879177], [6.010122, 49.879143], [6.010061, 49.87927], [6.009882, 49.87927], [6.009836, 49.879456], [6.009764, 49.87947], [6.00968, 49.879475], [6.00952, 49.879475], [6.009367, 49.87947], [6.009081, 49.879475], [6.00897, 49.879475], [6.00868, 49.87947], [6.008532, 49.879463], [6.008406, 49.879444], [6.008219, 49.879402], [6.008101, 49.879383], [6.007998, 49.87937], [6.00783, 49.879353], [6.007711, 49.87933], [6.007532, 49.879288], [6.007429, 49.879257], [6.007296, 49.879215], [6.007215, 49.879185], [6.007135, 49.879154], [6.007097, 49.87913], [6.007059, 49.879105], [6.007029, 49.879078], [6.006945, 49.878998], [6.006819, 49.878998], [6.006651, 49.879005], [6.006205, 49.879047], [6.005827, 49.87908], [6.005533, 49.87911], [6.005194, 49.87914], [6.00503, 49.879158], [6.00498, 49.879158], [6.004911, 49.879147], [6.004763, 49.879112], [6.004599, 49.879078], [6.004515, 49.87905], [6.0044, 49.879013], [6.004301, 49.87899], [6.004259, 49.87899], [6.004194, 49.878998], [6.003859, 49.879074], [6.003767, 49.87909], [6.003721, 49.879097], [6.003679, 49.879105], [6.003584, 49.87911], [6.003477, 49.87911], [6.003427, 49.879105], [6.003324, 49.879078], [6.00329, 49.87909], [6.003244, 49.8791], [6.00321, 49.879105], [6.003138, 49.879105], [6.002783, 49.879066], [6.002462, 49.879036], [6.002401, 49.879025], [6.002352, 49.879], [6.002306, 49.87898], [6.002233, 49.87896], [6.002073, 49.878944], [6.001482, 49.87891], [6.001375, 49.878838], [6.001268, 49.878754], [6.001127, 49.878647], [6.001215, 49.878372], [6.001646, 49.87839], [6.001753, 49.878395], [6.001921, 49.878395], [6.002043, 49.87838], [6.002085, 49.878376], [6.00223, 49.878353], [6.002241, 49.87835], [6.002352, 49.87833], [6.002668, 49.87826], [6.002783, 49.87824], [6.002809, 49.878235], [6.003202, 49.87817], [6.00308, 49.87805], [6.002897, 49.877876], [6.002817, 49.877804], [6.002756, 49.87775], [6.002424, 49.87747], [6.002314, 49.877373], [6.002275, 49.877342], [6.00205, 49.877163], [6.001776, 49.876965], [6.001612, 49.87686], [6.001215, 49.876656], [6.001177, 49.876637], [6.000921, 49.876514], [6.000349, 49.87629], [5.999872, 49.876102], [5.999777, 49.876064], [5.999765, 49.876057], [5.999498, 49.87612], [5.999369, 49.876152], [5.999235, 49.87619], [5.998854, 49.876358], [5.998301, 49.876614], [5.99824, 49.876648], [5.998102, 49.876854], [5.998091, 49.87687], [5.998063, 49.87692], [5.998014, 49.876987], [5.997927, 49.877117], [5.997816, 49.877285], [5.997774, 49.877346], [5.997698, 49.877487], [5.997595, 49.87767], [5.99756, 49.877724], [5.997545, 49.877754], [5.997518, 49.877823], [5.997469, 49.877975], [5.997347, 49.878296], [5.997278, 49.878483], [5.997221, 49.8786], [5.997129, 49.87877], [5.996916, 49.87861], [5.99674, 49.878483], [5.996588, 49.878387], [5.996477, 49.87833], [5.996298, 49.87825], [5.996115, 49.878185], [5.995954, 49.878143], [5.995512, 49.878025], [5.995501, 49.87802], [5.995218, 49.87795], [5.994905, 49.877846], [5.994467, 49.87767], [5.994299, 49.8776], [5.993994, 49.87748], [5.993727, 49.877373], [5.993593, 49.877316], [5.993525, 49.87729], [5.99341, 49.87724], [5.993719, 49.87691], [5.993807, 49.876858], [5.993914, 49.876762], [5.994043, 49.876667], [5.994257, 49.876526], [5.994585, 49.87632], [5.994558, 49.8763], [5.994238, 49.87603], [5.993635, 49.875515], [5.99362, 49.875233], [5.993612, 49.875042], [5.993391, 49.874924], [5.993181, 49.87484], [5.992971, 49.874718], [5.992865, 49.87464], [5.992659, 49.874485], [5.992594, 49.87442], [5.992441, 49.874252], [5.992403, 49.874176], [5.992342, 49.87396], [5.992319, 49.87382], [5.992292, 49.87362], [5.992281, 49.873543], [5.9923, 49.873466], [5.992327, 49.873375], [5.992407, 49.873234], [5.992525, 49.87308], [5.992598, 49.873005], [5.992674, 49.872944], [5.992743, 49.872906], [5.992853, 49.87288], [5.993032, 49.872826], [5.993429, 49.872807], [5.993639, 49.872807], [5.994013, 49.87281], [5.994322, 49.87281], [5.994738, 49.87282], [5.994799, 49.872826], [5.995119, 49.872837], [5.99523, 49.87284], [5.995394, 49.872852], [5.995699, 49.872894], [5.995997, 49.872936], [5.996118, 49.872967], [5.996256, 49.872696], [5.996313, 49.87258], [5.99642, 49.872395], [5.996492, 49.87226], [5.996477, 49.872177], [5.996229, 49.87182], [5.996199, 49.871784], [5.996023, 49.871548], [5.995752, 49.871223], [5.995646, 49.8711], [5.995482, 49.87089], [5.995405, 49.87073], [5.995367, 49.870625], [5.995348, 49.870544], [5.99534, 49.870514], [5.995287, 49.870422], [5.995268, 49.870388], [5.995234, 49.870346], [5.99518, 49.870285], [5.99515, 49.870255], [5.995069, 49.870186], [5.994944, 49.870117], [5.99473, 49.870033], [5.994543, 49.869984], [5.993929, 49.86985], [5.993544, 49.86977], [5.993567, 49.869736], [5.993738, 49.86949], [5.993936, 49.869247], [5.994116, 49.869007], [5.994188, 49.86894], [5.994207, 49.86892], [5.994348, 49.868805], [5.994402, 49.868767], [5.994417, 49.868748], [5.994448, 49.868553], [5.994463, 49.868496], [5.994493, 49.868435], [5.994505, 49.86839], [5.994497, 49.868298], [5.994497, 49.86822], [5.994516, 49.868176], [5.994547, 49.86814], [5.994593, 49.868103], [5.994657, 49.86806], [5.99473, 49.867996], [5.994764, 49.86794], [5.994818, 49.867836], [5.994879, 49.86768], [5.994905, 49.867596], [5.994932, 49.867542], [5.994963, 49.86751], [5.995027, 49.867474], [5.995081, 49.86744], [5.995146, 49.867374], [5.995237, 49.86724], [5.995314, 49.86713], [5.995333, 49.867085], [5.995359, 49.867], [5.995405, 49.866913], [5.995653, 49.866524], [5.99571, 49.866432], [5.995726, 49.866386], [5.995729, 49.866283], [5.995741, 49.866272], [5.995756, 49.866264], [5.995977, 49.86622], [5.996035, 49.866196], [5.996073, 49.86617], [5.996492, 49.86586], [5.996557, 49.86581], [5.996717, 49.865692], [5.996916, 49.865536], [5.997026, 49.865444], [5.997084, 49.865417], [5.99716, 49.8654], [5.997229, 49.86538], [5.997366, 49.865345], [5.997595, 49.86526], [5.997648, 49.865234], [5.997702, 49.865192], [5.997797, 49.86512], [5.997213, 49.864902], [5.996901, 49.864784], [5.996603, 49.86467], [5.996427, 49.86461], [5.996241, 49.864536], [5.996008, 49.864437], [5.995966, 49.864418], [5.995951, 49.864414], [5.995523, 49.86422], [5.995005, 49.863968], [5.994787, 49.86387], [5.994558, 49.863758], [5.993837, 49.86341], [5.993666, 49.86333], [5.993773, 49.863243], [5.99386, 49.863155], [5.993936, 49.863075], [5.99399, 49.862988], [5.994039, 49.862877], [5.994051, 49.862843], [5.994066, 49.862793], [5.994074, 49.862713], [5.994097, 49.862606], [5.994135, 49.8625], [5.993998, 49.862453], [5.993815, 49.862396], [5.993792, 49.86239], [5.993765, 49.86238], [5.993486, 49.862293], [5.99341, 49.86232], [5.993238, 49.86235], [5.993147, 49.86236], [5.993002, 49.862354], [5.992857, 49.862347], [5.99272, 49.862335], [5.992464, 49.862297], [5.992315, 49.86227], [5.99222, 49.862247], [5.992113, 49.862217], [5.991983, 49.862175], [5.991831, 49.862106], [5.99156, 49.861973], [5.991339, 49.86187], [5.99114, 49.861774], [5.991114, 49.861767], [5.991003, 49.86174], [5.990873, 49.861713], [5.990744, 49.861702], [5.990572, 49.8617], [5.99016, 49.861355], [5.990095, 49.8613], [5.990068, 49.861393], [5.990049, 49.861427], [5.990011, 49.861458], [5.989946, 49.861492], [5.989794, 49.861546], [5.989668, 49.861576], [5.989573, 49.861603], [5.989458, 49.861637], [5.989382, 49.86168], [5.989283, 49.861755], [5.98913, 49.861877], [5.989046, 49.86194], [5.988951, 49.862003], [5.988798, 49.862095], [5.988676, 49.862164], [5.988462, 49.86227], [5.988199, 49.862404], [5.988066, 49.86248], [5.98794, 49.862564], [5.987841, 49.86264], [5.987806, 49.862663], [5.987783, 49.862682], [5.987593, 49.862713], [5.987242, 49.862766], [5.98691, 49.862812], [5.986681, 49.862843], [5.986471, 49.86286], [5.98636, 49.86287], [5.986052, 49.862892], [5.985907, 49.862896], [5.985678, 49.862904], [5.985464, 49.862904], [5.985487, 49.86288], [5.985571, 49.862816], [5.985682, 49.862736], [5.985834, 49.862644], [5.986059, 49.86253], [5.986437, 49.862347], [5.985838, 49.86203], [5.986025, 49.8619], [5.986135, 49.861816], [5.986204, 49.86174], [5.986235, 49.861694], [5.986284, 49.86161], [5.986334, 49.861477], [5.986376, 49.861343], [5.986399, 49.861225], [5.986402, 49.861156], [5.986357, 49.860928], [5.986265, 49.86092], [5.986261, 49.860832], [5.986242, 49.860695], [5.986238, 49.860683], [5.986181, 49.860348], [5.986231, 49.859993], [5.986238, 49.859955], [5.986284, 49.859833], [5.98646, 49.859447], [5.986517, 49.859306], [5.986559, 49.85919], [5.986597, 49.85906], [5.986605, 49.85901], [5.986608, 49.85895], [5.986601, 49.858906], [5.986578, 49.858856], [5.986551, 49.85882], [5.986536, 49.858807], [5.986498, 49.85878], [5.986463, 49.858765], [5.986166, 49.858604], [5.986155, 49.858597], [5.986219, 49.85853], [5.986479, 49.858234], [5.986666, 49.858017], [5.986696, 49.85792], [5.986742, 49.857708], [5.986746, 49.857662], [5.98675, 49.85761], [5.986757, 49.857407], [5.986769, 49.857376], [5.986376, 49.85726], [5.986349, 49.857254], [5.985907, 49.85715], [5.985586, 49.857105], [5.985182, 49.857025], [5.985086, 49.85701], [5.984823, 49.856964], [5.984579, 49.856926], [5.984232, 49.856853], [5.983904, 49.856773], [5.983854, 49.856762], [5.983778, 49.856743], [5.983561, 49.85667], [5.983442, 49.856632], [5.983206, 49.856552], [5.983175, 49.856544], [5.982988, 49.85648], [5.982962, 49.856472], [5.982717, 49.85639], [5.98258, 49.856354], [5.982481, 49.856327], [5.98239, 49.856308], [5.982313, 49.856293], [5.982199, 49.856274], [5.982122, 49.856262], [5.981844, 49.856228], [5.981707, 49.856213], [5.981268, 49.856216], [5.981348, 49.85615], [5.981363, 49.856], [5.98139, 49.855892], [5.981417, 49.85582], [5.981474, 49.85564], [5.981539, 49.855556], [5.981726, 49.85531], [5.981886, 49.8551], [5.981955, 49.85502], [5.982042, 49.85492], [5.982081, 49.854877], [5.982141, 49.85481], [5.98218, 49.854767], [5.982202, 49.854736], [5.982412, 49.854496], [5.982431, 49.854473], [5.982538, 49.85435], [5.98242, 49.85425], [5.982325, 49.85417], [5.982183, 49.854053], [5.982054, 49.853947], [5.98192, 49.853836], [5.983255, 49.85327], [5.983091, 49.85318], [5.982695, 49.852962], [5.982149, 49.85266], [5.981695, 49.852413], [5.981466, 49.852444], [5.981443, 49.852444], [5.981375, 49.852493], [5.98131, 49.852528], [5.981237, 49.852554], [5.981153, 49.85257], [5.981092, 49.852577], [5.981066, 49.852585], [5.980967, 49.852623], [5.980925, 49.85264], [5.980879, 49.852634], [5.980639, 49.852695], [5.980406, 49.852833], [5.980303, 49.852917], [5.980188, 49.852997], [5.980055, 49.853092], [5.979868, 49.85319], [5.979689, 49.853313], [5.979616, 49.853374], [5.979471, 49.85355], [5.979452, 49.85358], [5.979319, 49.8538], [5.979269, 49.853893], [5.979219, 49.85399], [5.979143, 49.854134], [5.979055, 49.85431], [5.978937, 49.854397], [5.978846, 49.85446], [5.978758, 49.854465], [5.978476, 49.85458], [5.978331, 49.854652], [5.978167, 49.854736], [5.977846, 49.85483], [5.977831, 49.854836], [5.977449, 49.855003], [5.977201, 49.85511], [5.977503, 49.85512], [5.977766, 49.85517], [5.977804, 49.855186], [5.977961, 49.855328], [5.97806, 49.855434], [5.978018, 49.855648], [5.977999, 49.855762], [5.977907, 49.85606], [5.977877, 49.85613], [5.977735, 49.856426], [5.977724, 49.856453], [5.977659, 49.856586], [5.977514, 49.856743], [5.977388, 49.856846], [5.977369, 49.85686], [5.977056, 49.85708], [5.976889, 49.857166], [5.976747, 49.85724], [5.976652, 49.8573], [5.976618, 49.857327], [5.976431, 49.857487], [5.976389, 49.85761], [5.976374, 49.85763], [5.976301, 49.857758], [5.976282, 49.857822], [5.976236, 49.85788], [5.976229, 49.857895], [5.976122, 49.858036], [5.976011, 49.858223], [5.975996, 49.858337], [5.975966, 49.858463], [5.975935, 49.85864], [5.975924, 49.85878], [5.976286, 49.858826], [5.976355, 49.858833], [5.976549, 49.85886], [5.976503, 49.859016], [5.976473, 49.85918], [5.976374, 49.859505], [5.976286, 49.859688], [5.976042, 49.859936], [5.975866, 49.860134], [5.975641, 49.860287], [5.975271, 49.86048], [5.974997, 49.860706], [5.975054, 49.860844], [5.975134, 49.86092], [5.974581, 49.860718], [5.974516, 49.860767], [5.973638, 49.86064], [5.973364, 49.860603], [5.973204, 49.86058], [5.973074, 49.86056], [5.972799, 49.860516], [5.972193, 49.8604], [5.971888, 49.860317], [5.971659, 49.860245], [5.97146, 49.86019], [5.971163, 49.86015], [5.970972, 49.860107], [5.970793, 49.860065], [5.970606, 49.860046], [5.970419, 49.860043], [5.970213, 49.860054], [5.970015, 49.860073], [5.969656, 49.86013], [5.969461, 49.860172], [5.969118, 49.86027], [5.968801, 49.860367], [5.968592, 49.860424], [5.9681, 49.86056], [5.968046, 49.860577], [5.967695, 49.860714], [5.967531, 49.86081], [5.967264, 49.86097], [5.967176, 49.86107], [5.967215, 49.86108], [5.967146, 49.861336], [5.967047, 49.86159], [5.966906, 49.862083], [5.96689, 49.86215], [5.966768, 49.86234], [5.966684, 49.8623], [5.966444, 49.862556], [5.966238, 49.862823], [5.966158, 49.862965], [5.966105, 49.86317], [5.966028, 49.863262], [5.965773, 49.86364], [5.965708, 49.863754], [5.965639, 49.8639], [5.965597, 49.86397], [5.965437, 49.864277], [5.965269, 49.86468], [5.965151, 49.86489], [5.965212, 49.864925], [5.96525, 49.864956], [5.965273, 49.864994], [5.965273, 49.865025], [5.965246, 49.865047], [5.965189, 49.865078], [5.964872, 49.865604], [5.964762, 49.865707], [5.964552, 49.865906], [5.964441, 49.866024], [5.964361, 49.866123], [5.964315, 49.86619], [5.964266, 49.86628], [5.96422, 49.866367], [5.964197, 49.86643], [5.964189, 49.86648], [5.964193, 49.86655], [5.964209, 49.86662], [5.963892, 49.866276], [5.963869, 49.86611], [5.963858, 49.866035], [5.963713, 49.866074], [5.963228, 49.866158], [5.962915, 49.866196], [5.962835, 49.86571], [5.962835, 49.865696], [5.962431, 49.86573], [5.96187, 49.86574], [5.961752, 49.865818], [5.961153, 49.865955], [5.961039, 49.866127], [5.960814, 49.86622], [5.960752, 49.866253], [5.960692, 49.866287], [5.960421, 49.86628], [5.960173, 49.866238], [5.959578, 49.866264], [5.959341, 49.86626], [5.959272, 49.86629], [5.959318, 49.866478], [5.959253, 49.866474], [5.959112, 49.866486], [5.95896, 49.866486], [5.958746, 49.866497], [5.958551, 49.866505], [5.958528, 49.8665], [5.958319, 49.86655], [5.958284, 49.866547], [5.958261, 49.86654], [5.958151, 49.86642], [5.95812, 49.86639], [5.958109, 49.86638], [5.958078, 49.866383], [5.957876, 49.866383], [5.957178, 49.86659], [5.956949, 49.866806], [5.956884, 49.86693], [5.956835, 49.866947], [5.956854, 49.86698], [5.956961, 49.86718], [5.95669, 49.867313], [5.956549, 49.867435], [5.956389, 49.867603], [5.956266, 49.867714], [5.956106, 49.86782], [5.955961, 49.86794], [5.95595, 49.867935], [5.955214, 49.868347], [5.954706, 49.868504], [5.954725, 49.868507], [5.954451, 49.868595], [5.954348, 49.86861], [5.954092, 49.86865], [5.953856, 49.868664], [5.953089, 49.868763], [5.952791, 49.868797], [5.952623, 49.868824], [5.952421, 49.868862], [5.952093, 49.868908], [5.951532, 49.86898], [5.951265, 49.869026], [5.950563, 49.869106], [5.950365, 49.869156], [5.950251, 49.869205], [5.950144, 49.869255], [5.94993, 49.869377], [5.949789, 49.86947], [5.949453, 49.869728], [5.949335, 49.8698], [5.949243, 49.869846], [5.949148, 49.869892], [5.94882, 49.870037], [5.9485, 49.870182], [5.948252, 49.870266], [5.94816, 49.870304], [5.948049, 49.870373], [5.947855, 49.870388], [5.947748, 49.870403], [5.947542, 49.870476], [5.947481, 49.870487], [5.947378, 49.87051], [5.947142, 49.87054], [5.946775, 49.870583], [5.946409, 49.870636], [5.945951, 49.870678], [5.945658, 49.87069], [5.945402, 49.870674], [5.944841, 49.870586], [5.944342, 49.870506], [5.944044, 49.870472], [5.943949, 49.870426], [5.94385, 49.87046], [5.943789, 49.87045], [5.943197, 49.87033], [5.942946, 49.870296], [5.941958, 49.870216], [5.941553, 49.870235], [5.941416, 49.87022], [5.941244, 49.870235], [5.940592, 49.87027], [5.940271, 49.870327], [5.939802, 49.87048], [5.939558, 49.870506], [5.939184, 49.87053], [5.938677, 49.870544], [5.938417, 49.870544], [5.938101, 49.870518], [5.937529, 49.870365], [5.93733, 49.870274], [5.93725, 49.87024], [5.93722, 49.870243], [5.936834, 49.870285], [5.936564, 49.870316], [5.936182, 49.870003], [5.935953, 49.869762], [5.93574, 49.869545], [5.935671, 49.869484], [5.935534, 49.869373], [5.93543, 49.869286], [5.935228, 49.86902], [5.935217, 49.869003], [5.934641, 49.868465], [5.934732, 49.868427], [5.934744, 49.868423], [5.934633, 49.86831], [5.934305, 49.868], [5.93395, 49.867737], [5.933924, 49.867702], [5.933893, 49.867683], [5.933622, 49.867493], [5.933439, 49.8674], [5.933394, 49.867367], [5.933367, 49.867332], [5.933306, 49.867294], [5.933126, 49.86728], [5.932879, 49.867214], [5.93265, 49.86705], [5.932467, 49.86689], [5.931929, 49.86716], [5.931723, 49.867035], [5.931482, 49.866886], [5.931368, 49.866764], [5.931326, 49.866684], [5.93112, 49.866257], [5.931036, 49.86606], [5.931021, 49.86597], [5.930922, 49.865833], [5.930593, 49.865932], [5.930517, 49.86576], [5.930422, 49.865673], [5.930258, 49.865467], [5.930204, 49.865356], [5.930185, 49.86529], [5.930162, 49.865173], [5.929808, 49.86496], [5.928999, 49.86449], [5.928927, 49.86444], [5.928839, 49.864353], [5.928667, 49.864147], [5.928785, 49.864075], [5.928553, 49.863865], [5.928389, 49.86372], [5.928225, 49.86358], [5.92816, 49.863506], [5.92808, 49.86338], [5.927969, 49.86316], [5.927897, 49.86299], [5.927736, 49.862522], [5.927652, 49.86234], [5.927549, 49.86216], [5.927458, 49.862022], [5.927301, 49.861843], [5.927229, 49.861713], [5.927202, 49.861637], [5.927187, 49.861603], [5.927156, 49.86149], [5.927122, 49.861393], [5.927027, 49.861225], [5.926985, 49.861126], [5.926954, 49.860912], [5.926908, 49.86076], [5.926867, 49.860523], [5.926828, 49.86041], [5.926741, 49.86022], [5.926626, 49.860043], [5.926519, 49.859905], [5.926355, 49.859756], [5.926195, 49.859646], [5.926104, 49.859577], [5.925959, 49.85948], [5.925699, 49.859333], [5.925184, 49.859047], [5.925013, 49.859158], [5.924971, 49.859184], [5.925089, 49.859245], [5.92494, 49.85934], [5.924215, 49.85984], [5.923407, 49.8604], [5.922594, 49.86095], [5.921991, 49.861347], [5.921747, 49.861507], [5.921644, 49.861534], [5.920271, 49.861847], [5.91947, 49.862034], [5.919432, 49.862003], [5.919035, 49.861835], [5.918718, 49.861702], [5.918291, 49.86152], [5.91815, 49.861446], [5.918085, 49.861416], [5.918028, 49.861378], [5.917997, 49.86136], [5.917933, 49.861286], [5.917807, 49.86107], [5.91773, 49.86089], [5.917673, 49.86073], [5.917662, 49.860703], [5.917601, 49.860474], [5.917578, 49.860355], [5.915258, 49.859505], [5.915239, 49.859516], [5.913938, 49.858715], [5.913752, 49.858776], [5.91358, 49.85884], [5.913454, 49.858902], [5.913389, 49.858955], [5.913298, 49.859047], [5.913244, 49.8591], [5.913202, 49.85914], [5.913145, 49.85917], [5.913061, 49.859245], [5.912943, 49.859356], [5.912706, 49.859592], [5.912676, 49.859615], [5.912596, 49.85969], [5.912474, 49.859802], [5.912413, 49.859856], [5.912355, 49.859905], [5.912329, 49.85993], [5.912149, 49.86008], [5.911951, 49.86024], [5.911783, 49.86036], [5.911669, 49.860435], [5.911501, 49.86055], [5.911375, 49.860638], [5.911268, 49.860714], [5.911173, 49.860767], [5.910875, 49.860912], [5.91078, 49.86085], [5.910688, 49.860794], [5.910635, 49.86076], [5.910601, 49.860737], [5.910543, 49.8607], [5.910521, 49.860718], [5.910501, 49.860725], [5.910471, 49.86072], [5.910444, 49.86071], [5.910429, 49.86071], [5.91041, 49.86073], [5.91041, 49.860756], [5.910429, 49.860798], [5.910429, 49.860817], [5.910387, 49.860825], [5.910356, 49.86083], [5.910337, 49.86084], [5.910299, 49.86085], [5.910269, 49.860855], [5.910231, 49.86084], [5.910204, 49.860844], [5.910173, 49.860867], [5.910009, 49.860996], [5.909918, 49.86106], [5.909872, 49.861095], [5.909792, 49.861164], [5.90975, 49.861202], [5.909693, 49.861275], [5.909666, 49.86134], [5.909651, 49.861404], [5.909651, 49.86147], [5.909647, 49.861515], [5.909628, 49.86156], [5.909605, 49.861595], [5.909586, 49.86161], [5.909559, 49.86164], [5.909571, 49.861675], [5.909567, 49.86174], [5.909552, 49.8618], [5.909559, 49.861874], [5.909578, 49.861988], [5.909617, 49.8621], [5.909639, 49.86216], [5.909662, 49.86223], [5.9097, 49.862312], [5.909754, 49.862392], [5.909819, 49.862457], [5.909895, 49.86253], [5.910067, 49.86263], [5.910574, 49.862915], [5.910852, 49.86308], [5.91094, 49.86314], [5.911013, 49.863186], [5.911539, 49.86355], [5.912065, 49.863926], [5.912218, 49.864025], [5.912363, 49.8641], [5.912508, 49.864178], [5.912767, 49.864285], [5.912798, 49.864292], [5.912855, 49.86431], [5.912874, 49.864323], [5.91289, 49.864346], [5.912912, 49.86436], [5.912935, 49.86436], [5.912954, 49.864357], [5.912958, 49.864334], [5.91297, 49.864326], [5.913004, 49.864323], [5.913046, 49.86433], [5.913095, 49.864357], [5.913141, 49.864384], [5.913183, 49.864395], [5.913229, 49.864395], [5.913298, 49.864384], [5.913328, 49.864388], [5.913389, 49.864395], [5.913439, 49.864407], [5.91345, 49.864414], [5.913466, 49.86445], [5.913526, 49.864475], [5.913832, 49.864597], [5.913935, 49.864647], [5.914125, 49.86476], [5.914411, 49.864944], [5.914488, 49.864994], [5.914534, 49.86502], [5.914923, 49.864758], [5.915129, 49.864635], [5.915281, 49.86458], [5.9154, 49.864555], [5.915586, 49.864532], [5.915796, 49.86453], [5.916159, 49.86454], [5.916201, 49.86456], [5.916205, 49.86461], [5.916449, 49.864594], [5.916601, 49.864674], [5.916689, 49.864674], [5.917047, 49.86467], [5.917391, 49.864677], [5.917692, 49.86467], [5.917902, 49.864662], [5.918417, 49.864628], [5.918932, 49.86458], [5.919393, 49.86453], [5.919401, 49.864384], [5.919424, 49.86437], [5.919729, 49.86436], [5.919958, 49.86435], [5.920366, 49.864315], [5.92061, 49.86429], [5.920649, 49.864304], [5.920656, 49.864334], [5.920672, 49.864403], [5.9209, 49.864502], [5.920755, 49.864674], [5.920687, 49.864765], [5.920633, 49.864857], [5.920557, 49.86495], [5.920523, 49.865], [5.9205, 49.86506], [5.920477, 49.865158], [5.920446, 49.865257], [5.920435, 49.86532], [5.920443, 49.86538], [5.92045, 49.865414], [5.920496, 49.865475], [5.920568, 49.865547], [5.920633, 49.86562], [5.920698, 49.86571], [5.920732, 49.865776], [5.920763, 49.86585], [5.920786, 49.865936], [5.920813, 49.866028], [5.920824, 49.86608], [5.920805, 49.866123], [5.920767, 49.866165], [5.920672, 49.866234], [5.920389, 49.86641], [5.920221, 49.866505], [5.920034, 49.8666], [5.919954, 49.866646], [5.919893, 49.86669], [5.919855, 49.86673], [5.919828, 49.866768], [5.919809, 49.866848], [5.919767, 49.866943], [5.919699, 49.86703], [5.919588, 49.867157], [5.91955, 49.86721], [5.919497, 49.86726], [5.919424, 49.867287], [5.919352, 49.867294], [5.919275, 49.867302], [5.919165, 49.867294], [5.918947, 49.86727], [5.918493, 49.8672], [5.917997, 49.867134], [5.917997, 49.867184], [5.917738, 49.867134], [5.917654, 49.867115], [5.91754, 49.867054], [5.917437, 49.867023], [5.917238, 49.866985], [5.917055, 49.86696], [5.917013, 49.866978], [5.916712, 49.867035], [5.916536, 49.86707], [5.916323, 49.86709], [5.916342, 49.8672], [5.916342, 49.867218], [5.916376, 49.8678], [5.916334, 49.867874], [5.916201, 49.8681], [5.916189, 49.86813], [5.916117, 49.868416], [5.916063, 49.86862], [5.916037, 49.86876], [5.916021, 49.86888], [5.916021, 49.868896], [5.916017, 49.868927], [5.91601, 49.868958], [5.915983, 49.869087], [5.915949, 49.869236], [5.915853, 49.869484], [5.915796, 49.869637], [5.915766, 49.869736], [5.915766, 49.869747], [5.915728, 49.86991], [5.915712, 49.86999], [5.915701, 49.87004], [5.915659, 49.87021], [5.915697, 49.870316], [5.915739, 49.870403], [5.915823, 49.87054], [5.915937, 49.87069], [5.915728, 49.8709], [5.91596, 49.87085], [5.916117, 49.87082], [5.916395, 49.870754], [5.916517, 49.870796], [5.916662, 49.87083], [5.916796, 49.870865], [5.916864, 49.870888], [5.916902, 49.870914], [5.916933, 49.870953], [5.916956, 49.87099], [5.916964, 49.87103], [5.916967, 49.87106], [5.916651, 49.871143], [5.916433, 49.871128], [5.916143, 49.871143], [5.916002, 49.871155], [5.914564, 49.871296], [5.914335, 49.87132], [5.914167, 49.871742], [5.914091, 49.87193], [5.913992, 49.87212], [5.913927, 49.872242], [5.9139, 49.872288], [5.913797, 49.87245], [5.913729, 49.872555], [5.913672, 49.87263], [5.913576, 49.872738], [5.913496, 49.872818], [5.913385, 49.87292], [5.913271, 49.87304], [5.913225, 49.873142], [5.913199, 49.87322], [5.913176, 49.87329], [5.913141, 49.873413], [5.913134, 49.873486], [5.91313, 49.87353], [5.913107, 49.87371], [5.913103, 49.873775], [5.913092, 49.87401], [5.913355, 49.873936], [5.913458, 49.87391], [5.913561, 49.873886], [5.91361, 49.87388], [5.913706, 49.873863], [5.913954, 49.87385], [5.913942, 49.874035], [5.91387, 49.874035], [5.913752, 49.874054], [5.913526, 49.87411], [5.913259, 49.87418], [5.913103, 49.87422], [5.91284, 49.87432], [5.912775, 49.87436], [5.912687, 49.87441], [5.912325, 49.874664], [5.912275, 49.8747], [5.91247, 49.874813], [5.911962, 49.875214], [5.911707, 49.87538], [5.911505, 49.875523], [5.911406, 49.87559], [5.911238, 49.87572], [5.9111, 49.87583], [5.910967, 49.87594], [5.9107, 49.876144], [5.910849, 49.876347], [5.910944, 49.876476], [5.910559, 49.876587], [5.910456, 49.876625], [5.910296, 49.876705], [5.910013, 49.87685], [5.909983, 49.87687], [5.909788, 49.87698], [5.90967, 49.877064], [5.909609, 49.877113], [5.909578, 49.877148], [5.909552, 49.877205], [5.909525, 49.877296], [5.90943, 49.877655], [5.90938, 49.877815], [5.909365, 49.87787], [5.909323, 49.87801], [5.909285, 49.878166], [5.909262, 49.878326], [5.909246, 49.878395], [5.909243, 49.878426], [5.909197, 49.87855], [5.909166, 49.878616], [5.909105, 49.87872], [5.909048, 49.878803], [5.908972, 49.878925], [5.90875, 49.879246], [5.908686, 49.879353], [5.908613, 49.879513], [5.90851, 49.879723], [5.908106, 49.879738], [5.907805, 49.879745], [5.907671, 49.879757], [5.907572, 49.879772], [5.907412, 49.87984], [5.906988, 49.87959], [5.90674, 49.879448], [5.906691, 49.879417], [5.906668, 49.879402], [5.906652, 49.879395], [5.906622, 49.87948], [5.90658, 49.87956], [5.9065, 49.87968], [5.906431, 49.87979], [5.906401, 49.879852], [5.906385, 49.879917], [5.906385, 49.880013], [5.906382, 49.880108], [5.906397, 49.88012], [5.906439, 49.880165], [5.906485, 49.88023], [5.906511, 49.8803], [5.90653, 49.88038], [5.906534, 49.880463], [5.90653, 49.88055], [5.906511, 49.880615], [5.906508, 49.88063], [5.906496, 49.880653], [5.906481, 49.880676], [5.906443, 49.8807], [5.906416, 49.880722], [5.906408, 49.88076], [5.906385, 49.880817], [5.906351, 49.880844], [5.906321, 49.88086], [5.906328, 49.88087], [5.906519, 49.88097], [5.906725, 49.88086], [5.906843, 49.880806], [5.906889, 49.8808], [5.906935, 49.880802], [5.906958, 49.88081], [5.906984, 49.880825], [5.906979, 49.880874], [5.906939, 49.880985], [5.906897, 49.88103], [5.906813, 49.881096], [5.906714, 49.881157], [5.906702, 49.881176], [5.906725, 49.881237], [5.90671, 49.881294], [5.906687, 49.88133], [5.90663, 49.881386], [5.906508, 49.88147], [5.906351, 49.881554], [5.90613, 49.881695], [5.905943, 49.88182], [5.905771, 49.881924], [5.905684, 49.881973], [5.905462, 49.88206], [5.905157, 49.882187], [5.905043, 49.882225], [5.904909, 49.88224], [5.904776, 49.882256], [5.904623, 49.88228], [5.904551, 49.8823], [5.904501, 49.88232], [5.904448, 49.88236], [5.904371, 49.882416], [5.904249, 49.88251], [5.9042, 49.882557], [5.904223, 49.88257], [5.904242, 49.882576], [5.904306, 49.882607], [5.904299, 49.882824], [5.904257, 49.88308], [5.904242, 49.883186], [5.904207, 49.88349], [5.9042, 49.88354], [5.904165, 49.883858], [5.90415, 49.883953], [5.904108, 49.8841], [5.904043, 49.88429], [5.904028, 49.884422], [5.904036, 49.88453], [5.904043, 49.884583], [5.904032, 49.884647], [5.904009, 49.8847], [5.903948, 49.884777], [5.903913, 49.884804], [5.903853, 49.884846], [5.903799, 49.884872], [5.903753, 49.884876], [5.90373, 49.884876], [5.903696, 49.88492], [5.903654, 49.884945], [5.903627, 49.88497], [5.903597, 49.884995], [5.903536, 49.88502], [5.90349, 49.88504], [5.903467, 49.885063], [5.903459, 49.885117], [5.903475, 49.88523], [5.903456, 49.88527], [5.903398, 49.885296], [5.90333, 49.885323], [5.903295, 49.885357], [5.903265, 49.885395], [5.903227, 49.885456], [5.903185, 49.885494], [5.903116, 49.885525], [5.903074, 49.88555], [5.90304, 49.88561], [5.903009, 49.885666], [5.902952, 49.885723], [5.902823, 49.88581], [5.902731, 49.885883], [5.902632, 49.885983], [5.902555, 49.88607], [5.902475, 49.88619], [5.902403, 49.886307], [5.902311, 49.886574], [5.902224, 49.886806], [5.902163, 49.886986], [5.902121, 49.887077], [5.902098, 49.887115], [5.902079, 49.88714], [5.902033, 49.88716], [5.901987, 49.887177], [5.901922, 49.88718], [5.901743, 49.887173], [5.90156, 49.887177], [5.901457, 49.887184], [5.901346, 49.887196], [5.901194, 49.887238], [5.901068, 49.887276], [5.900984, 49.887325], [5.900877, 49.88738], [5.900686, 49.88746], [5.900515, 49.88755], [5.900377, 49.88764], [5.900221, 49.88778], [5.900156, 49.887836], [5.899973, 49.888042], [5.899881, 49.88817], [5.899786, 49.88825], [5.899744, 49.88828], [5.89958, 49.88838], [5.899519, 49.8884], [5.899477, 49.88841], [5.899443, 49.8884], [5.899412, 49.888382], [5.899374, 49.888336], [5.899317, 49.888237], [5.89926, 49.888145], [5.899198, 49.88807], [5.899141, 49.88801], [5.899069, 49.88795], [5.898954, 49.887886], [5.898848, 49.88783], [5.898806, 49.887794], [5.898714, 49.88769], [5.898592, 49.887608], [5.898497, 49.88754], [5.898447, 49.887512], [5.898409, 49.8875], [5.898321, 49.887478], [5.898268, 49.887455], [5.898199, 49.887413], [5.898127, 49.88736], [5.898054, 49.887318], [5.897871, 49.887226], [5.897787, 49.887177], [5.897741, 49.887135], [5.897696, 49.887096], [5.897558, 49.887024], [5.897337, 49.8869], [5.897249, 49.886856], [5.8971, 49.886738], [5.897043, 49.8867], [5.896955, 49.886585], [5.897055, 49.88651], [5.89707, 49.886494], [5.897104, 49.886467], [5.897161, 49.88642], [5.897207, 49.886387], [5.897329, 49.88629], [5.897894, 49.885845], [5.897482, 49.88552], [5.897383, 49.885445], [5.896959, 49.885094], [5.896765, 49.884926], [5.89649, 49.884693], [5.89617, 49.884434], [5.895918, 49.884212], [5.895845, 49.884144], [5.895361, 49.88432], [5.895201, 49.884377], [5.895002, 49.884453], [5.894911, 49.884483], [5.894716, 49.884556], [5.894701, 49.884563], [5.89456, 49.884453], [5.894495, 49.884384], [5.894449, 49.884304], [5.894369, 49.88425], [5.8943, 49.8842], [5.894281, 49.88417], [5.894289, 49.884132], [5.894312, 49.884087], [5.894304, 49.88405], [5.894247, 49.883984], [5.894167, 49.8839], [5.894094, 49.883766], [5.894041, 49.88371], [5.893908, 49.883575], [5.893728, 49.883423], [5.893671, 49.88337], [5.893629, 49.88331], [5.893568, 49.883186], [5.893496, 49.883026], [5.893415, 49.882828], [5.893286, 49.882496], [5.893232, 49.88242], [5.893187, 49.882362], [5.89316, 49.8823], [5.893122, 49.882202], [5.893019, 49.882042], [5.892889, 49.881863], [5.892832, 49.881763], [5.892798, 49.88167], [5.892775, 49.881577], [5.892759, 49.881443], [5.892748, 49.881313], [5.892752, 49.881268], [5.892786, 49.881214], [5.892824, 49.88116], [5.892862, 49.881104], [5.8929, 49.88108], [5.892935, 49.88105], [5.892962, 49.88101], [5.893045, 49.88084], [5.89308, 49.88075], [5.893095, 49.880676], [5.893095, 49.880596], [5.89308, 49.88047], [5.893053, 49.880383], [5.893003, 49.88027], [5.892969, 49.880157], [5.892939, 49.880047], [5.892919, 49.879993], [5.892897, 49.879967], [5.892675, 49.879757], [5.892595, 49.87968], [5.892355, 49.879456], [5.89237, 49.87945], [5.893324, 49.879124], [5.893744, 49.878983], [5.894545, 49.878716], [5.894716, 49.878654], [5.894808, 49.87861], [5.895071, 49.87848], [5.895342, 49.878323], [5.895502, 49.878216], [5.895269, 49.87803], [5.894995, 49.877823], [5.894819, 49.87769], [5.894628, 49.877514], [5.894396, 49.877296], [5.89406, 49.876987], [5.893957, 49.876896], [5.893946, 49.87689], [5.894255, 49.876717], [5.89435, 49.87666], [5.894514, 49.87657], [5.894537, 49.876564], [5.894693, 49.87649], [5.894716, 49.876484], [5.894922, 49.876404], [5.894831, 49.876305], [5.894491, 49.875973], [5.894247, 49.87575], [5.893915, 49.87545], [5.893789, 49.875328], [5.893503, 49.87497], [5.894922, 49.875126], [5.895178, 49.875153], [5.895842, 49.875187], [5.895914, 49.87516], [5.896059, 49.875145], [5.896177, 49.875122], [5.896326, 49.875084], [5.896463, 49.87503], [5.896631, 49.87493], [5.896746, 49.874832], [5.896822, 49.87475], [5.896864, 49.874683], [5.896902, 49.87461], [5.896963, 49.874474], [5.897017, 49.874336], [5.896963, 49.874283], [5.897024, 49.874218], [5.897116, 49.87413], [5.897207, 49.87406], [5.897303, 49.873997], [5.897436, 49.873917], [5.897543, 49.87384], [5.897593, 49.873787], [5.897627, 49.873745], [5.897654, 49.873676], [5.897665, 49.873615], [5.897673, 49.873554], [5.897707, 49.873554], [5.897558, 49.87343], [5.897375, 49.873314], [5.897184, 49.8732], [5.896952, 49.873066], [5.896784, 49.872982], [5.896608, 49.872906], [5.896311, 49.8728], [5.895968, 49.872665], [5.895872, 49.872627], [5.895712, 49.872555], [5.895506, 49.87245], [5.895151, 49.872265], [5.894892, 49.872093], [5.894678, 49.871956], [5.894388, 49.871758], [5.894461, 49.87169], [5.894579, 49.871597], [5.894674, 49.871525], [5.894789, 49.871445], [5.894644, 49.87134], [5.894293, 49.8711], [5.894125, 49.870995], [5.893904, 49.87086], [5.893595, 49.87068], [5.893728, 49.87059], [5.892988, 49.87032], [5.892683, 49.870197], [5.892584, 49.870148], [5.892511, 49.870102], [5.892469, 49.870056], [5.892447, 49.870014], [5.892443, 49.869976], [5.892443, 49.869946], [5.89245, 49.869904], [5.892176, 49.869923], [5.891951, 49.869934], [5.891756, 49.869946], [5.891436, 49.86997], [5.891226, 49.869984], [5.891157, 49.86999], [5.890463, 49.870026], [5.8902, 49.870026], [5.890093, 49.87001], [5.890009, 49.869995], [5.889917, 49.869976], [5.889757, 49.87006], [5.889719, 49.870075], [5.889658, 49.870087], [5.889631, 49.8701], [5.889608, 49.870106], [5.889559, 49.870136], [5.889521, 49.87016], [5.889414, 49.8702], [5.889383, 49.870216], [5.889334, 49.87025], [5.889246, 49.870296], [5.889234, 49.870304], [5.889097, 49.87023], [5.88901, 49.870186], [5.888952, 49.870148], [5.888792, 49.870007], [5.888693, 49.86993], [5.88859, 49.869843], [5.888441, 49.869682], [5.888334, 49.86955], [5.888189, 49.869366], [5.888121, 49.86927], [5.888021, 49.86914], [5.887953, 49.86903], [5.887915, 49.868954], [5.88788, 49.868866], [5.887842, 49.868717], [5.887835, 49.86862], [5.887838, 49.868526], [5.887854, 49.868454], [5.88788, 49.86837], [5.887918, 49.86829], [5.887995, 49.868153], [5.888071, 49.868], [5.888117, 49.867935], [5.88817, 49.867825], [5.888258, 49.86763], [5.888308, 49.867516], [5.888327, 49.86748], [5.888392, 49.86741], [5.888411, 49.867382], [5.888411, 49.867355], [5.888407, 49.867317], [5.888414, 49.867283], [5.888433, 49.867237], [5.888472, 49.867165], [5.888475, 49.867138], [5.888464, 49.86708], [5.888441, 49.867023], [5.888437, 49.86699], [5.888441, 49.866955], [5.888441, 49.866936], [5.888426, 49.86693], [5.88838, 49.866905], [5.888311, 49.86686], [5.888269, 49.866825], [5.888212, 49.866776], [5.888163, 49.866753], [5.888014, 49.866673], [5.887865, 49.866604], [5.887823, 49.866573], [5.887781, 49.866535], [5.887751, 49.866505], [5.887713, 49.86647], [5.887659, 49.86643], [5.887545, 49.866356], [5.887331, 49.866238], [5.887297, 49.866215], [5.887228, 49.866177], [5.887163, 49.866135], [5.887098, 49.866062], [5.887049, 49.866024], [5.886957, 49.865982], [5.8869, 49.865967], [5.886728, 49.86593], [5.886675, 49.86591], [5.886622, 49.86588], [5.88656, 49.865852], [5.886427, 49.86582], [5.886198, 49.865776], [5.88616, 49.865765], [5.886133, 49.865746], [5.886122, 49.865723], [5.886091, 49.865707], [5.886004, 49.8657], [5.885939, 49.86569], [5.885874, 49.86569], [5.885801, 49.865677], [5.885717, 49.86566], [5.885637, 49.86565], [5.885557, 49.865658], [5.885489, 49.86567], [5.885435, 49.865685], [5.885393, 49.865692], [5.885328, 49.865685], [5.885218, 49.86566], [5.885153, 49.86564], [5.885107, 49.86561], [5.885008, 49.865562], [5.884913, 49.86553], [5.88481, 49.865494], [5.884752, 49.865467], [5.884642, 49.865376], [5.884592, 49.865345], [5.884512, 49.865314], [5.884428, 49.865295], [5.884355, 49.86527], [5.88426, 49.86522], [5.884169, 49.86516], [5.884077, 49.86511], [5.883894, 49.865], [5.883562, 49.864807], [5.883547, 49.8648], [5.883524, 49.86478], [5.883478, 49.864735], [5.883436, 49.8647], [5.883387, 49.864666], [5.883242, 49.86457], [5.883158, 49.864532], [5.883108, 49.864502], [5.88307, 49.864487], [5.883024, 49.864464], [5.883009, 49.864437], [5.882998, 49.86442], [5.882956, 49.864403], [5.882898, 49.864388], [5.882834, 49.86437], [5.882776, 49.864326], [5.882731, 49.864296], [5.882677, 49.864277], [5.882635, 49.864258], [5.882601, 49.864235], [5.882536, 49.864212], [5.882467, 49.864197], [5.882414, 49.864178], [5.882326, 49.86414], [5.882227, 49.864098], [5.882151, 49.864063], [5.882109, 49.864048], [5.882025, 49.864014], [5.881949, 49.863995], [5.881899, 49.86399], [5.881849, 49.863976], [5.881792, 49.863964], [5.881681, 49.86397], [5.881537, 49.86398], [5.881414, 49.863983], [5.881323, 49.863995], [5.881189, 49.864017], [5.880911, 49.864048], [5.880865, 49.864014], [5.88077, 49.863945], [5.880468, 49.86406], [5.880228, 49.86416], [5.880171, 49.864185], [5.880072, 49.864235], [5.87995, 49.8643], [5.879854, 49.864353], [5.879744, 49.86442], [5.879652, 49.8645], [5.879492, 49.86461], [5.879419, 49.864643], [5.879385, 49.864655], [5.879351, 49.864674], [5.87932, 49.864693], [5.879313, 49.864708], [5.879305, 49.864758], [5.87929, 49.8648], [5.879271, 49.864838], [5.879251, 49.86487], [5.879217, 49.8649], [5.879175, 49.86492], [5.879087, 49.86495], [5.879, 49.86497], [5.878946, 49.86499], [5.878916, 49.865013], [5.879011, 49.865105], [5.878736, 49.86526], [5.878531, 49.86539], [5.878679, 49.865555], [5.878748, 49.865658], [5.878809, 49.865757], [5.878843, 49.86585], [5.878889, 49.865986], [5.878962, 49.86617], [5.878992, 49.866245], [5.879065, 49.86634], [5.879164, 49.866455], [5.879061, 49.8666], [5.878954, 49.866753], [5.878939, 49.866776], [5.878752, 49.867035], [5.878271, 49.867695], [5.878191, 49.867764], [5.878069, 49.868454], [5.878023, 49.86882], [5.877996, 49.86927], [5.877943, 49.869705], [5.877939, 49.86981], [5.877951, 49.87015], [5.877935, 49.870291], [5.877905, 49.870539], [5.877893, 49.870588], [5.87784, 49.870733], [5.87771, 49.871092], [5.877512, 49.871656], [5.878008, 49.87195], [5.878569, 49.872293], [5.878553, 49.872309], [5.878122, 49.87285], [5.878614, 49.872839], [5.880098, 49.873632], [5.880175, 49.873671], [5.880125, 49.873713], [5.879812, 49.873957], [5.87948, 49.874205], [5.879374, 49.874277], [5.879126, 49.874453], [5.878794, 49.87467], [5.878591, 49.8748], [5.878088, 49.875063], [5.877859, 49.875177], [5.877489, 49.875395], [5.877333, 49.87549], [5.877286, 49.875518], [5.877249, 49.87554], [5.876966, 49.875704], [5.876925, 49.875757], [5.876711, 49.87602], [5.876467, 49.876333], [5.876345, 49.876493], [5.876181, 49.876707], [5.876112, 49.876787], [5.875967, 49.876951], [5.875864, 49.877085], [5.875849, 49.877108], [5.875639, 49.877394], [5.875433, 49.877672], [5.875193, 49.878004], [5.875166, 49.878042], [5.874853, 49.877798], [5.874723, 49.877695], [5.874624, 49.877626], [5.874506, 49.877565], [5.874281, 49.877455], [5.874418, 49.87734], [5.874094, 49.877134], [5.873877, 49.877001], [5.873739, 49.876928], [5.873579, 49.876852], [5.8734, 49.876768], [5.87324, 49.876696], [5.873224, 49.876596], [5.873205, 49.876436], [5.873148, 49.876127], [5.873144, 49.876051], [5.873152, 49.875963], [5.873175, 49.87586], [5.873232, 49.875715], [5.873327, 49.875608], [5.873419, 49.875528], [5.872938, 49.875517], [5.872515, 49.875509], [5.87216, 49.875502], [5.87171, 49.875494], [5.871679, 49.875494], [5.871607, 49.87578], [5.871538, 49.875997], [5.871382, 49.876436], [5.87134, 49.876543], [5.87134, 49.876593], [5.871359, 49.876631], [5.871614, 49.876761], [5.872297, 49.877115], [5.872183, 49.877245], [5.87216, 49.877268], [5.872061, 49.877386], [5.872019, 49.877447], [5.871954, 49.877592], [5.871916, 49.877688], [5.871874, 49.877771], [5.871782, 49.877935], [5.871736, 49.878012], [5.871691, 49.878069], [5.871618, 49.878126], [5.871542, 49.87818], [5.87142, 49.87826], [5.871393, 49.878389], [5.871374, 49.878462], [5.87134, 49.878538], [5.871309, 49.878591], [5.87126, 49.878668], [5.871202, 49.878824], [5.871183, 49.878885], [5.871096, 49.879145], [5.870958, 49.879473], [5.870882, 49.879671], [5.870733, 49.879999], [5.870672, 49.880094], [5.870607, 49.880201], [5.8706, 49.880213], [5.870897, 49.880297], [5.871134, 49.880362], [5.871489, 49.880461], [5.871756, 49.880533], [5.872042, 49.880602], [5.872267, 49.880644], [5.872393, 49.880663], [5.872435, 49.880674], [5.872293, 49.880892], [5.872213, 49.880854], [5.872141, 49.880827], [5.872015, 49.880808], [5.871821, 49.880781], [5.871306, 49.880659], [5.871134, 49.880617], [5.87068, 49.880495], [5.870169, 49.880354], [5.870066, 49.880323], [5.869703, 49.880236], [5.869669, 49.880281], [5.869623, 49.880346], [5.869497, 49.880461], [5.869417, 49.88059], [5.869272, 49.880835], [5.869173, 49.880999], [5.869097, 49.88109], [5.869062, 49.881121], [5.868978, 49.881174], [5.868879, 49.881231], [5.868845, 49.881258], [5.868807, 49.881315], [5.868723, 49.881487], [5.868498, 49.881437], [5.868418, 49.881418], [5.868635, 49.881029], [5.868845, 49.880739], [5.869059, 49.880499], [5.869123, 49.880503], [5.869249, 49.880236], [5.868746, 49.880453], [5.868513, 49.880529], [5.868364, 49.880571], [5.867773, 49.880693], [5.867243, 49.880773], [5.866995, 49.880854], [5.866919, 49.880865], [5.866869, 49.880865], [5.866781, 49.880854], [5.866201, 49.88117], [5.866007, 49.881288], [5.865774, 49.881453], [5.865702, 49.88151], [5.865496, 49.88167], [5.865293, 49.881803], [5.86521, 49.881918], [5.86508, 49.88212], [5.86487, 49.882494], [5.864828, 49.882585], [5.864752, 49.882792], [5.864729, 49.882887], [5.864721, 49.882925], [5.864683, 49.882986], [5.864584, 49.883108], [5.864355, 49.883409], [5.86426, 49.883547], [5.864172, 49.883676], [5.864077, 49.883841], [5.863909, 49.884062], [5.863806, 49.884199], [5.863649, 49.884378], [5.863466, 49.8846], [5.863123, 49.885046], [5.863073, 49.885118], [5.863169, 49.885183], [5.863626, 49.885485], [5.864073, 49.885759], [5.864447, 49.886011], [5.864946, 49.886324], [5.865366, 49.886713], [5.865728, 49.887045], [5.866144, 49.887419], [5.866384, 49.88767], [5.866762, 49.88817], [5.866648, 49.888182], [5.866579, 49.888185], [5.866507, 49.888185], [5.866373, 49.888136], [5.866114, 49.888033], [5.865725, 49.887937], [5.865366, 49.887842], [5.865019, 49.887758], [5.864794, 49.887709], [5.864668, 49.887678], [5.864554, 49.887655], [5.864451, 49.887629], [5.864286, 49.88759], [5.86416, 49.887556], [5.864031, 49.887495], [5.863726, 49.887377], [5.863634, 49.887346], [5.863508, 49.887301], [5.863421, 49.88727], [5.863169, 49.887194], [5.8631, 49.887175], [5.862772, 49.887194], [5.862658, 49.887205], [5.862448, 49.887236], [5.862276, 49.887266], [5.862177, 49.887289], [5.862063, 49.887358], [5.86186, 49.887476], [5.861807, 49.887507], [5.861738, 49.887548], [5.861456, 49.887728], [5.861429, 49.887739], [5.861448, 49.887766], [5.861177, 49.887854], [5.860582, 49.888048], [5.860357, 49.888117], [5.860216, 49.888174], [5.859953, 49.888296], [5.859808, 49.888357], [5.859663, 49.888403], [5.859526, 49.888433], [5.859426, 49.888445], [5.859289, 49.888452], [5.859053, 49.888449], [5.858931, 49.888445], [5.858885, 49.888449], [5.858778, 49.88846], [5.858618, 49.888479], [5.858484, 49.888502], [5.858335, 49.888548], [5.858301, 49.888556], [5.858152, 49.888567], [5.85808, 49.888578], [5.857977, 49.888605], [5.857889, 49.88862], [5.857817, 49.888639], [5.857672, 49.888647], [5.857428, 49.888651], [5.857096, 49.888658], [5.856802, 49.888693], [5.856653, 49.888752], [5.856562, 49.88879], [5.856539, 49.8888], [5.856417, 49.888866], [5.856333, 49.888924], [5.856222, 49.888996], [5.856016, 49.889126], [5.855967, 49.889156], [5.855917, 49.889202], [5.855909, 49.88923], [5.855898, 49.889305], [5.855883, 49.88935], [5.855852, 49.889378], [5.855738, 49.889442], [5.855673, 49.889492], [5.855661, 49.8895], [5.855631, 49.889523], [5.855524, 49.88963], [5.855337, 49.88977], [5.855288, 49.88981], [5.855219, 49.889854], [5.855158, 49.889896], [5.855104, 49.889946], [5.855074, 49.889973], [5.854944, 49.8901], [5.854754, 49.89025], [5.854601, 49.890377], [5.854471, 49.890476], [5.854402, 49.890526], [5.85425, 49.89064], [5.854185, 49.890682], [5.854162, 49.890694], [5.854128, 49.89071], [5.854075, 49.890728], [5.854029, 49.89076], [5.853991, 49.890804], [5.853941, 49.890858], [5.853891, 49.8909], [5.853834, 49.89095], [5.853754, 49.891014], [5.853716, 49.891037], [5.85367, 49.891064], [5.853613, 49.8911], [5.853533, 49.891132], [5.853472, 49.891155], [5.853426, 49.891167], [5.853396, 49.89118], [5.853365, 49.891197], [5.853342, 49.891216], [5.8533, 49.891262], [5.853273, 49.891285], [5.853201, 49.89133], [5.853144, 49.89137], [5.853113, 49.891384], [5.85309, 49.891396], [5.853052, 49.891415], [5.852831, 49.89147], [5.852682, 49.891518], [5.852602, 49.89154], [5.85248, 49.89158], [5.852388, 49.89162], [5.852316, 49.891663], [5.852232, 49.891697], [5.85219, 49.891712], [5.85211, 49.891747], [5.852003, 49.891796], [5.851835, 49.89188], [5.851789, 49.891907], [5.851732, 49.891937], [5.851706, 49.891956], [5.851622, 49.89202], [5.851584, 49.892044], [5.85153, 49.892056], [5.851313, 49.89209], [5.851103, 49.892124], [5.850946, 49.89214], [5.85087, 49.89215], [5.850725, 49.892166], [5.850645, 49.892174], [5.850512, 49.892193], [5.850412, 49.892204], [5.850374, 49.892216], [5.850287, 49.892258], [5.850237, 49.892277], [5.850142, 49.892277], [5.850115, 49.892273], [5.850084, 49.892273], [5.849832, 49.892254], [5.849745, 49.892254], [5.849707, 49.89226], [5.849524, 49.89228], [5.849329, 49.892307], [5.849119, 49.892326], [5.848886, 49.892334], [5.848513, 49.892353], [5.848429, 49.89235], [5.848341, 49.89234], [5.84823, 49.89233], [5.848154, 49.892365], [5.848021, 49.892418], [5.847776, 49.892506], [5.847605, 49.89256], [5.84746, 49.89259], [5.847242, 49.892612], [5.847048, 49.892654], [5.846903, 49.892708], [5.846777, 49.892788], [5.846716, 49.892876], [5.846689, 49.89298], [5.846708, 49.89304], [5.846811, 49.893112], [5.846857, 49.893166], [5.846827, 49.893238], [5.846796, 49.89332], [5.847338, 49.89332], [5.847921, 49.89336], [5.848444, 49.893417], [5.849028, 49.893513], [5.849314, 49.89359], [5.849474, 49.893677], [5.849836, 49.89391], [5.850256, 49.8942], [5.850546, 49.89446], [5.850699, 49.89465], [5.850786, 49.89489], [5.850832, 49.89511], [5.850843, 49.895428], [5.850836, 49.895603], [5.850767, 49.895737], [5.850645, 49.89595], [5.850405, 49.896233], [5.850073, 49.89654], [5.849531, 49.89702], [5.849127, 49.897343], [5.848783, 49.897564], [5.848101, 49.89794], [5.847593, 49.89824], [5.84701, 49.898514], [5.846201, 49.89888], [5.845869, 49.89905], [5.845694, 49.899185], [5.845575, 49.89932], [5.845488, 49.899437], [5.845404, 49.899597], [5.845297, 49.899803], [5.845255, 49.90007]]]]}}]}