{"type": "FeatureCollection", "features": [{"type": "Feature", "properties": {"name": "Canton Remich"}, "geometry": {"type": "MultiPolygon", "coordinates": [[[[6.219217, 49.55499], [6.219316, 49.555008], [6.219774, 49.5551], [6.220038, 49.55515], [6.220091, 49.555164], [6.220266, 49.555202], [6.220472, 49.555256], [6.220575, 49.55528], [6.22106, 49.555397], [6.221544, 49.555515], [6.221731, 49.55557], [6.221777, 49.55558], [6.221853, 49.555603], [6.222444, 49.55579], [6.222658, 49.55586], [6.222967, 49.555977], [6.223516, 49.556183], [6.223822, 49.555836], [6.224188, 49.55604], [6.224478, 49.5562], [6.225042, 49.556454], [6.225203, 49.55652], [6.22547, 49.556614], [6.225542, 49.556637], [6.225706, 49.556686], [6.225828, 49.55672], [6.226122, 49.556805], [6.22624, 49.556835], [6.226507, 49.55684], [6.226603, 49.55681], [6.227137, 49.55575], [6.227358, 49.555492], [6.227991, 49.554867], [6.228296, 49.554615], [6.22912, 49.553978], [6.229734, 49.553463], [6.23028, 49.553024], [6.230326, 49.553032], [6.230921, 49.553127], [6.231176, 49.553177], [6.231386, 49.55323], [6.23179, 49.55334], [6.232145, 49.553474], [6.232561, 49.553658], [6.233267, 49.553997], [6.233412, 49.553932], [6.233519, 49.55388], [6.234057, 49.55363], [6.234545, 49.55343], [6.234953, 49.553307], [6.235022, 49.553417], [6.235044, 49.553463], [6.235102, 49.553555], [6.235163, 49.553665], [6.235193, 49.553715], [6.23522, 49.553764], [6.235251, 49.55381], [6.235258, 49.55383], [6.235308, 49.553905], [6.235475, 49.554195], [6.235334, 49.55425], [6.234865, 49.554474], [6.23448, 49.554676], [6.234098, 49.55491], [6.233896, 49.555065], [6.233713, 49.555202], [6.233484, 49.555412], [6.233335, 49.555565], [6.233068, 49.555927], [6.232965, 49.55589], [6.232904, 49.555977], [6.232847, 49.55606], [6.23276, 49.55619], [6.232664, 49.556328], [6.232626, 49.556385], [6.232443, 49.55656], [6.232332, 49.556664], [6.232229, 49.556763], [6.232084, 49.556904], [6.232023, 49.55696], [6.231928, 49.55705], [6.231821, 49.557148], [6.231707, 49.55725], [6.231646, 49.5573], [6.231585, 49.557358], [6.231531, 49.557404], [6.231463, 49.557465], [6.231218, 49.55768], [6.231165, 49.557804], [6.231108, 49.557945], [6.231054, 49.55811], [6.231012, 49.55832], [6.231001, 49.558586], [6.231024, 49.558853], [6.231024, 49.558887], [6.231051, 49.55904], [6.231081, 49.559177], [6.231108, 49.559284], [6.231169, 49.559464], [6.231199, 49.55956], [6.231302, 49.559704], [6.231566, 49.55998], [6.231607, 49.560017], [6.231684, 49.560062], [6.231813, 49.560135], [6.23197, 49.5602], [6.232054, 49.560226], [6.232199, 49.560272], [6.232698, 49.56039], [6.232744, 49.5604], [6.232843, 49.56041], [6.232962, 49.56043], [6.233072, 49.56044], [6.232935, 49.560673], [6.232855, 49.560806], [6.232515, 49.561672], [6.232439, 49.56185], [6.232367, 49.561974], [6.231978, 49.56233], [6.231939, 49.562363], [6.231806, 49.56249], [6.231741, 49.562546], [6.231642, 49.562645], [6.231676, 49.562687], [6.231714, 49.56274], [6.231829, 49.5629], [6.231878, 49.562973], [6.231993, 49.563133], [6.232054, 49.563213], [6.232092, 49.56327], [6.232122, 49.563297], [6.232267, 49.56342], [6.232401, 49.56353], [6.232687, 49.56377], [6.232782, 49.563877], [6.232946, 49.564053], [6.233019, 49.564133], [6.23308, 49.564198], [6.23311, 49.564228], [6.233126, 49.564247], [6.233183, 49.56431], [6.233236, 49.564365], [6.233343, 49.56448], [6.233381, 49.564526], [6.23345, 49.56459], [6.233511, 49.56465], [6.233526, 49.564667], [6.23361, 49.564735], [6.233713, 49.564827], [6.23382, 49.564915], [6.233847, 49.56494], [6.233889, 49.564976], [6.233679, 49.565384], [6.233652, 49.565434], [6.233606, 49.565525], [6.233599, 49.565594], [6.233595, 49.56561], [6.23353, 49.566086], [6.233339, 49.566284], [6.233049, 49.566574], [6.232904, 49.56672], [6.232553, 49.567043], [6.232252, 49.56737], [6.232038, 49.56761], [6.232401, 49.567894], [6.232248, 49.56802], [6.232061, 49.568172], [6.231806, 49.568382], [6.231516, 49.568516], [6.231375, 49.568615], [6.231134, 49.568787], [6.230825, 49.569004], [6.230887, 49.569202], [6.230982, 49.56949], [6.231008, 49.569546], [6.231127, 49.56981], [6.231207, 49.56998], [6.231237, 49.57004], [6.231302, 49.57003], [6.231443, 49.57001], [6.231554, 49.57], [6.23171, 49.569996], [6.231802, 49.569996], [6.23197, 49.570004], [6.23234, 49.570007], [6.23276, 49.569984], [6.232969, 49.569992], [6.233198, 49.57001], [6.233442, 49.57004], [6.233572, 49.570053], [6.233744, 49.570072], [6.234087, 49.570103], [6.234545, 49.57013], [6.235346, 49.570168], [6.23612, 49.570206], [6.236353, 49.570213], [6.236567, 49.57021], [6.23694, 49.570164], [6.23752, 49.570087], [6.237852, 49.570034], [6.238039, 49.569996], [6.238653, 49.569843], [6.239481, 49.56965], [6.239576, 49.569576], [6.239901, 49.569252], [6.240385, 49.568546], [6.240965, 49.568027], [6.241625, 49.56766], [6.241777, 49.567654], [6.24188, 49.567657], [6.242311, 49.56766], [6.242502, 49.567665], [6.24299, 49.56758], [6.243681, 49.567707], [6.24468, 49.56769], [6.245592, 49.567608], [6.245954, 49.567654], [6.246908, 49.567627], [6.247458, 49.567623], [6.248041, 49.567677], [6.248819, 49.567566], [6.249365, 49.567646], [6.250269, 49.56789], [6.250673, 49.567863], [6.251111, 49.56798], [6.251707, 49.56814], [6.252081, 49.568214], [6.2525, 49.568363], [6.25297, 49.56842], [6.25345, 49.568596], [6.253775, 49.568645], [6.253839, 49.568707], [6.253969, 49.56881], [6.254213, 49.56899], [6.254644, 49.569225], [6.254805, 49.569317], [6.255083, 49.56939], [6.255526, 49.56951], [6.255732, 49.56954], [6.255793, 49.56954], [6.256258, 49.569695], [6.2572, 49.570004], [6.257505, 49.57011], [6.257486, 49.570126], [6.257189, 49.570347], [6.256895, 49.570576], [6.256384, 49.570984], [6.256166, 49.571255], [6.256033, 49.57144], [6.25572, 49.571877], [6.255541, 49.572155], [6.255526, 49.572193], [6.25551, 49.572224], [6.255419, 49.57246], [6.255388, 49.57257], [6.255373, 49.572674], [6.255381, 49.572784], [6.255446, 49.57293], [6.255568, 49.57322], [6.255655, 49.573406], [6.255667, 49.57344], [6.25567, 49.573467], [6.255659, 49.57355], [6.255636, 49.57364], [6.255533, 49.574062], [6.255484, 49.57425], [6.255446, 49.57446], [6.255442, 49.574486], [6.255487, 49.574566], [6.255568, 49.574677], [6.255606, 49.574726], [6.255739, 49.574844], [6.255812, 49.57491], [6.255842, 49.574936], [6.255938, 49.575012], [6.256025, 49.575077], [6.256052, 49.5751], [6.256296, 49.57526], [6.256327, 49.575283], [6.256411, 49.575336], [6.256487, 49.57541], [6.256529, 49.575447], [6.256559, 49.57548], [6.256628, 49.575558], [6.256647, 49.57559], [6.256678, 49.575634], [6.256689, 49.575645], [6.256704, 49.575695], [6.256727, 49.575756], [6.256796, 49.576046], [6.256807, 49.576084], [6.256834, 49.576157], [6.256864, 49.576225], [6.256876, 49.576256], [6.256929, 49.57634], [6.256975, 49.576397], [6.257059, 49.576504], [6.257132, 49.5766], [6.257353, 49.576874], [6.257429, 49.576977], [6.257505, 49.577072], [6.257585, 49.577168], [6.25762, 49.577217], [6.257738, 49.577362], [6.257791, 49.57743], [6.25783, 49.577473], [6.258108, 49.577766], [6.258211, 49.577877], [6.258383, 49.577976], [6.258577, 49.578102], [6.258692, 49.578175], [6.258932, 49.578346], [6.259024, 49.578415], [6.259131, 49.5785], [6.259287, 49.578617], [6.259355, 49.578674], [6.259455, 49.578777], [6.260134, 49.578743], [6.260405, 49.578728], [6.260588, 49.57872], [6.260694, 49.578716], [6.261232, 49.57869], [6.261267, 49.57869], [6.261675, 49.57867], [6.261786, 49.578667], [6.261931, 49.57866], [6.262007, 49.578655], [6.262449, 49.57864], [6.262548, 49.578636], [6.263189, 49.578583], [6.263815, 49.578506], [6.263922, 49.578487], [6.265314, 49.57825], [6.265406, 49.578255], [6.265501, 49.578255], [6.265665, 49.57825], [6.265806, 49.57825], [6.265688, 49.578354], [6.265589, 49.578457], [6.265524, 49.57855], [6.265512, 49.578655], [6.265528, 49.579014], [6.265661, 49.57902], [6.265654, 49.57912], [6.265524, 49.579567], [6.265417, 49.579838], [6.265551, 49.5799], [6.265596, 49.5798], [6.265642, 49.579693], [6.26568, 49.579605], [6.265745, 49.57941], [6.265818, 49.5792], [6.265833, 49.579086], [6.265829, 49.578903], [6.265772, 49.578648], [6.265974, 49.578728], [6.266233, 49.57885], [6.266451, 49.578957], [6.266611, 49.579086], [6.266672, 49.579136], [6.266958, 49.579365], [6.267019, 49.57945], [6.267069, 49.57951], [6.267126, 49.579582], [6.267145, 49.57961], [6.267225, 49.579712], [6.267412, 49.579956], [6.26745, 49.57996], [6.267248, 49.5805], [6.267557, 49.581097], [6.267733, 49.581493], [6.267946, 49.581924], [6.268229, 49.582363], [6.268629, 49.582916], [6.268755, 49.58314], [6.268778, 49.583256], [6.268644, 49.583645], [6.268648, 49.583786], [6.268679, 49.583954], [6.26948, 49.58423], [6.269876, 49.58436], [6.271055, 49.584595], [6.272062, 49.58464], [6.273165, 49.58468], [6.274172, 49.584698], [6.274813, 49.584732], [6.276049, 49.58494], [6.276651, 49.585064], [6.277349, 49.5852], [6.278009, 49.58533], [6.278978, 49.585503], [6.27976, 49.585636], [6.280676, 49.58579], [6.281446, 49.585926], [6.282049, 49.586033], [6.282762, 49.586174], [6.283468, 49.58632], [6.28443, 49.58654], [6.284609, 49.58656], [6.284857, 49.58656], [6.285646, 49.586533], [6.287153, 49.58648], [6.287813, 49.586456], [6.28834, 49.58643], [6.289144, 49.586376], [6.289946, 49.586323], [6.290331, 49.586308], [6.29072, 49.5863], [6.291182, 49.586292], [6.291315, 49.586296], [6.291456, 49.586315], [6.291575, 49.58634], [6.291658, 49.586376], [6.291769, 49.586437], [6.29191, 49.58656], [6.293188, 49.586193], [6.294275, 49.585876], [6.295336, 49.58557], [6.296297, 49.585297], [6.296866, 49.585136], [6.29706, 49.585075], [6.297266, 49.585], [6.297449, 49.584904], [6.297941, 49.584583], [6.298384, 49.58428], [6.298796, 49.58399], [6.299272, 49.583664], [6.299994, 49.58316], [6.300711, 49.582664], [6.300764, 49.58263], [6.300821, 49.58267], [6.300833, 49.582676], [6.301065, 49.582817], [6.301149, 49.582867], [6.301184, 49.582886], [6.301558, 49.58313], [6.30187, 49.583336], [6.302187, 49.583588], [6.302301, 49.58369], [6.302362, 49.583748], [6.302412, 49.58381], [6.302549, 49.584194], [6.30261, 49.584362], [6.302694, 49.58457], [6.302813, 49.584885], [6.302854, 49.585014], [6.302816, 49.58517], [6.302744, 49.585423], [6.302671, 49.58568], [6.302633, 49.585804], [6.302534, 49.586113], [6.302469, 49.58632], [6.302378, 49.58647], [6.302317, 49.586575], [6.302271, 49.586697], [6.302248, 49.586906], [6.302229, 49.587048], [6.302175, 49.587486], [6.302126, 49.587856], [6.302076, 49.58824], [6.302031, 49.5886], [6.302004, 49.588844], [6.301741, 49.589256], [6.301516, 49.589615], [6.301325, 49.589912], [6.301558, 49.590206], [6.301763, 49.590473], [6.301306, 49.59063], [6.301256, 49.59065], [6.301203, 49.590664], [6.300741, 49.59082], [6.300299, 49.59097], [6.299948, 49.591087], [6.29973, 49.591164], [6.2997, 49.59179], [6.299684, 49.59207], [6.299673, 49.592194], [6.299654, 49.592537], [6.299627, 49.59289], [6.299612, 49.593136], [6.299524, 49.593212], [6.299337, 49.59336], [6.298925, 49.593685], [6.298677, 49.593876], [6.298418, 49.59408], [6.298254, 49.594215], [6.298185, 49.594273], [6.298075, 49.594387], [6.297876, 49.594585], [6.297731, 49.594734], [6.297586, 49.594833], [6.297491, 49.5949], [6.297228, 49.595066], [6.296942, 49.595303], [6.296923, 49.595318], [6.296652, 49.595543], [6.296637, 49.595566], [6.296557, 49.595695], [6.296385, 49.59595], [6.296324, 49.59605], [6.296206, 49.596237], [6.296148, 49.59633], [6.296087, 49.596424], [6.296041, 49.596504], [6.295984, 49.596615], [6.295843, 49.596912], [6.295584, 49.597466], [6.2955, 49.59764], [6.295431, 49.597775], [6.295324, 49.597965], [6.295179, 49.598217], [6.294718, 49.598312], [6.294409, 49.598377], [6.294168, 49.59843], [6.294062, 49.598454], [6.293715, 49.598526], [6.293558, 49.598553], [6.293478, 49.598568], [6.293314, 49.59859], [6.293047, 49.598625], [6.292875, 49.59864], [6.292791, 49.59865], [6.29265, 49.59866], [6.292559, 49.59866], [6.292479, 49.59865], [6.292402, 49.598648], [6.292242, 49.598648], [6.29217, 49.59864], [6.292067, 49.598637], [6.291979, 49.59865], [6.291918, 49.598663], [6.291868, 49.598682], [6.29178, 49.598717], [6.291582, 49.5988], [6.291391, 49.598877], [6.291265, 49.59893], [6.291166, 49.598965], [6.291044, 49.599], [6.290846, 49.599045], [6.290556, 49.599113], [6.290369, 49.599155], [6.290319, 49.599216], [6.290129, 49.599354], [6.290011, 49.59945], [6.289823, 49.59958], [6.289763, 49.59962], [6.289553, 49.59976], [6.289431, 49.6001], [6.289339, 49.60035], [6.289308, 49.60045], [6.289183, 49.60081], [6.289125, 49.600952], [6.288973, 49.601173], [6.288774, 49.601448], [6.28861, 49.60168], [6.288515, 49.601818], [6.288107, 49.601826], [6.28763, 49.60183], [6.287199, 49.601833], [6.286852, 49.60183], [6.286337, 49.601818], [6.285795, 49.602123], [6.285311, 49.6024], [6.284937, 49.602608], [6.284391, 49.60263], [6.283483, 49.602665], [6.283297, 49.602676], [6.283033, 49.60269], [6.282721, 49.60271], [6.282331, 49.602737], [6.28219, 49.60275], [6.282137, 49.60274], [6.282087, 49.602734], [6.281965, 49.602715], [6.281412, 49.60262], [6.280935, 49.60253], [6.280729, 49.602493], [6.280649, 49.60247], [6.279974, 49.602306], [6.279833, 49.602165], [6.279432, 49.602135], [6.279089, 49.602108], [6.278662, 49.602097], [6.278349, 49.602097], [6.278109, 49.6021], [6.27754, 49.602116], [6.277514, 49.601997], [6.277502, 49.60195], [6.277491, 49.601883], [6.277475, 49.6018], [6.277449, 49.60164], [6.277109, 49.6016], [6.27696, 49.601578], [6.276758, 49.60154], [6.276689, 49.601524], [6.276495, 49.60146], [6.276426, 49.601433], [6.276289, 49.601364], [6.276163, 49.6013], [6.276079, 49.601242], [6.275923, 49.60113], [6.275763, 49.60101], [6.275679, 49.60094], [6.275583, 49.600853], [6.275488, 49.60077], [6.275412, 49.60069], [6.275175, 49.600777], [6.274893, 49.60088], [6.274595, 49.600994], [6.274427, 49.601055], [6.274168, 49.601154], [6.273912, 49.601254], [6.273821, 49.601288], [6.273786, 49.6013], [6.273958, 49.601513], [6.274267, 49.601948], [6.274439, 49.602173], [6.274534, 49.60229], [6.274607, 49.60239], [6.274633, 49.602474], [6.274653, 49.60255], [6.274672, 49.602592], [6.274771, 49.60272], [6.274939, 49.602913], [6.275476, 49.6035], [6.275488, 49.60355], [6.275499, 49.603592], [6.275736, 49.603916], [6.275934, 49.60418], [6.276064, 49.60434], [6.27627, 49.604557], [6.276682, 49.60496], [6.276869, 49.605133], [6.277021, 49.60525], [6.277388, 49.60552], [6.277609, 49.605675], [6.278116, 49.605896], [6.278357, 49.606003], [6.278479, 49.60611], [6.278612, 49.606277], [6.278784, 49.606434], [6.279097, 49.606686], [6.27923, 49.6068], [6.279528, 49.607132], [6.279718, 49.607307], [6.279921, 49.607487], [6.280466, 49.607895], [6.281298, 49.60851], [6.281858, 49.60891], [6.282732, 49.60953], [6.283556, 49.610126], [6.284456, 49.610775], [6.285616, 49.61162], [6.285753, 49.611736], [6.285887, 49.611885], [6.286116, 49.61207], [6.286577, 49.61239], [6.286894, 49.612545], [6.287233, 49.61279], [6.288168, 49.61348], [6.289045, 49.614132], [6.289682, 49.61462], [6.290373, 49.61514], [6.291029, 49.615654], [6.291819, 49.616276], [6.292231, 49.616634], [6.292181, 49.616642], [6.292223, 49.616707], [6.292387, 49.616875], [6.292559, 49.617], [6.292879, 49.61717], [6.293058, 49.61728], [6.29384, 49.617886], [6.294542, 49.61842], [6.295385, 49.61907], [6.295923, 49.619537], [6.296434, 49.61999], [6.296698, 49.620213], [6.296934, 49.620384], [6.297304, 49.620655], [6.297884, 49.621086], [6.2983, 49.62141], [6.298487, 49.621536], [6.298788, 49.62171], [6.298868, 49.62177], [6.299032, 49.621925], [6.299547, 49.622437], [6.299589, 49.622444], [6.299643, 49.622498], [6.299665, 49.622513], [6.299852, 49.62265], [6.300264, 49.62295], [6.300562, 49.62317], [6.300825, 49.623363], [6.301348, 49.62375], [6.301855, 49.62412], [6.302423, 49.62453], [6.302641, 49.62469], [6.303171, 49.62507], [6.30345, 49.625263], [6.303659, 49.625412], [6.303793, 49.62551], [6.303915, 49.625603], [6.303991, 49.62566], [6.304293, 49.625893], [6.304468, 49.62605], [6.30472, 49.62622], [6.304953, 49.626354], [6.305605, 49.6267], [6.305998, 49.626904], [6.30652, 49.627132], [6.306784, 49.627235], [6.307035, 49.627308], [6.307173, 49.627354], [6.307718, 49.62757], [6.309034, 49.6281], [6.309687, 49.628384], [6.31048, 49.628174], [6.311163, 49.628006], [6.312006, 49.627888], [6.312601, 49.62782], [6.313341, 49.627777], [6.314699, 49.62774], [6.316069, 49.62775], [6.31674, 49.627758], [6.31703, 49.62774], [6.318529, 49.62763], [6.318972, 49.627605], [6.319765, 49.627586], [6.320005, 49.627563], [6.321344, 49.627388], [6.322351, 49.62705], [6.322996, 49.626884], [6.323484, 49.62679], [6.32382, 49.626736], [6.324125, 49.626713], [6.324442, 49.626717], [6.325224, 49.626743], [6.327898, 49.626926], [6.328028, 49.62692], [6.329969, 49.626736], [6.329935, 49.62671], [6.329504, 49.626324], [6.329359, 49.626175], [6.329241, 49.626034], [6.328962, 49.625668], [6.328859, 49.62554], [6.328737, 49.62544], [6.328604, 49.625347], [6.32847, 49.625275], [6.328188, 49.62513], [6.328176, 49.625126], [6.328188, 49.625114], [6.328238, 49.625053], [6.328276, 49.625004], [6.328322, 49.62495], [6.328386, 49.624866], [6.328463, 49.624775], [6.328554, 49.624664], [6.328604, 49.6246], [6.328657, 49.624535], [6.329081, 49.62444], [6.329351, 49.624382], [6.329531, 49.62435], [6.32968, 49.62434], [6.329824, 49.624332], [6.329985, 49.624336], [6.330183, 49.624348], [6.330366, 49.624367], [6.330534, 49.624393], [6.330717, 49.624435], [6.330912, 49.624485], [6.33098, 49.624424], [6.331057, 49.624367], [6.331167, 49.624268], [6.331198, 49.62425], [6.331251, 49.624203], [6.331305, 49.624165], [6.331358, 49.624134], [6.331381, 49.62412], [6.331488, 49.624077], [6.331552, 49.624058], [6.331663, 49.62402], [6.331694, 49.62401], [6.331747, 49.623985], [6.331793, 49.62397], [6.331842, 49.623947], [6.331907, 49.623913], [6.33193, 49.6239], [6.331968, 49.623882], [6.332087, 49.623825], [6.332113, 49.623814], [6.332212, 49.62376], [6.332308, 49.623714], [6.33259, 49.623592], [6.332655, 49.62356], [6.332682, 49.62355], [6.332876, 49.623714], [6.332933, 49.623684], [6.332884, 49.623543], [6.332865, 49.623432], [6.332861, 49.62326], [6.33288, 49.62308], [6.33291, 49.622917], [6.332941, 49.622784], [6.332987, 49.622643], [6.333056, 49.62246], [6.333864, 49.62246], [6.333933, 49.622456], [6.333994, 49.62245], [6.334066, 49.622444], [6.334097, 49.62244], [6.334135, 49.62244], [6.334181, 49.622437], [6.33436, 49.622437], [6.334394, 49.62244], [6.334528, 49.622444], [6.334635, 49.62245], [6.334696, 49.622456], [6.334879, 49.62247], [6.335337, 49.621807], [6.335356, 49.621807], [6.335428, 49.62182], [6.335577, 49.621834], [6.335596, 49.621838], [6.335672, 49.621845], [6.335829, 49.62187], [6.335859, 49.621872], [6.335932, 49.62188], [6.336046, 49.621895], [6.336096, 49.621902], [6.336176, 49.621914], [6.33626, 49.62192], [6.336321, 49.621933], [6.336378, 49.621937], [6.336481, 49.621952], [6.33655, 49.62196], [6.336588, 49.621964], [6.336676, 49.621975], [6.336725, 49.62198], [6.336885, 49.62199], [6.336946, 49.621998], [6.336969, 49.621998], [6.337008, 49.622], [6.337034, 49.622005], [6.33705, 49.622005], [6.337217, 49.622017], [6.337278, 49.622017], [6.337301, 49.62202], [6.337332, 49.62202], [6.337385, 49.622025], [6.337519, 49.622025], [6.337561, 49.62203], [6.337732, 49.62203], [6.337767, 49.62221], [6.337797, 49.622375], [6.337828, 49.622494], [6.337854, 49.622574], [6.337877, 49.622562], [6.338266, 49.62239], [6.338354, 49.622353], [6.338442, 49.622314], [6.338503, 49.622288], [6.338552, 49.622265], [6.338655, 49.62222], [6.338854, 49.62213], [6.338747, 49.621788], [6.338697, 49.621483], [6.338564, 49.620567], [6.338522, 49.620144], [6.338488, 49.619827], [6.338514, 49.619823], [6.338556, 49.619823], [6.338644, 49.61982], [6.338739, 49.61981], [6.338846, 49.6198], [6.338942, 49.619797], [6.33898, 49.619793], [6.338991, 49.619793], [6.339045, 49.619785], [6.339067, 49.61978], [6.339098, 49.619778], [6.339189, 49.619766], [6.339312, 49.61974], [6.33943, 49.61971], [6.33988, 49.619606], [6.340036, 49.619568], [6.339861, 49.619267], [6.339808, 49.619152], [6.339747, 49.618996], [6.339701, 49.618843], [6.339697, 49.618786], [6.339704, 49.618652], [6.339724, 49.618492], [6.339754, 49.618378], [6.339785, 49.618294], [6.339861, 49.61814], [6.339895, 49.618084], [6.339956, 49.617996], [6.340025, 49.617928], [6.340174, 49.617775], [6.340452, 49.6175], [6.340254, 49.617462], [6.339994, 49.617413], [6.340033, 49.61725], [6.340052, 49.617165], [6.340059, 49.61712], [6.340071, 49.617077], [6.340082, 49.617016], [6.340094, 49.61697], [6.340105, 49.616913], [6.340109, 49.616882], [6.340116, 49.616837], [6.340155, 49.616657], [6.340162, 49.616608], [6.340177, 49.616535], [6.340181, 49.61652], [6.340204, 49.616413], [6.340235, 49.616264], [6.340239, 49.616253], [6.34025, 49.6162], [6.340254, 49.616184], [6.340258, 49.61615], [6.340265, 49.616116], [6.340269, 49.616104], [6.34028, 49.616055], [6.340284, 49.616024], [6.340292, 49.615986], [6.340296, 49.615974], [6.340303, 49.615936], [6.340319, 49.615875], [6.340319, 49.615864], [6.340338, 49.61578], [6.340338, 49.61577], [6.340349, 49.6157], [6.340357, 49.61567], [6.3417, 49.615948], [6.341745, 49.61597], [6.341837, 49.615993], [6.341932, 49.616013], [6.342009, 49.61603], [6.342726, 49.6162], [6.343031, 49.61627], [6.343317, 49.616344], [6.343397, 49.61637], [6.34355, 49.616417], [6.343653, 49.616455], [6.343718, 49.616474], [6.343759, 49.61649], [6.343912, 49.61654], [6.344, 49.61657], [6.344091, 49.616596], [6.34413, 49.616608], [6.34416, 49.61662], [6.344351, 49.616676], [6.344374, 49.616684], [6.344538, 49.616436], [6.344797, 49.61603], [6.344912, 49.61606], [6.344919, 49.616016], [6.345072, 49.615005], [6.345072, 49.61499], [6.345087, 49.614616], [6.345091, 49.614494], [6.345091, 49.61439], [6.345095, 49.61433], [6.345095, 49.6143], [6.345106, 49.61419], [6.345106, 49.614162], [6.345114, 49.614105], [6.345114, 49.614], [6.34519, 49.61399], [6.34548, 49.613956], [6.345636, 49.613937], [6.345606, 49.613876], [6.345537, 49.61375], [6.345495, 49.613667], [6.345301, 49.613247], [6.345148, 49.61291], [6.345098, 49.6128], [6.345091, 49.61278], [6.345038, 49.612663], [6.344923, 49.612328], [6.344835, 49.61198], [6.344816, 49.611866], [6.34482, 49.61175], [6.344824, 49.611717], [6.344618, 49.61164], [6.344561, 49.611618], [6.344419, 49.611565], [6.3445, 49.611336], [6.344545, 49.611248], [6.344618, 49.611153], [6.344721, 49.611057], [6.344881, 49.61094], [6.345038, 49.610847], [6.345301, 49.61074], [6.345442, 49.6107], [6.345804, 49.61061], [6.345762, 49.610584], [6.345694, 49.610535], [6.345579, 49.61046], [6.345636, 49.610424], [6.345735, 49.61037], [6.345854, 49.61032], [6.345842, 49.610317], [6.345724, 49.610283], [6.345629, 49.610226], [6.345488, 49.61016], [6.345419, 49.61011], [6.345331, 49.610043], [6.345121, 49.609966], [6.344988, 49.60991], [6.344843, 49.609867], [6.344755, 49.609825], [6.344664, 49.609737], [6.344564, 49.609673], [6.344374, 49.609562], [6.344057, 49.609394], [6.344099, 49.609367], [6.34403, 49.609283], [6.343996, 49.609203], [6.343981, 49.609116], [6.343977, 49.60907], [6.343985, 49.609], [6.343992, 49.608944], [6.344008, 49.608902], [6.344011, 49.608887], [6.344034, 49.60883], [6.344103, 49.6087], [6.344152, 49.608604], [6.344187, 49.608543], [6.344248, 49.60842], [6.344336, 49.60828], [6.344393, 49.60819], [6.344454, 49.6081], [6.344557, 49.60798], [6.344629, 49.60789], [6.344671, 49.60785], [6.344717, 49.607803], [6.344801, 49.607735], [6.344885, 49.60767], [6.344999, 49.607586], [6.345137, 49.60749], [6.345228, 49.60743], [6.345259, 49.607414], [6.345305, 49.607395], [6.345449, 49.607338], [6.345636, 49.607273], [6.345724, 49.607243], [6.346006, 49.60715], [6.346163, 49.60724], [6.346251, 49.607304], [6.346266, 49.60731], [6.346338, 49.607372], [6.346376, 49.6074], [6.346441, 49.607452], [6.346552, 49.607536], [6.346662, 49.607624], [6.346731, 49.607677], [6.346823, 49.607746], [6.346964, 49.607857], [6.346987, 49.607876], [6.347021, 49.6079], [6.347105, 49.607956], [6.347181, 49.608006], [6.347261, 49.608055], [6.347311, 49.608086], [6.347384, 49.608124], [6.347479, 49.608166], [6.347574, 49.60821], [6.347601, 49.608223], [6.347681, 49.608253], [6.347769, 49.608284], [6.347845, 49.608307], [6.34794, 49.608334], [6.348028, 49.608353], [6.348059, 49.608368], [6.348093, 49.608383], [6.348127, 49.608406], [6.348215, 49.60847], [6.348284, 49.608524], [6.348371, 49.60859], [6.348494, 49.608685], [6.348612, 49.608772], [6.348749, 49.60888], [6.348818, 49.608936], [6.348841, 49.608955], [6.34894, 49.60902], [6.349039, 49.609055], [6.348986, 49.60916], [6.349009, 49.60919], [6.349165, 49.6094], [6.349234, 49.609497], [6.349089, 49.60968], [6.349054, 49.609722], [6.348967, 49.609833], [6.348932, 49.609875], [6.348906, 49.60991], [6.348841, 49.609993], [6.348768, 49.610085], [6.348715, 49.61015], [6.3486, 49.6103], [6.34852, 49.610397], [6.34844, 49.610497], [6.348421, 49.610523], [6.348349, 49.610607], [6.348314, 49.61065], [6.348276, 49.61071], [6.348272, 49.61074], [6.348261, 49.61085], [6.348253, 49.61091], [6.348246, 49.610985], [6.348238, 49.611027], [6.34823, 49.6111], [6.348226, 49.611145], [6.348215, 49.611244], [6.348204, 49.61132], [6.348204, 49.611332], [6.348192, 49.611443], [6.348177, 49.61155], [6.348169, 49.61162], [6.348165, 49.611656], [6.348162, 49.611713], [6.348162, 49.611763], [6.348185, 49.6118], [6.348391, 49.6121], [6.348505, 49.6123], [6.348692, 49.612663], [6.348783, 49.612854], [6.348803, 49.612885], [6.349333, 49.613873], [6.349405, 49.613968], [6.349569, 49.614147], [6.349684, 49.614254], [6.349714, 49.61428], [6.350134, 49.614597], [6.350622, 49.614906], [6.351183, 49.61523], [6.352304, 49.615875], [6.352323, 49.615887], [6.352407, 49.61583], [6.352579, 49.615715], [6.352797, 49.61558], [6.352838, 49.615562], [6.353045, 49.61545], [6.353319, 49.615326], [6.353571, 49.615223], [6.353739, 49.615158], [6.353796, 49.61514], [6.353853, 49.61512], [6.353987, 49.615078], [6.354216, 49.61502], [6.354288, 49.615074], [6.354345, 49.615116], [6.354418, 49.615105], [6.35457, 49.615078], [6.354662, 49.615063], [6.354723, 49.615055], [6.354818, 49.61504], [6.354868, 49.615036], [6.354925, 49.61503], [6.355013, 49.615025], [6.355036, 49.615025], [6.355226, 49.615032], [6.355284, 49.615032], [6.355345, 49.61504], [6.355539, 49.61505], [6.355574, 49.615055], [6.355677, 49.61506], [6.3557, 49.61506], [6.35573, 49.615063], [6.355806, 49.615063], [6.355867, 49.615067], [6.356028, 49.615063], [6.35605, 49.615063], [6.356165, 49.615074], [6.356211, 49.615078], [6.356264, 49.615097], [6.356333, 49.61513], [6.356386, 49.61517], [6.356413, 49.615196], [6.356428, 49.61523], [6.356447, 49.6153], [6.356642, 49.61546], [6.356699, 49.615524], [6.356737, 49.615578], [6.356783, 49.61566], [6.356848, 49.615677], [6.357149, 49.615734], [6.357195, 49.61574], [6.357305, 49.615765], [6.357332, 49.61577], [6.357519, 49.615803], [6.358057, 49.61591], [6.358175, 49.615932], [6.358225, 49.61594], [6.358316, 49.61596], [6.358458, 49.615986], [6.358587, 49.616013], [6.358599, 49.616013], [6.358713, 49.61595], [6.359133, 49.615726], [6.359362, 49.61557], [6.359633, 49.615356], [6.359693, 49.615387], [6.359785, 49.61543], [6.359839, 49.615456], [6.360106, 49.61525], [6.360304, 49.615078], [6.360464, 49.614937], [6.36059, 49.614807], [6.360681, 49.614716], [6.360723, 49.61467], [6.360754, 49.614624], [6.360773, 49.6146], [6.360849, 49.61445], [6.360899, 49.61433], [6.360949, 49.61418], [6.360987, 49.61406], [6.36099, 49.614025], [6.360994, 49.614006], [6.360918, 49.613815], [6.36083, 49.613598], [6.360811, 49.613552], [6.360758, 49.613403], [6.360689, 49.613235], [6.36112, 49.613293], [6.361368, 49.613335], [6.361525, 49.61337], [6.361704, 49.613426], [6.361959, 49.61351], [6.362219, 49.61361], [6.362276, 49.61363], [6.362341, 49.613663], [6.362471, 49.61374], [6.362593, 49.613815], [6.362722, 49.613907], [6.362906, 49.614044], [6.362989, 49.614113], [6.363047, 49.614166], [6.363054, 49.61418], [6.363123, 49.61425], [6.363268, 49.614414], [6.36326, 49.61449], [6.364012, 49.615177], [6.364103, 49.615273], [6.364115, 49.615284], [6.364306, 49.61548], [6.36458, 49.615772], [6.364592, 49.61578], [6.364805, 49.61573], [6.364923, 49.61567], [6.365042, 49.615643], [6.365126, 49.615646], [6.365137, 49.615643], [6.365385, 49.61557], [6.365442, 49.61556], [6.365545, 49.61555], [6.365557, 49.61555], [6.365645, 49.61554], [6.366117, 49.61551], [6.366297, 49.61546], [6.366545, 49.61544], [6.366774, 49.615314], [6.366938, 49.615158], [6.366991, 49.615067], [6.366991, 49.614925], [6.367067, 49.61475], [6.367285, 49.614502], [6.367514, 49.61443], [6.367765, 49.61431], [6.367811, 49.61424], [6.368032, 49.614067], [6.368273, 49.614025], [6.368601, 49.613895], [6.36878, 49.613712], [6.368952, 49.613644], [6.369112, 49.613514], [6.369154, 49.613438], [6.369272, 49.613377], [6.369528, 49.613094], [6.36957, 49.61307], [6.369608, 49.613064], [6.369818, 49.613064], [6.370077, 49.613007], [6.370363, 49.612995], [6.370436, 49.613007], [6.370546, 49.613026], [6.370687, 49.61306], [6.371206, 49.613087], [6.371679, 49.613045], [6.371817, 49.613052], [6.372026, 49.61304], [6.372107, 49.61302], [6.372271, 49.61292], [6.372301, 49.6129], [6.372335, 49.61287], [6.372335, 49.612812], [6.372244, 49.61261], [6.372232, 49.612587], [6.372099, 49.61249], [6.372004, 49.612373], [6.371988, 49.612347], [6.372004, 49.61225], [6.372038, 49.612095], [6.372053, 49.612072], [6.372427, 49.611893], [6.37261, 49.611835], [6.372797, 49.61176], [6.372843, 49.611732], [6.37311, 49.61155], [6.37332, 49.611435], [6.373362, 49.61142], [6.373797, 49.611343], [6.374479, 49.611225], [6.37454, 49.611214], [6.374563, 49.611202], [6.374857, 49.610947], [6.374933, 49.610893], [6.375044, 49.61082], [6.375185, 49.61075], [6.37533, 49.61068], [6.375425, 49.610645], [6.375471, 49.610626], [6.375502, 49.61061], [6.375547, 49.610588], [6.37562, 49.61052], [6.375803, 49.610336], [6.375856, 49.610302], [6.375944, 49.610294], [6.376184, 49.61029], [6.376337, 49.610287], [6.376486, 49.61027], [6.3766, 49.610268], [6.376787, 49.610275], [6.376898, 49.61027], [6.37697, 49.610264], [6.377054, 49.610245], [6.377241, 49.61019], [6.377306, 49.61018], [6.377482, 49.61016], [6.3776, 49.610146], [6.377684, 49.61012], [6.377802, 49.61007], [6.377859, 49.61004], [6.377897, 49.61001], [6.377951, 49.609966], [6.377974, 49.60996], [6.378019, 49.60996], [6.378069, 49.609966], [6.378138, 49.609985], [6.378267, 49.61004], [6.378386, 49.6101], [6.378527, 49.610165], [6.378614, 49.61019], [6.378691, 49.610203], [6.378775, 49.610207], [6.378847, 49.610203], [6.378912, 49.610184], [6.378984, 49.610138], [6.379042, 49.610092], [6.379068, 49.61004], [6.379084, 49.60996], [6.379091, 49.60986], [6.379114, 49.60977], [6.379133, 49.609737], [6.379175, 49.60971], [6.379564, 49.60966], [6.379667, 49.60967], [6.379728, 49.609665], [6.379774, 49.60965], [6.379812, 49.609627], [6.379892, 49.609573], [6.379969, 49.609524], [6.38006, 49.609486], [6.380152, 49.609447], [6.380091, 49.609333], [6.380064, 49.609287], [6.379973, 49.609165], [6.379541, 49.608578], [6.379339, 49.60831], [6.379263, 49.608208], [6.379206, 49.608135], [6.379118, 49.608017], [6.379106, 49.608], [6.37908, 49.60797], [6.379068, 49.607952], [6.379271, 49.6079], [6.379385, 49.60787], [6.37948, 49.607834], [6.379545, 49.607807], [6.379568, 49.607796], [6.379637, 49.607758], [6.379778, 49.60766], [6.37998, 49.607513], [6.380129, 49.60741], [6.380369, 49.607254], [6.380343, 49.607246], [6.380171, 49.607212], [6.380171, 49.60703], [6.380175, 49.60685], [6.378843, 49.60685], [6.378779, 49.606853], [6.378546, 49.606884], [6.378332, 49.60691], [6.378138, 49.606937], [6.378077, 49.606945], [6.377966, 49.606796], [6.377916, 49.606724], [6.377794, 49.606743], [6.377585, 49.606773], [6.377527, 49.606606], [6.377272, 49.606625], [6.376703, 49.605057], [6.376497, 49.604507], [6.376444, 49.604416], [6.376551, 49.603943], [6.376574, 49.60385], [6.376631, 49.603783], [6.376688, 49.603718], [6.376741, 49.60366], [6.376989, 49.603386], [6.377047, 49.603333], [6.37792, 49.603718], [6.378622, 49.603977], [6.379271, 49.60417], [6.379358, 49.60414], [6.379633, 49.604053], [6.379694, 49.60406], [6.379797, 49.60407], [6.379988, 49.60408], [6.38069, 49.604126], [6.381292, 49.604153], [6.381853, 49.604164], [6.38196, 49.604164], [6.381868, 49.604084], [6.381773, 49.603947], [6.381643, 49.60361], [6.38167, 49.603558], [6.381643, 49.603466], [6.381613, 49.60342], [6.381567, 49.60339], [6.381552, 49.603382], [6.381479, 49.60335], [6.381479, 49.60326], [6.381704, 49.603127], [6.381781, 49.60307], [6.381895, 49.602978], [6.382048, 49.60273], [6.382155, 49.602474], [6.382223, 49.602257], [6.382155, 49.60214], [6.3822, 49.6021], [6.382147, 49.601936], [6.38199, 49.60174], [6.381983, 49.601727], [6.382002, 49.601677], [6.381971, 49.601643], [6.381952, 49.601624], [6.381922, 49.601585], [6.381884, 49.601543], [6.381868, 49.60153], [6.381845, 49.601505], [6.381815, 49.60147], [6.3818, 49.60145], [6.381781, 49.601437], [6.38175, 49.601406], [6.381716, 49.601368], [6.381697, 49.60135], [6.381624, 49.601273], [6.381594, 49.601242], [6.381578, 49.601215], [6.381559, 49.601177], [6.381529, 49.601143], [6.38146, 49.60108], [6.381445, 49.601067], [6.381433, 49.60106], [6.381395, 49.601025], [6.381323, 49.60097], [6.381308, 49.60096], [6.381239, 49.600903], [6.381227, 49.60089], [6.381189, 49.60086], [6.381132, 49.600807], [6.381067, 49.600746], [6.380979, 49.600666], [6.380884, 49.60057], [6.380865, 49.600555], [6.380804, 49.600494], [6.380781, 49.600475], [6.380739, 49.600433], [6.38064, 49.60035], [6.380602, 49.60031], [6.38059, 49.6003], [6.380537, 49.600235], [6.380468, 49.600147], [6.380461, 49.600132], [6.380449, 49.600117], [6.380468, 49.60006], [6.380476, 49.60004], [6.380465, 49.600037], [6.380446, 49.60003], [6.380381, 49.6], [6.380331, 49.59998], [6.380312, 49.599968], [6.380297, 49.599964], [6.38027, 49.599953], [6.380217, 49.59993], [6.380205, 49.599922], [6.380114, 49.599884], [6.380083, 49.59987], [6.379969, 49.59982], [6.379839, 49.599766], [6.379435, 49.599564], [6.37932, 49.59949], [6.379412, 49.59949], [6.379541, 49.5994], [6.379633, 49.599392], [6.379618, 49.599384], [6.37953, 49.599335], [6.379518, 49.59933], [6.379118, 49.5991], [6.379049, 49.599056], [6.37882, 49.598904], [6.378725, 49.598843], [6.378691, 49.59882], [6.37866, 49.598797], [6.37858, 49.598743], [6.378565, 49.598732], [6.378481, 49.598675], [6.37845, 49.598656], [6.378405, 49.59862], [6.378378, 49.598602], [6.378302, 49.598545], [6.37826, 49.598515], [6.378214, 49.59848], [6.378168, 49.598446], [6.378115, 49.598408], [6.378073, 49.598377], [6.377962, 49.598293], [6.377939, 49.598278], [6.37789, 49.598244], [6.377794, 49.59817], [6.377688, 49.59809], [6.377672, 49.59807], [6.377642, 49.598026], [6.377611, 49.597984], [6.377569, 49.597923], [6.377554, 49.597904], [6.377493, 49.59782], [6.37747, 49.597782], [6.37744, 49.597736], [6.377424, 49.597706], [6.37742, 49.597694], [6.377401, 49.597656], [6.377386, 49.597622], [6.377371, 49.597595], [6.377367, 49.59758], [6.377325, 49.597496], [6.377298, 49.59745], [6.377283, 49.597427], [6.377207, 49.59734], [6.377195, 49.59733], [6.377146, 49.59727], [6.377123, 49.597248], [6.377039, 49.597157], [6.376997, 49.597115], [6.376955, 49.59707], [6.376917, 49.597027], [6.376902, 49.597008], [6.376867, 49.596973], [6.376806, 49.596905], [6.376787, 49.59688], [6.376768, 49.596863], [6.376711, 49.5968], [6.376684, 49.596775], [6.376658, 49.596745], [6.376596, 49.59668], [6.376585, 49.59667], [6.376532, 49.596634], [6.376417, 49.59656], [6.376402, 49.596554], [6.376142, 49.59635], [6.376089, 49.59631], [6.376024, 49.59626], [6.375979, 49.596226], [6.375895, 49.59616], [6.375864, 49.596134], [6.375837, 49.596115], [6.375788, 49.596077], [6.375711, 49.59602], [6.375742, 49.596], [6.375757, 49.595993], [6.375811, 49.595963], [6.375837, 49.595947], [6.375868, 49.595936], [6.375917, 49.59592], [6.375956, 49.595913], [6.375975, 49.595913], [6.376024, 49.595917], [6.376039, 49.595917], [6.376154, 49.595886], [6.376062, 49.5958], [6.376039, 49.59577], [6.376013, 49.595745], [6.375982, 49.595715], [6.375971, 49.595703], [6.375936, 49.59567], [6.375879, 49.595604], [6.375833, 49.595562], [6.37575, 49.595478], [6.375696, 49.595432], [6.375643, 49.595375], [6.375631, 49.595364], [6.375563, 49.595295], [6.375437, 49.59517], [6.375372, 49.5951], [6.375307, 49.595028], [6.3752, 49.594913], [6.375166, 49.59488], [6.375086, 49.59479], [6.375071, 49.594776], [6.375044, 49.59475], [6.375009, 49.59472], [6.374998, 49.594704], [6.374975, 49.59468], [6.374952, 49.59466], [6.374891, 49.59461], [6.374876, 49.594593], [6.374807, 49.59454], [6.374701, 49.594456], [6.374662, 49.59443], [6.374639, 49.59441], [6.374544, 49.594334], [6.37451, 49.594303], [6.374464, 49.594265], [6.374361, 49.594177], [6.374296, 49.594124], [6.374266, 49.594097], [6.37425, 49.594044], [6.37422, 49.593945], [6.374182, 49.59386], [6.374144, 49.59378], [6.374098, 49.593704], [6.374064, 49.59366], [6.374002, 49.593567], [6.373964, 49.59352], [6.373903, 49.59344], [6.373816, 49.593323], [6.373785, 49.59329], [6.373751, 49.593246], [6.37372, 49.59321], [6.373686, 49.593174], [6.373651, 49.59314], [6.373621, 49.593113], [6.373606, 49.593098], [6.373533, 49.59304], [6.373484, 49.593006], [6.373392, 49.59295], [6.373354, 49.592926], [6.373282, 49.592888], [6.373209, 49.59286], [6.37311, 49.592827], [6.373079, 49.592823], [6.373033, 49.59282], [6.372969, 49.5928], [6.372885, 49.592785], [6.372827, 49.592777], [6.372786, 49.592773], [6.372698, 49.59277], [6.372683, 49.592762], [6.372667, 49.592743], [6.372667, 49.592728], [6.372576, 49.592773], [6.372518, 49.592793], [6.372499, 49.592804], [6.372458, 49.59285], [6.372412, 49.592884], [6.372309, 49.592773], [6.372232, 49.5927], [6.372156, 49.59266], [6.372118, 49.592663], [6.372122, 49.592598], [6.372133, 49.592457], [6.372343, 49.592403], [6.372446, 49.592236], [6.372492, 49.592148], [6.372553, 49.592022], [6.37258, 49.59196], [6.372606, 49.59191], [6.372618, 49.591873], [6.372625, 49.59184], [6.372614, 49.591755], [6.37261, 49.591732], [6.372633, 49.591724], [6.37258, 49.59157], [6.372435, 49.59128], [6.37237, 49.591167], [6.372198, 49.59089], [6.372156, 49.590828], [6.372114, 49.59077], [6.372068, 49.59071], [6.372026, 49.59066], [6.371992, 49.590622], [6.371962, 49.590584], [6.371916, 49.59054], [6.371893, 49.590527], [6.371851, 49.590424], [6.372312, 49.590286], [6.372377, 49.590366], [6.372393, 49.59039], [6.372454, 49.59037], [6.372469, 49.59039], [6.37261, 49.590363], [6.372663, 49.59034], [6.37295, 49.590275], [6.373049, 49.59025], [6.373583, 49.59012], [6.373579, 49.5901], [6.373629, 49.590088], [6.37377, 49.59006], [6.373816, 49.590054], [6.373888, 49.59004], [6.374432, 49.589816], [6.374401, 49.589484], [6.374464, 49.588515], [6.374714, 49.58752], [6.375106, 49.586689], [6.375599, 49.585976], [6.376765, 49.584839], [6.377543, 49.584243], [6.37834, 49.583755], [6.380691, 49.582439], [6.381448, 49.581939], [6.38194, 49.581516], [6.382437, 49.581001], [6.382761, 49.580512], [6.382885, 49.580089], [6.38295, 49.579585], [6.382917, 49.579112], [6.382821, 49.578716], [6.382773, 49.578541], [6.382451, 49.577835], [6.382094, 49.577213], [6.381684, 49.576828], [6.381101, 49.576526], [6.380429, 49.576404], [6.378923, 49.576343], [6.377367, 49.576443], [6.376105, 49.576717], [6.375193, 49.577023], [6.374493, 49.577286], [6.37364, 49.577705], [6.372694, 49.578246], [6.371958, 49.578601], [6.371306, 49.578876], [6.370897, 49.578956], [6.370286, 49.57898], [6.369739, 49.578952], [6.368455, 49.57875], [6.365935, 49.578095], [6.364389, 49.577599], [6.362603, 49.576935], [6.36145, 49.576404], [6.360639, 49.575924], [6.359807, 49.575351], [6.358998, 49.574688], [6.358065, 49.573837], [6.357722, 49.573402], [6.357519, 49.573001], [6.357381, 49.572486], [6.357382, 49.572143], [6.357507, 49.571769], [6.357754, 49.571414], [6.358451, 49.570781], [6.359187, 49.570266], [6.361477, 49.569027], [6.365785, 49.566906], [6.366032, 49.56678], [6.375493, 49.561786], [6.376627, 49.561183], [6.37841, 49.560177], [6.380394, 49.559013], [6.381458, 49.55825], [6.382216, 49.557483], [6.382443, 49.557087], [6.382526, 49.556808], [6.382467, 49.556503], [6.381968, 49.554817], [6.381423, 49.553252], [6.380878, 49.552284], [6.379993, 49.551064], [6.378412, 49.548999], [6.377842, 49.5485], [6.377598, 49.548313], [6.37646, 49.547729], [6.37585, 49.547386], [6.373956, 49.546153], [6.370184, 49.543314], [6.369865, 49.54304], [6.368488, 49.541321], [6.368103, 49.540897], [6.367614, 49.540458], [6.367003, 49.539993], [6.365837, 49.539344], [6.36324, 49.538001], [6.360881, 49.536533], [6.360654, 49.536365], [6.359718, 49.535358], [6.358781, 49.534222], [6.357744, 49.532894], [6.357153, 49.532062], [6.356828, 49.531662], [6.356624, 49.531254], [6.356543, 49.530884], [6.356483, 49.530182], [6.356524, 49.529769], [6.356666, 49.529174], [6.357562, 49.527347], [6.358418, 49.525718], [6.359173, 49.523441], [6.360924, 49.519489], [6.365643, 49.509925], [6.366462, 49.508281], [6.36683, 49.507419], [6.367117, 49.505799], [6.367635, 49.504351], [6.367922, 49.503282], [6.368029, 49.50164], [6.367555, 49.500157], [6.367198, 49.498404], [6.367048, 49.496475], [6.367052, 49.495746], [6.36739, 49.493671], [6.369288, 49.488998], [6.369158, 49.487022], [6.368617, 49.484787], [6.368064, 49.482276], [6.367908, 49.48099], [6.367715, 49.479276], [6.367914, 49.475884], [6.368424, 49.47159], [6.367727, 49.469418], [6.366279, 49.467784], [6.366214, 49.467398], [6.366216, 49.466549], [6.36709, 49.465764], [6.367439, 49.465362], [6.367563, 49.46506], [6.367697, 49.464252], [6.367845, 49.46352], [6.368109, 49.46249], [6.368311, 49.461617], [6.368589, 49.460854], [6.368891, 49.459872], [6.368078, 49.459805], [6.367983, 49.459797], [6.367956, 49.459795], [6.367605, 49.45977], [6.367201, 49.459766], [6.366739, 49.459682], [6.366507, 49.459663], [6.36622, 49.459644], [6.365126, 49.45958], [6.36445, 49.459503], [6.364351, 49.459576], [6.363642, 49.459923], [6.363455, 49.460075], [6.362654, 49.460354], [6.361788, 49.46078], [6.361364, 49.46101], [6.360548, 49.461422], [6.360273, 49.46164], [6.359713, 49.46206], [6.359304, 49.462345], [6.358439, 49.462925], [6.357069, 49.463875], [6.356039, 49.46462], [6.355295, 49.465256], [6.355246, 49.465298], [6.354471, 49.465935], [6.353689, 49.466564], [6.352854, 49.467316], [6.351099, 49.46704], [6.351042, 49.4671], [6.349897, 49.46691], [6.348745, 49.466167], [6.347254, 49.465878], [6.345865, 49.466534], [6.344328, 49.467655], [6.342676, 49.46908], [6.34265, 49.469105], [6.340101, 49.468227], [6.340075, 49.468235], [6.339232, 49.468502], [6.339052, 49.46855], [6.338846, 49.4686], [6.338751, 49.46862], [6.337961, 49.46845], [6.335401, 49.46749], [6.334024, 49.466938], [6.333681, 49.46745], [6.333113, 49.468742], [6.332804, 49.469593], [6.332789, 49.46963], [6.331949, 49.469788], [6.33103, 49.469944], [6.330442, 49.469994], [6.329897, 49.470062], [6.329786, 49.470142], [6.329615, 49.470367], [6.329569, 49.470573], [6.329496, 49.470875], [6.329428, 49.471058], [6.329258, 49.471395], [6.329119, 49.471672], [6.328953, 49.471916], [6.328806, 49.472134], [6.328671, 49.472312], [6.328543, 49.47248], [6.328302, 49.472733], [6.328257, 49.472713], [6.327444, 49.472366], [6.325335, 49.473812], [6.325106, 49.474003], [6.324804, 49.474304], [6.324499, 49.474678], [6.324701, 49.474762], [6.323271, 49.475647], [6.321638, 49.476673], [6.321573, 49.476675], [6.321508, 49.476677], [6.320959, 49.477184], [6.320692, 49.477386], [6.32065, 49.47742], [6.320585, 49.477417], [6.320288, 49.477455], [6.3202, 49.477455], [6.320116, 49.477463], [6.31996, 49.47748], [6.319887, 49.477493], [6.319826, 49.477493], [6.319559, 49.477585], [6.319479, 49.47766], [6.319403, 49.477676], [6.319197, 49.47774], [6.31912, 49.47779], [6.319048, 49.477825], [6.318762, 49.47794], [6.318685, 49.47802], [6.318651, 49.478024], [6.318609, 49.478012], [6.318525, 49.47791], [6.318479, 49.477848], [6.318411, 49.47782], [6.318247, 49.477787], [6.318197, 49.47777], [6.318071, 49.477734], [6.318041, 49.477745], [6.317995, 49.4778], [6.317953, 49.477844], [6.317915, 49.477913], [6.317865, 49.47796], [6.3178, 49.478024], [6.317766, 49.478046], [6.317713, 49.478054], [6.317686, 49.478046], [6.317667, 49.47803], [6.317625, 49.477993], [6.317564, 49.477966], [6.317473, 49.477947], [6.317347, 49.477943], [6.317278, 49.477947], [6.317083, 49.477943], [6.316999, 49.477936], [6.316843, 49.477898], [6.316381, 49.47784], [6.316313, 49.47783], [6.316267, 49.4778], [6.31624, 49.477795], [6.316229, 49.477783], [6.316248, 49.477726], [6.316271, 49.477688], [6.316298, 49.47763], [6.316286, 49.477592], [6.316256, 49.477524], [6.316179, 49.477386], [6.316153, 49.477375], [6.316095, 49.477364], [6.316019, 49.477325], [6.315897, 49.47731], [6.315718, 49.477287], [6.315596, 49.47724], [6.315527, 49.477234], [6.315424, 49.477207], [6.31529, 49.477203], [6.315134, 49.477177], [6.315081, 49.47716], [6.314966, 49.47714], [6.314882, 49.47713], [6.314604, 49.47707], [6.3146, 49.477123], [6.314589, 49.477375], [6.31455, 49.477474], [6.31452, 49.47757], [6.314493, 49.477623], [6.314466, 49.4777], [6.314432, 49.477745], [6.314421, 49.47781], [6.314428, 49.477848], [6.314421, 49.477886], [6.314413, 49.47791], [6.31436, 49.47796], [6.31444, 49.47797], [6.314432, 49.47803], [6.314424, 49.478045], [6.314249, 49.47836], [6.313719, 49.479168], [6.31349, 49.479572], [6.312988, 49.480362], [6.312965, 49.480396], [6.312964, 49.480398], [6.312732, 49.48033], [6.311123, 49.479852], [6.309563, 49.479387], [6.308538, 49.479101], [6.308023, 49.478926], [6.307955, 49.47887], [6.307917, 49.47878], [6.307775, 49.478607], [6.307615, 49.47848], [6.306883, 49.477962], [6.306143, 49.477432], [6.305636, 49.477173], [6.305441, 49.47714], [6.305357, 49.47733], [6.305246, 49.47752], [6.305143, 49.47767], [6.304804, 49.477966], [6.304293, 49.47832], [6.303999, 49.477936], [6.303942, 49.477882], [6.303877, 49.477875], [6.303865, 49.47791], [6.303782, 49.478004], [6.303701, 49.47809], [6.303579, 49.478165], [6.303423, 49.478306], [6.303331, 49.478363], [6.303202, 49.478413], [6.303011, 49.478462], [6.302675, 49.478596], [6.302286, 49.478714], [6.302111, 49.47886], [6.301931, 49.47896], [6.3016, 49.47908], [6.301546, 49.47912], [6.301416, 49.479153], [6.301287, 49.479145], [6.301004, 49.47918], [6.300722, 49.479233], [6.300654, 49.479237], [6.300566, 49.479275], [6.300493, 49.479336], [6.300398, 49.479427], [6.300242, 49.479507], [6.300177, 49.47953], [6.300108, 49.47954], [6.299963, 49.479534], [6.299784, 49.47956], [6.299662, 49.47955], [6.299582, 49.47956], [6.29944, 49.479595], [6.299334, 49.479626], [6.299257, 49.479652], [6.299204, 49.479683], [6.299192, 49.479725], [6.299162, 49.47981], [6.299101, 49.47989], [6.29907, 49.480026], [6.299108, 49.480167], [6.299112, 49.48022], [6.299063, 49.480274], [6.298975, 49.480316], [6.298868, 49.48034], [6.298742, 49.480354], [6.298632, 49.480347], [6.298502, 49.480335], [6.29838, 49.480347], [6.298143, 49.480354], [6.297857, 49.480328], [6.297678, 49.48035], [6.297548, 49.480335], [6.297461, 49.48031], [6.2974, 49.48028], [6.297319, 49.480213], [6.297163, 49.480125], [6.297091, 49.480103], [6.296957, 49.48008], [6.296812, 49.480045], [6.296778, 49.480045], [6.296568, 49.4801], [6.296404, 49.480125], [6.296225, 49.480194], [6.296202, 49.480232], [6.296019, 49.48049], [6.295973, 49.48054], [6.295713, 49.480732], [6.295591, 49.48085], [6.295523, 49.4809], [6.295328, 49.481106], [6.295126, 49.481358], [6.295107, 49.48139], [6.295271, 49.481792], [6.295298, 49.481907], [6.295294, 49.48197], [6.29534, 49.482014], [6.295439, 49.482162], [6.295454, 49.482265], [6.295587, 49.48243], [6.295683, 49.48256], [6.295679, 49.482685], [6.295706, 49.482758], [6.295996, 49.482845], [6.296106, 49.482933], [6.29648, 49.483173], [6.296579, 49.4834], [6.296816, 49.48375], [6.296866, 49.48386], [6.296953, 49.484005], [6.297014, 49.48412], [6.297072, 49.484318], [6.29711, 49.4845], [6.297178, 49.484615], [6.297346, 49.48482], [6.297495, 49.484978], [6.29759, 49.48508], [6.297686, 49.485252], [6.297766, 49.485367], [6.297846, 49.485474], [6.297873, 49.485546], [6.297953, 49.48563], [6.298147, 49.48588], [6.298201, 49.48597], [6.298258, 49.48609], [6.298304, 49.486332], [6.298319, 49.48648], [6.29833, 49.48655], [6.298387, 49.48666], [6.298628, 49.48684], [6.298685, 49.486897], [6.298765, 49.48701], [6.298864, 49.48722], [6.298876, 49.487293], [6.298925, 49.487423], [6.29904, 49.487537], [6.299067, 49.48761], [6.299204, 49.48766], [6.299326, 49.487682], [6.299482, 49.487797], [6.299482, 49.487926], [6.299467, 49.48801], [6.29933, 49.48816], [6.299253, 49.48823], [6.299227, 49.48825], [6.299208, 49.488266], [6.299154, 49.488308], [6.299128, 49.488426], [6.299051, 49.488503], [6.298914, 49.488583], [6.2988, 49.488632], [6.298658, 49.48865], [6.298445, 49.488655], [6.298262, 49.488605], [6.297995, 49.488495], [6.297441, 49.488205], [6.2974, 49.48817], [6.297106, 49.487854], [6.296312, 49.48741], [6.296049, 49.487286], [6.29579, 49.487232], [6.295347, 49.487125], [6.294859, 49.48711], [6.294702, 49.4871], [6.294485, 49.487057], [6.294134, 49.487133], [6.293947, 49.487514], [6.293749, 49.48772], [6.293711, 49.487747], [6.293611, 49.48777], [6.293455, 49.487732], [6.293188, 49.487583], [6.292719, 49.48752], [6.292269, 49.48749], [6.292116, 49.48744], [6.29207, 49.487408], [6.291952, 49.4873], [6.291727, 49.486973], [6.291658, 49.486843], [6.291677, 49.486546], [6.291666, 49.486183], [6.291761, 49.48583], [6.291739, 49.48567], [6.291677, 49.48553], [6.291567, 49.485336], [6.291521, 49.485226], [6.29112, 49.484955], [6.291124, 49.484806], [6.291212, 49.48469], [6.291212, 49.48468], [6.29117, 49.484653], [6.290941, 49.48461], [6.29075, 49.484592], [6.290232, 49.484615], [6.289926, 49.48466], [6.289328, 49.48478], [6.288904, 49.484814], [6.288843, 49.48482], [6.288805, 49.484844], [6.288752, 49.484886], [6.28837, 49.48529], [6.288298, 49.485435], [6.288195, 49.48561], [6.288088, 49.48571], [6.287714, 49.48594], [6.287615, 49.486], [6.287542, 49.486073], [6.287542, 49.486153], [6.28779, 49.48654], [6.287882, 49.48661], [6.28795, 49.48665], [6.288111, 49.4867], [6.288504, 49.486725], [6.288672, 49.48671], [6.288797, 49.486664], [6.288877, 49.48656], [6.289003, 49.486347], [6.289061, 49.48629], [6.289148, 49.486263], [6.289255, 49.486263], [6.289408, 49.486298], [6.289473, 49.486324], [6.289556, 49.486423], [6.289568, 49.486504], [6.289572, 49.486652], [6.289556, 49.48681], [6.28953, 49.48694], [6.289511, 49.487], [6.28948, 49.48707], [6.289392, 49.487194], [6.289007, 49.48737], [6.288843, 49.487503], [6.288721, 49.48759], [6.288599, 49.48766], [6.288481, 49.4877], [6.288347, 49.48774], [6.288153, 49.487774], [6.288008, 49.48779], [6.287672, 49.4878], [6.287458, 49.487816], [6.287283, 49.487843], [6.287073, 49.48788], [6.286802, 49.48796], [6.286421, 49.488052], [6.286223, 49.488144], [6.286104, 49.488308], [6.286009, 49.48843], [6.285894, 49.48866], [6.285734, 49.488934], [6.285665, 49.489033], [6.285585, 49.48921], [6.285513, 49.489365], [6.285406, 49.48954], [6.285273, 49.489727], [6.284849, 49.490086], [6.284754, 49.490204], [6.284639, 49.49057], [6.284559, 49.49081], [6.284506, 49.491035], [6.284388, 49.49143], [6.284388, 49.49147], [6.284452, 49.491573], [6.284609, 49.491703], [6.284769, 49.491802], [6.285154, 49.492], [6.285349, 49.49209], [6.28565, 49.492176], [6.285776, 49.49217], [6.285852, 49.492157], [6.28697, 49.49195], [6.287207, 49.491898], [6.287992, 49.491608], [6.288172, 49.49148], [6.288218, 49.491447], [6.288279, 49.491432], [6.288343, 49.49144], [6.288557, 49.49152], [6.288843, 49.491665], [6.2889, 49.49174], [6.288942, 49.491833], [6.288954, 49.491917], [6.288946, 49.49204], [6.288897, 49.49223], [6.288847, 49.492344], [6.288801, 49.49252], [6.288809, 49.492596], [6.288908, 49.492775], [6.289, 49.492855], [6.289091, 49.4929], [6.289156, 49.492928], [6.289354, 49.49298], [6.289526, 49.493008], [6.289618, 49.493042], [6.289671, 49.4931], [6.289705, 49.493225], [6.289686, 49.493286], [6.289667, 49.49332], [6.289648, 49.493393], [6.289618, 49.493713], [6.28956, 49.49383], [6.289446, 49.49394], [6.288919, 49.494324], [6.288633, 49.494434], [6.288534, 49.494457], [6.288416, 49.494473], [6.288252, 49.49446], [6.287748, 49.49438], [6.28747, 49.494297], [6.287256, 49.49417], [6.287062, 49.494022], [6.286932, 49.493916], [6.286413, 49.493626], [6.285982, 49.493397], [6.285902, 49.493366], [6.285391, 49.493214], [6.285158, 49.493137], [6.284834, 49.493095], [6.284639, 49.49308], [6.284273, 49.49303], [6.284105, 49.493], [6.283854, 49.49299], [6.283724, 49.493004], [6.283407, 49.493114], [6.283213, 49.493156], [6.283003, 49.493164], [6.282736, 49.493103], [6.282541, 49.4931], [6.282393, 49.493122], [6.282076, 49.493156], [6.281897, 49.493195], [6.281797, 49.493275], [6.281668, 49.493404], [6.281462, 49.493755], [6.281408, 49.493874], [6.281279, 49.493942], [6.280846, 49.49407], [6.280779, 49.49409], [6.280409, 49.494232], [6.280226, 49.494293], [6.279863, 49.494427], [6.279749, 49.49448], [6.279665, 49.49453], [6.279581, 49.494595], [6.279501, 49.49469], [6.279455, 49.494755], [6.279455, 49.49483], [6.279497, 49.49492], [6.279539, 49.495007], [6.279528, 49.49505], [6.279501, 49.495182], [6.279409, 49.49529], [6.279398, 49.495354], [6.279379, 49.49539], [6.279345, 49.49543], [6.279291, 49.495483], [6.279211, 49.49556], [6.279177, 49.495598], [6.279123, 49.495686], [6.279108, 49.49572], [6.279081, 49.49577], [6.279055, 49.49585], [6.279058, 49.4959], [6.279055, 49.495964], [6.27902, 49.49604], [6.279013, 49.496098], [6.278971, 49.496178], [6.278902, 49.49624], [6.278883, 49.496304], [6.278891, 49.496403], [6.278925, 49.49646], [6.278986, 49.49654], [6.279028, 49.496582], [6.279074, 49.496613], [6.279215, 49.49672], [6.279356, 49.496834], [6.279406, 49.496887], [6.279459, 49.49699], [6.279459, 49.49705], [6.279432, 49.49708], [6.279364, 49.49712], [6.279318, 49.49713], [6.27923, 49.497166], [6.279177, 49.497196], [6.279066, 49.497307], [6.279066, 49.49734], [6.279089, 49.497433], [6.279207, 49.49754], [6.279329, 49.49761], [6.279402, 49.49767], [6.279459, 49.497864], [6.279375, 49.497955], [6.279364, 49.498043], [6.279314, 49.49815], [6.279341, 49.498356], [6.279402, 49.498592], [6.279432, 49.49865], [6.27952, 49.498753], [6.279635, 49.49887], [6.279745, 49.49896], [6.279962, 49.4991], [6.280054, 49.499214], [6.280088, 49.499287], [6.280077, 49.499504], [6.280191, 49.49999], [6.280455, 49.500393], [6.280672, 49.500538], [6.280886, 49.50061], [6.280989, 49.50061], [6.281172, 49.500587], [6.281263, 49.500587], [6.281389, 49.500637], [6.281439, 49.50068], [6.281523, 49.50081], [6.28153, 49.50085], [6.28153, 49.500904], [6.281496, 49.500954], [6.281443, 49.501003], [6.281328, 49.501045], [6.281111, 49.501072], [6.280973, 49.501095], [6.280775, 49.50111], [6.280435, 49.501242], [6.280205, 49.501294], [6.279979, 49.501325], [6.279893, 49.501382], [6.279834, 49.501437], [6.279761, 49.501624], [6.279698, 49.501728], [6.279692, 49.501813], [6.279734, 49.50189], [6.27983, 49.501943], [6.279921, 49.501983], [6.280278, 49.5021], [6.280407, 49.502192], [6.280418, 49.502208], [6.280422, 49.502244], [6.280419, 49.502273], [6.280369, 49.502333], [6.280282, 49.502402], [6.280084, 49.502509], [6.279962, 49.502556], [6.279752, 49.502607], [6.279696, 49.502637], [6.279643, 49.502682], [6.279664, 49.502747], [6.279721, 49.502809], [6.279931, 49.50299], [6.279999, 49.503086], [6.279999, 49.503119], [6.279962, 49.503186], [6.279857, 49.503283], [6.279658, 49.503359], [6.279399, 49.503393], [6.27925, 49.503399], [6.279124, 49.503393], [6.279, 49.503376], [6.278788, 49.503376], [6.278499, 49.503401], [6.278308, 49.503427], [6.278188, 49.503459], [6.278056, 49.503475], [6.27798, 49.503479], [6.27762, 49.503526], [6.277426, 49.503571], [6.277313, 49.503584], [6.277273, 49.503584], [6.277226, 49.503578], [6.277143, 49.503543], [6.277024, 49.503463], [6.276934, 49.503387], [6.276857, 49.503307], [6.276819, 49.503295], [6.276775, 49.503292], [6.2767, 49.503308], [6.276289, 49.503492], [6.275932, 49.503573], [6.275569, 49.503655], [6.275424, 49.503677], [6.275337, 49.503682], [6.274853, 49.50374], [6.274794, 49.503749], [6.274642, 49.503791], [6.274572, 49.503835], [6.274512, 49.503881], [6.274493, 49.503903], [6.274467, 49.503944], [6.274406, 49.504177], [6.274384, 49.504243], [6.274342, 49.504299], [6.274265, 49.504386], [6.274151, 49.504435], [6.274064, 49.504457], [6.273943, 49.504465], [6.273662, 49.504457], [6.273357, 49.50447], [6.272985, 49.504504], [6.272817, 49.504523], [6.272407, 49.504579], [6.272235, 49.504623], [6.271992, 49.504702], [6.271921, 49.504719], [6.271857, 49.504726], [6.271787, 49.504725], [6.271717, 49.504718], [6.271568, 49.504692], [6.271365, 49.50463], [6.271201, 49.50456], [6.271066, 49.504483], [6.270954, 49.504419], [6.270643, 49.50426], [6.270529, 49.504166], [6.270498, 49.504112], [6.270369, 49.504032], [6.270151, 49.50403], [6.269938, 49.504055], [6.269808, 49.50408], [6.269472, 49.504147], [6.269186, 49.50423], [6.268938, 49.504303], [6.268789, 49.50432], [6.268511, 49.504314], [6.26819, 49.50426], [6.267736, 49.504192], [6.267519, 49.504143], [6.267168, 49.50408], [6.266668, 49.504025], [6.266577, 49.50403], [6.265985, 49.50404], [6.265673, 49.504036], [6.26507, 49.50401], [6.264719, 49.503983], [6.264261, 49.503933], [6.263758, 49.50392], [6.263617, 49.503918], [6.26343, 49.50393], [6.263296, 49.503952], [6.263056, 49.504097], [6.263052, 49.50416], [6.262785, 49.504494], [6.262526, 49.504776], [6.262396, 49.504932], [6.262354, 49.505047], [6.262308, 49.505333], [6.26232, 49.50549], [6.262369, 49.50566], [6.262449, 49.5058], [6.262747, 49.506138], [6.262835, 49.506268], [6.26285, 49.50638], [6.262819, 49.506485], [6.262713, 49.506622], [6.262632, 49.506695], [6.262503, 49.50679], [6.262445, 49.506866], [6.262301, 49.50698], [6.262137, 49.507076], [6.261946, 49.50714], [6.261541, 49.50721], [6.261274, 49.507236], [6.26111, 49.507233], [6.260889, 49.50719], [6.260672, 49.50714], [6.26034, 49.50705], [6.260145, 49.507015], [6.260019, 49.507008], [6.259939, 49.507015], [6.259661, 49.50706], [6.259092, 49.507126], [6.258883, 49.507187], [6.258558, 49.50735], [6.258272, 49.507477], [6.258051, 49.507545], [6.257971, 49.507595], [6.257868, 49.507706], [6.257723, 49.507927], [6.257662, 49.508022], [6.25757, 49.508167], [6.257422, 49.508423], [6.257364, 49.508625], [6.257319, 49.509064], [6.257219, 49.509434], [6.257135, 49.509624], [6.257063, 49.50973], [6.257006, 49.509796], [6.256926, 49.50982], [6.256586, 49.509903], [6.256281, 49.509968], [6.256006, 49.50996], [6.255529, 49.50985], [6.255331, 49.509785], [6.25506, 49.50976], [6.254694, 49.509693], [6.254389, 49.509674], [6.253942, 49.50959], [6.253488, 49.50942], [6.253099, 49.509262], [6.252684, 49.50911], [6.252459, 49.509007], [6.252371, 49.509], [6.252272, 49.508965], [6.252138, 49.508953], [6.251959, 49.508923], [6.25149, 49.50889], [6.251291, 49.508877], [6.250464, 49.50884], [6.250238, 49.50881], [6.250017, 49.508762], [6.24935, 49.508583], [6.249186, 49.508556], [6.249083, 49.50855], [6.248777, 49.508545], [6.248629, 49.508522], [6.248445, 49.508507], [6.248415, 49.50851], [6.248342, 49.508526], [6.248266, 49.508564], [6.248114, 49.508614], [6.247732, 49.508728], [6.247522, 49.508766], [6.246916, 49.508892], [6.246565, 49.509037], [6.246405, 49.509197], [6.246393, 49.50937], [6.246344, 49.50953], [6.246267, 49.509644], [6.24621, 49.509773], [6.246038, 49.51005], [6.245996, 49.510094], [6.245913, 49.510277], [6.245882, 49.51032], [6.24581, 49.510372], [6.245779, 49.510433], [6.245699, 49.51055], [6.245493, 49.510735], [6.245405, 49.510963], [6.245325, 49.511215], [6.24523, 49.511395], [6.245134, 49.51151], [6.244989, 49.511593], [6.244871, 49.511627], [6.244337, 49.511707], [6.244165, 49.51176], [6.243887, 49.511833], [6.243627, 49.511845], [6.243517, 49.511875], [6.242952, 49.51194], [6.242712, 49.51191], [6.242258, 49.511898], [6.242067, 49.511868], [6.241819, 49.511875], [6.241709, 49.511925], [6.241644, 49.511963], [6.241571, 49.512054], [6.241552, 49.51215], [6.241571, 49.512257], [6.241568, 49.51235], [6.241507, 49.512463], [6.241369, 49.512577], [6.241335, 49.51268], [6.241377, 49.512882], [6.241499, 49.51311], [6.241518, 49.513157], [6.241625, 49.513176], [6.24164, 49.513187], [6.241697, 49.51326], [6.241728, 49.51335], [6.241709, 49.513435], [6.241777, 49.51369], [6.241743, 49.51376], [6.241751, 49.513832], [6.241747, 49.5139], [6.241766, 49.514084], [6.241716, 49.51423], [6.241663, 49.514305], [6.241533, 49.51441], [6.24151, 49.514446], [6.241388, 49.514515], [6.241327, 49.514538], [6.241236, 49.5146], [6.241209, 49.514633], [6.241117, 49.514668], [6.240992, 49.514698], [6.240896, 49.51478], [6.240782, 49.514862], [6.240725, 49.514904], [6.240651, 49.514937], [6.240583, 49.515015], [6.240648, 49.515022], [6.240534, 49.51507], [6.24048, 49.515095], [6.24021, 49.51532], [6.240183, 49.51534], [6.240122, 49.51538], [6.24, 49.515587], [6.239824, 49.515717], [6.239683, 49.5158], [6.239004, 49.516285], [6.238588, 49.516567], [6.238485, 49.516724], [6.23842, 49.516808], [6.238333, 49.51686], [6.238085, 49.516945], [6.237802, 49.517006], [6.237555, 49.51702], [6.237253, 49.51701], [6.237063, 49.516983], [6.236815, 49.516922], [6.23612, 49.516796], [6.235472, 49.516663], [6.235132, 49.516613], [6.235121, 49.51664], [6.234987, 49.51693], [6.234865, 49.517067], [6.234841, 49.517098], [6.234739, 49.517326], [6.234659, 49.517487], [6.234755, 49.517506], [6.2348, 49.517517], [6.234976, 49.517555], [6.235102, 49.5176], [6.235334, 49.51769], [6.23543, 49.51775], [6.235487, 49.51781], [6.235533, 49.517883], [6.235567, 49.51796], [6.235624, 49.51811], [6.235689, 49.518276], [6.235704, 49.518303], [6.23572, 49.518337], [6.2358, 49.518448], [6.235857, 49.51852], [6.23591, 49.51859], [6.236132, 49.518867], [6.236235, 49.51902], [6.236265, 49.51907], [6.236303, 49.51914], [6.236349, 49.519264], [6.23638, 49.519398], [6.236402, 49.519527], [6.236452, 49.519714], [6.236483, 49.51979], [6.236528, 49.519867], [6.236578, 49.51994], [6.236673, 49.520046], [6.236761, 49.520138], [6.236994, 49.520405], [6.23707, 49.520515], [6.237108, 49.520596], [6.237162, 49.520714], [6.23733, 49.52114], [6.2372, 49.521183], [6.237299, 49.521286], [6.237391, 49.521385], [6.23749, 49.52147], [6.237608, 49.521576], [6.237871, 49.521793], [6.237993, 49.521896], [6.23802, 49.52193], [6.238031, 49.521965], [6.238154, 49.522293], [6.238253, 49.5225], [6.238298, 49.5226], [6.238375, 49.522717], [6.238508, 49.522907], [6.238707, 49.523163], [6.238874, 49.52341], [6.238771, 49.523438], [6.238661, 49.523464], [6.238936, 49.52396], [6.239084, 49.524246], [6.239107, 49.52428], [6.239141, 49.524326], [6.239252, 49.52444], [6.239344, 49.52453], [6.239355, 49.524536], [6.239492, 49.52467], [6.23918, 49.52489], [6.23871, 49.525223], [6.23868, 49.525246], [6.238405, 49.52546], [6.238348, 49.52551], [6.238203, 49.52564], [6.237841, 49.52598], [6.237818, 49.525997], [6.237555, 49.525887], [6.237528, 49.52591], [6.237116, 49.52624], [6.236753, 49.526505], [6.236402, 49.526737], [6.236048, 49.526962], [6.236223, 49.527077], [6.236269, 49.52711], [6.236414, 49.52721], [6.236219, 49.52735], [6.236204, 49.52736], [6.236135, 49.52741], [6.236063, 49.527454], [6.235899, 49.527573], [6.235315, 49.527992], [6.235434, 49.52806], [6.235666, 49.528187], [6.235796, 49.52826], [6.235983, 49.52836], [6.236422, 49.528587], [6.236513, 49.528637], [6.236681, 49.52873], [6.236799, 49.528793], [6.236948, 49.528877], [6.237287, 49.529083], [6.237478, 49.529198], [6.237669, 49.529312], [6.237738, 49.529346], [6.237822, 49.529392], [6.23786, 49.52941], [6.237905, 49.529438], [6.238016, 49.529495], [6.238062, 49.529522], [6.238173, 49.52958], [6.238253, 49.52962], [6.23842, 49.52971], [6.238501, 49.52975], [6.238577, 49.529793], [6.238592, 49.5298], [6.238668, 49.52984], [6.23871, 49.52986], [6.238893, 49.52996], [6.23897, 49.53], [6.239023, 49.53003], [6.239153, 49.530094], [6.239195, 49.530113], [6.239256, 49.530144], [6.23934, 49.53018], [6.239473, 49.530247], [6.239573, 49.530296], [6.23971, 49.530365], [6.239546, 49.530525], [6.239531, 49.530537], [6.239405, 49.53066], [6.239153, 49.5309], [6.239023, 49.531025], [6.238981, 49.531067], [6.238932, 49.531113], [6.238718, 49.53132], [6.238329, 49.531693], [6.238081, 49.531933], [6.237947, 49.532063], [6.23773, 49.532253], [6.237417, 49.532528], [6.237394, 49.532547], [6.237501, 49.532623], [6.237478, 49.532642], [6.237379, 49.532722], [6.237276, 49.53281], [6.237074, 49.53298], [6.236807, 49.533207], [6.236776, 49.53323], [6.236753, 49.533253], [6.236631, 49.533295], [6.236525, 49.533333], [6.23636, 49.533394], [6.236292, 49.533417], [6.236155, 49.533466], [6.236036, 49.533512], [6.235804, 49.533592], [6.235437, 49.533184], [6.234865, 49.53337], [6.23461, 49.533447], [6.234262, 49.53354], [6.234064, 49.53358], [6.233877, 49.533623], [6.233801, 49.533638], [6.233728, 49.533653], [6.233694, 49.533684], [6.233644, 49.533726], [6.233427, 49.533916], [6.232824, 49.534473], [6.232531, 49.534767], [6.23239, 49.534924], [6.232248, 49.5351], [6.232103, 49.53531], [6.231878, 49.5356], [6.231928, 49.53561], [6.231867, 49.535698], [6.231821, 49.535786], [6.231798, 49.53582], [6.231703, 49.535995], [6.231611, 49.536148], [6.231516, 49.536316], [6.231451, 49.536434], [6.23139, 49.536552], [6.231356, 49.536617], [6.231386, 49.536625], [6.231108, 49.537163], [6.230848, 49.53767], [6.230719, 49.537655], [6.230623, 49.537647], [6.230372, 49.537617], [6.229944, 49.53758], [6.229708, 49.537567], [6.229368, 49.53756], [6.228804, 49.53756], [6.228823, 49.537643], [6.228865, 49.537766], [6.228914, 49.537888], [6.228929, 49.537933], [6.229021, 49.53813], [6.229105, 49.538307], [6.229166, 49.538433], [6.228979, 49.538483], [6.228781, 49.53854], [6.228838, 49.5388], [6.228918, 49.539177], [6.228968, 49.53932], [6.229013, 49.53942], [6.229032, 49.539455], [6.229078, 49.53953], [6.229147, 49.539616], [6.229284, 49.539738], [6.22957, 49.539936], [6.22978, 49.540077], [6.229818, 49.5401], [6.229986, 49.540207], [6.230062, 49.540253], [6.230116, 49.540287], [6.229891, 49.540367], [6.229395, 49.540535], [6.228693, 49.540806], [6.22838, 49.540966], [6.228617, 49.541256], [6.228754, 49.54143], [6.228857, 49.541553], [6.2292, 49.542046], [6.229418, 49.54233], [6.229383, 49.54235], [6.229196, 49.542454], [6.229044, 49.54255], [6.22888, 49.542667], [6.228819, 49.542713], [6.228697, 49.54281], [6.228647, 49.542847], [6.22859, 49.542892], [6.228399, 49.543064], [6.228338, 49.54312], [6.228281, 49.543175], [6.228235, 49.543217], [6.228151, 49.5433], [6.228254, 49.54336], [6.228464, 49.543476], [6.228846, 49.543694], [6.229231, 49.543915], [6.229376, 49.544003], [6.229494, 49.54407], [6.229876, 49.544292], [6.230135, 49.54444], [6.23036, 49.54458], [6.230169, 49.544716], [6.229963, 49.54487], [6.229765, 49.545013], [6.229643, 49.5451], [6.229521, 49.545193], [6.229372, 49.545303], [6.229265, 49.545383], [6.229002, 49.545288], [6.228697, 49.545177], [6.228449, 49.54507], [6.228018, 49.544888], [6.227632, 49.544716], [6.227503, 49.54466], [6.227476, 49.54469], [6.226927, 49.545242], [6.22666, 49.545506], [6.226538, 49.545628], [6.226442, 49.545727], [6.226236, 49.545933], [6.226091, 49.546085], [6.226046, 49.546135], [6.226011, 49.54617], [6.225779, 49.54642], [6.225668, 49.546543], [6.225573, 49.546646], [6.225466, 49.546764], [6.225359, 49.54688], [6.22526, 49.546986], [6.225504, 49.547066], [6.225908, 49.547203], [6.226309, 49.54735], [6.226458, 49.547417], [6.226168, 49.547504], [6.22579, 49.547615], [6.225676, 49.54765], [6.225515, 49.547703], [6.22537, 49.547756], [6.225183, 49.547844], [6.225138, 49.547863], [6.22502, 49.547935], [6.224897, 49.548008], [6.22476, 49.54811], [6.224798, 49.548195], [6.224722, 49.548267], [6.224516, 49.548477], [6.224413, 49.54858], [6.22436, 49.548637], [6.224337, 49.548664], [6.224302, 49.54871], [6.224268, 49.54875], [6.224234, 49.548794], [6.224142, 49.54893], [6.224123, 49.548965], [6.2241, 49.549004], [6.224066, 49.54907], [6.224039, 49.549118], [6.22402, 49.549168], [6.223993, 49.54923], [6.223974, 49.54928], [6.223967, 49.549294], [6.223959, 49.54932], [6.223944, 49.549385], [6.223913, 49.54946], [6.22389, 49.549522], [6.223841, 49.549644], [6.223825, 49.549675], [6.223822, 49.549686], [6.223738, 49.549828], [6.223715, 49.54984], [6.223425, 49.549957], [6.223379, 49.54998], [6.223181, 49.550095], [6.222933, 49.55027], [6.222902, 49.55029], [6.222708, 49.55041], [6.222689, 49.550423], [6.222639, 49.550453], [6.222494, 49.550533], [6.222372, 49.550602], [6.222311, 49.550632], [6.222246, 49.55067], [6.222174, 49.550724], [6.222082, 49.550846], [6.222052, 49.550873], [6.221945, 49.550938], [6.221827, 49.551006], [6.2218, 49.55102], [6.221537, 49.551247], [6.221491, 49.551285], [6.221411, 49.551357], [6.221224, 49.55152], [6.221205, 49.55154], [6.220999, 49.551723], [6.220766, 49.551918], [6.220621, 49.552044], [6.220453, 49.552464], [6.220385, 49.55263], [6.220293, 49.552845], [6.220224, 49.553013], [6.220079, 49.553314], [6.219889, 49.553646], [6.219797, 49.55379], [6.219644, 49.553986], [6.21961, 49.55405], [6.219591, 49.5541], [6.219564, 49.554245], [6.219511, 49.554523], [6.219431, 49.55465], [6.219259, 49.55492], [6.219217, 49.55499]]]]}}]}