{"type": "FeatureCollection", "features": [{"type": "Feature", "properties": {"name": "Mondorf-les-Bains"}, "geometry": {"type": "MultiPolygon", "coordinates": [[[[6.240583, 49.515015], [6.240648, 49.515022], [6.240908, 49.51505], [6.240938, 49.51507], [6.240992, 49.51519], [6.241003, 49.51522], [6.240858, 49.515312], [6.240946, 49.5154], [6.241018, 49.515427], [6.241232, 49.5156], [6.241247, 49.51561], [6.241407, 49.515774], [6.241518, 49.51588], [6.241747, 49.51602], [6.242598, 49.516422], [6.242453, 49.516663], [6.242823, 49.516758], [6.242765, 49.516895], [6.242716, 49.517147], [6.242724, 49.51733], [6.242784, 49.517544], [6.242903, 49.517754], [6.243063, 49.51793], [6.243303, 49.518124], [6.243326, 49.51814], [6.242781, 49.51887], [6.242761, 49.518954], [6.243231, 49.51915], [6.243452, 49.519245], [6.243608, 49.519344], [6.24373, 49.519466], [6.243902, 49.519684], [6.244123, 49.520008], [6.244402, 49.520424], [6.244501, 49.52056], [6.244772, 49.520984], [6.24513, 49.521465], [6.246126, 49.522938], [6.24618, 49.523006], [6.246843, 49.523964], [6.246901, 49.52395], [6.247732, 49.523663], [6.247889, 49.52361], [6.248526, 49.52348], [6.249838, 49.523216], [6.249853, 49.523106], [6.250391, 49.52316], [6.250483, 49.52296], [6.250895, 49.52295], [6.251284, 49.523014], [6.251951, 49.523125], [6.252096, 49.523148], [6.253035, 49.52334], [6.253508, 49.522587], [6.254465, 49.521294], [6.254503, 49.52125], [6.255854, 49.521793], [6.256727, 49.52219], [6.257635, 49.522667], [6.25831, 49.52306], [6.258406, 49.523113], [6.259153, 49.52352], [6.259359, 49.523636], [6.259543, 49.523804], [6.259592, 49.523846], [6.259695, 49.52393], [6.259752, 49.523968], [6.25992, 49.524075], [6.259878, 49.524117], [6.259207, 49.524868], [6.261286, 49.525837], [6.261316, 49.525852], [6.261362, 49.525887], [6.261156, 49.526], [6.261202, 49.526035], [6.261229, 49.526054], [6.26211, 49.52662], [6.262014, 49.526646], [6.262152, 49.526733], [6.26309, 49.52766], [6.263155, 49.52773], [6.263441, 49.52803], [6.2638, 49.528423], [6.264082, 49.528755], [6.264166, 49.52885], [6.264189, 49.52888], [6.264234, 49.528934], [6.264303, 49.529022], [6.264372, 49.529106], [6.264502, 49.52927], [6.264666, 49.52951], [6.264711, 49.52958], [6.264772, 49.529625], [6.264997, 49.530415], [6.265211, 49.530663], [6.265593, 49.531025], [6.265604, 49.53107], [6.265467, 49.531246], [6.265249, 49.53146], [6.265078, 49.531666], [6.265039, 49.53174], [6.265024, 49.531944], [6.26502, 49.531975], [6.264982, 49.53219], [6.264956, 49.53236], [6.264959, 49.532402], [6.264994, 49.532707], [6.265001, 49.532753], [6.265039, 49.532806], [6.265238, 49.533073], [6.265284, 49.53313], [6.266363, 49.533104], [6.266863, 49.533142], [6.267343, 49.533245], [6.268236, 49.53362], [6.26837, 49.533665], [6.268515, 49.533737], [6.268541, 49.53372], [6.268698, 49.533592], [6.269022, 49.533314], [6.269262, 49.53312], [6.270178, 49.53265], [6.270224, 49.532635], [6.270445, 49.532784], [6.27054, 49.53279], [6.270681, 49.532772], [6.270704, 49.53277], [6.270643, 49.532593], [6.270536, 49.53234], [6.270502, 49.532272], [6.270521, 49.532265], [6.270845, 49.531998], [6.270887, 49.531956], [6.271025, 49.531864], [6.270845, 49.531765], [6.270906, 49.531715], [6.271227, 49.53146], [6.271601, 49.531166], [6.271662, 49.531116], [6.272234, 49.530663], [6.272856, 49.530167], [6.272901, 49.530117], [6.273001, 49.529995], [6.272989, 49.529957], [6.272818, 49.529415], [6.27276, 49.529247], [6.272737, 49.529182], [6.272707, 49.529087], [6.272677, 49.528988], [6.271093, 49.528084], [6.271288, 49.527966], [6.271132, 49.527893], [6.271524, 49.527664], [6.27397, 49.52879], [6.274031, 49.52882], [6.274916, 49.52927], [6.275183, 49.5291], [6.275236, 49.529064], [6.275366, 49.528984], [6.275686, 49.528793], [6.276476, 49.52836], [6.276678, 49.528248], [6.276827, 49.528168], [6.276857, 49.52819], [6.277224, 49.52793], [6.278017, 49.527378], [6.278364, 49.527157], [6.278418, 49.52712], [6.27857, 49.527023], [6.279345, 49.526543], [6.280107, 49.526222], [6.280455, 49.526104], [6.280645, 49.52605], [6.280786, 49.52602], [6.28084, 49.526043], [6.281042, 49.52609], [6.282019, 49.52559], [6.282694, 49.525917], [6.284105, 49.52477], [6.284281, 49.524612], [6.284838, 49.524055], [6.285097, 49.524147], [6.285418, 49.524254], [6.286257, 49.524544], [6.286585, 49.524654], [6.285803, 49.525505], [6.286608, 49.52567], [6.286688, 49.525684], [6.292006, 49.529438], [6.291761, 49.529408], [6.29159, 49.529465], [6.291704, 49.529583], [6.291842, 49.529907], [6.29204, 49.529922], [6.292181, 49.529926], [6.292173, 49.529945], [6.292109, 49.53018], [6.292074, 49.53031], [6.29191, 49.530865], [6.292292, 49.53091], [6.292952, 49.53097], [6.293043, 49.53097], [6.293131, 49.530975], [6.293348, 49.53098], [6.293844, 49.53098], [6.294035, 49.530956], [6.294085, 49.530952], [6.29439, 49.530914], [6.294451, 49.53092], [6.294699, 49.53094], [6.294886, 49.530956], [6.295153, 49.53098], [6.295404, 49.531002], [6.295542, 49.53102], [6.295652, 49.53103], [6.295698, 49.53103], [6.295698, 49.531704], [6.29574, 49.531715], [6.295713, 49.531773], [6.295664, 49.531826], [6.295595, 49.53188], [6.295572, 49.531902], [6.295488, 49.53196], [6.295427, 49.531986], [6.295317, 49.532013], [6.295122, 49.53204], [6.294977, 49.532047], [6.294943, 49.532047], [6.294775, 49.532036], [6.294767, 49.532207], [6.294615, 49.53248], [6.294653, 49.53274], [6.294691, 49.533062], [6.294695, 49.53315], [6.294691, 49.53319], [6.294676, 49.53322], [6.29487, 49.533382], [6.294989, 49.533485], [6.295324, 49.533783], [6.295336, 49.533783], [6.295717, 49.533813], [6.295946, 49.533825], [6.29608, 49.53383], [6.296198, 49.533833], [6.296396, 49.53384], [6.296591, 49.53385], [6.296721, 49.533867], [6.29698, 49.533916], [6.298067, 49.534153], [6.298498, 49.534122], [6.298967, 49.53409], [6.299185, 49.534103], [6.299406, 49.53412], [6.29978, 49.53414], [6.300489, 49.53423], [6.30131, 49.53433], [6.301508, 49.534355], [6.301672, 49.53437], [6.301851, 49.53438], [6.301802, 49.534027], [6.30176, 49.53369], [6.301756, 49.533646], [6.301752, 49.53363], [6.301718, 49.533356], [6.301725, 49.53324], [6.301733, 49.53318], [6.301817, 49.532883], [6.301466, 49.53287], [6.301344, 49.532684], [6.301416, 49.532654], [6.301481, 49.532623], [6.301569, 49.53257], [6.301683, 49.532494], [6.301767, 49.53242], [6.301851, 49.532352], [6.30192, 49.532303], [6.302023, 49.532234], [6.302141, 49.532158], [6.302202, 49.53211], [6.302248, 49.532066], [6.302263, 49.53204], [6.302271, 49.532013], [6.302267, 49.531937], [6.302259, 49.531883], [6.302259, 49.531834], [6.302267, 49.53182], [6.302485, 49.531715], [6.302675, 49.531635], [6.302832, 49.531563], [6.302961, 49.53149], [6.303041, 49.531433], [6.303091, 49.53139], [6.30311, 49.531364], [6.303129, 49.531296], [6.303145, 49.531284], [6.30324, 49.53125], [6.303312, 49.53123], [6.303404, 49.53122], [6.303469, 49.531216], [6.303587, 49.53124], [6.303682, 49.531258], [6.303736, 49.531265], [6.303884, 49.531273], [6.304155, 49.53128], [6.304163, 49.531143], [6.304163, 49.531105], [6.304171, 49.53099], [6.304186, 49.530827], [6.304216, 49.53053], [6.304766, 49.5305], [6.305075, 49.530487], [6.305372, 49.530464], [6.305498, 49.530453], [6.306223, 49.5304], [6.30641, 49.5304], [6.306902, 49.530437], [6.307367, 49.53047], [6.307612, 49.53049], [6.30765, 49.530567], [6.30773, 49.530743], [6.307791, 49.53087], [6.307814, 49.530872], [6.308199, 49.53095], [6.308325, 49.530987], [6.308409, 49.531013], [6.308721, 49.531105], [6.308924, 49.531155], [6.309233, 49.53123], [6.309607, 49.53133], [6.309713, 49.53136], [6.310011, 49.531433], [6.310976, 49.531673], [6.310995, 49.53165], [6.311094, 49.531536], [6.311228, 49.531372], [6.311182, 49.531284], [6.311007, 49.53111], [6.311152, 49.531], [6.311049, 49.530922], [6.310923, 49.530834], [6.310797, 49.530754], [6.310755, 49.53073], [6.310823, 49.53069], [6.311247, 49.530476], [6.311308, 49.53044], [6.311243, 49.530365], [6.311838, 49.530117], [6.312044, 49.53008], [6.31185, 49.529835], [6.312117, 49.52973], [6.312296, 49.529854], [6.313009, 49.529533], [6.313047, 49.529514], [6.313059, 49.52951], [6.313192, 49.529446], [6.313276, 49.529552], [6.313322, 49.5296], [6.31336, 49.529636], [6.313395, 49.52967], [6.313414, 49.529686], [6.313448, 49.52972], [6.313791, 49.529507], [6.313993, 49.529385], [6.314314, 49.52919], [6.314699, 49.52898], [6.314733, 49.52896], [6.314997, 49.528812], [6.31518, 49.528706], [6.31542, 49.528534], [6.315607, 49.528397], [6.315821, 49.528275], [6.316034, 49.528156], [6.316069, 49.528137], [6.31632, 49.528023], [6.31669, 49.527874], [6.316958, 49.527767], [6.3169, 49.527706], [6.316637, 49.527405], [6.316603, 49.52736], [6.316576, 49.52733], [6.316553, 49.527298], [6.316523, 49.52726], [6.316446, 49.52715], [6.316404, 49.527084], [6.316336, 49.52697], [6.316317, 49.52693], [6.31674, 49.526752], [6.316801, 49.526722], [6.317007, 49.526615], [6.317114, 49.526554], [6.317209, 49.526505], [6.317385, 49.52641], [6.317522, 49.526356], [6.317617, 49.52632], [6.317816, 49.526253], [6.317999, 49.52619], [6.318113, 49.52616], [6.318235, 49.52613], [6.318617, 49.526035], [6.318785, 49.52603], [6.319181, 49.52602], [6.319468, 49.526012], [6.319735, 49.52598], [6.320059, 49.52592], [6.320189, 49.525898], [6.320425, 49.525852], [6.320654, 49.52581], [6.320726, 49.5258], [6.321032, 49.52575], [6.321329, 49.525703], [6.321428, 49.52569], [6.321733, 49.525635], [6.32194, 49.525597], [6.322065, 49.52557], [6.322226, 49.525497], [6.322432, 49.525402], [6.322477, 49.52538], [6.322561, 49.525333], [6.322645, 49.52528], [6.322702, 49.52524], [6.322802, 49.525158], [6.322847, 49.52511], [6.322878, 49.52506], [6.322882, 49.52495], [6.323187, 49.524696], [6.323214, 49.524662], [6.323225, 49.52463], [6.323229, 49.52452], [6.323221, 49.524292], [6.323214, 49.52395], [6.323725, 49.523754], [6.324186, 49.52361], [6.324263, 49.523563], [6.323549, 49.523056], [6.323042, 49.522747], [6.321264, 49.521835], [6.319902, 49.521145], [6.319323, 49.520874], [6.318888, 49.520752], [6.318747, 49.520676], [6.31856, 49.52058], [6.317717, 49.520134], [6.317602, 49.520027], [6.317423, 49.519943], [6.316313, 49.519386], [6.315947, 49.5192], [6.315836, 49.519154], [6.315374, 49.518906], [6.314161, 49.518272], [6.313345, 49.51785], [6.313253, 49.51779], [6.312357, 49.51735], [6.312193, 49.517254], [6.311823, 49.517075], [6.311293, 49.516853], [6.310644, 49.516567], [6.30995, 49.516357], [6.309389, 49.51621], [6.307489, 49.51482], [6.307321, 49.5147], [6.306551, 49.51433], [6.306486, 49.514294], [6.306246, 49.514133], [6.30615, 49.51407], [6.306078, 49.514004], [6.306002, 49.513927], [6.305937, 49.513844], [6.305349, 49.513073], [6.304953, 49.51254], [6.304674, 49.512173], [6.304544, 49.512016], [6.304419, 49.511925], [6.304037, 49.511692], [6.303072, 49.511124], [6.302957, 49.511047], [6.302936, 49.51104], [6.302423, 49.510742], [6.302221, 49.510624], [6.302202, 49.510613], [6.301867, 49.51041], [6.301722, 49.51031], [6.30126, 49.509987], [6.301001, 49.509808], [6.300768, 49.509644], [6.300554, 49.50949], [6.300093, 49.509167], [6.29991, 49.509052], [6.29983, 49.509003], [6.29965, 49.50887], [6.29928, 49.50858], [6.299089, 49.50842], [6.299036, 49.50837], [6.29875, 49.508125], [6.298582, 49.507988], [6.298304, 49.507763], [6.298113, 49.507607], [6.297884, 49.507347], [6.297834, 49.50728], [6.297796, 49.50722], [6.297342, 49.5063], [6.297232, 49.50609], [6.297075, 49.505775], [6.29693, 49.50549], [6.296778, 49.505096], [6.296537, 49.504337], [6.29648, 49.50408], [6.296453, 49.503918], [6.296511, 49.503906], [6.296866, 49.503834], [6.297838, 49.50364], [6.297464, 49.50313], [6.297613, 49.50308], [6.298254, 49.502853], [6.298975, 49.5026], [6.298273, 49.501656], [6.298124, 49.501453], [6.298078, 49.501396], [6.298342, 49.50128], [6.299036, 49.500977], [6.29978, 49.500656], [6.300379, 49.500355], [6.300184, 49.50017], [6.300097, 49.499996], [6.300016, 49.49978], [6.300024, 49.499607], [6.300173, 49.499367], [6.300425, 49.499107], [6.300604, 49.498875], [6.300783, 49.49856], [6.300878, 49.49823], [6.300905, 49.49797], [6.300859, 49.49763], [6.300787, 49.497295], [6.300894, 49.49727], [6.300863, 49.49693], [6.300837, 49.496807], [6.300806, 49.496704], [6.300776, 49.49662], [6.300684, 49.496437], [6.30094, 49.49636], [6.301107, 49.49631], [6.300848, 49.495857], [6.300711, 49.495895], [6.300543, 49.49595], [6.300325, 49.496014], [6.300192, 49.49605], [6.29986, 49.495235], [6.297716, 49.495975], [6.297533, 49.49604], [6.296381, 49.496437], [6.29632, 49.49646], [6.295248, 49.49683], [6.294325, 49.49715], [6.293932, 49.496384], [6.293623, 49.495792], [6.293558, 49.495808], [6.292742, 49.4962], [6.292009, 49.496616], [6.291193, 49.497097], [6.29117, 49.49708], [6.291086, 49.49702], [6.290983, 49.49695], [6.290853, 49.4969], [6.290812, 49.496876], [6.290388, 49.496593], [6.289782, 49.49619], [6.289644, 49.496098], [6.289534, 49.496136], [6.288698, 49.496437], [6.28805, 49.496662], [6.287119, 49.496975], [6.287008, 49.497013], [6.285608, 49.494843], [6.285582, 49.494617], [6.285589, 49.494442], [6.285639, 49.49429], [6.285742, 49.494164], [6.285811, 49.494106], [6.285871, 49.494053], [6.285894, 49.49403], [6.2861, 49.493958], [6.286371, 49.49367], [6.286413, 49.493626], [6.285982, 49.493397], [6.285902, 49.493366], [6.285391, 49.493214], [6.285158, 49.493137], [6.284834, 49.493095], [6.284639, 49.49308], [6.284273, 49.49303], [6.284105, 49.493], [6.283854, 49.49299], [6.283724, 49.493004], [6.283407, 49.493114], [6.283213, 49.493156], [6.283003, 49.493164], [6.282736, 49.493103], [6.282541, 49.4931], [6.282393, 49.493122], [6.282076, 49.493156], [6.281897, 49.493195], [6.281797, 49.493275], [6.281668, 49.493404], [6.281462, 49.493755], [6.281408, 49.493874], [6.281279, 49.493942], [6.280846, 49.49407], [6.280779, 49.49409], [6.280409, 49.494232], [6.280226, 49.494293], [6.279863, 49.494427], [6.279749, 49.49448], [6.279665, 49.49453], [6.279581, 49.494595], [6.279501, 49.49469], [6.279455, 49.494755], [6.279455, 49.49483], [6.279497, 49.49492], [6.279539, 49.495007], [6.279528, 49.49505], [6.279501, 49.495182], [6.279409, 49.49529], [6.279398, 49.495354], [6.279379, 49.49539], [6.279345, 49.49543], [6.279291, 49.495483], [6.279211, 49.49556], [6.279177, 49.495598], [6.279123, 49.495686], [6.279108, 49.49572], [6.279081, 49.49577], [6.279055, 49.49585], [6.279058, 49.4959], [6.279055, 49.495964], [6.27902, 49.49604], [6.279013, 49.496098], [6.278971, 49.496178], [6.278902, 49.49624], [6.278883, 49.496304], [6.278891, 49.496403], [6.278925, 49.49646], [6.278986, 49.49654], [6.279028, 49.496582], [6.279074, 49.496613], [6.279215, 49.49672], [6.279356, 49.496834], [6.279406, 49.496887], [6.279459, 49.49699], [6.279459, 49.49705], [6.279432, 49.49708], [6.279364, 49.49712], [6.279318, 49.49713], [6.27923, 49.497166], [6.279177, 49.497196], [6.279066, 49.497307], [6.279066, 49.49734], [6.279089, 49.497433], [6.279207, 49.49754], [6.279329, 49.49761], [6.279402, 49.49767], [6.279459, 49.497864], [6.279375, 49.497955], [6.279364, 49.498043], [6.279314, 49.49815], [6.279341, 49.498356], [6.279402, 49.498592], [6.279432, 49.49865], [6.27952, 49.498753], [6.279635, 49.49887], [6.279745, 49.49896], [6.279962, 49.4991], [6.280054, 49.499214], [6.280088, 49.499287], [6.280077, 49.499504], [6.280191, 49.49999], [6.280455, 49.500393], [6.280672, 49.500538], [6.280886, 49.50061], [6.280989, 49.50061], [6.281172, 49.500587], [6.281263, 49.500587], [6.281389, 49.500637], [6.281439, 49.50068], [6.281523, 49.50081], [6.28153, 49.50085], [6.28153, 49.500904], [6.281496, 49.500954], [6.281443, 49.501003], [6.281328, 49.501045], [6.281111, 49.501072], [6.280973, 49.501095], [6.280775, 49.50111], [6.280435, 49.501242], [6.280205, 49.501294], [6.279979, 49.501325], [6.279893, 49.501382], [6.279834, 49.501437], [6.279761, 49.501624], [6.279698, 49.501728], [6.279692, 49.501813], [6.279734, 49.50189], [6.27983, 49.501943], [6.279921, 49.501983], [6.280278, 49.5021], [6.280407, 49.502192], [6.280418, 49.502208], [6.280422, 49.502244], [6.280419, 49.502273], [6.280369, 49.502333], [6.280282, 49.502402], [6.280084, 49.502509], [6.279962, 49.502556], [6.279752, 49.502607], [6.279696, 49.502637], [6.279643, 49.502682], [6.279664, 49.502747], [6.279721, 49.502809], [6.279931, 49.50299], [6.279999, 49.503086], [6.279999, 49.503119], [6.279962, 49.503186], [6.279857, 49.503283], [6.279658, 49.503359], [6.279399, 49.503393], [6.27925, 49.503399], [6.279124, 49.503393], [6.279, 49.503376], [6.278788, 49.503376], [6.278499, 49.503401], [6.278308, 49.503427], [6.278188, 49.503459], [6.278056, 49.503475], [6.27798, 49.503479], [6.27762, 49.503526], [6.277426, 49.503571], [6.277313, 49.503584], [6.277273, 49.503584], [6.277226, 49.503578], [6.277143, 49.503543], [6.277024, 49.503463], [6.276934, 49.503387], [6.276857, 49.503307], [6.276819, 49.503295], [6.276775, 49.503292], [6.2767, 49.503308], [6.276289, 49.503492], [6.275932, 49.503573], [6.275569, 49.503655], [6.275424, 49.503677], [6.275337, 49.503682], [6.274853, 49.50374], [6.274794, 49.503749], [6.274642, 49.503791], [6.274572, 49.503835], [6.274512, 49.503881], [6.274493, 49.503903], [6.274467, 49.503944], [6.274406, 49.504177], [6.274384, 49.504243], [6.274342, 49.504299], [6.274265, 49.504386], [6.274151, 49.504435], [6.274064, 49.504457], [6.273943, 49.504465], [6.273662, 49.504457], [6.273357, 49.50447], [6.272985, 49.504504], [6.272817, 49.504523], [6.272407, 49.504579], [6.272235, 49.504623], [6.271992, 49.504702], [6.271921, 49.504719], [6.271857, 49.504726], [6.271787, 49.504725], [6.271717, 49.504718], [6.271568, 49.504692], [6.271365, 49.50463], [6.271201, 49.50456], [6.271066, 49.504483], [6.270954, 49.504419], [6.270643, 49.50426], [6.270529, 49.504166], [6.270498, 49.504112], [6.270369, 49.504032], [6.270151, 49.50403], [6.269938, 49.504055], [6.269808, 49.50408], [6.269472, 49.504147], [6.269186, 49.50423], [6.268938, 49.504303], [6.268789, 49.50432], [6.268511, 49.504314], [6.26819, 49.50426], [6.267736, 49.504192], [6.267519, 49.504143], [6.267168, 49.50408], [6.266668, 49.504025], [6.266577, 49.50403], [6.265985, 49.50404], [6.265673, 49.504036], [6.26507, 49.50401], [6.264719, 49.503983], [6.264261, 49.503933], [6.263758, 49.50392], [6.263617, 49.503918], [6.26343, 49.50393], [6.263296, 49.503952], [6.263056, 49.504097], [6.263052, 49.50416], [6.262785, 49.504494], [6.262526, 49.504776], [6.262396, 49.504932], [6.262354, 49.505047], [6.262308, 49.505333], [6.26232, 49.50549], [6.262369, 49.50566], [6.262449, 49.5058], [6.262747, 49.506138], [6.262835, 49.506268], [6.26285, 49.50638], [6.262819, 49.506485], [6.262713, 49.506622], [6.262632, 49.506695], [6.262503, 49.50679], [6.262445, 49.506866], [6.262301, 49.50698], [6.262137, 49.507076], [6.261946, 49.50714], [6.261541, 49.50721], [6.261274, 49.507236], [6.26111, 49.507233], [6.260889, 49.50719], [6.260672, 49.50714], [6.26034, 49.50705], [6.260145, 49.507015], [6.260019, 49.507008], [6.259939, 49.507015], [6.259661, 49.50706], [6.259092, 49.507126], [6.258883, 49.507187], [6.258558, 49.50735], [6.258272, 49.507477], [6.258051, 49.507545], [6.257971, 49.507595], [6.257868, 49.507706], [6.257723, 49.507927], [6.257662, 49.508022], [6.25757, 49.508167], [6.257422, 49.508423], [6.257364, 49.508625], [6.257319, 49.509064], [6.257219, 49.509434], [6.257135, 49.509624], [6.257063, 49.50973], [6.257006, 49.509796], [6.256926, 49.50982], [6.256586, 49.509903], [6.256281, 49.509968], [6.256006, 49.50996], [6.255529, 49.50985], [6.255331, 49.509785], [6.25506, 49.50976], [6.254694, 49.509693], [6.254389, 49.509674], [6.253942, 49.50959], [6.253488, 49.50942], [6.253099, 49.509262], [6.252684, 49.50911], [6.252459, 49.509007], [6.252371, 49.509], [6.252272, 49.508965], [6.252138, 49.508953], [6.251959, 49.508923], [6.25149, 49.50889], [6.251291, 49.508877], [6.250464, 49.50884], [6.250238, 49.50881], [6.250017, 49.508762], [6.24935, 49.508583], [6.249186, 49.508556], [6.249083, 49.50855], [6.248777, 49.508545], [6.248629, 49.508522], [6.248445, 49.508507], [6.248415, 49.50851], [6.248342, 49.508526], [6.248266, 49.508564], [6.248114, 49.508614], [6.247732, 49.508728], [6.247522, 49.508766], [6.246916, 49.508892], [6.246565, 49.509037], [6.246405, 49.509197], [6.246393, 49.50937], [6.246344, 49.50953], [6.246267, 49.509644], [6.24621, 49.509773], [6.246038, 49.51005], [6.245996, 49.510094], [6.245913, 49.510277], [6.245882, 49.51032], [6.24581, 49.510372], [6.245779, 49.510433], [6.245699, 49.51055], [6.245493, 49.510735], [6.245405, 49.510963], [6.245325, 49.511215], [6.24523, 49.511395], [6.245134, 49.51151], [6.244989, 49.511593], [6.244871, 49.511627], [6.244337, 49.511707], [6.244165, 49.51176], [6.243887, 49.511833], [6.243627, 49.511845], [6.243517, 49.511875], [6.242952, 49.51194], [6.242712, 49.51191], [6.242258, 49.511898], [6.242067, 49.511868], [6.241819, 49.511875], [6.241709, 49.511925], [6.241644, 49.511963], [6.241571, 49.512054], [6.241552, 49.51215], [6.241571, 49.512257], [6.241568, 49.51235], [6.241507, 49.512463], [6.241369, 49.512577], [6.241335, 49.51268], [6.241377, 49.512882], [6.241499, 49.51311], [6.241518, 49.513157], [6.241625, 49.513176], [6.24164, 49.513187], [6.241697, 49.51326], [6.241728, 49.51335], [6.241709, 49.513435], [6.241777, 49.51369], [6.241743, 49.51376], [6.241751, 49.513832], [6.241747, 49.5139], [6.241766, 49.514084], [6.241716, 49.51423], [6.241663, 49.514305], [6.241533, 49.51441], [6.24151, 49.514446], [6.241388, 49.514515], [6.241327, 49.514538], [6.241236, 49.5146], [6.241209, 49.514633], [6.241117, 49.514668], [6.240992, 49.514698], [6.240896, 49.51478], [6.240782, 49.514862], [6.240725, 49.514904], [6.240651, 49.514937], [6.240583, 49.515015]]]]}}]}