{"type": "FeatureCollection", "features": [{"type": "Feature", "properties": {"name": "Hobscheid"}, "geometry": {"type": "Polygon", "coordinates": [[[5.9442216, 49.6785241], [5.9440103, 49.678322], [5.9438439, 49.6781945], [5.9436862, 49.678089], [5.9434711, 49.6779895], [5.9433783, 49.6779372], [5.9433341, 49.6778914], [5.9432976, 49.6778291], [5.9432851, 49.6777846], [5.9432783, 49.6777603], [5.9432695, 49.6777287], [5.9429135, 49.6777423], [5.9421803, 49.677793], [5.9421094, 49.6778013], [5.9419582, 49.6778297], [5.9417545, 49.6778752], [5.9416751, 49.677905], [5.9416369, 49.6779265], [5.9415733, 49.67797], [5.9413875, 49.6781845], [5.9411743, 49.6784065], [5.9411021, 49.6784774], [5.9410427, 49.6785204], [5.9409545, 49.6786238], [5.9408773, 49.6787099], [5.940806, 49.6788109], [5.9407602, 49.6788857], [5.9407236, 49.6790281], [5.9406915, 49.6791926], [5.940669, 49.6792506], [5.9406245, 49.6792818], [5.9405451, 49.6793252], [5.940434, 49.6793648], [5.940288, 49.6793971], [5.9400827, 49.6794332], [5.9399568, 49.6794577], [5.9398074, 49.6795105], [5.9396454, 49.6795728], [5.9394825, 49.6796063], [5.9393535, 49.6796165], [5.939179, 49.679626], [5.9390775, 49.6796349], [5.9389438, 49.6796534], [5.9388041, 49.6796877], [5.9386719, 49.6797181], [5.9385798, 49.6797492], [5.9385257, 49.6797778], [5.9384896, 49.679809], [5.9384735, 49.6798691], [5.9384753, 49.6799356], [5.9384706, 49.6800334], [5.9384565, 49.6801125], [5.9384266, 49.6801985], [5.9383712, 49.6802884], [5.9383, 49.6803684], [5.9382466, 49.6804097], [5.9381576, 49.6804473], [5.9380751, 49.6804647], [5.9379704, 49.6804678], [5.9378869, 49.6804702], [5.9377982, 49.6804616], [5.9377137, 49.6804503], [5.9376704, 49.6804411], [5.937608, 49.6804384], [5.9375457, 49.6804409], [5.9374597, 49.6804545], [5.9372152, 49.6805218], [5.9371274, 49.6805347], [5.9370535, 49.68053], [5.9369955, 49.6805025], [5.9369365, 49.6804574], [5.9368514, 49.6803923], [5.9367713, 49.6803334], [5.9365848, 49.6802229], [5.9363975, 49.6801171], [5.9362301, 49.6800238], [5.9360857, 49.6799452], [5.9360224, 49.6799197], [5.9359665, 49.6799098], [5.9358935, 49.6799097], [5.9358563, 49.6799144], [5.9358036, 49.6799212], [5.9357317, 49.6799361], [5.9356629, 49.6799594], [5.9355757, 49.6799944], [5.9354253, 49.6800632], [5.9353088, 49.6800942], [5.9352454, 49.6801039], [5.9351883, 49.6800979], [5.9351366, 49.6800756], [5.935065, 49.6800298], [5.9349514, 49.6799601], [5.9347437, 49.6798573], [5.9345302, 49.6797634], [5.9342874, 49.6796925], [5.9341137, 49.6796517], [5.9340355, 49.6796334], [5.9338645, 49.6795979], [5.9335835, 49.6795472], [5.9333469, 49.6795258], [5.9332042, 49.6795255], [5.9331427, 49.67953], [5.9329883, 49.6795518], [5.9328433, 49.6795848], [5.932746, 49.6796009], [5.9326741, 49.6795988], [5.9326171, 49.679583], [5.9325475, 49.6795477], [5.9324495, 49.6794842], [5.9323912, 49.6794685], [5.9323014, 49.6794683], [5.932184, 49.6794837], [5.9320116, 49.6795055], [5.931945, 49.6795041], [5.9318891, 49.6794844], [5.9318375, 49.6794426], [5.9317913, 49.6793753], [5.9317545, 49.6793426], [5.9317033, 49.6793134], [5.9316273, 49.6792891], [5.9315577, 49.6792779], [5.9314456, 49.6792829], [5.9313557, 49.6792964], [5.9312216, 49.67932], [5.9311274, 49.6793446], [5.9310407, 49.6793555], [5.9309619, 49.6793547], [5.9308192, 49.6793603], [5.9306203, 49.6793931], [5.9304055, 49.6794448], [5.9302828, 49.6794752], [5.9302234, 49.6795071], [5.930165, 49.6795656], [5.9300854, 49.6796443], [5.9300082, 49.6797049], [5.929935, 49.6797524], [5.9298619, 49.679792], [5.9298025, 49.679831], [5.9296942, 49.6799312], [5.9295958, 49.6800283], [5.9294951, 49.6800998], [5.9293869, 49.6801615], [5.9293081, 49.6801994], [5.9291174, 49.6802812], [5.9289754, 49.6803565], [5.9288905, 49.6804189], [5.9288164, 49.6804553], [5.9287403, 49.6804932], [5.9286904, 49.6805407], [5.9286222, 49.6806442], [5.9285363, 49.6808169], [5.9284905, 49.6808983], [5.9284353, 49.6809458], [5.9283971, 49.6809821], [5.9283038, 49.6810406], [5.9281535, 49.6810905], [5.9279741, 49.6811328], [5.9278746, 49.6811462], [5.9276621, 49.681164], [5.9274294, 49.6811896], [5.9274195, 49.6811623], [5.9272754, 49.6809793], [5.9272333, 49.6809156], [5.9269848, 49.6806132], [5.9269541, 49.6805759], [5.9268943, 49.6805019], [5.9267976, 49.6803822], [5.9267015, 49.6802633], [5.9266384, 49.6801852], [5.9265915, 49.680127], [5.9265139, 49.680031], [5.9265078, 49.6800234], [5.9264198, 49.6799144], [5.9263872, 49.679874], [5.9263291, 49.679802], [5.9261776, 49.6796143], [5.9261358, 49.679556], [5.9260492, 49.6794356], [5.9259997, 49.6793666], [5.9259774, 49.6793389], [5.92593, 49.67928], [5.9258488, 49.6791792], [5.9257806, 49.6790944], [5.9257581, 49.6790708], [5.9256769, 49.6790911], [5.9254573, 49.6791459], [5.9252183, 49.6789984], [5.9248761, 49.6787871], [5.9246744, 49.6786668], [5.924565, 49.6785885], [5.9244041, 49.6784545], [5.9242093, 49.6782922], [5.9239833, 49.678104], [5.9239254, 49.6780557], [5.9238996, 49.6780343], [5.9238326, 49.6780062], [5.9236212, 49.6775147], [5.9235601, 49.6773726], [5.9235151, 49.6772723], [5.9234106, 49.6770396], [5.9233065, 49.676885], [5.9232173, 49.6767694], [5.9230923, 49.6766394], [5.9229648, 49.6765496], [5.9229288, 49.6765661], [5.9222309, 49.6762067], [5.9217472, 49.6759543], [5.9215054, 49.6758143], [5.9213414, 49.6757102], [5.9212931, 49.6756659], [5.9210676, 49.6754633], [5.9209462, 49.6753642], [5.9208161, 49.6752885], [5.920554, 49.6751841], [5.9200105, 49.6749696], [5.91934, 49.674685], [5.9191224, 49.6746016], [5.9190453, 49.6746348], [5.9186251, 49.6743752], [5.9184042, 49.6742203], [5.9182523, 49.6741035], [5.9179905, 49.6738955], [5.9178389, 49.6736907], [5.9177868, 49.6735351], [5.9177482, 49.6731051], [5.917738, 49.6727429], [5.9177319, 49.6727177], [5.9177234, 49.6726823], [5.9177156, 49.67265], [5.9176673, 49.6726153], [5.9176619, 49.672591], [5.9176551, 49.6725603], [5.9176512, 49.6725433], [5.9176468, 49.672525], [5.9176416, 49.6725359], [5.9176348, 49.6725466], [5.9176265, 49.6725567], [5.9176167, 49.6725664], [5.9176056, 49.6725754], [5.9175935, 49.672584], [5.9175804, 49.6725919], [5.9175663, 49.6725991], [5.9175514, 49.6726057], [5.9174554, 49.6726264], [5.9172946, 49.6726561], [5.9171484, 49.6726852], [5.9170701, 49.6727022], [5.9170029, 49.6727371], [5.9161969, 49.6730885], [5.9161053, 49.6731235], [5.9158561, 49.673204], [5.9157295, 49.6732327], [5.9152738, 49.6732983], [5.9145085, 49.6733955], [5.9139826, 49.6734644], [5.9135868, 49.6735248], [5.9128491, 49.673724], [5.9125757, 49.6738479], [5.9115084, 49.6744008], [5.9102698, 49.6750984], [5.9096635, 49.6754241], [5.9093615, 49.6755539], [5.9089859, 49.6756736], [5.9088452, 49.6757056], [5.9087035, 49.6757402], [5.9083057, 49.6758184], [5.9078695, 49.6758748], [5.9073661, 49.6759132], [5.9055254, 49.6760128], [5.9047526, 49.6760664], [5.9041057, 49.6761352], [5.9037419, 49.6761818], [5.903723, 49.6761225], [5.9036274, 49.6758493], [5.9035767, 49.6757041], [5.9035737, 49.6756924], [5.9035664, 49.6756631], [5.9035569, 49.6756248], [5.9033794, 49.6756123], [5.9032709, 49.6756174], [5.9030805, 49.6756325], [5.9028699, 49.6756537], [5.9025874, 49.6756915], [5.9023637, 49.6757255], [5.902078, 49.6757807], [5.9015009, 49.6759085], [5.9013809, 49.6759364], [5.9012328, 49.6759631], [5.9010223, 49.675989], [5.9007899, 49.6760108], [5.9006042, 49.6760218], [5.9003532, 49.67603], [5.8999916, 49.676038], [5.8997493, 49.6760351], [5.8997118, 49.6760346], [5.8996362, 49.6760284], [5.8994459, 49.6760117], [5.8989874, 49.6759702], [5.8987005, 49.6759445], [5.8986219, 49.6759396], [5.898462, 49.6759339], [5.8982571, 49.6759307], [5.898101, 49.6759263], [5.8979235, 49.6759171], [5.8977395, 49.6758951], [5.8976071, 49.6758745], [5.897382, 49.6758214], [5.8968868, 49.6756961], [5.8967715, 49.6759845], [5.8967622, 49.6760066], [5.8967325, 49.6760772], [5.8966978, 49.6761594], [5.8966274, 49.6763266], [5.8966177, 49.6763497], [5.8969634, 49.6763784], [5.8975152, 49.6764115], [5.8977863, 49.6763976], [5.8978618, 49.6765882], [5.8978818, 49.6766386], [5.8978992, 49.6766825], [5.8979297, 49.6767594], [5.8979634, 49.6768446], [5.8979678, 49.6768556], [5.898015, 49.6769739], [5.8980351, 49.6770297], [5.8972408, 49.677192], [5.897279, 49.6772393], [5.8973356, 49.6773127], [5.8974835, 49.6775047], [5.8975346, 49.677571], [5.8975775, 49.6776266], [5.8976163, 49.677677], [5.8977547, 49.6778069], [5.8977879, 49.677838], [5.8978512, 49.6778909], [5.8979074, 49.6779378], [5.8979438, 49.6779682], [5.8979543, 49.677977], [5.8979659, 49.6779867], [5.8979474, 49.6780913], [5.8979293, 49.6781935], [5.8979237, 49.6782249], [5.8978835, 49.6783455], [5.8978563, 49.6784102], [5.8978124, 49.6784931], [5.8978069, 49.6785016], [5.8976542, 49.6787358], [5.897532, 49.6788811], [5.8974563, 49.6789738], [5.8974476, 49.6789845], [5.8973327, 49.6791253], [5.8972568, 49.6792352], [5.8971343, 49.6794298], [5.8970119, 49.6796209], [5.8969861, 49.6796743], [5.8969767, 49.6797542], [5.8969955, 49.6798045], [5.8970891, 49.6799797], [5.8971664, 49.6801508], [5.8971171, 49.6801548], [5.8971448, 49.680248], [5.8971613, 49.6804372], [5.8971466, 49.6805484], [5.8970769, 49.6807302], [5.8969825, 49.6809391], [5.8968755, 49.6811748], [5.8968467, 49.6812839], [5.8968155, 49.6815097], [5.8967963, 49.6817951], [5.8969862, 49.6818486], [5.8970995, 49.6818615], [5.897164, 49.6818688], [5.8972443, 49.6820687], [5.8973168, 49.6822491], [5.8973536, 49.6823477], [5.8973837, 49.6824285], [5.8974369, 49.6825713], [5.8974877, 49.6827074], [5.8975129, 49.6827749], [5.8971511, 49.6827675], [5.897167, 49.682823], [5.8971764, 49.6828555], [5.8971965, 49.6829258], [5.8972133, 49.6829843], [5.8972281, 49.6830361], [5.8972307, 49.6830449], [5.8972349, 49.6830597], [5.8972518, 49.6831071], [5.8972699, 49.6831581], [5.8972848, 49.6831999], [5.8973018, 49.6832476], [5.8973157, 49.6832867], [5.8973284, 49.6833224], [5.8976103, 49.6839312], [5.8976186, 49.6839492], [5.8976731, 49.6840643], [5.8977629, 49.6842539], [5.8977894, 49.6843098], [5.8977915, 49.6843143], [5.8978102, 49.6843538], [5.8978289, 49.6843932], [5.8979165, 49.6845782], [5.8979261, 49.6845983], [5.8980023, 49.6847593], [5.8980257, 49.6848086], [5.8980662, 49.6848941], [5.8980905, 49.6849455], [5.8981192, 49.6850061], [5.898133, 49.6850352], [5.8981481, 49.685067], [5.8982139, 49.685206], [5.8982204, 49.6852196], [5.8982901, 49.6853668], [5.8983025, 49.685393], [5.8983272, 49.6854451], [5.8983466, 49.685486], [5.8983685, 49.6855323], [5.8984324, 49.6855867], [5.8984567, 49.6856075], [5.8986334, 49.6857581], [5.8986764, 49.6857949], [5.8987049, 49.6858186], [5.898756, 49.6858528], [5.8986779, 49.6859524], [5.8986724, 49.6860103], [5.8988687, 49.6861917], [5.8988667, 49.6862453], [5.8988153, 49.6862888], [5.8986794, 49.6863436], [5.8984786, 49.6863348], [5.8983659, 49.6863335], [5.8982847, 49.6863656], [5.8982192, 49.686432], [5.898187, 49.6865171], [5.8981914, 49.6866647], [5.8982176, 49.6867053], [5.8982898, 49.6867221], [5.8985254, 49.686726], [5.8985925, 49.6867713], [5.898684, 49.6868517], [5.898694, 49.6870508], [5.8986809, 49.6871538], [5.8986542, 49.6871801], [5.8985759, 49.6871981], [5.8980543, 49.687237], [5.8978966, 49.6872822], [5.8977792, 49.6872836], [5.8973554, 49.6872619], [5.8972061, 49.6872409], [5.8971333, 49.6872581], [5.8970828, 49.6873008], [5.8970559, 49.6873766], [5.897058, 49.6874901], [5.8970729, 49.68758], [5.8971284, 49.6876485], [5.8972161, 49.6876871], [5.8974266, 49.6877701], [5.8974969, 49.6879233], [5.8974839, 49.688004], [5.8973369, 49.688063], [5.8971846, 49.688097], [5.8969093, 49.6881252], [5.896735, 49.6881593], [5.8966691, 49.6881938], [5.896537, 49.6883336], [5.8964923, 49.6883343], [5.8964409, 49.6883217], [5.8963975, 49.6883216], [5.8963555, 49.6883446], [5.8962849, 49.6884886], [5.896219, 49.6885256], [5.8961328, 49.6885243], [5.8959793, 49.6884967], [5.8958913, 49.6884949], [5.8958284, 49.6885038], [5.8957389, 49.6885258], [5.8956439, 49.688519], [5.8955407, 49.6884891], [5.8954786, 49.6884774], [5.8953933, 49.6884838], [5.8953052, 49.6885009], [5.8952144, 49.6885007], [5.8950386, 49.6884681], [5.8949647, 49.6884383], [5.8948353, 49.6883605], [5.8947117, 49.6883265], [5.8945637, 49.6883089], [5.8944662, 49.68826], [5.8943434, 49.6882366], [5.8942849, 49.6882101], [5.8942265, 49.688158], [5.8941796, 49.6881105], [5.8941266, 49.688084], [5.8940011, 49.6880565], [5.893916, 49.6880341], [5.8938478, 49.6879927], [5.8937799, 49.687947], [5.893768, 49.6879609], [5.893704, 49.6880382], [5.8936256, 49.6881527], [5.8936035, 49.6881853], [5.8945436, 49.6884967], [5.8945346, 49.6885418], [5.8945248, 49.6885876], [5.8944024, 49.6891563], [5.8941708, 49.6891508], [5.8925128, 49.6887631], [5.8924618, 49.6888823], [5.892452, 49.6889052], [5.8924166, 49.6889878], [5.8924074, 49.6890092], [5.8923956, 49.6890369], [5.8923682, 49.689101], [5.89236, 49.68912], [5.8923319, 49.6891856], [5.8922993, 49.6892618], [5.8922738, 49.6893215], [5.8922666, 49.6893382], [5.8922614, 49.6893504], [5.8922592, 49.689357], [5.8922297, 49.6894439], [5.8922213, 49.6894688], [5.8921846, 49.6895772], [5.8921505, 49.689678], [5.8921158, 49.6897807], [5.8921027, 49.6898192], [5.8920208, 49.690036], [5.8919788, 49.6901471], [5.8919525, 49.6902168], [5.891933, 49.690271], [5.8919174, 49.6903145], [5.8918854, 49.6904035], [5.8918682, 49.6904516], [5.8918567, 49.6904833], [5.8918299, 49.6905573], [5.8918093, 49.690614], [5.8918009, 49.6906373], [5.8917852, 49.6906807], [5.8922727, 49.6908336], [5.8925957, 49.6909386], [5.8925777, 49.6909963], [5.8925676, 49.6910287], [5.8925549, 49.6910692], [5.8925387, 49.6911211], [5.8925268, 49.6911593], [5.8925061, 49.691244], [5.8924951, 49.6912891], [5.8924827, 49.6913396], [5.8924587, 49.6914379], [5.8924495, 49.6915002], [5.8924433, 49.6915427], [5.8924386, 49.6915749], [5.8924294, 49.6916375], [5.8924197, 49.6917102], [5.8923968, 49.6918985], [5.8923892, 49.6919614], [5.8923862, 49.6919859], [5.8923806, 49.6920389], [5.8923775, 49.6920683], [5.8923772, 49.6921294], [5.8923754, 49.6921587], [5.8923817, 49.6921964], [5.8923962, 49.6922626], [5.8924369, 49.6923686], [5.8924688, 49.6924583], [5.8924986, 49.6925423], [5.8925244, 49.6926137], [5.8925382, 49.6926522], [5.8925604, 49.6927135], [5.8925751, 49.6927524], [5.8925962, 49.6928082], [5.8926159, 49.6928616], [5.8926257, 49.6928882], [5.892653, 49.6929152], [5.8926843, 49.6929459], [5.8927182, 49.6929792], [5.8927256, 49.6930323], [5.8927323, 49.6930803], [5.8927321, 49.693154], [5.892732, 49.6931943], [5.8927319, 49.6932021], [5.8928154, 49.6933929], [5.8928912, 49.6935662], [5.8929587, 49.6937217], [5.8930078, 49.69385], [5.8930388, 49.6939321], [5.8930688, 49.6940114], [5.8931374, 49.6941799], [5.893194, 49.6943177], [5.8932461, 49.6944483], [5.8932923, 49.6945477], [5.8933491, 49.6946568], [5.8934448, 49.6948058], [5.8935243, 49.6949272], [5.89365, 49.6951163], [5.89374, 49.6952433], [5.8937847, 49.6953295], [5.8938609, 49.6954723], [5.8939206, 49.6955801], [5.8940178, 49.6957761], [5.8940508, 49.6958227], [5.8942531, 49.6960732], [5.8944198, 49.6962637], [5.8945443, 49.696409], [5.8946749, 49.6965584], [5.8947888, 49.6966794], [5.8949631, 49.6968652], [5.8951033, 49.6970124], [5.8951748, 49.6971103], [5.8952571, 49.6972229], [5.8953396, 49.6973368], [5.895431, 49.6974833], [5.8955493, 49.6976593], [5.8956661, 49.6978294], [5.89579, 49.6979966], [5.8960215, 49.6983765], [5.8960606, 49.6984408], [5.8960772, 49.6984747], [5.8962571, 49.6985913], [5.8963975, 49.6986808], [5.8965013, 49.698761], [5.8966188, 49.6988582], [5.8966986, 49.6989226], [5.8967567, 49.6989823], [5.8967756, 49.6990089], [5.8968009, 49.6990597], [5.8968361, 49.6990859], [5.8969691, 49.6992079], [5.8970512, 49.6992852], [5.8970999, 49.699331], [5.8972046, 49.6994298], [5.8973424, 49.6995541], [5.8974767, 49.6996891], [5.8976014, 49.699806], [5.8978021, 49.699994], [5.8979601, 49.7001526], [5.8980015, 49.7001719], [5.898111, 49.700287], [5.8981597, 49.7003433], [5.8981853, 49.7003901], [5.8982254, 49.7004167], [5.8982746, 49.7004517], [5.8983486, 49.7005161], [5.8984268, 49.700583], [5.8985874, 49.7007248], [5.8987098, 49.7008386], [5.8988323, 49.7009541], [5.8989103, 49.7010274], [5.8989884, 49.7011153], [5.899079, 49.7012291], [5.8991486, 49.7013183], [5.8991992, 49.7013891], [5.899258, 49.7014778], [5.8993254, 49.7015696], [5.8993655, 49.7016182], [5.8994246, 49.7016851], [5.8994878, 49.7017412], [5.8995808, 49.7018252], [5.8996595, 49.701906], [5.8997047, 49.7019581], [5.8998419, 49.7020373], [5.8999353, 49.7020907], [5.9002139, 49.7022467], [5.9001999, 49.7022625], [5.900165, 49.7023019], [5.9000144, 49.7024772], [5.8998938, 49.7026158], [5.8997878, 49.7027507], [5.8996729, 49.7028946], [5.8995426, 49.7030089], [5.8993893, 49.7031404], [5.8992286, 49.7032768], [5.8989498, 49.7035248], [5.898815, 49.7036512], [5.8987446, 49.7037172], [5.8981282, 49.7037916], [5.8977573, 49.7038452], [5.8977709, 49.7038878], [5.8969924, 49.7040419], [5.8967101, 49.7040907], [5.8962954, 49.7041545], [5.8960191, 49.7041836], [5.8956658, 49.7042169], [5.8951499, 49.7042571], [5.8950116, 49.7042666], [5.8944201, 49.7042166], [5.8940019, 49.7041878], [5.893052, 49.7041306], [5.8928096, 49.7040994], [5.8926744, 49.7040802], [5.8925436, 49.7040616], [5.892468, 49.7040509], [5.8919586, 49.7039727], [5.891863, 49.7039575], [5.891696, 49.7039708], [5.8916146, 49.7039991], [5.8912562, 49.7041153], [5.8911419, 49.7041772], [5.8909487, 49.7042885], [5.89088, 49.7043143], [5.8907782, 49.7043644], [5.8906639, 49.7044218], [5.89059, 49.7044646], [5.8905015, 49.7045212], [5.8904092, 49.7045856], [5.8903379, 49.7046373], [5.8901987, 49.7047383], [5.8901619, 49.7047947], [5.8899645, 49.7049197], [5.8898423, 49.7050281], [5.8896995, 49.7051598], [5.8895188, 49.7054088], [5.8893344, 49.7056812], [5.889239, 49.706033], [5.8891804, 49.7062724], [5.8891326, 49.7064583], [5.889153, 49.7066548], [5.8891906, 49.706992], [5.8891402, 49.7073347], [5.8890776, 49.707612], [5.8887598, 49.7079666], [5.8884839, 49.708273], [5.8884289, 49.7083297], [5.888329, 49.7084032], [5.8882045, 49.7084935], [5.8880776, 49.7085795], [5.8880006, 49.7086339], [5.887932, 49.7086823], [5.887824, 49.7087591], [5.887796, 49.7087772], [5.8877497, 49.7088072], [5.8877207, 49.7088259], [5.8871336, 49.7091514], [5.8871108, 49.7091376], [5.8869269, 49.7092766], [5.8869531, 49.7092919], [5.886986, 49.709311], [5.8871518, 49.7094145], [5.8872875, 49.7094945], [5.887419, 49.7095667], [5.8875247, 49.7096247], [5.8876392, 49.7096927], [5.8878703, 49.70983], [5.8879172, 49.7098623], [5.8882854, 49.7100483], [5.888529, 49.7101696], [5.8886519, 49.7102234], [5.8887944, 49.7102699], [5.8890571, 49.7103449], [5.8893633, 49.7104267], [5.8895783, 49.7104508], [5.8898007, 49.7104706], [5.8900761, 49.7104679], [5.8903089, 49.7104593], [5.8904839, 49.7104488], [5.8907147, 49.7104268], [5.8910196, 49.7103891], [5.8912938, 49.7103647], [5.8914669, 49.7103517], [5.8916664, 49.7103447], [5.8917289, 49.7103426], [5.891897, 49.7103369], [5.8921298, 49.7103433], [5.8924458, 49.710354], [5.8927707, 49.7104417], [5.8932146, 49.710557], [5.8935203, 49.7107141], [5.8939229, 49.7109378], [5.8942686, 49.7111431], [5.8945959, 49.711332], [5.8946914, 49.7113996], [5.8948899, 49.7115564], [5.8950638, 49.7116927], [5.8951705, 49.711774], [5.8953044, 49.7118546], [5.8954202, 49.7119173], [5.8955703, 49.7119979], [5.8957773, 49.7120996], [5.8959271, 49.7121582], [5.8961328, 49.7122347], [5.8963563, 49.7123105], [5.8965323, 49.7123661], [5.8968976, 49.7124552], [5.8972389, 49.7125656], [5.8976241, 49.7126907], [5.897971, 49.7127626], [5.8982768, 49.7128225], [5.8986452, 49.7128827], [5.898985, 49.7127672], [5.899297, 49.7126182], [5.8995514, 49.7124804], [5.8998799, 49.7122964], [5.9001385, 49.7121521], [5.9003328, 49.7119704], [5.9003575, 49.7119473], [5.9002803, 49.7117404], [5.9002011, 49.7115134], [5.9001229, 49.71128], [5.9000535, 49.7111027], [5.8999908, 49.7109336], [5.8999462, 49.7108258], [5.8999724, 49.7108261], [5.9001902, 49.7108278], [5.9004335, 49.7108297], [5.9004494, 49.7108942], [5.9006371, 49.7108959], [5.9008509, 49.7108979], [5.9009794, 49.7108991], [5.9012003, 49.7109011], [5.9014022, 49.7109029], [5.901517, 49.7109039], [5.9017685, 49.7109062], [5.9021472, 49.7109099], [5.9026144, 49.7108981], [5.9031335, 49.7108849], [5.9040862, 49.7108393], [5.9049886, 49.7110411], [5.9060443, 49.7114386], [5.9066414, 49.7116302], [5.907352, 49.7118483], [5.9083469, 49.7119933], [5.9088642, 49.7115569], [5.9090357, 49.7114342], [5.9093365, 49.7112227], [5.9095234, 49.7110917], [5.9096954, 49.7109633], [5.9098209, 49.7108549], [5.9100631, 49.7106533], [5.910395, 49.7103648], [5.9103926, 49.7102164], [5.910435, 49.7102084], [5.910373, 49.7100107], [5.9102184, 49.7095692], [5.9100898, 49.7091686], [5.9100436, 49.7091762], [5.9099823, 49.7090805], [5.9099174, 49.7089743], [5.909858, 49.7088734], [5.9098204, 49.7087987], [5.9097903, 49.7087174], [5.9097742, 49.7086555], [5.9097584, 49.7085656], [5.9097513, 49.7084535], [5.9097485, 49.7083769], [5.9097512, 49.7083032], [5.9098091, 49.7082955], [5.909736, 49.7079656], [5.9097155, 49.7076512], [5.9097209, 49.7075634], [5.9097537, 49.7073988], [5.9097967, 49.7071479], [5.9098666, 49.7069392], [5.9099385, 49.7068077], [5.9101198, 49.7065915], [5.9109179, 49.7057455], [5.9112648, 49.7054204], [5.9117408, 49.7049359], [5.9119756, 49.7049416], [5.9120681, 49.7048705], [5.9121818, 49.7047887], [5.9122189, 49.7047602], [5.9122994, 49.7046985], [5.9123411, 49.7046625], [5.9123571, 49.7046487], [5.9124788, 49.7045437], [5.9126105, 49.7044203], [5.9126866, 49.7043467], [5.9128359, 49.704202], [5.9129235, 49.7041212], [5.9129816, 49.7040676], [5.913151, 49.7038984], [5.9134444, 49.7036102], [5.9137302, 49.7033308], [5.9139254, 49.7032917], [5.9145233, 49.7031821], [5.9146487, 49.703218], [5.91513, 49.7033372], [5.9152699, 49.7033781], [5.9154817, 49.7034444], [5.9159169, 49.7036274], [5.9161754, 49.7037551], [5.9163188, 49.7038652], [5.9164571, 49.7039761], [5.9165905, 49.7040946], [5.916615, 49.7041299], [5.9167212, 49.7043704], [5.9169283, 49.7043552], [5.9172305, 49.7043171], [5.9176462, 49.7042616], [5.9180046, 49.7041964], [5.9180572, 49.7041955], [5.9184446, 49.7042079], [5.9188433, 49.7042443], [5.9192646, 49.7043389], [5.9193942, 49.7043679], [5.9196423, 49.7043851], [5.9201886, 49.704403], [5.9206552, 49.7044207], [5.9211924, 49.7043507], [5.9216475, 49.7046352], [5.9217349, 49.704686], [5.9218075, 49.704752], [5.9220407, 49.7049545], [5.9221621, 49.7050504], [5.9224244, 49.7052048], [5.9224819, 49.7052405], [5.9225563, 49.7052846], [5.9225953, 49.7053056], [5.9226457, 49.7052677], [5.922687, 49.7052367], [5.9227605, 49.7051814], [5.922815, 49.7050364], [5.9228478, 49.7049183], [5.9227888, 49.704847], [5.922664, 49.7046856], [5.9226524, 49.704346], [5.9226522, 49.7043409], [5.9226489, 49.7043243], [5.9225928, 49.7040444], [5.9225762, 49.7039638], [5.9226585, 49.7037741], [5.9227556, 49.7035594], [5.9227615, 49.7035463], [5.9228616, 49.7034811], [5.9232971, 49.7031957], [5.9234431, 49.7030899], [5.9237207, 49.7028865], [5.9241321, 49.7027325], [5.9244854, 49.7026642], [5.9246205, 49.7026395], [5.9250326, 49.7027094], [5.9254754, 49.7028377], [5.9257787, 49.7029335], [5.9260532, 49.7030188], [5.9265713, 49.7032048], [5.9267362, 49.7032646], [5.9271654, 49.7034203], [5.9271991, 49.7034325], [5.9274557, 49.7035256], [5.927495, 49.7035399], [5.9277233, 49.7035994], [5.9281747, 49.7028585], [5.9289594, 49.7021072], [5.9290427, 49.7020275], [5.9291509, 49.7019239], [5.9293012, 49.7019541], [5.9293613, 49.701855], [5.929384, 49.70181], [5.9294033, 49.701767], [5.9294415, 49.701656], [5.929472, 49.701553], [5.9295025, 49.701405], [5.929636, 49.700893], [5.9297047, 49.700573], [5.9297237, 49.700474], [5.929743, 49.70042], [5.929762, 49.700382], [5.929842, 49.700294], [5.929899, 49.70025], [5.9299793, 49.700184], [5.930361, 49.699966], [5.9305553, 49.699856], [5.9307537, 49.69975], [5.9309635, 49.699635], [5.931177, 49.69952], [5.9314632, 49.699375], [5.931551, 49.699333], [5.9316387, 49.699295], [5.931711, 49.69927], [5.931799, 49.699234], [5.9319134, 49.699207], [5.9320965, 49.69918], [5.9322224, 49.69916], [5.9327374, 49.698956], [5.932852, 49.69891], [5.9328785, 49.6989], [5.933077, 49.698807], [5.933096, 49.698795], [5.9334545, 49.69861], [5.933672, 49.698494], [5.9336987, 49.698475], [5.9337444, 49.698452], [5.933943, 49.69834], [5.9340763, 49.69827], [5.9335537, 49.697453], [5.9335155, 49.6974], [5.933489, 49.697357], [5.933737, 49.697075], [5.9338055, 49.696995], [5.9338703, 49.696922], [5.933962, 49.696815], [5.934084, 49.69668], [5.9341373, 49.696613], [5.9342327, 49.696503], [5.9342594, 49.696476], [5.9344807, 49.696217], [5.934599, 49.69608], [5.9346104, 49.696064], [5.93466, 49.69599], [5.9347363, 49.695885], [5.9348125, 49.695766], [5.9349003, 49.695618], [5.9349384, 49.695557], [5.9350033, 49.695435], [5.9350376, 49.695366], [5.935087, 49.69528], [5.935171, 49.695126], [5.9352818, 49.69466], [5.9353466, 49.694427], [5.935438, 49.694035], [5.935442, 49.69402], [5.935568, 49.69383], [5.9356785, 49.69368], [5.9357357, 49.693607], [5.935747, 49.69359], [5.9359837, 49.69326], [5.9361973, 49.69297], [5.936247, 49.69291], [5.936262, 49.692883], [5.9363384, 49.692776], [5.9364758, 49.692593], [5.936575, 49.692455], [5.9366474, 49.69236], [5.9368496, 49.692078], [5.9368687, 49.692043], [5.936968, 49.69191], [5.937113, 49.69171], [5.937216, 49.691566], [5.9374317, 49.6903362], [5.9374459, 49.6902425], [5.9376163, 49.689247], [5.937704, 49.688705], [5.937784, 49.688267], [5.937853, 49.68797], [5.9378605, 49.687637], [5.9378757, 49.687496], [5.9379253, 49.687252], [5.937971, 49.687057], [5.93804, 49.686817], [5.938097, 49.686638], [5.9380016, 49.68651], [5.937948, 49.686424], [5.937872, 49.686264], [5.937811, 49.686172], [5.937708, 49.68604], [5.9376354, 49.68595], [5.9375935, 49.685905], [5.9374485, 49.68576], [5.937311, 49.68562], [5.937128, 49.685455], [5.937113, 49.685425], [5.9370785, 49.685352], [5.9370403, 49.685246], [5.9370174, 49.68516], [5.937006, 49.68507], [5.9370136, 49.684994], [5.937029, 49.684917], [5.937063, 49.68484], [5.937105, 49.68474], [5.9372387, 49.684376], [5.9373074, 49.684177], [5.937361, 49.68401], [5.9373837, 49.683937], [5.937437, 49.68382], [5.937498, 49.683693], [5.93762, 49.68349], [5.937708, 49.683334], [5.9377346, 49.683277], [5.9377728, 49.68323], [5.937788, 49.68321], [5.937811, 49.683186], [5.9378605, 49.683147], [5.9379215, 49.683105], [5.9379787, 49.683064], [5.938036, 49.68302], [5.9382496, 49.682842], [5.9383717, 49.682735], [5.938593, 49.68252], [5.938616, 49.682487], [5.9386425, 49.682446], [5.9386616, 49.682404], [5.9386806, 49.682373], [5.9387417, 49.682293], [5.938814, 49.68221], [5.9389133, 49.682114], [5.9390774, 49.681957], [5.939348, 49.68175], [5.9395237, 49.68162], [5.939913, 49.68131], [5.940092, 49.68117], [5.9401455, 49.68112], [5.9403841, 49.6809455], [5.940542, 49.68083], [5.9406605, 49.680737], [5.940775, 49.680653], [5.9409885, 49.68047], [5.9410915, 49.68037], [5.9411793, 49.68027], [5.9412327, 49.680187], [5.941454, 49.679867], [5.941656, 49.679592], [5.9418354, 49.679325], [5.941923, 49.679207], [5.9420185, 49.679092], [5.9420795, 49.67903], [5.9421825, 49.678944], [5.942419, 49.678745], [5.9425297, 49.678654], [5.94261, 49.6786], [5.9427013, 49.678562], [5.942766, 49.678547], [5.942827, 49.67853], [5.942953, 49.67852], [5.943117, 49.67852], [5.9435406, 49.678528], [5.943609, 49.67853], [5.9439373, 49.678528], [5.9441586, 49.678524], [5.9442216, 49.6785241]]]}}]}