{"type": "FeatureCollection", "features": [{"type": "Feature", "properties": {"name": "Colpach-Haut"}, "geometry": {"type": "Polygon", "coordinates": [[[5.8159716, 49.7622087], [5.8148761, 49.7628947], [5.8146614, 49.7630291], [5.814532, 49.7631101], [5.8144817, 49.7631458], [5.8143329, 49.7632411], [5.8138398, 49.763568], [5.8135496, 49.7637581], [5.8134093, 49.763849], [5.8132817, 49.7639317], [5.8129079, 49.7641775], [5.812796, 49.7642511], [5.8126334, 49.7643582], [5.8125105, 49.7644392], [5.8123755, 49.764528], [5.8121832, 49.7646526], [5.8119252, 49.7648197], [5.8116289, 49.7650124], [5.8114098, 49.765155], [5.8111139, 49.7653553], [5.8110437, 49.7653544], [5.8106473, 49.7653493], [5.8094456, 49.7653338], [5.8091146, 49.7660218], [5.8089774, 49.7663013], [5.8088515, 49.7665454], [5.808639, 49.7669877], [5.8086174, 49.7670236], [5.8086306, 49.7670838], [5.8086447, 49.7672005], [5.8086585, 49.7673315], [5.8086496, 49.7675339], [5.8086357, 49.7676556], [5.8086279, 49.7677082], [5.8086166, 49.7677333], [5.8086042, 49.7677588], [5.8085751, 49.767819], [5.8085299, 49.7678943], [5.8084363, 49.7679975], [5.8083819, 49.7680694], [5.8083275, 49.7681401], [5.8082861, 49.7682097], [5.8082466, 49.7682851], [5.8082031, 49.7683873], [5.8081821, 49.768457], [5.8081705, 49.7685233], [5.8081409, 49.7687594], [5.8081232, 49.7688954], [5.8080981, 49.7690211], [5.8080445, 49.7692365], [5.8079949, 49.7694056], [5.8079209, 49.7696163], [5.8078337, 49.7698568], [5.8078351, 49.7699174], [5.8078393, 49.7701027], [5.8078381, 49.7702736], [5.8078258, 49.77042], [5.8078157, 49.7705343], [5.8077962, 49.7706629], [5.8077689, 49.7708355], [5.8077475, 49.7709595], [5.807707, 49.7711721], [5.8076484, 49.7715064], [5.8078082, 49.7715168], [5.8080266, 49.7715289], [5.8082008, 49.7715237], [5.8084528, 49.7715051], [5.8087605, 49.7714639], [5.809237, 49.7713953], [5.8092392, 49.7714199], [5.8092306, 49.7714809], [5.8092117, 49.7715571], [5.8091909, 49.7716117], [5.8091318, 49.7717281], [5.8090597, 49.7718319], [5.8089623, 49.7719787], [5.80888, 49.7720925], [5.8092982, 49.7721297], [5.8096703, 49.7721639], [5.809933, 49.7722012], [5.8101119, 49.77224], [5.8103177, 49.7722956], [5.8105475, 49.772366], [5.8104296, 49.7724914], [5.8103379, 49.7725889], [5.8101593, 49.7727647], [5.8099627, 49.7729442], [5.8098796, 49.7730204], [5.8102379, 49.7730478], [5.8105313, 49.773067], [5.8107987, 49.7730792], [5.8111424, 49.7730774], [5.8117145, 49.7730929], [5.8119708, 49.7730988], [5.8126041, 49.7731248], [5.8129272, 49.7731349], [5.8130944, 49.7731394], [5.8134585, 49.7731406], [5.8135161, 49.7731396], [5.8131353, 49.7739046], [5.8131779, 49.7739099], [5.8133955, 49.773961], [5.813568, 49.7740015], [5.813641, 49.7740187], [5.8137102, 49.7740349], [5.8139253, 49.7740854], [5.8138829, 49.7743495], [5.8138359, 49.7746421], [5.8143762, 49.7746803], [5.8145971, 49.7747016], [5.8149272, 49.7747403], [5.8149831, 49.7747485], [5.8150485, 49.7746972], [5.8150902, 49.7747594], [5.8153046, 49.7747846], [5.8153135, 49.7747883], [5.8152872, 49.7748226], [5.8152405, 49.7748567], [5.8151845, 49.7748966], [5.8151676, 49.774916], [5.8151354, 49.7750028], [5.8151072, 49.7750496], [5.8150586, 49.7750975], [5.8150286, 49.7751317], [5.8150266, 49.7751523], [5.8150468, 49.7751826], [5.8150782, 49.7752045], [5.8151097, 49.7752137], [5.8151617, 49.7752196], [5.8152899, 49.77522], [5.8153233, 49.7752269], [5.8153492, 49.7752373], [5.8153714, 49.7752568], [5.8154063, 49.775313], [5.8154245, 49.7753588], [5.8154297, 49.7754125], [5.8154216, 49.7754556], [5.815437, 49.7754564], [5.8156634, 49.7754653], [5.8156797, 49.7755259], [5.8156994, 49.775622], [5.8157181, 49.775693], [5.8157302, 49.7757388], [5.8159921, 49.775735], [5.8159807, 49.77552], [5.8159721, 49.775425], [5.8159492, 49.7752517], [5.8159335, 49.7751121], [5.8159344, 49.7749898], [5.81595, 49.7748881], [5.8159731, 49.7747766], [5.8163075, 49.7747916], [5.816495, 49.7747999], [5.8164892, 49.7750094], [5.8164799, 49.7753425], [5.8164853, 49.7755594], [5.8164871, 49.7756324], [5.8167908, 49.7755287], [5.8169122, 49.7754872], [5.817124, 49.7754148], [5.8171591, 49.775193], [5.8173556, 49.7751236], [5.8175297, 49.7750621], [5.8179208, 49.7749329], [5.8181678, 49.7749399], [5.8187325, 49.7749473], [5.8189182, 49.7749559], [5.8190017, 49.7749687], [5.8191001, 49.7749862], [5.8192725, 49.7750284], [5.819432, 49.7750724], [5.819673, 49.7751428], [5.8198491, 49.775196], [5.8200327, 49.7752446], [5.8202423, 49.7752972], [5.8204834, 49.7753517], [5.8207227, 49.7753981], [5.8209398, 49.7754365], [5.8211885, 49.7754693], [5.8213018, 49.7754839], [5.8213734, 49.7754998], [5.8214471, 49.775499], [5.8215184, 49.7755824], [5.8216416, 49.7757968], [5.8216762, 49.7758745], [5.8217411, 49.776027], [5.8218213, 49.776024], [5.8228648, 49.7760116], [5.8229347, 49.7759034], [5.8230039, 49.7759981], [5.8234656, 49.7761768], [5.8239345, 49.7763539], [5.8240481, 49.7761116], [5.8241313, 49.775934], [5.8242005, 49.7757865], [5.824219, 49.775758], [5.8242653, 49.7756382], [5.824303, 49.7755136], [5.8243527, 49.775339], [5.8242352, 49.7752942], [5.8240445, 49.7752215], [5.8241252, 49.7750696], [5.8242306, 49.7747969], [5.8243068, 49.7745975], [5.8243482, 49.7744688], [5.8243904, 49.7743029], [5.8244129, 49.7741952], [5.8244268, 49.774057], [5.8244312, 49.7739316], [5.8244121, 49.7736128], [5.8244105, 49.7736015], [5.8245804, 49.7736008], [5.8246931, 49.7736004], [5.824839, 49.7736307], [5.8250307, 49.7732964], [5.8252022, 49.7730519], [5.8253681, 49.7727087], [5.8254848, 49.7724803], [5.8256648, 49.7722126], [5.8259214, 49.7719189], [5.826073, 49.7717523], [5.8261892, 49.7716143], [5.8262999, 49.7714551], [5.8264688, 49.7712138], [5.8265814, 49.771054], [5.8268306, 49.77075], [5.8272034, 49.7702954], [5.8275143, 49.7699392], [5.8275348, 49.7698926], [5.8278003, 49.7696761], [5.8279553, 49.7695542], [5.828099, 49.7694546], [5.828362, 49.7692976], [5.8286025, 49.7691759], [5.8285786, 49.7691554], [5.8284248, 49.7690406], [5.8283715, 49.7690008], [5.8282514, 49.768917], [5.8281154, 49.7688305], [5.8281016, 49.7688216], [5.8279869, 49.7687493], [5.828509, 49.7684843], [5.8290254, 49.7682143], [5.8288902, 49.7681475], [5.8299602, 49.7676075], [5.8295147, 49.7674475], [5.8292713, 49.7673601], [5.8291542, 49.7673181], [5.8296832, 49.766837], [5.8299692, 49.7665783], [5.8300718, 49.7664879], [5.8302516, 49.7663162], [5.8303412, 49.7662306], [5.8305898, 49.7659827], [5.8306648, 49.7659079], [5.830795, 49.7657779], [5.8306321, 49.7657342], [5.8296879, 49.7654811], [5.8294152, 49.7658212], [5.8291385, 49.7661892], [5.8290152, 49.7663468], [5.8287557, 49.7662617], [5.8287104, 49.7662445], [5.8285406, 49.7664625], [5.8284955, 49.766444], [5.8283713, 49.7663984], [5.8281728, 49.7663254], [5.8281306, 49.76631], [5.8280375, 49.7662758], [5.8278843, 49.7662195], [5.827859, 49.7662102], [5.8277745, 49.7661793], [5.8276777, 49.7661438], [5.8274701, 49.7660676], [5.8274264, 49.7660516], [5.8273011, 49.7660057], [5.8272638, 49.765992], [5.8271526, 49.7659512], [5.8271349, 49.7659448], [5.8268882, 49.7658887], [5.8268576, 49.7658818], [5.8267474, 49.7658647], [5.8264543, 49.7658191], [5.826345, 49.7657993], [5.8263193, 49.7657947], [5.8261084, 49.7657667], [5.8259856, 49.7658496], [5.825971, 49.7658443], [5.8258557, 49.7658026], [5.825317, 49.7656076], [5.8247935, 49.7660433], [5.8244116, 49.7663593], [5.824028, 49.7666767], [5.8235455, 49.7670771], [5.8233403, 49.7669913], [5.8231697, 49.76692], [5.8228439, 49.7667837], [5.8227895, 49.7667614], [5.8225946, 49.7666815], [5.822738, 49.7665754], [5.8228814, 49.7664584], [5.8229876, 49.7663686], [5.8231646, 49.7662067], [5.8233157, 49.7660612], [5.8234777, 49.7659237], [5.8235185, 49.7658971], [5.8236508, 49.7658108], [5.8237345, 49.7657472], [5.8238202, 49.7656779], [5.8239414, 49.7655699], [5.8241184, 49.7654165], [5.8243637, 49.7652867], [5.8244493, 49.7652254], [5.8244754, 49.7651993], [5.8245298, 49.7651088], [5.8245804, 49.7650143], [5.8246123, 49.7649551], [5.8246336, 49.7648932], [5.8244642, 49.7648373], [5.8242348, 49.7647616], [5.824199, 49.7647464], [5.8241045, 49.7647564], [5.8238657, 49.7647523], [5.8237935, 49.7647486], [5.8237434, 49.7647553], [5.8237063, 49.7647712], [5.82363, 49.7648222], [5.8236323, 49.7647915], [5.8236175, 49.7645258], [5.8232139, 49.7645234], [5.823219, 49.7648461], [5.8225534, 49.7646604], [5.8225564, 49.7646178], [5.8226305, 49.7645441], [5.8226677, 49.7645114], [5.8227299, 49.7644504], [5.8227564, 49.7644194], [5.8227771, 49.7643797], [5.8227801, 49.7643687], [5.8227939, 49.7643268], [5.8228132, 49.7642655], [5.8228486, 49.7641773], [5.8228508, 49.7641719], [5.8228593, 49.7640295], [5.8228696, 49.7639845], [5.8228943, 49.7639432], [5.8229009, 49.7639333], [5.8229052, 49.7639237], [5.822926, 49.7638767], [5.8229303, 49.7638324], [5.8229406, 49.7637678], [5.8229792, 49.7636986], [5.8230051, 49.7636445], [5.822493, 49.7635381], [5.8223715, 49.763552], [5.8222782, 49.7636735], [5.8221519, 49.7638151], [5.8221207, 49.7638086], [5.8221071, 49.7638052], [5.8215252, 49.7636756], [5.8210059, 49.7635291], [5.8207242, 49.7634496], [5.8204807, 49.7633797], [5.8202182, 49.7633044], [5.8193784, 49.7630635], [5.8192066, 49.7630142], [5.8190709, 49.7629753], [5.8188815, 49.7633713], [5.8187912, 49.7635637], [5.8186746, 49.7638136], [5.8186013, 49.7639695], [5.8184588, 49.7642137], [5.8183819, 49.7643457], [5.8182865, 49.7644845], [5.8177174, 49.7643192], [5.8178725, 49.7641121], [5.8179418, 49.7640035], [5.8180429, 49.7638464], [5.8181122, 49.7637383], [5.8181782, 49.7635783], [5.8182065, 49.7635032], [5.8182501, 49.7633665], [5.8183293, 49.7630666], [5.81811, 49.7630178], [5.8181494, 49.7628841], [5.8181917, 49.7626849], [5.8182488, 49.7623803], [5.8182929, 49.7621105], [5.8181862, 49.7621144], [5.818102, 49.7621173], [5.8179444, 49.7621227], [5.8177549, 49.7621293], [5.8175284, 49.7621377], [5.8171579, 49.7621516], [5.8169913, 49.7621595], [5.8166369, 49.7621768], [5.8160679, 49.7622041], [5.8159716, 49.7622087]]]}}]}