{"type": "FeatureCollection", "features": [{"type": "Feature", "properties": {"name": "Bettborn"}, "geometry": {"type": "Polygon", "coordinates": [[[5.9446438, 49.7995416], [5.9446058, 49.7994744], [5.9446153, 49.7993971], [5.9446033, 49.7987886], [5.944588, 49.7987349], [5.9445517, 49.7986778], [5.9444467, 49.7985314], [5.9441931, 49.7982824], [5.9440275, 49.7981217], [5.9439448, 49.7980322], [5.943864, 49.7980445], [5.9437391, 49.7980288], [5.9437776, 49.7978924], [5.9439019, 49.7976269], [5.9439483, 49.7974899], [5.9439921, 49.7974606], [5.9440635, 49.7972948], [5.9441291, 49.7971425], [5.9441341, 49.7971308], [5.9441864, 49.7970093], [5.9442233, 49.7969237], [5.9434902, 49.7967423], [5.9435532, 49.7965199], [5.9435741, 49.7964463], [5.9435989, 49.7963588], [5.9436286, 49.7962541], [5.9438053, 49.7962716], [5.9438224, 49.7961985], [5.9438366, 49.7961207], [5.9438405, 49.7960889], [5.943874, 49.7959299], [5.9424768, 49.7958581], [5.9424722, 49.7955541], [5.9424727, 49.7954882], [5.942057, 49.7954842], [5.941824, 49.7954775], [5.9416447, 49.7954686], [5.941462, 49.795451], [5.9414857, 49.795368], [5.9414718, 49.7953664], [5.9415241, 49.7951523], [5.9418756, 49.7951693], [5.942147, 49.7951905], [5.9422066, 49.7951953], [5.9426192, 49.7952281], [5.9426633, 49.7952316], [5.9430486, 49.7952623], [5.9432212, 49.795276], [5.9432813, 49.7952808], [5.9433167, 49.7949952], [5.9433271, 49.7949513], [5.943408, 49.7946713], [5.9427074, 49.7946432], [5.9427216, 49.7945873], [5.943179, 49.7944851], [5.9435377, 49.7944186], [5.943815, 49.7943863], [5.9440315, 49.7943673], [5.9442466, 49.7943614], [5.9443447, 49.7943611], [5.9444894, 49.7943029], [5.9446016, 49.7940775], [5.9446193, 49.7940419], [5.9446462, 49.7939923], [5.9447192, 49.7938387], [5.9447372, 49.7938005], [5.9447759, 49.7937186], [5.9448216, 49.7936219], [5.9448948, 49.7935145], [5.9449176, 49.793481], [5.9449501, 49.7934334], [5.9449901, 49.7933747], [5.9450755, 49.7932554], [5.9450975, 49.7932247], [5.9450994, 49.7932224], [5.9451781, 49.7931263], [5.9452175, 49.7930892], [5.9452822, 49.7930288], [5.9452966, 49.7930154], [5.9454588, 49.7928637], [5.9455181, 49.792807], [5.9454402, 49.7927761], [5.9453661, 49.7927475], [5.9452561, 49.7927055], [5.9445476, 49.7923538], [5.9444067, 49.7922781], [5.9443632, 49.7922548], [5.9443097, 49.792226], [5.9442757, 49.7922078], [5.944095, 49.7920802], [5.9437826, 49.7918098], [5.9436776, 49.7918359], [5.943494, 49.7915913], [5.9433375, 49.7913828], [5.9437987, 49.7913147], [5.9437128, 49.7911307], [5.943524, 49.7907261], [5.9434663, 49.790599], [5.9433325, 49.7903041], [5.9432279, 49.7900738], [5.9434546, 49.790067], [5.9435532, 49.790069], [5.9436104, 49.7897038], [5.943626, 49.7895794], [5.9436491, 49.7893961], [5.9436584, 49.7893222], [5.9436722, 49.7892117], [5.9437037, 49.7889592], [5.9437176, 49.7888481], [5.9441831, 49.7888568], [5.9446685, 49.7888658], [5.9448089, 49.7888713], [5.9448396, 49.7888725], [5.9449181, 49.7888799], [5.945009, 49.7888901], [5.9451184, 49.7889048], [5.9452324, 49.7889268], [5.9453136, 49.7886805], [5.9453535, 49.7885625], [5.9454324, 49.788329], [5.9454782, 49.7881967], [5.9455581, 49.7879659], [5.9456259, 49.7877703], [5.9457046, 49.7875429], [5.9457135, 49.7875209], [5.9459982, 49.7876176], [5.946751, 49.7878047], [5.9471328, 49.7879025], [5.9483336, 49.7882329], [5.9491741, 49.7884555], [5.9492988, 49.7884898], [5.9494297, 49.7885172], [5.9494119, 49.7884907], [5.9493327, 49.7884208], [5.949178, 49.7882844], [5.9490153, 49.7881398], [5.9489125, 49.7880456], [5.9487375, 49.7878756], [5.9485405, 49.7876838], [5.948469, 49.7876141], [5.9482987, 49.7874414], [5.9482282, 49.7873634], [5.9481438, 49.78727], [5.947969, 49.7870546], [5.9478296, 49.7868705], [5.9476382, 49.7865951], [5.9475433, 49.786442], [5.9477301, 49.7863478], [5.9477577, 49.7863339], [5.948084, 49.7861694], [5.9486509, 49.785895], [5.9484651, 49.7857449], [5.9482578, 49.7855616], [5.9481719, 49.7854743], [5.9480201, 49.7853057], [5.9479327, 49.7852038], [5.9478705, 49.7851258], [5.9477993, 49.7850366], [5.9476798, 49.7848898], [5.9475847, 49.7847888], [5.9475398, 49.7847492], [5.9475033, 49.784717], [5.9474527, 49.7846779], [5.9473897, 49.7846292], [5.9471684, 49.7844754], [5.9468242, 49.7842473], [5.9466168, 49.7841044], [5.9464063, 49.7839568], [5.9465177, 49.7838487], [5.9465938, 49.7837747], [5.9466693, 49.7837014], [5.9467556, 49.7836175], [5.9468149, 49.7835599], [5.9452842, 49.7830076], [5.9440416, 49.7825514], [5.9442554, 49.7824166], [5.9445566, 49.7822268], [5.9446969, 49.7821384], [5.9448262, 49.7820559], [5.9449236, 49.7819937], [5.9451707, 49.7818362], [5.9452948, 49.7817571], [5.9455461, 49.7815985], [5.9455726, 49.781569], [5.945273, 49.7814635], [5.9443745, 49.781116], [5.9437679, 49.7808913], [5.9429145, 49.7805974], [5.9426876, 49.7805121], [5.9424199, 49.7804054], [5.9421629, 49.7802778], [5.941971, 49.7801614], [5.9417157, 49.7799922], [5.9414768, 49.7798833], [5.9402169, 49.7793824], [5.9400399, 49.7793116], [5.9399354, 49.7792962], [5.9392853, 49.7793132], [5.9390625, 49.7793199], [5.9385974, 49.7793016], [5.9384199, 49.779288], [5.9383757, 49.7792847], [5.9383338, 49.7792815], [5.9377917, 49.7792184], [5.9374707, 49.7791669], [5.9368651, 49.779051], [5.9359601, 49.778814], [5.9352957, 49.778644], [5.935229, 49.778623], [5.9351053, 49.7785841], [5.9350855, 49.7785778], [5.9350583, 49.7785787], [5.9349962, 49.7785733], [5.9349074, 49.7785784], [5.9346741, 49.7786151], [5.9344542, 49.7786578], [5.9342251, 49.7787397], [5.934106, 49.7787805], [5.9339895, 49.7788203], [5.9338226, 49.7789069], [5.9334695, 49.7789363], [5.9332391, 49.7788456], [5.9330173, 49.7788125], [5.9329421, 49.7787457], [5.9327519, 49.7787341], [5.932708, 49.7787971], [5.9325034, 49.7790055], [5.9324916, 49.7790176], [5.9324198, 49.7790907], [5.9324029, 49.7791079], [5.9322951, 49.7792178], [5.9325579, 49.7792081], [5.9327466, 49.7792073], [5.9330216, 49.7792124], [5.933383, 49.7792269], [5.9333403, 49.7793785], [5.9332189, 49.7798093], [5.9332018, 49.7798698], [5.9331832, 49.7799302], [5.9330317, 49.7799071], [5.9330053, 49.7799571], [5.9329999, 49.7799701], [5.9329975, 49.7799761], [5.9329563, 49.7800768], [5.9329016, 49.7802106], [5.9316086, 49.7799915], [5.9315783, 49.7799864], [5.9314978, 49.779974], [5.9312797, 49.7798403], [5.9312664, 49.7798715], [5.9311587, 49.7801284], [5.9311203, 49.7802152], [5.9310658, 49.7803248], [5.9309888, 49.7804556], [5.9309496, 49.7805221], [5.9312889, 49.7806551], [5.9312722, 49.7807715], [5.9312255, 49.7810981], [5.9312194, 49.7811408], [5.9311637, 49.7815046], [5.931117, 49.7818013], [5.9310729, 49.782128], [5.9315665, 49.7822069], [5.931873, 49.7822692], [5.9321778, 49.7823361], [5.9321225, 49.7824648], [5.9319263, 49.7829217], [5.9315476, 49.7828364], [5.9312992, 49.7827913], [5.9311036, 49.7827589], [5.9308551, 49.7827276], [5.9306065, 49.7827134], [5.9302786, 49.7826956], [5.9302543, 49.7828985], [5.9302301, 49.7831006], [5.9302136, 49.7832384], [5.9301694, 49.7836076], [5.9296812, 49.7835621], [5.9289867, 49.7835024], [5.9285495, 49.7834661], [5.9278955, 49.7834133], [5.9276893, 49.7833957], [5.9274724, 49.783385], [5.9266401, 49.7833787], [5.926587, 49.7835427], [5.9265719, 49.7835896], [5.9265503, 49.7836563], [5.9265299, 49.7837193], [5.9265045, 49.7837978], [5.9264879, 49.7838491], [5.9264322, 49.7840158], [5.9264047, 49.7840983], [5.9263635, 49.7842214], [5.9263357, 49.7843047], [5.9260096, 49.7842846], [5.9259859, 49.7844456], [5.9259586, 49.7846033], [5.9259422, 49.7847095], [5.9246168, 49.7845708], [5.924, 49.7845083], [5.9237989, 49.7844879], [5.9237394, 49.7846166], [5.9237187, 49.7846614], [5.9236775, 49.7847747], [5.9236271, 49.7849134], [5.9236025, 49.7849811], [5.9235795, 49.7850477], [5.9235596, 49.7851053], [5.9235434, 49.7851524], [5.9235088, 49.7852926], [5.923466, 49.7854664], [5.9229106, 49.7854469], [5.922692, 49.7854316], [5.9224329, 49.7854094], [5.9222019, 49.7853895], [5.9220451, 49.7853848], [5.9218458, 49.7853867], [5.9216571, 49.7853874], [5.9215443, 49.785378], [5.9213945, 49.785356], [5.9212497, 49.7853246], [5.9212493, 49.7853433], [5.9212525, 49.7853632], [5.9212295, 49.7855556], [5.920709, 49.7856059], [5.9207327, 49.7857331], [5.920757, 49.7858637], [5.9212773, 49.7858522], [5.9212713, 49.7859441], [5.9212563, 49.7861696], [5.9212435, 49.7863628], [5.9212411, 49.7863988], [5.9209042, 49.786405], [5.9206449, 49.7864096], [5.9203715, 49.7864307], [5.9201925, 49.7864515], [5.9201597, 49.7864554], [5.9199409, 49.7864823], [5.9197856, 49.786502], [5.9195015, 49.7865402], [5.9195174, 49.7866004], [5.918908, 49.786718], [5.9183536, 49.786842], [5.9179051, 49.7869507], [5.9173894, 49.7870878], [5.9170557, 49.7871779], [5.9168419, 49.7872472], [5.9166493, 49.7873153], [5.9164549, 49.787388], [5.9162694, 49.7874602], [5.916052, 49.7875477], [5.9158099, 49.7876545], [5.9156843, 49.7877154], [5.9155482, 49.7877814], [5.9152105, 49.7879463], [5.9148889, 49.7880979], [5.9146964, 49.7881887], [5.9145082, 49.7882774], [5.9140862, 49.7884764], [5.9143282, 49.7886816], [5.914431, 49.7887688], [5.9144645, 49.7887971], [5.9145424, 49.7888632], [5.9145795, 49.7888946], [5.9148744, 49.7888062], [5.9150087, 49.7889308], [5.9151465, 49.7890587], [5.9146148, 49.7892278], [5.9140388, 49.7894173], [5.9135228, 49.7896087], [5.9130934, 49.7897746], [5.9124059, 49.7900444], [5.9123705, 49.7900603], [5.9125871, 49.7901271], [5.912765, 49.7901766], [5.9127385, 49.7901903], [5.9127031, 49.7902056], [5.9124796, 49.7903026], [5.9123796, 49.790346], [5.9120825, 49.7905036], [5.9119356, 49.790597], [5.9117939, 49.7907178], [5.9116999, 49.7908118], [5.9116655, 49.7908567], [5.9116394, 49.7908907], [5.9115875, 49.7910504], [5.9116066, 49.7911699], [5.9116701, 49.7913094], [5.9117225, 49.7914196], [5.9117368, 49.7914495], [5.9118156, 49.7916153], [5.9118625, 49.7917468], [5.9118776, 49.7918994], [5.9118696, 49.792073], [5.9118424, 49.7922232], [5.9117997, 49.7923031], [5.9116984, 49.7924445], [5.9116166, 49.7925718], [5.9115898, 49.7926288], [5.9115718, 49.7926951], [5.9115296, 49.7928244], [5.9114599, 49.7930378], [5.9114445, 49.793085], [5.9113667, 49.7935192], [5.9113537, 49.7935916], [5.9112531, 49.7939698], [5.9112439, 49.7940044], [5.9112043, 49.7941459], [5.9111846, 49.7941973], [5.9111422, 49.7943101], [5.9110291, 49.7945946], [5.9109898, 49.7946893], [5.9109487, 49.7947886], [5.9108754, 49.7949701], [5.9107968, 49.7951562], [5.9112408, 49.7952532], [5.9104773, 49.795826], [5.9102615, 49.7959879], [5.9101771, 49.7959443], [5.910051, 49.7961006], [5.9099078, 49.796238], [5.90945, 49.7966774], [5.9093206, 49.7967925], [5.9093261, 49.7967571], [5.9093086, 49.7967148], [5.9092736, 49.7966679], [5.9092, 49.7965854], [5.9091034, 49.7964995], [5.9089997, 49.7964262], [5.9089066, 49.7963666], [5.9088344, 49.796331], [5.9087605, 49.7962988], [5.9086499, 49.7963578], [5.9084916, 49.7964422], [5.9084439, 49.7964663], [5.9082219, 49.7965754], [5.9081558, 49.7966079], [5.9080344, 49.7966675], [5.9079711, 49.7966986], [5.9079646, 49.7967018], [5.9077134, 49.796828], [5.9074301, 49.7969683], [5.9069347, 49.7972135], [5.9068769, 49.7972421], [5.9065508, 49.7973794], [5.906518, 49.7973932], [5.9060937, 49.7975637], [5.9060536, 49.7975806], [5.9059033, 49.7976443], [5.9057628, 49.7977037], [5.9054413, 49.7978398], [5.9053125, 49.7978418], [5.9050468, 49.797719], [5.904466, 49.7974834], [5.9042934, 49.7977675], [5.9040968, 49.7980868], [5.9039423, 49.7983376], [5.9038591, 49.7984727], [5.9037359, 49.798674], [5.9035548, 49.7989701], [5.9033359, 49.7993238], [5.9030958, 49.7996855], [5.902843, 49.8000985], [5.9024337, 49.8007626], [5.9022628, 49.8010409], [5.9020464, 49.801399], [5.9019364, 49.8015809], [5.9021573, 49.8015981], [5.903616, 49.8017117], [5.9039487, 49.801742], [5.9041389, 49.8017593], [5.9041119, 49.8020041], [5.9041003, 49.8021926], [5.9041006, 49.8022098], [5.9041022, 49.8023035], [5.9041026, 49.8023304], [5.9041029, 49.802348], [5.9041026, 49.8024746], [5.9041023, 49.8025518], [5.9041021, 49.802627], [5.9041019, 49.8026903], [5.9052489, 49.8027343], [5.9059729, 49.8027562], [5.9061407, 49.8027513], [5.9066529, 49.8027427], [5.9066693, 49.8027424], [5.9071501, 49.8027224], [5.9077232, 49.8026924], [5.9079431, 49.8026758], [5.9080142, 49.8026648], [5.9080459, 49.8026599], [5.9080751, 49.8026399], [5.9081324, 49.8026006], [5.908166, 49.8025776], [5.9082081, 49.8025471], [5.9082583, 49.8025106], [5.9083292, 49.8024592], [5.9083714, 49.8024329], [5.908381, 49.8024269], [5.9084759, 49.8023679], [5.9085549, 49.8023266], [5.908583, 49.802312], [5.9087332, 49.8022335], [5.9088854, 49.8021569], [5.9089482, 49.8021253], [5.9090825, 49.8020577], [5.9093926, 49.8019017], [5.9094157, 49.8018886], [5.9098639, 49.8022149], [5.9100573, 49.8023502], [5.9101477, 49.8024008], [5.9106, 49.8025921], [5.910615, 49.8025725], [5.910623, 49.8025608], [5.9106965, 49.8024534], [5.910743, 49.8023821], [5.9107706, 49.8023397], [5.9110367, 49.8023272], [5.9112762, 49.8023227], [5.9115345, 49.8023213], [5.911726, 49.8023298], [5.912074, 49.8023426], [5.912102, 49.8022039], [5.9121144, 49.8021423], [5.9123879, 49.8021822], [5.9126716, 49.8022271], [5.9129647, 49.8022811], [5.913855, 49.8024452], [5.9141925, 49.8025124], [5.9141232, 49.8026703], [5.9148258, 49.8027585], [5.915854, 49.8028866], [5.916299, 49.8030114], [5.916627, 49.8030927], [5.916955, 49.8031679], [5.9171874, 49.8032097], [5.917419, 49.8032414], [5.9175592, 49.8032558], [5.9177251, 49.8032672], [5.9179098, 49.8032757], [5.9180825, 49.8032801], [5.9182382, 49.8032784], [5.9184546, 49.8032718], [5.9185954, 49.8032515], [5.9185538, 49.8030806], [5.9185346, 49.8030021], [5.9186879, 49.8029682], [5.918885, 49.8029062], [5.9191283, 49.8028191], [5.9192466, 49.802764], [5.9193564, 49.8027048], [5.9194139, 49.8026667], [5.9195152, 49.8025873], [5.9195822, 49.802524], [5.919627, 49.8024708], [5.9197028, 49.8023662], [5.919754, 49.8022869], [5.9198502, 49.8021379], [5.9201649, 49.8016371], [5.9202778, 49.8014652], [5.9203777, 49.8013305], [5.9204465, 49.8012521], [5.9205033, 49.8011918], [5.9206261, 49.8010783], [5.9208151, 49.8009246], [5.9208966, 49.8008613], [5.9208473, 49.8008129], [5.9209706, 49.8007576], [5.9210238, 49.8007337], [5.9211438, 49.8006866], [5.9212757, 49.8006446], [5.9213956, 49.8006257], [5.9214794, 49.8006159], [5.9214884, 49.8006155], [5.9216231, 49.8006101], [5.9219549, 49.8006159], [5.9221627, 49.8006183], [5.9223817, 49.8006097], [5.9225973, 49.8005971], [5.9228129, 49.8005714], [5.9230766, 49.8005236], [5.9233121, 49.8004626], [5.9233546, 49.800506], [5.9234746, 49.8004529], [5.9236049, 49.8003918], [5.9237849, 49.8003005], [5.923929, 49.8002192], [5.9240123, 49.8001691], [5.9240861, 49.8001098], [5.9241292, 49.8000676], [5.9241548, 49.8000425], [5.9242306, 49.799948], [5.9242875, 49.7998676], [5.9243253, 49.7998143], [5.9243821, 49.7997104], [5.9244056, 49.7996674], [5.924501, 49.7994651], [5.924537, 49.7993888], [5.9245565, 49.7993476], [5.9245862, 49.7992852], [5.9246156, 49.7992157], [5.9246414, 49.7991701], [5.9246553, 49.7991453], [5.9246915, 49.7990971], [5.9247636, 49.7990398], [5.9248125, 49.7990128], [5.9249445, 49.7989496], [5.9252803, 49.7988476], [5.9257006, 49.7987266], [5.9259543, 49.7986536], [5.9265983, 49.7984606], [5.9271667, 49.7982708], [5.9271767, 49.7982821], [5.9272462, 49.7983603], [5.9272736, 49.798391], [5.9274231, 49.7983747], [5.9275839, 49.798369], [5.927772, 49.7983734], [5.9279721, 49.7983879], [5.9281019, 49.7984094], [5.9282933, 49.79845], [5.9284761, 49.7984967], [5.9286212, 49.7985434], [5.9287079, 49.7985801], [5.9287453, 49.798596], [5.9289051, 49.7985653], [5.9290983, 49.7985338], [5.9292496, 49.7985072], [5.9296075, 49.7984652], [5.9296117, 49.7984793], [5.9296617, 49.7986304], [5.9296751, 49.7986708], [5.929697, 49.798737], [5.9299737, 49.7986886], [5.9302464, 49.798639], [5.9304457, 49.7985978], [5.930569, 49.7985723], [5.9308354, 49.7985104], [5.9309974, 49.7984658], [5.9310249, 49.7984582], [5.9311131, 49.7982699], [5.9314091, 49.7982968], [5.9318102, 49.7983334], [5.9321427, 49.7983637], [5.9323632, 49.7979856], [5.9325968, 49.7975849], [5.9328919, 49.7975968], [5.9329793, 49.7976003], [5.9329966, 49.797601], [5.9331261, 49.7976062], [5.9332693, 49.797612], [5.933483, 49.7976206], [5.9336286, 49.7976265], [5.9339091, 49.7976378], [5.9340363, 49.7976429], [5.9340507, 49.7976784], [5.9340567, 49.7977348], [5.9340544, 49.7977678], [5.9340355, 49.7978106], [5.9340019, 49.7978803], [5.9339914, 49.7979109], [5.9339871, 49.7979427], [5.9340317, 49.7979435], [5.9340661, 49.797944], [5.9344985, 49.7979511], [5.9344953, 49.7979902], [5.9344864, 49.798098], [5.9344733, 49.7982155], [5.934456, 49.7983586], [5.9353678, 49.7983519], [5.9355411, 49.7983506], [5.9355653, 49.7983487], [5.9356217, 49.7982827], [5.9357012, 49.7981837], [5.9357577, 49.7981079], [5.9357792, 49.7980721], [5.9358037, 49.7980779], [5.9365649, 49.7982096], [5.9366409, 49.7982227], [5.9368824, 49.7982625], [5.9369669, 49.798276], [5.937123, 49.7983009], [5.93725, 49.7983212], [5.9372602, 49.7983663], [5.9372846, 49.7984732], [5.937302, 49.7985498], [5.9376104, 49.7985322], [5.9376204, 49.7986055], [5.9376395, 49.7986074], [5.937722, 49.7986156], [5.937806, 49.7986239], [5.9378603, 49.7983266], [5.9382373, 49.7983544], [5.9382463, 49.7983551], [5.9383031, 49.7984509], [5.9384116, 49.7984566], [5.9385453, 49.7984501], [5.9393994, 49.7985646], [5.9397354, 49.7986099], [5.9399706, 49.7986493], [5.9399835, 49.7986512], [5.9400919, 49.798667], [5.9402192, 49.7986916], [5.9402608, 49.7986997], [5.9404079, 49.7987283], [5.9406357, 49.7987725], [5.9407762, 49.7987998], [5.9408614, 49.7988163], [5.9409311, 49.7988292], [5.9409907, 49.7988403], [5.9411561, 49.7988709], [5.9414227, 49.7989304], [5.9417159, 49.799041], [5.9417591, 49.7990558], [5.9418773, 49.7990962], [5.9419209, 49.7991088], [5.9421012, 49.7991675], [5.9421487, 49.7991801], [5.942305, 49.7992221], [5.9423278, 49.799229], [5.9423449, 49.7992341], [5.9424908, 49.7992779], [5.9428075, 49.799379], [5.9433686, 49.7995739], [5.9433056, 49.7993398], [5.9443203, 49.799716], [5.9443627, 49.7997318], [5.9446053, 49.7995293], [5.9446438, 49.7995416]]]}}]}