{"type": "FeatureCollection", "features": [{"type": "Feature", "properties": {"name": "Pratz"}, "geometry": {"type": "Polygon", "coordinates": [[[5.9524926, 49.8115015], [5.9520092, 49.8111995], [5.9520876, 49.8111547], [5.9521178, 49.8111475], [5.9521659, 49.811135], [5.952253, 49.8111247], [5.9522814, 49.8111164], [5.9523135, 49.8110987], [5.9523777, 49.8110496], [5.9524347, 49.8110152], [5.9525415, 49.8109704], [5.9527764, 49.8108851], [5.9528423, 49.8108539], [5.9528726, 49.810833], [5.952919, 49.8107871], [5.9530065, 49.8106921], [5.9530528, 49.8106503], [5.9531313, 49.810593], [5.9532257, 49.8105429], [5.9530928, 49.8104444], [5.9529521, 49.8105194], [5.9528239, 49.8105913], [5.9527241, 49.810656], [5.9526724, 49.8106873], [5.9526226, 49.810707], [5.9525692, 49.8107205], [5.9524857, 49.810734], [5.9523541, 49.8107515], [5.9522581, 49.8107723], [5.9522332, 49.8107816], [5.9521869, 49.8108004], [5.9521263, 49.8108389], [5.9520711, 49.8108702], [5.952007, 49.8108942], [5.9519554, 49.8109087], [5.9519074, 49.8109191], [5.9518149, 49.8109398], [5.9517668, 49.8109606], [5.9517134, 49.810993], [5.9516652, 49.8110305], [5.9516278, 49.8110556], [5.9515887, 49.8110701], [5.9515389, 49.8110784], [5.9515034, 49.8110752], [5.9514555, 49.811051], [5.9513668, 49.8110101], [5.95131, 49.8109964], [5.9512621, 49.8109953], [5.951198, 49.8110129], [5.951141, 49.8110421], [5.9510556, 49.8110819], [5.9509351, 49.8109626], [5.9508221, 49.8108506], [5.9499578, 49.8110319], [5.9497251, 49.8110807], [5.9496762, 49.8109418], [5.949648, 49.8108615], [5.9496272, 49.8108026], [5.9496093, 49.8107517], [5.9496435, 49.8107417], [5.9495747, 49.8105583], [5.9494964, 49.8103494], [5.9494665, 49.8102695], [5.9498633, 49.8102037], [5.9498504, 49.8101246], [5.9498366, 49.8100397], [5.9498348, 49.8100286], [5.9498151, 49.8099078], [5.9498001, 49.809816], [5.9497708, 49.8096362], [5.9497694, 49.8096278], [5.9497666, 49.8096107], [5.9497575, 49.8095547], [5.949734, 49.8094279], [5.9497075, 49.8092848], [5.9497032, 49.8092377], [5.9496962, 49.8091621], [5.9496831, 49.8090212], [5.9497006, 49.8089296], [5.9502037, 49.8089556], [5.9503849, 49.8089585], [5.9506194, 49.8089502], [5.9510844, 49.8089134], [5.9513596, 49.8088825], [5.9513088, 49.8086999], [5.9512993, 49.8086658], [5.9512519, 49.8084951], [5.9512343, 49.8084317], [5.9512283, 49.8084105], [5.9511686, 49.8081957], [5.9511518, 49.8081949], [5.9509351, 49.8081845], [5.9508094, 49.8081784], [5.9505164, 49.8081643], [5.950526, 49.8079109], [5.9505394, 49.8076117], [5.9505545, 49.8072719], [5.9505592, 49.8071667], [5.9505594, 49.8071161], [5.9505597, 49.8070663], [5.9505536, 49.8069582], [5.9505449, 49.8068012], [5.9505323, 49.8065763], [5.9505253, 49.806451], [5.9505202, 49.8063584], [5.9505082, 49.8062822], [5.9505015, 49.8062392], [5.9504877, 49.806183], [5.9504806, 49.8061538], [5.9504595, 49.806091], [5.9504436, 49.8060547], [5.9503983, 49.8059516], [5.9503844, 49.8059284], [5.9502777, 49.8057505], [5.9507554, 49.8057138], [5.9508961, 49.8057103], [5.9510304, 49.8057181], [5.9511646, 49.8057359], [5.9514671, 49.8057942], [5.9516865, 49.8058373], [5.9517767, 49.8056861], [5.951839, 49.8055815], [5.9518684, 49.8055304], [5.9518893, 49.805494], [5.9519088, 49.8054601], [5.9519372, 49.8054108], [5.9519593, 49.8053722], [5.9519792, 49.8053295], [5.9519873, 49.805312], [5.952011, 49.805253], [5.9520178, 49.8052254], [5.9520328, 49.805164], [5.952047, 49.805095], [5.9520785, 49.8049419], [5.9507171, 49.8047486], [5.9507397, 49.8046201], [5.9507565, 49.8045248], [5.950763, 49.8044877], [5.9507724, 49.8044192], [5.9507785, 49.8043748], [5.950794, 49.804243], [5.9508029, 49.8041414], [5.9508042, 49.8040846], [5.9507777, 49.8040535], [5.9507768, 49.8037987], [5.9507667, 49.8036619], [5.9507497, 49.8034815], [5.9507286, 49.8034734], [5.9494683, 49.8031678], [5.9493503, 49.8033549], [5.9487412, 49.803205], [5.9480782, 49.8030411], [5.9477988, 49.8029702], [5.947183, 49.8028053], [5.9469306, 49.8027345], [5.9467792, 49.8026856], [5.9466278, 49.8026357], [5.9465013, 49.8025903], [5.9464361, 49.8025669], [5.9462672, 49.8025009], [5.9462192, 49.8024822], [5.9457081, 49.8022611], [5.9452524, 49.8020638], [5.9452325, 49.8020112], [5.9452126, 49.8019328], [5.9451929, 49.8018317], [5.9451832, 49.8017354], [5.9451852, 49.801665], [5.9451922, 49.8016055], [5.9452017, 49.8015706], [5.9452128, 49.8015302], [5.945235, 49.8014559], [5.9452555, 49.8013994], [5.9452946, 49.8013221], [5.9453404, 49.8012478], [5.9454522, 49.8011072], [5.9455911, 49.8009389], [5.9458028, 49.8006933], [5.9458113, 49.8006785], [5.9455841, 49.8006413], [5.9453064, 49.8005912], [5.9454079, 49.8004912], [5.9454477, 49.8004518], [5.9457294, 49.8001765], [5.9454975, 49.8000461], [5.9454018, 49.7999884], [5.9451262, 49.7998332], [5.9447263, 49.7996222], [5.9446725, 49.7995794], [5.9446438, 49.7995416], [5.9446053, 49.7995293], [5.9443627, 49.7997318], [5.9443203, 49.799716], [5.9433056, 49.7993398], [5.9433686, 49.7995739], [5.9428075, 49.799379], [5.9424908, 49.7992779], [5.9423449, 49.7992341], [5.9423278, 49.799229], [5.942305, 49.7992221], [5.9421487, 49.7991801], [5.9421012, 49.7991675], [5.9419209, 49.7991088], [5.9418773, 49.7990962], [5.9417591, 49.7990558], [5.9417159, 49.799041], [5.9414227, 49.7989304], [5.9411561, 49.7988709], [5.9409907, 49.7988403], [5.9409311, 49.7988292], [5.9408614, 49.7988163], [5.9407762, 49.7987998], [5.9406357, 49.7987725], [5.9404079, 49.7987283], [5.9402608, 49.7986997], [5.9402192, 49.7986916], [5.9400919, 49.798667], [5.9399835, 49.7986512], [5.9399706, 49.7986493], [5.9397354, 49.7986099], [5.9393994, 49.7985646], [5.9385453, 49.7984501], [5.9384116, 49.7984566], [5.9383031, 49.7984509], [5.9382463, 49.7983551], [5.9382373, 49.7983544], [5.9378603, 49.7983266], [5.937806, 49.7986239], [5.937722, 49.7986156], [5.9376395, 49.7986074], [5.9376204, 49.7986055], [5.9376104, 49.7985322], [5.937302, 49.7985498], [5.9372846, 49.7984732], [5.9372602, 49.7983663], [5.93725, 49.7983212], [5.937123, 49.7983009], [5.9369669, 49.798276], [5.9368824, 49.7982625], [5.9366409, 49.7982227], [5.9365649, 49.7982096], [5.9358037, 49.7980779], [5.9357792, 49.7980721], [5.9357577, 49.7981079], [5.9357012, 49.7981837], [5.9356217, 49.7982827], [5.9355653, 49.7983487], [5.9355411, 49.7983506], [5.9353678, 49.7983519], [5.934456, 49.7983586], [5.9344733, 49.7982155], [5.9344864, 49.798098], [5.9344953, 49.7979902], [5.9344985, 49.7979511], [5.9340661, 49.797944], [5.9340317, 49.7979435], [5.9339871, 49.7979427], [5.9339914, 49.7979109], [5.9340019, 49.7978803], [5.9340355, 49.7978106], [5.9340544, 49.7977678], [5.9340567, 49.7977348], [5.9340507, 49.7976784], [5.9340363, 49.7976429], [5.9339091, 49.7976378], [5.9336286, 49.7976265], [5.933483, 49.7976206], [5.9332693, 49.797612], [5.9331261, 49.7976062], [5.9329966, 49.797601], [5.9329793, 49.7976003], [5.9328919, 49.7975968], [5.9325968, 49.7975849], [5.9323632, 49.7979856], [5.9321427, 49.7983637], [5.9318102, 49.7983334], [5.9314091, 49.7982968], [5.9311131, 49.7982699], [5.9310249, 49.7984582], [5.9309974, 49.7984658], [5.9308354, 49.7985104], [5.930569, 49.7985723], [5.9304457, 49.7985978], [5.9302464, 49.798639], [5.9299737, 49.7986886], [5.929697, 49.798737], [5.9296751, 49.7986708], [5.9296617, 49.7986304], [5.9296117, 49.7984793], [5.9296075, 49.7984652], [5.9292496, 49.7985072], [5.9290983, 49.7985338], [5.9289051, 49.7985653], [5.9287453, 49.798596], [5.9287079, 49.7985801], [5.9286212, 49.7985434], [5.9284761, 49.7984967], [5.9282933, 49.79845], [5.9281019, 49.7984094], [5.9279721, 49.7983879], [5.927772, 49.7983734], [5.9275839, 49.798369], [5.9274231, 49.7983747], [5.9272736, 49.798391], [5.9272462, 49.7983603], [5.9271767, 49.7982821], [5.9271667, 49.7982708], [5.9265983, 49.7984606], [5.9259543, 49.7986536], [5.9257006, 49.7987266], [5.9252803, 49.7988476], [5.9249445, 49.7989496], [5.9248125, 49.7990128], [5.9247636, 49.7990398], [5.9246915, 49.7990971], [5.9246553, 49.7991453], [5.9246414, 49.7991701], [5.9246156, 49.7992157], [5.9245862, 49.7992852], [5.9245565, 49.7993476], [5.924537, 49.7993888], [5.924501, 49.7994651], [5.9244056, 49.7996674], [5.9243821, 49.7997104], [5.9243253, 49.7998143], [5.9242875, 49.7998676], [5.9242306, 49.799948], [5.9241548, 49.8000425], [5.9241292, 49.8000676], [5.9240861, 49.8001098], [5.9240123, 49.8001691], [5.923929, 49.8002192], [5.9237849, 49.8003005], [5.9236049, 49.8003918], [5.9234746, 49.8004529], [5.9233546, 49.800506], [5.9233121, 49.8004626], [5.9230766, 49.8005236], [5.9228129, 49.8005714], [5.9225973, 49.8005971], [5.9223817, 49.8006097], [5.9221627, 49.8006183], [5.9219549, 49.8006159], [5.9216231, 49.8006101], [5.9214884, 49.8006155], [5.9214794, 49.8006159], [5.9213956, 49.8006257], [5.9212757, 49.8006446], [5.9211438, 49.8006866], [5.9210238, 49.8007337], [5.9209706, 49.8007576], [5.9208473, 49.8008129], [5.9208966, 49.8008613], [5.9208151, 49.8009246], [5.9206261, 49.8010783], [5.9205033, 49.8011918], [5.9204465, 49.8012521], [5.9203777, 49.8013305], [5.9202778, 49.8014652], [5.9201649, 49.8016371], [5.9198502, 49.8021379], [5.919754, 49.8022869], [5.9197028, 49.8023662], [5.919627, 49.8024708], [5.9195822, 49.802524], [5.9195152, 49.8025873], [5.9194139, 49.8026667], [5.9193564, 49.8027048], [5.9192466, 49.802764], [5.9191283, 49.8028191], [5.918885, 49.8029062], [5.9186879, 49.8029682], [5.9185346, 49.8030021], [5.9185538, 49.8030806], [5.9185954, 49.8032515], [5.9184546, 49.8032718], [5.9182382, 49.8032784], [5.9180825, 49.8032801], [5.9179098, 49.8032757], [5.9177251, 49.8032672], [5.9175592, 49.8032558], [5.917419, 49.8032414], [5.9171874, 49.8032097], [5.916955, 49.8031679], [5.916627, 49.8030927], [5.916299, 49.8030114], [5.915854, 49.8028866], [5.9148258, 49.8027585], [5.9141232, 49.8026703], [5.9141925, 49.8025124], [5.913855, 49.8024452], [5.9129647, 49.8022811], [5.9126716, 49.8022271], [5.9123879, 49.8021822], [5.9121144, 49.8021423], [5.912102, 49.8022039], [5.912074, 49.8023426], [5.911726, 49.8023298], [5.9115345, 49.8023213], [5.9112762, 49.8023227], [5.9110367, 49.8023272], [5.9107706, 49.8023397], [5.910743, 49.8023821], [5.9106965, 49.8024534], [5.910623, 49.8025608], [5.910615, 49.8025725], [5.9106, 49.8025921], [5.9101477, 49.8024008], [5.9100573, 49.8023502], [5.9098639, 49.8022149], [5.9094157, 49.8018886], [5.9093926, 49.8019017], [5.9090825, 49.8020577], [5.9089482, 49.8021253], [5.9088854, 49.8021569], [5.9087332, 49.8022335], [5.908583, 49.802312], [5.9085549, 49.8023266], [5.9084759, 49.8023679], [5.908381, 49.8024269], [5.9083714, 49.8024329], [5.9083292, 49.8024592], [5.9082583, 49.8025106], [5.9082081, 49.8025471], [5.908166, 49.8025776], [5.9081324, 49.8026006], [5.9080751, 49.8026399], [5.9080459, 49.8026599], [5.9080142, 49.8026648], [5.9079431, 49.8026758], [5.9077232, 49.8026924], [5.9071501, 49.8027224], [5.9066693, 49.8027424], [5.9066529, 49.8027427], [5.9061407, 49.8027513], [5.9059729, 49.8027562], [5.9052489, 49.8027343], [5.9041019, 49.8026903], [5.9041018, 49.8027279], [5.9041012, 49.8029095], [5.9041011, 49.8029499], [5.9041008, 49.8030408], [5.9041007, 49.8030538], [5.9041006, 49.8031027], [5.9041006, 49.8031116], [5.9041005, 49.803117], [5.9040908, 49.8032233], [5.9040781, 49.8033614], [5.904065, 49.8034768], [5.9040503, 49.803607], [5.904024, 49.8038064], [5.9040208, 49.8038309], [5.9039576, 49.8039886], [5.9038073, 49.8043636], [5.9037313, 49.8045533], [5.9036883, 49.8046605], [5.9036249, 49.8048188], [5.9036156, 49.8048421], [5.9035818, 49.8048864], [5.9034703, 49.8050326], [5.9034238, 49.8050935], [5.9034011, 49.8051233], [5.9033364, 49.8052081], [5.903218, 49.8053634], [5.9031488, 49.8054541], [5.9031139, 49.8054999], [5.9031013, 49.8055164], [5.9013914, 49.805011], [5.9010207, 49.8053754], [5.9009503, 49.8054446], [5.9007918, 49.8056004], [5.901918, 49.8060378], [5.9017046, 49.8063937], [5.901511, 49.8067168], [5.9014622, 49.8067982], [5.9012678, 49.8071224], [5.9012508, 49.8071507], [5.9011325, 49.807342], [5.901046, 49.8074816], [5.9010164, 49.8075294], [5.9009819, 49.8075852], [5.9012115, 49.8076778], [5.9014097, 49.8077514], [5.9016233, 49.8078059], [5.9018477, 49.8078578], [5.9020285, 49.8078896], [5.9020549, 49.8078942], [5.9020709, 49.8078959], [5.9020924, 49.80789], [5.9021127, 49.8078841], [5.902143, 49.8078864], [5.9021795, 49.8078939], [5.9022174, 49.8079074], [5.902252, 49.8079313], [5.9022872, 49.8079574], [5.9023209, 49.8080147], [5.9023561, 49.8080534], [5.9024052, 49.8080751], [5.902438, 49.8080833], [5.902515, 49.8080947], [5.9026008, 49.8081008], [5.9026778, 49.8081158], [5.9027219, 49.808133], [5.9027432, 49.8081539], [5.9027657, 49.8081941], [5.9027789, 49.808209], [5.9028054, 49.8082276], [5.9028482, 49.8082426], [5.9029188, 49.8082576], [5.9029415, 49.8082703], [5.9029565, 49.8082964], [5.9029625, 49.808361], [5.902975, 49.8083893], [5.9029976, 49.8084042], [5.9030317, 49.808414], [5.9031086, 49.8084253], [5.9032374, 49.8084405], [5.9032979, 49.8084547], [5.90333, 49.8084645], [5.903364, 49.8084824], [5.9033829, 49.8084995], [5.9033803, 49.8085166], [5.9033713, 49.8085344], [5.9033447, 49.8085567], [5.9033358, 49.808573], [5.9033394, 49.8085946], [5.9033594, 49.8086429], [5.903368, 49.8086749], [5.9033881, 49.808698], [5.9034095, 49.80871], [5.9034449, 49.8087152], [5.9034695, 49.8087123], [5.9035125, 49.808708], [5.9035377, 49.8087088], [5.9035769, 49.8087111], [5.9035933, 49.8087066], [5.9036098, 49.8086896], [5.9036428, 49.8086622], [5.9036631, 49.8086518], [5.9036896, 49.8086452], [5.9037098, 49.8086467], [5.9037312, 49.8086572], [5.9037362, 49.8086758], [5.9037272, 49.8087032], [5.9037004, 49.808747], [5.9036952, 49.808776], [5.9037103, 49.8087931], [5.9037279, 49.8088028], [5.9037557, 49.8088081], [5.9037872, 49.808806], [5.9038113, 49.8087949], [5.9038329, 49.8087719], [5.9038407, 49.8087303], [5.9038561, 49.8086894], [5.9038814, 49.8086739], [5.9039041, 49.8086732], [5.9039344, 49.8086851], [5.9039658, 49.808709], [5.9040086, 49.8087329], [5.9040578, 49.8087575], [5.9040955, 49.8087777], [5.9041243, 49.8088246], [5.9041392, 49.8088789], [5.904134, 49.8089041], [5.9041206, 49.8089279], [5.9041116, 49.8089524], [5.9041204, 49.8089717], [5.9041367, 49.8089814], [5.9041683, 49.8089867], [5.90422, 49.8089883], [5.9042415, 49.8089936], [5.9042439, 49.8090077], [5.90424, 49.8090419], [5.9042373, 49.8090642], [5.9042587, 49.8090843], [5.9043216, 49.8091157], [5.9043619, 49.8091395], [5.9043883, 49.8091611], [5.9044135, 49.8091701], [5.9044401, 49.8091702], [5.9044767, 49.8091621], [5.9045121, 49.809157], [5.9045525, 49.80916], [5.9045941, 49.8091809], [5.9046689, 49.8092317], [5.904703, 49.8092421], [5.9047396, 49.8092459], [5.9047851, 49.8092408], [5.9048306, 49.8092194], [5.9048927, 49.8091779], [5.9050387, 49.8090533], [5.9050494, 49.8090608], [5.9051242, 49.8091078], [5.9051645, 49.8091294], [5.905196, 49.8091422], [5.9052263, 49.8091459], [5.9052503, 49.8091438], [5.9052756, 49.8091349], [5.9052972, 49.8091097], [5.9053226, 49.8090882], [5.9053441, 49.8090815], [5.9053643, 49.8090831], [5.9053983, 49.8091017], [5.9054311, 49.8091159], [5.905455, 49.8091182], [5.9054829, 49.8091138], [5.9055006, 49.8091012], [5.9055197, 49.8090745], [5.90554, 49.8090641], [5.905569, 49.8090583], [5.9056272, 49.8090517], [5.9057049, 49.8090462], [5.9057295, 49.8090445], [5.9057553, 49.8090439], [5.9058533, 49.8090418], [5.9058791, 49.8090404], [5.9059799, 49.8090964], [5.906, 49.8091202], [5.9060072, 49.8091745], [5.9059956, 49.8092317], [5.9059751, 49.809277], [5.9059274, 49.809349], [5.9059044, 49.8093906], [5.9058929, 49.8094203], [5.9058967, 49.8094473], [5.9059026, 49.8094887], [5.9059111, 49.8095213], [5.9059066, 49.8095679], [5.9057008, 49.8096349], [5.9056479, 49.8096562], [5.9056132, 49.8096775], [5.9055895, 49.8097064], [5.9055802, 49.8097406], [5.9055928, 49.8097631], [5.9056182, 49.8097771], [5.9056491, 49.8097825], [5.9057054, 49.8097837], [5.9057272, 49.8097934], [5.905738, 49.8098148], [5.9057351, 49.8098416], [5.9057168, 49.8098565], [5.9056822, 49.8098725], [5.9056476, 49.8098788], [5.9056003, 49.8098766], [5.9055385, 49.8098711], [5.9055058, 49.8098796], [5.9054821, 49.8098913], [5.9054491, 49.8099405], [5.9054326, 49.8099543], [5.9053944, 49.8099628], [5.9053434, 49.8099659], [5.9053106, 49.8099776], [5.9052833, 49.81], [5.9052523, 49.810016], [5.9052231, 49.810017], [5.9052014, 49.8100084], [5.9051015, 49.8099793], [5.905067, 49.8099653], [5.9050091, 49.8099234], [5.9049745, 49.8099158], [5.9049327, 49.809919], [5.904858, 49.8099423], [5.9047086, 49.8100052], [5.9046848, 49.8100222], [5.9046792, 49.8100458], [5.9046745, 49.8100854], [5.9046617, 49.8100982], [5.9046307, 49.8101077], [5.9045943, 49.8101066], [5.9045199, 49.8100818], [5.9044872, 49.8100807], [5.9044726, 49.8100935], [5.9044887, 49.8101342], [5.9044868, 49.8101609], [5.9044758, 49.810177], [5.904421, 49.81021], [5.9044046, 49.8102293], [5.9044099, 49.8102507], [5.904417, 49.8102764], [5.9044024, 49.8102978], [5.904364, 49.8103234], [5.9043348, 49.8103543], [5.9042873, 49.8103863], [5.9042381, 49.8103991], [5.9041417, 49.8104074], [5.904058, 49.8104286], [5.9039943, 49.8104349], [5.9039552, 49.8104284], [5.9038789, 49.8104122], [5.9038262, 49.8104163], [5.9037732, 49.8104505], [5.9037295, 49.8104664], [5.9036695, 49.8104641], [5.9036314, 49.8104491], [5.9036133, 49.8104223], [5.9036082, 49.8103623], [5.9035956, 49.8103473], [5.9035701, 49.8103451], [5.9035173, 49.8103589], [5.9034846, 49.8103642], [5.9034191, 49.810364], [5.9033699, 49.8103821], [5.9032787, 49.8104354], [5.9031437, 49.8105058], [5.9031309, 49.8105197], [5.9031271, 49.8105411], [5.903127, 49.8105732], [5.9031123, 49.8105913], [5.9030831, 49.8106105], [5.903023, 49.8106307], [5.902921, 49.8106551], [5.902851, 49.8106646], [5.9027509, 49.8106686], [5.9026509, 49.8106716], [5.9025945, 49.8106811], [5.9025343, 49.8106992], [5.9024286, 49.8107471], [5.9023284, 49.8107811], [5.9022228, 49.8108034], [5.9020754, 49.810817], [5.901919, 49.8108177], [5.9017445, 49.8108044], [5.9017485, 49.8108141], [5.9018491, 49.8110435], [5.9020518, 49.811504], [5.9028915, 49.8116502], [5.9029989, 49.8116482], [5.903705, 49.8116408], [5.9041615, 49.811636], [5.9043114, 49.8116342], [5.9044324, 49.8116329], [5.903834, 49.8119781], [5.9035074, 49.8121711], [5.9033944, 49.8122212], [5.9031428, 49.8123212], [5.9027118, 49.8124979], [5.9026006, 49.8125416], [5.9025496, 49.8125554], [5.9022075, 49.8125867], [5.9022894, 49.8127421], [5.9023651, 49.8128696], [5.9024319, 49.8129651], [5.9025222, 49.8130787], [5.9025919, 49.8131474], [5.9026371, 49.8131882], [5.9028162, 49.8133577], [5.9031338, 49.8136624], [5.9033455, 49.8138609], [5.9036526, 49.8141583], [5.9036775, 49.8141753], [5.903394, 49.8144851], [5.9029664, 49.8150097], [5.9027897, 49.8152351], [5.9028152, 49.8152583], [5.9030213, 49.8154519], [5.903337, 49.8157609], [5.9035432, 49.8159615], [5.90364, 49.8160602], [5.903669, 49.8160881], [5.9036907, 49.8161128], [5.9037359, 49.8161471], [5.9037985, 49.816183], [5.9039046, 49.8162439], [5.9041821, 49.8163869], [5.9044133, 49.816504], [5.9055006, 49.8170663], [5.9058371, 49.8172394], [5.9057721, 49.8173276], [5.905488, 49.8177128], [5.9060602, 49.8183724], [5.9066603, 49.8190749], [5.9070176, 49.8189205], [5.9070647, 49.8189702], [5.9074025, 49.8193257], [5.9074144, 49.8193382], [5.9075043, 49.8194328], [5.9075142, 49.8194416], [5.9075831, 49.8194102], [5.9077163, 49.8193579], [5.9078566, 49.8193091], [5.9079152, 49.8192923], [5.9080298, 49.819261], [5.9081148, 49.8193371], [5.9083448, 49.8195432], [5.9084388, 49.8196365], [5.908483, 49.8197041], [5.9085152, 49.8198037], [5.9085652, 49.8199794], [5.9085857, 49.8200661], [5.9086018, 49.820125], [5.9086521, 49.8202418], [5.9086736, 49.8202954], [5.9086823, 49.8203703], [5.9086845, 49.8204763], [5.9086898, 49.8205073], [5.9087166, 49.8206005], [5.9087666, 49.8207612], [5.9087863, 49.8208158], [5.908796, 49.8208822], [5.9087921, 49.8209218], [5.9087734, 49.8210203], [5.9087091, 49.8213155], [5.9086939, 49.8214311], [5.9086846, 49.8214814], [5.9086587, 49.8215595], [5.9086732, 49.8215745], [5.9086785, 49.8216013], [5.9086983, 49.8216345], [5.9087336, 49.8216742], [5.9087407, 49.821701], [5.908737, 49.8217202], [5.9087168, 49.8217427], [5.9086985, 49.8217608], [5.9086911, 49.8217833], [5.9087, 49.8218229], [5.908718, 49.8218668], [5.9087324, 49.8218872], [5.9087541, 49.8219065], [5.9087614, 49.8219162], [5.908772, 49.821959], [5.9087773, 49.821989], [5.9087736, 49.8220125], [5.9087889, 49.8220436], [5.908796, 49.8220629], [5.9087941, 49.8220854], [5.9087794, 49.82211], [5.9087775, 49.8221335], [5.9088027, 49.8221817], [5.9088226, 49.8222075], [5.9088516, 49.82223], [5.9088624, 49.8222493], [5.9088695, 49.8222739], [5.9088748, 49.8223028], [5.9088911, 49.8223243], [5.9089128, 49.8223383], [5.9089419, 49.822349], [5.9089618, 49.8223566], [5.9089818, 49.8223716], [5.909007, 49.8224091], [5.9090233, 49.8224231], [5.9090569, 49.8224349], [5.9090969, 49.8224468], [5.9091186, 49.8224607], [5.9091476, 49.8224854], [5.9091674, 49.8225176], [5.9091763, 49.8225593], [5.9091834, 49.8225893], [5.9092015, 49.8226151], [5.9092141, 49.8226311], [5.909214, 49.8226472], [5.9092085, 49.8226611], [5.9092121, 49.822674], [5.909232, 49.8226943], [5.9092501, 49.8227136], [5.9092518, 49.8227372], [5.9092535, 49.8227586], [5.9092697, 49.8227768], [5.9092924, 49.8227983], [5.9093031, 49.8228219], [5.9093066, 49.8228519], [5.9092956, 49.8228743], [5.9092864, 49.8228989], [5.9092917, 49.8229193], [5.9093041, 49.822975], [5.9093149, 49.8230028], [5.9093094, 49.823021], [5.9093002, 49.8230349], [5.9092964, 49.8230595], [5.9093017, 49.8230948], [5.9093179, 49.8231313], [5.9093214, 49.8231548], [5.9093167, 49.8231751], [5.9093039, 49.8231933], [5.9093075, 49.8232072], [5.9093237, 49.8232287], [5.9093345, 49.8232501], [5.9093199, 49.8232672], [5.9093107, 49.82328], [5.9093088, 49.8232939], [5.909325, 49.8233239], [5.9093285, 49.8233529], [5.9093375, 49.8233818], [5.9093591, 49.8234107], [5.9093826, 49.8234429], [5.9093897, 49.8234675], [5.9093805, 49.8234975], [5.9093749, 49.8235189], [5.9093748, 49.8235381], [5.9093865, 49.8235649], [5.9094009, 49.8235896], [5.9094299, 49.82361], [5.9094571, 49.8236272], [5.9094698, 49.8236411], [5.9094715, 49.8236572], [5.9094678, 49.8236754], [5.909484, 49.8236936], [5.909504, 49.8237001], [5.9095149, 49.8237086], [5.9095179, 49.8237411], [5.9095268, 49.8237777], [5.9095207, 49.8237929], [5.9095054, 49.8238035], [5.9094827, 49.8238106], [5.909469, 49.8238177], [5.9094613, 49.823832], [5.9094627, 49.8238516], [5.9094762, 49.8238793], [5.9095033, 49.8239141], [5.9095048, 49.8239302], [5.909488, 49.8239534], [5.9094803, 49.8239712], [5.9094847, 49.8239935], [5.9095118, 49.8240283], [5.9095208, 49.824048], [5.9095169, 49.824072], [5.9095229, 49.8240881], [5.9095379, 49.8241096], [5.9095424, 49.8241238], [5.9095226, 49.8241443], [5.9095088, 49.8241603], [5.9095087, 49.8241809], [5.9095313, 49.8242201], [5.9095342, 49.8242433], [5.9095219, 49.8242656], [5.9095173, 49.8242763], [5.9095218, 49.8242897], [5.9095278, 49.8242977], [5.9095247, 49.8243075], [5.9095141, 49.8243173], [5.9095064, 49.824328], [5.9095094, 49.8243369], [5.9095185, 49.824345], [5.9095381, 49.8243531], [5.9095442, 49.8243593], [5.9095426, 49.8243736], [5.9095266, 49.8243843], [5.9095175, 49.8243949], [5.909525, 49.8244092], [5.9095355, 49.8244235], [5.9095354, 49.8244378], [5.9095247, 49.8244574], [5.9095185, 49.8244761], [5.9095275, 49.8244976], [5.9095365, 49.824519], [5.9095349, 49.8245422], [5.9095211, 49.8245662], [5.909515, 49.8245805], [5.9095239, 49.8245983], [5.909536, 49.8246162], [5.9095435, 49.8246332], [5.9095456, 49.8246537], [5.9095515, 49.8246823], [5.9095665, 49.8247126], [5.9095695, 49.8247278], [5.9095709, 49.8247554], [5.9095586, 49.8247884], [5.9095432, 49.8248214], [5.9095462, 49.8248401], [5.9095581, 49.8248678], [5.9095641, 49.8248812], [5.9095641, 49.8248946], [5.9095518, 49.8249151], [5.9095518, 49.8249249], [5.9095638, 49.8249499], [5.9095697, 49.8249668], [5.9095666, 49.8249793], [5.9095529, 49.824998], [5.9095443, 49.825056], [5.9095351, 49.8250694], [5.9095183, 49.8250898], [5.909494, 49.8251094], [5.9094787, 49.8251201], [5.9094696, 49.8251343], [5.9094709, 49.8251655], [5.9094751, 49.8252316], [5.9094659, 49.8252574], [5.9094506, 49.8252815], [5.9094353, 49.8253002], [5.9094337, 49.8253144], [5.9094472, 49.8253403], [5.9094494, 49.8253546], [5.9094372, 49.8253769], [5.9094317, 49.8253861], [5.909425, 49.8253974], [5.9094264, 49.8254116], [5.9097025, 49.8254441], [5.9102637, 49.8255101], [5.9102931, 49.8255139], [5.9105462, 49.8251269], [5.9107083, 49.8249175], [5.9107449, 49.8248673], [5.9108414, 49.8248482], [5.911111, 49.8247899], [5.9112221, 49.8247602], [5.9113659, 49.8247423], [5.911537, 49.824732], [5.9117234, 49.8247239], [5.9119199, 49.8247243], [5.9121982, 49.8247324], [5.9124218, 49.82475], [5.9126473, 49.8247751], [5.9127654, 49.8247882], [5.9131136, 49.8248318], [5.9133135, 49.8248665], [5.9135297, 49.8249237], [5.9137132, 49.8249701], [5.9138367, 49.8249982], [5.9139703, 49.825021], [5.9141321, 49.8250385], [5.9143376, 49.8250518], [5.9145176, 49.8250725], [5.9147139, 49.8251083], [5.9148702, 49.8251407], [5.9149902, 49.8251517], [5.9150965, 49.8251562], [5.9152421, 49.8251522], [5.9154059, 49.8251397], [5.9156953, 49.8251147], [5.9159337, 49.8250906], [5.916041, 49.8250908], [5.9162801, 49.8251117], [5.9167674, 49.8251609], [5.9168965, 49.8251762], [5.9171527, 49.8252249], [5.9173065, 49.8252199], [5.9175849, 49.8252033], [5.9177068, 49.8252036], [5.9178286, 49.8252135], [5.9181613, 49.8252442], [5.9182977, 49.8252509], [5.9186334, 49.8252377], [5.9189701, 49.8252074], [5.9192122, 49.8251876], [5.9193413, 49.8251943], [5.9195567, 49.8252204], [5.9195904, 49.8252076], [5.9211804, 49.8248385], [5.9223931, 49.8245596], [5.9241719, 49.8241521], [5.9251313, 49.823938], [5.9253048, 49.8237584], [5.9255487, 49.8235076], [5.9258989, 49.8231525], [5.9261736, 49.8228836], [5.9262336, 49.8228295], [5.9264293, 49.8226409], [5.9265317, 49.8225417], [5.9266044, 49.8224713], [5.926692, 49.8223931], [5.9271741, 49.8219608], [5.9277953, 49.8214162], [5.9280012, 49.8212287], [5.9281298, 49.8211184], [5.9288059, 49.8205136], [5.9294853, 49.8199077], [5.9295163, 49.8198575], [5.9298971, 49.8195417], [5.9301864, 49.8194307], [5.9310216, 49.8190976], [5.9318996, 49.8187485], [5.9322693, 49.8186015], [5.9326373, 49.8184535], [5.9330361, 49.8182784], [5.9337911, 49.8179431], [5.9344073, 49.8176709], [5.9344603, 49.8176569], [5.9346279, 49.8176291], [5.9350706, 49.8175566], [5.936163, 49.8173769], [5.9369255, 49.8172487], [5.9376794, 49.8171145], [5.9378589, 49.8170756], [5.9385294, 49.8168849], [5.9387073, 49.816835], [5.9388647, 49.8167891], [5.9390019, 49.8166617], [5.9391014, 49.8165724], [5.9391188, 49.8165121], [5.9391658, 49.8163192], [5.9391627, 49.8162851], [5.9392054, 49.815872], [5.9402694, 49.8159441], [5.9407062, 49.815973], [5.940956, 49.8159835], [5.9410801, 49.8159837], [5.9417398, 49.815969], [5.9418741, 49.8159647], [5.9420085, 49.8159605], [5.941933, 49.8157482], [5.9419674, 49.8156522], [5.9420002, 49.8155543], [5.9420413, 49.8154843], [5.9422268, 49.8154905], [5.9425411, 49.8155011], [5.9427365, 49.8155077], [5.9431461, 49.8155275], [5.9434382, 49.8155459], [5.9434959, 49.8155496], [5.9436679, 49.8155605], [5.9438684, 49.8155749], [5.9441472, 49.8155954], [5.9445156, 49.815625], [5.9446161, 49.8156718], [5.944745, 49.8157318], [5.9452521, 49.8157234], [5.945721, 49.8157156], [5.9457584, 49.8156816], [5.9458044, 49.8156707], [5.9458674, 49.8156568], [5.9459185, 49.8156359], [5.9459543, 49.8156149], [5.9460157, 49.815564], [5.9460805, 49.8155191], [5.9461455, 49.8154362], [5.9461643, 49.8154012], [5.946173, 49.8153642], [5.9461887, 49.8153655], [5.9465362, 49.8154183], [5.9467458, 49.8154502], [5.9467228, 49.8155335], [5.9467836, 49.8155403], [5.9468748, 49.8154279], [5.9469005, 49.8153796], [5.9469192, 49.8153313], [5.9469236, 49.8152938], [5.9469196, 49.8152488], [5.9469023, 49.8151688], [5.9468937, 49.8150621], [5.9468979, 49.814995], [5.9469097, 49.8149546], [5.9469514, 49.8148937], [5.9469944, 49.8148435], [5.9470308, 49.8148078], [5.9470621, 49.8147697], [5.9470856, 49.8147263], [5.9470948, 49.8146859], [5.9470847, 49.8146425], [5.9470628, 49.8146074], [5.9470383, 49.8145806], [5.9469545, 49.8145134], [5.9467338, 49.8143461], [5.9467221, 49.8143407], [5.9467483, 49.8142829], [5.9467887, 49.8142227], [5.9468603, 49.8141436], [5.9469176, 49.814085], [5.946954, 49.814037], [5.9469789, 49.8139799], [5.9469907, 49.8139472], [5.9469921, 49.8139175], [5.9469793, 49.8138824], [5.9469639, 49.8138526], [5.9469407, 49.813832], [5.9469291, 49.8138251], [5.9469261, 49.8138105], [5.9469076, 49.8137918], [5.9468853, 49.8137643], [5.9468724, 49.8137346], [5.9468763, 49.8136995], [5.9468764, 49.8136644], [5.9468672, 49.8136402], [5.9468301, 49.8135985], [5.9467614, 49.8135314], [5.9467243, 49.8134863], [5.9467078, 49.813438], [5.9467117, 49.8134062], [5.9467417, 49.8133667], [5.9467903, 49.8133306], [5.9469699, 49.8132036], [5.9470598, 49.8131313], [5.9471159, 49.8130777], [5.9471648, 49.8129987], [5.947193, 49.8129428], [5.9472233, 49.8128529], [5.9472289, 49.8127752], [5.9472319, 49.8127218], [5.9472282, 49.8126528], [5.9472167, 49.8126004], [5.9471727, 49.8125253], [5.947157, 49.812494], [5.947116, 49.8124468], [5.9470481, 49.8123771], [5.9469205, 49.81227], [5.9473453, 49.8123916], [5.9477775, 49.8125113], [5.947901, 49.8125479], [5.9479946, 49.8125756], [5.9481003, 49.8126086], [5.9487354, 49.8127918], [5.9490831, 49.8129076], [5.9493663, 49.8130037], [5.9499856, 49.8132225], [5.950009, 49.8131927], [5.950325, 49.8127906], [5.950384, 49.8127155], [5.9504182, 49.8126748], [5.950444, 49.8126484], [5.9506012, 49.8124878], [5.9507899, 49.8123062], [5.9508841, 49.8122338], [5.9509332, 49.8122005], [5.9510488, 49.8121605], [5.9514113, 49.8120391], [5.9517169, 49.8119385], [5.9518012, 49.8119108], [5.9519286, 49.8118604], [5.9520148, 49.8118145], [5.9521522, 49.811733], [5.9523248, 49.8116205], [5.9524926, 49.8115015]]]}}]}