{"type": "FeatureCollection", "features": [{"type": "Feature", "properties": {"name": "Winseler"}, "geometry": {"type": "Polygon", "coordinates": [[[5.9005364, 49.967979], [5.9004011, 49.9678173], [5.9002717, 49.9676683], [5.9002277, 49.9676176], [5.9001877, 49.9675715], [5.900121, 49.9674574], [5.9000717, 49.9673017], [5.9000438, 49.9670728], [5.9000075, 49.9668795], [5.8999709, 49.9665983], [5.8999635, 49.9664379], [5.8999731, 49.9663356], [5.8999967, 49.9662545], [5.9000481, 49.9661715], [5.9001232, 49.9661157], [5.9004482, 49.9659339], [5.9009177, 49.9657186], [5.9008894, 49.9657114], [5.9006099, 49.9656425], [5.9004815, 49.9656065], [5.9003396, 49.9655501], [5.9001626, 49.965488], [5.900132, 49.9654753], [5.900069, 49.9655099], [5.9000096, 49.9655359], [5.8999751, 49.9655281], [5.899743, 49.9654667], [5.8995981, 49.9654258], [5.8995563, 49.9654083], [5.8994852, 49.9653761], [5.8993503, 49.9653151], [5.8991324, 49.9652093], [5.8991356, 49.9651803], [5.8991436, 49.9650818], [5.8991516, 49.964991], [5.8991489, 49.9649682], [5.8991325, 49.9649292], [5.8991027, 49.9648953], [5.8990476, 49.9648565], [5.898976, 49.9648206], [5.8988804, 49.9647846], [5.8987953, 49.9647574], [5.8986279, 49.9647058], [5.8983709, 49.9646386], [5.8981378, 49.9645868], [5.8978837, 49.9645322], [5.8976807, 49.9644916], [5.8975563, 49.9644756], [5.8975357, 49.9643973], [5.8975021, 49.9643294], [5.8974476, 49.9642489], [5.8973225, 49.9640608], [5.8972262, 49.9639259], [5.8971493, 49.9637922], [5.8971079, 49.9636835], [5.8970925, 49.9635447], [5.8970865, 49.9634581], [5.8972449, 49.9634699], [5.8974049, 49.963486], [5.8974164, 49.9634867], [5.8977525, 49.9635076], [5.8978002, 49.9633533], [5.8979141, 49.9629382], [5.8979749, 49.9627682], [5.8979945, 49.9627318], [5.8980954, 49.9626151], [5.8981427, 49.9625411], [5.8981934, 49.9624348], [5.8982738, 49.9622304], [5.8983255, 49.9622306], [5.8982371, 49.9621479], [5.8981566, 49.9620789], [5.8980195, 49.9620243], [5.8978017, 49.9619278], [5.8974388, 49.9617714], [5.8973146, 49.9617137], [5.8972034, 49.961654], [5.8971309, 49.9616058], [5.8969779, 49.9614823], [5.8970219, 49.9614386], [5.8969399, 49.9613559], [5.8969142, 49.961311], [5.8969016, 49.9612598], [5.8968356, 49.9612033], [5.8967665, 49.9611333], [5.8966893, 49.9610632], [5.8966489, 49.9610432], [5.8965618, 49.9610201], [5.8965037, 49.960998], [5.8964812, 49.9609708], [5.8964702, 49.9609176], [5.8964526, 49.9608831], [5.8964316, 49.9608674], [5.8963897, 49.9608537], [5.8963542, 49.9608422], [5.89633, 49.9608233], [5.8963108, 49.9607941], [5.8960339, 49.9605795], [5.8958777, 49.9604602], [5.895778, 49.9603723], [5.8957137, 49.9603064], [5.895667, 49.9602676], [5.8956267, 49.9602446], [5.8954976, 49.9601973], [5.895404, 49.9601648], [5.8953266, 49.960128], [5.895196, 49.9600609], [5.8951041, 49.9600221], [5.8950342, 49.9600793], [5.8949839, 49.9601116], [5.8947746, 49.9602436], [5.8946285, 49.9603351], [5.8943624, 49.9605036], [5.894059, 49.9606823], [5.8938319, 49.9608123], [5.8936698, 49.9608933], [5.8936376, 49.9608702], [5.8935651, 49.9608283], [5.8933878, 49.9607288], [5.8929347, 49.960496], [5.8923977, 49.9602453], [5.891972, 49.9600419], [5.8917688, 49.9599454], [5.8914785, 49.9598205], [5.891414, 49.9597963], [5.8912202, 49.9597489], [5.8910249, 49.9596963], [5.8907294, 49.9596267], [5.8903935, 49.9595476], [5.8903387, 49.9595256], [5.890213, 49.9594512], [5.8900728, 49.9593653], [5.8898794, 49.9592511], [5.8897118, 49.9591693], [5.8895279, 49.9590864], [5.8894122, 49.9590372], [5.8891102, 49.958909], [5.8890606, 49.9588915], [5.8887778, 49.958784], [5.8886874, 49.9587556], [5.8885841, 49.9587303], [5.8884517, 49.9587018], [5.8883743, 49.9586724], [5.8882403, 49.9586231], [5.8881403, 49.9585832], [5.8879388, 49.9584888], [5.8878033, 49.9584216], [5.8877034, 49.958365], [5.88766, 49.9583263], [5.8876215, 49.958272], [5.8875783, 49.9581946], [5.887543, 49.9581434], [5.887498, 49.9580943], [5.8874192, 49.9580356], [5.8869907, 49.9577643], [5.8868778, 49.9577014], [5.8867939, 49.9576803], [5.8866329, 49.9576612], [5.8866146, 49.9576571], [5.8866461, 49.9575236], [5.8866598, 49.9573827], [5.8866474, 49.9572992], [5.8866076, 49.9571947], [5.8865097, 49.9570641], [5.886378, 49.9569093], [5.8860229, 49.95654], [5.8856242, 49.9561383], [5.8855584, 49.9560547], [5.8854465, 49.9558373], [5.885341, 49.9556388], [5.8850961, 49.9552389], [5.885075, 49.9552422], [5.8850433, 49.955247], [5.8849745, 49.9552468], [5.8849108, 49.9552337], [5.884832, 49.9552194], [5.8847833, 49.9552106], [5.8847146, 49.9551898], [5.8844632, 49.9551155], [5.8843123, 49.9550794], [5.8841799, 49.9550433], [5.8840919, 49.9550106], [5.8839964, 49.9549832], [5.8838421, 49.9549471], [5.8837483, 49.9549154], [5.8835589, 49.9548597], [5.88347, 49.9548313], [5.8833712, 49.9547996], [5.8832556, 49.9547581], [5.8831751, 49.9547363], [5.8831072, 49.9547112], [5.8829934, 49.9546491], [5.8829197, 49.9546251], [5.8828241, 49.9546119], [5.8827821, 49.9546085], [5.8827251, 49.9546019], [5.8826849, 49.9545866], [5.8825578, 49.9544985], [5.8824959, 49.9544658], [5.8824322, 49.9544451], [5.8823332, 49.9544253], [5.8822796, 49.9544154], [5.8822243, 49.9543969], [5.8821828, 49.954374], [5.882067, 49.9543222], [5.881915, 49.9542765], [5.8817604, 49.9542465], [5.8817025, 49.9542308], [5.8816278, 49.9541806], [5.8818396, 49.9537442], [5.8818665, 49.953688], [5.8817965, 49.9536582], [5.8820538, 49.9532796], [5.8821441, 49.953144], [5.8817645, 49.9529511], [5.8813233, 49.9527316], [5.8810413, 49.952592], [5.8808773, 49.9525166], [5.8804106, 49.9523391], [5.8792009, 49.9518804], [5.8783566, 49.9515615], [5.878265, 49.9515222], [5.8780503, 49.951439], [5.8779104, 49.9513871], [5.877888, 49.9512981], [5.8778742, 49.9511795], [5.8778889, 49.9511483], [5.8779499, 49.9510579], [5.8779674, 49.9509659], [5.8781219, 49.9503857], [5.8781342, 49.9503482], [5.878149, 49.950303], [5.8782599, 49.9499459], [5.8782725, 49.949857], [5.8782775, 49.9497509], [5.878227, 49.949733], [5.8777424, 49.9495615], [5.8775788, 49.9494918], [5.8774465, 49.9494315], [5.877358, 49.9493845], [5.8772926, 49.9493375], [5.8772192, 49.9492712], [5.8771228, 49.9491549], [5.8770876, 49.9491125], [5.8769465, 49.9489312], [5.8768636, 49.9488608], [5.8767437, 49.9487846], [5.8765925, 49.948696], [5.8763691, 49.9485728], [5.8760339, 49.9483968], [5.8757587, 49.9482487], [5.8756376, 49.9483804], [5.875588, 49.9484455], [5.8755274, 49.9485283], [5.8754555, 49.9486557], [5.8751655, 49.9491447], [5.8745772, 49.9490135], [5.8745616, 49.9490106], [5.8739095, 49.9488913], [5.8738358, 49.9488823], [5.873456, 49.9488478], [5.8732439, 49.9488335], [5.8730535, 49.9488207], [5.8729969, 49.9488171], [5.8729515, 49.9490826], [5.8729122, 49.9490819], [5.8726194, 49.9488541], [5.8724761, 49.9488272], [5.8722858, 49.9493117], [5.8721876, 49.9493871], [5.8720728, 49.9494753], [5.8720345, 49.9495047], [5.8714072, 49.9497372], [5.8711301, 49.9498399], [5.8710851, 49.9498566], [5.8708659, 49.9500035], [5.870603, 49.9501796], [5.8703855, 49.9504066], [5.8700753, 49.9505071], [5.8699753, 49.9505396], [5.8698283, 49.9505872], [5.8699725, 49.9508143], [5.8700887, 49.9509973], [5.8701185, 49.951046], [5.8702289, 49.9512338], [5.8702507, 49.9512764], [5.87035, 49.9514702], [5.8703993, 49.9515834], [5.8704284, 49.951676], [5.8704562, 49.9518036], [5.8704713, 49.9518928], [5.8704808, 49.9519791], [5.8704872, 49.9520365], [5.8704923, 49.952083], [5.8704931, 49.9520881], [5.8705137, 49.9522134], [5.8705145, 49.9522184], [5.870528, 49.9523005], [5.8706582, 49.9527637], [5.8706617, 49.9530588], [5.870721, 49.9530731], [5.8708692, 49.9531095], [5.8712764, 49.9532705], [5.8715289, 49.9533703], [5.8717256, 49.9534442], [5.8717779, 49.9534635], [5.8718012, 49.9534721], [5.8721053, 49.9535844], [5.8722419, 49.9536342], [5.8722793, 49.9541487], [5.872327, 49.9545076], [5.8724916, 49.9551048], [5.8725616, 49.9554166], [5.8726647, 49.9558309], [5.8727168, 49.9560288], [5.872832, 49.9563488], [5.8725466, 49.9565421], [5.8724615, 49.9565979], [5.8724511, 49.9566047], [5.8723087, 49.9567451], [5.8722655, 49.9567907], [5.8722487, 49.956891], [5.8723386, 49.9569826], [5.8724237, 49.9571056], [5.8725874, 49.9572738], [5.8727548, 49.9574098], [5.8728935, 49.9575045], [5.8730299, 49.9575737], [5.8725493, 49.9578249], [5.8723118, 49.9579605], [5.8722364, 49.958017], [5.8720507, 49.9581561], [5.872025, 49.9581755], [5.871932, 49.9582157], [5.87182, 49.9582501], [5.8717483, 49.9582721], [5.8715554, 49.9583331], [5.8714124, 49.9583769], [5.8712635, 49.9584394], [5.8711704, 49.9584886], [5.8709208, 49.9586554], [5.8707417, 49.9587751], [5.8703976, 49.9590045], [5.8703586, 49.9590284], [5.8702758, 49.9590717], [5.8699219, 49.9592567], [5.869568, 49.959446], [5.868859, 49.9592794], [5.868838, 49.9592743], [5.8685624, 49.9592075], [5.8683064, 49.9591455], [5.868295, 49.9591421], [5.8678739, 49.9590192], [5.8675351, 49.9589203], [5.8673871, 49.959224], [5.8674212, 49.9593259], [5.86746, 49.9593395], [5.867706, 49.9594255], [5.867798, 49.9597485], [5.8676258, 49.9602019], [5.8675772, 49.9605552], [5.8675687, 49.9606173], [5.8675286, 49.9608471], [5.8675025, 49.9609968], [5.867415, 49.9614422], [5.867395, 49.9614339], [5.8673387, 49.9614105], [5.8672692, 49.9613804], [5.8671882, 49.9613592], [5.8671117, 49.9613441], [5.8670723, 49.961329], [5.8670215, 49.9612929], [5.8669752, 49.9612688], [5.8668548, 49.9612296], [5.8667157, 49.9612023], [5.8666625, 49.9611871], [5.8665499, 49.9611271], [5.8665214, 49.9611119], [5.8664798, 49.9610878], [5.866429, 49.9610457], [5.8663108, 49.9610215], [5.8662552, 49.9610048], [5.8662298, 49.9609883], [5.8661963, 49.9609665], [5.8661774, 49.9609564], [5.8661292, 49.9609304], [5.8660667, 49.9609108], [5.8660298, 49.9608937], [5.8660111, 49.9608851], [5.865958, 49.9608491], [5.8659094, 49.9608295], [5.8658781, 49.9608226], [5.8658607, 49.9608188], [5.865761, 49.9608111], [5.8656961, 49.960799], [5.865659, 49.9607854], [5.8656129, 49.9607478], [5.8655621, 49.9607012], [5.865502, 49.9606696], [5.8654163, 49.9606455], [5.8653051, 49.9606137], [5.8652425, 49.9605971], [5.8651338, 49.9605459], [5.8649949, 49.9604886], [5.8648675, 49.9604568], [5.8647957, 49.9604282], [5.864739, 49.9604018], [5.8646788, 49.9603927], [5.864535, 49.9603683], [5.8644517, 49.9603397], [5.8643522, 49.960293], [5.8642996, 49.9602714], [5.8640907, 49.9601859], [5.8639774, 49.9601227], [5.8639033, 49.9600836], [5.8637366, 49.9600263], [5.8636209, 49.959975], [5.8635701, 49.959945], [5.863517, 49.9598954], [5.8627239, 49.9594423], [5.8621981, 49.9599486], [5.8620316, 49.9601153], [5.8618205, 49.9603648], [5.8615826, 49.960646], [5.8615558, 49.960696], [5.8613113, 49.9610196], [5.8610605, 49.9614113], [5.861012, 49.961505], [5.8610117, 49.9615068], [5.8610057, 49.9615174], [5.8608489, 49.9618032], [5.8607279, 49.9620235], [5.8606406, 49.9622998], [5.8606237, 49.9624102], [5.8606159, 49.9624608], [5.8606062, 49.9625238], [5.8605704, 49.9627564], [5.8605693, 49.9628406], [5.8605766, 49.963157], [5.860581, 49.9633482], [5.8605587, 49.9636542], [5.8604521, 49.9639786], [5.8602295, 49.9642649], [5.8597616, 49.9648864], [5.8597576, 49.9648917], [5.8596751, 49.9650101], [5.8595497, 49.9651896], [5.8594046, 49.965367], [5.8594893, 49.9654132], [5.8595967, 49.9654717], [5.8596789, 49.9655165], [5.8598575, 49.9656165], [5.8600347, 49.9657172], [5.8602051, 49.9658375], [5.8603268, 49.965878], [5.8604179, 49.9659091], [5.8605639, 49.9659625], [5.8612716, 49.966008], [5.8621367, 49.9660617], [5.8629693, 49.9661182], [5.8629982, 49.9661252], [5.8629204, 49.966176], [5.8628076, 49.9662462], [5.8626453, 49.9663379], [5.8625721, 49.9663838], [5.8625157, 49.9664257], [5.8624744, 49.9664668], [5.8624377, 49.9665137], [5.8623579, 49.9666438], [5.8623135, 49.9667054], [5.8622447, 49.9667699], [5.8621676, 49.9668393], [5.8621112, 49.9668803], [5.8620273, 49.966931], [5.8619085, 49.9669944], [5.8617851, 49.9670548], [5.8617151, 49.967083], [5.8616071, 49.9671003], [5.8613958, 49.967136], [5.8613441, 49.9671496], [5.8613015, 49.9671711], [5.8612313, 49.9672121], [5.8612619, 49.9672293], [5.8614991, 49.9673764], [5.8618842, 49.9675988], [5.8620297, 49.9675325], [5.8620589, 49.9675092], [5.8622397, 49.9675009], [5.8623961, 49.9675023], [5.8624917, 49.9675075], [5.862601, 49.9675235], [5.8627587, 49.9675572], [5.8628648, 49.9675888], [5.8630466, 49.967651], [5.8632905, 49.9677506], [5.863429, 49.9678166], [5.8636016, 49.9679013], [5.8636894, 49.9679525], [5.8639239, 49.9680922], [5.8640442, 49.9681572], [5.8641562, 49.9682143], [5.8642683, 49.9682636], [5.8643713, 49.9683031], [5.8645137, 49.9683524], [5.8647411, 49.9685401], [5.8649466, 49.9687121], [5.865069, 49.9688055], [5.8652322, 49.9689353], [5.8653252, 49.9690031], [5.8654114, 49.9690592], [5.8655838, 49.9691635], [5.8656322, 49.9691979], [5.8657106, 49.9692941], [5.8657967, 49.9693728], [5.8658488, 49.969416], [5.8660212, 49.9695291], [5.8661982, 49.9696403], [5.8664462, 49.9697996], [5.8665195, 49.9698606], [5.8666355, 49.9699642], [5.8666856, 49.970009], [5.8668095, 49.9701102], [5.866593, 49.9703712], [5.8661777, 49.9708571], [5.8658357, 49.9712677], [5.8657783, 49.9713361], [5.8656367, 49.9715082], [5.865622, 49.9715256], [5.8657211, 49.9715762], [5.8658282, 49.9716076], [5.8659489, 49.9716465], [5.8659792, 49.9716564], [5.8660746, 49.9716997], [5.8661565, 49.9717254], [5.866305, 49.9717679], [5.8663641, 49.9717897], [5.8664504, 49.97183], [5.866499, 49.9718419], [5.866637, 49.9718746], [5.8666809, 49.9718943], [5.8667944, 49.9719505], [5.8668672, 49.9719742], [5.867059, 49.9720197], [5.8671272, 49.9720385], [5.8671863, 49.9720622], [5.8673604, 49.9721498], [5.8674444, 49.9721941], [5.8675293, 49.9722306], [5.8676065, 49.9722602], [5.867746, 49.9723017], [5.8680644, 49.9723878], [5.8681705, 49.9724282], [5.8683068, 49.9724834], [5.8683886, 49.972517], [5.8684932, 49.9725437], [5.8686411, 49.9725774], [5.8687032, 49.9725991], [5.8689137, 49.9727035], [5.8689849, 49.972736], [5.8690909, 49.9727784], [5.8691538, 49.9728011], [5.8692167, 49.9728238], [5.8695273, 49.9729353], [5.8699763, 49.9731014], [5.8699887, 49.973106], [5.8700433, 49.9731257], [5.8701221, 49.9731534], [5.8704178, 49.9732475], [5.8705846, 49.973292], [5.8707438, 49.9733365], [5.871, 49.9734067], [5.8711213, 49.9734345], [5.871226, 49.9734504], [5.8714043, 49.9734773], [5.8714962, 49.9734844], [5.8716617, 49.9734789], [5.8716966, 49.9734839], [5.8717979, 49.9733157], [5.8718347, 49.9732579], [5.8723044, 49.9733063], [5.8723417, 49.9733082], [5.8724027, 49.9732594], [5.8724607, 49.9732223], [5.8725307, 49.9731882], [5.8726906, 49.97312], [5.8727486, 49.973082], [5.8727822, 49.9730399], [5.8728098, 49.9729978], [5.8728913, 49.9728393], [5.8729502, 49.9727621], [5.8730145, 49.9726888], [5.8731001, 49.9726018], [5.8732329, 49.9724904], [5.8733443, 49.9724006], [5.8734373, 49.972343], [5.8735417, 49.9722854], [5.8736894, 49.9722123], [5.8738661, 49.9721354], [5.8738858, 49.9721463], [5.8739574, 49.9721919], [5.8741547, 49.9723175], [5.8747204, 49.9726711], [5.8749518, 49.9728255], [5.8751003, 49.9729242], [5.875322, 49.9730716], [5.8756451, 49.9732748], [5.875778, 49.9733578], [5.8759961, 49.9734702], [5.8762953, 49.9736238], [5.8763411, 49.9736467], [5.8764863, 49.9737196], [5.8766276, 49.9737841], [5.8767277, 49.9738185], [5.8770995, 49.9739527], [5.8774475, 49.9740832], [5.8776977, 49.974177], [5.8780226, 49.9743111], [5.8780964, 49.9743376], [5.8783419, 49.9743956], [5.8784142, 49.9744152], [5.8787082, 49.9745501], [5.8786088, 49.9746443], [5.8785179, 49.974717], [5.8784947, 49.9747345], [5.8784179, 49.9747927], [5.8783724, 49.9748315], [5.8781995, 49.9749974], [5.8781092, 49.975077], [5.8779789, 49.9751817], [5.8778638, 49.9752632], [5.8777033, 49.9753698], [5.8775194, 49.9754783], [5.8773624, 49.9755684], [5.8771834, 49.9756711], [5.8768693, 49.9758552], [5.8765727, 49.9760121], [5.8763593, 49.9761399], [5.8763078, 49.9761748], [5.8762873, 49.9761981], [5.8762718, 49.9762526], [5.8762624, 49.9763148], [5.8762379, 49.9763809], [5.8762183, 49.976414], [5.8761983, 49.976448], [5.8761373, 49.97655], [5.875986, 49.9767559], [5.8764319, 49.9768504], [5.8763979, 49.9769807], [5.8763719, 49.9770458], [5.8762862, 49.9772466], [5.8762594, 49.9773092], [5.8762467, 49.9773391], [5.8762211, 49.9773993], [5.8761891, 49.9774744], [5.8761554, 49.9775748], [5.8760669, 49.977838], [5.8766455, 49.9779513], [5.8770218, 49.9780321], [5.8770906, 49.9780468], [5.8770633, 49.9780769], [5.8770427, 49.9781148], [5.8770407, 49.9781324], [5.87703, 49.9782296], [5.8770248, 49.978254], [5.877016, 49.9782957], [5.8769956, 49.9783542], [5.8769868, 49.9783793], [5.876954, 49.9784356], [5.8769053, 49.9785163], [5.8768762, 49.9785833], [5.8768731, 49.9785989], [5.8768714, 49.978631], [5.8768652, 49.9786602], [5.8768362, 49.9787175], [5.876824, 49.9787438], [5.8768231, 49.9787759], [5.8768387, 49.9788002], [5.8768702, 49.9788382], [5.8768487, 49.9789005], [5.8768408, 49.9789501], [5.8768404, 49.9790143], [5.8768499, 49.9790746], [5.8768541, 49.9791233], [5.8768567, 49.9791943], [5.8768519, 49.9792468], [5.8768396, 49.9792828], [5.8768182, 49.9793265], [5.876818, 49.9793586], [5.8768307, 49.9793859], [5.8768905, 49.9794717], [5.8769023, 49.9795194], [5.8768967, 49.9795729], [5.8768813, 49.9796186], [5.8768539, 49.9796662], [5.87684, 49.9797216], [5.8768352, 49.9797615], [5.87685, 49.9798121], [5.8768677, 49.9798832], [5.8767778, 49.9799044], [5.8768065, 49.9801457], [5.8768194, 49.9802586], [5.8768438, 49.9803375], [5.8768826, 49.9804135], [5.8769317, 49.9805187], [5.8769559, 49.9805885], [5.8769703, 49.9806297], [5.8769853, 49.9806453], [5.8770108, 49.9806658], [5.8771686, 49.9807483], [5.8773213, 49.9808281], [5.8776792, 49.9810177], [5.8778543, 49.9811164], [5.8779626, 49.9811634], [5.8780425, 49.981186], [5.878154, 49.9812077], [5.878365, 49.9812335], [5.8786138, 49.9812477], [5.8787193, 49.9812577], [5.8787781, 49.9812754], [5.8788186, 49.9812998], [5.8788983, 49.9813467], [5.878951, 49.9813673], [5.8790085, 49.9813656], [5.8790343, 49.9813647], [5.8790884, 49.9813629], [5.8791653, 49.9813708], [5.879316, 49.9814023], [5.8794787, 49.9814417], [5.8796722, 49.9814956], [5.8798137, 49.9815398], [5.8799929, 49.9815996], [5.8800756, 49.9816329], [5.8802035, 49.9817023], [5.8804049, 49.9818156], [5.8805824, 49.9819085], [5.8807222, 49.9819857], [5.8808454, 49.9820677], [5.8810262, 49.9821931], [5.8810693, 49.982223], [5.8817012, 49.9820455], [5.8819731, 49.9819761], [5.8821529, 49.9819299], [5.8823403, 49.9818749], [5.8824703, 49.9818295], [5.8825451, 49.9818014], [5.8826177, 49.9817714], [5.8827357, 49.9817114], [5.8828629, 49.9816407], [5.883049, 49.9815302], [5.8832723, 49.9814014], [5.8834933, 49.9812803], [5.8829593, 49.9810134], [5.8833465, 49.9807215], [5.8834878, 49.9806342], [5.8836697, 49.9805218], [5.883756, 49.9804598], [5.8838788, 49.9803608], [5.8840899, 49.9801899], [5.8841531, 49.9801387], [5.8842959, 49.9800186], [5.8843388, 49.9799825], [5.8843507, 49.9799753], [5.8843774, 49.9799592], [5.8843991, 49.9799331], [5.8845787, 49.9797165], [5.8847909, 49.9794232], [5.884927, 49.9792318], [5.8847086, 49.9791778], [5.8844044, 49.9791046], [5.8843245, 49.9790854], [5.884247, 49.9790712], [5.8840179, 49.9790292], [5.8837192, 49.9789762], [5.8836728, 49.978968], [5.8837034, 49.9788942], [5.8837219, 49.9788242], [5.8837823, 49.9785587], [5.8838621, 49.9781882], [5.8839587, 49.9777895], [5.8839824, 49.9774879], [5.8840008, 49.9771815], [5.8843892, 49.9771688], [5.8846261, 49.9771655], [5.8847588, 49.9771687], [5.8846609, 49.9767705], [5.8846166, 49.9765914], [5.8845917, 49.9764852], [5.8845497, 49.9763061], [5.8844489, 49.9758768], [5.8844439, 49.9758544], [5.8845141, 49.9757943], [5.8845429, 49.9757943], [5.884892, 49.9758161], [5.8850849, 49.9758351], [5.8852141, 49.9758491], [5.8853412, 49.9758629], [5.8855974, 49.9758957], [5.8857082, 49.9759125], [5.8859418, 49.9759568], [5.8860743, 49.9759815], [5.8862197, 49.9760247], [5.8864199, 49.9760884], [5.886584, 49.976152], [5.8867498, 49.976169], [5.8867762, 49.97617], [5.8868066, 49.9761311], [5.8868613, 49.9760729], [5.8871196, 49.9758672], [5.8873667, 49.9756655], [5.8873885, 49.9756772], [5.8877465, 49.9758365], [5.8882134, 49.9760443], [5.8885864, 49.9762103], [5.8888276, 49.9763177], [5.8888404, 49.9763233], [5.8888186, 49.9763612], [5.8887844, 49.9763838], [5.8887717, 49.9763923], [5.8887425, 49.9764507], [5.8887336, 49.9764686], [5.8887225, 49.9765384], [5.8887203, 49.9765522], [5.8887162, 49.9766023], [5.8887262, 49.9766286], [5.8887371, 49.9766456], [5.8887449, 49.9766578], [5.8888102, 49.9767125], [5.8888353, 49.9767386], [5.8888499, 49.9767539], [5.8888745, 49.976806], [5.8888889, 49.9768601], [5.8888963, 49.9768807], [5.8889075, 49.9769122], [5.8889344, 49.9769502], [5.8889809, 49.9769916], [5.8890482, 49.9770405], [5.8891902, 49.9771342], [5.8892442, 49.9771849], [5.8892962, 49.9772527], [5.8893577, 49.9773229], [5.8894477, 49.9774058], [5.889523, 49.9774809], [5.8895732, 49.9775375], [5.8895934, 49.977575], [5.8896188, 49.9776212], [5.8896649, 49.9776695], [5.8897723, 49.9777539], [5.8898812, 49.9778355], [5.8899271, 49.9778712], [5.8899589, 49.977896], [5.8900093, 49.9779228], [5.8900664, 49.9779454], [5.8901145, 49.9779597], [5.8902426, 49.9779978], [5.8903175, 49.9780345], [5.8903634, 49.9780521], [5.8904146, 49.9780625], [5.8904808, 49.9780904], [5.8905929, 49.9781432], [5.8906629, 49.9781735], [5.8907268, 49.9781965], [5.8907829, 49.9782268], [5.890846, 49.9782649], [5.890934, 49.978305], [5.8910077, 49.9783412], [5.8910506, 49.97837], [5.8910873, 49.9784037], [5.8911176, 49.9784417], [5.8911356, 49.9784738], [5.89116, 49.9785532], [5.8911794, 49.9785819], [5.8912187, 49.9786409], [5.8912664, 49.9787373], [5.8912889, 49.9787666], [5.8913114, 49.9787841], [5.8913678, 49.9788115], [5.8913937, 49.978832], [5.8914162, 49.9788608], [5.8914245, 49.9788884], [5.891434, 49.9789197], [5.8914659, 49.979002], [5.8914917, 49.9790453], [5.8915484, 49.9791462], [5.8915558, 49.9791827], [5.8915798, 49.9793915], [5.8915827, 49.9794086], [5.8916823, 49.9794157], [5.8918272, 49.9794237], [5.8927698, 49.9794843], [5.8927707, 49.9794665], [5.8928118, 49.9790223], [5.8928287, 49.9788406], [5.8928858, 49.9788467], [5.8928921, 49.9787816], [5.8929916, 49.9784706], [5.8931308, 49.9780375], [5.8931384, 49.978014], [5.8931607, 49.977952], [5.8932618, 49.9779643], [5.8933426, 49.9779742], [5.8936442, 49.9779903], [5.8936546, 49.977991], [5.8938468, 49.9780037], [5.8939796, 49.9780203], [5.894111, 49.9780463], [5.8942756, 49.9780844], [5.8943911, 49.9781078], [5.8944224, 49.9781128], [5.8945385, 49.9781313], [5.8947039, 49.9781489], [5.8949563, 49.9781769], [5.8950904, 49.9781969], [5.8952272, 49.9782187], [5.8954894, 49.9780281], [5.8957029, 49.9778734], [5.8957465, 49.9778084], [5.8958028, 49.9777245], [5.8958364, 49.9776508], [5.8958553, 49.9775943], [5.8958715, 49.9775566], [5.8959051, 49.9774804], [5.8959255, 49.9774024], [5.8959304, 49.9773613], [5.8959282, 49.977285], [5.8959312, 49.9772147], [5.8959382, 49.977159], [5.8959545, 49.977087], [5.8959735, 49.9770262], [5.8959971, 49.9769688], [5.8960319, 49.9769097], [5.8960807, 49.9768363], [5.896111, 49.9767908], [5.8961996, 49.9766444], [5.8962499, 49.9765588], [5.8962994, 49.976492], [5.8963663, 49.9764159], [5.8964453, 49.9763149], [5.8964934, 49.9762653], [5.8965446, 49.9762252], [5.8965742, 49.976202], [5.8966263, 49.9761507], [5.8966518, 49.9761139], [5.8966665, 49.9760891], [5.896753, 49.9760738], [5.8967377, 49.9759906], [5.8967195, 49.9759091], [5.8966972, 49.9758593], [5.8966642, 49.9758164], [5.8966299, 49.975782], [5.8965346, 49.9757055], [5.8964268, 49.9756118], [5.896284, 49.975494], [5.8961992, 49.9754372], [5.8960959, 49.9753727], [5.8960665, 49.9753556], [5.8959774, 49.9753038], [5.8957773, 49.9751996], [5.8956103, 49.9751143], [5.8953398, 49.9749954], [5.8955293, 49.9748037], [5.8955664, 49.9747662], [5.8957107, 49.9746242], [5.8958329, 49.9745216], [5.8959624, 49.9744225], [5.8961532, 49.9742926], [5.895774, 49.9740054], [5.8958648, 49.9739456], [5.8959221, 49.973908], [5.8959751, 49.9738798], [5.8960087, 49.9738619], [5.8961193, 49.9738124], [5.8963098, 49.9737323], [5.8965582, 49.9736274], [5.8966215, 49.9736018], [5.8968167, 49.9735174], [5.8967375, 49.9734092], [5.8966901, 49.9733328], [5.8966389, 49.9732332], [5.8966043, 49.9731243], [5.8965927, 49.9730522], [5.8966077, 49.9729803], [5.8966578, 49.9728106], [5.8966844, 49.9726967], [5.896709, 49.9725784], [5.8967254, 49.972467], [5.8967414, 49.9723582], [5.8967715, 49.9722125], [5.8968039, 49.9721174], [5.8968415, 49.9720455], [5.896919, 49.9719748], [5.8970579, 49.9718789], [5.8971669, 49.9718132], [5.8972864, 49.9717613], [5.89744, 49.9717122], [5.8976298, 49.971659], [5.8977324, 49.9716283], [5.8978303, 49.971599], [5.8980264, 49.9715428], [5.8980777, 49.9715281], [5.8982142, 49.9714941], [5.8984593, 49.9714465], [5.8988856, 49.9713678], [5.8990859, 49.9713394], [5.8992564, 49.9713164], [5.8994289, 49.9713031], [5.8995737, 49.9712979], [5.9006765, 49.9713458], [5.9002812, 49.9708227], [5.9001796, 49.9707029], [5.9001607, 49.9706854], [5.9001288, 49.970656], [5.900078, 49.9706078], [5.9000058, 49.9705582], [5.8999007, 49.9704985], [5.8997706, 49.9704247], [5.8995877, 49.9703208], [5.8997179, 49.9702741], [5.8998843, 49.9702143], [5.9004264, 49.9700277], [5.9005183, 49.9699966], [5.9006138, 49.9699631], [5.9007909, 49.9699058], [5.9008741, 49.9698799], [5.9009423, 49.9698704], [5.9007281, 49.9697146], [5.9004762, 49.969546], [5.9004459, 49.9695257], [5.9004631, 49.9695093], [5.9005144, 49.9694654], [5.9005892, 49.9694202], [5.900551, 49.9693968], [5.900611, 49.9693241], [5.9006688, 49.9692665], [5.9008548, 49.9691281], [5.9010089, 49.968991], [5.9009927, 49.9689537], [5.9010167, 49.9689315], [5.9010364, 49.9688997], [5.9010381, 49.968863], [5.9010145, 49.968804], [5.9009246, 49.968686], [5.9008386, 49.968538], [5.9007758, 49.96839], [5.9007153, 49.9682315], [5.9006665, 49.9681271], [5.9005996, 49.9680477], [5.9005364, 49.967979]]]}}]}