{"type": "FeatureCollection", "features": [{"type": "Feature", "properties": {"name": "Ancienne Carrière de Bettendorf - Schoofsbësch", "kind": "nature_reserve"}, "geometry": {"type": "Polygon", "coordinates": [[[6.2019217, 49.8621603], [6.2019713, 49.8611877], [6.2021282, 49.8612716], [6.2023294, 49.8613269], [6.2024447, 49.8613952], [6.2026593, 49.8615578], [6.2027257, 49.8615772], [6.2028243, 49.8615815], [6.203177, 49.8615188], [6.2033889, 49.8614557], [6.2035478, 49.8613606], [6.203641, 49.8612539], [6.2037349, 49.8611851], [6.2037764, 49.8611194], [6.2038998, 49.8610304], [6.204109, 49.8609336], [6.2043907, 49.8608661], [6.2045885, 49.860873], [6.204789, 49.8608272], [6.2055461, 49.8607461], [6.2057921, 49.8607671], [6.2058994, 49.8607689], [6.2060563, 49.8607892], [6.2062159, 49.8607814], [6.2063621, 49.8607209], [6.2065297, 49.8606854], [6.206857, 49.8605722], [6.2070394, 49.860532], [6.2071547, 49.8605462], [6.207266, 49.8605441], [6.2074202, 49.8605169], [6.2075677, 49.860471], [6.2078246, 49.8603582], [6.2081458, 49.8602597], [6.2083215, 49.860133], [6.2086205, 49.8602099], [6.2087613, 49.8602696], [6.20887, 49.8603491], [6.208933, 49.8604451], [6.2089424, 49.8605886], [6.2088686, 49.8607071], [6.2087627, 49.8607952], [6.2085602, 49.8609037], [6.2084824, 49.8609777], [6.2083416, 49.8610702], [6.2082759, 49.8611679], [6.2082272, 49.8613903], [6.2081686, 49.8618456], [6.2081847, 49.8622891], [6.2081793, 49.8625079], [6.2082182, 49.8626332], [6.2083058, 49.8627968], [6.2084135, 49.8629414], [6.2085121, 49.863001], [6.2090107, 49.8631819], [6.2094982, 49.8634601], [6.2093621, 49.8640138], [6.2090309, 49.8640562], [6.2077045, 49.8658707], [6.2078118, 49.8661369], [6.2075168, 49.8663098], [6.2069213, 49.8665035], [6.2050164, 49.8662643], [6.2037836, 49.866099], [6.2029367, 49.8659854], [6.2030016, 49.8657957], [6.2035572, 49.8641707], [6.2035646, 49.8640406], [6.2035176, 49.8639196], [6.2034492, 49.8638107], [6.203417, 49.8637017], [6.2033559, 49.8636257], [6.2029517, 49.8626929], [6.2019217, 49.8621603]]]}}]}