{"type": "FeatureCollection", "features": [{"type": "Feature", "properties": {"name": "Schieren"}, "geometry": {"type": "MultiPolygon", "coordinates": [[[[6.072405, 49.829758], [6.072496, 49.830006], [6.072802, 49.83], [6.072905, 49.83], [6.073748, 49.829987], [6.074175, 49.82999], [6.074957, 49.829994], [6.075174, 49.829994], [6.075575, 49.82999], [6.076181, 49.829983], [6.076799, 49.82994], [6.07741, 49.829887], [6.077997, 49.82983], [6.078356, 49.829803], [6.078634, 49.82979], [6.079001, 49.829777], [6.07958, 49.829765], [6.079992, 49.82976], [6.080065, 49.82976], [6.080961, 49.829704], [6.081835, 49.829365], [6.082201, 49.829224], [6.082617, 49.829067], [6.082972, 49.828934], [6.083258, 49.82884], [6.083578, 49.82874], [6.083635, 49.828735], [6.083872, 49.82865], [6.083979, 49.82863], [6.084131, 49.828606], [6.084227, 49.828598], [6.084257, 49.82857], [6.085299, 49.82854], [6.085314, 49.82854], [6.08531, 49.828888], [6.08528, 49.82892], [6.085295, 49.828987], [6.085318, 49.829098], [6.085348, 49.829163], [6.085398, 49.82923], [6.085547, 49.82936], [6.085886, 49.829586], [6.086035, 49.829674], [6.086447, 49.82983], [6.086645, 49.829964], [6.086916, 49.830204], [6.086931, 49.830177], [6.087004, 49.82995], [6.088308, 49.83001], [6.088427, 49.830013], [6.089449, 49.83008], [6.089575, 49.830086], [6.090258, 49.830116], [6.090422, 49.830128], [6.091211, 49.830143], [6.091398, 49.830143], [6.092787, 49.830154], [6.09284, 49.83015], [6.092688, 49.82971], [6.092581, 49.829376], [6.092619, 49.829376], [6.092924, 49.82938], [6.093103, 49.829388], [6.093233, 49.82939], [6.093306, 49.829624], [6.093485, 49.830196], [6.093748, 49.830864], [6.093786, 49.831066], [6.093809, 49.831345], [6.09379, 49.831554], [6.093741, 49.831863], [6.093714, 49.831993], [6.093596, 49.8322], [6.093084, 49.83301], [6.093065, 49.83307], [6.092817, 49.833805], [6.092581, 49.83411], [6.092512, 49.834366], [6.092478, 49.834442], [6.092436, 49.834637], [6.09244, 49.83492], [6.09244, 49.8352], [6.092424, 49.835815], [6.092424, 49.8359], [6.092455, 49.83605], [6.092642, 49.83632], [6.092745, 49.83645], [6.092962, 49.836678], [6.093203, 49.837112], [6.093313, 49.83747], [6.093515, 49.83747], [6.09366, 49.837486], [6.093916, 49.83705], [6.094008, 49.837044], [6.094053, 49.83704], [6.094343, 49.83702], [6.095098, 49.83697], [6.095541, 49.83694], [6.095682, 49.836933], [6.095739, 49.837204], [6.095774, 49.837353], [6.095816, 49.83753], [6.095839, 49.83762], [6.096354, 49.83754], [6.09654, 49.837513], [6.096785, 49.83747], [6.096865, 49.83746], [6.097059, 49.83743], [6.097254, 49.837402], [6.097387, 49.837387], [6.097681, 49.83734], [6.09849, 49.83723], [6.09873, 49.837196], [6.099012, 49.83716], [6.099337, 49.837112], [6.099501, 49.83709], [6.099684, 49.83706], [6.099718, 49.837048], [6.099768, 49.83702], [6.099714, 49.836903], [6.09981, 49.836876], [6.099821, 49.836887], [6.099852, 49.836937], [6.100115, 49.837387], [6.100161, 49.837463], [6.100359, 49.8378], [6.100462, 49.837963], [6.10055, 49.8381], [6.100561, 49.838116], [6.100676, 49.838287], [6.100798, 49.83846], [6.100946, 49.838413], [6.101038, 49.838387], [6.101194, 49.83834], [6.101538, 49.838245], [6.101667, 49.83821], [6.101767, 49.838184], [6.102175, 49.838074], [6.102533, 49.83798], [6.102869, 49.837887], [6.102892, 49.83788], [6.10317, 49.837727], [6.103411, 49.837708], [6.103457, 49.83772], [6.103678, 49.837765], [6.103842, 49.83779], [6.103979, 49.83782], [6.104357, 49.837864], [6.104406, 49.8379], [6.104547, 49.838005], [6.10465, 49.838047], [6.10483, 49.838074], [6.104975, 49.838078], [6.105162, 49.838062], [6.105383, 49.83803], [6.105722, 49.83794], [6.106302, 49.83776], [6.106756, 49.83762], [6.107298, 49.837437], [6.108282, 49.837147], [6.108686, 49.83703], [6.108812, 49.837], [6.108892, 49.836998], [6.108969, 49.837006], [6.109133, 49.837044], [6.109377, 49.837112], [6.109617, 49.837166], [6.109957, 49.83725], [6.11043, 49.837364], [6.110632, 49.83742], [6.110853, 49.837486], [6.111078, 49.837563], [6.111368, 49.837685], [6.112444, 49.83816], [6.112753, 49.83828], [6.113375, 49.8385], [6.113962, 49.838207], [6.114477, 49.837982], [6.114832, 49.837837], [6.114836, 49.837887], [6.114824, 49.838005], [6.114794, 49.83828], [6.11479, 49.83833], [6.11479, 49.838352], [6.114778, 49.838478], [6.114752, 49.83881], [6.114725, 49.839046], [6.114702, 49.839317], [6.114695, 49.839397], [6.114679, 49.83965], [6.114615, 49.840576], [6.114599, 49.840664], [6.114569, 49.84078], [6.114531, 49.840878], [6.114439, 49.841084], [6.114157, 49.841713], [6.113947, 49.842148], [6.113859, 49.842323], [6.113676, 49.84265], [6.113493, 49.842987], [6.114325, 49.843056], [6.114302, 49.84328], [6.115049, 49.843304], [6.115293, 49.84332], [6.11566, 49.843346], [6.116377, 49.843395], [6.116404, 49.8434], [6.117109, 49.843365], [6.117556, 49.843353], [6.118345, 49.84334], [6.118368, 49.843155], [6.11838, 49.843098], [6.11841, 49.84288], [6.118544, 49.84289], [6.119062, 49.842926], [6.119284, 49.84294], [6.119764, 49.842976], [6.120001, 49.842995], [6.120176, 49.843006], [6.120775, 49.84305], [6.121046, 49.84303], [6.121355, 49.843002], [6.121714, 49.842968], [6.121931, 49.84295], [6.122065, 49.842934], [6.122297, 49.842922], [6.122419, 49.842915], [6.122362, 49.842556], [6.122332, 49.842358], [6.122518, 49.842373], [6.122736, 49.842396], [6.122957, 49.842434], [6.123129, 49.84247], [6.123419, 49.842537], [6.12351, 49.842556], [6.123556, 49.84256], [6.123648, 49.842556], [6.123797, 49.842545], [6.123915, 49.842537], [6.123964, 49.84254], [6.124044, 49.842556], [6.124273, 49.84261], [6.124342, 49.842617], [6.124647, 49.842636], [6.124903, 49.84265], [6.125101, 49.842663], [6.125223, 49.842667], [6.125292, 49.842663], [6.125483, 49.842636], [6.12557, 49.84263], [6.12565, 49.84262], [6.125769, 49.84263], [6.125952, 49.842644], [6.126055, 49.842648], [6.126326, 49.842636], [6.126394, 49.842636], [6.126524, 49.84265], [6.126692, 49.84268], [6.126791, 49.842686], [6.126883, 49.842686], [6.127459, 49.84267], [6.127619, 49.84265], [6.127745, 49.842636], [6.127905, 49.84264], [6.128176, 49.84265], [6.128427, 49.84267], [6.128702, 49.842705], [6.129026, 49.842754], [6.129248, 49.842785], [6.129664, 49.842842], [6.129831, 49.84286], [6.130243, 49.842617], [6.130617, 49.8424], [6.130938, 49.84224], [6.131075, 49.842182], [6.131189, 49.842148], [6.1313, 49.842125], [6.131605, 49.84208], [6.131857, 49.842045], [6.131964, 49.842026], [6.132135, 49.841984], [6.132376, 49.841892], [6.132578, 49.841816], [6.132677, 49.84178], [6.13286, 49.841736], [6.133001, 49.8417], [6.133203, 49.841606], [6.133532, 49.841427], [6.133905, 49.841217], [6.133955, 49.841187], [6.135427, 49.84037], [6.135839, 49.8403], [6.13616, 49.840088], [6.136366, 49.83996], [6.136519, 49.839855], [6.13661, 49.839787], [6.136805, 49.839626], [6.136995, 49.83943], [6.137201, 49.83918], [6.137316, 49.83905], [6.137369, 49.839005], [6.13748, 49.838943], [6.137709, 49.838837], [6.138029, 49.838676], [6.138098, 49.83864], [6.139337, 49.837692], [6.139799, 49.83744], [6.140463, 49.837086], [6.14068, 49.836964], [6.140856, 49.83684], [6.140951, 49.83677], [6.141024, 49.836704], [6.141092, 49.836624], [6.14113, 49.83656], [6.141237, 49.836292], [6.14139, 49.836075], [6.141489, 49.835968], [6.141745, 49.835743], [6.14184, 49.83567], [6.142054, 49.83549], [6.142332, 49.835274], [6.142446, 49.835213], [6.142656, 49.835106], [6.142752, 49.83505], [6.142958, 49.83484], [6.143107, 49.834698], [6.143305, 49.83453], [6.143515, 49.83437], [6.143698, 49.834232], [6.143854, 49.834137], [6.14403, 49.834034], [6.144224, 49.833927], [6.144457, 49.83381], [6.144552, 49.833755], [6.144865, 49.833584], [6.145212, 49.833416], [6.145441, 49.83332], [6.145929, 49.83309], [6.146028, 49.833042], [6.146402, 49.832726], [6.146601, 49.832535], [6.146803, 49.832275], [6.146925, 49.832108], [6.146971, 49.832047], [6.147036, 49.831963], [6.147119, 49.831833], [6.147192, 49.831657], [6.147203, 49.831573], [6.147207, 49.831413], [6.147177, 49.83102], [6.147154, 49.83063], [6.147139, 49.83029], [6.147097, 49.82994], [6.146955, 49.82951], [6.146837, 49.829117], [6.146772, 49.828854], [6.146643, 49.82842], [6.146448, 49.827698], [6.14649, 49.827045], [6.145777, 49.826763], [6.145716, 49.826736], [6.145264, 49.826496], [6.14466, 49.82619], [6.14413, 49.825897], [6.143568, 49.825596], [6.143257, 49.825447], [6.143158, 49.82541], [6.143032, 49.82537], [6.142972, 49.82536], [6.142889, 49.82534], [6.14275, 49.82532], [6.142557, 49.825287], [6.14233, 49.82523], [6.142198, 49.825184], [6.142178, 49.825176], [6.14208, 49.825146], [6.141514, 49.824917], [6.140979, 49.824703], [6.140352, 49.82446], [6.139879, 49.824272], [6.139661, 49.82417], [6.139307, 49.824005], [6.139043, 49.82387], [6.138689, 49.823666], [6.138582, 49.823605], [6.137832, 49.82316], [6.137354, 49.82285], [6.137209, 49.82275], [6.137062, 49.822655], [6.13662, 49.82236], [6.136001, 49.82206], [6.135467, 49.821747], [6.135144, 49.821552], [6.134924, 49.821423], [6.134617, 49.82123], [6.134393, 49.821125], [6.133977, 49.820942], [6.133816, 49.82087], [6.133266, 49.820595], [6.133092, 49.820507], [6.1329, 49.820404], [6.132708, 49.820274], [6.132439, 49.820084], [6.132075, 49.81982], [6.131862, 49.819637], [6.131688, 49.819496], [6.130775, 49.819084], [6.130729, 49.819054], [6.130685, 49.819103], [6.13058, 49.819088], [6.130391, 49.81905], [6.130227, 49.81901], [6.130161, 49.818985], [6.130083, 49.818954], [6.13006, 49.818935], [6.129956, 49.81885], [6.129911, 49.81881], [6.12985, 49.818764], [6.129747, 49.818707], [6.129654, 49.818645], [6.129583, 49.818577], [6.129497, 49.818493], [6.129395, 49.818447], [6.12932, 49.81839], [6.129249, 49.818367], [6.129155, 49.81832], [6.129042, 49.81828], [6.128984, 49.818264], [6.128767, 49.818237], [6.128704, 49.818222], [6.128563, 49.81818], [6.128412, 49.818157], [6.128328, 49.818134], [6.128287, 49.818115], [6.128264, 49.818104], [6.12825, 49.81808], [6.128254, 49.818], [6.128237, 49.81796], [6.1282, 49.817894], [6.128137, 49.81782], [6.128066, 49.81774], [6.127963, 49.817654], [6.127832, 49.81757], [6.127729, 49.817516], [6.127544, 49.817444], [6.127355, 49.81737], [6.127236, 49.81733], [6.12713, 49.817295], [6.126867, 49.817234], [6.126742, 49.817207], [6.126668, 49.817184], [6.126596, 49.81714], [6.126538, 49.8171], [6.126501, 49.817085], [6.126456, 49.817085], [6.126401, 49.817093], [6.126337, 49.817097], [6.126295, 49.817093], [6.126241, 49.817078], [6.126191, 49.817047], [6.12612, 49.816994], [6.126103, 49.816986], [6.126067, 49.816963], [6.126041, 49.816933], [6.12603, 49.8169], [6.126027, 49.816845], [6.126016, 49.816833], [6.125995, 49.81682], [6.125971, 49.816822], [6.12593, 49.816833], [6.125896, 49.81683], [6.125873, 49.81682], [6.125828, 49.81679], [6.125802, 49.816757], [6.125798, 49.816708], [6.125776, 49.816677], [6.125739, 49.816666], [6.125707, 49.81668], [6.125694, 49.8167], [6.125685, 49.81673], [6.125661, 49.816734], [6.125588, 49.81668], [6.125501, 49.81663], [6.125419, 49.81659], [6.125396, 49.816578], [6.125359, 49.816536], [6.125322, 49.816498], [6.125262, 49.81646], [6.125094, 49.816387], [6.124923, 49.81632], [6.124717, 49.81622], [6.124487, 49.816113], [6.124205, 49.81597], [6.124149, 49.81594], [6.124129, 49.815914], [6.124092, 49.815857], [6.124064, 49.81583], [6.124034, 49.81581], [6.12399, 49.81579], [6.123932, 49.815777], [6.1238, 49.815758], [6.123713, 49.815727], [6.123639, 49.815704], [6.123427, 49.815655], [6.123256, 49.815613], [6.123172, 49.815586], [6.123107, 49.815563], [6.122933, 49.815514], [6.122774, 49.81544], [6.12246, 49.815285], [6.122313, 49.81522], [6.122266, 49.8152], [6.122081, 49.815147], [6.121965, 49.815083], [6.12178, 49.814983], [6.121499, 49.81486], [6.120922, 49.81462], [6.120597, 49.814472], [6.120278, 49.81433], [6.120017, 49.814224], [6.119736, 49.814087], [6.119457, 49.81399], [6.119138, 49.813885], [6.118834, 49.813812], [6.11857, 49.81372], [6.118311, 49.813633], [6.11796, 49.81353], [6.117608, 49.813435], [6.117481, 49.81339], [6.117407, 49.813354], [6.117285, 49.813267], [6.117234, 49.81324], [6.117021, 49.81315], [6.116704, 49.812923], [6.116334, 49.812653], [6.116226, 49.812584], [6.116038, 49.81249], [6.1156, 49.81231], [6.11547, 49.81223], [6.115422, 49.812206], [6.115336, 49.812176], [6.115094, 49.812103], [6.114847, 49.812], [6.114662, 49.811928], [6.113631, 49.81161], [6.113286, 49.811485], [6.113269, 49.811466], [6.113264, 49.811443], [6.11325, 49.811424], [6.113231, 49.81141], [6.113207, 49.811405], [6.113156, 49.811398], [6.113109, 49.811386], [6.112926, 49.811283], [6.112806, 49.811226], [6.112682, 49.811146], [6.112239, 49.81094], [6.112161, 49.8109], [6.112146, 49.810898], [6.111868, 49.810905], [6.111705, 49.810917], [6.111566, 49.8109], [6.111323, 49.810863], [6.111256, 49.81085], [6.111095, 49.810852], [6.110813, 49.81077], [6.110799, 49.810764], [6.110666, 49.810726], [6.110647, 49.81072], [6.110464, 49.810665], [6.110194, 49.810596], [6.109992, 49.810547], [6.109564, 49.810436], [6.109472, 49.810413], [6.109338, 49.81038], [6.109228, 49.810467], [6.108976, 49.81064], [6.108751, 49.810852], [6.10853, 49.811142], [6.108381, 49.811417], [6.108229, 49.811653], [6.108152, 49.811882], [6.108133, 49.81207], [6.108168, 49.81237], [6.10813, 49.812645], [6.108065, 49.81281], [6.107855, 49.812973], [6.10739, 49.813232], [6.106836, 49.813545], [6.106493, 49.81371], [6.106131, 49.813843], [6.106043, 49.813965], [6.105574, 49.814354], [6.105196, 49.814537], [6.105017, 49.814606], [6.104963, 49.81462], [6.104227, 49.814873], [6.103834, 49.814987], [6.103777, 49.814995], [6.103605, 49.815002], [6.103418, 49.815002], [6.103186, 49.814987], [6.102991, 49.814953], [6.102785, 49.814995], [6.1028, 49.814926], [6.101885, 49.81475], [6.101847, 49.81466], [6.101839, 49.814644], [6.100988, 49.81462], [6.100824, 49.81463], [6.099875, 49.81476], [6.099798, 49.814766], [6.099474, 49.814774], [6.099302, 49.814796], [6.099222, 49.8148], [6.098997, 49.814827], [6.098841, 49.814857], [6.098726, 49.814884], [6.098589, 49.81494], [6.098444, 49.814987], [6.098356, 49.814995], [6.098146, 49.81495], [6.098127, 49.81495], [6.097982, 49.81492], [6.097959, 49.81492], [6.097639, 49.814857], [6.097303, 49.81482], [6.097067, 49.814842], [6.096777, 49.814896], [6.096522, 49.814978], [6.096254, 49.815097], [6.095869, 49.815357], [6.095758, 49.81543], [6.095617, 49.815514], [6.094957, 49.816036], [6.094656, 49.81637], [6.094545, 49.81658], [6.094496, 49.816734], [6.094503, 49.816944], [6.094599, 49.817093], [6.094801, 49.81724], [6.095038, 49.817368], [6.095766, 49.817726], [6.096266, 49.81792], [6.096457, 49.81803], [6.09654, 49.818123], [6.096544, 49.8182], [6.096495, 49.818367], [6.096392, 49.81861], [6.096247, 49.818924], [6.095968, 49.81932], [6.095598, 49.819916], [6.095304, 49.820335], [6.09506, 49.82064], [6.09474, 49.820984], [6.09445, 49.821236], [6.094202, 49.821476], [6.093763, 49.82174], [6.093199, 49.82206], [6.092684, 49.822285], [6.091974, 49.822456], [6.091524, 49.822544], [6.091291, 49.82264], [6.091196, 49.82275], [6.091169, 49.822834], [6.091074, 49.822845], [6.09099, 49.822872], [6.090918, 49.822857], [6.090258, 49.822796], [6.089838, 49.822758], [6.089766, 49.822777], [6.08946, 49.822754], [6.089025, 49.822716], [6.087927, 49.82264], [6.08769, 49.82262], [6.087461, 49.822605], [6.086718, 49.822548], [6.086344, 49.82252], [6.085768, 49.822487], [6.085314, 49.822487], [6.084745, 49.822517], [6.084215, 49.8227], [6.083571, 49.822952], [6.083078, 49.823013], [6.08259, 49.82307], [6.082575, 49.823074], [6.082132, 49.823147], [6.081282, 49.82339], [6.080271, 49.823696], [6.07942, 49.824043], [6.077059, 49.82474], [6.076136, 49.824936], [6.074854, 49.825058], [6.072992, 49.825413], [6.072844, 49.82544], [6.072779, 49.82545], [6.072916, 49.825577], [6.073332, 49.825993], [6.073793, 49.826447], [6.073683, 49.827057], [6.07353, 49.82777], [6.074022, 49.828316], [6.074469, 49.828735], [6.074591, 49.82883], [6.074701, 49.82876], [6.074873, 49.828854], [6.074743, 49.829], [6.075064, 49.829197], [6.075048, 49.829453], [6.074568, 49.829556], [6.074076, 49.829315], [6.07329, 49.829525], [6.072405, 49.829758]]]]}}]}