{"type": "FeatureCollection", "features": [{"type": "Feature", "properties": {"name": "Gemeng Viichten", "kind": "park"}, "geometry": {"type": "Polygon", "coordinates": [[[5.9963921, 49.8037669], [5.9963277, 49.8037704], [5.9963223, 49.8038188], [5.9961855, 49.8038024], [5.9959703, 49.8038876], [5.9959592, 49.8038759], [5.9957182, 49.8036565], [5.9955975, 49.8037189], [5.9955834, 49.8037111], [5.9953849, 49.8038283], [5.9954023, 49.8038491], [5.9955639, 49.8040443], [5.9960058, 49.8040292], [5.9961037, 49.8040525], [5.996384, 49.8040486], [5.996561, 49.8040436], [5.996674, 49.804079], [5.9966612, 49.8040407], [5.9963921, 49.8037669]]]}}]}