{"type": "FeatureCollection", "features": [{"type": "Feature", "properties": {"name": "Spillplatz", "kind": "park"}, "geometry": {"type": "Polygon", "coordinates": [[[5.9999749, 49.8022785], [5.9999914, 49.8022937], [6.0000168, 49.8023024], [6.0000455, 49.8023028], [6.0000714, 49.8022949], [6.0001063, 49.8022755], [6.0001264, 49.8022521], [6.0001472, 49.80224], [6.0001854, 49.8022331], [6.0002149, 49.8022218], [6.0002256, 49.8022045], [6.0002273, 49.8021855], [6.0002242, 49.8021603], [6.0001203, 49.8021712], [6.0000859, 49.8020285], [5.9995946, 49.8020834], [5.9995651, 49.8020942], [5.9995618, 49.8021149], [5.9996005, 49.8022508], [5.9996486, 49.8022369], [5.9997013, 49.802235], [5.9997516, 49.8022454], [5.9997928, 49.8022667], [5.9998195, 49.8022961], [5.9999749, 49.8022785]]]}}]}