{"type": "FeatureCollection", "features": [{"type": "Feature", "properties": {"name": "Koerich"}, "geometry": {"type": "MultiPolygon", "coordinates": [[[[5.917688, 49.672527], [5.917692, 49.672546], [5.917696, 49.67256], [5.917704, 49.672596], [5.917711, 49.67262], [5.917715, 49.67265], [5.917726, 49.67268], [5.917738, 49.67274], [5.917749, 49.673103], [5.917788, 49.673534], [5.917841, 49.67369], [5.917993, 49.673893], [5.918253, 49.674103], [5.918406, 49.67422], [5.918627, 49.674374], [5.919046, 49.674633], [5.919123, 49.674603], [5.91934, 49.674683], [5.920012, 49.67497], [5.920557, 49.675182], [5.920816, 49.67529], [5.920946, 49.67536], [5.921068, 49.67546], [5.921293, 49.675667], [5.921343, 49.67571], [5.921507, 49.67581], [5.921747, 49.675953], [5.922232, 49.676205], [5.92293, 49.676563], [5.922968, 49.676548], [5.923094, 49.67664], [5.92322, 49.67677], [5.923307, 49.676884], [5.92341, 49.67704], [5.923517, 49.677273], [5.923563, 49.677372], [5.923624, 49.677513], [5.923834, 49.678005], [5.923887, 49.678047], [5.923952, 49.6781], [5.924192, 49.678284], [5.924417, 49.678448], [5.924673, 49.678623], [5.924696, 49.67864], [5.924776, 49.678696], [5.924902, 49.67878], [5.925013, 49.67885], [5.925249, 49.67898], [5.925501, 49.679123], [5.925661, 49.67908], [5.925745, 49.679054], [5.925783, 49.679092], [5.925852, 49.679176], [5.925932, 49.67928], [5.925978, 49.679337], [5.926001, 49.679367], [5.92605, 49.679436], [5.926138, 49.679554], [5.92618, 49.679615], [5.926329, 49.679802], [5.92639, 49.679874], [5.92642, 49.679913], [5.926592, 49.680126], [5.926641, 49.680183], [5.926703, 49.680264], [5.926897, 49.6805], [5.926954, 49.680576], [5.926985, 49.68061], [5.927233, 49.680916], [5.927278, 49.680977], [5.92742, 49.68116], [5.927431, 49.681187], [5.927664, 49.681164], [5.927877, 49.681145], [5.927977, 49.681133], [5.928156, 49.68109], [5.928305, 49.681038], [5.9284, 49.68098], [5.928492, 49.680897], [5.928537, 49.680817], [5.928625, 49.680645], [5.92869, 49.68054], [5.928743, 49.680492], [5.928816, 49.680454], [5.928892, 49.680416], [5.928976, 49.680355], [5.929117, 49.68028], [5.929308, 49.6802], [5.929388, 49.68016], [5.929495, 49.6801], [5.929598, 49.680027], [5.929697, 49.67993], [5.929804, 49.67983], [5.929865, 49.67979], [5.929937, 49.679752], [5.93001, 49.679703], [5.930086, 49.67964], [5.930166, 49.679565], [5.930223, 49.679504], [5.930284, 49.679474], [5.930407, 49.679443], [5.93062, 49.679394], [5.930819, 49.67936], [5.930963, 49.679356], [5.931044, 49.679356], [5.931127, 49.679344], [5.931223, 49.679317], [5.931356, 49.679295], [5.931448, 49.679283], [5.931559, 49.679276], [5.931627, 49.679287], [5.931704, 49.679314], [5.931757, 49.67934], [5.931791, 49.679375], [5.931837, 49.679443], [5.93189, 49.679485], [5.931948, 49.679504], [5.932013, 49.679504], [5.932184, 49.67948], [5.932302, 49.679466], [5.932394, 49.679466], [5.932451, 49.67948], [5.93255, 49.679546], [5.932619, 49.67958], [5.932676, 49.679596], [5.932749, 49.6796], [5.932844, 49.679585], [5.932989, 49.67955], [5.933146, 49.679527], [5.933207, 49.679523], [5.933348, 49.679523], [5.933584, 49.679546], [5.933866, 49.679596], [5.934038, 49.679634], [5.934114, 49.67965], [5.93429, 49.67969], [5.93453, 49.679764], [5.934744, 49.679855], [5.934954, 49.67996], [5.935068, 49.680027], [5.935137, 49.680073], [5.93519, 49.680096], [5.935247, 49.680103], [5.935308, 49.68009], [5.935427, 49.68006], [5.935575, 49.679993], [5.935663, 49.67996], [5.935732, 49.679935], [5.935804, 49.67992], [5.935858, 49.679913], [5.935896, 49.67991], [5.935968, 49.67991], [5.936022, 49.67992], [5.936087, 49.679943], [5.9364, 49.680115], [5.936586, 49.68022], [5.936773, 49.680332], [5.936853, 49.680393], [5.936937, 49.680458], [5.936998, 49.6805], [5.937056, 49.68053], [5.937128, 49.680534], [5.937216, 49.68052], [5.93746, 49.680454], [5.937548, 49.68044], [5.93767, 49.68044], [5.937716, 49.68045], [5.937887, 49.68047], [5.937971, 49.680466], [5.938078, 49.68046], [5.938158, 49.680447], [5.93825, 49.68041], [5.938303, 49.680367], [5.938372, 49.680286], [5.938429, 49.6802], [5.938459, 49.68011], [5.938471, 49.68003], [5.938475, 49.679935], [5.938475, 49.679867], [5.93849, 49.67981], [5.938528, 49.679775], [5.938581, 49.67975], [5.938673, 49.679718], [5.938806, 49.679688], [5.938944, 49.679653], [5.939077, 49.679634], [5.93918, 49.679626], [5.939356, 49.679615], [5.939485, 49.679604], [5.939646, 49.679573], [5.93981, 49.67951], [5.939959, 49.67946], [5.940084, 49.679432], [5.94029, 49.679398], [5.940435, 49.679363], [5.940546, 49.679325], [5.940626, 49.67928], [5.940672, 49.67925], [5.940691, 49.67919], [5.940725, 49.679028], [5.94076, 49.678886], [5.940805, 49.67881], [5.940878, 49.678707], [5.940954, 49.678623], [5.941046, 49.67852], [5.941103, 49.67848], [5.941175, 49.678406], [5.941389, 49.678185], [5.941576, 49.67797], [5.941637, 49.677925], [5.941675, 49.677902], [5.941755, 49.677876], [5.941961, 49.67783], [5.94211, 49.6778], [5.942183, 49.67779], [5.942915, 49.677742], [5.94327, 49.677727], [5.943281, 49.67776], [5.943285, 49.677784], [5.9433, 49.67783], [5.943335, 49.67789], [5.94338, 49.677937], [5.943472, 49.67799], [5.943689, 49.67809], [5.943846, 49.678192], [5.94401, 49.67832], [5.944223, 49.678524], [5.944483, 49.678673], [5.944597, 49.67885], [5.944647, 49.678993], [5.944628, 49.67904], [5.944414, 49.67921], [5.944185, 49.679382], [5.944056, 49.679527], [5.944037, 49.679623], [5.944025, 49.679703], [5.943998, 49.67973], [5.943941, 49.679752], [5.943846, 49.679787], [5.943773, 49.679813], [5.94372, 49.67986], [5.943678, 49.679913], [5.943666, 49.679985], [5.943659, 49.68006], [5.94364, 49.68011], [5.94356, 49.68018], [5.943529, 49.68023], [5.94346, 49.680317], [5.943323, 49.680412], [5.94319, 49.680508], [5.943102, 49.680607], [5.943048, 49.680676], [5.942995, 49.680775], [5.942953, 49.68083], [5.942865, 49.680893], [5.942701, 49.680992], [5.94264, 49.68104], [5.942522, 49.681156], [5.942404, 49.681263], [5.942339, 49.68134], [5.942263, 49.68147], [5.942221, 49.68153], [5.942152, 49.681637], [5.942171, 49.681686], [5.942217, 49.681736], [5.942285, 49.681793], [5.942362, 49.681858], [5.942408, 49.68191], [5.942427, 49.681976], [5.942427, 49.68204], [5.942408, 49.682095], [5.942362, 49.682163], [5.942308, 49.682213], [5.942224, 49.682266], [5.942129, 49.68231], [5.941973, 49.682377], [5.941889, 49.682423], [5.941843, 49.682476], [5.941847, 49.682518], [5.941877, 49.68258], [5.941919, 49.68263], [5.941973, 49.682663], [5.942045, 49.682686], [5.942171, 49.68271], [5.942224, 49.68273], [5.942247, 49.68275], [5.942266, 49.682823], [5.942289, 49.682953], [5.942285, 49.682995], [5.942244, 49.68306], [5.942095, 49.683224], [5.942015, 49.683285], [5.941797, 49.683453], [5.941694, 49.683514], [5.941511, 49.683594], [5.941404, 49.68366], [5.941214, 49.683945], [5.94116, 49.684017], [5.941091, 49.684124], [5.941072, 49.684193], [5.94108, 49.684258], [5.941126, 49.6843], [5.941263, 49.684334], [5.941362, 49.68434], [5.941626, 49.684357], [5.941698, 49.684353], [5.941748, 49.684353], [5.941778, 49.68435], [5.941885, 49.68435], [5.94195, 49.684376], [5.942003, 49.68442], [5.942053, 49.68449], [5.942144, 49.684624], [5.942232, 49.684723], [5.942301, 49.684822], [5.942469, 49.684975], [5.942511, 49.68504], [5.942522, 49.6851], [5.942503, 49.685184], [5.942434, 49.68529], [5.942335, 49.685402], [5.942278, 49.68548], [5.942255, 49.68554], [5.942278, 49.685596], [5.942358, 49.685658], [5.942465, 49.685703], [5.942717, 49.68574], [5.943007, 49.685764], [5.943106, 49.685787], [5.943186, 49.685833], [5.943342, 49.685833], [5.943438, 49.685806], [5.943632, 49.68581], [5.943735, 49.68584], [5.943773, 49.68588], [5.943781, 49.68594], [5.943766, 49.686024], [5.943785, 49.686073], [5.943857, 49.686123], [5.944037, 49.686153], [5.944174, 49.68617], [5.944269, 49.68622], [5.944414, 49.686333], [5.944635, 49.686398], [5.944883, 49.68645], [5.945009, 49.68653], [5.945051, 49.686596], [5.945047, 49.686684], [5.945028, 49.686768], [5.945009, 49.686886], [5.945021, 49.68696], [5.94504, 49.686996], [5.945093, 49.687035], [5.945116, 49.687008], [5.945372, 49.68673], [5.945623, 49.686447], [5.946035, 49.68662], [5.946619, 49.686867], [5.947046, 49.687027], [5.947065, 49.68703], [5.947084, 49.687035], [5.947138, 49.68706], [5.947153, 49.68708], [5.947191, 49.68711], [5.947237, 49.687134], [5.947267, 49.687145], [5.947313, 49.687157], [5.947355, 49.68719], [5.947393, 49.687225], [5.947615, 49.687397], [5.947836, 49.687607], [5.947958, 49.687717], [5.948107, 49.687878], [5.948286, 49.68807], [5.94842, 49.68822], [5.948645, 49.688484], [5.948694, 49.68854], [5.948801, 49.688667], [5.948931, 49.688828], [5.948999, 49.68891], [5.949049, 49.688976], [5.949122, 49.689064], [5.949194, 49.689156], [5.94932, 49.689255], [5.949476, 49.689354], [5.949568, 49.689377], [5.949656, 49.689396], [5.949686, 49.68936], [5.949965, 49.689438], [5.950155, 49.68949], [5.950293, 49.689537], [5.950316, 49.68953], [5.950335, 49.689518], [5.950483, 49.689445], [5.950613, 49.68938], [5.950857, 49.689266], [5.951033, 49.68907], [5.951101, 49.688995], [5.951189, 49.688904], [5.951368, 49.68872], [5.951498, 49.68859], [5.95159, 49.688522], [5.951689, 49.688465], [5.951925, 49.68835], [5.952188, 49.688236], [5.952517, 49.6881], [5.952669, 49.688034], [5.95289, 49.687943], [5.953222, 49.687805], [5.953508, 49.68775], [5.953642, 49.687725], [5.954088, 49.687668], [5.95426, 49.687653], [5.954504, 49.68763], [5.954779, 49.687603], [5.955023, 49.687572], [5.955236, 49.687565], [5.955759, 49.68755], [5.95608, 49.68755], [5.956377, 49.687557], [5.956343, 49.6877], [5.956396, 49.68773], [5.956602, 49.687748], [5.956793, 49.68778], [5.957056, 49.68783], [5.957243, 49.68788], [5.957399, 49.68793], [5.957533, 49.68798], [5.957739, 49.688065], [5.957857, 49.68812], [5.957991, 49.688194], [5.958136, 49.688297], [5.958273, 49.688377], [5.958399, 49.688442], [5.958677, 49.688587], [5.958849, 49.688686], [5.958986, 49.688763], [5.959143, 49.688866], [5.959284, 49.68897], [5.959372, 49.689056], [5.959478, 49.689167], [5.959585, 49.689293], [5.959692, 49.689415], [5.95978, 49.68951], [5.959894, 49.689625], [5.96002, 49.68975], [5.960081, 49.689816], [5.9601, 49.689846], [5.960108, 49.689865], [5.960134, 49.68986], [5.960356, 49.68985], [5.960367, 49.68991], [5.960409, 49.6901], [5.960447, 49.690235], [5.960482, 49.69036], [5.960512, 49.690453], [5.960569, 49.690617], [5.960615, 49.690742], [5.960634, 49.690823], [5.960646, 49.690887], [5.960669, 49.690968], [5.960741, 49.691154], [5.960798, 49.691437], [5.960878, 49.69171], [5.960955, 49.691807], [5.961039, 49.69191], [5.961142, 49.69202], [5.961199, 49.692097], [5.961367, 49.692295], [5.961439, 49.692234], [5.961557, 49.692154], [5.96166, 49.692093], [5.961813, 49.691994], [5.962011, 49.69189], [5.962225, 49.691784], [5.962458, 49.691864], [5.962606, 49.691917], [5.962858, 49.691986], [5.96314, 49.692055], [5.963202, 49.691982], [5.963266, 49.691902], [5.963335, 49.69183], [5.963434, 49.69173], [5.963499, 49.691673], [5.963598, 49.691597], [5.96369, 49.691536], [5.963823, 49.691463], [5.964041, 49.69136], [5.964319, 49.691357], [5.964586, 49.691353], [5.965021, 49.691345], [5.965311, 49.691338], [5.96541, 49.691334], [5.965494, 49.69133], [5.965605, 49.69137], [5.965658, 49.691387], [5.965696, 49.691402], [5.965815, 49.691452], [5.966047, 49.69154], [5.966276, 49.691616], [5.966948, 49.691742], [5.967516, 49.691795], [5.968306, 49.69187], [5.968981, 49.691948], [5.969465, 49.692036], [5.969664, 49.692074], [5.969893, 49.692116], [5.970144, 49.692173], [5.970289, 49.692207], [5.970678, 49.692307], [5.971083, 49.692413], [5.971586, 49.692554], [5.971819, 49.692593], [5.972403, 49.692677], [5.972692, 49.69269], [5.973066, 49.69271], [5.973471, 49.69273], [5.97389, 49.69275], [5.974283, 49.692757], [5.974707, 49.69276], [5.975595, 49.692753], [5.975824, 49.69271], [5.976149, 49.692654], [5.97621, 49.69264], [5.976725, 49.692215], [5.977392, 49.691666], [5.977636, 49.691467], [5.977758, 49.69135], [5.977873, 49.69122], [5.977957, 49.69112], [5.97806, 49.69096], [5.978167, 49.690792], [5.978243, 49.690697], [5.97838, 49.69052], [5.978468, 49.690422], [5.978514, 49.69037], [5.97859, 49.69026], [5.978617, 49.690228], [5.978663, 49.69019], [5.978773, 49.690105], [5.97891, 49.690018], [5.979235, 49.689808], [5.979517, 49.689648], [5.979834, 49.689457], [5.979925, 49.689407], [5.979998, 49.68936], [5.980043, 49.689335], [5.980066, 49.689316], [5.980112, 49.68927], [5.980253, 49.689125], [5.980318, 49.689056], [5.980383, 49.688995], [5.980436, 49.688953], [5.980547, 49.68888], [5.980772, 49.68874], [5.98089, 49.688667], [5.980921, 49.688644], [5.980963, 49.68862], [5.981153, 49.688503], [5.981215, 49.688465], [5.981436, 49.688324], [5.981463, 49.68831], [5.981916, 49.68802], [5.982252, 49.687813], [5.983194, 49.687405], [5.983633, 49.687206], [5.983797, 49.687134], [5.984007, 49.68704], [5.984293, 49.686905], [5.9844, 49.68686], [5.984503, 49.68681], [5.98461, 49.68676], [5.984835, 49.686646], [5.985022, 49.686546], [5.985186, 49.68646], [5.985605, 49.68621], [5.985792, 49.686104], [5.986193, 49.686005], [5.986406, 49.685875], [5.986433, 49.685863], [5.986635, 49.68579], [5.986757, 49.685745], [5.986845, 49.68572], [5.986975, 49.685688], [5.987024, 49.685673], [5.987181, 49.685642], [5.987631, 49.68557], [5.987867, 49.685543], [5.987921, 49.68554], [5.987947, 49.685535], [5.988127, 49.685524], [5.988096, 49.68556], [5.988317, 49.685555], [5.988649, 49.68555], [5.988871, 49.68553], [5.98918, 49.6855], [5.989389, 49.68546], [5.989431, 49.685444], [5.989386, 49.68543], [5.989267, 49.6854], [5.989115, 49.685364], [5.988932, 49.68531], [5.988695, 49.685226], [5.988485, 49.68513], [5.988253, 49.68502], [5.988047, 49.68492], [5.987787, 49.684803], [5.987646, 49.68474], [5.987558, 49.6847], [5.987234, 49.684563], [5.987082, 49.684498], [5.986948, 49.68444], [5.986811, 49.684376], [5.986647, 49.684303], [5.98638, 49.684177], [5.9863, 49.68414], [5.986319, 49.684113], [5.986608, 49.68372], [5.986635, 49.68368], [5.986704, 49.68359], [5.986788, 49.683475], [5.986795, 49.683464], [5.986868, 49.68337], [5.986898, 49.683327], [5.987017, 49.683167], [5.987078, 49.683083], [5.987215, 49.682896], [5.987284, 49.682804], [5.987322, 49.68273], [5.987417, 49.682472], [5.987429, 49.68243], [5.987509, 49.682186], [5.987574, 49.681995], [5.987692, 49.68165], [5.987757, 49.68147], [5.987783, 49.681393], [5.987806, 49.681324], [5.98786, 49.681194], [5.987936, 49.680996], [5.987947, 49.680958], [5.988012, 49.68078], [5.988058, 49.680664], [5.988115, 49.680534], [5.988146, 49.68046], [5.988344, 49.68049], [5.988577, 49.68053], [5.988756, 49.680565], [5.989374, 49.68072], [5.989778, 49.68082], [5.990122, 49.680897], [5.990278, 49.68093], [5.990477, 49.680977], [5.990526, 49.680984], [5.99077, 49.681007], [5.990957, 49.681023], [5.991144, 49.68104], [5.99153, 49.681065], [5.991953, 49.68109], [5.992723, 49.68114], [5.992865, 49.681152], [5.992952, 49.681164], [5.993097, 49.681194], [5.993357, 49.681244], [5.993425, 49.68126], [5.99367, 49.681313], [5.993727, 49.681324], [5.993879, 49.68136], [5.99428, 49.68146], [5.994364, 49.68116], [5.994474, 49.68077], [5.994535, 49.68049], [5.994604, 49.679913], [5.994623, 49.6797], [5.994631, 49.679653], [5.994837, 49.67966], [5.995073, 49.67967], [5.995077, 49.67965], [5.995092, 49.67954], [5.995108, 49.67928], [5.995111, 49.679108], [5.994112, 49.679005], [5.994039, 49.679], [5.993681, 49.678967], [5.993288, 49.678932], [5.993296, 49.678894], [5.992784, 49.678844], [5.992289, 49.678802], [5.992323, 49.678394], [5.992342, 49.67815], [5.992411, 49.677387], [5.992285, 49.677364], [5.991922, 49.677284], [5.991922, 49.67693], [5.991934, 49.676495], [5.991926, 49.676342], [5.991922, 49.676243], [5.991655, 49.676224], [5.991346, 49.6762], [5.991137, 49.675983], [5.991018, 49.675858], [5.990972, 49.675804], [5.990862, 49.67567], [5.990789, 49.67559], [5.990625, 49.6754], [5.990564, 49.67533], [5.990519, 49.67527], [5.990232, 49.674942], [5.990145, 49.674847], [5.989927, 49.674595], [5.989904, 49.67456], [5.989794, 49.674423], [5.989702, 49.67429], [5.989496, 49.673973], [5.989531, 49.67391], [5.989363, 49.673885], [5.988913, 49.67382], [5.98839, 49.67376], [5.987898, 49.673717], [5.987974, 49.67353], [5.988035, 49.673386], [5.988054, 49.67333], [5.988161, 49.67307], [5.98831, 49.672718], [5.988367, 49.67264], [5.988405, 49.672585], [5.988485, 49.6725], [5.989069, 49.672127], [5.989263, 49.671936], [5.989538, 49.671646], [5.989721, 49.671394], [5.98974, 49.67137], [5.989805, 49.67128], [5.990026, 49.670986], [5.990087, 49.67091], [5.990164, 49.67081], [5.990183, 49.670784], [5.990503, 49.670406], [5.990629, 49.67025], [5.990713, 49.67013], [5.990801, 49.670017], [5.990912, 49.669846], [5.991007, 49.6697], [5.991037, 49.669647], [5.99119, 49.66936], [5.991591, 49.66908], [5.991674, 49.669018], [5.991728, 49.66898], [5.991839, 49.668896], [5.99188, 49.668858], [5.991911, 49.668827], [5.991987, 49.668747], [5.992041, 49.668694], [5.992159, 49.668575], [5.992247, 49.6685], [5.992468, 49.668392], [5.992495, 49.66838], [5.992578, 49.66835], [5.992636, 49.668327], [5.992647, 49.668324], [5.992697, 49.668304], [5.992815, 49.668266], [5.992899, 49.668236], [5.993059, 49.668175], [5.993158, 49.66814], [5.993254, 49.66811], [5.993494, 49.66805], [5.993666, 49.66802], [5.993704, 49.668015], [5.993742, 49.668007], [5.993792, 49.668003], [5.993837, 49.667965], [5.993872, 49.667927], [5.994005, 49.66777], [5.994043, 49.66773], [5.99412, 49.667645], [5.994162, 49.667595], [5.994196, 49.667557], [5.994211, 49.667538], [5.994291, 49.66744], [5.994314, 49.667397], [5.994337, 49.66736], [5.994352, 49.66733], [5.994398, 49.667255], [5.99444, 49.66718], [5.994566, 49.66696], [5.994688, 49.66676], [5.994253, 49.666473], [5.993815, 49.66619], [5.99354, 49.666027], [5.99312, 49.665775], [5.992907, 49.66565], [5.992659, 49.665516], [5.992399, 49.665394], [5.992292, 49.66535], [5.99209, 49.66527], [5.991686, 49.665123], [5.991503, 49.665073], [5.991735, 49.664722], [5.991819, 49.66459], [5.992041, 49.66425], [5.992086, 49.664185], [5.992132, 49.664112], [5.992231, 49.663956], [5.992331, 49.663757], [5.992422, 49.663567], [5.992079, 49.663532], [5.991758, 49.66349], [5.991148, 49.663395], [5.990934, 49.66335], [5.99069, 49.663296], [5.990248, 49.663177], [5.990061, 49.66312], [5.989878, 49.663063], [5.989794, 49.663033], [5.989592, 49.662964], [5.989557, 49.662914], [5.989687, 49.66272], [5.989748, 49.662617], [5.98987, 49.662403], [5.989962, 49.66227], [5.99008, 49.66209], [5.990213, 49.661896], [5.990286, 49.661797], [5.990343, 49.661686], [5.990393, 49.66156], [5.990412, 49.661495], [5.9904, 49.66143], [5.990293, 49.661255], [5.99021, 49.661137], [5.98966, 49.66049], [5.989286, 49.66], [5.988848, 49.65956], [5.988897, 49.659534], [5.988638, 49.65936], [5.988367, 49.659122], [5.98802, 49.6588], [5.987696, 49.658546], [5.987486, 49.658398], [5.986998, 49.65813], [5.987036, 49.658108], [5.987116, 49.658054], [5.987261, 49.657906], [5.987078, 49.657772], [5.986826, 49.6576], [5.986704, 49.657524], [5.986601, 49.657463], [5.986456, 49.65738], [5.986631, 49.657085], [5.986681, 49.656994], [5.986761, 49.65681], [5.986849, 49.656544], [5.987036, 49.656063], [5.987162, 49.655716], [5.987219, 49.655598], [5.98736, 49.655357], [5.987474, 49.6552], [5.98749, 49.65518], [5.987543, 49.655064], [5.987581, 49.654922], [5.987585, 49.654873], [5.987597, 49.65483], [5.987619, 49.65478], [5.987661, 49.65471], [5.987719, 49.654625], [5.987783, 49.654552], [5.987883, 49.654453], [5.987925, 49.654415], [5.987947, 49.654396], [5.987932, 49.65437], [5.987844, 49.654232], [5.987822, 49.654213], [5.9876, 49.654034], [5.987497, 49.65397], [5.987425, 49.65393], [5.987287, 49.653873], [5.987146, 49.653797], [5.98704, 49.653736], [5.986975, 49.65369], [5.987005, 49.653675], [5.986929, 49.653603], [5.986868, 49.653534], [5.986822, 49.65347], [5.986765, 49.653366], [5.986727, 49.65329], [5.986681, 49.65316], [5.986643, 49.652958], [5.986082, 49.652927], [5.985842, 49.65292], [5.985826, 49.65292], [5.985727, 49.652874], [5.985628, 49.652836], [5.985567, 49.65281], [5.985361, 49.65273], [5.985277, 49.652695], [5.985163, 49.652653], [5.984968, 49.65258], [5.984896, 49.652546], [5.984667, 49.65244], [5.984533, 49.65237], [5.984373, 49.652298], [5.984201, 49.65222], [5.983961, 49.652126], [5.983614, 49.651985], [5.983412, 49.651894], [5.983141, 49.65176], [5.982962, 49.65166], [5.982927, 49.65164], [5.982901, 49.65163], [5.982573, 49.651443], [5.982405, 49.651337], [5.982271, 49.65124], [5.981932, 49.65097], [5.981588, 49.650665], [5.981298, 49.650375], [5.981283, 49.650368], [5.981184, 49.65032], [5.980932, 49.650192], [5.980574, 49.65], [5.980021, 49.649693], [5.979933, 49.649643], [5.979864, 49.649605], [5.979689, 49.649513], [5.979528, 49.64944], [5.979212, 49.649307], [5.979162, 49.64929], [5.979116, 49.649265], [5.978868, 49.649166], [5.978422, 49.648983], [5.978445, 49.64895], [5.978155, 49.648853], [5.978121, 49.64884], [5.977983, 49.648796], [5.977514, 49.64864], [5.977579, 49.64857], [5.977423, 49.648537], [5.977392, 49.648582], [5.976652, 49.64844], [5.97629, 49.648373], [5.976191, 49.648357], [5.975794, 49.64828], [5.975439, 49.648212], [5.975077, 49.64808], [5.97502, 49.64806], [5.975027, 49.648], [5.974558, 49.64796], [5.974527, 49.64811], [5.974264, 49.64814], [5.973963, 49.64817], [5.973837, 49.648174], [5.973692, 49.648174], [5.973535, 49.64817], [5.973371, 49.64816], [5.973188, 49.648148], [5.972998, 49.648125], [5.972753, 49.64809], [5.972555, 49.64806], [5.972597, 49.64797], [5.972532, 49.647926], [5.972483, 49.647907], [5.972422, 49.647892], [5.972376, 49.64789], [5.972319, 49.647884], [5.972261, 49.64789], [5.972044, 49.6479], [5.971781, 49.647915], [5.971705, 49.647915], [5.971499, 49.6479], [5.971159, 49.64786], [5.971064, 49.64785], [5.970903, 49.647816], [5.970861, 49.6478], [5.970739, 49.64775], [5.970652, 49.647705], [5.970572, 49.647655], [5.970491, 49.647594], [5.970449, 49.647564], [5.9704, 49.647545], [5.970381, 49.647514], [5.970285, 49.647476], [5.970243, 49.64746], [5.970179, 49.64748], [5.970064, 49.64751], [5.969953, 49.647537], [5.96987, 49.647552], [5.969717, 49.647568], [5.969583, 49.647575], [5.969362, 49.647575], [5.969316, 49.647583], [5.96921, 49.64762], [5.969072, 49.647655], [5.96887, 49.647705], [5.968759, 49.647724], [5.968634, 49.647743], [5.968523, 49.64775], [5.968481, 49.64775], [5.968294, 49.64776], [5.968103, 49.647762], [5.968023, 49.647766], [5.967844, 49.64776], [5.967627, 49.647747], [5.967455, 49.64773], [5.967382, 49.64772], [5.967321, 49.647713], [5.967279, 49.64771], [5.967234, 49.6477], [5.967112, 49.647686], [5.967051, 49.64768], [5.96694, 49.64765], [5.966818, 49.647552], [5.966661, 49.647434], [5.966341, 49.647182], [5.965898, 49.646847], [5.96559, 49.646603], [5.96538, 49.646446], [5.965181, 49.6463], [5.964865, 49.646187], [5.96427, 49.645973], [5.963743, 49.645786], [5.963335, 49.645638], [5.963347, 49.645596], [5.963404, 49.6454], [5.963442, 49.645283], [5.96353, 49.645008], [5.96361, 49.64479], [5.963648, 49.644638], [5.963682, 49.644493], [5.963858, 49.64379], [5.963289, 49.64374], [5.962889, 49.64371], [5.962774, 49.643696], [5.962507, 49.643654], [5.962336, 49.64362], [5.962141, 49.643578], [5.961893, 49.643513], [5.96171, 49.64346], [5.961611, 49.64343], [5.961474, 49.643394], [5.961286, 49.643356], [5.960928, 49.64328], [5.960775, 49.64325], [5.960634, 49.64322], [5.960539, 49.643208], [5.960306, 49.643177], [5.960207, 49.643166], [5.960024, 49.64314], [5.959867, 49.643112], [5.959665, 49.643063], [5.959398, 49.642986], [5.958799, 49.64279], [5.958738, 49.642773], [5.958704, 49.642796], [5.957895, 49.64349], [5.957422, 49.643925], [5.956835, 49.644474], [5.956583, 49.644726], [5.955885, 49.64531], [5.955763, 49.6454], [5.955667, 49.645473], [5.955549, 49.64556], [5.955301, 49.645733], [5.954626, 49.646164], [5.954233, 49.64637], [5.954061, 49.646442], [5.95365, 49.646587], [5.953314, 49.646713], [5.952791, 49.646904], [5.952738, 49.646923], [5.951452, 49.64733], [5.951292, 49.64738], [5.950491, 49.647625], [5.949339, 49.647953], [5.948271, 49.648235], [5.947748, 49.648396], [5.947287, 49.64857], [5.947336, 49.64863], [5.945543, 49.649975], [5.944685, 49.650715], [5.94414, 49.6512], [5.943247, 49.65217], [5.942789, 49.652664], [5.942675, 49.65279], [5.942228, 49.653275], [5.941675, 49.65383], [5.940954, 49.654415], [5.940546, 49.654713], [5.939897, 49.655056], [5.938318, 49.65594], [5.935873, 49.65733], [5.935198, 49.6576], [5.932699, 49.65838], [5.932196, 49.65852], [5.929686, 49.658966], [5.928129, 49.659184], [5.928366, 49.659756], [5.928534, 49.660164], [5.928587, 49.660328], [5.928595, 49.660408], [5.928583, 49.660522], [5.928537, 49.660675], [5.928472, 49.66081], [5.928385, 49.660927], [5.928225, 49.661133], [5.928, 49.661377], [5.927832, 49.661556], [5.927759, 49.661667], [5.927702, 49.661835], [5.927637, 49.661972], [5.927538, 49.662132], [5.927446, 49.66223], [5.927061, 49.66265], [5.926821, 49.66287], [5.926611, 49.66308], [5.926416, 49.663315], [5.92621, 49.663692], [5.925997, 49.66411], [5.925703, 49.664753], [5.925615, 49.664894], [5.925516, 49.665035], [5.925432, 49.665195], [5.925337, 49.66541], [5.925258, 49.665666], [5.925199, 49.665913], [5.925151, 49.666142], [5.925104, 49.666348], [5.925055, 49.666473], [5.92499, 49.6666], [5.924776, 49.666878], [5.924578, 49.66715], [5.924295, 49.6675], [5.923582, 49.668343], [5.922739, 49.669376], [5.921919, 49.670425], [5.921678, 49.670742], [5.921579, 49.670876], [5.921553, 49.670933], [5.921385, 49.671062], [5.921297, 49.6711], [5.920832, 49.671288], [5.920355, 49.67147], [5.919634, 49.67173], [5.918882, 49.671978], [5.917704, 49.672356], [5.9177, 49.672462], [5.917688, 49.672527]]]]}}]}