{"type": "FeatureCollection", "features": [{"type": "Feature", "properties": {"name": "Consthum"}, "geometry": {"type": "Polygon", "coordinates": [[[6.0403967, 49.9471291], [6.0404651, 49.9472373], [6.0405634, 49.9473929], [6.0406156, 49.9475508], [6.04069, 49.9477907], [6.0406638, 49.9480724], [6.0406285, 49.9482532], [6.0406268, 49.9483062], [6.0406374, 49.9483781], [6.0406651, 49.9484511], [6.0407013, 49.948514], [6.0408077, 49.948648], [6.0410075, 49.948876], [6.0410429, 49.948924], [6.0410521, 49.948957], [6.0410458, 49.948989], [6.0410086, 49.9490369], [6.0410049, 49.9490411], [6.0407626, 49.9493134], [6.0405351, 49.9496228], [6.0404412, 49.9497516], [6.0403776, 49.9498205], [6.0401728, 49.95003], [6.0399626, 49.9502356], [6.0399083, 49.9502815], [6.0396905, 49.9504421], [6.0394007, 49.9506136], [6.0392667, 49.9506854], [6.0390652, 49.9508051], [6.0388864, 49.9509157], [6.0396553, 49.9512343], [6.0399678, 49.9512524], [6.0399879, 49.9512536], [6.0401959, 49.9512923], [6.0402927, 49.9513103], [6.0404093, 49.951332], [6.0405587, 49.9514166], [6.0406179, 49.9514501], [6.0410079, 49.9517303], [6.0411067, 49.9518023], [6.0412356, 49.9519144], [6.0412619, 49.9519364], [6.0414039, 49.9520724], [6.0415507, 49.9522383], [6.041616, 49.9522964], [6.0416855, 49.9523604], [6.0418384, 49.9524665], [6.0418994, 49.9525135], [6.0419612, 49.9525715], [6.042029, 49.9526565], [6.0421308, 49.9527915], [6.042201, 49.9528718], [6.0422627, 49.9529425], [6.0422935, 49.9529935], [6.0423103, 49.9530744], [6.0423169, 49.9531674], [6.0423185, 49.9531903], [6.0423006, 49.9532111], [6.0421944, 49.953334], [6.0420438, 49.9535287], [6.0419964, 49.9535933], [6.0418261, 49.9537654], [6.0417314, 49.9538657], [6.0416945, 49.9539048], [6.0416725, 49.9539281], [6.0415996, 49.953993], [6.0414926, 49.9540708], [6.041388, 49.9541296], [6.0413633, 49.9541405], [6.0412192, 49.9542043], [6.0411789, 49.9542151], [6.0410999, 49.9542362], [6.0409528, 49.954278], [6.0407623, 49.9543467], [6.0405191, 49.9544044], [6.0402049, 49.954479], [6.0401623, 49.9544879], [6.0399416, 49.9546154], [6.0398896, 49.9546455], [6.0395279, 49.9548175], [6.0390684, 49.9550236], [6.0389958, 49.9550749], [6.0389107, 49.9551456], [6.0388451, 49.9552164], [6.0388016, 49.9552825], [6.0387181, 49.9553943], [6.0386632, 49.9554502], [6.038594, 49.9555152], [6.0384771, 49.9556087], [6.0383459, 49.9557205], [6.0382931, 49.955789], [6.0381655, 49.9559543], [6.0380609, 49.9560581], [6.0380245, 49.9561152], [6.0379854, 49.9562099], [6.0379444, 49.9563137], [6.0378787, 49.956421], [6.0377057, 49.9566389], [6.0376134, 49.9567461], [6.0374899, 49.9569561], [6.0374544, 49.9570302], [6.0372881, 49.9573509], [6.0372401, 49.9574536], [6.0371878, 49.9575175], [6.0370991, 49.957595], [6.0370608, 49.9576287], [6.0370123, 49.9576714], [6.036952, 49.9577284], [6.0369076, 49.9578026], [6.0368835, 49.9578928], [6.036862, 49.9579693], [6.0368265, 49.9580092], [6.0368, 49.9580263], [6.036738, 49.9580593], [6.0366548, 49.9580889], [6.0366441, 49.9581254], [6.036674, 49.9581746], [6.0369074, 49.9581885], [6.0371099, 49.9582059], [6.0374121, 49.9582702], [6.0378203, 49.9583974], [6.0381278, 49.9585039], [6.0383792, 49.9585835], [6.038715, 49.9586593], [6.0389024, 49.9586949], [6.0389395, 49.9587315], [6.0390098, 49.9587894], [6.0390145, 49.9587932], [6.0390833, 49.9588458], [6.0391664, 49.9589091], [6.0392951, 49.959007], [6.039447, 49.9591042], [6.0397986, 49.9593367], [6.040122, 49.9595489], [6.0401991, 49.9595995], [6.0403191, 49.9596909], [6.0405671, 49.9599002], [6.0406888, 49.9599973], [6.040793, 49.9600762], [6.0409166, 49.9601586], [6.0410658, 49.9602489], [6.041263, 49.9603739], [6.0413536, 49.9604285], [6.0416114, 49.9606001], [6.0416723, 49.9606458], [6.0418452, 49.9607956], [6.0419943, 49.9609362], [6.0420182, 49.9609633], [6.0420596, 49.9610104], [6.0420966, 49.9610584], [6.0421263, 49.9611011], [6.0421301, 49.9611064], [6.04216, 49.9611693], [6.0421758, 49.9612172], [6.042195, 49.9612938], [6.0422291, 49.9614742], [6.0422569, 49.9616501], [6.0428199, 49.9617203], [6.0428055, 49.9618265], [6.0428039, 49.9618368], [6.042792, 49.9619167], [6.0427652, 49.962016], [6.0427277, 49.9621221], [6.0426976, 49.9621655], [6.0426603, 49.9622031], [6.0425992, 49.9622499], [6.0424486, 49.9623525], [6.0423901, 49.9624152], [6.042335, 49.9624837], [6.0421297, 49.962891], [6.0420889, 49.9630022], [6.0420719, 49.9630752], [6.0420608, 49.9631227], [6.0419975, 49.9633944], [6.0419816, 49.9634001], [6.0419267, 49.9634001], [6.0418949, 49.9633932], [6.0418507, 49.9633794], [6.0417853, 49.9633668], [6.0417641, 49.9633611], [6.0417394, 49.9633576], [6.0417093, 49.9633576], [6.0416916, 49.9633587], [6.0416288, 49.9633643], [6.041574, 49.9633574], [6.0415404, 49.963346], [6.0415228, 49.9633243], [6.041484, 49.9632774], [6.041454, 49.963258], [6.0413921, 49.9632408], [6.0413196, 49.9632338], [6.0412966, 49.9632361], [6.0412435, 49.963244], [6.0411975, 49.96326], [6.0411267, 49.9632827], [6.0411143, 49.9632827], [6.0410099, 49.963278], [6.0408918, 49.96326], [6.0408128, 49.9632676], [6.0407367, 49.9632686], [6.0406536, 49.963256], [6.0405626, 49.9632369], [6.0405299, 49.9632227], [6.040498, 49.9632193], [6.0404644, 49.9632192], [6.0403937, 49.9632317], [6.0403441, 49.9632294], [6.0402398, 49.9632064], [6.0401921, 49.9631927], [6.0401567, 49.9631903], [6.0401267, 49.9631937], [6.0400382, 49.9632176], [6.0399019, 49.9632232], [6.0397613, 49.9632242], [6.0395226, 49.9632056], [6.039328, 49.9631974], [6.0391759, 49.9632007], [6.0385321, 49.9632647], [6.0382914, 49.9633238], [6.0379675, 49.9634194], [6.0375576, 49.9635765], [6.0371945, 49.9637394], [6.0368005, 49.9639205], [6.0367633, 49.9639421], [6.0366817, 49.9640002], [6.0366038, 49.964047], [6.0365028, 49.9640925], [6.0364356, 49.9641119], [6.0363666, 49.9641243], [6.0362923, 49.964122], [6.0361738, 49.9641036], [6.0361084, 49.9640989], [6.0360562, 49.9641023], [6.0359252, 49.9641433], [6.0357924, 49.9641865], [6.0357623, 49.9641933], [6.0356349, 49.9642126], [6.0355075, 49.9642273], [6.035396, 49.9642454], [6.0350677, 49.9643136], [6.0347333, 49.964368], [6.0344873, 49.9644225], [6.0343281, 49.9644086], [6.0342971, 49.9644153], [6.0342874, 49.9644174], [6.0341865, 49.9644393], [6.0341774, 49.964441], [6.0340529, 49.9644643], [6.0335414, 49.9645676], [6.033276, 49.9646186], [6.0330875, 49.9646413], [6.0329, 49.9646582], [6.0327337, 49.9646694], [6.0324541, 49.9646885], [6.0323621, 49.9647021], [6.0322594, 49.9647339], [6.0321115, 49.964816], [6.0320407, 49.9648547], [6.0319787, 49.9648775], [6.0318318, 49.9649024], [6.0315469, 49.96495], [6.0312743, 49.9650137], [6.0311655, 49.9650272], [6.031047, 49.9650317], [6.030902, 49.9650109], [6.030734, 49.9649788], [6.0306033, 49.9649261], [6.0304991, 49.9648757], [6.0304196, 49.9648334], [6.0304178, 49.9648334], [6.0304037, 49.9648265], [6.0303454, 49.9648036], [6.0302694, 49.9647727], [6.0302032, 49.9647349], [6.0301078, 49.9646812], [6.0300018, 49.9646376], [6.0299417, 49.9646239], [6.0298816, 49.9646181], [6.0297861, 49.9646157], [6.0296941, 49.9646076], [6.0296146, 49.9645858], [6.0294237, 49.9645331], [6.0292806, 49.9644861], [6.0291136, 49.9644356], [6.0289634, 49.9643829], [6.0287108, 49.9642605], [6.0286455, 49.964217], [6.028559, 49.9641313], [6.0284637, 49.9640809], [6.0283754, 49.9640226], [6.0283399, 49.9639505], [6.0283256, 49.9639939], [6.0282972, 49.9640224], [6.0282246, 49.9640611], [6.028129, 49.9640793], [6.0280706, 49.9640986], [6.0279961, 49.9641705], [6.027941, 49.9642652], [6.0278486, 49.964345], [6.0277485, 49.9644088], [6.0277183, 49.9644293], [6.0276872, 49.9644738], [6.0276481, 49.9645617], [6.0275929, 49.9646941], [6.0275456, 49.9647762], [6.0275243, 49.964799], [6.0274746, 49.9648378], [6.0272992, 49.9649632], [6.0271103, 49.9651342], [6.026878, 49.9653178], [6.0268212, 49.9654045], [6.0267786, 49.9654569], [6.0267121, 49.9655082], [6.0265738, 49.9656154], [6.0265046, 49.9656964], [6.0264408, 49.9657374], [6.0263788, 49.9657636], [6.0262707, 49.965816], [6.0262273, 49.9658479], [6.0261793, 49.9659129], [6.0261349, 49.9659905], [6.0261081, 49.9660773], [6.026108, 49.9661081], [6.026161, 49.966147], [6.0261785, 49.9661961], [6.0261881, 49.9662361], [6.0261756, 49.9662726], [6.0261826, 49.9663103], [6.0262214, 49.9663434], [6.0263026, 49.9664098], [6.0263538, 49.9664361], [6.0264651, 49.9664807], [6.0265234, 49.9665219], [6.0266335, 49.9666613], [6.0267569, 49.9668156], [6.0268565, 49.9669505], [6.0269304, 49.9670853], [6.0270987, 49.9672773], [6.0272484, 49.96748], [6.0272801, 49.9675257], [6.0274301, 49.9676686], [6.0275076, 49.9677726], [6.0275164, 49.9677966], [6.0270411, 49.9676031], [6.0266912, 49.9674691], [6.02636, 49.9673282], [6.0260791, 49.9672023], [6.0258548, 49.9670947], [6.0256331, 49.9669711], [6.0254054, 49.9668235], [6.025243, 49.9666932], [6.0251275, 49.9665754], [6.0250518, 49.9664532], [6.024949, 49.9662338], [6.0248961, 49.9661481], [6.024852, 49.9661138], [6.0248025, 49.9660978], [6.0247495, 49.9660943], [6.0246584, 49.9660987], [6.0246397, 49.9661284], [6.0245225, 49.9663029], [6.0244391, 49.9663919], [6.0243734, 49.9664512], [6.0241191, 49.9666278], [6.0240393, 49.9666951], [6.0239088, 49.9668422], [6.0236712, 49.9670258], [6.0235524, 49.9671238], [6.0234681, 49.9672265], [6.0234093, 49.9673748], [6.023327, 49.9676971], [6.0233242, 49.967739], [6.0233314, 49.9679947], [6.0236333, 49.9682684], [6.0237806, 49.9683885], [6.0238741, 49.9684754], [6.0239217, 49.9685531], [6.02403, 49.9687074], [6.0240692, 49.9687501], [6.0241799, 49.9688708], [6.0243016, 49.9689783], [6.0244702, 49.969111], [6.0245602, 49.9691762], [6.0248382, 49.9693706], [6.0249478, 49.9694312], [6.0250679, 49.9694919], [6.0252781, 49.9695732], [6.0256616, 49.9697084], [6.0259559, 49.9697967], [6.0261538, 49.9698655], [6.0267415, 49.9700626], [6.0270561, 49.9701611], [6.0273901, 49.970254], [6.0278789, 49.9703825], [6.0280397, 49.9704352], [6.0281263, 49.9704707], [6.0284974, 49.9706162], [6.0286838, 49.970686], [6.0289648, 49.9707823], [6.0293678, 49.9709095], [6.0294941, 49.970961], [6.0294781, 49.9709758], [6.0292156, 49.9712198], [6.0291179, 49.971295], [6.0290668, 49.9713289], [6.0290208, 49.9713183], [6.0290039, 49.9713295], [6.0287276, 49.971512], [6.0284782, 49.9716716], [6.0277766, 49.9720616], [6.027618, 49.9721375], [6.027393, 49.9722454], [6.0272922, 49.9722936], [6.0266374, 49.9726714], [6.0258941, 49.9730553], [6.0257322, 49.9732327], [6.0256127, 49.9733637], [6.0256039, 49.9733707], [6.0256622, 49.9733716], [6.0257294, 49.9733637], [6.0258463, 49.973341], [6.025972, 49.9733092], [6.0260853, 49.9732842], [6.0261764, 49.9732729], [6.0262383, 49.973273], [6.0263179, 49.9732799], [6.0264028, 49.9732915], [6.0264612, 49.9733075], [6.0265194, 49.9733373], [6.0265512, 49.9733636], [6.0266024, 49.9734105], [6.0266395, 49.9734379], [6.0266854, 49.9734528], [6.0267473, 49.9734734], [6.0267755, 49.9734906], [6.0267887, 49.9735192], [6.0268097, 49.9735888], [6.0268467, 49.9736677], [6.0269012, 49.9737659], [6.0269867, 49.9738802], [6.0270555, 49.9739488], [6.0271208, 49.9740014], [6.0271808, 49.974038], [6.0272215, 49.9740563], [6.0272886, 49.9740849], [6.0273487, 49.9741078], [6.0273893, 49.9741342], [6.0274087, 49.9741502], [6.0274264, 49.9741719], [6.0274554, 49.9742233], [6.0274747, 49.9742656], [6.0275256, 49.9744278], [6.0275756, 49.974574], [6.0276178, 49.9746665], [6.0276636, 49.9747385], [6.0277112, 49.9747991], [6.0277463, 49.9748676], [6.027763, 49.9749384], [6.0277733, 49.9750275], [6.0277926, 49.9750926], [6.0278243, 49.9751337], [6.0278737, 49.9751795], [6.027909, 49.9752161], [6.0279443, 49.9752561], [6.0279805, 49.9752812], [6.028014, 49.9753189], [6.0280492, 49.9753761], [6.0280774, 49.9754069], [6.0281198, 49.9754298], [6.0282859, 49.9755145], [6.0283088, 49.9755317], [6.0283317, 49.9755568], [6.0284102, 49.9756631], [6.0284384, 49.9756962], [6.0284931, 49.9757351], [6.0285797, 49.9757809], [6.0286804, 49.9758267], [6.0287794, 49.9758668], [6.0288589, 49.9758966], [6.0290993, 49.9759779], [6.0292628, 49.976034], [6.0294589, 49.9761405], [6.0295578, 49.9761977], [6.0297079, 49.9762835], [6.0298228, 49.9763384], [6.0298872, 49.9763796], [6.0300107, 49.9764996], [6.0301096, 49.9765648], [6.0302509, 49.9766369], [6.030387, 49.976701], [6.0305752, 49.9767812], [6.0307062, 49.9768354], [6.0309855, 49.9769213], [6.0312489, 49.977013], [6.0313469, 49.9770542], [6.0315183, 49.9771332], [6.0316932, 49.977219], [6.0317339, 49.9772442], [6.0317497, 49.9772625], [6.0317831, 49.9773504], [6.0318084, 49.9774681], [6.0318346, 49.9775914], [6.031861, 49.9776645], [6.0319033, 49.9777274], [6.0319853, 49.9778199], [6.0320223, 49.9778679], [6.0320452, 49.9779079], [6.0320468, 49.9779479], [6.032044, 49.9780009], [6.0319737, 49.9781766], [6.0319635, 49.9782113], [6.0319637, 49.9782504], [6.0320148, 49.9783155], [6.0320624, 49.9783772], [6.0320984, 49.9784983], [6.0320962, 49.97853], [6.0320606, 49.9785871], [6.032002, 49.9786772], [6.0319934, 49.9787231], [6.0320328, 49.978851], [6.0320379, 49.9789127], [6.0320464, 49.9790668], [6.0320727, 49.9791457], [6.0321017, 49.9791914], [6.0322498, 49.9793856], [6.0323116, 49.9794405], [6.0323434, 49.9794611], [6.0323999, 49.9794829], [6.0325184, 49.9795287], [6.0325723, 49.9795573], [6.0326199, 49.9796042], [6.0326604, 49.9796727], [6.0326921, 49.9797355], [6.0327185, 49.9797596], [6.0327715, 49.9797904], [6.0328634, 49.9798328], [6.0330835, 49.979913], [6.033414, 49.9800435], [6.0337339, 49.9801626], [6.03384, 49.9801959], [6.0340115, 49.9802497], [6.034129, 49.9802944], [6.0343022, 49.9803768], [6.0344206, 49.9804432], [6.0346917, 49.9806262], [6.0348365, 49.9807142], [6.035022, 49.9808378], [6.0352092, 49.9809476], [6.0352436, 49.9809819], [6.0352948, 49.9810287], [6.0353567, 49.9810608], [6.0354538, 49.9811168], [6.0354909, 49.9811523], [6.035505, 49.9811763], [6.0355102, 49.9812003], [6.0355207, 49.9812437], [6.0355507, 49.9812722], [6.0355984, 49.9813031], [6.0356822, 49.9813523], [6.0356719, 49.9813589], [6.0356824, 49.9814194], [6.0357451, 49.981472], [6.0357768, 49.9814983], [6.0358828, 49.9815738], [6.0359904, 49.981643], [6.0361672, 49.9817568], [6.0362281, 49.9818162], [6.0362615, 49.9818676], [6.036279, 49.9819533], [6.0362556, 49.9820846], [6.0362049, 49.9822078], [6.036155, 49.9823231], [6.036105, 49.982492], [6.0360925, 49.9825354], [6.0360577, 49.9826393], [6.0360025, 49.9827716], [6.0359882, 49.9828253], [6.0360083, 49.9829212], [6.0362464, 49.9832252], [6.0362059, 49.9834444], [6.036204, 49.983498], [6.0361968, 49.9835551], [6.0361621, 49.9836156], [6.0361106, 49.9836795], [6.0359651, 49.9838552], [6.0358355, 49.9839886], [6.035506, 49.9843034], [6.0355517, 49.984347], [6.0356415, 49.9843901], [6.0358322, 49.9844288], [6.035995, 49.9844326], [6.0360995, 49.9844004], [6.0367376, 49.9842042], [6.0370434, 49.9841165], [6.0371885, 49.9840967], [6.0372364, 49.9840921], [6.0372707, 49.9840888], [6.0374909, 49.984094], [6.037531, 49.9840992], [6.0376862, 49.9841193], [6.0379543, 49.9841806], [6.0383534, 49.9842971], [6.0384575, 49.9843338], [6.0385842, 49.9843784], [6.0387648, 49.9844474], [6.0389425, 49.9845166], [6.0391579, 49.9846122], [6.0395208, 49.9847906], [6.0393316, 49.985051], [6.0398593, 49.985037], [6.0400296, 49.9850316], [6.040277, 49.9850238], [6.040463, 49.9848266], [6.0405205, 49.9847557], [6.0405462, 49.9847168], [6.0406083, 49.984604], [6.0406628, 49.9845059], [6.0407173, 49.984432], [6.0407491, 49.9843834], [6.0407582, 49.9843611], [6.0407673, 49.9843299], [6.040784, 49.9843076], [6.0408218, 49.9842639], [6.0408445, 49.9842279], [6.0408521, 49.9841929], [6.0408567, 49.9841618], [6.0408749, 49.9841326], [6.0408871, 49.9840996], [6.0409008, 49.9840461], [6.0409144, 49.9840111], [6.0409431, 49.9839717], [6.0409568, 49.9839528], [6.0409885, 49.9839168], [6.0410022, 49.9838799], [6.0410219, 49.9838429], [6.0410446, 49.9837982], [6.0410609, 49.9837625], [6.0410754, 49.9837305], [6.0410795, 49.9837214], [6.0411083, 49.9836738], [6.0411646, 49.983605], [6.0411758, 49.9835954], [6.0412856, 49.9836259], [6.0414042, 49.9836705], [6.0415271, 49.9837286], [6.0416918, 49.983802], [6.0417502, 49.9838246], [6.0418008, 49.9838336], [6.0418321, 49.983837], [6.0418863, 49.9838303], [6.0421569, 49.9837833], [6.0423114, 49.9837554], [6.04241, 49.9837431], [6.0424816, 49.9837364], [6.042588, 49.9837365], [6.0427441, 49.9837603], [6.042813, 49.9837711], [6.0428426, 49.9837824], [6.042874, 49.9837993], [6.0429237, 49.9838202], [6.0429551, 49.983832], [6.0429934, 49.9838523], [6.0430291, 49.9838704], [6.0430875, 49.9838941], [6.0431058, 49.9839065], [6.0431345, 49.9839544], [6.0432214, 49.9840873], [6.0432449, 49.9841166], [6.0432745, 49.9841453], [6.0433076, 49.9841639], [6.0433704, 49.9841786], [6.043434, 49.9841877], [6.043509, 49.984221], [6.0436475, 49.9843073], [6.0437215, 49.9843541], [6.0437468, 49.9843772], [6.0437519, 49.9844048], [6.0437597, 49.984425], [6.043792, 49.9844493], [6.0438059, 49.9844667], [6.043818, 49.9844909], [6.0438372, 49.9845163], [6.043872, 49.9845417], [6.044196, 49.9847469], [6.0443293, 49.9848433], [6.0444138, 49.9849058], [6.0444712, 49.984956], [6.0445878, 49.9850991], [6.0446538, 49.9851931], [6.0446686, 49.9852258], [6.0446746, 49.9852843], [6.0446875, 49.9853395], [6.0447256, 49.9854493], [6.044736, 49.9854887], [6.0447472, 49.9855304], [6.0447558, 49.985572], [6.0447854, 49.9856244], [6.0448158, 49.9856537], [6.0448698, 49.9856921], [6.0449003, 49.9857106], [6.0449247, 49.9857349], [6.0449455, 49.9857794], [6.0449742, 49.9858256], [6.0450212, 49.985874], [6.0451414, 49.9859687], [6.045252, 49.9860442], [6.0453548, 49.9861062], [6.0454114, 49.9861457], [6.0454732, 49.9861891], [6.0455177, 49.9862179], [6.0455494, 49.9862397], [6.0455716, 49.9862625], [6.0455862, 49.9862844], [6.045626, 49.9863351], [6.0456834, 49.9863609], [6.0457396, 49.9863791], [6.0458029, 49.9864019], [6.0458544, 49.9864458], [6.0459223, 49.9864867], [6.0460113, 49.9865148], [6.0461868, 49.986556], [6.046251, 49.986571], [6.0463342, 49.9865968], [6.046381, 49.9866188], [6.0464513, 49.9866665], [6.0465157, 49.9867052], [6.0465696, 49.9867257], [6.0466129, 49.9867348], [6.0466973, 49.9867402], [6.0468574, 49.9867434], [6.046977, 49.986742], [6.047031, 49.9867352], [6.047099, 49.9867285], [6.0471682, 49.9867119], [6.0473056, 49.9866538], [6.0473748, 49.9866259], [6.0474605, 49.986595], [6.0475274, 49.9865678], [6.0476349, 49.9865082], [6.0476842, 49.9864893], [6.0477593, 49.9864485], [6.0478157, 49.9864153], [6.0478486, 49.9864002], [6.0479084, 49.9863723], [6.0479589, 49.9863474], [6.048027, 49.9863141], [6.0480997, 49.9862991], [6.0481484, 49.9862946], [6.0481942, 49.9862947], [6.0482516, 49.9863076], [6.0482891, 49.9863235], [6.0483429, 49.9863584], [6.0484014, 49.9864083], [6.0484529, 49.9864568], [6.0485033, 49.9864864], [6.0485513, 49.9865], [6.0486017, 49.9865076], [6.0486791, 49.9865145], [6.0488046, 49.9865146], [6.049137, 49.9865158], [6.0492601, 49.9865265], [6.0493809, 49.9865402], [6.0494371, 49.9865531], [6.0495713, 49.9865971], [6.0497986, 49.9866738], [6.0500388, 49.9867466], [6.0504342, 49.9868817], [6.0506381, 49.9869439], [6.0507893, 49.9869864], [6.0509668, 49.9870282], [6.0511145, 49.9870624], [6.05137, 49.9871148], [6.0516871, 49.9871681], [6.0517774, 49.9871871], [6.0518195, 49.9872068], [6.0518957, 49.9872402], [6.0520198, 49.9873046], [6.0520889, 49.9873334], [6.052393, 49.9874593], [6.0527632, 49.9876125], [6.0532083, 49.9878035], [6.0532125, 49.9878135], [6.0531396, 49.9878969], [6.0530782, 49.9879671], [6.0530507, 49.9879986], [6.0527059, 49.9883932], [6.0526125, 49.9884887], [6.0525478, 49.9885398], [6.0524802, 49.9885842], [6.0524258, 49.9886353], [6.0523699, 49.9887005], [6.052333, 49.9887573], [6.0523065, 49.9888226], [6.0522813, 49.9889115], [6.0522738, 49.9889901], [6.0522795, 49.9890743], [6.0523079, 49.9891501], [6.0523524, 49.9892343], [6.052386, 49.9893025], [6.0524283, 49.9894057], [6.0524355, 49.9894587], [6.0524281, 49.989508], [6.0524332, 49.9895392], [6.0524242, 49.9896007], [6.0524124, 49.9896319], [6.0523947, 49.9896688], [6.0523769, 49.9897379], [6.0523503, 49.9898411], [6.0523317, 49.9899319], [6.0523138, 49.9900464], [6.0522959, 49.9901799], [6.0522906, 49.9902537], [6.052299, 49.9904316], [6.0523045, 49.9905661], [6.0522904, 49.9906796], [6.0522832, 49.9907204], [6.0521903, 49.9910894], [6.052089, 49.9913808], [6.0519599, 49.9916902], [6.0519009, 49.9918265], [6.051833, 49.9919674], [6.0517394, 49.9921443], [6.0515671, 49.9924206], [6.0515568, 49.9924366], [6.0516843, 49.9924917], [6.0518383, 49.9925448], [6.0519277, 49.9925875], [6.052108, 49.9926795], [6.0523161, 49.9928113], [6.0526355, 49.9930018], [6.0528847, 49.9931507], [6.0533023, 49.9933963], [6.0534943, 49.9935072], [6.0535969, 49.9935622], [6.0537157, 49.9936087], [6.0538184, 49.9936362], [6.0539005, 49.9936552], [6.0540384, 49.9936781], [6.0542511, 49.9936972], [6.0544448, 49.9937192], [6.0546663, 49.9937554], [6.0547881, 49.9937801], [6.0549802, 49.9938257], [6.0552134, 49.9938913], [6.0554773, 49.9939758], [6.0556138, 49.9940194], [6.0558176, 49.9940679], [6.0560333, 49.9941126], [6.0561741, 49.9941373], [6.0562386, 49.9941582], [6.05635, 49.9942104], [6.0564072, 49.9942521], [6.0565142, 49.9943062], [6.0566022, 49.994345], [6.0567291, 49.9943922], [6.0567226, 49.9944143], [6.0566497, 49.9946671], [6.0566216, 49.9947505], [6.0565477, 49.9949009], [6.0564434, 49.9950578], [6.0565114, 49.9950922], [6.0569222, 49.9953003], [6.0570236, 49.9953429], [6.0574657, 49.9955285], [6.0575016, 49.9955436], [6.0577734, 49.9956577], [6.0580765, 49.9957938], [6.0582967, 49.9958928], [6.0586855, 49.9960675], [6.0584641, 49.9963829], [6.0587505, 49.9964897], [6.0592294, 49.9966682], [6.0587739, 49.9970289], [6.0585155, 49.9972335], [6.0583856, 49.9974623], [6.0587784, 49.9976279], [6.0590393, 49.9977492], [6.0591557, 49.9978127], [6.0592825, 49.9978819], [6.0595332, 49.9980375], [6.0595893, 49.9980787], [6.0596826, 49.9981472], [6.059316, 49.9987717], [6.05956, 49.9988797], [6.0598532, 49.9990094], [6.0598595, 49.9990128], [6.0602292, 49.9992147], [6.0602762, 49.9992404], [6.0604708, 49.9995529], [6.0605558, 49.9996941], [6.0607168, 49.9999617], [6.0607521, 50.0000204], [6.0608408, 50.0001677], [6.0608196, 50.000507], [6.0608098, 50.0006642], [6.0608028, 50.0007512], [6.0607934, 50.0009196], [6.0607721, 50.0011742], [6.0607612, 50.0013038], [6.0607517, 50.001417], [6.0607391, 50.0015488], [6.0607195, 50.001666], [6.0607142, 50.0016976], [6.0607017, 50.0017475], [6.0606844, 50.0018312], [6.0606341, 50.0020746], [6.0605923, 50.0022618], [6.0605867, 50.0022869], [6.0605118, 50.0026231], [6.0605024, 50.0026651], [6.0603986, 50.0030871], [6.0603829, 50.0031385], [6.0603123, 50.0032112], [6.060178, 50.0033457], [6.0597444, 50.0037253], [6.0599117, 50.00383], [6.05995, 50.00386], [6.0600147, 50.003933], [6.0601673, 50.004097], [6.060274, 50.004223], [6.060316, 50.004246], [6.060343, 50.004257], [6.0603848, 50.00426], [6.0604496, 50.004265], [6.060507, 50.00427], [6.0605526, 50.004284], [6.0606365, 50.004326], [6.06069, 50.004353], [6.0607357, 50.004364], [6.0608425, 50.004375], [6.0609226, 50.004395], [6.0610065, 50.00442], [6.061075, 50.00446], [6.0611477, 50.004498], [6.0612164, 50.004517], [6.0612736, 50.004524], [6.061365, 50.004513], [6.061445, 50.004517], [6.061514, 50.004517], [6.0615864, 50.004517], [6.0616474, 50.004498], [6.0616856, 50.004475], [6.0617275, 50.004456], [6.0617733, 50.004448], [6.061823, 50.004436], [6.061846, 50.004417], [6.061861, 50.004395], [6.0619106, 50.004356], [6.061941, 50.004345], [6.0619793, 50.004345], [6.062006, 50.004333], [6.0620136, 50.004314], [6.0620136, 50.00429], [6.0620213, 50.00426], [6.0620556, 50.004234], [6.0621243, 50.0042], [6.062166, 50.004173], [6.0621967, 50.00417], [6.0622272, 50.004166], [6.06225, 50.004154], [6.062258, 50.00413], [6.0622654, 50.0041], [6.0622807, 50.004078], [6.0623074, 50.004063], [6.062357, 50.00404], [6.06238, 50.00402], [6.0624104, 50.00399], [6.062441, 50.00397], [6.06246, 50.003956], [6.062483, 50.003933], [6.0624866, 50.003895], [6.062479, 50.003834], [6.062479, 50.003796], [6.062502, 50.003742], [6.0625097, 50.0037343], [6.062521, 50.003723], [6.062559, 50.00371], [6.0625896, 50.003693], [6.0626316, 50.003662], [6.0626583, 50.003643], [6.0626965, 50.003616], [6.062727, 50.003574], [6.06275, 50.0035], [6.0627728, 50.00346], [6.0628223, 50.00339], [6.0628834, 50.00333], [6.062975, 50.003258], [6.0630093, 50.00324], [6.063036, 50.00322], [6.063051, 50.0032], [6.063074, 50.00317], [6.0630817, 50.00315], [6.063097, 50.00313], [6.063135, 50.003105], [6.063181, 50.003082], [6.063196, 50.00308], [6.0632343, 50.003063], [6.0632763, 50.00304], [6.063307, 50.003025], [6.0633335, 50.00303], [6.063349, 50.00303], [6.063387, 50.00302], [6.063486, 50.003006], [6.0635815, 50.002995], [6.0636387, 50.002983], [6.063715, 50.002968], [6.0637455, 50.002953], [6.0637875, 50.002926], [6.0638256, 50.002895], [6.0638638, 50.002872], [6.0639324, 50.002823], [6.0639668, 50.00279], [6.063986, 50.00276], [6.0639935, 50.002735], [6.0639935, 50.002697], [6.063986, 50.002613], [6.0639896, 50.002556], [6.064005, 50.002525], [6.064024, 50.002518], [6.064043, 50.002514], [6.064062, 50.0025], [6.0640736, 50.002464], [6.0640774, 50.00244], [6.064104, 50.002407], [6.06415, 50.00237], [6.064184, 50.00233], [6.0642185, 50.002285], [6.064253, 50.002243], [6.0642796, 50.002213], [6.064314, 50.00218], [6.064352, 50.002136], [6.064375, 50.0021], [6.064398, 50.00207], [6.064436, 50.002007], [6.064459, 50.001953], [6.064455, 50.001904], [6.0644207, 50.001858], [6.0643864, 50.001816], [6.0643063, 50.001747], [6.0642414, 50.001717], [6.0641994, 50.0017], [6.064127, 50.001705], [6.064089, 50.001705], [6.064039, 50.001698], [6.064005, 50.001682], [6.063978, 50.001656], [6.063963, 50.001595], [6.0639515, 50.001514], [6.0639324, 50.00144], [6.0639095, 50.00134], [6.063902, 50.001305], [6.063902, 50.00127], [6.0639133, 50.00122], [6.063944, 50.001152], [6.0639553, 50.001087], [6.063963, 50.00098], [6.0639515, 50.00078], [6.0639553, 50.000717], [6.063982, 50.00066], [6.0640507, 50.000572], [6.064104, 50.000496], [6.0641346, 50.000423], [6.0641537, 50.000328], [6.0641766, 50.000263], [6.0641994, 50.000237], [6.064226, 50.000206], [6.064272, 50.000164], [6.064291, 50.00015], [6.064348, 50.00012], [6.064413, 50.000095], [6.0645084, 50.000065], [6.0646496, 50.000015], [6.064806, 49.999958], [6.065012, 49.99991], [6.0652294, 49.999863], [6.065363, 49.99985], [6.065481, 49.999844], [6.0657597, 49.99983], [6.066107, 49.99982], [6.0662403, 49.99981], [6.0663204, 49.99979], [6.066416, 49.999752], [6.0665913, 49.99967], [6.066717, 49.999596], [6.0667667, 49.999546], [6.0667706, 49.999523], [6.066763, 49.999493], [6.0667744, 49.999477], [6.066805, 49.999462], [6.0668125, 49.99945], [6.0668087, 49.99943], [6.06682, 49.9994], [6.066839, 49.99936], [6.0668697, 49.999317], [6.0668964, 49.99928], [6.0669193, 49.999268], [6.0669537, 49.999264], [6.066984, 49.999256], [6.067011, 49.99924], [6.067034, 49.999218], [6.0670605, 49.99916], [6.0670795, 49.99913], [6.0671024, 49.99911], [6.0671673, 49.99908], [6.0672092, 49.999046], [6.0672474, 49.999016], [6.0672703, 49.998985], [6.067301, 49.998905], [6.06732, 49.99888], [6.0673428, 49.99886], [6.0673847, 49.998768], [6.067404, 49.99874], [6.0674343, 49.998714], [6.0674915, 49.998684], [6.0675716, 49.998653], [6.067732, 49.998634], [6.067793, 49.998634], [6.0678387, 49.998623], [6.0678654, 49.998623], [6.0678883, 49.998608], [6.0679035, 49.998604], [6.067919, 49.998615], [6.06793, 49.998627], [6.067953, 49.998627], [6.067995, 49.9986], [6.068033, 49.998585], [6.0681286, 49.998573], [6.0682163, 49.998573], [6.068247, 49.998566], [6.068266, 49.998543], [6.068289, 49.998512], [6.068308, 49.9985], [6.068331, 49.998497], [6.068384, 49.9985], [6.068449, 49.99852], [6.0685635, 49.998577], [6.0685863, 49.99859], [6.0686855, 49.99857], [6.0687504, 49.99857], [6.0687923, 49.998577], [6.068857, 49.99862], [6.068907, 49.998642], [6.0689487, 49.99865], [6.0689754, 49.998646], [6.0689945, 49.99863], [6.0690174, 49.998627], [6.0690517, 49.99864], [6.0691433, 49.998688], [6.0692043, 49.99871], [6.0692463, 49.99872], [6.0693264, 49.998714], [6.0693874, 49.998722], [6.069433, 49.998734], [6.069475, 49.998753], [6.069544, 49.998795], [6.069586, 49.998817], [6.0696316, 49.99883], [6.0697384, 49.998848], [6.0698147, 49.998863], [6.0698414, 49.998875], [6.0698757, 49.998898], [6.0698986, 49.99892], [6.069929, 49.998947], [6.069971, 49.998966], [6.070074, 49.998993], [6.070154, 49.999012], [6.070242, 49.99904], [6.0703487, 49.999077], [6.070402, 49.999092], [6.070467, 49.999084], [6.0704937, 49.999077], [6.070551, 49.999077], [6.0706196, 49.999092], [6.070753, 49.99913], [6.0708027, 49.99914], [6.070898, 49.99914], [6.070986, 49.999077], [6.071024, 49.999046], [6.071455, 49.99871], [6.072218, 49.99811], [6.072069, 49.998016], [6.072199, 49.997826], [6.0720882, 49.997517], [6.0722713, 49.997066], [6.0722904, 49.997025], [6.0724087, 49.996582], [6.0725574, 49.996616], [6.073271, 49.99679], [6.0738964, 49.99695], [6.0745373, 49.99711], [6.0752354, 49.997284], [6.0757084, 49.997395], [6.075926, 49.997444], [6.0767994, 49.99764], [6.077547, 49.997807], [6.078005, 49.997906], [6.078245, 49.99796], [6.078619, 49.99803], [6.0791683, 49.998135], [6.0799236, 49.99828], [6.080431, 49.99837], [6.08074, 49.998432], [6.0809917, 49.99848], [6.0812244, 49.998528], [6.0814953, 49.998577], [6.0822315, 49.998703], [6.0824757, 49.998753], [6.0829487, 49.998848], [6.083681, 49.999016], [6.0841427, 49.999123], [6.0846386, 49.99922], [6.084673, 49.999226], [6.084753, 49.999245], [6.0858364, 49.99945], [6.0859505, 49.9995024], [6.086054, 49.99955], [6.0871105, 49.99993], [6.087637, 50.00012], [6.0884647, 50.00043], [6.0889034, 50.00058], [6.089262, 50.000698], [6.089617, 50.000805], [6.089651, 50.000816], [6.089651, 50.00057], [6.089656, 50.0005291], [6.08967, 50.000416], [6.0898833, 49.9999408], [6.0899525, 49.999706], [6.090006, 49.999546], [6.0900328, 49.9994511], [6.090067, 49.99933], [6.0900974, 49.9992], [6.0900936, 49.999126], [6.0900707, 49.999073], [6.090002, 49.999012], [6.089987, 49.998974], [6.0899754, 49.99879], [6.0899944, 49.998436], [6.0900135, 49.998333], [6.0900555, 49.998196], [6.090082, 49.998135], [6.090151, 49.99807], [6.090769, 49.997566], [6.0914783, 49.997005], [6.0918674, 49.99668], [6.092245, 49.99639], [6.092718, 49.996075], [6.093256, 49.995728], [6.0936337, 49.995518], [6.0939045, 49.995388], [6.0941677, 49.995293], [6.0943966, 49.99522], [6.094721, 49.995148], [6.0949078, 49.99511], [6.0951138, 49.99503], [6.0953083, 49.99494], [6.095461, 49.994858], [6.09577, 49.994637], [6.095915, 49.994526], [6.09614, 49.994312], [6.0962887, 49.99418], [6.096422, 49.994095], [6.0967197, 49.993927], [6.09688, 49.99385], [6.0969563, 49.993813], [6.096998, 49.993786], [6.097246, 49.993652], [6.0972195, 49.993637], [6.0965824, 49.993305], [6.096487, 49.993256], [6.0963726, 49.993202], [6.096197, 49.99313], [6.0960712, 49.99308], [6.095949, 49.993042], [6.0958347, 49.992996], [6.0955563, 49.992863], [6.0954227, 49.99279], [6.0952206, 49.992653], [6.094919, 49.99246], [6.0948124, 49.992386], [6.0946865, 49.992302], [6.094553, 49.992218], [6.0944767, 49.992176], [6.09445, 49.992157], [6.0943737, 49.992123], [6.094267, 49.992073], [6.0941486, 49.992016], [6.094122, 49.992], [6.094057, 49.99197], [6.0940113, 49.991947], [6.0937977, 49.991844], [6.0936947, 49.9918], [6.0932713, 49.991592], [6.0929394, 49.991425], [6.0927525, 49.991337], [6.0926685, 49.9913], [6.093012, 49.99076], [6.0929317, 49.990387], [6.0927906, 49.99007], [6.09276, 49.990017], [6.0926495, 49.98985], [6.0924892, 49.989857], [6.0919437, 49.989902], [6.0913754, 49.989986], [6.090887, 49.990063], [6.090685, 49.99009], [6.0905704, 49.9901], [6.0903606, 49.990116], [6.0903225, 49.98994], [6.0900555, 49.98985], [6.0898876, 49.989788], [6.089796, 49.989746], [6.089655, 49.989674], [6.0894833, 49.98958], [6.0891743, 49.98939], [6.08864, 49.989346], [6.0886097, 49.988968], [6.0885906, 49.988804], [6.088583, 49.98872], [6.0885715, 49.988617], [6.0885334, 49.988415], [6.0884724, 49.98801], [6.0884647, 49.98794], [6.0884495, 49.987812], [6.088434, 49.987648], [6.0884304, 49.987617], [6.0884266, 49.987583], [6.088373, 49.987183], [6.0883656, 49.987133], [6.088354, 49.987022], [6.0883465, 49.986897], [6.0883465, 49.98679], [6.0883617, 49.9867], [6.088434, 49.986454], [6.088469, 49.9863353], [6.0885487, 49.986065], [6.088625, 49.98583], [6.0886707, 49.985714], [6.088751, 49.985554], [6.0888653, 49.98539], [6.089242, 49.984837], [6.089159, 49.984825], [6.0889874, 49.9848], [6.088827, 49.98477], [6.0885525, 49.984734], [6.088377, 49.98508], [6.088072, 49.985035], [6.0878817, 49.9848896], [6.0878468, 49.984863], [6.0882473, 49.98361], [6.088995, 49.98186], [6.089342, 49.98103], [6.089655, 49.980236], [6.0898914, 49.979603], [6.0900707, 49.9791], [6.089834, 49.97891], [6.089712, 49.97887], [6.089533, 49.978813], [6.0893, 49.978725], [6.089079, 49.978638], [6.0889225, 49.978565], [6.088812, 49.978504], [6.0886974, 49.978592], [6.088648, 49.97865], [6.088625, 49.978687], [6.088602, 49.978752], [6.0884647, 49.97874], [6.088175, 49.978695], [6.0876484, 49.9786], [6.087473, 49.97857], [6.087309, 49.978542], [6.087, 49.978508], [6.0867443, 49.97848], [6.086298, 49.97846], [6.0861416, 49.978447], [6.086073, 49.978436], [6.086031, 49.978428], [6.0860157, 49.978405], [6.0860577, 49.978207], [6.085986, 49.9781846], [6.0858974, 49.978157], [6.0858593, 49.97811], [6.0858173, 49.978092], [6.085726, 49.978065], [6.0856953, 49.97806], [6.0856647, 49.978077], [6.085573, 49.97813], [6.0855083, 49.978153], [6.0853863, 49.978188], [6.0852222, 49.978226], [6.085108, 49.97824], [6.0850086, 49.978252], [6.0849094, 49.978256], [6.084753, 49.978264], [6.084711, 49.97832], [6.084669, 49.978405], [6.084467, 49.978363], [6.084318, 49.978344], [6.084261, 49.978333], [6.084223, 49.97832], [6.084196, 49.978306], [6.0840816, 49.97823], [6.0840473, 49.97821], [6.083975, 49.97819], [6.083914, 49.978172], [6.0837994, 49.978115], [6.0836353, 49.97803], [6.083395, 49.97783], [6.08333, 49.977776], [6.0832386, 49.97771], [6.0831394, 49.977646], [6.08296, 49.977554], [6.0828686, 49.977512], [6.082796, 49.977478], [6.0827045, 49.97744], [6.0826054, 49.97744], [6.0825367, 49.97744], [6.0824413, 49.97744], [6.0823574, 49.977436], [6.0821667, 49.977417], [6.081999, 49.977406], [6.0818424, 49.977394], [6.081682, 49.97739], [6.081579, 49.977386], [6.081465, 49.97738], [6.0812626, 49.977367], [6.081148, 49.977364], [6.081026, 49.977367], [6.080839, 49.97736], [6.08066, 49.97736], [6.080488, 49.977364], [6.0804107, 49.9773588], [6.08037, 49.977356], [6.0802555, 49.977364], [6.080202, 49.977375], [6.0801105, 49.97739], [6.0799236, 49.977425], [6.0797787, 49.97744], [6.079729, 49.977448], [6.0796833, 49.977444], [6.079565, 49.977413], [6.079382, 49.97734], [6.079134, 49.97723], [6.0790462, 49.977257], [6.078974, 49.977287], [6.0786037, 49.97711], [6.0784397, 49.97703], [6.0781155, 49.976875], [6.078047, 49.97681], [6.078024, 49.976795], [6.077898, 49.976738], [6.077795, 49.976677], [6.07765, 49.976585], [6.07736, 49.976383], [6.0772686, 49.97631], [6.077196, 49.97624], [6.0771465, 49.97619], [6.0769672, 49.976063], [6.076742, 49.975906], [6.076475, 49.975723], [6.0764217, 49.975693], [6.0763645, 49.97566], [6.0762844, 49.97562], [6.0761814, 49.975574], [6.076132, 49.975563], [6.076067, 49.975555], [6.0760326, 49.975544], [6.0759945, 49.97553], [6.075865, 49.975437], [6.0757694, 49.97537], [6.075659, 49.97528], [6.0756054, 49.975224], [6.0755634, 49.97517], [6.0755215, 49.975113], [6.0754986, 49.975048], [6.075491, 49.975], [6.0754986, 49.97492], [6.075506, 49.97485], [6.0755405, 49.974754], [6.075552, 49.974747], [6.0756283, 49.974697], [6.0756664, 49.974655], [6.075693, 49.974606], [6.075716, 49.974537], [6.075735, 49.9745], [6.075777, 49.97446], [6.0758953, 49.97436], [6.0761967, 49.974163], [6.0766315, 49.97389], [6.0767574, 49.973804], [6.0768642, 49.973717], [6.076914, 49.973663], [6.0769634, 49.973576], [6.0769978, 49.973484], [6.0770054, 49.97342], [6.076994, 49.973347], [6.076952, 49.97323], [6.0768642, 49.973072], [6.076788, 49.972965], [6.0767574, 49.972977], [6.076727, 49.972904], [6.076685, 49.97284], [6.0766506, 49.972797], [6.076586, 49.97274], [6.0765705, 49.97271], [6.076563, 49.97268], [6.076563, 49.972626], [6.0765743, 49.97255], [6.076597, 49.97245], [6.0766354, 49.972343], [6.076647, 49.972267], [6.076643, 49.972187], [6.076639, 49.97213], [6.076605, 49.972], [6.076597, 49.971954], [6.076605, 49.971943], [6.076639, 49.971874], [6.076647, 49.971825], [6.076639, 49.97171], [6.0766277, 49.971615], [6.076624, 49.971535], [6.0766315, 49.971493], [6.076639, 49.971474], [6.0766506, 49.97146], [6.076601, 49.97143], [6.0763836, 49.971306], [6.0763187, 49.97129], [6.0762806, 49.971287], [6.076254, 49.971264], [6.0762196, 49.97122], [6.07617, 49.97112], [6.076124, 49.971073], [6.0760593, 49.971035], [6.075968, 49.97099], [6.075903, 49.970974], [6.075796, 49.97095], [6.0756054, 49.970932], [6.0752277, 49.970894], [6.07506, 49.970863], [6.074976, 49.97084], [6.0749035, 49.970818], [6.0747776, 49.97077], [6.074621, 49.970715], [6.074503, 49.97066], [6.074335, 49.970577], [6.0741367, 49.970467], [6.0740092, 49.9703871], [6.073923, 49.970333], [6.0737133, 49.970207], [6.073679, 49.970192], [6.073492, 49.97008], [6.0732365, 49.969944], [6.073202, 49.969917], [6.0731525, 49.969875], [6.073103, 49.96981], [6.0730495, 49.969685], [6.0730267, 49.969666], [6.072996, 49.969646], [6.072897, 49.96961], [6.0727863, 49.969566], [6.0727722, 49.9695593], [6.07271, 49.96953], [6.0726604, 49.969494], [6.072489, 49.969334], [6.0723553, 49.969215], [6.072195, 49.969093], [6.0720844, 49.968998], [6.0719501, 49.9688781], [6.0718403, 49.96878], [6.071783, 49.96872], [6.0717487, 49.968666], [6.0717335, 49.968616], [6.071718, 49.968575], [6.0716953, 49.96855], [6.0715504, 49.968437], [6.0713367, 49.968292], [6.071245, 49.968224], [6.071169, 49.96815], [6.0711193, 49.968086], [6.071085, 49.968014], [6.071062, 49.967915], [6.071043, 49.967876], [6.071024, 49.967842], [6.0710163, 49.96781], [6.0710125, 49.96778], [6.071043, 49.96771], [6.0711575, 49.96752], [6.0712185, 49.967415], [6.0712414, 49.967358], [6.071249, 49.9673], [6.0712376, 49.96722], [6.071211, 49.967075], [6.071203, 49.966957], [6.071192, 49.966892], [6.071165, 49.966816], [6.071123, 49.966686], [6.0710773, 49.966576], [6.07102, 49.96646], [6.0709515, 49.966347], [6.070902, 49.96629], [6.0708523, 49.966244], [6.070692, 49.96614], [6.0703564, 49.96593], [6.0702457, 49.965847], [6.0701694, 49.96577], [6.0700893, 49.9657], [6.0700245, 49.965645], [6.0698986, 49.965572], [6.069803, 49.9655], [6.069681, 49.9654], [6.069521, 49.96526], [6.069441, 49.965202], [6.069311, 49.965126], [6.069235, 49.965065], [6.0691204, 49.964947], [6.0690556, 49.96489], [6.068964, 49.96483], [6.0688305, 49.964752], [6.068762, 49.964687], [6.068678, 49.964577], [6.0685863, 49.96447], [6.068434, 49.964287], [6.06835, 49.964195], [6.068266, 49.96412], [6.06814, 49.963993], [6.0681057, 49.96396], [6.068079, 49.96391], [6.0680485, 49.963825], [6.0680103, 49.963757], [6.0679836, 49.963726], [6.067953, 49.9637], [6.067892, 49.963654], [6.0678577, 49.96362], [6.067827, 49.963585], [6.0677853, 49.963528], [6.067732, 49.96347], [6.0676975, 49.963448], [6.0676594, 49.963417], [6.0676365, 49.96339], [6.0676136, 49.96336], [6.0675526, 49.963295], [6.0674763, 49.963196], [6.0674, 49.963104], [6.0672855, 49.962986], [6.0671825, 49.962883], [6.067156, 49.962845], [6.0671062, 49.962708], [6.0670795, 49.962658], [6.067045, 49.96262], [6.0669956, 49.962574], [6.0669765, 49.962547], [6.06695, 49.962498], [6.0669346, 49.96245], [6.066889, 49.962254], [6.0668774, 49.96219], [6.0668697, 49.96212], [6.0668545, 49.962063], [6.0668316, 49.962017], [6.066786, 49.961952], [6.0667706, 49.961903], [6.0667667, 49.961857], [6.0667744, 49.96182], [6.0667973, 49.96176], [6.066843, 49.96167], [6.066866, 49.961605], [6.0668926, 49.961487], [6.0669193, 49.961285], [6.066923, 49.96125], [6.066908, 49.96122], [6.066885, 49.9612], [6.066736, 49.9611], [6.06666, 49.96105], [6.066572, 49.960976], [6.0664387, 49.960876], [6.066374, 49.96084], [6.0663357, 49.960815], [6.0662327, 49.960785], [6.066187, 49.96077], [6.066099, 49.960728], [6.0657406, 49.960556], [6.065584, 49.96048], [6.065504, 49.960438], [6.065428, 49.960396], [6.0653706, 49.960354], [6.065317, 49.96031], [6.0652027, 49.9602], [6.0651035, 49.960102], [6.0649967, 49.960026], [6.0649433, 49.959984], [6.0648975, 49.95993], [6.064802, 49.95983], [6.064722, 49.95976], [6.064638, 49.9597], [6.0645657, 49.95965], [6.0644665, 49.959568], [6.0644093, 49.959534], [6.064333, 49.959503], [6.0642223, 49.95946], [6.0640926, 49.959415], [6.06402, 49.959385], [6.06394, 49.959347], [6.0638485, 49.959324], [6.0637913, 49.959305], [6.0637493, 49.95928], [6.063719, 49.95925], [6.063692, 49.959217], [6.0636578, 49.959187], [6.0636196, 49.959167], [6.0635433, 49.959145], [6.0634174, 49.95911], [6.063303, 49.959076], [6.0631733, 49.959023], [6.062887, 49.958946], [6.062853, 49.958935], [6.062807, 49.958908], [6.06275, 49.958866], [6.0625896, 49.958733], [6.062521, 49.958687], [6.062296, 49.95853], [6.0620556, 49.958366], [6.0619297, 49.95828], [6.0615864, 49.95804], [6.0615406, 49.958008], [6.0612982, 49.9579286], [6.061098, 49.957863], [6.060869, 49.95772], [6.0607815, 49.957664], [6.0606609, 49.9575808], [6.060583, 49.957527], [6.060549, 49.95749], [6.060549, 49.957443], [6.0605717, 49.957355], [6.0606174, 49.95725], [6.060663, 49.95715], [6.0606327, 49.95705], [6.0606365, 49.956997], [6.060648, 49.956955], [6.060663, 49.95692], [6.0606937, 49.956886], [6.0607395, 49.95685], [6.0607967, 49.956806], [6.060858, 49.956768], [6.0608654, 49.956745], [6.0608845, 49.956646], [6.060892, 49.95657], [6.060892, 49.95653], [6.0608883, 49.95644], [6.060877, 49.95637], [6.060858, 49.95633], [6.060835, 49.9563], [6.0607853, 49.956238], [6.060774, 49.956192], [6.060774, 49.95615], [6.06077, 49.95602], [6.060755, 49.955944], [6.0606976, 49.955753], [6.060686, 49.955685], [6.0606937, 49.955647], [6.060713, 49.955616], [6.0607853, 49.955532], [6.060896, 49.95543], [6.0610256, 49.95532], [6.0611088, 49.9552514], [6.0611021, 49.9552485], [6.0609667, 49.9552002], [6.0602242, 49.9549305], [6.06005, 49.9548723], [6.0599345, 49.9548445], [6.0595411, 49.9547495], [6.0592546, 49.9546716], [6.0590889, 49.9546199], [6.0588645, 49.9545421], [6.0583927, 49.9543783], [6.0581934, 49.9543202], [6.0580814, 49.9542908], [6.0578079, 49.9542192], [6.0574535, 49.9541298], [6.0573034, 49.954092], [6.0572462, 49.9540776], [6.0571577, 49.9540553], [6.0570013, 49.9540137], [6.0568488, 49.9539731], [6.0567832, 49.9539569], [6.0567505, 49.9539487], [6.0566646, 49.9539359], [6.0565378, 49.9539255], [6.0564824, 49.9539246], [6.0563146, 49.9539423], [6.0561534, 49.9539686], [6.0560499, 49.9539857], [6.0558739, 49.9540148], [6.0558195, 49.9540233], [6.0557907, 49.9540278], [6.0557272, 49.9540377], [6.0556532, 49.9540402], [6.0555884, 49.9540376], [6.0554762, 49.9540332], [6.0554646, 49.9540322], [6.0554269, 49.9540291], [6.0552715, 49.954016], [6.0549754, 49.9539834], [6.0548998, 49.9539751], [6.054823, 49.9539635], [6.0546727, 49.9539408], [6.05454, 49.9539206], [6.0545142, 49.9539167], [6.0544552, 49.9538988], [6.0543954, 49.9538805], [6.0541165, 49.9537527], [6.054108, 49.9537488], [6.0533376, 49.9533693], [6.0530014, 49.9531995], [6.0521528, 49.9529132], [6.0517413, 49.952766], [6.0513555, 49.9526306], [6.0512748, 49.9526001], [6.0512365, 49.9525856], [6.0510591, 49.9525186], [6.0508512, 49.9524386], [6.0508169, 49.9524254], [6.0506752, 49.9523708], [6.0507856, 49.9519664], [6.0509512, 49.9519137], [6.051841, 49.9516476], [6.0520892, 49.9515725], [6.0528765, 49.9515003], [6.0529214, 49.9514961], [6.0533954, 49.9514526], [6.0538794, 49.9513956], [6.0540771, 49.9513798], [6.0541209, 49.9513736], [6.0541817, 49.9513565], [6.0542465, 49.9513258], [6.0543056, 49.9512718], [6.0543863, 49.9511673], [6.0545752, 49.9508818], [6.0538388, 49.9507357], [6.0537042, 49.9507086], [6.0532266, 49.9506094], [6.0531696, 49.9505959], [6.0530837, 49.9505732], [6.0529677, 49.9505338], [6.0528527, 49.9504806], [6.0528348, 49.9504723], [6.0526581, 49.9503788], [6.0524453, 49.950257], [6.0522817, 49.9501456], [6.0522593, 49.9501303], [6.0522196, 49.9501018], [6.0520846, 49.9500049], [6.0519972, 49.9499398], [6.0520601, 49.9498968], [6.0520944, 49.9498564], [6.0521193, 49.9497938], [6.0521423, 49.949714], [6.0521405, 49.9496673], [6.0521045, 49.9496157], [6.0520021, 49.9494953], [6.0518996, 49.9494006], [6.0517563, 49.9492795], [6.0515722, 49.9491455], [6.0514887, 49.9490705], [6.0513056, 49.9488794], [6.0511898, 49.9487786], [6.0509563, 49.9485967], [6.0507912, 49.9484663], [6.050701, 49.9483993], [6.0506175, 49.9483231], [6.0504866, 49.9481744], [6.0503804, 49.9480528], [6.0503386, 49.9480306], [6.0502398, 49.9480207], [6.050176, 49.9480249], [6.0500809, 49.9480518], [6.0499743, 49.9480996], [6.0499191, 49.9480897], [6.0498202, 49.9480982], [6.0497289, 49.948119], [6.0495575, 49.9481815], [6.0494053, 49.9482194], [6.0491959, 49.9482892], [6.0489723, 49.9483522], [6.0488448, 49.9483766], [6.048742, 49.9484035], [6.0486678, 49.9484096], [6.0484967, 49.9484094], [6.0482893, 49.9484153], [6.0479641, 49.9484322], [6.0478547, 49.9484462], [6.0477348, 49.948478], [6.0476206, 49.9485024], [6.0474817, 49.948533], [6.047396, 49.9485759], [6.0473408, 49.9485955], [6.0472267, 49.9486187], [6.0471695, 49.9486481], [6.0470838, 49.9487082], [6.0469848, 49.9487596], [6.0468686, 49.9488148], [6.0468058, 49.9488245], [6.0467516, 49.9488251], [6.046647, 49.9488164], [6.0465405, 49.9488089], [6.0464816, 49.9488174], [6.0463046, 49.9488442], [6.0462304, 49.9488528], [6.0461734, 49.9488527], [6.0460726, 49.9488354], [6.0459567, 49.9488034], [6.0457001, 49.9487343], [6.0452544, 49.9486056], [6.0451594, 49.9485784], [6.0449085, 49.9485045], [6.0446824, 49.9484294], [6.0445094, 49.9483764], [6.0443146, 49.9483228], [6.0441132, 49.948271], [6.0439877, 49.9482352], [6.0437407, 49.9481367], [6.0435735, 49.9480862], [6.0434974, 49.9480788], [6.0434442, 49.9480664], [6.0434057, 49.9480493], [6.043351, 49.9480154], [6.0432073, 49.9479622], [6.0429838, 49.9478883], [6.042733, 49.9478099], [6.0425119, 49.9477242], [6.0421608, 49.9475736], [6.0419011, 49.9474725], [6.0415958, 49.9473576], [6.0413298, 49.9472788], [6.0409981, 49.9472042], [6.0407451, 49.9471551], [6.040502, 49.9471378], [6.0403967, 49.9471291]]]}}]}