{"type": "FeatureCollection", "features": [{"type": "Feature", "properties": {"name": "Ditgesbaach", "kind": "nature_reserve"}, "geometry": {"type": "Polygon", "coordinates": [[[6.1136891, 49.8393707], [6.1145715, 49.8394528], [6.1146877, 49.8394858], [6.11466, 49.8393713], [6.1138656, 49.839296], [6.1137484, 49.8392626], [6.1134725, 49.8392017], [6.1128207, 49.8389019], [6.1127285, 49.8388213], [6.1127202, 49.8387605], [6.1126586, 49.8387588], [6.1126151, 49.8387616], [6.1121602, 49.8385447], [6.1124492, 49.8381965], [6.1124701, 49.8381671], [6.1122046, 49.8380819], [6.1118092, 49.8379097], [6.1112583, 49.8376871], [6.1108895, 49.8375491], [6.1105666, 49.8374427], [6.1103652, 49.8373843], [6.1098095, 49.8372255], [6.1096349, 49.8371772], [6.1093896, 49.8371081], [6.1092411, 49.8370567], [6.1091033, 49.8370179], [6.1089504, 49.8370154], [6.108843, 49.8370249], [6.1086928, 49.8370544], [6.1084671, 49.8371242], [6.1080154, 49.8372829], [6.1074283, 49.8374155], [6.1072013, 49.8374764], [6.1066431, 49.8376738], [6.1061779, 49.8378011], [6.1057451, 49.8379471], [6.1054755, 49.8380361], [6.1053333, 49.8380715], [6.1052173, 49.8380927], [6.1050651, 49.8381105], [6.104905, 49.8381085], [6.1047617, 49.8380946], [6.1046456, 49.8380653], [6.104568, 49.8380394], [6.1044893, 49.8380083], [6.1044096, 49.8379566], [6.1043075, 49.8378567], [6.1042614, 49.8378498], [6.1040866, 49.8378257], [6.1038606, 49.8377928], [6.1036698, 49.8377576], [6.1034471, 49.8377181], [6.1033284, 49.8377145], [6.1031081, 49.8377613], [6.1029653, 49.8378892], [6.1030135, 49.8379826], [6.1031476, 49.8380898], [6.1035097, 49.8383995], [6.1033032, 49.8385093], [6.1021811, 49.8396072], [6.1019935, 49.8398169], [6.1019039, 49.8400446], [6.1018089, 49.8401923], [6.1019883, 49.8402545], [6.1022107, 49.8403168], [6.1025849, 49.8403983], [6.1028544, 49.8404435], [6.1030915, 49.8404729], [6.1037046, 49.840508], [6.1040908, 49.8404977], [6.1041324, 49.8405478], [6.1039084, 49.8407454], [6.1037737, 49.840832], [6.1039436, 49.8408807], [6.1040452, 49.8409128], [6.1042114, 49.8410263], [6.104275, 49.8410726], [6.1043303, 49.8411234], [6.1042954, 49.8411748], [6.1041499, 49.8412444], [6.103696, 49.8413945], [6.1031796, 49.8415567], [6.1031037, 49.8414855], [6.1030704, 49.841496], [6.1027926, 49.8416108], [6.1030187, 49.8419146], [6.1035405, 49.8422909], [6.1036837, 49.8421197], [6.1037962, 49.8419997], [6.1038831, 49.8419258], [6.1039488, 49.8418982], [6.1043296, 49.8418004], [6.1045308, 49.8417563], [6.1046609, 49.8417277], [6.1048057, 49.8416776], [6.1049107, 49.8416456], [6.105224, 49.8414986], [6.1052502, 49.8414901], [6.1059241, 49.8411913], [6.1060106, 49.8411161], [6.1061226, 49.8412769], [6.1062387, 49.8414095], [6.1063009, 49.8414992], [6.1060257, 49.8417742], [6.1061476, 49.8420024], [6.1066458, 49.8425129], [6.1066309, 49.8426841], [6.1073966, 49.8427948], [6.1075255, 49.8428039], [6.1075565, 49.8427995], [6.1075822, 49.8427914], [6.1076369, 49.8427627], [6.1076915, 49.8427196], [6.1079461, 49.8424962], [6.1080024, 49.8425108], [6.1080899, 49.8425879], [6.1084895, 49.8428272], [6.1086459, 49.842688], [6.1087947, 49.8427462], [6.1089481, 49.8426073], [6.1093405, 49.8427422], [6.109516, 49.8425804], [6.109597, 49.8425011], [6.1096342, 49.8422059], [6.1101909, 49.842346], [6.1102695, 49.8423425], [6.1103869, 49.8423283], [6.1107977, 49.8418019], [6.1106743, 49.8415675], [6.1106917, 49.8412311], [6.1108406, 49.8408981], [6.1111436, 49.8405048], [6.1115616, 49.8401158], [6.1119094, 49.8399112], [6.1121115, 49.8398442], [6.1127537, 49.839743], [6.1136482, 49.8396751], [6.1136575, 49.8395133], [6.1136891, 49.8393707]]]}}]}