{"type": "FeatureCollection", "features": [{"type": "Feature", "properties": {"name": "Erpeldange-sur-Sûre"}, "geometry": {"type": "MultiPolygon", "coordinates": [[[[6.071749, 49.89821], [6.071749, 49.898388], [6.07176, 49.898487], [6.071772, 49.898533], [6.071802, 49.898582], [6.07184, 49.89861], [6.071886, 49.898632], [6.071913, 49.898643], [6.072081, 49.89868], [6.072363, 49.89874], [6.072573, 49.89879], [6.072687, 49.898827], [6.072836, 49.898903], [6.073042, 49.89901], [6.073111, 49.89904], [6.073172, 49.899048], [6.073236, 49.89904], [6.073343, 49.899017], [6.073515, 49.898964], [6.073545, 49.89895], [6.073572, 49.898907], [6.073618, 49.89873], [6.07366, 49.898544], [6.073698, 49.898464], [6.073751, 49.89838], [6.073881, 49.898247], [6.073992, 49.898342], [6.074026, 49.898376], [6.074648, 49.898296], [6.074667, 49.898415], [6.074938, 49.898705], [6.075106, 49.898907], [6.075357, 49.89917], [6.075422, 49.899258], [6.075495, 49.899437], [6.075571, 49.899616], [6.075735, 49.899906], [6.075865, 49.900105], [6.075884, 49.900135], [6.075926, 49.900234], [6.076006, 49.900467], [6.076067, 49.90062], [6.076178, 49.90089], [6.076231, 49.901012], [6.076372, 49.901268], [6.076494, 49.90148], [6.076574, 49.901657], [6.07662, 49.901737], [6.07675, 49.901825], [6.076967, 49.901928], [6.077085, 49.902008], [6.077135, 49.90204], [6.077284, 49.90212], [6.077414, 49.902203], [6.077497, 49.90224], [6.077669, 49.90231], [6.0777, 49.902325], [6.077841, 49.902428], [6.07789, 49.90246], [6.078009, 49.90251], [6.078127, 49.902576], [6.078276, 49.902645], [6.078333, 49.90268], [6.078478, 49.902782], [6.078569, 49.90284], [6.078653, 49.90288], [6.078806, 49.90294], [6.078871, 49.902973], [6.078947, 49.90301], [6.079149, 49.903065], [6.079172, 49.90313], [6.079294, 49.90314], [6.079554, 49.90314], [6.07971, 49.90315], [6.080065, 49.903183], [6.080763, 49.903225], [6.080912, 49.903236], [6.081121, 49.903225], [6.081572, 49.903175], [6.081759, 49.903168], [6.082033, 49.90317], [6.082201, 49.903175], [6.082369, 49.903156], [6.082701, 49.903103], [6.082922, 49.90308], [6.083033, 49.903072], [6.083296, 49.90308], [6.083376, 49.90307], [6.083422, 49.90304], [6.083479, 49.902992], [6.083509, 49.902935], [6.083555, 49.90283], [6.083582, 49.902832], [6.083731, 49.902863], [6.083902, 49.90295], [6.08391, 49.902912], [6.083967, 49.90292], [6.084002, 49.902866], [6.08404, 49.90264], [6.084112, 49.90238], [6.084158, 49.9022], [6.084272, 49.90194], [6.084395, 49.90164], [6.084547, 49.90124], [6.084822, 49.90076], [6.085112, 49.900288], [6.085409, 49.89998], [6.085978, 49.899376], [6.086489, 49.89884], [6.086966, 49.898453], [6.087297, 49.898182], [6.087465, 49.897972], [6.087713, 49.897625], [6.08819, 49.89703], [6.088366, 49.896786], [6.088507, 49.896526], [6.088579, 49.896442], [6.088915, 49.89625], [6.089376, 49.896046], [6.089979, 49.895905], [6.090342, 49.89579], [6.090857, 49.89561], [6.091089, 49.89551], [6.09112, 49.8955], [6.091543, 49.89528], [6.091684, 49.895184], [6.091917, 49.89503], [6.092268, 49.89472], [6.092501, 49.894505], [6.09255, 49.89444], [6.092863, 49.894016], [6.093222, 49.893524], [6.093607, 49.893074], [6.093725, 49.89292], [6.093752, 49.892876], [6.09379, 49.892834], [6.093889, 49.892754], [6.094099, 49.892605], [6.094397, 49.89242], [6.094614, 49.89231], [6.094892, 49.892178], [6.09511, 49.892086], [6.095324, 49.892], [6.095606, 49.891903], [6.095884, 49.89182], [6.096071, 49.89176], [6.0963, 49.891674], [6.096499, 49.89159], [6.09664, 49.89152], [6.096777, 49.89144], [6.097048, 49.89127], [6.097139, 49.8912], [6.0972, 49.89114], [6.097254, 49.891064], [6.097319, 49.890953], [6.097376, 49.89083], [6.097399, 49.89068], [6.097406, 49.890526], [6.097406, 49.890423], [6.097376, 49.89033], [6.097345, 49.890263], [6.097288, 49.8902], [6.097212, 49.89009], [6.097074, 49.889965], [6.096891, 49.889797], [6.096807, 49.889725], [6.096548, 49.88959], [6.096289, 49.8895], [6.095694, 49.889404], [6.095217, 49.88933], [6.094938, 49.889275], [6.094748, 49.889206], [6.094473, 49.889046], [6.094191, 49.888844], [6.094068, 49.88861], [6.094068, 49.88844], [6.094141, 49.88821], [6.094259, 49.888054], [6.094496, 49.88786], [6.094999, 49.887554], [6.095377, 49.887398], [6.095968, 49.88725], [6.096449, 49.887196], [6.096945, 49.887203], [6.097322, 49.887268], [6.097666, 49.887325], [6.098112, 49.887325], [6.099024, 49.88729], [6.099749, 49.887276], [6.100653, 49.887417], [6.100782, 49.887486], [6.100862, 49.88753], [6.100874, 49.88754], [6.101004, 49.887608], [6.101248, 49.887833], [6.101454, 49.88833], [6.1015, 49.88849], [6.101584, 49.888763], [6.101751, 49.88912], [6.102095, 49.889793], [6.102518, 49.89054], [6.102774, 49.890987], [6.103205, 49.89149], [6.103663, 49.891926], [6.104395, 49.892548], [6.10465, 49.89277], [6.105143, 49.893475], [6.105467, 49.893997], [6.105627, 49.894325], [6.105993, 49.895195], [6.106199, 49.895508], [6.106726, 49.89641], [6.107092, 49.896763], [6.107553, 49.897], [6.108065, 49.89714], [6.10887, 49.8973], [6.109617, 49.897293], [6.111223, 49.897305], [6.113886, 49.897335], [6.115141, 49.89708], [6.116339, 49.896576], [6.11664, 49.89606], [6.116545, 49.895454], [6.116781, 49.895435], [6.117346, 49.89542], [6.118662, 49.895393], [6.120008, 49.895184], [6.120336, 49.89513], [6.120466, 49.89511], [6.120405, 49.89479], [6.120172, 49.894566], [6.120112, 49.894497], [6.120039, 49.89441], [6.11997, 49.894306], [6.119898, 49.89418], [6.120398, 49.89425], [6.120787, 49.8943], [6.121077, 49.894333], [6.121286, 49.89435], [6.121485, 49.89436], [6.121729, 49.894375], [6.121881, 49.89439], [6.122183, 49.89443], [6.122583, 49.89449], [6.123518, 49.894627], [6.123854, 49.89468], [6.124163, 49.894733], [6.124315, 49.894768], [6.124475, 49.894817], [6.124693, 49.894894], [6.124868, 49.894962], [6.125021, 49.89502], [6.12536, 49.89517], [6.125509, 49.895245], [6.125635, 49.895187], [6.125704, 49.895145], [6.125876, 49.895023], [6.125589, 49.894783], [6.125566, 49.894753], [6.125555, 49.89472], [6.125551, 49.894684], [6.12557, 49.894535], [6.125616, 49.894268], [6.125669, 49.894005], [6.125723, 49.893803], [6.125765, 49.89367], [6.125845, 49.89345], [6.125895, 49.893337], [6.125971, 49.893173], [6.125979, 49.89315], [6.126329, 49.893215], [6.12668, 49.893288], [6.126856, 49.89331], [6.126997, 49.893322], [6.127134, 49.89333], [6.127218, 49.893333], [6.127256, 49.893333], [6.127283, 49.89334], [6.127344, 49.893353], [6.127482, 49.893387], [6.127523, 49.89339], [6.127539, 49.893387], [6.127554, 49.89339], [6.127562, 49.89331], [6.127512, 49.89282], [6.127474, 49.892574], [6.127432, 49.8924], [6.127371, 49.892216], [6.127287, 49.892006], [6.127222, 49.89187], [6.126745, 49.89088], [6.126059, 49.89096], [6.125971, 49.890972], [6.125429, 49.890972], [6.125212, 49.89097], [6.125044, 49.890965], [6.124754, 49.890945], [6.124674, 49.890934], [6.12459, 49.89091], [6.124491, 49.890873], [6.124403, 49.890827], [6.124308, 49.890762], [6.124269, 49.89072], [6.124212, 49.890633], [6.124182, 49.890575], [6.124163, 49.89053], [6.124151, 49.890472], [6.12414, 49.89035], [6.124132, 49.890026], [6.124113, 49.88972], [6.124109, 49.889606], [6.123816, 49.88957], [6.122984, 49.88945], [6.122171, 49.88934], [6.122072, 49.88932], [6.121904, 49.88928], [6.121786, 49.889236], [6.121626, 49.88918], [6.121393, 49.889084], [6.121344, 49.88901], [6.121237, 49.888855], [6.121042, 49.888527], [6.12097, 49.888165], [6.120943, 49.888054], [6.12089, 49.887856], [6.120794, 49.887535], [6.120649, 49.887325], [6.120535, 49.887196], [6.12042, 49.887054], [6.120295, 49.886887], [6.120226, 49.886787], [6.12015, 49.88667], [6.119951, 49.88617], [6.119928, 49.886116], [6.119886, 49.885998], [6.11986, 49.88591], [6.11986, 49.88579], [6.119867, 49.885593], [6.119883, 49.885433], [6.11994, 49.885067], [6.119989, 49.88479], [6.120047, 49.88444], [6.120077, 49.884197], [6.120043, 49.88389], [6.120008, 49.88369], [6.119986, 49.88357], [6.119963, 49.883522], [6.1196, 49.882965], [6.119413, 49.88268], [6.119158, 49.882294], [6.118956, 49.881973], [6.118818, 49.88175], [6.11878, 49.881626], [6.118692, 49.881317], [6.11857, 49.88084], [6.118532, 49.88061], [6.118517, 49.880466], [6.118517, 49.880432], [6.118551, 49.88021], [6.118589, 49.879887], [6.118574, 49.879787], [6.118563, 49.879704], [6.11854, 49.87963], [6.118494, 49.87953], [6.118456, 49.879463], [6.11828, 49.879208], [6.118059, 49.87889], [6.117819, 49.87858], [6.117697, 49.878525], [6.117685, 49.87845], [6.117674, 49.878365], [6.117651, 49.878162], [6.117643, 49.8781], [6.117609, 49.87784], [6.117571, 49.8775], [6.117529, 49.87719], [6.117643, 49.87711], [6.118063, 49.8768], [6.11809, 49.876778], [6.118113, 49.876762], [6.118128, 49.87675], [6.11833, 49.876583], [6.118521, 49.876415], [6.118795, 49.876167], [6.119028, 49.876236], [6.119326, 49.876335], [6.120039, 49.876827], [6.120108, 49.876873], [6.120112, 49.876923], [6.121, 49.87671], [6.121256, 49.87671], [6.121805, 49.876713], [6.122103, 49.876923], [6.122225, 49.877083], [6.122263, 49.877136], [6.122732, 49.877125], [6.122789, 49.877125], [6.122927, 49.87711], [6.122976, 49.877098], [6.123041, 49.877075], [6.123114, 49.87704], [6.123175, 49.876995], [6.123262, 49.876926], [6.123499, 49.876728], [6.123686, 49.876564], [6.12385, 49.876614], [6.12398, 49.87666], [6.124212, 49.87676], [6.12438, 49.876823], [6.124525, 49.876873], [6.124624, 49.876904], [6.12472, 49.876923], [6.124891, 49.876965], [6.125029, 49.876995], [6.12512, 49.87703], [6.125166, 49.87705], [6.125227, 49.87708], [6.125261, 49.877098], [6.125307, 49.87713], [6.125372, 49.877174], [6.125444, 49.877235], [6.12565, 49.877464], [6.126478, 49.877293], [6.126615, 49.877335], [6.126696, 49.87735], [6.126783, 49.877354], [6.126921, 49.877346], [6.127085, 49.877327], [6.127169, 49.87731], [6.12726, 49.877277], [6.127394, 49.877213], [6.127718, 49.87705], [6.127859, 49.876976], [6.128004, 49.876896], [6.128057, 49.87686], [6.128122, 49.8768], [6.128191, 49.876724], [6.12834, 49.876595], [6.128481, 49.876484], [6.128531, 49.87645], [6.128901, 49.876316], [6.128988, 49.876278], [6.12911, 49.87621], [6.12919, 49.876167], [6.129362, 49.87609], [6.129561, 49.876003], [6.129747, 49.87591], [6.130087, 49.875725], [6.130213, 49.875694], [6.13035, 49.875664], [6.130419, 49.87566], [6.130861, 49.875687], [6.13154, 49.87573], [6.131556, 49.87573], [6.131628, 49.875732], [6.130865, 49.874363], [6.129587, 49.87203], [6.129599, 49.87202], [6.129667, 49.871983], [6.129881, 49.87185], [6.129984, 49.871788], [6.130114, 49.871704], [6.130228, 49.871624], [6.130335, 49.871563], [6.13072, 49.871334], [6.130918, 49.871212], [6.13114, 49.871082], [6.1313, 49.870987], [6.131327, 49.87097], [6.131498, 49.871056], [6.13154, 49.871067], [6.131597, 49.871067], [6.131712, 49.87106], [6.131987, 49.87101], [6.132006, 49.87101], [6.132029, 49.871006], [6.132132, 49.870804], [6.132307, 49.870495], [6.132376, 49.870358], [6.132471, 49.870132], [6.13249, 49.870052], [6.132494, 49.86999], [6.132498, 49.869976], [6.132486, 49.86989], [6.132475, 49.86984], [6.132456, 49.869797], [6.132422, 49.869747], [6.132368, 49.869686], [6.132307, 49.869633], [6.132254, 49.8696], [6.132063, 49.86948], [6.132055, 49.86946], [6.132055, 49.869446], [6.131979, 49.86913], [6.131967, 49.869072], [6.131945, 49.86892], [6.131937, 49.86882], [6.132006, 49.868393], [6.131967, 49.86839], [6.131971, 49.868263], [6.131971, 49.86812], [6.131956, 49.867928], [6.131933, 49.867767], [6.131842, 49.867363], [6.131807, 49.86725], [6.13172, 49.86705], [6.131578, 49.86681], [6.131441, 49.866615], [6.131304, 49.866436], [6.131182, 49.866272], [6.131121, 49.866188], [6.131063, 49.866104], [6.131002, 49.86601], [6.130945, 49.865917], [6.130918, 49.86587], [6.13085, 49.865738], [6.130709, 49.865456], [6.130678, 49.86541], [6.130587, 49.86516], [6.130541, 49.864975], [6.130499, 49.86475], [6.130434, 49.864468], [6.130362, 49.86416], [6.130339, 49.864067], [6.130262, 49.863804], [6.130453, 49.863785], [6.130663, 49.86376], [6.130899, 49.863724], [6.131159, 49.86369], [6.131353, 49.863663], [6.131926, 49.863594], [6.132151, 49.863564], [6.132841, 49.8635], [6.132853, 49.8635], [6.133196, 49.863472], [6.133513, 49.863457], [6.134111, 49.863583], [6.134287, 49.863712], [6.134451, 49.863846], [6.134615, 49.86372], [6.134668, 49.86367], [6.134703, 49.86362], [6.134718, 49.863586], [6.134733, 49.86353], [6.134741, 49.86342], [6.134737, 49.863102], [6.135702, 49.86294], [6.135763, 49.862934], [6.13582, 49.862926], [6.135996, 49.8629], [6.136095, 49.86288], [6.136202, 49.86285], [6.136877, 49.86261], [6.137247, 49.86248], [6.137629, 49.86264], [6.137816, 49.862717], [6.138056, 49.862823], [6.138357, 49.86297], [6.139349, 49.863453], [6.139803, 49.863106], [6.139978, 49.86297], [6.140261, 49.862732], [6.1401, 49.86265], [6.140307, 49.862473], [6.140734, 49.8621], [6.140932, 49.86192], [6.140463, 49.86171], [6.140108, 49.861553], [6.140367, 49.861324], [6.140501, 49.86124], [6.140524, 49.861225], [6.140604, 49.86117], [6.14068, 49.861122], [6.140821, 49.86101], [6.141024, 49.860855], [6.141211, 49.860962], [6.141268, 49.860924], [6.141375, 49.860847], [6.141417, 49.86082], [6.141832, 49.860527], [6.142137, 49.860306], [6.142183, 49.860275], [6.14226, 49.860218], [6.142328, 49.86017], [6.142748, 49.85987], [6.142824, 49.859814], [6.142858, 49.85979], [6.142954, 49.859726], [6.142984, 49.859703], [6.143225, 49.859535], [6.143305, 49.859478], [6.143549, 49.859303], [6.143724, 49.859173], [6.143843, 49.85909], [6.143908, 49.85904], [6.14393, 49.859024], [6.143965, 49.858997], [6.144159, 49.858982], [6.144361, 49.858524], [6.144487, 49.858494], [6.144525, 49.858475], [6.144541, 49.858463], [6.144583, 49.858406], [6.144602, 49.85839], [6.144625, 49.858387], [6.144671, 49.858387], [6.144709, 49.858376], [6.144751, 49.858353], [6.144808, 49.85833], [6.144911, 49.858315], [6.145033, 49.85831], [6.145163, 49.85832], [6.145376, 49.858192], [6.145357, 49.85818], [6.145975, 49.8578], [6.146158, 49.85769], [6.146292, 49.857613], [6.146696, 49.8574], [6.146791, 49.857346], [6.146895, 49.857285], [6.147112, 49.857143], [6.147543, 49.856834], [6.147921, 49.856556], [6.148188, 49.85675], [6.148478, 49.856964], [6.148565, 49.85702], [6.148985, 49.85732], [6.149034, 49.857338], [6.148722, 49.856785], [6.148554, 49.856464], [6.148401, 49.85617], [6.148283, 49.855904], [6.148252, 49.8558], [6.148218, 49.85562], [6.148157, 49.85552], [6.148054, 49.85536], [6.147852, 49.85499], [6.147726, 49.85473], [6.147684, 49.85465], [6.147551, 49.854424], [6.147482, 49.85432], [6.147383, 49.854195], [6.147234, 49.85405], [6.147135, 49.85393], [6.146982, 49.85366], [6.146868, 49.853493], [6.146658, 49.85322], [6.146528, 49.853046], [6.146463, 49.85293], [6.146425, 49.85281], [6.146414, 49.85267], [6.146418, 49.852573], [6.146421, 49.85252], [6.146528, 49.852425], [6.146604, 49.852367], [6.146666, 49.852337], [6.146746, 49.852337], [6.146769, 49.852318], [6.147173, 49.852196], [6.148138, 49.851894], [6.148211, 49.85179], [6.148371, 49.851494], [6.148855, 49.851166], [6.149363, 49.850803], [6.149717, 49.850525], [6.150312, 49.850014], [6.150618, 49.849743], [6.150862, 49.849518], [6.151529, 49.848877], [6.151571, 49.848904], [6.151621, 49.848934], [6.151865, 49.84875], [6.152166, 49.848457], [6.152441, 49.848137], [6.152365, 49.8481], [6.153158, 49.847282], [6.153299, 49.847275], [6.153334, 49.84719], [6.153379, 49.847042], [6.153437, 49.84685], [6.153467, 49.846706], [6.153494, 49.846542], [6.153517, 49.846386], [6.153532, 49.84619], [6.153532, 49.84608], [6.153521, 49.845963], [6.153471, 49.845776], [6.153421, 49.845646], [6.153315, 49.84542], [6.153219, 49.845253], [6.153269, 49.84522], [6.153166, 49.845055], [6.152857, 49.84493], [6.152822, 49.844917], [6.152838, 49.844883], [6.15307, 49.84433], [6.153086, 49.844273], [6.15307, 49.843914], [6.153059, 49.84387], [6.15304, 49.84383], [6.152872, 49.843643], [6.152575, 49.843315], [6.152269, 49.84297], [6.152151, 49.842823], [6.151949, 49.842552], [6.151689, 49.842186], [6.151667, 49.842155], [6.151621, 49.842075], [6.151533, 49.84204], [6.151167, 49.84178], [6.150869, 49.84158], [6.150808, 49.841557], [6.149572, 49.841125], [6.148752, 49.840927], [6.148069, 49.840755], [6.147287, 49.840565], [6.14636, 49.84032], [6.145983, 49.840218], [6.144148, 49.839718], [6.14422, 49.83949], [6.144182, 49.839355], [6.144011, 49.838696], [6.143972, 49.838524], [6.14403, 49.838478], [6.14403, 49.838444], [6.144014, 49.838417], [6.143972, 49.838383], [6.143938, 49.838333], [6.143908, 49.838303], [6.143877, 49.838295], [6.143862, 49.83829], [6.143847, 49.838272], [6.143824, 49.83823], [6.143797, 49.838203], [6.143736, 49.83818], [6.143713, 49.83817], [6.143702, 49.838146], [6.143705, 49.83813], [6.143713, 49.838104], [6.143698, 49.83808], [6.143667, 49.83805], [6.143652, 49.83803], [6.143656, 49.83799], [6.143656, 49.83796], [6.143633, 49.83792], [6.143641, 49.837902], [6.143667, 49.837864], [6.143744, 49.837765], [6.143759, 49.83774], [6.143751, 49.837704], [6.143751, 49.83768], [6.143763, 49.83767], [6.143793, 49.83764], [6.143805, 49.837597], [6.143805, 49.837563], [6.143835, 49.837513], [6.143835, 49.837463], [6.143831, 49.83742], [6.143831, 49.83741], [6.14385, 49.8374], [6.143847, 49.837383], [6.143854, 49.83736], [6.143881, 49.837334], [6.143892, 49.83731], [6.143866, 49.837128], [6.14385, 49.837097], [6.143816, 49.837063], [6.143793, 49.837044], [6.143793, 49.837032], [6.143797, 49.837006], [6.14377, 49.836964], [6.143759, 49.83694], [6.143751, 49.836918], [6.143747, 49.836903], [6.143724, 49.83687], [6.143698, 49.83685], [6.143682, 49.83683], [6.14366, 49.836803], [6.143629, 49.836792], [6.143602, 49.836792], [6.143564, 49.836796], [6.143534, 49.836796], [6.143515, 49.83679], [6.143484, 49.83676], [6.14348, 49.83675], [6.143496, 49.836742], [6.143515, 49.83671], [6.14348, 49.83668], [6.143473, 49.836666], [6.143477, 49.83665], [6.143484, 49.83663], [6.143488, 49.83661], [6.14348, 49.836555], [6.143461, 49.836536], [6.143442, 49.83652], [6.143408, 49.83651], [6.143393, 49.8365], [6.14337, 49.83649], [6.143343, 49.836487], [6.143328, 49.836487], [6.143312, 49.836475], [6.143305, 49.83646], [6.143297, 49.83645], [6.143282, 49.836437], [6.143267, 49.836414], [6.143236, 49.8364], [6.143221, 49.836388], [6.143225, 49.836365], [6.14324, 49.836346], [6.14324, 49.836334], [6.143225, 49.836315], [6.14321, 49.836304], [6.14321, 49.836277], [6.143217, 49.836266], [6.143244, 49.83625], [6.143259, 49.836235], [6.143255, 49.836178], [6.143244, 49.83616], [6.143225, 49.836155], [6.143198, 49.836163], [6.143175, 49.836163], [6.143164, 49.836147], [6.143171, 49.836113], [6.143164, 49.8361], [6.143148, 49.83609], [6.143049, 49.83609], [6.14303, 49.836082], [6.143007, 49.83607], [6.143, 49.83605], [6.143003, 49.836033], [6.143011, 49.836014], [6.143011, 49.83599], [6.143003, 49.835976], [6.142984, 49.835968], [6.142942, 49.83596], [6.142904, 49.83596], [6.142889, 49.835953], [6.142862, 49.835934], [6.142858, 49.83592], [6.142866, 49.835907], [6.142897, 49.83589], [6.142923, 49.835876], [6.142942, 49.835854], [6.142939, 49.83583], [6.142927, 49.83582], [6.1429, 49.83581], [6.142889, 49.835785], [6.142874, 49.835777], [6.142851, 49.83577], [6.142778, 49.835777], [6.142759, 49.83577], [6.142736, 49.835747], [6.142729, 49.835724], [6.142733, 49.835697], [6.142744, 49.835674], [6.14274, 49.83565], [6.142725, 49.835625], [6.142702, 49.835613], [6.142683, 49.835598], [6.142672, 49.835575], [6.142683, 49.835564], [6.142706, 49.83555], [6.142702, 49.835537], [6.142691, 49.835514], [6.142691, 49.835495], [6.14271, 49.835487], [6.142729, 49.835487], [6.142736, 49.8355], [6.142755, 49.835495], [6.142767, 49.835472], [6.142759, 49.835426], [6.142767, 49.835415], [6.142786, 49.8354], [6.142809, 49.835377], [6.142813, 49.83536], [6.142798, 49.835342], [6.142759, 49.835327], [6.142736, 49.83531], [6.142725, 49.83528], [6.142721, 49.83526], [6.142736, 49.83525], [6.142755, 49.83524], [6.142771, 49.83522], [6.142771, 49.835205], [6.142763, 49.835186], [6.142752, 49.83515], [6.142755, 49.835136], [6.142775, 49.835117], [6.142786, 49.835094], [6.142778, 49.835068], [6.142752, 49.83505], [6.142656, 49.835106], [6.142446, 49.835213], [6.142332, 49.835274], [6.142054, 49.83549], [6.14184, 49.83567], [6.141745, 49.835743], [6.141489, 49.835968], [6.14139, 49.836075], [6.141237, 49.836292], [6.14113, 49.83656], [6.141092, 49.836624], [6.141024, 49.836704], [6.140951, 49.83677], [6.140856, 49.83684], [6.14068, 49.836964], [6.140463, 49.837086], [6.139799, 49.83744], [6.139337, 49.837692], [6.138098, 49.83864], [6.138029, 49.838676], [6.137709, 49.838837], [6.13748, 49.838943], [6.137369, 49.839005], [6.137316, 49.83905], [6.137201, 49.83918], [6.136995, 49.83943], [6.136805, 49.839626], [6.13661, 49.839787], [6.136519, 49.839855], [6.136366, 49.83996], [6.13616, 49.840088], [6.135839, 49.8403], [6.135427, 49.84037], [6.133955, 49.841187], [6.133905, 49.841217], [6.133532, 49.841427], [6.133203, 49.841606], [6.133001, 49.8417], [6.13286, 49.841736], [6.132677, 49.84178], [6.132578, 49.841816], [6.132376, 49.841892], [6.132135, 49.841984], [6.131964, 49.842026], [6.131857, 49.842045], [6.131605, 49.84208], [6.1313, 49.842125], [6.131189, 49.842148], [6.131075, 49.842182], [6.130938, 49.84224], [6.130617, 49.8424], [6.130243, 49.842617], [6.129831, 49.84286], [6.129664, 49.842842], [6.129248, 49.842785], [6.129026, 49.842754], [6.128702, 49.842705], [6.128427, 49.84267], [6.128176, 49.84265], [6.127905, 49.84264], [6.127745, 49.842636], [6.127619, 49.84265], [6.127459, 49.84267], [6.126883, 49.842686], [6.126791, 49.842686], [6.126692, 49.84268], [6.126524, 49.84265], [6.126394, 49.842636], [6.126326, 49.842636], [6.126055, 49.842648], [6.125952, 49.842644], [6.125769, 49.84263], [6.12565, 49.84262], [6.12557, 49.84263], [6.125483, 49.842636], [6.125292, 49.842663], [6.125223, 49.842667], [6.125101, 49.842663], [6.124903, 49.84265], [6.124647, 49.842636], [6.124342, 49.842617], [6.124273, 49.84261], [6.124044, 49.842556], [6.123964, 49.84254], [6.123915, 49.842537], [6.123797, 49.842545], [6.123648, 49.842556], [6.123556, 49.84256], [6.12351, 49.842556], [6.123419, 49.842537], [6.123129, 49.84247], [6.122957, 49.842434], [6.122736, 49.842396], [6.122518, 49.842373], [6.122332, 49.842358], [6.122362, 49.842556], [6.122419, 49.842915], [6.122297, 49.842922], [6.122065, 49.842934], [6.121931, 49.84295], [6.121714, 49.842968], [6.121355, 49.843002], [6.121046, 49.84303], [6.120775, 49.84305], [6.120176, 49.843006], [6.120001, 49.842995], [6.119764, 49.842976], [6.119284, 49.84294], [6.119062, 49.842926], [6.118544, 49.84289], [6.11841, 49.84288], [6.11838, 49.843098], [6.118368, 49.843155], [6.118345, 49.84334], [6.117556, 49.843353], [6.117109, 49.843365], [6.116404, 49.8434], [6.116381, 49.843884], [6.116373, 49.844017], [6.116365, 49.84423], [6.116365, 49.84427], [6.116362, 49.8443], [6.116331, 49.844833], [6.116324, 49.84499], [6.116316, 49.845215], [6.116312, 49.845367], [6.116297, 49.845787], [6.116297, 49.845818], [6.116312, 49.845875], [6.116411, 49.8464], [6.116419, 49.846428], [6.116427, 49.846485], [6.116465, 49.846672], [6.116514, 49.847034], [6.116545, 49.847267], [6.116552, 49.847298], [6.116594, 49.847298], [6.116636, 49.847492], [6.116682, 49.847733], [6.116713, 49.84791], [6.115923, 49.847927], [6.114019, 49.84799], [6.112692, 49.848194], [6.111925, 49.848347], [6.111849, 49.84841], [6.111803, 49.848694], [6.1117, 49.849438], [6.111567, 49.850113], [6.111548, 49.85017], [6.111536, 49.850216], [6.111452, 49.85049], [6.11146, 49.850906], [6.111422, 49.851322], [6.111387, 49.851566], [6.11138, 49.851585], [6.110987, 49.852703], [6.110792, 49.853123], [6.110502, 49.853577], [6.110022, 49.85416], [6.109465, 49.85483], [6.109343, 49.85498], [6.109232, 49.854942], [6.109148, 49.854904], [6.108896, 49.854797], [6.108534, 49.85464], [6.108389, 49.854847], [6.108221, 49.85506], [6.108057, 49.85525], [6.107851, 49.855473], [6.107622, 49.85571], [6.107305, 49.856026], [6.107012, 49.856113], [6.106901, 49.856148], [6.10676, 49.8562], [6.106703, 49.856236], [6.106539, 49.85632], [6.106485, 49.856422], [6.106417, 49.85652], [6.106363, 49.856594], [6.106215, 49.85673], [6.106104, 49.85683], [6.106016, 49.856934], [6.105864, 49.857124], [6.105783, 49.85721], [6.105715, 49.857265], [6.105612, 49.857334], [6.105536, 49.85738], [6.105772, 49.857445], [6.105654, 49.8575], [6.10557, 49.857548], [6.105303, 49.85772], [6.105238, 49.857765], [6.105135, 49.857826], [6.104971, 49.85789], [6.104635, 49.858013], [6.10438, 49.858112], [6.104361, 49.858124], [6.10428, 49.858162], [6.104151, 49.85824], [6.104048, 49.858307], [6.104029, 49.858326], [6.103811, 49.85851], [6.103773, 49.85854], [6.10367, 49.858612], [6.103403, 49.85879], [6.103224, 49.85891], [6.103117, 49.858994], [6.102961, 49.859142], [6.10285, 49.85926], [6.102613, 49.859547], [6.102587, 49.859577], [6.102564, 49.859604], [6.102308, 49.859806], [6.102297, 49.85982], [6.102274, 49.85984], [6.102156, 49.859974], [6.102091, 49.860054], [6.102011, 49.86015], [6.101782, 49.860428], [6.101755, 49.860466], [6.101683, 49.8606], [6.101652, 49.860664], [6.101488, 49.860928], [6.101412, 49.861046], [6.101381, 49.86111], [6.101332, 49.861244], [6.101187, 49.861675], [6.101175, 49.8619], [6.101389, 49.862362], [6.101408, 49.862408], [6.101477, 49.86261], [6.101496, 49.862656], [6.10153, 49.86275], [6.101625, 49.863], [6.101778, 49.86328], [6.101927, 49.86354], [6.102453, 49.864014], [6.102514, 49.86404], [6.102453, 49.864155], [6.102411, 49.86424], [6.10206, 49.864326], [6.102003, 49.864338], [6.101934, 49.864353], [6.101873, 49.864365], [6.101698, 49.864388], [6.101404, 49.86442], [6.100977, 49.86448], [6.100924, 49.864506], [6.100855, 49.86451], [6.100664, 49.864548], [6.100489, 49.864605], [6.100359, 49.86467], [6.100195, 49.864777], [6.100016, 49.86491], [6.099791, 49.86507], [6.099638, 49.865173], [6.099447, 49.865295], [6.099253, 49.865414], [6.099047, 49.86552], [6.098944, 49.865574], [6.098845, 49.86562], [6.09857, 49.86572], [6.098406, 49.8658], [6.098257, 49.86589], [6.098146, 49.865993], [6.097906, 49.8663], [6.097902, 49.86631], [6.097795, 49.86648], [6.097662, 49.866684], [6.097639, 49.86672], [6.097582, 49.866806], [6.097475, 49.86696], [6.097418, 49.86704], [6.097368, 49.867104], [6.097261, 49.867226], [6.097181, 49.86732], [6.097139, 49.867374], [6.097074, 49.86746], [6.097029, 49.867523], [6.096991, 49.86759], [6.096922, 49.86773], [6.096823, 49.867966], [6.09672, 49.8682], [6.096617, 49.868385], [6.096521, 49.86856], [6.096472, 49.86867], [6.096426, 49.868786], [6.096365, 49.868935], [6.096239, 49.869198], [6.096094, 49.869453], [6.096037, 49.869476], [6.095999, 49.869625], [6.095953, 49.869854], [6.095915, 49.8702], [6.095911, 49.87052], [6.095968, 49.87103], [6.095961, 49.871166], [6.095915, 49.871376], [6.095858, 49.871555], [6.095808, 49.871666], [6.095713, 49.871838], [6.095652, 49.872047], [6.095591, 49.87207], [6.09551, 49.872017], [6.095411, 49.871944], [6.095194, 49.871796], [6.095026, 49.87169], [6.0949, 49.871628], [6.094667, 49.871536], [6.094503, 49.871483], [6.094229, 49.871403], [6.094023, 49.871353], [6.093775, 49.871304], [6.093184, 49.87122], [6.093115, 49.871334], [6.093027, 49.871357], [6.092539, 49.87149], [6.091856, 49.871685], [6.091135, 49.87189], [6.090898, 49.871975], [6.090769, 49.87203], [6.090651, 49.872086], [6.090555, 49.87214], [6.090418, 49.87223], [6.090235, 49.87236], [6.090113, 49.872475], [6.089949, 49.872646], [6.089861, 49.872753], [6.089815, 49.87283], [6.089777, 49.872906], [6.089747, 49.873005], [6.089735, 49.873116], [6.089735, 49.873272], [6.089747, 49.873363], [6.089125, 49.87317], [6.088938, 49.873093], [6.088671, 49.872974], [6.088686, 49.872948], [6.088423, 49.872906], [6.08827, 49.872883], [6.088018, 49.87284], [6.087999, 49.87296], [6.087519, 49.87331], [6.087496, 49.87332], [6.087606, 49.873596], [6.087656, 49.873676], [6.08782, 49.87386], [6.08798, 49.874035], [6.08806, 49.874146], [6.08808, 49.874207], [6.088076, 49.874252], [6.088057, 49.874336], [6.088026, 49.87442], [6.087915, 49.874683], [6.087873, 49.874813], [6.087854, 49.874893], [6.087831, 49.87505], [6.087824, 49.875164], [6.087824, 49.87526], [6.087828, 49.875298], [6.087404, 49.875328], [6.087015, 49.87535], [6.086573, 49.875374], [6.086107, 49.875412], [6.08581, 49.87544], [6.085554, 49.87547], [6.085173, 49.875526], [6.084845, 49.875584], [6.084532, 49.87565], [6.08449, 49.875534], [6.084459, 49.875435], [6.084402, 49.87528], [6.08436, 49.87519], [6.08433, 49.875145], [6.084284, 49.875088], [6.084139, 49.87493], [6.084047, 49.87484], [6.084017, 49.874813], [6.08388, 49.874676], [6.083815, 49.874683], [6.083723, 49.8747], [6.083605, 49.874718], [6.083464, 49.874756], [6.083258, 49.87482], [6.082701, 49.874996], [6.082541, 49.874996], [6.08243, 49.87499], [6.082209, 49.874966], [6.082025, 49.87494], [6.082003, 49.874935], [6.081846, 49.87489], [6.081545, 49.874794], [6.081236, 49.874687], [6.080835, 49.874542], [6.080397, 49.874374], [6.080328, 49.874435], [6.079885, 49.87488], [6.079863, 49.874912], [6.079744, 49.87515], [6.0795, 49.875446], [6.079718, 49.875767], [6.07976, 49.87583], [6.079866, 49.875893], [6.079969, 49.87595], [6.080027, 49.875984], [6.080187, 49.876076], [6.076918, 49.877148], [6.076853, 49.87717], [6.076651, 49.87684], [6.076479, 49.87666], [6.075975, 49.87616], [6.075911, 49.876198], [6.075872, 49.876217], [6.0758, 49.876278], [6.075842, 49.87633], [6.075872, 49.876392], [6.075911, 49.87643], [6.07601, 49.876465], [6.076059, 49.87649], [6.076101, 49.87653], [6.076155, 49.876583], [6.076208, 49.876682], [6.076265, 49.87695], [6.076277, 49.87706], [6.076265, 49.877205], [6.07622, 49.877342], [6.0762, 49.877415], [6.076216, 49.87749], [6.076258, 49.877567], [6.076323, 49.877666], [6.076407, 49.877792], [6.07646, 49.877903], [6.076536, 49.878033], [6.076639, 49.87818], [6.076761, 49.878315], [6.076792, 49.87835], [6.076883, 49.87843], [6.076963, 49.878475], [6.077108, 49.87854], [6.077375, 49.878624], [6.077539, 49.87868], [6.077597, 49.87871], [6.077631, 49.87874], [6.077639, 49.878757], [6.077631, 49.87878], [6.077604, 49.8788], [6.077551, 49.878815], [6.07696, 49.87887], [6.076662, 49.878914], [6.076387, 49.878983], [6.076181, 49.87906], [6.075983, 49.87915], [6.075815, 49.879234], [6.075754, 49.87928], [6.075685, 49.87936], [6.075598, 49.879524], [6.075563, 49.87963], [6.075552, 49.879772], [6.07556, 49.879845], [6.075605, 49.879913], [6.075827, 49.880135], [6.075876, 49.88023], [6.075884, 49.88028], [6.075884, 49.880306], [6.07585, 49.880424], [6.075857, 49.880615], [6.075899, 49.88075], [6.075949, 49.880836], [6.076052, 49.880936], [6.07614, 49.88103], [6.076147, 49.881058], [6.076117, 49.88119], [6.076078, 49.88134], [6.076071, 49.88142], [6.076082, 49.881516], [6.076136, 49.881805], [6.076178, 49.88193], [6.076185, 49.88201], [6.076178, 49.882046], [6.076109, 49.88219], [6.076086, 49.88228], [6.076071, 49.882393], [6.07604, 49.8825], [6.075983, 49.882572], [6.07588, 49.882652], [6.075823, 49.882698], [6.075762, 49.8828], [6.075701, 49.882874], [6.075586, 49.882946], [6.075426, 49.883003], [6.075228, 49.883087], [6.075033, 49.883194], [6.074896, 49.883255], [6.074667, 49.88327], [6.074438, 49.88327], [6.074263, 49.88328], [6.074091, 49.883305], [6.07398, 49.883316], [6.073797, 49.883312], [6.073587, 49.883305], [6.073469, 49.883312], [6.073286, 49.88336], [6.073133, 49.883427], [6.072962, 49.88353], [6.072809, 49.883644], [6.072615, 49.883766], [6.072523, 49.883842], [6.072481, 49.883915], [6.07247, 49.883972], [6.072485, 49.884045], [6.072531, 49.88409], [6.072641, 49.884148], [6.072832, 49.884224], [6.072954, 49.8843], [6.073072, 49.88437], [6.073187, 49.88441], [6.073484, 49.884487], [6.073801, 49.884552], [6.074064, 49.88459], [6.074301, 49.88464], [6.074381, 49.884686], [6.074446, 49.88474], [6.07469, 49.884937], [6.074945, 49.88513], [6.075258, 49.885372], [6.075453, 49.885506], [6.075518, 49.88557], [6.075529, 49.885605], [6.075521, 49.88565], [6.075499, 49.8857], [6.075422, 49.885784], [6.07535, 49.885838], [6.075178, 49.885933], [6.075045, 49.886032], [6.074919, 49.886135], [6.07482, 49.886234], [6.074686, 49.886387], [6.07448, 49.886723], [6.074602, 49.886845], [6.074656, 49.886894], [6.074675, 49.887016], [6.074839, 49.887283], [6.074907, 49.88736], [6.074999, 49.88744], [6.075148, 49.887554], [6.075293, 49.887646], [6.075407, 49.887703], [6.075468, 49.887726], [6.07567, 49.88779], [6.075727, 49.887814], [6.075899, 49.8879], [6.076132, 49.887997], [6.076483, 49.88815], [6.076872, 49.888298], [6.077021, 49.888348], [6.077238, 49.888405], [6.077436, 49.888454], [6.077539, 49.88849], [6.077635, 49.88854], [6.077757, 49.888607], [6.077845, 49.888657], [6.077982, 49.888733], [6.078196, 49.888855], [6.078218, 49.888874], [6.078268, 49.888878], [6.078398, 49.888905], [6.078745, 49.88899], [6.078905, 49.889038], [6.079042, 49.889114], [6.079222, 49.889206], [6.079409, 49.889294], [6.079813, 49.889503], [6.079794, 49.889515], [6.079557, 49.889557], [6.079313, 49.88962], [6.079203, 49.88966], [6.079069, 49.889717], [6.078844, 49.889835], [6.078589, 49.88998], [6.07844, 49.890076], [6.078291, 49.89017], [6.078131, 49.890293], [6.078035, 49.89039], [6.077963, 49.890472], [6.07786, 49.890606], [6.077818, 49.890656], [6.077696, 49.890812], [6.077517, 49.891006], [6.077444, 49.891083], [6.077364, 49.89117], [6.077276, 49.891262], [6.077189, 49.89137], [6.077097, 49.89149], [6.07707, 49.891537], [6.077017, 49.89173], [6.076994, 49.8918], [6.07694, 49.8919], [6.076872, 49.892002], [6.07678, 49.89213], [6.076754, 49.89217], [6.076742, 49.892204], [6.076719, 49.89233], [6.0767, 49.89246], [6.076693, 49.892567], [6.076715, 49.89275], [6.076723, 49.892826], [6.076723, 49.892887], [6.076719, 49.892918], [6.076696, 49.892982], [6.076689, 49.893032], [6.076666, 49.893322], [6.076479, 49.893497], [6.07633, 49.893646], [6.076212, 49.89374], [6.076166, 49.893772], [6.076128, 49.89379], [6.076082, 49.893814], [6.075937, 49.89387], [6.075735, 49.89397], [6.075682, 49.894], [6.075556, 49.89406], [6.07548, 49.894085], [6.075296, 49.894135], [6.075254, 49.894146], [6.075075, 49.894188], [6.074949, 49.89422], [6.074934, 49.894222], [6.074541, 49.89433], [6.074511, 49.89434], [6.074434, 49.89437], [6.074308, 49.89443], [6.074472, 49.894516], [6.075335, 49.89485], [6.075647, 49.89506], [6.075579, 49.89514], [6.075552, 49.895176], [6.075407, 49.89523], [6.075266, 49.895294], [6.075098, 49.89538], [6.074991, 49.895443], [6.074881, 49.895523], [6.07477, 49.895607], [6.074709, 49.89565], [6.074431, 49.8958], [6.074156, 49.895977], [6.073942, 49.896137], [6.073877, 49.896183], [6.073801, 49.896217], [6.07361, 49.896305], [6.073465, 49.896378], [6.073324, 49.896458], [6.073141, 49.89657], [6.073011, 49.896652], [6.072924, 49.89674], [6.07284, 49.89683], [6.072577, 49.896942], [6.072412, 49.897106], [6.07226, 49.897194], [6.072027, 49.89728], [6.071859, 49.89735], [6.071752, 49.897373], [6.071764, 49.897392], [6.071867, 49.897644], [6.071871, 49.897682], [6.071814, 49.89787], [6.071798, 49.89794], [6.071749, 49.89821]]]]}}]}