{"type": "FeatureCollection", "features": [{"type": "Feature", "properties": {"name": "Marais de Grendel", "kind": "nature_reserve"}, "geometry": {"type": "Polygon", "coordinates": [[[5.8161691, 49.7545089], [5.8170934, 49.7546826], [5.817665, 49.7547212], [5.8179409, 49.7547398], [5.8179535, 49.7547362], [5.8180085, 49.7547176], [5.8180777, 49.7546948], [5.8181582, 49.7546185], [5.8182934, 49.7545609], [5.8188636, 49.7546341], [5.8195851, 49.7546393], [5.8200556, 49.7546164], [5.8201231, 49.7545858], [5.8201886, 49.7545561], [5.8205384, 49.754249], [5.8199295, 49.7536702], [5.8208458, 49.7532565], [5.8207476, 49.7528947], [5.8200127, 49.7531018], [5.8183175, 49.7533097], [5.8170596, 49.7534744], [5.8160913, 49.7536191], [5.8160986, 49.7539284], [5.8161114, 49.7544655], [5.8161691, 49.7545089]]]}}]}