{"type": "FeatureCollection", "features": [{"type": "Feature", "properties": {"name": "Putscheid"}, "geometry": {"type": "MultiPolygon", "coordinates": [[[[6.087198, 49.934954], [6.087202, 49.934988], [6.087221, 49.935011], [6.087252, 49.935028], [6.08732, 49.935053], [6.087431, 49.935083], [6.087477, 49.935114], [6.087507, 49.935144], [6.087526, 49.93519], [6.087553, 49.935354], [6.08758, 49.935453], [6.087622, 49.935533], [6.087656, 49.935606], [6.087679, 49.935698], [6.087709, 49.935762], [6.087763, 49.935838], [6.087771, 49.935868], [6.087763, 49.935896], [6.087721, 49.935972], [6.087698, 49.936052], [6.087664, 49.936118], [6.087622, 49.936174], [6.087606, 49.936212], [6.08761, 49.936235], [6.087599, 49.936262], [6.087599, 49.936293], [6.087591, 49.936328], [6.087576, 49.936368], [6.087561, 49.936403], [6.087538, 49.936434], [6.0875, 49.936476], [6.087477, 49.936498], [6.087473, 49.936528], [6.08753, 49.936685], [6.087603, 49.936895], [6.087603, 49.93696], [6.087584, 49.936988], [6.087565, 49.937008], [6.087503, 49.937055], [6.087473, 49.937082], [6.087458, 49.937108], [6.087454, 49.937155], [6.087469, 49.937188], [6.087496, 49.937198], [6.087519, 49.937218], [6.087576, 49.937231], [6.087801, 49.937231], [6.087912, 49.937248], [6.088018, 49.937273], [6.088095, 49.937296], [6.088186, 49.93733], [6.088259, 49.937372], [6.088289, 49.937408], [6.088285, 49.937426], [6.088266, 49.937448], [6.088198, 49.937471], [6.088125, 49.937502], [6.088102, 49.937521], [6.088095, 49.937548], [6.088099, 49.937598], [6.088114, 49.937668], [6.088114, 49.937715], [6.08808, 49.93786], [6.088072, 49.937925], [6.08808, 49.937975], [6.088106, 49.938002], [6.088137, 49.938018], [6.088278, 49.938032], [6.088301, 49.938048], [6.088316, 49.938063], [6.088308, 49.938082], [6.088285, 49.938131], [6.088289, 49.938178], [6.088308, 49.938228], [6.088327, 49.938291], [6.088354, 49.938333], [6.088381, 49.938352], [6.088415, 49.93836], [6.08843, 49.938358], [6.088453, 49.938352], [6.088491, 49.93836], [6.088518, 49.938372], [6.088614, 49.938428], [6.088774, 49.938528], [6.088949, 49.938631], [6.089109, 49.938738], [6.089239, 49.938828], [6.089277, 49.938848], [6.089479, 49.938902], [6.089613, 49.938944], [6.089758, 49.938998], [6.090361, 49.939264], [6.090822, 49.939482], [6.091349, 49.939722], [6.091551, 49.939806], [6.091982, 49.939955], [6.092501, 49.940118], [6.09305, 49.940435], [6.093027, 49.94071], [6.093069, 49.940748], [6.093119, 49.940794], [6.09313, 49.940828], [6.093122, 49.940858], [6.093092, 49.940916], [6.093061, 49.940966], [6.093054, 49.941004], [6.093073, 49.941225], [6.0931, 49.94132], [6.093107, 49.941368], [6.093096, 49.9414], [6.093081, 49.941431], [6.093046, 49.941473], [6.092966, 49.941538], [6.09276, 49.941698], [6.092478, 49.941915], [6.09234, 49.942022], [6.09202, 49.942318], [6.091982, 49.942338], [6.091928, 49.94235], [6.091867, 49.94235], [6.091642, 49.942354], [6.091597, 49.942366], [6.091558, 49.942411], [6.091532, 49.942453], [6.091532, 49.94248], [6.091558, 49.942508], [6.091589, 49.942528], [6.091585, 49.942552], [6.091558, 49.942575], [6.091513, 49.942588], [6.09144, 49.942598], [6.091356, 49.942606], [6.091185, 49.942688], [6.091085, 49.942751], [6.090979, 49.942848], [6.090929, 49.942918], [6.090883, 49.942984], [6.090838, 49.943022], [6.090719, 49.943108], [6.090586, 49.943243], [6.090262, 49.943563], [6.090212, 49.943685], [6.090162, 49.943865], [6.090136, 49.943911], [6.090105, 49.943978], [6.090075, 49.944021], [6.090033, 49.944044], [6.089956, 49.944063], [6.089865, 49.944078], [6.089868, 49.94412], [6.089891, 49.944168], [6.089956, 49.944228], [6.090021, 49.944261], [6.090113, 49.944288], [6.090208, 49.944318], [6.090258, 49.944348], [6.090334, 49.944408], [6.090387, 49.944468], [6.090426, 49.944508], [6.090452, 49.944588], [6.090471, 49.944662], [6.090467, 49.944708], [6.090452, 49.944754], [6.090391, 49.944834], [6.090345, 49.944895], [6.090326, 49.944938], [6.090334, 49.944968], [6.090349, 49.945008], [6.090383, 49.945055], [6.09041, 49.945082], [6.090448, 49.945101], [6.090479, 49.945105], [6.090509, 49.945105], [6.090597, 49.945085], [6.090673, 49.945063], [6.090746, 49.945058], [6.09078, 49.945058], [6.090807, 49.945074], [6.090826, 49.945098], [6.09083, 49.945128], [6.090826, 49.945166], [6.090815, 49.945208], [6.090788, 49.945246], [6.09078, 49.945268], [6.090792, 49.945288], [6.090834, 49.945318], [6.090853, 49.945341], [6.09086, 49.94536], [6.090849, 49.945383], [6.090826, 49.945408], [6.090795, 49.945433], [6.09078, 49.945463], [6.090792, 49.945486], [6.090815, 49.945513], [6.090845, 49.945524], [6.090872, 49.945528], [6.090914, 49.945518], [6.090982, 49.945488], [6.091017, 49.945488], [6.09104, 49.945501], [6.091066, 49.94552], [6.091082, 49.945548], [6.091078, 49.945566], [6.091059, 49.945581], [6.091021, 49.945588], [6.090887, 49.945608], [6.090811, 49.945631], [6.090784, 49.94565], [6.09075, 49.945692], [6.090727, 49.94573], [6.090719, 49.945761], [6.090731, 49.945778], [6.090757, 49.945791], [6.090784, 49.945791], [6.090879, 49.945753], [6.090941, 49.945742], [6.090982, 49.945738], [6.091009, 49.945742], [6.091047, 49.945758], [6.091089, 49.945784], [6.091127, 49.945814], [6.091169, 49.945858], [6.091249, 49.945968], [6.091295, 49.94602], [6.091326, 49.946048], [6.091372, 49.946068], [6.091425, 49.946093], [6.091444, 49.946108], [6.091452, 49.946123], [6.091436, 49.946192], [6.091444, 49.946226], [6.091456, 49.946258], [6.091475, 49.946268], [6.091558, 49.946295], [6.091593, 49.946308], [6.091646, 49.94634], [6.091715, 49.946375], [6.091841, 49.946405], [6.091864, 49.946418], [6.092043, 49.946535], [6.092176, 49.946615], [6.092234, 49.946658], [6.092253, 49.946678], [6.09226, 49.946695], [6.092257, 49.946718], [6.092245, 49.946726], [6.092215, 49.946741], [6.092188, 49.946745], [6.09215, 49.946745], [6.092115, 49.946758], [6.092096, 49.946768], [6.092085, 49.946791], [6.092077, 49.946852], [6.092073, 49.946871], [6.092047, 49.946894], [6.092009, 49.946913], [6.092001, 49.946932], [6.092028, 49.946993], [6.092081, 49.947122], [6.092108, 49.947214], [6.092108, 49.947283], [6.092104, 49.94734], [6.092077, 49.947398], [6.092032, 49.947454], [6.091951, 49.947531], [6.09194, 49.947558], [6.09194, 49.947592], [6.091948, 49.947638], [6.091974, 49.947714], [6.091978, 49.947768], [6.091982, 49.947808], [6.091963, 49.947868], [6.091928, 49.947916], [6.091867, 49.947968], [6.091761, 49.94803], [6.091711, 49.948058], [6.091688, 49.948084], [6.091684, 49.948114], [6.091688, 49.948175], [6.091684, 49.948206], [6.091658, 49.948278], [6.091627, 49.94832], [6.09162, 49.948378], [6.09162, 49.948423], [6.091608, 49.948461], [6.09157, 49.948508], [6.091558, 49.948542], [6.091555, 49.948568], [6.091536, 49.94861], [6.091501, 49.948648], [6.091482, 49.948671], [6.091475, 49.94869], [6.09149, 49.948708], [6.091524, 49.948728], [6.091639, 49.948778], [6.091715, 49.948824], [6.091837, 49.9489], [6.091932, 49.948961], [6.092024, 49.949048], [6.092085, 49.94911], [6.09215, 49.949156], [6.092215, 49.949194], [6.09234, 49.949238], [6.092566, 49.949312], [6.092737, 49.949366], [6.092874, 49.949408], [6.093084, 49.949465], [6.093245, 49.949503], [6.093351, 49.949522], [6.093454, 49.949526], [6.093542, 49.949528], [6.093599, 49.949545], [6.093656, 49.949564], [6.093744, 49.949606], [6.094015, 49.949748], [6.094126, 49.949812], [6.094229, 49.949892], [6.094416, 49.950088], [6.094465, 49.950148], [6.094488, 49.950182], [6.094484, 49.950198], [6.094469, 49.950208], [6.094419, 49.950212], [6.094378, 49.95022], [6.094343, 49.950235], [6.094301, 49.950288], [6.09424, 49.950448], [6.094198, 49.950521], [6.094076, 49.95067], [6.093962, 49.95083], [6.093904, 49.95088], [6.093786, 49.950938], [6.09371, 49.951013], [6.093553, 49.951181], [6.093485, 49.95125], [6.093462, 49.951284], [6.093466, 49.951318], [6.093531, 49.951391], [6.093534, 49.95141], [6.093531, 49.951428], [6.093508, 49.951458], [6.093435, 49.951536], [6.09337, 49.951601], [6.093306, 49.951668], [6.093264, 49.951728], [6.093229, 49.951808], [6.093206, 49.951848], [6.093172, 49.951891], [6.093157, 49.951908], [6.093084, 49.951982], [6.093039, 49.952018], [6.092977, 49.952063], [6.09284, 49.952143], [6.09276, 49.952215], [6.092547, 49.952433], [6.092493, 49.952494], [6.092447, 49.952558], [6.092424, 49.952616], [6.092386, 49.952745], [6.092363, 49.952841], [6.092348, 49.952951], [6.092348, 49.953018], [6.092356, 49.953088], [6.092371, 49.953131], [6.092398, 49.953154], [6.092428, 49.953158], [6.092462, 49.953173], [6.092504, 49.953192], [6.092527, 49.953222], [6.092527, 49.95326], [6.09252, 49.953321], [6.092516, 49.953375], [6.092539, 49.953424], [6.092581, 49.953493], [6.092604, 49.953538], [6.092604, 49.953588], [6.0926, 49.95363], [6.092611, 49.95368], [6.092611, 49.953758], [6.092573, 49.954084], [6.092569, 49.954134], [6.092566, 49.954161], [6.092573, 49.954218], [6.092585, 49.954248], [6.092669, 49.954358], [6.092733, 49.954448], [6.092771, 49.954488], [6.09284, 49.954528], [6.093, 49.954611], [6.093149, 49.954691], [6.093252, 49.95474], [6.093321, 49.954763], [6.093412, 49.954782], [6.093481, 49.95479], [6.093519, 49.954818], [6.093557, 49.954863], [6.093615, 49.954935], [6.093634, 49.954965], [6.093622, 49.954988], [6.093596, 49.955004], [6.093561, 49.955015], [6.093538, 49.95503], [6.093531, 49.955053], [6.093546, 49.955088], [6.093569, 49.955114], [6.093622, 49.955152], [6.093721, 49.955213], [6.093752, 49.95524], [6.093763, 49.955258], [6.093759, 49.955288], [6.093737, 49.955328], [6.093687, 49.955388], [6.093615, 49.955454], [6.093542, 49.955515], [6.093527, 49.955545], [6.093531, 49.955572], [6.093561, 49.955591], [6.093599, 49.955603], [6.093649, 49.955614], [6.093668, 49.955638], [6.093668, 49.955664], [6.093592, 49.955768], [6.093584, 49.955801], [6.093596, 49.955885], [6.093596, 49.955912], [6.093569, 49.955928], [6.093504, 49.955942], [6.093492, 49.955948], [6.093489, 49.955965], [6.093519, 49.955978], [6.093607, 49.955992], [6.093656, 49.956008], [6.093672, 49.956022], [6.093679, 49.956045], [6.093672, 49.956072], [6.093637, 49.956128], [6.093195, 49.956751], [6.093184, 49.956788], [6.093191, 49.956804], [6.093267, 49.956854], [6.093386, 49.95693], [6.093412, 49.956964], [6.09342, 49.956991], [6.093412, 49.957028], [6.093397, 49.957071], [6.093386, 49.957106], [6.093386, 49.957125], [6.093409, 49.957148], [6.093462, 49.957182], [6.093481, 49.957201], [6.093477, 49.957218], [6.093458, 49.957235], [6.093432, 49.957254], [6.093424, 49.957273], [6.093447, 49.957285], [6.093477, 49.957288], [6.093553, 49.957266], [6.09366, 49.957218], [6.093706, 49.957201], [6.093752, 49.957201], [6.093786, 49.957224], [6.093889, 49.9573], [6.093947, 49.957338], [6.093977, 49.957346], [6.094042, 49.957348], [6.094076, 49.957353], [6.094107, 49.957361], [6.094145, 49.957373], [6.094225, 49.957418], [6.094297, 49.957453], [6.094362, 49.957472], [6.094461, 49.957491], [6.094534, 49.957506], [6.094583, 49.957521], [6.094664, 49.957544], [6.094706, 49.957571], [6.094755, 49.957605], [6.094786, 49.957624], [6.094839, 49.957638], [6.09487, 49.957643], [6.094931, 49.957638], [6.094961, 49.957643], [6.095221, 49.957716], [6.095434, 49.957778], [6.095591, 49.957828], [6.095915, 49.957918], [6.095945, 49.957926], [6.096018, 49.957948], [6.096075, 49.957975], [6.096151, 49.958025], [6.096251, 49.958101], [6.096388, 49.958231], [6.096476, 49.958322], [6.096518, 49.958378], [6.096548, 49.958438], [6.096624, 49.958728], [6.096678, 49.958914], [6.096697, 49.958982], [6.096731, 49.959051], [6.096785, 49.959138], [6.096827, 49.959196], [6.096899, 49.959278], [6.096952, 49.959318], [6.097044, 49.959375], [6.09712, 49.959421], [6.097139, 49.959438], [6.097136, 49.959455], [6.097117, 49.959488], [6.097113, 49.959513], [6.097128, 49.959538], [6.097204, 49.959593], [6.097284, 49.959635], [6.097334, 49.959673], [6.097372, 49.959703], [6.097383, 49.959734], [6.097395, 49.959795], [6.097403, 49.959856], [6.09741, 49.959902], [6.097425, 49.959944], [6.09746, 49.959986], [6.097483, 49.960005], [6.097506, 49.960012], [6.097548, 49.95997], [6.097574, 49.959968], [6.097609, 49.95997], [6.097647, 49.959982], [6.097708, 49.960028], [6.09778, 49.960098], [6.097807, 49.960115], [6.097837, 49.960123], [6.097864, 49.960123], [6.097883, 49.960112], [6.097887, 49.960092], [6.097891, 49.960054], [6.097898, 49.960038], [6.097918, 49.960038], [6.097952, 49.960048], [6.09799, 49.960058], [6.098059, 49.960104], [6.098139, 49.960173], [6.098162, 49.960203], [6.098166, 49.960228], [6.098162, 49.960253], [6.098146, 49.960283], [6.098124, 49.960333], [6.09812, 49.960356], [6.098143, 49.960368], [6.098166, 49.960363], [6.098192, 49.960352], [6.098238, 49.960338], [6.098272, 49.960333], [6.098299, 49.960352], [6.098314, 49.960375], [6.098318, 49.960408], [6.098318, 49.960498], [6.098311, 49.960518], [6.09828, 49.960562], [6.09828, 49.960573], [6.098307, 49.960588], [6.098478, 49.960608], [6.098551, 49.960615], [6.098578, 49.960611], [6.098593, 49.960604], [6.098597, 49.960588], [6.098581, 49.960573], [6.098513, 49.960518], [6.098501, 49.960501], [6.098509, 49.960485], [6.098535, 49.960474], [6.098558, 49.960474], [6.098589, 49.960482], [6.098654, 49.960518], [6.098734, 49.960573], [6.098822, 49.960638], [6.098829, 49.960653], [6.098826, 49.960668], [6.098806, 49.960691], [6.098764, 49.960718], [6.098745, 49.960733], [6.098753, 49.960748], [6.098768, 49.96076], [6.098822, 49.960788], [6.098826, 49.960798], [6.098829, 49.960818], [6.098837, 49.960848], [6.098867, 49.960901], [6.098894, 49.960932], [6.098936, 49.960974], [6.098997, 49.961023], [6.0991, 49.961098], [6.099142, 49.96113], [6.099157, 49.961168], [6.099157, 49.961191], [6.099115, 49.961328], [6.099081, 49.961435], [6.099054, 49.961466], [6.099024, 49.961504], [6.099016, 49.961531], [6.099016, 49.961584], [6.099001, 49.961691], [6.098967, 49.961832], [6.098913, 49.962072], [6.098837, 49.962423], [6.098829, 49.962498], [6.098837, 49.962545], [6.098982, 49.963148], [6.099016, 49.963282], [6.099039, 49.963331], [6.099134, 49.963484], [6.099478, 49.963976], [6.099523, 49.964052], [6.099565, 49.964128], [6.099615, 49.964193], [6.099707, 49.964285], [6.099791, 49.964348], [6.09992, 49.964428], [6.100149, 49.964533], [6.10042, 49.964651], [6.100626, 49.964743], [6.10074, 49.964798], [6.100893, 49.964878], [6.100988, 49.964926], [6.101282, 49.965058], [6.101282, 49.965074], [6.101263, 49.965138], [6.101252, 49.965158], [6.101244, 49.965168], [6.101221, 49.965208], [6.101179, 49.965258], [6.101133, 49.965296], [6.101088, 49.965322], [6.101007, 49.965383], [6.100809, 49.965538], [6.100718, 49.965608], [6.100637, 49.965678], [6.100576, 49.965728], [6.100496, 49.965768], [6.100378, 49.965822], [6.100325, 49.965853], [6.100294, 49.965878], [6.10026, 49.965928], [6.100218, 49.966005], [6.100176, 49.966088], [6.100149, 49.966118], [6.100115, 49.966143], [6.100061, 49.966162], [6.099966, 49.966178], [6.099939, 49.966188], [6.099901, 49.966198], [6.099882, 49.966198], [6.099855, 49.966192], [6.099825, 49.966181], [6.099802, 49.966185], [6.099729, 49.966204], [6.099642, 49.966228], [6.099627, 49.966268], [6.099608, 49.966326], [6.099588, 49.966378], [6.099558, 49.966428], [6.09952, 49.966455], [6.099455, 49.966478], [6.099367, 49.966508], [6.09918, 49.966555], [6.098974, 49.9666], [6.09897, 49.966616], [6.099134, 49.966776], [6.098982, 49.966848], [6.098906, 49.96689], [6.098707, 49.967001], [6.098589, 49.967062], [6.09849, 49.967104], [6.098471, 49.967118], [6.098394, 49.967188], [6.098288, 49.967268], [6.098265, 49.967295], [6.098249, 49.96734], [6.098238, 49.967432], [6.098211, 49.967535], [6.098181, 49.967604], [6.098169, 49.967642], [6.098169, 49.967703], [6.098158, 49.967958], [6.098166, 49.968031], [6.098196, 49.968078], [6.098261, 49.968138], [6.098429, 49.968368], [6.098631, 49.968608], [6.098688, 49.968688], [6.098776, 49.968838], [6.098806, 49.968908], [6.098818, 49.968954], [6.098814, 49.968992], [6.098799, 49.969034], [6.098753, 49.969108], [6.098738, 49.96916], [6.09873, 49.969208], [6.098734, 49.969271], [6.098749, 49.969343], [6.098799, 49.969454], [6.098864, 49.969638], [6.09889, 49.969748], [6.098898, 49.969805], [6.098906, 49.969946], [6.098898, 49.970095], [6.098906, 49.970121], [6.098925, 49.970144], [6.09897, 49.970178], [6.099047, 49.970224], [6.099077, 49.970251], [6.099093, 49.97027], [6.0991, 49.970298], [6.099093, 49.970328], [6.099093, 49.970378], [6.0991, 49.970423], [6.099138, 49.970533], [6.09915, 49.970558], [6.099161, 49.970613], [6.099184, 49.970678], [6.099196, 49.970718], [6.099234, 49.970768], [6.099268, 49.970808], [6.099314, 49.970846], [6.099344, 49.970878], [6.099428, 49.971002], [6.099497, 49.971078], [6.099608, 49.971174], [6.099863, 49.971378], [6.099901, 49.971426], [6.099909, 49.971458], [6.099905, 49.971502], [6.099916, 49.971533], [6.099932, 49.971552], [6.099981, 49.971578], [6.100004, 49.971598], [6.100023, 49.971628], [6.100046, 49.971648], [6.100073, 49.971674], [6.1001, 49.971701], [6.100126, 49.971762], [6.100153, 49.971838], [6.100264, 49.97199], [6.100279, 49.972052], [6.10029, 49.972132], [6.100302, 49.97233], [6.100306, 49.972414], [6.100298, 49.972444], [6.10026, 49.972494], [6.100248, 49.972521], [6.100248, 49.972551], [6.100256, 49.972601], [6.100237, 49.972681], [6.100229, 49.972784], [6.100225, 49.972826], [6.100214, 49.972853], [6.100191, 49.972864], [6.100111, 49.972888], [6.100092, 49.972898], [6.100088, 49.972914], [6.100111, 49.97294], [6.100172, 49.973005], [6.100183, 49.973024], [6.100183, 49.973038], [6.100168, 49.973074], [6.100168, 49.973101], [6.100187, 49.973123], [6.10021, 49.973128], [6.100241, 49.973123], [6.100256, 49.973131], [6.100264, 49.973154], [6.100267, 49.973178], [6.100271, 49.973196], [6.10026, 49.973246], [6.100267, 49.973288], [6.100294, 49.973328], [6.100309, 49.973348], [6.100309, 49.973364], [6.100294, 49.973383], [6.100302, 49.973402], [6.100313, 49.973421], [6.100321, 49.973438], [6.100309, 49.973452], [6.100286, 49.973468], [6.100237, 49.973478], [6.100222, 49.973488], [6.100222, 49.973505], [6.100233, 49.973508], [6.100275, 49.973505], [6.100302, 49.973505], [6.100325, 49.973518], [6.100378, 49.973543], [6.100424, 49.973566], [6.100443, 49.973585], [6.100447, 49.9736], [6.100443, 49.973618], [6.10045, 49.973631], [6.100466, 49.973638], [6.100523, 49.973642], [6.100546, 49.973654], [6.100534, 49.973673], [6.100531, 49.973698], [6.100531, 49.973718], [6.100542, 49.973745], [6.100573, 49.973788], [6.100653, 49.973868], [6.100767, 49.973974], [6.100809, 49.974012], [6.10087, 49.974048], [6.100966, 49.974085], [6.10103, 49.974115], [6.101061, 49.974131], [6.101118, 49.974168], [6.101236, 49.97426], [6.101301, 49.974308], [6.101461, 49.974418], [6.101614, 49.974528], [6.101843, 49.974688], [6.101931, 49.974741], [6.101965, 49.974768], [6.102003, 49.974808], [6.10203, 49.974844], [6.102114, 49.974993], [6.102137, 49.975035], [6.102182, 49.975138], [6.102247, 49.975264], [6.102255, 49.975288], [6.102255, 49.975305], [6.102259, 49.975325], [6.102278, 49.975348], [6.102304, 49.975382], [6.102323, 49.975416], [6.102331, 49.975443], [6.102331, 49.975478], [6.102323, 49.975508], [6.102327, 49.975538], [6.102339, 49.975561], [6.102362, 49.975572], [6.102381, 49.975584], [6.102396, 49.975603], [6.102396, 49.975622], [6.102392, 49.975641], [6.102377, 49.97566], [6.102362, 49.975678], [6.102354, 49.975698], [6.102354, 49.975718], [6.102366, 49.975748], [6.102381, 49.975771], [6.102381, 49.975801], [6.102373, 49.975818], [6.102366, 49.975838], [6.102362, 49.975868], [6.102381, 49.975893], [6.102404, 49.975908], [6.102426, 49.975916], [6.102449, 49.975916], [6.102461, 49.975918], [6.102468, 49.975931], [6.102461, 49.975943], [6.10243, 49.975988], [6.102426, 49.976015], [6.102434, 49.976034], [6.102465, 49.976053], [6.102491, 49.976065], [6.102511, 49.976076], [6.102522, 49.976088], [6.102518, 49.976098], [6.102484, 49.976126], [6.102426, 49.976178], [6.102423, 49.976202], [6.102426, 49.976218], [6.102438, 49.97624], [6.10243, 49.976263], [6.102415, 49.976286], [6.102366, 49.976324], [6.102354, 49.976338], [6.10235, 49.976362], [6.102362, 49.976393], [6.102385, 49.976428], [6.102385, 49.976448], [6.102377, 49.976478], [6.102362, 49.976492], [6.102339, 49.976522], [6.102331, 49.976548], [6.10232, 49.976576], [6.102316, 49.976595], [6.102304, 49.976618], [6.102278, 49.976728], [6.102263, 49.976831], [6.102259, 49.976942], [6.102266, 49.977102], [6.102282, 49.977232], [6.102323, 49.977378], [6.102381, 49.977514], [6.102434, 49.977628], [6.102476, 49.977693], [6.102507, 49.977718], [6.102545, 49.977728], [6.102602, 49.977738], [6.102663, 49.977755], [6.102686, 49.977762], [6.102728, 49.977778], [6.102762, 49.977804], [6.10277, 49.977828], [6.102766, 49.977846], [6.102751, 49.977865], [6.102774, 49.977888], [6.1028, 49.977903], [6.102808, 49.977918], [6.102797, 49.97793], [6.10277, 49.977934], [6.102743, 49.977945], [6.10277, 49.977964], [6.102858, 49.978008], [6.102915, 49.978048], [6.102938, 49.978068], [6.102968, 49.978078], [6.10298, 49.978094], [6.102983, 49.978108], [6.102964, 49.978125], [6.102938, 49.978132], [6.102888, 49.978121], [6.102865, 49.978125], [6.10285, 49.978138], [6.10285, 49.978158], [6.102865, 49.978174], [6.102888, 49.978201], [6.102884, 49.978248], [6.102903, 49.978285], [6.102926, 49.978308], [6.102957, 49.978328], [6.10298, 49.978348], [6.102964, 49.978372], [6.102942, 49.978384], [6.102911, 49.978403], [6.102888, 49.978422], [6.102903, 49.978438], [6.102949, 49.97846], [6.102972, 49.978488], [6.102976, 49.978498], [6.102968, 49.97854], [6.10298, 49.978552], [6.10301, 49.978575], [6.10301, 49.978594], [6.102999, 49.978618], [6.102991, 49.978643], [6.103018, 49.978662], [6.103064, 49.978688], [6.103048, 49.978701], [6.102991, 49.978738], [6.102987, 49.978758], [6.102999, 49.978768], [6.103029, 49.978784], [6.103029, 49.978798], [6.103006, 49.978808], [6.102964, 49.978811], [6.102922, 49.978808], [6.102873, 49.978808], [6.102846, 49.978804], [6.102831, 49.978811], [6.102804, 49.978842], [6.102789, 49.978861], [6.102766, 49.978861], [6.102709, 49.978853], [6.102652, 49.978868], [6.102549, 49.978898], [6.102484, 49.978922], [6.10243, 49.978945], [6.102373, 49.978952], [6.102312, 49.978948], [6.102274, 49.978952], [6.102251, 49.978958], [6.102224, 49.978975], [6.102194, 49.97899], [6.102156, 49.97899], [6.102121, 49.978978], [6.102087, 49.978978], [6.102045, 49.97899], [6.102007, 49.979002], [6.101965, 49.979008], [6.101923, 49.979002], [6.101873, 49.978988], [6.101831, 49.978983], [6.10177, 49.978998], [6.101728, 49.979006], [6.10169, 49.978994], [6.101671, 49.97899], [6.101633, 49.979002], [6.101606, 49.979006], [6.101515, 49.978978], [6.101431, 49.978968], [6.101374, 49.978975], [6.101317, 49.97899], [6.101259, 49.979021], [6.101214, 49.979025], [6.101069, 49.979025], [6.101038, 49.979028], [6.101, 49.979048], [6.100977, 49.979055], [6.100954, 49.979051], [6.100939, 49.979038], [6.100916, 49.979028], [6.100885, 49.979038], [6.100851, 49.979058], [6.100801, 49.979093], [6.100771, 49.979101], [6.100733, 49.979101], [6.100702, 49.979088], [6.100672, 49.979068], [6.100653, 49.979058], [6.100626, 49.979063], [6.100595, 49.979071], [6.100527, 49.979093], [6.100477, 49.979101], [6.100431, 49.979105], [6.100374, 49.979108], [6.10029, 49.979101], [6.100252, 49.979105], [6.10021, 49.979108], [6.100153, 49.979118], [6.1001, 49.979113], [6.100042, 49.979118], [6.09997, 49.979135], [6.099897, 49.979138], [6.099844, 49.979132], [6.099772, 49.979108], [6.099726, 49.979101], [6.099642, 49.979113], [6.099596, 49.979118], [6.099565, 49.979132], [6.099539, 49.979148], [6.099489, 49.979151], [6.099428, 49.979148], [6.099382, 49.979151], [6.099306, 49.979185], [6.09926, 49.979193], [6.099241, 49.979188], [6.099169, 49.979185], [6.099112, 49.979193], [6.099047, 49.979204], [6.099005, 49.979204], [6.098894, 49.979185], [6.098848, 49.9792], [6.09881, 49.979218], [6.098776, 49.979246], [6.098749, 49.979258], [6.098703, 49.979261], [6.098665, 49.979268], [6.098638, 49.979284], [6.098623, 49.979315], [6.0986, 49.979328], [6.098558, 49.979322], [6.098494, 49.979322], [6.098463, 49.97933], [6.098398, 49.979345], [6.098326, 49.979376], [6.098223, 49.979376], [6.098192, 49.979388], [6.098158, 49.979391], [6.098104, 49.979395], [6.098074, 49.979408], [6.098021, 49.979448], [6.097948, 49.979478], [6.097898, 49.979502], [6.097849, 49.979505], [6.097761, 49.979505], [6.097719, 49.979518], [6.097708, 49.979551], [6.097689, 49.979574], [6.097654, 49.979586], [6.097609, 49.979598], [6.097551, 49.979648], [6.097486, 49.979678], [6.097418, 49.979731], [6.097368, 49.979758], [6.097284, 49.979841], [6.09725, 49.979864], [6.097185, 49.979895], [6.097139, 49.979906], [6.097048, 49.979994], [6.096972, 49.980048], [6.097006, 49.980081], [6.097059, 49.980128], [6.096872, 49.980291], [6.096647, 49.980471], [6.096556, 49.980535], [6.096491, 49.980574], [6.096453, 49.980588], [6.096384, 49.980612], [6.096335, 49.980646], [6.096151, 49.980822], [6.096174, 49.980848], [6.096388, 49.9811], [6.096811, 49.981568], [6.096891, 49.981665], [6.096933, 49.981741], [6.096972, 49.981832], [6.09701, 49.982004], [6.097032, 49.982145], [6.097052, 49.982214], [6.09717, 49.982418], [6.097372, 49.982788], [6.097525, 49.983088], [6.097639, 49.983263], [6.097773, 49.983446], [6.097818, 49.983498], [6.097849, 49.983538], [6.097979, 49.983698], [6.098223, 49.984078], [6.098295, 49.984213], [6.098318, 49.98427], [6.098356, 49.984396], [6.098387, 49.984602], [6.098425, 49.984768], [6.098459, 49.984934], [6.098528, 49.985342], [6.098528, 49.985378], [6.098539, 49.985508], [6.098528, 49.985742], [6.098501, 49.985891], [6.098448, 49.986168], [6.098356, 49.986551], [6.098341, 49.986598], [6.098318, 49.986698], [6.098276, 49.986845], [6.098242, 49.986968], [6.098181, 49.987108], [6.098074, 49.987314], [6.097933, 49.987566], [6.098484, 49.987553], [6.09859, 49.98755], [6.098933, 49.987545], [6.099149, 49.987247], [6.099355, 49.986946], [6.099605, 49.986538], [6.099712, 49.98632], [6.099724, 49.986294], [6.099882, 49.985954], [6.099992, 49.985706], [6.100005, 49.985676], [6.100017, 49.985653], [6.100121, 49.985397], [6.100139, 49.985336], [6.100182, 49.985184], [6.10024, 49.984936], [6.100267, 49.98479], [6.100286, 49.984688], [6.100312, 49.984562], [6.100356, 49.984352], [6.100375, 49.984264], [6.100383, 49.984234], [6.100425, 49.98403], [6.100398, 49.98392], [6.100264, 49.98338], [6.100137, 49.98287], [6.100085, 49.982662], [6.100133, 49.982662], [6.100493, 49.98265], [6.100676, 49.98266], [6.100942, 49.98269], [6.101694, 49.982803], [6.102554, 49.982914], [6.10267, 49.98268], [6.102713, 49.9826], [6.102758, 49.98248], [6.102793, 49.9824], [6.103277, 49.98228], [6.103334, 49.98216], [6.103353, 49.982105], [6.1033, 49.98202], [6.1033, 49.98198], [6.103304, 49.981922], [6.103437, 49.98188], [6.103663, 49.981823], [6.103796, 49.981907], [6.10396, 49.981995], [6.10412, 49.98206], [6.104299, 49.982113], [6.104414, 49.982136], [6.104582, 49.982143], [6.105066, 49.982147], [6.105497, 49.98215], [6.105642, 49.98216], [6.105928, 49.982185], [6.106066, 49.98221], [6.106291, 49.982277], [6.106451, 49.982334], [6.106653, 49.98241], [6.106844, 49.982483], [6.107004, 49.98256], [6.107145, 49.98265], [6.107241, 49.98272], [6.107313, 49.98276], [6.107515, 49.9829], [6.107618, 49.982956], [6.10848, 49.983124], [6.108736, 49.98292], [6.108843, 49.982838], [6.108919, 49.98278], [6.109037, 49.982742], [6.109533, 49.982582], [6.10977, 49.982513], [6.110262, 49.982487], [6.110334, 49.982483], [6.110754, 49.98247], [6.111017, 49.982456], [6.111151, 49.982456], [6.11141, 49.98246], [6.111715, 49.98246], [6.11178, 49.98246], [6.112013, 49.982456], [6.1122, 49.98245], [6.112307, 49.982437], [6.112474, 49.98243], [6.112539, 49.982426], [6.112719, 49.982414], [6.112844, 49.982403], [6.112776, 49.982502], [6.113504, 49.982536], [6.114267, 49.982555], [6.114439, 49.982525], [6.114912, 49.98248], [6.115015, 49.982433], [6.11532, 49.982292], [6.115759, 49.982113], [6.1159, 49.98205], [6.116075, 49.98198], [6.116255, 49.981888], [6.116537, 49.981724], [6.116884, 49.981544], [6.116903, 49.98153], [6.117102, 49.98136], [6.117285, 49.981186], [6.117582, 49.98088], [6.117788, 49.98066], [6.117811, 49.980633], [6.117926, 49.980526], [6.117987, 49.98047], [6.118109, 49.98035], [6.118258, 49.98021], [6.11841, 49.98005], [6.118498, 49.979954], [6.118586, 49.97986], [6.118696, 49.979717], [6.118738, 49.97965], [6.118765, 49.979614], [6.118902, 49.9793], [6.118937, 49.979218], [6.118952, 49.979183], [6.118994, 49.979084], [6.11907, 49.978878], [6.119101, 49.978783], [6.119108, 49.978756], [6.119139, 49.978584], [6.119181, 49.978374], [6.119192, 49.978313], [6.119219, 49.978245], [6.119223, 49.978233], [6.119303, 49.978027], [6.119318, 49.977993], [6.119368, 49.97787], [6.119417, 49.977757], [6.119452, 49.977654], [6.119673, 49.976887], [6.119535, 49.97683], [6.119219, 49.9767], [6.118227, 49.976284], [6.118155, 49.97637], [6.11772, 49.976242], [6.117659, 49.976227], [6.117956, 49.975796], [6.118181, 49.97549], [6.118383, 49.975212], [6.118506, 49.97506], [6.118624, 49.974876], [6.118677, 49.974762], [6.1187, 49.97467], [6.118776, 49.974422], [6.118837, 49.974297], [6.118906, 49.9742], [6.119032, 49.974094], [6.119185, 49.973988], [6.119371, 49.97388], [6.119455, 49.973816], [6.119631, 49.973732], [6.119799, 49.973663], [6.119821, 49.97365], [6.119875, 49.973625], [6.119928, 49.973606], [6.119997, 49.973576], [6.120382, 49.973293], [6.120638, 49.973114], [6.120894, 49.97295], [6.121141, 49.972797], [6.12134, 49.972668], [6.121431, 49.972603], [6.121729, 49.972343], [6.122103, 49.97209], [6.122702, 49.971687], [6.122793, 49.971615], [6.12282, 49.971638], [6.122915, 49.97169], [6.122999, 49.97169], [6.123495, 49.971672], [6.123518, 49.971672], [6.123926, 49.971687], [6.124418, 49.97171], [6.125044, 49.971725], [6.125174, 49.97171], [6.125307, 49.971676], [6.125414, 49.97163], [6.125525, 49.97157], [6.125669, 49.9715], [6.125738, 49.97147], [6.125795, 49.971443], [6.125895, 49.97143], [6.126158, 49.971428], [6.126249, 49.971428], [6.127031, 49.971436], [6.1271, 49.971416], [6.127249, 49.971363], [6.127321, 49.971336], [6.127371, 49.971325], [6.127439, 49.971313], [6.127497, 49.971302], [6.127592, 49.97126], [6.12771, 49.971195], [6.12776, 49.971184], [6.127809, 49.971176], [6.127932, 49.971176], [6.128061, 49.971172], [6.128241, 49.971172], [6.128363, 49.971203], [6.12845, 49.971222], [6.128515, 49.97123], [6.128595, 49.971233], [6.12879, 49.971222], [6.128855, 49.971226], [6.129137, 49.97129], [6.129209, 49.97131], [6.129301, 49.971306], [6.129381, 49.971313], [6.129442, 49.971325], [6.129618, 49.971375], [6.12969, 49.971382], [6.129751, 49.971405], [6.1299, 49.971428], [6.12995, 49.971447], [6.130011, 49.971474], [6.130136, 49.971493], [6.130201, 49.97151], [6.130224, 49.97152], [6.130281, 49.97154], [6.130327, 49.971546], [6.130369, 49.971554], [6.130415, 49.97156], [6.130453, 49.97157], [6.130491, 49.97157], [6.130529, 49.971577], [6.130568, 49.971577], [6.130625, 49.971573], [6.130682, 49.971573], [6.130754, 49.97159], [6.130812, 49.971607], [6.130873, 49.971622], [6.130903, 49.97163], [6.130964, 49.971626], [6.130999, 49.971634], [6.131044, 49.971653], [6.131113, 49.971676], [6.131166, 49.971695], [6.131289, 49.97172], [6.131403, 49.971733], [6.131487, 49.97174], [6.131605, 49.97179], [6.131647, 49.971825], [6.131678, 49.971848], [6.131781, 49.97189], [6.131807, 49.971905], [6.131838, 49.971924], [6.131868, 49.971962], [6.131887, 49.971973], [6.13196, 49.971996], [6.131975, 49.972004], [6.131983, 49.97203], [6.131983, 49.972057], [6.131998, 49.972088], [6.132032, 49.97212], [6.132112, 49.97219], [6.132151, 49.97223], [6.132185, 49.972267], [6.132204, 49.9723], [6.132196, 49.97244], [6.132242, 49.97264], [6.132246, 49.972675], [6.132235, 49.972706], [6.132212, 49.972763], [6.132212, 49.972797], [6.132242, 49.97285], [6.13233, 49.972965], [6.132422, 49.973076], [6.132464, 49.973103], [6.132547, 49.97313], [6.132627, 49.973152], [6.132681, 49.97318], [6.132811, 49.97322], [6.132921, 49.973263], [6.133036, 49.973297], [6.133112, 49.973312], [6.133173, 49.973316], [6.133207, 49.973312], [6.133257, 49.9733], [6.133299, 49.973305], [6.133368, 49.97332], [6.133532, 49.97337], [6.133703, 49.973408], [6.133802, 49.973427], [6.133898, 49.97347], [6.133997, 49.97352], [6.134088, 49.97355], [6.134146, 49.973564], [6.134188, 49.973564], [6.134214, 49.973557], [6.134272, 49.973557], [6.134375, 49.973583], [6.134504, 49.973614], [6.134741, 49.973682], [6.134909, 49.973736], [6.135183, 49.97381], [6.135263, 49.973835], [6.135382, 49.973892], [6.13545, 49.97392], [6.135569, 49.973957], [6.135611, 49.973976], [6.135736, 49.97405], [6.135813, 49.974102], [6.135843, 49.974125], [6.13587, 49.974133], [6.136107, 49.974133], [6.13616, 49.974136], [6.136274, 49.97416], [6.136335, 49.974167], [6.136374, 49.974167], [6.136393, 49.97417], [6.136427, 49.97418], [6.136454, 49.974174], [6.136476, 49.974167], [6.136507, 49.97414], [6.136545, 49.974125], [6.136625, 49.974117], [6.136698, 49.97412], [6.136786, 49.97414], [6.136869, 49.97413], [6.136957, 49.974113], [6.136999, 49.974117], [6.137056, 49.97413], [6.137075, 49.974125], [6.137098, 49.97412], [6.137159, 49.974094], [6.137209, 49.97407], [6.137266, 49.974068], [6.137331, 49.97407], [6.1374, 49.974064], [6.137651, 49.974022], [6.137762, 49.974022], [6.137934, 49.973988], [6.13806, 49.973976], [6.138277, 49.973957], [6.138567, 49.973923], [6.138865, 49.973877], [6.139425, 49.9738], [6.139498, 49.973797], [6.139589, 49.97381], [6.139662, 49.973816], [6.139841, 49.97382], [6.139963, 49.973843], [6.140001, 49.973843], [6.140039, 49.973835], [6.140085, 49.973827], [6.140123, 49.973824], [6.140161, 49.973827], [6.140207, 49.973843], [6.140284, 49.97386], [6.140352, 49.973877], [6.14044, 49.973892], [6.140528, 49.973915], [6.140669, 49.973953], [6.14073, 49.97396], [6.140848, 49.973953], [6.140959, 49.973957], [6.141031, 49.973965], [6.141115, 49.973988], [6.141329, 49.97408], [6.14142, 49.974117], [6.141649, 49.974194], [6.141832, 49.974247], [6.14192, 49.974277], [6.14197, 49.974316], [6.142046, 49.974346], [6.142324, 49.974457], [6.142721, 49.974606], [6.142828, 49.97464], [6.142981, 49.97468], [6.143107, 49.97473], [6.14324, 49.974777], [6.143652, 49.974895], [6.143801, 49.974964], [6.143869, 49.975002], [6.14393, 49.975018], [6.144056, 49.975037], [6.144148, 49.975067], [6.144381, 49.97518], [6.144457, 49.975224], [6.144579, 49.9753], [6.144636, 49.975346], [6.144716, 49.97543], [6.144812, 49.975513], [6.144926, 49.975624], [6.145048, 49.975727], [6.145216, 49.975853], [6.145273, 49.975914], [6.145311, 49.97598], [6.14538, 49.97601], [6.145456, 49.976036], [6.145605, 49.976128], [6.145834, 49.976273], [6.145956, 49.97634], [6.145998, 49.97636], [6.146044, 49.976376], [6.146242, 49.976425], [6.146376, 49.976463], [6.146467, 49.976505], [6.146547, 49.976562], [6.146616, 49.976612], [6.146662, 49.97663], [6.146952, 49.976723], [6.147257, 49.976818], [6.147455, 49.976925], [6.147661, 49.977013], [6.147692, 49.977047], [6.147837, 49.977104], [6.147936, 49.97714], [6.147989, 49.97715], [6.1481, 49.97715], [6.148211, 49.97717], [6.148314, 49.977215], [6.148409, 49.97726], [6.148443, 49.977272], [6.148558, 49.977283], [6.148668, 49.977306], [6.148783, 49.977345], [6.149008, 49.977444], [6.149145, 49.977505], [6.149366, 49.977608], [6.1495, 49.977657], [6.149759, 49.97775], [6.149912, 49.977795], [6.150068, 49.977837], [6.150137, 49.977863], [6.15019, 49.977882], [6.150251, 49.977894], [6.150404, 49.97792], [6.150652, 49.977978], [6.150801, 49.97799], [6.150927, 49.978012], [6.151079, 49.978046], [6.151171, 49.978077], [6.151243, 49.97811], [6.151297, 49.978146], [6.151365, 49.978176], [6.151415, 49.978195], [6.151461, 49.978207], [6.151571, 49.978207], [6.151682, 49.97821], [6.151709, 49.97821], [6.151774, 49.97822], [6.151941, 49.97827], [6.152079, 49.978317], [6.152262, 49.97837], [6.152422, 49.978424], [6.152727, 49.978542], [6.152887, 49.978603], [6.152983, 49.978638], [6.153326, 49.978737], [6.153631, 49.978832], [6.153925, 49.97893], [6.154532, 49.979126], [6.154612, 49.97914], [6.154718, 49.979153], [6.154802, 49.979168], [6.154882, 49.97919], [6.155035, 49.979248], [6.155134, 49.97928], [6.155298, 49.979313], [6.155378, 49.979324], [6.155458, 49.979332], [6.155565, 49.97933], [6.155664, 49.979313], [6.155748, 49.97929], [6.155855, 49.979248], [6.155939, 49.979202], [6.15605, 49.979126], [6.156301, 49.978962], [6.156488, 49.978844], [6.156656, 49.97878], [6.156935, 49.978683], [6.157076, 49.978653], [6.157213, 49.978626], [6.157602, 49.97856], [6.157778, 49.978542], [6.1579, 49.97854], [6.158297, 49.97853], [6.158659, 49.97854], [6.158865, 49.978535], [6.158953, 49.978523], [6.159048, 49.9785], [6.159113, 49.9785], [6.159155, 49.978516], [6.159208, 49.978527], [6.159292, 49.978523], [6.159376, 49.97852], [6.159418, 49.97853], [6.159452, 49.978554], [6.159487, 49.978573], [6.159529, 49.978577], [6.159609, 49.97856], [6.159693, 49.97855], [6.159796, 49.97854], [6.159849, 49.97851], [6.160067, 49.97844], [6.160337, 49.97833], [6.160585, 49.97823], [6.160734, 49.97816], [6.160883, 49.978104], [6.1611, 49.97804], [6.161432, 49.97789], [6.161581, 49.977833], [6.161703, 49.9778], [6.161806, 49.977776], [6.161886, 49.97774], [6.161943, 49.977707], [6.162001, 49.977673], [6.162077, 49.97765], [6.162188, 49.97761], [6.16226, 49.977585], [6.16231, 49.97757], [6.162367, 49.977562], [6.162489, 49.977543], [6.162642, 49.977493], [6.162714, 49.97748], [6.162909, 49.97746], [6.162985, 49.97745], [6.163065, 49.977432], [6.163313, 49.977337], [6.163389, 49.977314], [6.163439, 49.977303], [6.163507, 49.977295], [6.163687, 49.97728], [6.163851, 49.97727], [6.16416, 49.97722], [6.164373, 49.977184], [6.164442, 49.97718], [6.164511, 49.977173], [6.164625, 49.97715], [6.164732, 49.977127], [6.164892, 49.977104], [6.16498, 49.97709], [6.165049, 49.977077], [6.165083, 49.977062], [6.165129, 49.97704], [6.165182, 49.977016], [6.165403, 49.976955], [6.165709, 49.97691], [6.165831, 49.976902], [6.165979, 49.976902], [6.166021, 49.97689], [6.166071, 49.976875], [6.166136, 49.976837], [6.16617, 49.976826], [6.166208, 49.97681], [6.166262, 49.976795], [6.166296, 49.97679], [6.166307, 49.97679], [6.166342, 49.976812], [6.166368, 49.976801], [6.166094, 49.976404], [6.165972, 49.976221], [6.165842, 49.97603], [6.165808, 49.975923], [6.165758, 49.975847], [6.165678, 49.975779], [6.16564, 49.975729], [6.165605, 49.975656], [6.16551, 49.975496], [6.165468, 49.975405], [6.165419, 49.975321], [6.165392, 49.975267], [6.16535, 49.975168], [6.165304, 49.9751], [6.165239, 49.974993], [6.165209, 49.974932], [6.165178, 49.974844], [6.165125, 49.974672], [6.165102, 49.974672], [6.164999, 49.974401], [6.164919, 49.974192], [6.164827, 49.973886], [6.164801, 49.9737], [6.164743, 49.973413], [6.164705, 49.973173], [6.164675, 49.972864], [6.164644, 49.972586], [6.164644, 49.972357], [6.164652, 49.972074], [6.164663, 49.971918], [6.164667, 49.971811], [6.164705, 49.971575], [6.164717, 49.971495], [6.164743, 49.971254], [6.164763, 49.971254], [6.16477, 49.971197], [6.164797, 49.970766], [6.164812, 49.970552], [6.164827, 49.970381], [6.164839, 49.970274], [6.164862, 49.970198], [6.164888, 49.970098], [6.164946, 49.96998], [6.165014, 49.969847], [6.165068, 49.969763], [6.165182, 49.969629], [6.165506, 49.969301], [6.165605, 49.969233], [6.1658, 49.969072], [6.165869, 49.969027], [6.165964, 49.968973], [6.166067, 49.96892], [6.166262, 49.968813], [6.166376, 49.968748], [6.166582, 49.968611], [6.166773, 49.968424], [6.16688, 49.968306], [6.166994, 49.968145], [6.167063, 49.968023], [6.167147, 49.967871], [6.1672, 49.967733], [6.167246, 49.967596], [6.167303, 49.96739], [6.167364, 49.967203], [6.167456, 49.966986], [6.167578, 49.966707], [6.167749, 49.966276], [6.167875, 49.966024], [6.167974, 49.965868], [6.168112, 49.965673], [6.168352, 49.965349], [6.168627, 49.964971], [6.168863, 49.964533], [6.168993, 49.964205], [6.169176, 49.963854], [6.169325, 49.963663], [6.169386, 49.963606], [6.169638, 49.963408], [6.169691, 49.963362], [6.169718, 49.963331], [6.169741, 49.963301], [6.169992, 49.96298], [6.170157, 49.962809], [6.170221, 49.962751], [6.170397, 49.962614], [6.1705, 49.962561], [6.170637, 49.962507], [6.170858, 49.962439], [6.17103, 49.962389], [6.17124, 49.962332], [6.17156, 49.962248], [6.1719, 49.962168], [6.172174, 49.962095], [6.17227, 49.96208], [6.172472, 49.962053], [6.172598, 49.962042], [6.17322, 49.961992], [6.17375, 49.961954], [6.174017, 49.961935], [6.174082, 49.961931], [6.174528, 49.96184], [6.174887, 49.961767], [6.17499, 49.961748], [6.17507, 49.96174], [6.175154, 49.961744], [6.175276, 49.961748], [6.175348, 49.96174], [6.175428, 49.961714], [6.175581, 49.96166], [6.175657, 49.961626], [6.175718, 49.961561], [6.17576, 49.961489], [6.175779, 49.96142], [6.175802, 49.961294], [6.175806, 49.961183], [6.175821, 49.961092], [6.17584, 49.961042], [6.17589, 49.960958], [6.175959, 49.960848], [6.175993, 49.960775], [6.17605, 49.960684], [6.176119, 49.960543], [6.176149, 49.960466], [6.176184, 49.960295], [6.176176, 49.960161], [6.176176, 49.960093], [6.176191, 49.96002], [6.176233, 49.959845], [6.176264, 49.959787], [6.17631, 49.959722], [6.176363, 49.959623], [6.17639, 49.959516], [6.176443, 49.959379], [6.176512, 49.959215], [6.17663, 49.958967], [6.176634, 49.958883], [6.176638, 49.95878], [6.176653, 49.958674], [6.176668, 49.958612], [6.176691, 49.958345], [6.176695, 49.958261], [6.17671, 49.958181], [6.176794, 49.957823], [6.176813, 49.957685], [6.176851, 49.957464], [6.17687, 49.9573], [6.176886, 49.957037], [6.176897, 49.956728], [6.176897, 49.956606], [6.176901, 49.956587], [6.176901, 49.956526], [6.176893, 49.956446], [6.176889, 49.956389], [6.176897, 49.95635], [6.176928, 49.956255], [6.176893, 49.956221], [6.176951, 49.955957], [6.176981, 49.955839], [6.177046, 49.95566], [6.177172, 49.955282], [6.177179, 49.955183], [6.177198, 49.955069], [6.177214, 49.95487], [6.177237, 49.954645], [6.177259, 49.954527], [6.17734, 49.954203], [6.177374, 49.954069], [6.177458, 49.953882], [6.177542, 49.953649], [6.177614, 49.953489], [6.177774, 49.953379], [6.177805, 49.95336], [6.177919, 49.953283], [6.17808, 49.95318], [6.178118, 49.953157], [6.178366, 49.953016], [6.178389, 49.953005], [6.178515, 49.952944], [6.178595, 49.952906], [6.178633, 49.952887], [6.17869, 49.95286], [6.178713, 49.952848], [6.178755, 49.952818], [6.178831, 49.952738], [6.17885, 49.952684], [6.178858, 49.95265], [6.17885, 49.952616], [6.178839, 49.952578], [6.17882, 49.952536], [6.178812, 49.952517], [6.179201, 49.952345], [6.179663, 49.952143], [6.179689, 49.952154], [6.179808, 49.952208], [6.179926, 49.952246], [6.180029, 49.952253], [6.180109, 49.952253], [6.180231, 49.952238], [6.180292, 49.952227], [6.180353, 49.952219], [6.180391, 49.952215], [6.180498, 49.952208], [6.180563, 49.952204], [6.180929, 49.952303], [6.181364, 49.952421], [6.181498, 49.952448], [6.18181, 49.952536], [6.181929, 49.95257], [6.182154, 49.952646], [6.182619, 49.952814], [6.183485, 49.953116], [6.183966, 49.953295], [6.184385, 49.953421], [6.184824, 49.953569], [6.185026, 49.953642], [6.185156, 49.953703], [6.185305, 49.953802], [6.18545, 49.953924], [6.185545, 49.954023], [6.185629, 49.9541], [6.18569, 49.954145], [6.185801, 49.954195], [6.185862, 49.954218], [6.185915, 49.954241], [6.185984, 49.954275], [6.186029, 49.954306], [6.186087, 49.954386], [6.186193, 49.954557], [6.186255, 49.954668], [6.186369, 49.954905], [6.186411, 49.954966], [6.186514, 49.955103], [6.186598, 49.955202], [6.186739, 49.955347], [6.186819, 49.955416], [6.186872, 49.955454], [6.186964, 49.955511], [6.187025, 49.955545], [6.187143, 49.955603], [6.18754, 49.955778], [6.187979, 49.955973], [6.188169, 49.956064], [6.188242, 49.95611], [6.188288, 49.956148], [6.188391, 49.956232], [6.188528, 49.956327], [6.188623, 49.956385], [6.188684, 49.956427], [6.188738, 49.95648], [6.188803, 49.956556], [6.188837, 49.956614], [6.188852, 49.956655], [6.188864, 49.956716], [6.188871, 49.956774], [6.188868, 49.956835], [6.188852, 49.956881], [6.188829, 49.956922], [6.188765, 49.956987], [6.188703, 49.957041], [6.188669, 49.957068], [6.188639, 49.957083], [6.188589, 49.957098], [6.188517, 49.95711], [6.188463, 49.957113], [6.188383, 49.957102], [6.188231, 49.957075], [6.188177, 49.957068], [6.188143, 49.957071], [6.18812, 49.957079], [6.188097, 49.957094], [6.188074, 49.957106], [6.188047, 49.957113], [6.188021, 49.957117], [6.187967, 49.95711], [6.187941, 49.95711], [6.187925, 49.957113], [6.187895, 49.957125], [6.187857, 49.957144], [6.187807, 49.957159], [6.187662, 49.957186], [6.187437, 49.957228], [6.187166, 49.957277], [6.187059, 49.957296], [6.186949, 49.957323], [6.186808, 49.957365], [6.186525, 49.957445], [6.1864, 49.957472], [6.186228, 49.957506], [6.185892, 49.957571], [6.18543, 49.957663], [6.185072, 49.957739], [6.184915, 49.957769], [6.184687, 49.957811], [6.184507, 49.957869], [6.184271, 49.957949], [6.183909, 49.958086], [6.183706, 49.958174], [6.183477, 49.958292], [6.183367, 49.958357], [6.183302, 49.958406], [6.183245, 49.95846], [6.183187, 49.958525], [6.183149, 49.958578], [6.18313, 49.958609], [6.183126, 49.958651], [6.18313, 49.9587], [6.183153, 49.958788], [6.183176, 49.958868], [6.183222, 49.958979], [6.183294, 49.959101], [6.183363, 49.959211], [6.183374, 49.959238], [6.183401, 49.959341], [6.183416, 49.959387], [6.183447, 49.95944], [6.183466, 49.95949], [6.183474, 49.959532], [6.183474, 49.9597], [6.183474, 49.959749], [6.183485, 49.959784], [6.183493, 49.959818], [6.183489, 49.959852], [6.183477, 49.959917], [6.183477, 49.959982], [6.183485, 49.960043], [6.183535, 49.96026], [6.183558, 49.960409], [6.183599, 49.960596], [6.183634, 49.960783], [6.183649, 49.960878], [6.183649, 49.96092], [6.183638, 49.961016], [6.183634, 49.961195], [6.183626, 49.961229], [6.183577, 49.961306], [6.183512, 49.961409], [6.183451, 49.961515], [6.183424, 49.96155], [6.183386, 49.961584], [6.183355, 49.961603], [6.18331, 49.961641], [6.183237, 49.961714], [6.183172, 49.961775], [6.183069, 49.961859], [6.18302, 49.961901], [6.182959, 49.961962], [6.182768, 49.962172], [6.182692, 49.962248], [6.182619, 49.962316], [6.182569, 49.962359], [6.182482, 49.962423], [6.182424, 49.962473], [6.182348, 49.962568], [6.182272, 49.96266], [6.182177, 49.962763], [6.182035, 49.962908], [6.181974, 49.962977], [6.18181, 49.963163], [6.181776, 49.963198], [6.181723, 49.96324], [6.181673, 49.963278], [6.181639, 49.963304], [6.181459, 49.96351], [6.18128, 49.963724], [6.181223, 49.963789], [6.181204, 49.963823], [6.181196, 49.963854], [6.181196, 49.963907], [6.181189, 49.963922], [6.181166, 49.963957], [6.181116, 49.963999], [6.181093, 49.964033], [6.181082, 49.964056], [6.181078, 49.964102], [6.181082, 49.964186], [6.181089, 49.964251], [6.181127, 49.964392], [6.181158, 49.964491], [6.181196, 49.964575], [6.181253, 49.964655], [6.181337, 49.964739], [6.181433, 49.964842], [6.181574, 49.964991], [6.181704, 49.965136], [6.181841, 49.965307], [6.181936, 49.965445], [6.182043, 49.965612], [6.182184, 49.965803], [6.18228, 49.965914], [6.182451, 49.966066], [6.182718, 49.966314], [6.182833, 49.966421], [6.182943, 49.966513], [6.183065, 49.966612], [6.183268, 49.966795], [6.183405, 49.966917], [6.183527, 49.967009], [6.183744, 49.96718], [6.183931, 49.967333], [6.18405, 49.967428], [6.184172, 49.96752], [6.184282, 49.967592], [6.18437, 49.967653], [6.184427, 49.96768], [6.184496, 49.967707], [6.18461, 49.967741], [6.184973, 49.967821], [6.185198, 49.967875], [6.185274, 49.96789], [6.18561, 49.96792], [6.185732, 49.967928], [6.185919, 49.967936], [6.186113, 49.967939], [6.186502, 49.967962], [6.186647, 49.96797], [6.186682, 49.967959], [6.186705, 49.967955], [6.186762, 49.967974], [6.186796, 49.967981], [6.186991, 49.968012], [6.18722, 49.968058], [6.187395, 49.968088], [6.187513, 49.968119], [6.187864, 49.968233], [6.18812, 49.968321], [6.188307, 49.968382], [6.188452, 49.968424], [6.18862, 49.968493], [6.188711, 49.968523], [6.188871, 49.968569], [6.188974, 49.968599], [6.189161, 49.968664], [6.189314, 49.96871], [6.189451, 49.968748], [6.189585, 49.968779], [6.189711, 49.968801], [6.189817, 49.968817], [6.189932, 49.968824], [6.190065, 49.968832], [6.19018, 49.96884], [6.190374, 49.968859], [6.190428, 49.968859], [6.190454, 49.968851], [6.190489, 49.968832], [6.190538, 49.968786], [6.190573, 49.968767], [6.190638, 49.968729], [6.190691, 49.968683], [6.190737, 49.968649], [6.19076, 49.968618], [6.190786, 49.968569], [6.190805, 49.968538], [6.190981, 49.968393], [6.191053, 49.968344], [6.191111, 49.968313], [6.191149, 49.968302], [6.191206, 49.968286], [6.191236, 49.968264], [6.191259, 49.968241], [6.191294, 49.968191], [6.191313, 49.96818], [6.191339, 49.968176], [6.191404, 49.968161], [6.19145, 49.968145], [6.191603, 49.968061], [6.19174, 49.967978], [6.191858, 49.967905], [6.191999, 49.967798], [6.192095, 49.967726], [6.192251, 49.967596], [6.192358, 49.967501], [6.192434, 49.967417], [6.192495, 49.967348], [6.192537, 49.967318], [6.192579, 49.967302], [6.192602, 49.967291], [6.192614, 49.967276], [6.192625, 49.96723], [6.192648, 49.967176], [6.192663, 49.967146], [6.192679, 49.967138], [6.192743, 49.967115], [6.192762, 49.9671], [6.192789, 49.967073], [6.192812, 49.967031], [6.192839, 49.966978], [6.192846, 49.966929], [6.192854, 49.966879], [6.192854, 49.966799], [6.192854, 49.966761], [6.192854, 49.966726], [6.192846, 49.966681], [6.192823, 49.966562], [6.19282, 49.966524], [6.192812, 49.966444], [6.192804, 49.966406], [6.192797, 49.966387], [6.192743, 49.966345], [6.192709, 49.966318], [6.19269, 49.966295], [6.192675, 49.966253], [6.192648, 49.966162], [6.192614, 49.965986], [6.192591, 49.965899], [6.192564, 49.965853], [6.192549, 49.965818], [6.192545, 49.965792], [6.192545, 49.965765], [6.192556, 49.965704], [6.192564, 49.965632], [6.192556, 49.965563], [6.192545, 49.965498], [6.192511, 49.965414], [6.192488, 49.965364], [6.192423, 49.965284], [6.192369, 49.965212], [6.192308, 49.96512], [6.192266, 49.96504], [6.192232, 49.96496], [6.192221, 49.964922], [6.192225, 49.964899], [6.192236, 49.964872], [6.192244, 49.964857], [6.192244, 49.964842], [6.192236, 49.964815], [6.192205, 49.964788], [6.192171, 49.964739], [6.192164, 49.964724], [6.192164, 49.964704], [6.192167, 49.964685], [6.192175, 49.964651], [6.192175, 49.964628], [6.192167, 49.964533], [6.192152, 49.964403], [6.192129, 49.964235], [6.192125, 49.964182], [6.192156, 49.964033], [6.192175, 49.963919], [6.192225, 49.963739], [6.192335, 49.963427], [6.1924, 49.96327], [6.1924, 49.963247], [6.192392, 49.963228], [6.192385, 49.963209], [6.192366, 49.963179], [6.192362, 49.963156], [6.192369, 49.96314], [6.192495, 49.962977], [6.192553, 49.962904], [6.192579, 49.962904], [6.192614, 49.962896], [6.192636, 49.962881], [6.192675, 49.962847], [6.192781, 49.962709], [6.1929, 49.962561], [6.192995, 49.962416], [6.193106, 49.962252], [6.193201, 49.962126], [6.193251, 49.962084], [6.193281, 49.962057], [6.193346, 49.962023], [6.19343, 49.961977], [6.193491, 49.961931], [6.193537, 49.961878], [6.193632, 49.961706], [6.193724, 49.96155], [6.193785, 49.961424], [6.193899, 49.961119], [6.193933, 49.961016], [6.193953, 49.960932], [6.193972, 49.960867], [6.193987, 49.960779], [6.193987, 49.960741], [6.193979, 49.960684], [6.193968, 49.960661], [6.193953, 49.960642], [6.193918, 49.960627], [6.19388, 49.960608], [6.193861, 49.960588], [6.193857, 49.960569], [6.193876, 49.960314], [6.193903, 49.959909], [6.193926, 49.959887], [6.193956, 49.959856], [6.193979, 49.959822], [6.194021, 49.959719], [6.194071, 49.959593], [6.194105, 49.959478], [6.194113, 49.959395], [6.194109, 49.959173], [6.194105, 49.959063], [6.194097, 49.95899], [6.19404, 49.958788], [6.194006, 49.958666], [6.193979, 49.958548], [6.193968, 49.95854], [6.193907, 49.958555], [6.193754, 49.958277], [6.19367, 49.958151], [6.193571, 49.95801], [6.193506, 49.957926], [6.19343, 49.957838], [6.193342, 49.95767], [6.193243, 49.957518], [6.193129, 49.957331], [6.192999, 49.95711], [6.192972, 49.957071], [6.192926, 49.957045], [6.1929, 49.957026], [6.192884, 49.957003], [6.192816, 49.956854], [6.192804, 49.956812], [6.192804, 49.956739], [6.192793, 49.95664], [6.192793, 49.956575], [6.1928, 49.956522], [6.192827, 49.956392], [6.192858, 49.956301], [6.192915, 49.956114], [6.192934, 49.956037], [6.192946, 49.955969], [6.192957, 49.955847], [6.192961, 49.955801], [6.192999, 49.955721], [6.193064, 49.95561], [6.193155, 49.955484], [6.193289, 49.95532], [6.19338, 49.955221], [6.193602, 49.955011], [6.193647, 49.954973], [6.193682, 49.954966], [6.19372, 49.954958], [6.193747, 49.954946], [6.193819, 49.954889], [6.193872, 49.954855], [6.193895, 49.954847], [6.193933, 49.954832], [6.193991, 49.954794], [6.19404, 49.954775], [6.194151, 49.954729], [6.194231, 49.954683], [6.194269, 49.954657], [6.194296, 49.954622], [6.19433, 49.954557], [6.194353, 49.954527], [6.194387, 49.9545], [6.194464, 49.954454], [6.194639, 49.954367], [6.1947, 49.954332], [6.19475, 49.954294], [6.194784, 49.954252], [6.19483, 49.954184], [6.194883, 49.954107], [6.194952, 49.954023], [6.195021, 49.953955], [6.195116, 49.953871], [6.195188, 49.953806], [6.195238, 49.953756], [6.195303, 49.953669], [6.195417, 49.953501], [6.195509, 49.953379], [6.195578, 49.953302], [6.19565, 49.953192], [6.195707, 49.9531], [6.19573, 49.953028], [6.195765, 49.952906], [6.195787, 49.952822], [6.195803, 49.952787], [6.195833, 49.952745], [6.195974, 49.952601], [6.196138, 49.952429], [6.196264, 49.952295], [6.196398, 49.952078], [6.196524, 49.951879], [6.196749, 49.951555], [6.196833, 49.951437], [6.196936, 49.951288], [6.196993, 49.951185], [6.197039, 49.951101], [6.197054, 49.951078], [6.197123, 49.951029], [6.197226, 49.950964], [6.197287, 49.950933], [6.197355, 49.950903], [6.197432, 49.95088], [6.197538, 49.950861], [6.197672, 49.950838], [6.197729, 49.950823], [6.197763, 49.950804], [6.197786, 49.950781], [6.197817, 49.950731], [6.197966, 49.950392], [6.198069, 49.950178], [6.198103, 49.950098], [6.198118, 49.950045], [6.198122, 49.949984], [6.19813, 49.949877], [6.198137, 49.949812], [6.19816, 49.949694], [6.198175, 49.949598], [6.198175, 49.949556], [6.198164, 49.949518], [6.198084, 49.949362], [6.197988, 49.94916], [6.197946, 49.94906], [6.19792, 49.949011], [6.197847, 49.9489], [6.19779, 49.948793], [6.197737, 49.948732], [6.197664, 49.948652], [6.197638, 49.948645], [6.197653, 49.94845], [6.197664, 49.948236], [6.19766, 49.948168], [6.19726, 49.948162], [6.196962, 49.948162], [6.196611, 49.94816], [6.196333, 49.94818], [6.196249, 49.94819], [6.196062, 49.948208], [6.195581, 49.94818], [6.195097, 49.94815], [6.194864, 49.94813], [6.1947, 49.948135], [6.194635, 49.94814], [6.194437, 49.948177], [6.194162, 49.94824], [6.193178, 49.94844], [6.193018, 49.94845], [6.192141, 49.94847], [6.191778, 49.948467], [6.191431, 49.94846], [6.191298, 49.948463], [6.191137, 49.94847], [6.190878, 49.948498], [6.190409, 49.948547], [6.189798, 49.948627], [6.189596, 49.94866], [6.189524, 49.948677], [6.189333, 49.948723], [6.189169, 49.94875], [6.188749, 49.94881], [6.188555, 49.948833], [6.18844, 49.94883], [6.188326, 49.948822], [6.187952, 49.948788], [6.187815, 49.948776], [6.187761, 49.948772], [6.187582, 49.94877], [6.187284, 49.948784], [6.186636, 49.94882], [6.186419, 49.948826], [6.1863, 49.948822], [6.186224, 49.948807], [6.185377, 49.94852], [6.184351, 49.948154], [6.183443, 49.94784], [6.182745, 49.947605], [6.182302, 49.947453], [6.182131, 49.94739], [6.181273, 49.947166], [6.181185, 49.947147], [6.181112, 49.947094], [6.180315, 49.947018], [6.17988, 49.94697], [6.178953, 49.946857], [6.178698, 49.946857], [6.178621, 49.946854], [6.178575, 49.946854], [6.17737, 49.946995], [6.176561, 49.947216], [6.174704, 49.94772], [6.174658, 49.947735], [6.174566, 49.947758], [6.17425, 49.94784], [6.173998, 49.947895], [6.173758, 49.947945], [6.173403, 49.948017], [6.172949, 49.948112], [6.172865, 49.94813], [6.172686, 49.948166], [6.172663, 49.948174], [6.172335, 49.94824], [6.170778, 49.948345], [6.169901, 49.948124], [6.169218, 49.947784], [6.168798, 49.94748], [6.167868, 49.946796], [6.167566, 49.945988], [6.166925, 49.94635], [6.166475, 49.94653], [6.166456, 49.946537], [6.165991, 49.946724], [6.16543, 49.946938], [6.165079, 49.946953], [6.164782, 49.94694], [6.164335, 49.9469], [6.163595, 49.946846], [6.163343, 49.94683], [6.163, 49.946857], [6.162542, 49.946968], [6.161383, 49.947296], [6.161013, 49.94735], [6.160368, 49.94748], [6.159929, 49.947536], [6.159517, 49.94757], [6.159189, 49.947598], [6.158712, 49.947628], [6.158369, 49.947636], [6.157858, 49.947613], [6.15663, 49.94754], [6.15518, 49.947414], [6.154722, 49.947376], [6.153891, 49.947304], [6.153074, 49.94722], [6.152471, 49.947163], [6.150946, 49.947033], [6.149893, 49.946953], [6.149412, 49.946915], [6.148954, 49.94681], [6.148954, 49.946777], [6.14926, 49.946728], [6.150118, 49.94661], [6.150236, 49.94659], [6.150541, 49.94625], [6.150694, 49.946106], [6.150858, 49.945972], [6.15098, 49.94588], [6.151003, 49.945866], [6.151148, 49.945797], [6.151266, 49.94573], [6.151392, 49.945667], [6.151503, 49.945618], [6.151525, 49.94561], [6.151583, 49.9456], [6.151747, 49.94558], [6.151854, 49.945564], [6.151907, 49.94555], [6.151987, 49.94552], [6.152101, 49.945465], [6.152212, 49.945408], [6.152285, 49.945374], [6.152368, 49.94534], [6.152445, 49.94532], [6.152624, 49.94529], [6.152811, 49.945255], [6.153093, 49.9452], [6.153315, 49.945152], [6.153605, 49.945095], [6.153921, 49.945026], [6.154074, 49.94499], [6.15415, 49.94496], [6.154211, 49.94494], [6.154303, 49.944897], [6.154387, 49.94485], [6.15449, 49.944813], [6.154635, 49.944763], [6.154802, 49.944714], [6.154966, 49.94466], [6.155058, 49.944637], [6.155172, 49.944622], [6.155477, 49.94458], [6.155642, 49.94456], [6.155939, 49.944527], [6.156698, 49.94443], [6.156889, 49.94441], [6.156931, 49.944405], [6.157057, 49.94437], [6.157244, 49.944332], [6.157217, 49.94425], [6.157152, 49.9441], [6.15729, 49.944073], [6.157377, 49.944054], [6.157602, 49.943996], [6.157736, 49.94396], [6.157789, 49.94394], [6.157858, 49.943897], [6.157919, 49.943863], [6.157965, 49.94384], [6.157995, 49.943817], [6.158022, 49.943787], [6.158049, 49.943733], [6.158079, 49.94373], [6.158121, 49.94377], [6.158178, 49.9438], [6.158266, 49.943832], [6.158316, 49.943844], [6.158396, 49.943848], [6.158587, 49.943848], [6.158693, 49.94383], [6.159067, 49.943752], [6.159277, 49.9437], [6.159376, 49.943676], [6.159697, 49.943596], [6.15991, 49.94353], [6.160059, 49.94347], [6.160109, 49.943447], [6.160158, 49.943417], [6.160242, 49.943356], [6.160376, 49.943245], [6.160559, 49.94333], [6.160669, 49.943207], [6.160746, 49.9431], [6.160757, 49.943073], [6.160765, 49.942917], [6.160761, 49.942802], [6.160646, 49.942764], [6.160681, 49.9427], [6.160749, 49.94257], [6.160883, 49.942337], [6.161013, 49.94216], [6.161245, 49.94217], [6.1616, 49.941742], [6.161406, 49.94172], [6.161272, 49.941746], [6.161177, 49.94176], [6.160868, 49.9418], [6.160406, 49.94187], [6.160337, 49.94188], [6.160288, 49.941875], [6.160025, 49.941833], [6.159647, 49.941765], [6.159296, 49.941708], [6.159254, 49.9417], [6.158999, 49.94168], [6.158735, 49.941658], [6.158487, 49.941643], [6.158312, 49.94163], [6.157995, 49.9416], [6.157812, 49.941578], [6.157557, 49.941536], [6.156214, 49.941284], [6.155809, 49.941204], [6.155493, 49.94111], [6.155283, 49.941044], [6.154829, 49.940887], [6.154367, 49.94073], [6.154158, 49.94065], [6.153833, 49.940517], [6.153719, 49.940468], [6.15349, 49.940372], [6.153227, 49.940277], [6.15299, 49.940216], [6.152952, 49.940205], [6.152914, 49.940266], [6.152662, 49.940685], [6.152498, 49.94091], [6.152353, 49.94107], [6.151884, 49.941494], [6.151606, 49.94172], [6.150885, 49.94222], [6.150301, 49.94265], [6.149736, 49.94309], [6.14953, 49.94324], [6.14916, 49.94346], [6.148561, 49.943813], [6.148416, 49.943916], [6.147898, 49.944324], [6.14765, 49.944496], [6.147409, 49.944622], [6.146765, 49.944893], [6.146509, 49.944996], [6.146181, 49.945114], [6.145891, 49.94519], [6.145491, 49.945297], [6.144979, 49.94543], [6.144361, 49.945587], [6.144339, 49.945568], [6.143835, 49.945084], [6.143145, 49.944584], [6.143091, 49.944557], [6.142698, 49.94438], [6.142519, 49.9443], [6.142279, 49.94417], [6.141962, 49.944004], [6.141699, 49.94386], [6.141424, 49.943695], [6.141314, 49.943615], [6.141115, 49.943474], [6.14113, 49.94345], [6.140646, 49.94326], [6.140467, 49.9432], [6.140261, 49.943146], [6.140043, 49.9431], [6.139803, 49.943058], [6.139582, 49.94303], [6.139368, 49.94301], [6.138937, 49.942966], [6.138758, 49.94295], [6.138624, 49.94296], [6.138452, 49.94297], [6.138266, 49.94298], [6.138113, 49.94298], [6.138063, 49.942986], [6.137999, 49.942997], [6.137926, 49.943016], [6.13777, 49.943077], [6.137701, 49.94312], [6.13764, 49.94316], [6.13756, 49.94321], [6.137464, 49.943245], [6.137361, 49.943295], [6.137285, 49.943333], [6.13722, 49.943367], [6.137186, 49.943382], [6.137125, 49.943394], [6.13703, 49.943428], [6.136911, 49.943478], [6.136763, 49.94353], [6.136396, 49.9437], [6.13637, 49.943657], [6.136267, 49.94352], [6.136236, 49.943478], [6.135965, 49.94358], [6.135847, 49.94361], [6.135744, 49.943626], [6.135569, 49.943634], [6.135408, 49.943634], [6.135263, 49.943615], [6.135031, 49.943573], [6.134787, 49.943527], [6.134558, 49.9435], [6.134317, 49.94347], [6.134218, 49.943455], [6.134088, 49.94342], [6.133978, 49.943382], [6.133741, 49.943275], [6.133436, 49.943123], [6.133242, 49.943012], [6.13315, 49.942947], [6.13307, 49.942875], [6.133013, 49.94279], [6.132994, 49.942722], [6.132971, 49.942623], [6.132971, 49.942543], [6.13302, 49.942318], [6.133032, 49.942245], [6.133039, 49.94218], [6.133058, 49.941963], [6.133066, 49.941772], [6.133036, 49.94157], [6.132975, 49.941315], [6.132883, 49.940975], [6.132727, 49.940426], [6.13254, 49.94038], [6.132406, 49.94035], [6.132063, 49.940254], [6.131723, 49.940247], [6.131609, 49.94023], [6.131552, 49.940224], [6.131453, 49.940166], [6.131357, 49.940086], [6.131292, 49.940033], [6.131231, 49.93994], [6.131174, 49.93985], [6.131113, 49.93987], [6.131067, 49.93975], [6.131033, 49.939667], [6.131018, 49.939594], [6.131018, 49.939518], [6.13101, 49.939465], [6.130995, 49.939415], [6.130976, 49.939373], [6.130922, 49.93938], [6.130873, 49.93925], [6.130835, 49.939175], [6.130785, 49.93909], [6.130716, 49.938988], [6.130674, 49.938908], [6.130644, 49.93884], [6.130598, 49.93875], [6.130571, 49.938694], [6.130552, 49.93863], [6.130529, 49.93857], [6.130381, 49.938385], [6.130285, 49.938316], [6.130201, 49.938267], [6.129984, 49.938164], [6.129831, 49.938084], [6.129713, 49.93802], [6.129621, 49.937973], [6.129534, 49.93793], [6.129332, 49.93785], [6.129168, 49.93779], [6.129003, 49.937737], [6.128862, 49.937683], [6.128794, 49.937653], [6.128698, 49.937607], [6.128637, 49.937588], [6.128572, 49.937576], [6.128504, 49.937572], [6.128447, 49.93757], [6.128408, 49.937553], [6.128355, 49.937515], [6.128294, 49.937485], [6.128199, 49.937454], [6.128138, 49.93743], [6.128046, 49.937386], [6.12784, 49.937325], [6.127397, 49.937202], [6.127241, 49.93715], [6.127195, 49.937134], [6.127111, 49.93708], [6.127027, 49.937054], [6.12697, 49.937035], [6.126902, 49.93699], [6.126852, 49.936974], [6.126665, 49.936916], [6.126596, 49.936886], [6.126467, 49.93682], [6.126383, 49.936787], [6.126295, 49.936764], [6.126146, 49.93674], [6.126081, 49.936726], [6.125998, 49.9367], [6.125917, 49.93666], [6.125719, 49.93653], [6.125673, 49.93651], [6.125612, 49.9365], [6.12549, 49.93649], [6.125437, 49.936478], [6.125387, 49.93646], [6.125326, 49.936428], [6.125231, 49.936363], [6.125044, 49.936214], [6.124899, 49.936115], [6.124811, 49.936043], [6.124712, 49.93597], [6.124651, 49.93592], [6.124533, 49.935787], [6.124491, 49.935753], [6.124346, 49.93567], [6.124235, 49.9356], [6.124197, 49.935566], [6.124132, 49.935482], [6.12409, 49.93544], [6.123919, 49.935314], [6.1238, 49.935238], [6.123751, 49.93521], [6.123659, 49.93518], [6.123541, 49.93515], [6.123453, 49.935112], [6.123251, 49.93501], [6.122984, 49.934864], [6.122706, 49.934696], [6.122534, 49.934605], [6.122408, 49.93448], [6.122351, 49.934437], [6.122175, 49.93431], [6.122057, 49.93423], [6.122004, 49.934204], [6.121901, 49.934162], [6.121679, 49.93409], [6.121534, 49.934048], [6.121447, 49.934025], [6.121351, 49.93399], [6.121214, 49.933918], [6.121019, 49.933823], [6.120653, 49.933617], [6.120245, 49.933384], [6.119951, 49.933197], [6.119821, 49.93311], [6.119741, 49.933044], [6.119665, 49.93296], [6.119463, 49.93275], [6.119349, 49.93265], [6.119185, 49.932514], [6.119085, 49.932457], [6.11899, 49.932404], [6.118868, 49.932354], [6.118635, 49.932278], [6.118307, 49.93217], [6.118116, 49.932117], [6.118006, 49.93208], [6.117884, 49.932026], [6.117765, 49.93196], [6.117659, 49.93188], [6.117582, 49.931812], [6.117548, 49.93175], [6.117506, 49.93165], [6.117453, 49.931587], [6.117392, 49.931534], [6.117289, 49.93146], [6.117128, 49.93136], [6.116968, 49.931255], [6.116869, 49.93117], [6.116774, 49.931076], [6.116644, 49.93092], [6.116629, 49.930805], [6.116625, 49.93068], [6.116617, 49.930573], [6.116591, 49.930504], [6.116545, 49.930397], [6.116491, 49.930325], [6.116407, 49.9302], [6.116354, 49.93007], [6.116255, 49.929844], [6.11614, 49.929546], [6.116125, 49.92948], [6.116148, 49.929417], [6.116205, 49.929325], [6.116304, 49.929226], [6.116404, 49.929108], [6.116468, 49.929028], [6.116514, 49.92895], [6.116541, 49.928883], [6.116549, 49.92884], [6.116514, 49.92867], [6.116507, 49.928596], [6.11651, 49.92855], [6.116522, 49.928493], [6.11656, 49.928394], [6.116549, 49.92825], [6.116526, 49.92818], [6.116472, 49.928104], [6.116438, 49.928017], [6.116419, 49.927925], [6.116415, 49.92782], [6.11643, 49.92765], [6.116461, 49.92749], [6.116495, 49.92737], [6.116541, 49.927216], [6.116575, 49.927116], [6.116629, 49.92699], [6.116735, 49.926792], [6.116816, 49.926662], [6.116861, 49.926598], [6.116899, 49.926517], [6.116922, 49.92646], [6.116926, 49.926414], [6.11693, 49.926304], [6.116922, 49.926216], [6.116888, 49.926144], [6.116884, 49.926025], [6.116899, 49.925976], [6.116899, 49.925953], [6.116892, 49.925922], [6.116873, 49.92587], [6.116831, 49.925804], [6.116785, 49.92575], [6.116697, 49.925686], [6.116571, 49.92561], [6.116331, 49.925472], [6.116098, 49.925335], [6.116003, 49.925285], [6.115885, 49.92523], [6.115709, 49.925144], [6.115709, 49.925133], [6.115816, 49.925095], [6.115801, 49.92503], [6.115664, 49.924488], [6.115541, 49.924072], [6.115408, 49.923576], [6.115229, 49.923035], [6.115187, 49.9228], [6.115213, 49.9227], [6.1154, 49.922283], [6.115477, 49.92212], [6.115602, 49.921703], [6.11569, 49.92141], [6.115686, 49.921326], [6.115698, 49.92131], [6.115759, 49.92129], [6.115908, 49.921204], [6.116262, 49.92097], [6.116484, 49.920822], [6.116648, 49.9207], [6.116758, 49.92061], [6.116827, 49.920532], [6.116877, 49.920452], [6.11693, 49.920284], [6.117022, 49.919937], [6.117106, 49.919655], [6.117132, 49.919537], [6.117178, 49.919273], [6.117094, 49.9192], [6.117002, 49.919113], [6.116957, 49.91908], [6.116831, 49.919014], [6.116739, 49.91898], [6.116617, 49.918938], [6.116476, 49.918907], [6.116423, 49.918896], [6.116209, 49.91888], [6.115557, 49.91884], [6.115198, 49.918827], [6.114878, 49.91882], [6.114489, 49.918816], [6.114046, 49.918823], [6.113676, 49.91884], [6.113501, 49.918846], [6.113329, 49.918858], [6.113226, 49.918854], [6.113134, 49.918846], [6.113058, 49.91884], [6.112986, 49.918823], [6.112875, 49.918793], [6.112677, 49.91874], [6.112516, 49.918705], [6.112425, 49.91869], [6.112291, 49.91869], [6.112158, 49.91871], [6.112001, 49.91873], [6.111799, 49.918755], [6.111734, 49.918766], [6.111666, 49.918785], [6.111536, 49.918816], [6.111452, 49.91884], [6.111216, 49.918884], [6.111059, 49.918934], [6.110731, 49.91903], [6.110521, 49.91908], [6.110323, 49.91912], [6.110216, 49.91915], [6.110117, 49.919197], [6.109469, 49.919456], [6.109114, 49.919586], [6.108931, 49.91967], [6.108805, 49.91974], [6.108736, 49.919785], [6.108706, 49.91981], [6.108679, 49.91985], [6.108656, 49.91988], [6.108648, 49.919914], [6.108644, 49.919956], [6.108725, 49.92016], [6.10874, 49.920242], [6.108763, 49.920406], [6.108763, 49.920498], [6.108755, 49.920574], [6.10874, 49.920624], [6.108713, 49.920673], [6.108671, 49.920734], [6.108629, 49.920773], [6.108576, 49.92081], [6.108439, 49.920883], [6.108355, 49.920933], [6.108305, 49.920967], [6.108221, 49.921043], [6.108152, 49.921093], [6.10811, 49.921112], [6.108061, 49.921127], [6.108046, 49.92113], [6.107962, 49.921143], [6.107878, 49.921158], [6.10776, 49.921177], [6.107687, 49.921192], [6.107534, 49.921207], [6.107462, 49.921223], [6.10737, 49.921265], [6.107275, 49.92129], [6.107214, 49.921303], [6.106989, 49.92131], [6.10689, 49.92131], [6.106863, 49.921318], [6.106798, 49.921364], [6.106756, 49.9214], [6.106707, 49.921425], [6.106657, 49.92144], [6.106619, 49.92145], [6.106546, 49.921467], [6.106489, 49.921494], [6.106424, 49.921528], [6.106386, 49.92155], [6.106207, 49.92163], [6.106031, 49.9217], [6.105715, 49.92179], [6.105596, 49.921814], [6.105448, 49.92184], [6.105337, 49.921856], [6.105291, 49.921856], [6.105253, 49.92185], [6.105207, 49.921806], [6.105143, 49.92175], [6.105112, 49.921753], [6.105078, 49.92177], [6.104944, 49.92184], [6.104639, 49.922016], [6.104544, 49.922073], [6.104456, 49.92213], [6.104406, 49.922146], [6.104345, 49.922153], [6.104189, 49.922157], [6.104132, 49.92216], [6.103949, 49.9222], [6.103773, 49.922222], [6.103632, 49.922245], [6.103525, 49.922268], [6.103315, 49.922344], [6.103128, 49.922405], [6.103014, 49.922417], [6.102861, 49.922432], [6.102629, 49.922462], [6.102415, 49.92248], [6.102255, 49.9225], [6.102056, 49.92256], [6.101908, 49.922607], [6.101572, 49.92273], [6.101194, 49.92286], [6.101046, 49.92292], [6.101, 49.922947], [6.100885, 49.92302], [6.100721, 49.923115], [6.100641, 49.923172], [6.100569, 49.92322], [6.100416, 49.923332], [6.100252, 49.923466], [6.10008, 49.92367], [6.099897, 49.92386], [6.099783, 49.923946], [6.099546, 49.92407], [6.099363, 49.92413], [6.099146, 49.92419], [6.098875, 49.924232], [6.098356, 49.92431], [6.098333, 49.92431], [6.098303, 49.9243], [6.098265, 49.924282], [6.098234, 49.92427], [6.097376, 49.924232], [6.096869, 49.924175], [6.096598, 49.924168], [6.096388, 49.924206], [6.096354, 49.92422], [6.096323, 49.92424], [6.0963, 49.924263], [6.096285, 49.92428], [6.096266, 49.92429], [6.096155, 49.92433], [6.096033, 49.92438], [6.095865, 49.92447], [6.095839, 49.92449], [6.095816, 49.92452], [6.095777, 49.924618], [6.095755, 49.924686], [6.095739, 49.924778], [6.095739, 49.92484], [6.095755, 49.92492], [6.095774, 49.925007], [6.095793, 49.92511], [6.095793, 49.925198], [6.095789, 49.92534], [6.095797, 49.925415], [6.095808, 49.92548], [6.09582, 49.925636], [6.09582, 49.925648], [6.095808, 49.925755], [6.095766, 49.925835], [6.09572, 49.925877], [6.095678, 49.92591], [6.09556, 49.925983], [6.09551, 49.92603], [6.0954, 49.92627], [6.095343, 49.926407], [6.095331, 49.92646], [6.095346, 49.926548], [6.095373, 49.92675], [6.095404, 49.92685], [6.095423, 49.926903], [6.095884, 49.927174], [6.095934, 49.927193], [6.095987, 49.927204], [6.096052, 49.92722], [6.09609, 49.927242], [6.096136, 49.92728], [6.096163, 49.927322], [6.096159, 49.927357], [6.096155, 49.927376], [6.096102, 49.927452], [6.096029, 49.92757], [6.095972, 49.927643], [6.09593, 49.927685], [6.095835, 49.92774], [6.095671, 49.92781], [6.095526, 49.927895], [6.095468, 49.927944], [6.095427, 49.92801], [6.095392, 49.928116], [6.095365, 49.928204], [6.09532, 49.928265], [6.095285, 49.928314], [6.095194, 49.928425], [6.095148, 49.928463], [6.095041, 49.928535], [6.094912, 49.92861], [6.094847, 49.92867], [6.094656, 49.928856], [6.09458, 49.928944], [6.094534, 49.929], [6.094488, 49.929157], [6.094439, 49.92931], [6.094374, 49.929455], [6.094423, 49.929478], [6.094435, 49.92949], [6.094435, 49.929523], [6.094431, 49.929573], [6.094423, 49.929615], [6.094393, 49.92971], [6.094366, 49.92982], [6.094355, 49.9299], [6.094347, 49.929924], [6.094313, 49.929947], [6.094267, 49.92997], [6.094271, 49.929993], [6.094278, 49.930004], [6.094412, 49.930122], [6.094465, 49.930183], [6.094481, 49.930195], [6.094488, 49.930237], [6.094488, 49.93029], [6.094481, 49.930325], [6.094461, 49.930347], [6.094381, 49.9304], [6.094328, 49.930416], [6.094336, 49.930573], [6.094339, 49.9307], [6.094324, 49.93085], [6.094297, 49.930935], [6.094286, 49.930946], [6.094267, 49.930958], [6.094236, 49.930965], [6.09421, 49.930965], [6.094183, 49.930954], [6.09416, 49.930946], [6.094122, 49.930935], [6.094103, 49.93093], [6.09408, 49.93094], [6.094072, 49.930965], [6.094046, 49.931114], [6.09403, 49.93116], [6.094015, 49.93116], [6.094034, 49.93118], [6.094065, 49.931194], [6.094126, 49.931206], [6.09421, 49.931213], [6.094271, 49.931236], [6.094309, 49.93126], [6.094381, 49.93129], [6.094648, 49.931324], [6.094721, 49.93135], [6.094812, 49.931393], [6.094961, 49.93147], [6.095098, 49.931576], [6.095186, 49.931664], [6.095194, 49.931686], [6.09519, 49.93171], [6.095141, 49.931915], [6.095083, 49.932034], [6.095007, 49.932186], [6.09495, 49.932255], [6.09485, 49.932323], [6.094591, 49.932487], [6.094492, 49.93254], [6.094339, 49.93257], [6.094263, 49.93258], [6.09421, 49.93258], [6.094137, 49.932575], [6.094011, 49.932564], [6.093893, 49.932533], [6.093718, 49.93249], [6.093561, 49.932446], [6.09329, 49.932358], [6.093122, 49.932304], [6.092985, 49.932266], [6.092916, 49.932255], [6.092848, 49.932247], [6.092737, 49.932255], [6.09265, 49.93226], [6.092493, 49.932285], [6.092051, 49.93236], [6.091726, 49.93244], [6.091646, 49.932457], [6.091524, 49.93248], [6.091444, 49.932484], [6.091383, 49.93248], [6.091299, 49.93246], [6.091223, 49.932434], [6.091017, 49.932343], [6.090818, 49.93225], [6.090693, 49.932205], [6.09059, 49.93219], [6.090433, 49.932182], [6.090311, 49.932186], [6.09017, 49.93219], [6.09009, 49.932205], [6.089823, 49.932278], [6.089655, 49.932335], [6.089552, 49.932396], [6.089479, 49.932446], [6.089445, 49.932503], [6.089418, 49.93256], [6.089388, 49.932613], [6.089312, 49.93269], [6.089228, 49.932743], [6.089136, 49.93279], [6.088999, 49.932846], [6.08885, 49.932934], [6.088717, 49.933033], [6.088598, 49.93313], [6.088472, 49.933258], [6.088407, 49.933327], [6.088251, 49.93353], [6.088182, 49.933594], [6.088091, 49.933662], [6.087995, 49.933773], [6.087877, 49.933933], [6.08782, 49.934002], [6.087763, 49.93406], [6.087687, 49.934116], [6.087576, 49.934218], [6.087549, 49.93424], [6.087427, 49.934343], [6.087381, 49.9344], [6.087343, 49.934473], [6.087316, 49.934595], [6.087282, 49.934728], [6.087206, 49.934912], [6.087198, 49.934954]]]]}}]}