{"type": "FeatureCollection", "features": [{"type": "Feature", "properties": {"name": "Mertert"}, "geometry": {"type": "MultiPolygon", "coordinates": [[[[6.444807, 49.711945], [6.444834, 49.712036], [6.444853, 49.71207], [6.444902, 49.712124], [6.444979, 49.712173], [6.445082, 49.712227], [6.445219, 49.712334], [6.445242, 49.712364], [6.445238, 49.7124], [6.445208, 49.71245], [6.445185, 49.7125], [6.445162, 49.712627], [6.445147, 49.71273], [6.445154, 49.712788], [6.445192, 49.71291], [6.445242, 49.713], [6.445276, 49.71306], [6.445322, 49.71307], [6.445322, 49.71316], [6.445272, 49.713173], [6.445246, 49.71323], [6.445246, 49.713276], [6.445269, 49.71332], [6.445303, 49.713375], [6.445311, 49.713398], [6.445299, 49.713436], [6.445261, 49.713493], [6.44552, 49.71352], [6.445753, 49.713547], [6.445818, 49.71355], [6.445887, 49.713554], [6.446066, 49.713547], [6.446463, 49.713535], [6.446547, 49.71353], [6.446745, 49.71354], [6.447, 49.71356], [6.447153, 49.71357], [6.447245, 49.71358], [6.447367, 49.71358], [6.447409, 49.713577], [6.447489, 49.713547], [6.447584, 49.71351], [6.447691, 49.713467], [6.44776, 49.71344], [6.447798, 49.713432], [6.447847, 49.713436], [6.448004, 49.713455], [6.448305, 49.713497], [6.448835, 49.71358], [6.449022, 49.71361], [6.449141, 49.713623], [6.449259, 49.713623], [6.449453, 49.713604], [6.45006, 49.713493], [6.45014, 49.71348], [6.45035, 49.713444], [6.450514, 49.713417], [6.450659, 49.7134], [6.450865, 49.713375], [6.451014, 49.713356], [6.451094, 49.713352], [6.451414, 49.713345], [6.451662, 49.713352], [6.451788, 49.713356], [6.452486, 49.713062], [6.453123, 49.712837], [6.45326, 49.71278], [6.453657, 49.712547], [6.454119, 49.712284], [6.454702, 49.711998], [6.45474, 49.711967], [6.454973, 49.711655], [6.455141, 49.71147], [6.455175, 49.711407], [6.455202, 49.711323], [6.455236, 49.71122], [6.455282, 49.71116], [6.45532, 49.7111], [6.455358, 49.711044], [6.455439, 49.71092], [6.455637, 49.71062], [6.455984, 49.710705], [6.45608, 49.71073], [6.456434, 49.710815], [6.456602, 49.710876], [6.456823, 49.710995], [6.456934, 49.71107], [6.457205, 49.71125], [6.457361, 49.711372], [6.45788, 49.71186], [6.458044, 49.71202], [6.458059, 49.71204], [6.457815, 49.712097], [6.457556, 49.71214], [6.457342, 49.71216], [6.457155, 49.71216], [6.456881, 49.712128], [6.456709, 49.712124], [6.455934, 49.712215], [6.455568, 49.712246], [6.455545, 49.712273], [6.455412, 49.712345], [6.455275, 49.71243], [6.454889, 49.71274], [6.454744, 49.712875], [6.454645, 49.712986], [6.454603, 49.71305], [6.454542, 49.71319], [6.454485, 49.713326], [6.454454, 49.71344], [6.454435, 49.713547], [6.454409, 49.71374], [6.454382, 49.713875], [6.454275, 49.71428], [6.454218, 49.714493], [6.454165, 49.714672], [6.454061, 49.71497], [6.453978, 49.71513], [6.45389, 49.71526], [6.453829, 49.715343], [6.45389, 49.715508], [6.454054, 49.71591], [6.45418, 49.71616], [6.454378, 49.716507], [6.45442, 49.7166], [6.454412, 49.716652], [6.454393, 49.716698], [6.454363, 49.716755], [6.454317, 49.716816], [6.454241, 49.716892], [6.454165, 49.716938], [6.4541, 49.71697], [6.453524, 49.717113], [6.452909, 49.71713], [6.452807, 49.717346], [6.453012, 49.717373], [6.453234, 49.7174], [6.453375, 49.71741], [6.453394, 49.717422], [6.453035, 49.71755], [6.453051, 49.717564], [6.453116, 49.717686], [6.453237, 49.717907], [6.453272, 49.717968], [6.453512, 49.718403], [6.453497, 49.71842], [6.453482, 49.718433], [6.453463, 49.718452], [6.45347, 49.71859], [6.45368, 49.718857], [6.453973, 49.718993], [6.454775, 49.71971], [6.454986, 49.71998], [6.455197, 49.720154], [6.455557, 49.720333], [6.455694, 49.72044], [6.456015, 49.72058], [6.45611, 49.720676], [6.45619, 49.720806], [6.457346, 49.721584], [6.456656, 49.721992], [6.456182, 49.721558], [6.455763, 49.721233], [6.455545, 49.721096], [6.455492, 49.72107], [6.45545, 49.721046], [6.455195, 49.720993], [6.4545, 49.720963], [6.454485, 49.720936], [6.454344, 49.72096], [6.453806, 49.721268], [6.453596, 49.721443], [6.45339, 49.72166], [6.453249, 49.721954], [6.453161, 49.722115], [6.452971, 49.722446], [6.452696, 49.72308], [6.453165, 49.723328], [6.453287, 49.723484], [6.453272, 49.723614], [6.453089, 49.724255], [6.453096, 49.72442], [6.453283, 49.724697], [6.453371, 49.72517], [6.453585, 49.725502], [6.454397, 49.72537], [6.454142, 49.725952], [6.453886, 49.72669], [6.453833, 49.72696], [6.453859, 49.727283], [6.45381, 49.72758], [6.453856, 49.727585], [6.453833, 49.727673], [6.453825, 49.727715], [6.453829, 49.727924], [6.453829, 49.727993], [6.453833, 49.728172], [6.453932, 49.728912], [6.454054, 49.72904], [6.454252, 49.72915], [6.454363, 49.729237], [6.454386, 49.729256], [6.454622, 49.729443], [6.454885, 49.729496], [6.454901, 49.7295], [6.455156, 49.729553], [6.455568, 49.729668], [6.455774, 49.729656], [6.455965, 49.729652], [6.456099, 49.72965], [6.456774, 49.72989], [6.457216, 49.730164], [6.457563, 49.730427], [6.457354, 49.730804], [6.457067, 49.731327], [6.457022, 49.731434], [6.456869, 49.732006], [6.456785, 49.732372], [6.456778, 49.732506], [6.456778, 49.732533], [6.456797, 49.73264], [6.456808, 49.732655], [6.456911, 49.7328], [6.457037, 49.732983], [6.457159, 49.733154], [6.45719, 49.733196], [6.457235, 49.733265], [6.457315, 49.733353], [6.457365, 49.73341], [6.457502, 49.733494], [6.457605, 49.733555], [6.457655, 49.733585], [6.457834, 49.73368], [6.458025, 49.733788], [6.458128, 49.733845], [6.458509, 49.73393], [6.458761, 49.73395], [6.458887, 49.733963], [6.459288, 49.733997], [6.459616, 49.734028], [6.459879, 49.734043], [6.460356, 49.734066], [6.460813, 49.734104], [6.460844, 49.734108], [6.461, 49.73412], [6.461084, 49.734127], [6.461115, 49.734142], [6.461203, 49.73435], [6.46126, 49.73449], [6.461336, 49.7346], [6.461344, 49.734627], [6.461363, 49.734737], [6.461374, 49.73481], [6.461374, 49.734825], [6.461214, 49.73497], [6.461157, 49.735023], [6.461164, 49.73515], [6.461145, 49.735245], [6.461134, 49.735306], [6.461073, 49.735428], [6.460981, 49.735542], [6.460901, 49.735615], [6.460714, 49.735744], [6.460611, 49.735847], [6.460581, 49.73596], [6.460642, 49.735962], [6.460726, 49.73597], [6.460978, 49.735992], [6.460916, 49.73612], [6.460859, 49.736225], [6.460817, 49.73637], [6.460813, 49.736614], [6.460817, 49.73665], [6.460905, 49.737034], [6.461088, 49.73742], [6.461256, 49.737762], [6.461309, 49.737865], [6.461382, 49.738018], [6.461611, 49.738445], [6.461676, 49.738598], [6.461725, 49.73871], [6.46171, 49.738804], [6.461683, 49.738934], [6.461653, 49.7391], [6.461626, 49.73918], [6.461607, 49.73923], [6.461527, 49.739388], [6.46139, 49.739567], [6.461855, 49.73975], [6.461985, 49.739788], [6.46221, 49.739853], [6.462523, 49.739937], [6.462709, 49.739975], [6.462763, 49.739983], [6.462851, 49.740025], [6.462904, 49.740055], [6.46298, 49.740078], [6.463137, 49.740093], [6.463175, 49.740116], [6.463202, 49.740128], [6.463293, 49.74014], [6.46335, 49.740147], [6.463419, 49.740166], [6.463541, 49.740215], [6.463663, 49.740246], [6.463793, 49.74027], [6.463942, 49.7403], [6.464445, 49.740433], [6.464895, 49.740566], [6.465017, 49.740604], [6.465078, 49.740635], [6.465181, 49.74069], [6.46525, 49.74071], [6.465338, 49.74073], [6.465418, 49.740746], [6.465734, 49.74089], [6.465876, 49.740955], [6.465933, 49.74098], [6.466383, 49.741123], [6.466799, 49.741257], [6.46731, 49.74142], [6.46792, 49.74161], [6.468428, 49.741787], [6.469297, 49.74215], [6.469481, 49.74223], [6.46937, 49.74236], [6.469419, 49.74237], [6.470472, 49.742622], [6.47051, 49.742546], [6.470537, 49.742477], [6.470552, 49.742447], [6.470591, 49.74235], [6.470602, 49.74233], [6.470621, 49.742275], [6.470663, 49.74221], [6.470942, 49.741863], [6.47117, 49.741604], [6.471727, 49.74102], [6.471823, 49.740925], [6.472254, 49.741135], [6.472574, 49.74129], [6.473177, 49.741436], [6.473421, 49.741497], [6.473845, 49.741554], [6.474112, 49.74161], [6.474295, 49.741665], [6.474398, 49.7417], [6.47452, 49.741756], [6.474634, 49.741817], [6.474768, 49.74189], [6.475, 49.742035], [6.475145, 49.742134], [6.475321, 49.742264], [6.475744, 49.742554], [6.475775, 49.74245], [6.475817, 49.74232], [6.475939, 49.742134], [6.47616, 49.74184], [6.476168, 49.741806], [6.476816, 49.741333], [6.476931, 49.74123], [6.477015, 49.74116], [6.477083, 49.741096], [6.477163, 49.740997], [6.477224, 49.740913], [6.477301, 49.740772], [6.477339, 49.740635], [6.477354, 49.740566], [6.477354, 49.740376], [6.477358, 49.74019], [6.477377, 49.740005], [6.477388, 49.73975], [6.477396, 49.73963], [6.477419, 49.739525], [6.477442, 49.739437], [6.47748, 49.739353], [6.477549, 49.73924], [6.477644, 49.739113], [6.4778, 49.738907], [6.477945, 49.738667], [6.478155, 49.738373], [6.478243, 49.738255], [6.478331, 49.738167], [6.478441, 49.73808], [6.478521, 49.738026], [6.478682, 49.737953], [6.478849, 49.737885], [6.47912, 49.737797], [6.479471, 49.737682], [6.479952, 49.737526], [6.480299, 49.737423], [6.480463, 49.73733], [6.480547, 49.73727], [6.480715, 49.737133], [6.480902, 49.736973], [6.481028, 49.736855], [6.481153, 49.73674], [6.481295, 49.736607], [6.481379, 49.73653], [6.481482, 49.736458], [6.481626, 49.736378], [6.481836, 49.73627], [6.482256, 49.736073], [6.482534, 49.736168], [6.482733, 49.736233], [6.482813, 49.736248], [6.482866, 49.736256], [6.483156, 49.736286], [6.483244, 49.736298], [6.483427, 49.736317], [6.483778, 49.736355], [6.483858, 49.736362], [6.483973, 49.736374], [6.484018, 49.73638], [6.484194, 49.7364], [6.484266, 49.73641], [6.484373, 49.736416], [6.484426, 49.736423], [6.484617, 49.736435], [6.484705, 49.736435], [6.484865, 49.73644], [6.485106, 49.736443], [6.485254, 49.736443], [6.485369, 49.736446], [6.485788, 49.736446], [6.485781, 49.73635], [6.486582, 49.73633], [6.486799, 49.736317], [6.487074, 49.736298], [6.487181, 49.736298], [6.487333, 49.736305], [6.487692, 49.736317], [6.48805, 49.73632], [6.488455, 49.73634], [6.488646, 49.736275], [6.489126, 49.73611], [6.489267, 49.736057], [6.489451, 49.735973], [6.489496, 49.73595], [6.489553, 49.735928], [6.489649, 49.735893], [6.490293, 49.7357], [6.490633, 49.735588], [6.490805, 49.735535], [6.491095, 49.735447], [6.49119, 49.735367], [6.491327, 49.73525], [6.491407, 49.735172], [6.491484, 49.735085], [6.491518, 49.735035], [6.491571, 49.73496], [6.491598, 49.734913], [6.491617, 49.734882], [6.491663, 49.734787], [6.491754, 49.73481], [6.49201, 49.73468], [6.492189, 49.73459], [6.492296, 49.734535], [6.492392, 49.73448], [6.492502, 49.734413], [6.492609, 49.73433], [6.49272, 49.734238], [6.492781, 49.734184], [6.492849, 49.734173], [6.493044, 49.73415], [6.493155, 49.73413], [6.493196, 49.734123], [6.493372, 49.73409], [6.493414, 49.73408], [6.49346, 49.73407], [6.493509, 49.73406], [6.49354, 49.734055], [6.493734, 49.73401], [6.494009, 49.73393], [6.494139, 49.733887], [6.494177, 49.73387], [6.494398, 49.733833], [6.494429, 49.73383], [6.494436, 49.733917], [6.494463, 49.733913], [6.49449, 49.733906], [6.494551, 49.733894], [6.494837, 49.73384], [6.494898, 49.733826], [6.494986, 49.73381], [6.495069, 49.73379], [6.495092, 49.733788], [6.495234, 49.73376], [6.495375, 49.733734], [6.495462, 49.733723], [6.495508, 49.733715], [6.495565, 49.733704], [6.495722, 49.733677], [6.495897, 49.73365], [6.495951, 49.733643], [6.496004, 49.73364], [6.496195, 49.733624], [6.496313, 49.73362], [6.496458, 49.733612], [6.496614, 49.7336], [6.496912, 49.733578], [6.497282, 49.73354], [6.497408, 49.733524], [6.497728, 49.733486], [6.497919, 49.73345], [6.498079, 49.733425], [6.498167, 49.733414], [6.498194, 49.733406], [6.498385, 49.733376], [6.498472, 49.73336], [6.498609, 49.73334], [6.498701, 49.733326], [6.498758, 49.73332], [6.498785, 49.733315], [6.498835, 49.73331], [6.498892, 49.733303], [6.49896, 49.7333], [6.499002, 49.733295], [6.499079, 49.733295], [6.499197, 49.7333], [6.499315, 49.7333], [6.499426, 49.733303], [6.499399, 49.733135], [6.499548, 49.733177], [6.499842, 49.733257], [6.499987, 49.733295], [6.500055, 49.733315], [6.500086, 49.733242], [6.500231, 49.733204], [6.500525, 49.733105], [6.500631, 49.73307], [6.500807, 49.73302], [6.500872, 49.733006], [6.500894, 49.733], [6.500963, 49.732994], [6.500975, 49.73299], [6.501078, 49.73298], [6.50131, 49.733105], [6.501562, 49.733143], [6.501604, 49.733156], [6.5016, 49.733126], [6.501581, 49.732985], [6.501589, 49.73295], [6.501604, 49.732878], [6.501677, 49.732656], [6.50176, 49.732435], [6.501825, 49.73229], [6.501982, 49.732069], [6.502108, 49.731909], [6.502302, 49.731703], [6.502512, 49.731524], [6.502668, 49.731352], [6.502806, 49.731245], [6.502947, 49.73115], [6.503073, 49.73105], [6.503164, 49.730982], [6.503515, 49.730738], [6.503733, 49.730562], [6.504034, 49.730345], [6.504244, 49.730181], [6.50453, 49.729982], [6.504721, 49.729834], [6.505262, 49.729479], [6.505701, 49.729204], [6.506369, 49.7288], [6.506681, 49.72864], [6.507048, 49.728453], [6.507376, 49.728296], [6.507753, 49.728132], [6.508066, 49.728018], [6.50839, 49.727938], [6.508703, 49.727842], [6.509157, 49.727674], [6.509359, 49.727617], [6.510195, 49.7274], [6.510565, 49.727301], [6.510748, 49.727243], [6.511038, 49.727129], [6.511221, 49.727049], [6.511511, 49.726927], [6.511747, 49.726767], [6.512098, 49.726576], [6.512239, 49.726538], [6.512285, 49.726484], [6.512461, 49.726377], [6.512575, 49.726297], [6.512751, 49.726214], [6.512926, 49.726133], [6.513025, 49.726088], [6.513136, 49.72603], [6.513285, 49.725958], [6.513498, 49.725828], [6.513662, 49.72574], [6.5138, 49.725664], [6.514063, 49.725496], [6.514299, 49.725405], [6.514792, 49.725233], [6.515066, 49.725161], [6.515314, 49.725088], [6.515482, 49.725042], [6.515634, 49.724989], [6.515894, 49.724882], [6.516123, 49.72476], [6.516272, 49.724665], [6.516439, 49.724565], [6.516619, 49.724443], [6.516756, 49.724314], [6.517016, 49.724035], [6.517073, 49.723818], [6.517149, 49.723471], [6.517061, 49.723364], [6.516985, 49.723272], [6.516836, 49.723131], [6.51671, 49.723002], [6.516611, 49.722898], [6.51652, 49.722792], [6.516321, 49.722681], [6.516218, 49.722582], [6.516043, 49.722467], [6.515951, 49.722376], [6.515764, 49.722242], [6.515547, 49.722082], [6.515333, 49.721956], [6.515165, 49.72188], [6.514914, 49.721731], [6.514704, 49.721651], [6.514463, 49.721548], [6.514299, 49.72151], [6.513933, 49.721487], [6.513605, 49.721472], [6.513044, 49.721449], [6.512625, 49.721376], [6.512308, 49.721342], [6.512049, 49.721312], [6.511831, 49.721292], [6.511499, 49.721235], [6.511305, 49.72125], [6.510954, 49.72127], [6.510889, 49.721323], [6.510817, 49.721384], [6.510633, 49.721453], [6.510553, 49.721567], [6.510309, 49.721754], [6.510222, 49.721842], [6.510115, 49.721891], [6.509829, 49.722158], [6.509466, 49.722536], [6.50931, 49.722708], [6.509111, 49.722895], [6.508947, 49.723059], [6.508711, 49.723261], [6.508562, 49.723421], [6.508528, 49.723448], [6.508284, 49.723627], [6.508039, 49.723791], [6.507807, 49.723978], [6.507624, 49.724115], [6.507418, 49.724306], [6.507105, 49.724554], [6.506868, 49.724699], [6.506681, 49.724863], [6.506537, 49.724989], [6.506258, 49.725298], [6.506033, 49.725504], [6.505838, 49.72571], [6.505667, 49.725843], [6.505381, 49.726023], [6.505148, 49.726141], [6.5049, 49.726233], [6.504679, 49.726297], [6.504316, 49.726381], [6.504042, 49.726473], [6.503389, 49.726721], [6.502806, 49.726915], [6.502565, 49.726969], [6.502279, 49.726999], [6.50205, 49.727026], [6.501696, 49.727037], [6.501299, 49.727057], [6.501032, 49.727072], [6.500666, 49.727087], [6.50033, 49.727076], [6.499941, 49.727064], [6.499514, 49.727045], [6.499197, 49.72703], [6.49888, 49.727011], [6.498602, 49.72698], [6.498262, 49.726934], [6.497484, 49.726854], [6.497126, 49.726808], [6.496771, 49.726706], [6.496244, 49.726454], [6.495863, 49.726286], [6.495768, 49.72621], [6.495756, 49.726202], [6.495726, 49.726187], [6.495714, 49.726179], [6.495478, 49.726084], [6.49531, 49.72595], [6.495188, 49.725824], [6.495153, 49.725794], [6.495031, 49.725653], [6.494909, 49.725439], [6.494791, 49.725214], [6.494722, 49.72502], [6.4947, 49.724787], [6.494696, 49.724569], [6.494776, 49.724337], [6.494898, 49.724062], [6.494932, 49.724001], [6.495054, 49.723803], [6.495104, 49.72373], [6.495455, 49.723276], [6.495874, 49.722841], [6.496035, 49.722692], [6.496256, 49.722521], [6.496512, 49.722357], [6.496752, 49.722227], [6.496904, 49.722139], [6.497213, 49.721945], [6.497454, 49.721773], [6.497511, 49.721731], [6.498011, 49.721369], [6.498701, 49.720858], [6.499037, 49.720594], [6.499262, 49.72043], [6.499659, 49.720152], [6.49999, 49.719923], [6.500277, 49.719729], [6.500689, 49.719454], [6.500914, 49.719316], [6.501257, 49.719099], [6.501753, 49.718794], [6.502192, 49.718527], [6.502749, 49.718214], [6.503164, 49.717978], [6.503511, 49.717783], [6.503958, 49.717535], [6.504255, 49.71739], [6.504648, 49.717184], [6.50495, 49.71702], [6.50519, 49.71689], [6.505518, 49.716707], [6.505575, 49.716677], [6.505724, 49.716581], [6.50577, 49.716547], [6.505957, 49.716429], [6.505976, 49.716413], [6.506094, 49.716314], [6.506178, 49.716208], [6.506243, 49.716108], [6.506296, 49.715948], [6.506361, 49.715715], [6.50638, 49.715593], [6.506399, 49.71546], [6.506403, 49.715406], [6.506414, 49.71525], [6.506422, 49.715082], [6.506418, 49.714941], [6.506399, 49.714739], [6.506373, 49.714651], [6.506338, 49.714399], [6.50633, 49.7143], [6.506327, 49.714247], [6.506323, 49.714212], [6.506315, 49.7139], [6.506315, 49.713812], [6.5063, 49.713705], [6.506266, 49.713503], [6.506166, 49.713507], [6.505861, 49.713518], [6.50503, 49.713549], [6.504927, 49.713549], [6.504812, 49.713602], [6.504557, 49.713594], [6.504271, 49.713579], [6.503977, 49.713556], [6.503973, 49.713491], [6.503725, 49.713461], [6.503336, 49.7134], [6.502958, 49.713335], [6.50268, 49.713282], [6.502294, 49.713201], [6.501833, 49.713095], [6.501726, 49.713068], [6.501375, 49.712984], [6.501131, 49.712927], [6.500944, 49.712874], [6.500757, 49.712812], [6.500559, 49.712748], [6.500345, 49.712671], [6.500109, 49.712584], [6.500113, 49.712568], [6.500063, 49.712549], [6.500055, 49.7125], [6.500029, 49.712465], [6.499971, 49.712442], [6.499708, 49.712343], [6.499414, 49.712236], [6.499205, 49.712141], [6.498938, 49.712023], [6.498659, 49.711882], [6.498373, 49.711729], [6.498117, 49.711576], [6.49761, 49.711248], [6.497339, 49.711054], [6.497156, 49.710924], [6.496683, 49.710585], [6.496187, 49.710253], [6.495752, 49.709955], [6.495256, 49.709604], [6.494989, 49.709417], [6.494493, 49.70907], [6.494043, 49.708757], [6.493708, 49.708506], [6.493322, 49.708223], [6.493265, 49.708181], [6.492998, 49.707983], [6.492662, 49.70772], [6.492037, 49.707205], [6.491766, 49.706934], [6.491423, 49.706514], [6.491281, 49.706366], [6.491056, 49.70616], [6.490828, 49.705961], [6.490576, 49.705744], [6.490354, 49.705545], [6.490141, 49.705381], [6.489946, 49.705225], [6.489748, 49.705072], [6.489416, 49.704828], [6.489126, 49.704603], [6.488668, 49.704298], [6.488531, 49.704199], [6.488214, 49.703989], [6.487974, 49.703814], [6.48768, 49.703619], [6.486933, 49.7031], [6.48662, 49.702875], [6.486341, 49.702661], [6.48604, 49.702417], [6.485807, 49.702223], [6.485518, 49.701967], [6.485243, 49.701715], [6.484961, 49.701448], [6.48464, 49.701155], [6.484308, 49.700853], [6.4839, 49.700483], [6.483522, 49.70019], [6.483538, 49.700163], [6.483538, 49.700151], [6.481897, 49.698664], [6.481886, 49.698656], [6.481615, 49.698477], [6.480596, 49.697802], [6.480566, 49.697782], [6.480486, 49.697683], [6.480337, 49.697603], [6.480162, 49.697496], [6.48004, 49.697432], [6.479895, 49.697367], [6.479685, 49.697252], [6.479509, 49.697184], [6.479258, 49.697058], [6.479479, 49.696696], [6.479203, 49.696494], [6.478594, 49.696273], [6.477378, 49.695907], [6.476228, 49.695644], [6.474858, 49.695281], [6.473881, 49.694977], [6.472947, 49.694626], [6.471295, 49.693913], [6.470143, 49.693462], [6.469514, 49.693268], [6.468754, 49.693073], [6.467559, 49.692863], [6.464175, 49.692451], [6.46311, 49.692283], [6.461917, 49.692062], [6.461429, 49.691948], [6.461331, 49.691921], [6.461058, 49.69235], [6.460913, 49.692497], [6.460878, 49.692535], [6.460562, 49.692947], [6.460504, 49.693024], [6.460447, 49.693096], [6.460344, 49.69321], [6.460264, 49.693336], [6.460108, 49.693542], [6.459951, 49.693607], [6.459585, 49.69356], [6.4592, 49.693398], [6.458601, 49.69315], [6.458643, 49.693043], [6.45841, 49.692898], [6.457712, 49.692642], [6.457277, 49.692482], [6.457148, 49.69242], [6.457006, 49.692356], [6.456923, 49.692387], [6.456827, 49.692425], [6.456621, 49.692505], [6.456518, 49.692535], [6.456415, 49.692627], [6.456274, 49.692673], [6.456057, 49.692844], [6.45608, 49.692852], [6.455648, 49.69316], [6.455427, 49.693275], [6.455053, 49.693455], [6.45468, 49.69354], [6.454136, 49.693614], [6.454538, 49.69396], [6.454733, 49.694096], [6.454794, 49.69419], [6.454851, 49.694286], [6.455183, 49.694168], [6.455416, 49.694088], [6.455572, 49.69404], [6.456133, 49.693893], [6.456202, 49.69388], [6.456438, 49.693844], [6.456743, 49.69382], [6.456373, 49.694107], [6.456129, 49.69435], [6.455893, 49.69461], [6.45569, 49.695015], [6.45537, 49.695538], [6.45492, 49.69628], [6.454874, 49.696354], [6.454576, 49.696594], [6.454378, 49.6968], [6.454206, 49.696995], [6.454065, 49.697247], [6.453997, 49.697426], [6.453939, 49.69774], [6.453966, 49.69797], [6.454084, 49.698196], [6.453371, 49.698532], [6.453116, 49.698647], [6.452791, 49.698444], [6.451662, 49.699066], [6.451422, 49.69957], [6.451353, 49.699993], [6.451277, 49.70013], [6.450922, 49.70038], [6.450735, 49.70057], [6.450579, 49.700813], [6.450514, 49.70106], [6.450415, 49.701637], [6.450316, 49.702065], [6.450106, 49.7024], [6.449827, 49.702488], [6.449671, 49.702534], [6.449713, 49.70273], [6.449743, 49.70275], [6.449755, 49.70276], [6.44982, 49.70281], [6.449884, 49.702854], [6.449911, 49.702877], [6.450273, 49.703144], [6.450449, 49.70332], [6.450544, 49.703434], [6.450609, 49.703537], [6.450777, 49.703823], [6.450911, 49.70403], [6.451407, 49.704636], [6.451513, 49.704754], [6.451864, 49.705097], [6.452276, 49.705498], [6.452734, 49.705906], [6.453154, 49.706245], [6.453325, 49.70643], [6.453482, 49.706684], [6.453443, 49.706734], [6.453493, 49.706825], [6.453558, 49.70696], [6.453604, 49.707115], [6.453619, 49.707203], [6.453623, 49.707325], [6.453596, 49.707424], [6.453562, 49.7075], [6.453478, 49.70764], [6.453371, 49.707775], [6.453291, 49.707836], [6.453085, 49.707962], [6.452761, 49.708145], [6.452509, 49.70828], [6.452349, 49.70835], [6.452032, 49.708473], [6.451479, 49.70867], [6.45104, 49.70883], [6.450678, 49.708973], [6.450373, 49.709103], [6.450106, 49.709255], [6.449774, 49.709457], [6.449633, 49.70955], [6.44945, 49.70971], [6.449381, 49.709778], [6.449301, 49.709824], [6.449263, 49.70986], [6.449053, 49.70996], [6.448896, 49.710033], [6.448649, 49.71015], [6.448141, 49.710392], [6.448084, 49.71042], [6.447973, 49.710476], [6.447939, 49.71049], [6.447847, 49.710533], [6.447817, 49.71055], [6.447645, 49.71063], [6.447599, 49.71065], [6.447386, 49.710747], [6.447062, 49.710667], [6.446848, 49.71065], [6.446733, 49.71066], [6.446711, 49.71066], [6.446684, 49.710663], [6.44665, 49.71067], [6.446478, 49.710728], [6.446341, 49.71078], [6.446165, 49.710907], [6.445997, 49.71103], [6.44586, 49.71119], [6.445677, 49.711494], [6.445578, 49.7116], [6.445505, 49.71161], [6.445448, 49.71166], [6.445353, 49.711742], [6.445314, 49.711773], [6.445223, 49.711834], [6.445097, 49.711887], [6.44496, 49.711926], [6.444807, 49.711945]]]]}}]}