{"type": "FeatureCollection", "features": [{"type": "Feature", "properties": {"name": "Jardin Clara Reinert", "kind": "park"}, "geometry": {"type": "Polygon", "coordinates": [[[6.2647741, 49.5042985], [6.2647567, 49.5044154], [6.2647507, 49.504456], [6.2647475, 49.5044748], [6.2645701, 49.5044788], [6.2643475, 49.504463], [6.2640397, 49.5044862], [6.2639411, 49.5044892], [6.263758, 49.5045023], [6.2636173, 49.5045237], [6.2635913, 49.5045304], [6.2634754, 49.504583], [6.2633661, 49.5046555], [6.2633315, 49.5044906], [6.2633244, 49.5044312], [6.263413, 49.504374], [6.2635521, 49.5043055], [6.2636737, 49.5042663], [6.2636956, 49.5042592], [6.2637103, 49.5042557], [6.2639022, 49.5042098], [6.2642237, 49.5041855], [6.2642661, 49.5041849], [6.2643893, 49.5041834], [6.2645318, 49.5041849], [6.2647906, 49.5041968], [6.2647741, 49.5042985]]]}}]}