{"type": "FeatureCollection", "features": [{"type": "Feature", "properties": {"name": "Park Brill", "kind": "park"}, "geometry": {"type": "Polygon", "coordinates": [[[6.0253422, 49.6263584], [6.0252771, 49.626599], [6.0254631, 49.6266941], [6.02547, 49.6267888], [6.0252832, 49.6272335], [6.0249725, 49.6272546], [6.0252314, 49.6275979], [6.0253559, 49.6276543], [6.0254025, 49.6276935], [6.0255843, 49.627684], [6.0257465, 49.6276484], [6.026407, 49.6274504], [6.0282415, 49.6264057], [6.0292642, 49.6265442], [6.0296961, 49.6266224], [6.0303251, 49.6267492], [6.0303412, 49.626671], [6.0307385, 49.6264629], [6.031171, 49.6265391], [6.0314252, 49.6267522], [6.0315374, 49.6269091], [6.0316253, 49.6269016], [6.031644, 49.6268765], [6.0316025, 49.6268005], [6.0317098, 49.6267723], [6.0317352, 49.6268127], [6.0317614, 49.6268017], [6.0318837, 49.6263939], [6.0319052, 49.6261028], [6.0319649, 49.6259421], [6.0319112, 49.6258769], [6.0318214, 49.6258465], [6.0311535, 49.6257345], [6.0311634, 49.6257081], [6.0311978, 49.6256165], [6.0290292, 49.6253696], [6.027723, 49.6249092], [6.0273937, 49.6248646], [6.0270949, 49.6247836], [6.0270054, 49.6246644], [6.0270561, 49.6245872], [6.0272267, 49.6245087], [6.0274522, 49.6243814], [6.0273047, 49.6242998], [6.0272217, 49.6242803], [6.0267827, 49.6247308], [6.0265043, 49.6246078], [6.026407, 49.6246378], [6.026192, 49.6250317], [6.0260519, 49.6249996], [6.0257951, 49.6249408], [6.0254415, 49.6248506], [6.0254, 49.62484], [6.0250198, 49.6247652], [6.0254904, 49.625917], [6.0232438, 49.6255712], [6.0230858, 49.6259348], [6.0231388, 49.625946], [6.0232212, 49.6259309], [6.0233077, 49.6259305], [6.0233741, 49.6259531], [6.0234258, 49.6259935], [6.0234439, 49.6260347], [6.0235615, 49.6260523], [6.0235592, 49.6260196], [6.0235954, 49.6259901], [6.0236433, 49.6259625], [6.0237, 49.6259432], [6.0237657, 49.6259317], [6.0238281, 49.6259364], [6.0238368, 49.6259113], [6.023882, 49.6258728], [6.0239545, 49.6258483], [6.0240302, 49.6258478], [6.0240996, 49.6258672], [6.0241566, 49.6259065], [6.0241717, 49.6259503], [6.0241663, 49.6259779], [6.0242475, 49.6259951], [6.0243206, 49.6260416], [6.0243648, 49.6261041], [6.0243668, 49.6261606], [6.024357, 49.6261877], [6.0243496, 49.6262081], [6.024361, 49.6262286], [6.0253422, 49.6263584]]]}}]}