{"type": "FeatureCollection", "features": [{"type": "Feature", "properties": {"name": "Réserve naturelle communale Mimelsratt", "kind": "nature_reserve"}, "geometry": {"type": "Polygon", "coordinates": [[[6.0200505, 49.6404843], [6.0198775, 49.640288], [6.0196175, 49.6398257], [6.0195311, 49.6397505], [6.022949, 49.6394868], [6.022983, 49.6396052], [6.0227971, 49.6396273], [6.0228156, 49.6396751], [6.022962, 49.6399853], [6.0205194, 49.6404271], [6.0203306, 49.6404463], [6.0200505, 49.6404843]]]}}]}