{"type": "FeatureCollection", "features": [{"type": "Feature", "properties": {"name": "Trintingerthal"}, "geometry": {"type": "Polygon", "coordinates": [[[6.253775, 49.5686451], [6.2538389, 49.5687076], [6.2539665, 49.5688095], [6.2542108, 49.5689908], [6.2543026, 49.5690395], [6.2544128, 49.5690995], [6.254642, 49.5692267], [6.2548036, 49.5693162], [6.2549688, 49.5693603], [6.2550807, 49.5693886], [6.2555231, 49.5695107], [6.2557322, 49.5695382], [6.2557911, 49.5695396], [6.2562575, 49.5696969], [6.2568524, 49.5698907], [6.2572005, 49.5700055], [6.2575052, 49.5701124], [6.2574845, 49.5701273], [6.2571869, 49.5703494], [6.2568933, 49.5705771], [6.2563816, 49.5709862], [6.2561666, 49.5712541], [6.2560318, 49.5714437], [6.2557187, 49.5718766], [6.2555382, 49.5721541], [6.2555225, 49.5721933], [6.2555104, 49.5722237], [6.2554158, 49.572461], [6.255387, 49.57257], [6.2553703, 49.5726745], [6.2553802, 49.572785], [6.2554433, 49.5729315], [6.2555669, 49.5732185], [6.2555871, 49.5732617], [6.2556541, 49.5734057], [6.2556641, 49.5734426], [6.2556711, 49.5734684], [6.2556568, 49.5735535], [6.2556353, 49.5736399], [6.2555304, 49.5740626], [6.2554842, 49.5742486], [6.2554429, 49.5744593], [6.2554386, 49.5744864], [6.2554846, 49.5745685], [6.2555659, 49.5746759], [6.2556032, 49.5747252], [6.2557362, 49.5748438], [6.2558119, 49.5749114], [6.25584, 49.5749365], [6.2559367, 49.5750119], [6.2560238, 49.5750798], [6.2560504, 49.5751006], [6.2561728, 49.5751815], [6.2562944, 49.575262], [6.2563262, 49.575283], [6.2563384, 49.5752911], [6.2563557, 49.5753025], [6.2564081, 49.5753372], [6.2564861, 49.5754088], [6.2565266, 49.5754461], [6.256558, 49.5754818], [6.2566258, 49.5755587], [6.2566474, 49.5755903], [6.2566774, 49.5756338], [6.2566863, 49.5756468], [6.2567049, 49.5756971], [6.2567276, 49.5757587], [6.2567957, 49.5760476], [6.2568078, 49.5760842], [6.2568322, 49.576158], [6.256862, 49.5762252], [6.2568758, 49.5762565], [6.2569267, 49.5763401], [6.2569729, 49.5763983], [6.257058, 49.5765054], [6.2571321, 49.5765988], [6.2573509, 49.5768762], [6.2574295, 49.5769759], [6.2575047, 49.5770714], [6.2575824, 49.5771698], [6.2576204, 49.5772181], [6.2577355, 49.5773641], [6.25779, 49.5774332], [6.2578281, 49.5774736], [6.2580407, 49.5776986], [6.2581059, 49.5777677], [6.2582115, 49.5778795], [6.2582679, 49.5779116], [6.2583816, 49.5779763], [6.2585751, 49.5781012], [6.2586888, 49.5781746], [6.2588877, 49.5783157], [6.2589306, 49.5783461], [6.2590219, 49.5784164], [6.2591287, 49.5784986], [6.2592861, 49.5786197], [6.259356, 49.5786735], [6.2594528, 49.5787765], [6.2601339, 49.5787428], [6.2604044, 49.5787294], [6.2605874, 49.5787209], [6.2606932, 49.5787159], [6.2612314, 49.5786908], [6.2612635, 49.5786893], [6.2616729, 49.5786702], [6.2617832, 49.578666], [6.2619291, 49.5786604], [6.2620066, 49.5786574], [6.2624465, 49.5786405], [6.2625461, 49.5786367], [6.2631885, 49.5785854], [6.2638139, 49.5785072], [6.2639194, 49.5784887], [6.2653123, 49.578252], [6.2654051, 49.5782544], [6.2654541, 49.5782556], [6.2654981, 49.5782568], [6.265663, 49.5782535], [6.2658032, 49.5782507], [6.2656851, 49.5783553], [6.2655863, 49.5784584], [6.2655237, 49.5785495], [6.2655098, 49.5786548], [6.2655274, 49.5790131], [6.2656602, 49.5790234], [6.2656534, 49.5791198], [6.2655214, 49.5795678], [6.2654157, 49.5798374], [6.2655511, 49.5799], [6.2655944, 49.5797995], [6.2656406, 49.5796922], [6.2656785, 49.5796042], [6.2657434, 49.5794131], [6.265782, 49.5792991], [6.2658166, 49.5792008], [6.2658329, 49.579087], [6.265827, 49.5789036], [6.2657715, 49.5786489], [6.2659724, 49.5787303], [6.2662338, 49.5788506], [6.2664485, 49.5789557], [6.2665492, 49.5790381], [6.2666082, 49.5790863], [6.266671, 49.5791372], [6.2669552, 49.5793669], [6.2670196, 49.5794498], [6.2670678, 49.5795119], [6.267123, 49.579583], [6.2671439, 49.5796099], [6.2672251, 49.5797145], [6.2674121, 49.5799554], [6.2674504, 49.5799609], [6.2672455, 49.5805019], [6.2675553, 49.5810978], [6.2677331, 49.5814938], [6.2679452, 49.5819246], [6.2682274, 49.5823648], [6.2686268, 49.5829158], [6.2687548, 49.5831404], [6.2687765, 49.5832577], [6.2686337, 49.5836499], [6.2686144, 49.5838004], [6.2686119, 49.5839834], [6.2694516, 49.584253], [6.2698713, 49.5843785], [6.2710553, 49.584594], [6.2720601, 49.5846396], [6.2731618, 49.5846796], [6.2741693, 49.5846983], [6.2748101, 49.5847341], [6.2760472, 49.5849423], [6.2766483, 49.5850658], [6.2773463, 49.5852011], [6.2780093, 49.5853311], [6.278511, 49.5854212], [6.278977, 49.5855041], [6.2797586, 49.5856388], [6.2806727, 49.5857885], [6.2814453, 49.585926], [6.282047, 49.5860341], [6.2827629, 49.586173], [6.283468, 49.5863213], [6.2844268, 49.5865394], [6.2846092, 49.5865601], [6.284855, 49.5865598], [6.2856451, 49.5865346], [6.2871524, 49.5864816], [6.2878134, 49.5864564], [6.2883366, 49.5864289], [6.289144, 49.5863766], [6.2899462, 49.5863232], [6.2903307, 49.5863069], [6.2907205, 49.5863001], [6.2911784, 49.5862935], [6.2913126, 49.5862961], [6.2914557, 49.5863158], [6.2915735, 49.5863443], [6.2916576, 49.5863771], [6.2917671, 49.5864393], [6.2919071, 49.5865614], [6.2931869, 49.5861947], [6.2942756, 49.5858791], [6.2953346, 49.5855705], [6.2962946, 49.5852988], [6.2968657, 49.5851385], [6.2970586, 49.5850782], [6.297263, 49.5850004], [6.2974468, 49.5849028], [6.2979392, 49.5845842], [6.2983832, 49.5842775], [6.2987944, 49.583988], [6.2992716, 49.5836667], [6.2999939, 49.5831599], [6.300715, 49.5826922], [6.3007685, 49.5826554], [6.3012706, 49.5823054], [6.3015244, 49.5820656], [6.3018247, 49.5818092], [6.3019097, 49.5816581], [6.3019452, 49.581527], [6.3018536, 49.5810835], [6.3016771, 49.580555], [6.3015529, 49.5802621], [6.3014289, 49.5800656], [6.3012069, 49.5797699], [6.3011072, 49.5796535], [6.3008543, 49.5793235], [6.300777, 49.5793494], [6.3000544, 49.5788298], [6.2998374, 49.5786883], [6.2996156, 49.5785438], [6.2985676, 49.5779089], [6.2984823, 49.5778404], [6.2984549, 49.5778185], [6.2982957, 49.5776416], [6.2979969, 49.5772862], [6.2975475, 49.5767299], [6.2974769, 49.5765934], [6.2974169, 49.5764771], [6.2974015, 49.5764474], [6.2973409, 49.57633], [6.2973003, 49.5762515], [6.297276, 49.5762045], [6.2972605, 49.5761746], [6.2972333, 49.5761219], [6.2972197, 49.5760955], [6.2971961, 49.5760498], [6.2971725, 49.5760012], [6.2971287, 49.5759111], [6.2970836, 49.5758184], [6.2970246, 49.575697], [6.2970093, 49.5756655], [6.2969986, 49.5756434], [6.2969369, 49.5754697], [6.2968223, 49.5751467], [6.2966564, 49.5744771], [6.296606, 49.5742193], [6.296602, 49.5741987], [6.2965142, 49.5737495], [6.2967746, 49.5737869], [6.2969026, 49.5738053], [6.2969176, 49.5737573], [6.296647, 49.5737203], [6.2967921, 49.5734782], [6.2968259, 49.5734276], [6.2969324, 49.5732678], [6.2970122, 49.5731584], [6.2971396, 49.5729824], [6.2972422, 49.5729902], [6.2973958, 49.5724358], [6.2975951, 49.5717471], [6.2977853, 49.5710992], [6.2978319, 49.5709466], [6.2976526, 49.570842], [6.297571, 49.5708003], [6.2973634, 49.5707274], [6.297119, 49.5706516], [6.2968453, 49.5705845], [6.296422, 49.5705027], [6.2960946, 49.5704527], [6.2959347, 49.5704349], [6.2958225, 49.5703998], [6.2956764, 49.570343], [6.295383, 49.5702109], [6.2951277, 49.5700859], [6.2948837, 49.5699489], [6.2946097, 49.5697564], [6.2944727, 49.5696369], [6.2942267, 49.5693669], [6.2941068, 49.569208], [6.2939864, 49.5689821], [6.2938816, 49.5687484], [6.2938273, 49.5685651], [6.2938054, 49.5683882], [6.2937879, 49.5681792], [6.2938013, 49.5680211], [6.2938606, 49.5677869], [6.2939445, 49.5675645], [6.2940636, 49.5672697], [6.2940909, 49.5671557], [6.2941089, 49.5670396], [6.2940928, 49.5668186], [6.2940404, 49.5666798], [6.2939996, 49.5666351], [6.2940411, 49.5663721], [6.2940533, 49.5662209], [6.2940473, 49.5660565], [6.2940049, 49.5659698], [6.2939104, 49.5657913], [6.293834, 49.565601], [6.2938156, 49.5655197], [6.2938182, 49.5654503], [6.2938364, 49.5654128], [6.2936537, 49.5651391], [6.2936182, 49.5649476], [6.2935793, 49.5647139], [6.2935179, 49.5644198], [6.2934604, 49.5641119], [6.2934054, 49.5641207], [6.2933546, 49.5641266], [6.2933213, 49.5641248], [6.2932681, 49.5641179], [6.2931758, 49.5640992], [6.2930139, 49.564057], [6.2928187, 49.5639978], [6.2927845, 49.5639799], [6.2927406, 49.5639711], [6.2926453, 49.5639799], [6.292602, 49.5639864], [6.2925793, 49.5639934], [6.292428, 49.5640782], [6.2922663, 49.5641708], [6.2921772, 49.5642458], [6.2920815, 49.5643294], [6.2919058, 49.5644727], [6.2918327, 49.5645187], [6.2917534, 49.5645615], [6.2916066, 49.5646296], [6.2911257, 49.5648454], [6.2908419, 49.5649769], [6.2906081, 49.5650931], [6.2905988, 49.5650855], [6.2905159, 49.5650036], [6.2903414, 49.5650558], [6.2901655, 49.5651017], [6.2900893, 49.5651183], [6.2899988, 49.565131], [6.2899398, 49.5651379], [6.2898709, 49.5651418], [6.2897938, 49.565139], [6.2897364, 49.565125], [6.2896996, 49.5651109], [6.2896381, 49.5650823], [6.2894782, 49.5649901], [6.2893151, 49.5651225], [6.2887931, 49.5648374], [6.2884437, 49.5646592], [6.28834, 49.5647442], [6.2882643, 49.5648063], [6.2882162, 49.5648457], [6.2879657, 49.5647328], [6.2879444, 49.564779], [6.2879333, 49.5648033], [6.28789, 49.5648971], [6.2878636, 49.5649545], [6.2878491, 49.564986], [6.2878367, 49.5650118], [6.2878157, 49.5650552], [6.2877932, 49.5651019], [6.2877693, 49.5651512], [6.2877469, 49.5651977], [6.287728, 49.5652368], [6.2877144, 49.565265], [6.2876993, 49.5652924], [6.2876664, 49.5653522], [6.287632, 49.5654145], [6.2874863, 49.5656166], [6.2873308, 49.5657779], [6.2873092, 49.5658003], [6.2871514, 49.5659121], [6.2869505, 49.5660267], [6.2866966, 49.5661483], [6.2865115, 49.5662305], [6.2862706, 49.5663228], [6.2861626, 49.5662116], [6.2860898, 49.566136], [6.2860634, 49.5661086], [6.2860053, 49.5660483], [6.2859297, 49.5659734], [6.2859154, 49.5659593], [6.2858415, 49.5658859], [6.2856578, 49.5659034], [6.2855643, 49.5659061], [6.2854369, 49.5658929], [6.2853276, 49.5658765], [6.2852591, 49.5658586], [6.2851271, 49.565824], [6.2850628, 49.5658027], [6.284929, 49.5657584], [6.2848595, 49.5657353], [6.2847573, 49.5657014], [6.2846706, 49.5656731], [6.2846502, 49.5656665], [6.2845057, 49.5656193], [6.2844652, 49.5656066], [6.2843844, 49.5655814], [6.2843205, 49.5655614], [6.2841819, 49.565518], [6.2841709, 49.5655147], [6.2840568, 49.5654807], [6.2839644, 49.5654531], [6.2839479, 49.5654482], [6.2838027, 49.5654054], [6.2837673, 49.565395], [6.2836974, 49.5653722], [6.2835731, 49.565348], [6.2834899, 49.5653318], [6.2833829, 49.5653109], [6.2833275, 49.5653], [6.2827804, 49.5651922], [6.2825696, 49.5651507], [6.2825654, 49.565158], [6.2825133, 49.5652473], [6.2821046, 49.5651379], [6.2819385, 49.5650842], [6.28174, 49.5650122], [6.2815429, 49.564936], [6.2813014, 49.5648316], [6.2810564, 49.5647162], [6.2808147, 49.5645977], [6.2805316, 49.5644475], [6.279824, 49.5641043], [6.2798707, 49.5640383], [6.2798858, 49.5640169], [6.2799529, 49.5639219], [6.2794206, 49.5638265], [6.2790522, 49.5637684], [6.2788457, 49.5637379], [6.278764, 49.563723], [6.2786847, 49.563705], [6.2786193, 49.5636901], [6.2785859, 49.5636825], [6.2784081, 49.5636371], [6.2782887, 49.5636038], [6.2781743, 49.5635719], [6.2780141, 49.5635264], [6.2779389, 49.5635032], [6.2778768, 49.5634841], [6.2777524, 49.5634435], [6.2780581, 49.5630642], [6.2780754, 49.5630427], [6.2781034, 49.5630079], [6.2781442, 49.5629574], [6.2781804, 49.5629123], [6.2776138, 49.5627205], [6.2769103, 49.5624904], [6.2767739, 49.5625553], [6.2766316, 49.562623], [6.2765744, 49.5626502], [6.2765084, 49.5626844], [6.2762816, 49.5628021], [6.2759133, 49.5627115], [6.2758825, 49.5627039], [6.2755896, 49.5626266], [6.2755501, 49.5626162], [6.275479, 49.5625949], [6.2751842, 49.5625068], [6.27507, 49.5624727], [6.2749615, 49.5624395], [6.2748054, 49.5623917], [6.2746532, 49.5623451], [6.2745655, 49.5624442], [6.2744568, 49.5625656], [6.2743209, 49.5627022], [6.274211, 49.5628005], [6.2740415, 49.5629334], [6.2738975, 49.563033], [6.2737791, 49.563109], [6.273643, 49.5631906], [6.2736244, 49.5632017], [6.273314, 49.5633764], [6.273227, 49.5633007], [6.2731308, 49.5632169], [6.2729209, 49.5630341], [6.2728891, 49.5630064], [6.2725052, 49.5631511], [6.2722424, 49.56325], [6.2721105, 49.5632998], [6.2716953, 49.5631912], [6.2713415, 49.5630968], [6.2710124, 49.563009], [6.2705764, 49.5628947], [6.2694861, 49.5626245], [6.2688855, 49.5624971], [6.2688856, 49.5625142], [6.2688861, 49.5625881], [6.2688915, 49.5627751], [6.2688917, 49.5629014], [6.2688919, 49.5630044], [6.2688921, 49.5630621], [6.2688982, 49.5632444], [6.2689026, 49.563375], [6.268903, 49.5633997], [6.2689051, 49.5635151], [6.2689097, 49.5637689], [6.2689109, 49.5638389], [6.26892, 49.5641386], [6.2689213, 49.5641825], [6.268922, 49.56424], [6.2689228, 49.5642995], [6.268925, 49.5644781], [6.2686112, 49.5645462], [6.2676101, 49.5647164], [6.2666323, 49.5649722], [6.2658229, 49.5651839], [6.2653656, 49.5653035], [6.265293, 49.5653225], [6.2650409, 49.5653884], [6.2646864, 49.5654777], [6.2642418, 49.5655898], [6.2637311, 49.5657854], [6.2634287, 49.5659012], [6.2630548, 49.5660444], [6.2627646, 49.5661965], [6.2625584, 49.5663046], [6.2621432, 49.5665222], [6.261753, 49.5667268], [6.2616083, 49.5668075], [6.2611127, 49.5670841], [6.2605981, 49.5673011], [6.25981, 49.5675895], [6.2593131, 49.5677244], [6.2587431, 49.5678791], [6.2585864, 49.5679217], [6.2581641, 49.56803], [6.2575789, 49.5681801], [6.2572268, 49.5682704], [6.2565992, 49.5684291], [6.2557994, 49.5685837], [6.2551295, 49.5686256], [6.2547314, 49.5686409], [6.2545056, 49.5686401], [6.2540661, 49.5686385], [6.2539717, 49.5686382], [6.2539096, 49.5686406], [6.2538523, 49.5686422], [6.253775, 49.5686451]]]}}]}