{"type": "FeatureCollection", "features": [{"type": "Feature", "properties": {"name": "Bavigne"}, "geometry": {"type": "Polygon", "coordinates": [[[5.8573458, 49.9068234], [5.8567578, 49.9073391], [5.8561719, 49.9075276], [5.8557588, 49.9075898], [5.8546412, 49.9075657], [5.8535267, 49.9075904], [5.8535222, 49.9076638], [5.8534579, 49.9077492], [5.8533023, 49.9077928], [5.8529951, 49.9078483], [5.8527675, 49.9079186], [5.8525196, 49.9080525], [5.8522603, 49.9080958], [5.8518051, 49.9082315], [5.851653, 49.9083339], [5.8515884, 49.9084609], [5.85151, 49.9085695], [5.8513062, 49.9086619], [5.8507955, 49.9087559], [5.850524, 49.9088433], [5.8504276, 49.908958], [5.8503929, 49.9090888], [5.8503356, 49.9093234], [5.8503874, 49.909326], [5.8503872, 49.9093529], [5.850423, 49.9093604], [5.8503262, 49.9095313], [5.8501903, 49.9095995], [5.850186, 49.9096459], [5.849731, 49.9097597], [5.8494238, 49.9098175], [5.8491328, 49.909829], [5.8487704, 49.9098011], [5.84838, 49.909778], [5.8479815, 49.9097818], [5.8472364, 49.909753], [5.8470236, 49.909744], [5.8466882, 49.9097298], [5.8465905, 49.9097259], [5.8464692, 49.9097211], [5.8463785, 49.9097219], [5.846273, 49.9097388], [5.8461296, 49.9097556], [5.8460685, 49.9097626], [5.8459458, 49.9097768], [5.845896, 49.9097846], [5.8458006, 49.9097997], [5.845666, 49.9098299], [5.8456093, 49.9098426], [5.8453782, 49.9099117], [5.8453022, 49.9099409], [5.8452395, 49.9099538], [5.8451391, 49.9099505], [5.8450279, 49.9099416], [5.8448469, 49.9099098], [5.844666, 49.9098648], [5.8443175, 49.9097546], [5.8441302, 49.9096863], [5.8439881, 49.9096197], [5.8438757, 49.9095572], [5.8437919, 49.9095256], [5.8436505, 49.9094928], [5.8435572, 49.9094749], [5.8434103, 49.9094467], [5.8432913, 49.9094209], [5.8432048, 49.9094022], [5.8430147, 49.9093611], [5.8428468, 49.9093169], [5.8427894, 49.9093018], [5.8424968, 49.909213], [5.8426121, 49.9090864], [5.8423512, 49.9090559], [5.8420977, 49.9090218], [5.8419439, 49.9090033], [5.8419167, 49.909], [5.8417884, 49.9089663], [5.8416929, 49.9089519], [5.8415504, 49.908954], [5.8413577, 49.9089585], [5.8410941, 49.9089538], [5.8408438, 49.908946], [5.8408695, 49.909048], [5.840876, 49.9090563], [5.8406376, 49.9091077], [5.8403308, 49.9091756], [5.8398886, 49.9092836], [5.8397145, 49.9093271], [5.8395973, 49.9093631], [5.8395426, 49.9094105], [5.8394943, 49.9094893], [5.8394779, 49.9095075], [5.8394661, 49.9095205], [5.8394281, 49.9095336], [5.839382, 49.9095365], [5.8393227, 49.9095282], [5.8392717, 49.909522], [5.8392436, 49.909531], [5.8392155, 49.9095552], [5.8391855, 49.9096037], [5.8391613, 49.9096435], [5.8391183, 49.9096748], [5.8390175, 49.909723], [5.8389118, 49.9097622], [5.8387781, 49.9097972], [5.8386939, 49.9098202], [5.8386493, 49.9098484], [5.8385913, 49.9098917], [5.8385525, 49.9099113], [5.8385162, 49.9099163], [5.8384717, 49.9099121], [5.838429, 49.9098968], [5.838378, 49.9098825], [5.8382908, 49.9098701], [5.8382167, 49.9098709], [5.8381327, 49.9098717], [5.838047, 49.9098644], [5.8379582, 49.909852], [5.837889, 49.9098518], [5.8378214, 49.9098637], [5.8377438, 49.9098837], [5.8376786, 49.9099023], [5.8376358, 49.9099072], [5.8375913, 49.9099071], [5.8375271, 49.9098937], [5.8374416, 49.9098692], [5.8373857, 49.909861], [5.837328, 49.9098639], [5.8372193, 49.9098676], [5.8371171, 49.9098663], [5.8370265, 49.909865], [5.8369474, 49.9098769], [5.8368962, 49.909895], [5.8368648, 49.9099131], [5.8367954, 49.9099412], [5.8367228, 49.9099612], [5.8366551, 49.9099843], [5.836575, 49.9100078], [5.8364909, 49.9100228], [5.8364019, 49.9100326], [5.8363128, 49.9100496], [5.8362632, 49.9100686], [5.8362384, 49.9100858], [5.8362085, 49.9101281], [5.8361935, 49.9101534], [5.8361637, 49.9101715], [5.8361157, 49.9101987], [5.8360727, 49.9102258], [5.8360316, 49.9102542], [5.8360222, 49.9102606], [5.835971, 49.9102888], [5.8359264, 49.9103008], [5.8358769, 49.9103087], [5.8358406, 49.9103197], [5.835824, 49.9103369], [5.8358039, 49.9103955], [5.8357772, 49.9104358], [5.8357425, 49.910457], [5.8356864, 49.910475], [5.8356038, 49.9105011], [5.8355624, 49.9105303], [5.8355276, 49.9105696], [5.8355067, 49.9106156], [5.8354883, 49.9106499], [5.8354618, 49.910665], [5.8354123, 49.9106841], [5.8353726, 49.9107072], [5.835341, 49.9107446], [5.8353045, 49.9107809], [5.8352483, 49.9108161], [5.8351374, 49.9108866], [5.8350548, 49.9109268], [5.8349977, 49.9109398], [5.8349805, 49.9109438], [5.8348914, 49.9109708], [5.8347809, 49.9109907], [5.834682, 49.9109985], [5.8350293, 49.9115193], [5.8351036, 49.9116191], [5.8351444, 49.9116698], [5.8353261, 49.9118941], [5.8353903, 49.9119734], [5.8355049, 49.9120789], [5.835572, 49.9121448], [5.8355825, 49.9121706], [5.8356124, 49.9123689], [5.8356409, 49.9126557], [5.8357035, 49.9133247], [5.8357063, 49.9133443], [5.8354643, 49.9133274], [5.8347959, 49.9132527], [5.8345604, 49.9132379], [5.8343389, 49.9132307], [5.8337557, 49.9132341], [5.8333182, 49.9132434], [5.8330876, 49.9132397], [5.8329493, 49.9132241], [5.8328735, 49.913232], [5.8326508, 49.9132799], [5.8321287, 49.9133689], [5.8318879, 49.9134087], [5.8317989, 49.9134155], [5.8317248, 49.9134112], [5.831561, 49.9134012], [5.8314406, 49.9134089], [5.8312064, 49.9134537], [5.831058, 49.9134695], [5.8309147, 49.913468], [5.8306735, 49.9134476], [5.8303921, 49.9134064], [5.8302111, 49.9133735], [5.8300121, 49.9133213], [5.8298108, 49.9132495], [5.8295331, 49.9131425], [5.8293424, 49.9130833], [5.8290259, 49.9129969], [5.8288303, 49.9129366], [5.8284918, 49.9128082], [5.8282831, 49.9127378], [5.8280817, 49.9126791], [5.8274238, 49.9125184], [5.8271813, 49.9124575], [5.8267883, 49.9123532], [5.8264593, 49.9122885], [5.8262, 49.9122549], [5.8258988, 49.9122197], [5.8256897, 49.9121988], [5.8254798, 49.9121785], [5.8252229, 49.9121625], [5.8251142, 49.9121622], [5.8250285, 49.912165], [5.8250193, 49.9121825], [5.824954, 49.912291], [5.8247976, 49.9125511], [5.824776, 49.9125875], [5.8246565, 49.9127635], [5.824577, 49.9128807], [5.8244048, 49.9131163], [5.8242768, 49.9132777], [5.8241796, 49.9134003], [5.824027, 49.9135676], [5.8239671, 49.9136333], [5.8239471, 49.9136646], [5.8241612, 49.913785], [5.8245138, 49.9140207], [5.824484, 49.9140327], [5.8243207, 49.9140666], [5.8239567, 49.9140514], [5.8239529, 49.9141282], [5.8239515, 49.9142005], [5.8239974, 49.914232], [5.8240465, 49.9142797], [5.8241052, 49.9143638], [5.8241254, 49.9143984], [5.8241573, 49.9144529], [5.824209, 49.9144869], [5.8242377, 49.9145058], [5.8242834, 49.9145575], [5.824312, 49.9145995], [5.8243542, 49.9146836], [5.8243735, 49.9147544], [5.8243731, 49.9147979], [5.8243671, 49.9148429], [5.8243165, 49.9149975], [5.8244253, 49.9149988], [5.8244256, 49.9150701], [5.8244179, 49.9151291], [5.8244029, 49.915243], [5.8243975, 49.9153168], [5.8243932, 49.9153315], [5.8243764, 49.915389], [5.8243163, 49.915496], [5.8243657, 49.9154952], [5.8243691, 49.9157156], [5.8241184, 49.9157604], [5.8239583, 49.9157923], [5.8235127, 49.9159222], [5.8233345, 49.9159741], [5.8233161, 49.9159795], [5.8230662, 49.9160509], [5.8229942, 49.9160715], [5.8227664, 49.9161356], [5.8226673, 49.9161596], [5.8225783, 49.9161745], [5.822453, 49.9161812], [5.8223146, 49.9161767], [5.822136, 49.9161605], [5.8219468, 49.9161286], [5.8218579, 49.9161132], [5.8217115, 49.9160854], [5.8215537, 49.9160374], [5.8214353, 49.9159997], [5.8210743, 49.9159152], [5.8209427, 49.9158763], [5.8208032, 49.9158102], [5.8202656, 49.9155371], [5.8203907, 49.9157425], [5.8199469, 49.9158628], [5.8197752, 49.9159089], [5.8193866, 49.915992], [5.8191771, 49.9160399], [5.8190847, 49.9160568], [5.8190302, 49.9160678], [5.8185851, 49.9159921], [5.818598, 49.9158091], [5.8185994, 49.9157529], [5.8186032, 49.9156064], [5.8186048, 49.9155447], [5.8186059, 49.9155022], [5.818601, 49.915389], [5.8185967, 49.9152934], [5.8185926, 49.9151801], [5.8185721, 49.9151062], [5.8185613, 49.9150673], [5.8185502, 49.9150256], [5.8185276, 49.9149408], [5.8184593, 49.9148121], [5.8184335, 49.9147697], [5.818369, 49.9146637], [5.8181124, 49.9142579], [5.8179273, 49.9142469], [5.81783, 49.914241], [5.8175064, 49.9142217], [5.817158, 49.9142151], [5.8166781, 49.9142824], [5.816503, 49.9143043], [5.8164052, 49.9143165], [5.8162373, 49.9143301], [5.8161645, 49.914336], [5.8162926, 49.9145635], [5.8163421, 49.9146516], [5.8163979, 49.9147508], [5.8164909, 49.9149115], [5.8165501, 49.9150137], [5.8166616, 49.9151981], [5.8166783, 49.9152258], [5.8167593, 49.9153596], [5.8168789, 49.9155345], [5.8169029, 49.9155696], [5.8169753, 49.9156753], [5.8171187, 49.9158889], [5.8172133, 49.91603], [5.8173327, 49.9162225], [5.8173729, 49.9162873], [5.8174104, 49.9163572], [5.8174956, 49.9165157], [5.8172015, 49.9165059], [5.8171299, 49.9165035], [5.817062, 49.9164961], [5.8170065, 49.91649], [5.8169488, 49.9164817], [5.8168942, 49.9164719], [5.8167525, 49.9164465], [5.816665, 49.9164308], [5.8166173, 49.9164227], [5.8163244, 49.9163731], [5.816074, 49.9163193], [5.8159685, 49.9164888], [5.8157301, 49.9164102], [5.8155132, 49.9163387], [5.8153639, 49.9162893], [5.8152881, 49.9162642], [5.8151484, 49.9162163], [5.8150093, 49.9161901], [5.8145059, 49.9160935], [5.8142147, 49.916036], [5.8141703, 49.9160288], [5.8141357, 49.9160175], [5.8140184, 49.915954], [5.8139299, 49.915895], [5.8137316, 49.9157508], [5.813685, 49.9157057], [5.8135672, 49.915587], [5.8134577, 49.9154653], [5.8133472, 49.9153624], [5.8131573, 49.915206], [5.8130503, 49.9157574], [5.8129839, 49.9161521], [5.8129532, 49.9163273], [5.8129418, 49.9163921], [5.8127843, 49.9163046], [5.8126183, 49.9164736], [5.8125976, 49.9164947], [5.8124174, 49.916709], [5.8123881, 49.9167438], [5.8124924, 49.9167902], [5.8125706, 49.9168156], [5.812609, 49.9168281], [5.812762, 49.916878], [5.8130289, 49.9169905], [5.8130639, 49.9170053], [5.8131213, 49.9170294], [5.8132186, 49.9170705], [5.813302, 49.9171041], [5.813333, 49.9171166], [5.8133738, 49.9171331], [5.8134774, 49.9171608], [5.8136782, 49.9171978], [5.8139579, 49.9172431], [5.8139235, 49.9173366], [5.8138866, 49.9174163], [5.8138216, 49.9175183], [5.8136793, 49.9177267], [5.8136109, 49.9178377], [5.8135289, 49.9180023], [5.8135013, 49.9180715], [5.8134708, 49.9181776], [5.8134546, 49.9182589], [5.813426, 49.9183407], [5.813381, 49.9184094], [5.8132611, 49.9185809], [5.813182, 49.9186904], [5.8129014, 49.9190246], [5.8128488, 49.9190873], [5.8129801, 49.9191051], [5.8130772, 49.9191162], [5.8132728, 49.9191393], [5.8133832, 49.9191459], [5.8134528, 49.919143], [5.8135141, 49.9191377], [5.8135742, 49.9191247], [5.8136032, 49.9191093], [5.8136334, 49.9190784], [5.8136673, 49.9190459], [5.8136817, 49.9190405], [5.8137021, 49.9190429], [5.8137356, 49.9190612], [5.8137799, 49.9190815], [5.8138147, 49.9190878], [5.8138615, 49.919088], [5.8139913, 49.9190736], [5.814222, 49.9190418], [5.8143002, 49.9190226], [5.8143424, 49.9190026], [5.8143653, 49.9189883], [5.814422, 49.9189481], [5.8145017, 49.9188925], [5.8145366, 49.9188756], [5.8146064, 49.918858], [5.8146929, 49.9188419], [5.8147602, 49.9188383], [5.814824, 49.9188443], [5.814861, 49.9188479], [5.8149677, 49.9188653], [5.81508, 49.9187741], [5.8152612, 49.9187882], [5.8154608, 49.9190812], [5.8156463, 49.9190235], [5.8157242, 49.9189993], [5.8158784, 49.9189514], [5.8159193, 49.918938], [5.8159747, 49.9189071], [5.8160852, 49.9188394], [5.8161456, 49.9188024], [5.8161761, 49.9187836], [5.8162485, 49.9187427], [5.8162803, 49.9187275], [5.8163678, 49.9186857], [5.8164304, 49.9186603], [5.8165278, 49.9186416], [5.8167392, 49.918609], [5.8168042, 49.918599], [5.8168783, 49.9185872], [5.8169148, 49.9185815], [5.8170147, 49.9185546], [5.8172565, 49.9184832], [5.817319, 49.9184646], [5.8173965, 49.9184415], [5.8174587, 49.9184229], [5.8175032, 49.9184091], [5.8176214, 49.9183358], [5.8176937, 49.918291], [5.8177733, 49.9182517], [5.8178407, 49.9182314], [5.817902, 49.918216], [5.8179511, 49.9182129], [5.8180077, 49.9182094], [5.8181554, 49.9182052], [5.818275, 49.9182087], [5.8183859, 49.9182121], [5.8185395, 49.9182218], [5.8186679, 49.9182342], [5.818747, 49.9182515], [5.8187913, 49.9182711], [5.8188163, 49.9182905], [5.8188329, 49.9183208], [5.8188326, 49.918365], [5.8188043, 49.9184642], [5.8187822, 49.9185293], [5.8187603, 49.9185908], [5.8187479, 49.9186258], [5.8186977, 49.9187575], [5.8186732, 49.9188183], [5.8186598, 49.9188555], [5.8186597, 49.918871], [5.8186692, 49.9188842], [5.8186799, 49.9188982], [5.8187078, 49.9188587], [5.8187985, 49.9187667], [5.8189808, 49.9186238], [5.8190303, 49.9185894], [5.819093, 49.9185477], [5.8191666, 49.9185045], [5.8192353, 49.9184597], [5.8192607, 49.9184357], [5.8192765, 49.9184071], [5.8194242, 49.9184108], [5.8195466, 49.9184205], [5.8196606, 49.9184402], [5.8197528, 49.918468], [5.8197876, 49.9184689], [5.8199137, 49.9184685], [5.8201201, 49.9184738], [5.8204922, 49.9184931], [5.820827, 49.9185182], [5.8210417, 49.9185421], [5.8212025, 49.918565], [5.8214435, 49.9186127], [5.8214346, 49.9186724], [5.8214429, 49.9186941], [5.8214512, 49.9187], [5.8214931, 49.9187241], [5.8215661, 49.9187538], [5.8216104, 49.9187687], [5.8216523, 49.9187851], [5.8216834, 49.9188077], [5.821712, 49.9188373], [5.8217477, 49.9188886], [5.8217678, 49.9189305], [5.821804, 49.9190687], [5.8218321, 49.9191692], [5.8218652, 49.9192476], [5.8218905, 49.9191988], [5.8219626, 49.9190602], [5.8220099, 49.9189902], [5.8220498, 49.9189461], [5.8220715, 49.9189314], [5.8220956, 49.9189214], [5.8221116, 49.9190374], [5.8221395, 49.9191662], [5.8221749, 49.9192594], [5.8221852, 49.9192801], [5.8222495, 49.9194086], [5.8223584, 49.919628], [5.8224164, 49.9197356], [5.8224605, 49.9197861], [5.8226082, 49.9199526], [5.8228822, 49.9202547], [5.8229811, 49.9203663], [5.823737, 49.9202665], [5.8238023, 49.9202821], [5.8239816, 49.9203248], [5.8241589, 49.9203671], [5.82451, 49.9204763], [5.8245134, 49.9204785], [5.824559, 49.9205075], [5.8247499, 49.920667], [5.8249003, 49.9208028], [5.8251525, 49.9211235], [5.8251787, 49.9211655], [5.8251111, 49.921211], [5.8252559, 49.9212727], [5.8251125, 49.9215286], [5.8248977, 49.9219012], [5.824879, 49.9219336], [5.8248674, 49.9220468], [5.8248204, 49.9225012], [5.8249565, 49.922527], [5.8250232, 49.9225397], [5.824994, 49.9226442], [5.8249717, 49.9227241], [5.8250198, 49.9227834], [5.8251123, 49.9228974], [5.8251776, 49.9229778], [5.8252092, 49.9230168], [5.8253286, 49.9231639], [5.8257069, 49.9236152], [5.8258744, 49.9238151], [5.8259222, 49.9238737], [5.8262653, 49.9242948], [5.8262666, 49.9242964], [5.8263808, 49.9244365], [5.8263857, 49.9244421], [5.8266224, 49.9247139], [5.8267211, 49.9248273], [5.8267602, 49.9248722], [5.8267898, 49.9249061], [5.827015, 49.9251623], [5.8273255, 49.9255156], [5.8273671, 49.9255629], [5.8277474, 49.9259513], [5.8278911, 49.9260552], [5.8283141, 49.9263349], [5.8284922, 49.9264486], [5.8286701, 49.9265621], [5.8289621, 49.9267485], [5.8293642, 49.9270309], [5.8295179, 49.9270172], [5.8295694, 49.9270126], [5.8296361, 49.9270533], [5.8297218, 49.9270792], [5.8297774, 49.9270923], [5.8298172, 49.9271033], [5.8299265, 49.9271414], [5.8299884, 49.9271706], [5.8300245, 49.9271876], [5.8300754, 49.9272208], [5.8301162, 49.9272474], [5.8301976, 49.9272868], [5.8302622, 49.9273276], [5.8303039, 49.927348], [5.8303644, 49.9273698], [5.8304041, 49.9273875], [5.8304228, 49.9274064], [5.8304184, 49.9274294], [5.8304414, 49.9274457], [5.8305291, 49.9274757], [5.8306587, 49.9275045], [5.8307213, 49.9275303], [5.8307713, 49.9275629], [5.8308025, 49.9275819], [5.8308548, 49.9275902], [5.8309155, 49.9275958], [5.8309427, 49.9276019], [5.830978, 49.9276291], [5.8310008, 49.9276643], [5.8310154, 49.9276765], [5.8311281, 49.9277296], [5.8312053, 49.9277622], [5.8312761, 49.9278098], [5.831286, 49.9278173], [5.831324, 49.9278464], [5.8313679, 49.9278614], [5.8314034, 49.9278737], [5.8314304, 49.9278994], [5.8314532, 49.9279374], [5.8314698, 49.9279583], [5.8314822, 49.927974], [5.8315385, 49.928012], [5.8316219, 49.9280521], [5.8317495, 49.9281267], [5.8317911, 49.9281538], [5.8318014, 49.9281836], [5.8317843, 49.9282376], [5.8317483, 49.9282943], [5.8316895, 49.9283239], [5.8315719, 49.9283763], [5.8314608, 49.9284016], [5.8313287, 49.9284229], [5.8312992, 49.9284237], [5.8312161, 49.9284114], [5.8311454, 49.9284055], [5.8311082, 49.9284088], [5.8310586, 49.9284212], [5.83097, 49.9284461], [5.8309239, 49.9284585], [5.8308461, 49.9284674], [5.830685, 49.9284772], [5.8305665, 49.9284883], [5.8304602, 49.9285052], [5.8303716, 49.9285255], [5.8302066, 49.9285663], [5.8300579, 49.9286143], [5.8299674, 49.9286473], [5.8298843, 49.928678], [5.829792, 49.928698], [5.8296943, 49.9287096], [5.8296004, 49.92871], [5.8294875, 49.9286991], [5.8293734, 49.9286953], [5.8293709, 49.9286953], [5.8292568, 49.9286989], [5.8291438, 49.9287096], [5.8291413, 49.9287099], [5.8290699, 49.9287238], [5.8290021, 49.9287436], [5.8289361, 49.9287648], [5.8288682, 49.9287832], [5.8288354, 49.9287894], [5.8288021, 49.9287944], [5.8287689, 49.9287998], [5.8287367, 49.9288076], [5.8286981, 49.9288223], [5.8286628, 49.9288401], [5.8286269, 49.9288576], [5.8285873, 49.9288715], [5.8285296, 49.9288816], [5.8284702, 49.9288854], [5.8284333, 49.9288846], [5.8283967, 49.9288814], [5.8283601, 49.9288782], [5.8283232, 49.9288776], [5.828281, 49.9288812], [5.8282396, 49.9288874], [5.8281986, 49.9288942], [5.8281571, 49.9288995], [5.828118, 49.9289025], [5.8280788, 49.9289043], [5.8280397, 49.9289062], [5.8280006, 49.9289091], [5.8279236, 49.928918], [5.8278476, 49.9289299], [5.827812, 49.9289374], [5.827777, 49.928946], [5.827742, 49.9289546], [5.8277064, 49.9289621], [5.8276656, 49.9289692], [5.8276239, 49.9289734], [5.8275852, 49.9289724], [5.827547, 49.9289685], [5.8275088, 49.9289645], [5.8274702, 49.9289634], [5.8274415, 49.9289656], [5.8274133, 49.9289696], [5.8273855, 49.9289741], [5.8273574, 49.928978], [5.8271341, 49.9290009], [5.8269099, 49.92902], [5.8268068, 49.9290217], [5.8266816, 49.9290195], [5.8265197, 49.9290274], [5.8264052, 49.929033], [5.8261993, 49.9290364], [5.8261823, 49.9290364], [5.8261493, 49.9290357], [5.8260738, 49.929034], [5.8259687, 49.9290317], [5.8256608, 49.9290228], [5.8254968, 49.9290173], [5.8254638, 49.9290164], [5.8254125, 49.9290014], [5.8253607, 49.9289923], [5.8252787, 49.92899], [5.8252103, 49.9289923], [5.8251395, 49.9290026], [5.8250447, 49.9290218], [5.8250195, 49.9290258], [5.8249351, 49.9290165], [5.8247418, 49.9289948], [5.8247299, 49.9290501], [5.8247921, 49.9290636], [5.8248679, 49.9290827], [5.8249453, 49.9290998], [5.8250434, 49.9291117], [5.8251308, 49.9291222], [5.8252164, 49.9291356], [5.8252875, 49.9291534], [5.8253916, 49.9291846], [5.8254652, 49.9292125], [5.8255256, 49.9292303], [5.8256113, 49.9292391], [5.8255562, 49.9294652], [5.8254998, 49.9296964], [5.8255074, 49.9297583], [5.8254706, 49.930023], [5.8254467, 49.9301947], [5.8254206, 49.9303821], [5.8253475, 49.9309077], [5.8253369, 49.9310834], [5.8253336, 49.9311364], [5.8253307, 49.9311842], [5.8253253, 49.9313785], [5.8263524, 49.9314882], [5.8273915, 49.9316254], [5.8287842, 49.9316918], [5.8284882, 49.9320595], [5.8283458, 49.9322364], [5.829071, 49.9326268], [5.8295385, 49.9327783], [5.8295682, 49.9327869], [5.8296279, 49.9328042], [5.8296724, 49.932817], [5.8297315, 49.9328341], [5.8300293, 49.9329201], [5.8303989, 49.9329664], [5.8302859, 49.9331846], [5.8303702, 49.9333077], [5.830289, 49.9335961], [5.8302609, 49.9337343], [5.8302853, 49.9338252], [5.8301528, 49.9339566], [5.830305, 49.9340678], [5.8301038, 49.934212], [5.8299043, 49.9342447], [5.8296925, 49.9342248], [5.8295278, 49.9342791], [5.8291587, 49.934264], [5.8289532, 49.9342583], [5.8288019, 49.9342459], [5.8287228, 49.9342395], [5.8286154, 49.9344299], [5.8285907, 49.9344315], [5.8283059, 49.9344857], [5.8281719, 49.9345112], [5.8281531, 49.9345148], [5.8279516, 49.9345445], [5.8278848, 49.9345543], [5.8278151, 49.9345646], [5.8278129, 49.9345649], [5.8276284, 49.9345834], [5.8274855, 49.9346016], [5.827327, 49.9346371], [5.8271794, 49.9346726], [5.8271787, 49.9346728], [5.8271311, 49.9346843], [5.8269935, 49.9347154], [5.8269039, 49.9347357], [5.8267035, 49.9347759], [5.8266908, 49.9347784], [5.8265807, 49.9348], [5.8265255, 49.9348109], [5.8263889, 49.9348447], [5.8262712, 49.9348797], [5.8261694, 49.9349193], [5.8261984, 49.9349478], [5.8262233, 49.9349723], [5.8266476, 49.935389], [5.8267767, 49.9355352], [5.8270124, 49.935821], [5.8271255, 49.935967], [5.8272689, 49.9361521], [5.8276404, 49.9365387], [5.8278693, 49.9367383], [5.8280448, 49.9368582], [5.8285378, 49.9371976], [5.8289018, 49.9373881], [5.8289438, 49.93741], [5.828861, 49.9374247], [5.8286693, 49.9374505], [5.8284781, 49.9374747], [5.8282398, 49.9374993], [5.8280656, 49.9375217], [5.8278659, 49.9375517], [5.8277125, 49.9375747], [5.8276793, 49.9375797], [5.8274827, 49.9376081], [5.8274378, 49.9376145], [5.8273187, 49.937631], [5.827271, 49.9376374], [5.8271405, 49.9376619], [5.8271841, 49.9376935], [5.8267527, 49.9378072], [5.8266198, 49.9379294], [5.8265195, 49.9380216], [5.8264183, 49.9381146], [5.8263119, 49.93832], [5.8262294, 49.9384033], [5.8262253, 49.9384254], [5.8261985, 49.938487], [5.8261645, 49.9385461], [5.8261416, 49.9385859], [5.826091, 49.938657], [5.8260842, 49.9386653], [5.8260246, 49.938738], [5.8259589, 49.9388028], [5.8258732, 49.9388832], [5.8258403, 49.9389128], [5.8258073, 49.9389424], [5.8258008, 49.9389483], [5.8257045, 49.9390374], [5.8256082, 49.9391301], [5.8254897, 49.9392502], [5.825427, 49.9393153], [5.8253383, 49.9394008], [5.8253309, 49.9394079], [5.8253173, 49.9394218], [5.8252276, 49.9395135], [5.8251997, 49.9395438], [5.8251635, 49.939583], [5.8251338, 49.9396152], [5.8251616, 49.9396279], [5.8251894, 49.9396406], [5.8256322, 49.9398424], [5.8258029, 49.9399487], [5.8266375, 49.9403096], [5.8266596, 49.9403192], [5.8266754, 49.940326], [5.826696, 49.940335], [5.8268081, 49.9403834], [5.8270291, 49.9404302], [5.8279174, 49.9406307], [5.8279481, 49.9406374], [5.8286353, 49.9407873], [5.829154, 49.9409334], [5.8292285, 49.9410466], [5.8292455, 49.9410724], [5.8292512, 49.9410813], [5.8297558, 49.9413402], [5.8300728, 49.9415028], [5.8303926, 49.9416498], [5.8313359, 49.9420547], [5.832046, 49.9422523], [5.8320614, 49.9422566], [5.8320931, 49.9422654], [5.8320788, 49.9423156], [5.8321208, 49.9423257], [5.8321886, 49.942342], [5.8322557, 49.9423582], [5.8322049, 49.9425093], [5.8321873, 49.9425617], [5.8324633, 49.9424422], [5.8325127, 49.9424319], [5.8325398, 49.9423704], [5.8325718, 49.9423449], [5.8326409, 49.9423458], [5.8326972, 49.9423292], [5.8327252, 49.9422989], [5.8327546, 49.9422114], [5.832813, 49.9421663], [5.8328846, 49.9420817], [5.8328579, 49.9419206], [5.8327651, 49.9418807], [5.8327333, 49.9418202], [5.8327485, 49.9417831], [5.832713, 49.9417051], [5.8327146, 49.9416938], [5.8327255, 49.9416535], [5.8327923, 49.9415869], [5.832802, 49.9415284], [5.8328837, 49.9414438], [5.8329648, 49.9413811], [5.832976, 49.9413763], [5.8330785, 49.9413321], [5.8332001, 49.9412926], [5.8333367, 49.9413091], [5.8334402, 49.9413569], [5.833502, 49.9413688], [5.8335734, 49.9413473], [5.8336285, 49.9413017], [5.8336951, 49.9412584], [5.8337035, 49.9412529], [5.8337819, 49.941206], [5.8338767, 49.9411323], [5.833937, 49.9411097], [5.8340041, 49.9411197], [5.8340498, 49.9411348], [5.8341186, 49.9411213], [5.834249, 49.9410243], [5.8342571, 49.9409921], [5.8342491, 49.9409523], [5.834186, 49.9409342], [5.8341161, 49.9409209], [5.8340862, 49.9408964], [5.8340581, 49.9408351], [5.834071, 49.9407738], [5.8340114, 49.9407114], [5.8339964, 49.9406858], [5.833994, 49.9406346], [5.8340076, 49.9406007], [5.8342081, 49.9404695], [5.834334, 49.940367], [5.8343555, 49.9403738], [5.8349466, 49.940568], [5.835029, 49.940595], [5.835079, 49.9405615], [5.8351147, 49.9405367], [5.8351349, 49.9405476], [5.8351549, 49.9405583], [5.8351551, 49.9405584], [5.8351679, 49.9405653], [5.835191, 49.9405801], [5.8354046, 49.9407176], [5.8354898, 49.9407716], [5.8361677, 49.9405933], [5.8364605, 49.9405162], [5.8366113, 49.9404794], [5.836708, 49.9404592], [5.8367954, 49.9404467], [5.8369018, 49.9404422], [5.8371311, 49.9404441], [5.8372064, 49.9404455], [5.8375624, 49.9404522], [5.8378583, 49.9404565], [5.83793, 49.9404524], [5.8380774, 49.9404331], [5.8382474, 49.9404079], [5.8383802, 49.9403842], [5.838541, 49.9403513], [5.8386872, 49.9403157], [5.8388587, 49.9402639], [5.8389952, 49.9402216], [5.8392157, 49.9401469], [5.8393964, 49.9400739], [5.8394832, 49.940035], [5.8396765, 49.9399543], [5.8397415, 49.939931], [5.8398062, 49.9399144], [5.8398745, 49.9399011], [5.8401296, 49.939859], [5.8403036, 49.9398158], [5.8404163, 49.9397751], [5.8404841, 49.9397506], [5.8406137, 49.9396889], [5.8407515, 49.939602], [5.8407988, 49.9395649], [5.8408443, 49.9394859], [5.8408829, 49.9393794], [5.8408853, 49.9393679], [5.840917, 49.9392156], [5.8409231, 49.9391804], [5.8409314, 49.9390989], [5.8409255, 49.9390493], [5.8409102, 49.938924], [5.8409139, 49.9388454], [5.8409502, 49.9386626], [5.8410109, 49.9384324], [5.8410192, 49.9383957], [5.8410654, 49.9382902], [5.8410848, 49.9382494], [5.841099, 49.9382197], [5.8411502, 49.9381415], [5.8411928, 49.9380684], [5.8412619, 49.9379618], [5.841343, 49.9378577], [5.8413805, 49.9378199], [5.8414565, 49.9377433], [5.841487, 49.9377125], [5.8415384, 49.9376614], [5.8416729, 49.9375201], [5.8417785, 49.9374289], [5.8418786, 49.9373692], [5.8420533, 49.937274], [5.8423166, 49.9371537], [5.8423667, 49.9371261], [5.8423867, 49.9371151], [5.8424556, 49.9370701], [5.8424865, 49.9370503], [5.8425403, 49.937008], [5.8425923, 49.9369604], [5.8426409, 49.9369024], [5.8426773, 49.936851], [5.842702, 49.9368074], [5.8427248, 49.9367673], [5.8427585, 49.936715], [5.8428291, 49.9366662], [5.8429318, 49.9366089], [5.8432334, 49.9364216], [5.8432835, 49.9364185], [5.8439362, 49.9363782], [5.8439787, 49.9363765], [5.8441458, 49.9363694], [5.8442699, 49.9363672], [5.844313, 49.9363664], [5.8443678, 49.9363666], [5.8448331, 49.9363679], [5.8448299, 49.9362644], [5.8448317, 49.9361941], [5.8448374, 49.936141], [5.8448416, 49.9361025], [5.8448616, 49.9360107], [5.8448635, 49.9360022], [5.8449003, 49.9358438], [5.8449657, 49.9358519], [5.84507, 49.9358648], [5.8450684, 49.9359051], [5.8451801, 49.9358763], [5.845281, 49.9358612], [5.8453792, 49.9358571], [5.8454455, 49.9358582], [5.8455463, 49.9358662], [5.8461311, 49.9359091], [5.8464215, 49.9359468], [5.846519, 49.9359611], [5.8466892, 49.9359861], [5.8468416, 49.9360079], [5.8472047, 49.9360749], [5.8474989, 49.9361289], [5.8475716, 49.9361459], [5.8477175, 49.93618], [5.8481095, 49.9362805], [5.8481877, 49.9363004], [5.8483268, 49.9363368], [5.8484076, 49.9363516], [5.8485072, 49.9363681], [5.8485918, 49.9363821], [5.8487481, 49.9364177], [5.8488872, 49.93646], [5.8489705, 49.9364963], [5.8490803, 49.9365514], [5.8491952, 49.9366271], [5.8493207, 49.9367175], [5.8495598, 49.9366684], [5.8499425, 49.9368244], [5.8499872, 49.9368427], [5.8502802, 49.9369552], [5.8504954, 49.9370378], [5.8505445, 49.937049], [5.8507233, 49.9370898], [5.851205, 49.9371809], [5.8513302, 49.9372046], [5.8515012, 49.9372265], [5.8515407, 49.9372348], [5.8515423, 49.9372351], [5.8516814, 49.9372767], [5.8518376, 49.9373208], [5.8518491, 49.9373235], [5.8518959, 49.9373347], [5.8523824, 49.9374011], [5.8524295, 49.9370919], [5.8524691, 49.9369309], [5.8526705, 49.9367677], [5.8527065, 49.9367338], [5.8529412, 49.9365519], [5.8536478, 49.9364329], [5.8536549, 49.9364322], [5.8537408, 49.9364229], [5.8538482, 49.9364206], [5.8539172, 49.936426], [5.8540034, 49.936439], [5.8540643, 49.9364538], [5.854153, 49.9364883], [5.8543422, 49.9365676], [5.8544758, 49.9366254], [5.8545671, 49.9366668], [5.8546239, 49.9366952], [5.854776, 49.9367753], [5.8548196, 49.9367994], [5.8549478, 49.9368761], [5.8550231, 49.9369277], [5.8551802, 49.9370584], [5.8554652, 49.9372968], [5.855654, 49.9374533], [5.8557842, 49.9375503], [5.8558005, 49.9375625], [5.8559788, 49.9376949], [5.8561109, 49.9377861], [5.8562312, 49.9378593], [5.8563475, 49.937923], [5.8565009, 49.9380014], [5.8566676, 49.9380781], [5.8567774, 49.9381273], [5.8568568, 49.9381661], [5.8569295, 49.9382057], [5.8569784, 49.9382418], [5.8570219, 49.9382771], [5.8570556, 49.9383109], [5.857105, 49.9383604], [5.8574172, 49.9383006], [5.8576868, 49.938249], [5.8579027, 49.938319], [5.858035, 49.9383665], [5.8581026, 49.9383924], [5.8582016, 49.9384358], [5.8582481, 49.9384562], [5.8582957, 49.9384734], [5.8584005, 49.9384866], [5.8584945, 49.9384924], [5.8586299, 49.9385009], [5.8589826, 49.9385296], [5.8591578, 49.9383258], [5.8591737, 49.9383267], [5.8593277, 49.938322], [5.8593807, 49.9383264], [5.8594364, 49.9383334], [5.8596032, 49.9383852], [5.8596668, 49.9384], [5.8596933, 49.9384052], [5.8597185, 49.9384061], [5.859911, 49.9384015], [5.8600954, 49.9383968], [5.8602546, 49.9383981], [5.8604257, 49.9384046], [5.8606329, 49.9381617], [5.8608065, 49.9379139], [5.8608126, 49.9379051], [5.8608358, 49.937872], [5.860867, 49.9378274], [5.8607735, 49.9377632], [5.8606625, 49.9376917], [5.8605752, 49.9376444], [5.8605064, 49.9376108], [5.8604588, 49.9375935], [5.8605363, 49.9374986], [5.8603972, 49.9374768], [5.8598523, 49.9374076], [5.8597449, 49.9373928], [5.859627, 49.9373702], [5.8595342, 49.9373468], [5.8594548, 49.9373149], [5.8593821, 49.9372796], [5.8592975, 49.9372331], [5.8592182, 49.937184], [5.858806, 49.9369027], [5.8588726, 49.9368617], [5.8587539, 49.9367509], [5.8586735, 49.9366701], [5.8585298, 49.9365197], [5.8585191, 49.9365065], [5.8584969, 49.9364794], [5.8584495, 49.9364321], [5.8583888, 49.9363771], [5.8582027, 49.9362163], [5.8580919, 49.9361132], [5.8580075, 49.9360359], [5.8579653, 49.9359938], [5.857881, 49.9359061], [5.8578033, 49.9358082], [5.8577442, 49.9357138], [5.8576853, 49.9355954], [5.8576552, 49.9355233], [5.8576162, 49.9353972], [5.8575802, 49.935218], [5.857579, 49.9349884], [5.8575822, 49.9349147], [5.8575774, 49.9348238], [5.8575673, 49.9347552], [5.8575426, 49.9346686], [5.8575257, 49.9346171], [5.8575298, 49.9345983], [5.8575378, 49.9345863], [5.8579964, 49.9340434], [5.8579991, 49.9340391], [5.8580153, 49.9339946], [5.8580305, 49.9338901], [5.8580523, 49.9338061], [5.8580699, 49.9337496], [5.85804, 49.9336597], [5.8580258, 49.9335963], [5.8580275, 49.9335423], [5.8580278, 49.9335405], [5.8580384, 49.9334858], [5.8580683, 49.9333744], [5.8580994, 49.933282], [5.8581358, 49.9331955], [5.8582072, 49.9330312], [5.8582244, 49.932829], [5.8582329, 49.9327407], [5.8582478, 49.9326936], [5.858303, 49.9325618], [5.8583222, 49.9325188], [5.8586763, 49.9324496], [5.8589032, 49.9324022], [5.8589368, 49.9323922], [5.8589627, 49.9323845], [5.8591193, 49.9323379], [5.8591925, 49.9323161], [5.85933, 49.9322739], [5.8594549, 49.9322355], [5.8595726, 49.9322033], [5.8596437, 49.9321872], [5.8596719, 49.9321807], [5.8597569, 49.9321682], [5.8598238, 49.9321619], [5.8598716, 49.9321575], [5.8600217, 49.9321478], [5.8600544, 49.9321466], [5.8601336, 49.9321436], [5.8602723, 49.932143], [5.8603827, 49.9321479], [5.8604577, 49.9321517], [5.8604637, 49.932106], [5.860335, 49.9320783], [5.8603087, 49.9319932], [5.860463, 49.9319922], [5.8605692, 49.931987], [5.8606231, 49.9319707], [5.8606756, 49.9319416], [5.8607255, 49.9318942], [5.8608809, 49.9319421], [5.8609827, 49.9319652], [5.8610986, 49.9319847], [5.8611948, 49.9319978], [5.8612706, 49.9320083], [5.8613292, 49.9320164], [5.8614975, 49.9320448], [5.8615936, 49.9320679], [5.8616825, 49.9321074], [5.8617347, 49.9321405], [5.8617657, 49.932168], [5.8617924, 49.9321918], [5.8618491, 49.9321883], [5.8619227, 49.9321775], [5.8620914, 49.9321387], [5.8621893, 49.9321129], [5.8623483, 49.9320456], [5.8624647, 49.9319838], [5.8625529, 49.9319255], [5.8626439, 49.931859], [5.8626916, 49.9318252], [5.8628049, 49.9317447], [5.8628614, 49.9317046], [5.8629325, 49.9316609], [5.8630489, 49.9316064], [5.8631454, 49.9315618], [5.8632334, 49.9315273], [5.8633299, 49.931501], [5.863412, 49.9314885], [5.8635069, 49.9314832], [5.8636131, 49.9314908], [5.8637036, 49.9315011], [5.8638974, 49.9315286], [5.8640841, 49.9315483], [5.8642454, 49.9315615], [5.8643742, 49.9315728], [5.8643843, 49.9315381], [5.864386, 49.9314915], [5.8643904, 49.9314686], [5.8643738, 49.9314055], [5.8643402, 49.9313446], [5.8643177, 49.9313199], [5.8642783, 49.9312878], [5.8642275, 49.9312611], [5.8640892, 49.9311959], [5.8640968, 49.9311784], [5.8642112, 49.9309178], [5.8642226, 49.9309078], [5.8643335, 49.9308386], [5.8646298, 49.9306643], [5.8647569, 49.9305896], [5.8649186, 49.9304956], [5.8649672, 49.930466], [5.865078, 49.9303957], [5.8651221, 49.930367], [5.8653097, 49.930016], [5.8655002, 49.929654], [5.8656765, 49.9293157], [5.8658141, 49.9290373], [5.8660192, 49.9290529], [5.8661551, 49.9290669], [5.8662965, 49.9290828], [5.8664012, 49.9290996], [5.8665511, 49.9291201], [5.8666644, 49.929103], [5.8669564, 49.9290421], [5.8671828, 49.9289953], [5.8672186, 49.9289879], [5.8673002, 49.9288372], [5.8674415, 49.9288861], [5.8675, 49.9289069], [5.8675474, 49.9289238], [5.8676364, 49.9289606], [5.8677479, 49.9290135], [5.8679666, 49.9291228], [5.8681274, 49.9292128], [5.8688431, 49.9288494], [5.8688719, 49.9286563], [5.8688759, 49.9286296], [5.8688814, 49.9285922], [5.8688918, 49.9285263], [5.868938, 49.928231], [5.868956, 49.9281161], [5.8689625, 49.9280745], [5.8689835, 49.9279197], [5.8689995, 49.927802], [5.8690065, 49.9277503], [5.8690174, 49.92767], [5.8685829, 49.927657], [5.8684909, 49.9276522], [5.8684633, 49.9276486], [5.8683962, 49.9276396], [5.8681529, 49.9276052], [5.8679959, 49.9275847], [5.8679451, 49.9275793], [5.8677399, 49.9275575], [5.8675899, 49.9275429], [5.8674782, 49.9275353], [5.8671413, 49.9275345], [5.8669597, 49.927529], [5.8669106, 49.9275275], [5.8665427, 49.9275078], [5.8665257, 49.9275023], [5.8665003, 49.9274912], [5.8664749, 49.9274738], [5.8664553, 49.9274527], [5.8664624, 49.927439], [5.8664825, 49.9273933], [5.8665341, 49.9272993], [5.866554, 49.9272747], [5.8660719, 49.927187], [5.8659432, 49.9271638], [5.8658075, 49.9271452], [5.8657338, 49.9271384], [5.8656646, 49.927132], [5.8655726, 49.9271281], [5.8653759, 49.9271231], [5.8652811, 49.9271137], [5.8652161, 49.9270989], [5.8651426, 49.9270726], [5.8650071, 49.9270229], [5.8649349, 49.9270035], [5.864911, 49.9269971], [5.8648431, 49.926985], [5.864737, 49.9269719], [5.8645884, 49.9269679], [5.8643704, 49.9269728], [5.8643918, 49.9268265], [5.8643926, 49.9268206], [5.8644416, 49.9265036], [5.864447, 49.9264686], [5.8644501, 49.9264482], [5.8644838, 49.9262792], [5.8641835, 49.9262402], [5.8641174, 49.9262316], [5.8639201, 49.9262025], [5.8637172, 49.9261725], [5.8635786, 49.9261496], [5.8633213, 49.926107], [5.8632889, 49.9260799], [5.8617551, 49.9257769], [5.8603117, 49.9254833], [5.8597562, 49.9253621], [5.858073, 49.9249645], [5.8580943, 49.9249346], [5.8582411, 49.9247576], [5.8582474, 49.9247501], [5.8582757, 49.9247163], [5.8583144, 49.92467], [5.8583643, 49.9246105], [5.8584054, 49.9245658], [5.8584279, 49.92455], [5.8584729, 49.9245186], [5.858746, 49.924316], [5.8582218, 49.9241014], [5.8581904, 49.9240885], [5.8578909, 49.9239659], [5.8578469, 49.9239887], [5.8575435, 49.9238056], [5.8568366, 49.9233789], [5.8568356, 49.9233541], [5.8568312, 49.9232519], [5.856846, 49.923231], [5.8569071, 49.9231515], [5.8569473, 49.9230814], [5.8569841, 49.9230076], [5.8570638, 49.922848], [5.8570045, 49.9227147], [5.8568933, 49.9224644], [5.8568122, 49.9222388], [5.8567451, 49.9220904], [5.8566493, 49.9218994], [5.8566037, 49.9218025], [5.8565681, 49.9217032], [5.8565342, 49.9215648], [5.8565218, 49.9214995], [5.8564894, 49.9213304], [5.8564465, 49.921024], [5.8564185, 49.9208856], [5.856398, 49.9208061], [5.8563676, 49.9206886], [5.8563237, 49.9205463], [5.8562538, 49.9203876], [5.856217, 49.9203173], [5.856198, 49.9202809], [5.8561535, 49.9202162], [5.8560876, 49.9201193], [5.8559994, 49.9200159], [5.8559597, 49.9199693], [5.8556536, 49.9196323], [5.8554051, 49.9193179], [5.8552087, 49.9190345], [5.855107, 49.9188631], [5.8550384, 49.9187316], [5.8550174, 49.9186846], [5.8549998, 49.9186454], [5.8549701, 49.9185425], [5.854935, 49.9183764], [5.85492, 49.9182398], [5.8549077, 49.9181229], [5.8549105, 49.9179205], [5.8549126, 49.9178194], [5.8549146, 49.9178089], [5.8549221, 49.91777], [5.8549401, 49.9176888], [5.8549639, 49.9176134], [5.8550185, 49.91751], [5.8550831, 49.9174181], [5.8552001, 49.9172634], [5.8553194, 49.9171379], [5.8554748, 49.9169701], [5.8555976, 49.9168644], [5.8558146, 49.916691], [5.8558227, 49.9166857], [5.8559389, 49.9166095], [5.8560368, 49.9166572], [5.8560929, 49.916686], [5.8561655, 49.9167166], [5.8562193, 49.9167411], [5.8566433, 49.9165412], [5.8567217, 49.9165058], [5.8567391, 49.9164937], [5.8567378, 49.916475], [5.8567394, 49.9164549], [5.8567279, 49.9164437], [5.856712, 49.9164296], [5.8567049, 49.9164071], [5.856721, 49.9163838], [5.8567633, 49.9163315], [5.8567765, 49.9163054], [5.8567753, 49.9162764], [5.8567869, 49.9162596], [5.8568044, 49.9162494], [5.8568363, 49.916242], [5.8568566, 49.9162271], [5.8568727, 49.9161972], [5.8568743, 49.9161757], [5.8568657, 49.9161663], [5.8568542, 49.9161466], [5.8568631, 49.91612], [5.856885, 49.9160864], [5.8569157, 49.9160388], [5.8569405, 49.9160089], [5.8569653, 49.9159866], [5.8569959, 49.9159502], [5.8570076, 49.9159306], [5.8570411, 49.9159045], [5.8570716, 49.9158877], [5.8570992, 49.9158672], [5.8571167, 49.9158495], [5.8571327, 49.9158308], [5.8571502, 49.9158113], [5.8571706, 49.9157963], [5.8572142, 49.9157698], [5.8572665, 49.9157382], [5.8573131, 49.9156915], [5.8573757, 49.9156309], [5.8574297, 49.9155712], [5.8574571, 49.9155297], [5.8574648, 49.915518], [5.8575027, 49.9154667], [5.8575434, 49.915435], [5.8575856, 49.9154117], [5.8576248, 49.9153959], [5.857648, 49.9153773], [5.8576742, 49.9153615], [5.8576945, 49.915355], [5.8577163, 49.9153363], [5.8577444, 49.915312], [5.8579187, 49.9151333], [5.8580556, 49.9149365], [5.8581639, 49.9146505], [5.8581654, 49.9144159], [5.8581232, 49.9141999], [5.8578876, 49.9139364], [5.8572658, 49.9134732], [5.8569291, 49.913125], [5.8568673, 49.9129371], [5.8568975, 49.9127557], [5.8571118, 49.912578], [5.8573298, 49.9125519], [5.8581002, 49.9125039], [5.8590444, 49.9125158], [5.860037, 49.9125498], [5.860604, 49.9124871], [5.8615351, 49.9122831], [5.8621374, 49.9120078], [5.8625411, 49.9117241], [5.8626842, 49.9112927], [5.8626493, 49.9106965], [5.8626536, 49.9100051], [5.8627573, 49.9096956], [5.8630065, 49.9093317], [5.8624486, 49.9090469], [5.862438, 49.9090573], [5.8622144, 49.9089283], [5.8622426, 49.9089062], [5.8622989, 49.9088711], [5.8624037, 49.908816], [5.8626318, 49.9087295], [5.8627505, 49.9086805], [5.8628413, 49.9086274], [5.8630275, 49.908503], [5.86322, 49.9083751], [5.8631056, 49.908136], [5.8630835, 49.9080898], [5.86306, 49.9080408], [5.8630424, 49.908001], [5.8628219, 49.9075019], [5.8622976, 49.9073425], [5.862, 49.9072506], [5.8615884, 49.9071236], [5.8611067, 49.90697], [5.8610267, 49.9069445], [5.8609942, 49.9069342], [5.8607764, 49.9068691], [5.8604123, 49.9067806], [5.8601228, 49.906711], [5.8598547, 49.9066467], [5.8596674, 49.9066017], [5.8594016, 49.9067108], [5.8592052, 49.9067876], [5.8589719, 49.9068789], [5.8589467, 49.9068887], [5.8588875, 49.9069118], [5.8588123, 49.9069411], [5.8587375, 49.9069702], [5.8582456, 49.9068072], [5.8573458, 49.9068234]]]}}]}