{"type": "FeatureCollection", "features": [{"type": "Feature", "properties": {"name": "Kaundorf"}, "geometry": {"type": "Polygon", "coordinates": [[[5.9498902, 49.9107019], [5.9498278, 49.9107001], [5.9497053, 49.9106988], [5.9488904, 49.9106726], [5.9488184, 49.9106703], [5.9488097, 49.91067], [5.9488393, 49.910508], [5.9486776, 49.9105514], [5.9485007, 49.910586], [5.9483003, 49.9106183], [5.9481071, 49.9106389], [5.9478726, 49.9106466], [5.9477517, 49.9106406], [5.9477283, 49.9106429], [5.9476923, 49.9106183], [5.9476473, 49.9106043], [5.9475354, 49.910604], [5.9474037, 49.910605], [5.9473189, 49.9106001], [5.9471549, 49.9105812], [5.9470449, 49.9105705], [5.9469691, 49.910575], [5.9468355, 49.9106027], [5.946712, 49.9106272], [5.9466216, 49.9106299], [5.9465492, 49.9106218], [5.9463101, 49.910576], [5.9462365, 49.9105637], [5.9461639, 49.9105676], [5.9460225, 49.9105765], [5.945928, 49.9105738], [5.9455374, 49.9105388], [5.945158, 49.9105215], [5.9450206, 49.9105227], [5.9448756, 49.910528], [5.9447735, 49.9105293], [5.9447235, 49.9105274], [5.9446937, 49.9105223], [5.9445329, 49.9104726], [5.9444485, 49.9104466], [5.9444068, 49.9104458], [5.9443424, 49.9104702], [5.9442533, 49.9105095], [5.9442009, 49.9105251], [5.9441509, 49.9105232], [5.9441066, 49.9105113], [5.9439556, 49.9104475], [5.943797, 49.910375], [5.9437948, 49.910385], [5.9438048, 49.9104394], [5.9438123, 49.91048], [5.9438201, 49.910522], [5.9438008, 49.9106372], [5.9437956, 49.9106612], [5.9437692, 49.9107837], [5.9433634, 49.9107025], [5.9432551, 49.9106747], [5.9431114, 49.9106394], [5.9429554, 49.9105982], [5.9427964, 49.9105685], [5.9424313, 49.9104977], [5.9422689, 49.910457], [5.942131, 49.9104143], [5.9417613, 49.9102827], [5.9413673, 49.9101578], [5.9412458, 49.9101108], [5.9411324, 49.9100492], [5.9409695, 49.9099371], [5.9407482, 49.9097985], [5.9405974, 49.9097209], [5.9404134, 49.9096453], [5.9401746, 49.9095735], [5.939873, 49.9094944], [5.9397784, 49.909721], [5.9396513, 49.9100097], [5.9395763, 49.9102173], [5.9394445, 49.9105235], [5.9394389, 49.9107608], [5.9394381, 49.9108954], [5.9394425, 49.9109866], [5.9394448, 49.911009], [5.9394541, 49.9110909], [5.9394698, 49.9111715], [5.9394822, 49.9112148], [5.9394859, 49.9112475], [5.9394989, 49.9112812], [5.9395283, 49.9113249], [5.9396077, 49.9114101], [5.9396544, 49.9114608], [5.9397191, 49.911566], [5.9397506, 49.9116005], [5.9398138, 49.9116386], [5.9398911, 49.9116761], [5.9399023, 49.9117882], [5.939941, 49.91222], [5.9399375, 49.9122846], [5.9399221, 49.9123422], [5.9399024, 49.912385], [5.9398728, 49.9124074], [5.9398231, 49.9124428], [5.9397442, 49.9125136], [5.9397411, 49.9125163], [5.939693, 49.9125597], [5.939713, 49.9126409], [5.9397304, 49.9126789], [5.9397521, 49.9127183], [5.939764, 49.912738], [5.9397955, 49.9127789], [5.939858, 49.9128616], [5.9398906, 49.9129038], [5.9399037, 49.9129313], [5.9399101, 49.9129699], [5.939911, 49.9130283], [5.9399066, 49.913062], [5.9398786, 49.9131515], [5.9398533, 49.9132174], [5.9398204, 49.913277], [5.9397864, 49.9133157], [5.9397657, 49.9133381], [5.9397269, 49.9133812], [5.9396527, 49.9134428], [5.9395916, 49.9134891], [5.9395622, 49.9135101], [5.9394924, 49.9135542], [5.9394183, 49.9135948], [5.9392942, 49.9136437], [5.9391455, 49.913695], [5.9391341, 49.9139334], [5.9391148, 49.9141075], [5.939092, 49.9142173], [5.9390711, 49.9142777], [5.9390404, 49.9143345], [5.9389911, 49.9144074], [5.9389305, 49.9144786], [5.9388758, 49.9145381], [5.9387961, 49.9146131], [5.938723, 49.9146776], [5.9386428, 49.9147431], [5.9385752, 49.9147949], [5.9384781, 49.9148628], [5.9383865, 49.9149216], [5.9383244, 49.9149538], [5.9382482, 49.9149853], [5.9381736, 49.9150079], [5.9381269, 49.9150219], [5.9380235, 49.9150491], [5.9379539, 49.9150609], [5.9378397, 49.9150719], [5.9377408, 49.9150724], [5.9376272, 49.9150634], [5.9375164, 49.915054], [5.9374578, 49.9150455], [5.9372883, 49.915017], [5.9371124, 49.9149865], [5.9368632, 49.9149435], [5.9367306, 49.914925], [5.936647, 49.9149164], [5.9364851, 49.9149035], [5.936296, 49.9148897], [5.9360945, 49.9148742], [5.936, 49.9148621], [5.9358154, 49.9148365], [5.9356741, 49.914825], [5.9356138, 49.9148224], [5.9354572, 49.9148368], [5.935338, 49.9147642], [5.9351928, 49.9146769], [5.9351512, 49.9147288], [5.9350845, 49.9148143], [5.9350386, 49.9148634], [5.935002, 49.9149009], [5.9349278, 49.914966], [5.9348548, 49.9150178], [5.9347905, 49.9150542], [5.9346913, 49.9150961], [5.9344676, 49.9151845], [5.9346465, 49.9156769], [5.9343855, 49.9157076], [5.9342243, 49.9157372], [5.9341041, 49.9157681], [5.9339318, 49.9158124], [5.9338038, 49.9158391], [5.9337164, 49.9158499], [5.9336173, 49.9158505], [5.9335429, 49.9158436], [5.933466, 49.9158334], [5.9333742, 49.9158142], [5.9333273, 49.9157981], [5.9332674, 49.9157727], [5.9331712, 49.9157152], [5.9331192, 49.9156747], [5.9330699, 49.9156291], [5.933005, 49.9155599], [5.9329538, 49.9154944], [5.9328811, 49.9154109], [5.9328033, 49.915334], [5.9326019, 49.9151601], [5.9324779, 49.9150431], [5.9323741, 49.9149333], [5.9321865, 49.9147505], [5.9321074, 49.9146585], [5.9320634, 49.9146003], [5.9320356, 49.9145442], [5.9319815, 49.9144034], [5.9319416, 49.9142912], [5.9318352, 49.9140479], [5.9317907, 49.9139362], [5.9317715, 49.9138712], [5.9317641, 49.9137861], [5.9317565, 49.9137058], [5.9317399, 49.9135286], [5.9317324, 49.9134533], [5.9317194, 49.9133234], [5.9317105, 49.9131925], [5.9317056, 49.9130885], [5.9317038, 49.9130478], [5.931707, 49.912973], [5.9317084, 49.9129413], [5.93171, 49.9129056], [5.9317133, 49.9128292], [5.9317814, 49.9126376], [5.9318811, 49.9123804], [5.9319474, 49.9121986], [5.9320142, 49.9120891], [5.9311878, 49.9121461], [5.9312357, 49.9122093], [5.9306341, 49.912289], [5.9305861, 49.9122126], [5.9304636, 49.9120179], [5.9304542, 49.9120029], [5.9303328, 49.9120305], [5.9302623, 49.9120481], [5.9302028, 49.912081], [5.9301275, 49.9121148], [5.9300015, 49.9121631], [5.9298548, 49.9122016], [5.9296122, 49.9122654], [5.9294185, 49.9123269], [5.9293027, 49.9123868], [5.9292631, 49.9124207], [5.9291064, 49.9125841], [5.9289856, 49.9127004], [5.9289328, 49.912744], [5.9288895, 49.9127657], [5.9287531, 49.9128243], [5.9287022, 49.9128642], [5.928638, 49.9129345], [5.9285755, 49.9130314], [5.9285528, 49.913075], [5.9284794, 49.9132927], [5.9283899, 49.9135303], [5.9284797, 49.9136045], [5.9285002, 49.9136398], [5.9285225, 49.9136944], [5.9285344, 49.9137557], [5.9285321, 49.9138285], [5.9284903, 49.9139304], [5.9284336, 49.914014], [5.9283939, 49.91406], [5.9281872, 49.9142616], [5.9281362, 49.9143222], [5.9280758, 49.9143827], [5.9280287, 49.9144214], [5.927942, 49.9144819], [5.9278177, 49.9145533], [5.9276378, 49.914653], [5.9275699, 49.9147147], [5.9275226, 49.9147777], [5.9274772, 49.9148565], [5.9274542, 49.9149511], [5.9274375, 49.91509], [5.9274273, 49.9152611], [5.9274306, 49.9153545], [5.9274488, 49.9154698], [5.927481, 49.9155991], [5.9275216, 49.9157509], [5.9275938, 49.9159634], [5.927665, 49.9161825], [5.9276778, 49.9162505], [5.9276662, 49.9163196], [5.9276471, 49.9163827], [5.927609, 49.9164809], [5.9275425, 49.9166361], [5.92751, 49.9167695], [5.927493, 49.9167889], [5.9274591, 49.9168009], [5.9274197, 49.916796], [5.927386, 49.9167777], [5.9273504, 49.9167546], [5.9273467, 49.9167485], [5.9273318, 49.9167169], [5.9272595, 49.9165142], [5.927175, 49.9163277], [5.926963, 49.9158965], [5.9269157, 49.9157757], [5.9267539, 49.9154526], [5.9261703, 49.9155442], [5.9259861, 49.9155645], [5.9258753, 49.9155679], [5.9256914, 49.9155432], [5.9255357, 49.9155113], [5.9254118, 49.9154844], [5.9251886, 49.9154184], [5.9249928, 49.9153446], [5.9248803, 49.9152897], [5.9247418, 49.9152045], [5.9246613, 49.9151425], [5.9245585, 49.9150452], [5.9244838, 49.9149613], [5.9244158, 49.9148586], [5.9243749, 49.9147687], [5.9243103, 49.9145405], [5.9243316, 49.9144192], [5.9243134, 49.9142978], [5.9241047, 49.9137908], [5.9251202, 49.9127773], [5.9254805, 49.9124517], [5.9259932, 49.912079], [5.9260326, 49.9119026], [5.9260806, 49.9118144], [5.9262363, 49.9115286], [5.9254351, 49.9112048], [5.9251268, 49.9110798], [5.9242694, 49.9107291], [5.9239771, 49.9105865], [5.9230146, 49.9115164], [5.9228418, 49.9116243], [5.9227072, 49.9117083], [5.9226212, 49.911762], [5.9225361, 49.9118151], [5.9222933, 49.9119902], [5.9219815, 49.9121622], [5.921659, 49.9122744], [5.9214242, 49.9123179], [5.9211404, 49.9123455], [5.9207859, 49.9123342], [5.9203008, 49.9122556], [5.9197124, 49.9120993], [5.9190207, 49.9118934], [5.9185905, 49.9117479], [5.9183513, 49.9115906], [5.9181614, 49.9113752], [5.917988, 49.9111563], [5.9178535, 49.9108035], [5.9176876, 49.9101635], [5.9176516, 49.909751], [5.9177188, 49.9094199], [5.9178404, 49.90911], [5.9180216, 49.9088689], [5.9182142, 49.9085416], [5.9184347, 49.9080944], [5.9183204, 49.9080448], [5.9187387, 49.9073285], [5.918991, 49.90704], [5.9190956, 49.9068675], [5.9192175, 49.9064995], [5.9193946, 49.9059958], [5.9195442, 49.9055309], [5.9195627, 49.9051239], [5.9194666, 49.9047184], [5.9193379, 49.9042775], [5.9191375, 49.9040092], [5.9189254, 49.9038872], [5.9185661, 49.903756], [5.9177975, 49.9036697], [5.9173441, 49.9036605], [5.916911, 49.9038348], [5.9161913, 49.9043124], [5.915752, 49.9046296], [5.9149085, 49.9055311], [5.9138824, 49.9064676], [5.9135592, 49.9068679], [5.9132569, 49.9073078], [5.9128435, 49.9081122], [5.9123761, 49.9088267], [5.9118522, 49.9087805], [5.9118517, 49.9088747], [5.9119229, 49.9092048], [5.9120917, 49.9094723], [5.9123927, 49.9100149], [5.9124759, 49.9103843], [5.91234, 49.9107925], [5.9121322, 49.911012], [5.9118761, 49.9111607], [5.9114499, 49.9112697], [5.9106838, 49.9112994], [5.9098941, 49.9112034], [5.9097121, 49.9111245], [5.9093385, 49.9105109], [5.9090154, 49.9098599], [5.9084873, 49.9094056], [5.9079813, 49.9091496], [5.9071994, 49.9087089], [5.9067859, 49.9084106], [5.906396, 49.9079991], [5.9059133, 49.9076865], [5.9054071, 49.9074589], [5.9047846, 49.907415], [5.9042762, 49.9075979], [5.9038361, 49.9079367], [5.9036267, 49.9082761], [5.9036475, 49.9087009], [5.9032038, 49.9096911], [5.902183, 49.910779], [5.9007185, 49.9128217], [5.9000692, 49.9134574], [5.8993522, 49.9137956], [5.8984053, 49.9139916], [5.8974834, 49.9138479], [5.8970471, 49.913507], [5.8964276, 49.9124197], [5.8961732, 49.9119796], [5.8957679, 49.9117789], [5.8951665, 49.9115628], [5.8946136, 49.911434], [5.8940136, 49.9114893], [5.8927209, 49.9116561], [5.8917517, 49.9117246], [5.8907991, 49.9117537], [5.8895465, 49.9120779], [5.8890672, 49.9122091], [5.8888639, 49.9122321], [5.8887976, 49.9122444], [5.888728, 49.9122656], [5.8886529, 49.9122922], [5.8886014, 49.912316], [5.8885142, 49.9123614], [5.8884097, 49.9124302], [5.8883625, 49.9124541], [5.8882797, 49.9124769], [5.8882411, 49.9124884], [5.8882183, 49.9124952], [5.8881797, 49.9125199], [5.8881596, 49.9125438], [5.8881351, 49.9125806], [5.8880879, 49.9126645], [5.8880761, 49.9126855], [5.888043, 49.9127351], [5.8879799, 49.9128073], [5.8879425, 49.9128661], [5.8879051, 49.9129204], [5.8878943, 49.9129302], [5.8878807, 49.9129424], [5.8878221, 49.9129837], [5.8877104, 49.913058], [5.8876603, 49.9131031], [5.8876186, 49.9131541], [5.8875784, 49.9132065], [5.8875581, 49.9132321], [5.8875368, 49.9132589], [5.8875184, 49.9132769], [5.8874852, 49.9133094], [5.8873505, 49.9134187], [5.887319, 49.9134458], [5.8873075, 49.9134623], [5.8873102, 49.9134872], [5.8873143, 49.9135185], [5.8873028, 49.9135443], [5.8872783, 49.9135783], [5.8872152, 49.91365], [5.8871692, 49.9137208], [5.8871519, 49.9137521], [5.8871451, 49.913775], [5.8871373, 49.9138013], [5.8871285, 49.9138418], [5.8871255, 49.9138786], [5.8871168, 49.9139062], [5.8870995, 49.9139338], [5.8870537, 49.9139687], [5.8870064, 49.9140027], [5.8869433, 49.914067], [5.8869075, 49.9141024], [5.8868574, 49.91414], [5.8868059, 49.9141767], [5.886738, 49.9142297], [5.886641, 49.9142948], [5.8865383, 49.9143455], [5.8864739, 49.9143841], [5.886421, 49.9144226], [5.8863822, 49.9144667], [5.8863362, 49.9145371], [5.886296, 49.9145821], [5.8862258, 49.9146482], [5.8861729, 49.9146961], [5.8860868, 49.9147741], [5.8860021, 49.91486], [5.885873, 49.9150015], [5.8856749, 49.91524], [5.8855802, 49.915343], [5.885507, 49.9154192], [5.8854167, 49.9155047], [5.8853522, 49.9155742], [5.8853298, 49.9155983], [5.8853149, 49.9156145], [5.8852789, 49.9156678], [5.8852587, 49.9157092], [5.8852428, 49.915746], [5.8852256, 49.9157681], [5.8851985, 49.915779], [5.8851172, 49.9157835], [5.8851289, 49.91597], [5.8851524, 49.9160972], [5.8851719, 49.9161755], [5.885207, 49.9162681], [5.8852493, 49.9163539], [5.8853101, 49.9164434], [5.8853794, 49.9165273], [5.8854404, 49.9165795], [5.885544, 49.916659], [5.8856193, 49.9167098], [5.8856683, 49.9167385], [5.8856937, 49.9167533], [5.8858978, 49.9168726], [5.8862572, 49.9170968], [5.8863524, 49.9171523], [5.8866097, 49.917274], [5.8868444, 49.917375], [5.8870221, 49.9174602], [5.887177, 49.9175388], [5.8872183, 49.917561], [5.8872403, 49.9175727], [5.8873092, 49.9176096], [5.8874968, 49.9177169], [5.8875565, 49.917741], [5.8876234, 49.91776], [5.8879936, 49.9178475], [5.8880267, 49.9177858], [5.8881035, 49.9178155], [5.8879224, 49.9180785], [5.8872876, 49.9178822], [5.8871425, 49.9178339], [5.8871007, 49.9179103], [5.8874579, 49.9180272], [5.8879986, 49.9182071], [5.8882633, 49.9182948], [5.8881195, 49.9185081], [5.8880204, 49.918655], [5.8879539, 49.9187535], [5.8878932, 49.9188436], [5.8878878, 49.9188601], [5.8885097, 49.9191017], [5.8884984, 49.9191147], [5.8882814, 49.919377], [5.8880695, 49.9196333], [5.888197, 49.9196684], [5.8883361, 49.9197067], [5.8885265, 49.9197591], [5.8886328, 49.9197862], [5.8888983, 49.919854], [5.8891535, 49.9199126], [5.8894417, 49.9199788], [5.8896309, 49.9200223], [5.8898278, 49.9200713], [5.8899638, 49.9201081], [5.8900137, 49.9201216], [5.8901723, 49.9201647], [5.8902518, 49.9201863], [5.8903442, 49.9202118], [5.8905019, 49.9202554], [5.8905671, 49.9202735], [5.8909608, 49.9203889], [5.8910729, 49.9204216], [5.8912471, 49.9204724], [5.8913809, 49.9205137], [5.8914427, 49.9205337], [5.8916476, 49.9206052], [5.8918415, 49.9206876], [5.8919914, 49.9207587], [5.8920524, 49.9207877], [5.8922211, 49.920868], [5.8924274, 49.9209584], [5.8926049, 49.9210301], [5.8927631, 49.9210853], [5.8928191, 49.9211039], [5.893059, 49.9211839], [5.8934177, 49.9213004], [5.8934596, 49.921314], [5.8937448, 49.9213977], [5.893801, 49.9214142], [5.8938597, 49.9214335], [5.8940157, 49.921485], [5.8941203, 49.9215229], [5.8943033, 49.921589], [5.8946005, 49.9217086], [5.8948139, 49.9217993], [5.8950558, 49.9219021], [5.8952263, 49.9219733], [5.8952649, 49.9219894], [5.8955506, 49.9220999], [5.8955698, 49.9221297], [5.8956658, 49.9221735], [5.8958196, 49.9222427], [5.8960242, 49.922325], [5.8962082, 49.9223983], [5.8963359, 49.92246], [5.896635, 49.9226247], [5.8968532, 49.9227292], [5.8970068, 49.9228211], [5.8973605, 49.9230775], [5.8975456, 49.9231971], [5.8977695, 49.9233592], [5.8979277, 49.9234456], [5.8980212, 49.9235355], [5.8981382, 49.923707], [5.8982116, 49.9238596], [5.8983894, 49.9242568], [5.8984283, 49.9243365], [5.8985479, 49.9244668], [5.8986434, 49.9245732], [5.8988736, 49.9248773], [5.898596, 49.9249928], [5.8981641, 49.9252349], [5.8980675, 49.9253054], [5.8977955, 49.9256668], [5.8976594, 49.9258451], [5.8974676, 49.9261239], [5.8974579, 49.9261373], [5.8973867, 49.9262362], [5.8972372, 49.9264463], [5.8971678, 49.9265439], [5.8970821, 49.9266644], [5.8970582, 49.9266991], [5.8970016, 49.9267837], [5.8969276, 49.9268948], [5.8968794, 49.9269672], [5.8967875, 49.927136], [5.8964646, 49.9275341], [5.896464, 49.9275356], [5.8963558, 49.9278148], [5.8962902, 49.9279842], [5.8962644, 49.9280508], [5.8962441, 49.9281032], [5.8962297, 49.9281448], [5.8962208, 49.9281704], [5.8961863, 49.9282696], [5.8961754, 49.9283081], [5.896156, 49.9283765], [5.8961122, 49.9285044], [5.8960915, 49.9285647], [5.8959868, 49.9287883], [5.8958221, 49.9291082], [5.8956614, 49.9294072], [5.8955523, 49.929607], [5.8955406, 49.9296284], [5.8953831, 49.9299169], [5.895354, 49.9299717], [5.8951844, 49.930291], [5.8951493, 49.9303588], [5.8950923, 49.9304688], [5.8948602, 49.9309167], [5.8947608, 49.931101], [5.8946906, 49.9312227], [5.8945623, 49.9314447], [5.894394, 49.931717], [5.8943039, 49.9318571], [5.8942375, 49.9319509], [5.8941763, 49.9320251], [5.8940865, 49.9321192], [5.8939187, 49.9322829], [5.8938134, 49.9323854], [5.8936412, 49.9325399], [5.8934872, 49.9326782], [5.8932471, 49.9329108], [5.8932219, 49.9329353], [5.8931341, 49.9330239], [5.8929969, 49.9331623], [5.892876, 49.9332698], [5.8927564, 49.9333731], [5.8927166, 49.9334028], [5.8926512, 49.9334517], [5.8926206, 49.9334717], [5.8925564, 49.9335133], [5.8924537, 49.9335688], [5.8924163, 49.933589], [5.8923978, 49.9335982], [5.8922996, 49.9336472], [5.8921614, 49.933705], [5.8920585, 49.9337481], [5.8919496, 49.9337938], [5.8918974, 49.9338194], [5.891711, 49.933911], [5.8915515, 49.9339866], [5.8914582, 49.934021], [5.891339, 49.9340575], [5.8912834, 49.93407], [5.8910282, 49.9341277], [5.890667, 49.934187], [5.8906025, 49.934197], [5.890364, 49.934234], [5.8901868, 49.9342614], [5.8901561, 49.9342658], [5.890003, 49.9342877], [5.8899674, 49.9342928], [5.8898593, 49.9343083], [5.8900491, 49.9346795], [5.8900921, 49.9347638], [5.8901699, 49.934916], [5.8897563, 49.9350848], [5.8894021, 49.9352294], [5.8891228, 49.9353327], [5.8890006, 49.9353743], [5.8889114, 49.9354047], [5.8886241, 49.9354892], [5.8886575, 49.9355671], [5.8886839, 49.9356121], [5.8886942, 49.9356298], [5.888699, 49.9356379], [5.8887372, 49.9356812], [5.8888038, 49.935757], [5.8888809, 49.9359908], [5.8889057, 49.9361094], [5.8889375, 49.9362622], [5.8889495, 49.9364209], [5.8889511, 49.936443], [5.8894267, 49.9366002], [5.8896752, 49.9366764], [5.8897757, 49.9367058], [5.8897954, 49.9367116], [5.8900094, 49.936771], [5.8902938, 49.9368499], [5.8900313, 49.937353], [5.8900038, 49.9374057], [5.8900443, 49.9374146], [5.8901714, 49.9374306], [5.890339, 49.9374563], [5.8904998, 49.937489], [5.8905755, 49.9375067], [5.8905997, 49.9375199], [5.8906172, 49.9375479], [5.890649, 49.937658], [5.8906664, 49.937693], [5.8906959, 49.9377284], [5.89077, 49.937788], [5.8908698, 49.9378538], [5.8909762, 49.9379196], [5.8911134, 49.9379977], [5.8911772, 49.938034], [5.8913795, 49.9381341], [5.8914888, 49.9381894], [5.89154, 49.9382097], [5.8915954, 49.9382316], [5.8917264, 49.9382747], [5.8918791, 49.9383118], [5.8919804, 49.9383334], [5.8920547, 49.9383458], [5.8921927, 49.9383584], [5.8923861, 49.9383658], [5.8925633, 49.938368], [5.8926864, 49.9383613], [5.8928679, 49.9383395], [5.8930912, 49.9383129], [5.8931808, 49.9382703], [5.8932323, 49.9382521], [5.8933392, 49.9382384], [5.8933638, 49.9382332], [5.8934137, 49.9382228], [5.8935126, 49.9381968], [5.893556, 49.93819], [5.8936182, 49.9381901], [5.8936709, 49.938195], [5.8937534, 49.9382118], [5.8938141, 49.9382312], [5.8938614, 49.9382531], [5.8938871, 49.9382567], [5.8939114, 49.938255], [5.8939643, 49.938235], [5.8940796, 49.9381846], [5.8941419, 49.9381682], [5.8942164, 49.9381535], [5.894303, 49.9381432], [5.8943406, 49.9381396], [5.8944167, 49.9381321], [5.8945398, 49.9381355], [5.8945775, 49.9381368], [5.8946791, 49.9381402], [5.8947644, 49.9381351], [5.8948537, 49.9381273], [5.8949106, 49.9381224], [5.8949823, 49.9381138], [5.8950243, 49.9381026], [5.8950799, 49.9380791], [5.8951191, 49.9380625], [5.895164, 49.9380435], [5.8952331, 49.9380209], [5.8952738, 49.9379983], [5.895324, 49.93797], [5.895362, 49.9379527], [5.8953987, 49.9379283], [5.8954204, 49.937917], [5.8954692, 49.9379066], [5.8955003, 49.9378979], [5.8955334, 49.937887], [5.8955749, 49.9378732], [5.8956251, 49.9378384], [5.8956808, 49.9378027], [5.8957523, 49.937755], [5.8957827, 49.9377348], [5.8958357, 49.9376895], [5.8959078, 49.9376206], [5.8959228, 49.9375857], [5.8959666, 49.9375081], [5.8959884, 49.9374688], [5.8959927, 49.9374383], [5.8960023, 49.937406], [5.8960133, 49.9373833], [5.896035, 49.9373606], [5.8960622, 49.9373423], [5.8960758, 49.9373236], [5.8960951, 49.9372633], [5.8961142, 49.9372398], [5.8961631, 49.9372058], [5.8961971, 49.9371736], [5.8962394, 49.9371117], [5.8962611, 49.9370899], [5.8962769, 49.9370782], [5.8963127, 49.9370516], [5.8964403, 49.9369798], [5.8966377, 49.9368834], [5.8968391, 49.936785], [5.8969917, 49.9367127], [5.8970914, 49.9366655], [5.8972108, 49.9366072], [5.8973086, 49.9365454], [5.8974185, 49.9364749], [5.8975381, 49.9363874], [5.8976441, 49.9363003], [5.897746, 49.9362106], [5.8978616, 49.9360999], [5.8979611, 49.935991], [5.8979139, 49.9358012], [5.8979026, 49.9357256], [5.8979039, 49.9356298], [5.8979325, 49.9354769], [5.8976768, 49.9354414], [5.8977226, 49.9352257], [5.8977539, 49.9351229], [5.8977941, 49.9349974], [5.8978487, 49.9349116], [5.8978936, 49.9348565], [5.8979877, 49.9347604], [5.8981273, 49.9346294], [5.89828, 49.9346463], [5.8983896, 49.9346598], [5.898451, 49.9346741], [5.8985137, 49.9346969], [5.8986104, 49.9346679], [5.8987099, 49.9346426], [5.8987502, 49.934635], [5.8987992, 49.9346258], [5.8989002, 49.9346128], [5.8989446, 49.9346079], [5.8990084, 49.9346008], [5.8990786, 49.9345972], [5.899162, 49.9346012], [5.8992328, 49.9346084], [5.8991459, 49.9344694], [5.8996848, 49.9343129], [5.8998825, 49.9342652], [5.9000588, 49.9342312], [5.9001305, 49.9342295], [5.9002211, 49.9342334], [5.9004111, 49.934249], [5.9004687, 49.9342555], [5.9006858, 49.9342798], [5.900856, 49.9343043], [5.9011437, 49.9343588], [5.9016009, 49.9344476], [5.9015812, 49.9345779], [5.9017894, 49.934611], [5.9017547, 49.9347978], [5.9021184, 49.9348591], [5.9024485, 49.9349297], [5.9027938, 49.9350197], [5.9030757, 49.9350808], [5.9031011, 49.9350848], [5.9031808, 49.9350971], [5.9032193, 49.9350992], [5.9032525, 49.935101], [5.9034447, 49.9350982], [5.9037474, 49.9350923], [5.9040385, 49.9350797], [5.9042776, 49.9350599], [5.9045161, 49.935034], [5.9047268, 49.9350043], [5.9049186, 49.9349632], [5.9050445, 49.9349314], [5.905218, 49.9348803], [5.9054173, 49.9348071], [5.9056107, 49.9347273], [5.9057764, 49.9346521], [5.9058863, 49.9346014], [5.905961, 49.9345742], [5.9061207, 49.9345216], [5.9062767, 49.9344592], [5.9065112, 49.9343644], [5.9068688, 49.9341999], [5.9068599, 49.9343703], [5.9068205, 49.9350213], [5.9062726, 49.9353473], [5.906327, 49.9357], [5.9065503, 49.9357366], [5.9067923, 49.9357762], [5.9069895, 49.9358134], [5.9071998, 49.9358611], [5.9073205, 49.9358896], [5.9075064, 49.9359336], [5.9078001, 49.9360131], [5.907813, 49.9360202], [5.9079743, 49.9359469], [5.9081882, 49.9358567], [5.9083215, 49.9358202], [5.9085315, 49.9357853], [5.9089559, 49.935721], [5.909212, 49.935665], [5.9094588, 49.9355895], [5.9096435, 49.9355125], [5.9098106, 49.935426], [5.9101676, 49.935246], [5.9105751, 49.9350457], [5.9110133, 49.9348569], [5.9110217, 49.9348703], [5.9111119, 49.9350073], [5.9112481, 49.935057], [5.9116103, 49.9351892], [5.9113217, 49.9352972], [5.9111151, 49.9353874], [5.9107332, 49.9355617], [5.9123707, 49.9363566], [5.9126692, 49.9361462], [5.9129799, 49.9360436], [5.9132441, 49.9359678], [5.9134843, 49.9358888], [5.9138848, 49.9357374], [5.9139182, 49.9357664], [5.9144019, 49.935593], [5.9144532, 49.9355738], [5.9145758, 49.935528], [5.9146903, 49.9354852], [5.9147896, 49.9354458], [5.9149499, 49.9353821], [5.9150459, 49.935344], [5.9151676, 49.9353019], [5.9152557, 49.9352722], [5.9153405, 49.9352501], [5.9154911, 49.9352118], [5.9155536, 49.9351758], [5.9157781, 49.9350529], [5.9160522, 49.9349028], [5.9161372, 49.9348513], [5.9162994, 49.9347211], [5.9165034, 49.9345346], [5.9165356, 49.9344944], [5.9165469, 49.9344583], [5.9165583, 49.9344284], [5.916557, 49.9343654], [5.9165494, 49.9342978], [5.9165084, 49.9341883], [5.9164959, 49.9341613], [5.9164588, 49.9340813], [5.9163961, 49.9339459], [5.9163683, 49.9338856], [5.9163503, 49.9338467], [5.9163204, 49.9337486], [5.916354, 49.9337517], [5.9163638, 49.9337156], [5.9163783, 49.9336774], [5.9164026, 49.9336259], [5.9164265, 49.9335838], [5.9163844, 49.9332438], [5.9163744, 49.9331629], [5.9164567, 49.9331498], [5.9164861, 49.9331347], [5.9165096, 49.9331196], [5.9165406, 49.933096], [5.9165714, 49.9330876], [5.9165978, 49.9330886], [5.9166403, 49.9331], [5.9166741, 49.9330963], [5.9166829, 49.933094], [5.9167314, 49.9330865], [5.9167754, 49.9330752], [5.9168209, 49.9330706], [5.9168459, 49.9330621], [5.9168738, 49.9330603], [5.9168958, 49.9330608], [5.9169119, 49.9330741], [5.9169177, 49.9330864], [5.9169323, 49.933094], [5.9169485, 49.9330931], [5.9169529, 49.9330856], [5.916953, 49.9330704], [5.9169545, 49.93306], [5.9169634, 49.9330552], [5.9169824, 49.9330591], [5.9170279, 49.9330677], [5.9170645, 49.9330744], [5.9171129, 49.9330802], [5.9171657, 49.9330841], [5.9171965, 49.9330842], [5.9172362, 49.9330738], [5.9172817, 49.9330612], [5.917314, 49.9330527], [5.9173405, 49.9330385], [5.9173538, 49.93303], [5.9173817, 49.9330216], [5.9174169, 49.9330226], [5.9175049, 49.9330389], [5.9175767, 49.9330428], [5.917656, 49.9330335], [5.9177691, 49.9330101], [5.9178382, 49.9329941], [5.9178558, 49.9329923], [5.9179145, 49.9329943], [5.917957, 49.9329868], [5.9180422, 49.9329728], [5.9181084, 49.932953], [5.9181686, 49.9329342], [5.918245, 49.9329107], [5.9183214, 49.9328924], [5.9184521, 49.9328661], [5.9185476, 49.9328474], [5.9185946, 49.932837], [5.9186431, 49.9328153], [5.9187063, 49.9328022], [5.9187533, 49.9327881], [5.9188018, 49.9327702], [5.9188371, 49.9327542], [5.9188827, 49.9327353], [5.9189929, 49.9326995], [5.919065, 49.9326708], [5.9191209, 49.9326415], [5.9191592, 49.932616], [5.9192003, 49.932601], [5.9192224, 49.9325991], [5.9192546, 49.9326011], [5.9192737, 49.932604], [5.9192957, 49.932605], [5.9193295, 49.9326012], [5.9193588, 49.9325994], [5.9193882, 49.9325995], [5.9194072, 49.932609], [5.9194468, 49.9326129], [5.9194776, 49.9326129], [5.9194967, 49.932613], [5.9195186, 49.9326168], [5.9195391, 49.9326301], [5.9195684, 49.9326359], [5.9195919, 49.932635], [5.9196154, 49.9326322], [5.9196345, 49.9326369], [5.9196608, 49.9326446], [5.9196843, 49.9326475], [5.9197078, 49.9326456], [5.9197386, 49.9326381], [5.9197916, 49.9326155], [5.9198238, 49.9326203], [5.9198487, 49.9326346], [5.9198721, 49.9326536], [5.9198764, 49.9326744], [5.919888, 49.9326868], [5.9199114, 49.9327096], [5.919942, 49.9327485], [5.9199712, 49.9327836], [5.9206067, 49.9327518], [5.9208987, 49.9327453], [5.9209077, 49.9327093], [5.9209136, 49.9326923], [5.9209269, 49.9326733], [5.9209608, 49.9326431], [5.9209991, 49.9326166], [5.9210388, 49.9325987], [5.9210682, 49.9325931], [5.9211048, 49.932596], [5.9211547, 49.9326065], [5.9211781, 49.9326227], [5.921197, 49.9326569], [5.92121, 49.9326919], [5.921229, 49.9327053], [5.9212671, 49.9327129], [5.9213362, 49.932697], [5.9213685, 49.9326856], [5.9213891, 49.9326667], [5.921398, 49.9326497], [5.9214055, 49.9326147], [5.9214161, 49.9325944], [5.9214401, 49.9325746], [5.9214768, 49.9325393], [5.9215258, 49.9325192], [5.9215612, 49.9325126], [5.9216171, 49.9324907], [5.9216354, 49.9324738], [5.9216571, 49.9324592], [5.9216788, 49.9324563], [5.9216993, 49.9324592], [5.9217254, 49.9324696], [5.9217492, 49.9324851], [5.921789, 49.9325014], [5.9218152, 49.932508], [5.921855, 49.9325147], [5.9218801, 49.9325148], [5.921904, 49.9325141], [5.9219302, 49.9325178], [5.9219438, 49.9325245], [5.9219483, 49.9325436], [5.9219448, 49.932562], [5.9219447, 49.9325753], [5.9219469, 49.9325885], [5.9219582, 49.9326157], [5.9219842, 49.9326393], [5.9219853, 49.9326548], [5.921975, 49.9326658], [5.9219499, 49.9326834], [5.9219429, 49.9326996], [5.9219496, 49.9327261], [5.9219621, 49.9327459], [5.921955, 49.9327959], [5.922161, 49.9328148], [5.9221681, 49.9327677], [5.9221967, 49.9327435], [5.9221935, 49.9327104], [5.9221937, 49.9326618], [5.9221928, 49.9326265], [5.9222054, 49.932606], [5.9222443, 49.9325788], [5.9222979, 49.9325495], [5.9223242, 49.9325422], [5.9223903, 49.9325284], [5.9227244, 49.932461], [5.9230824, 49.9323879], [5.9232359, 49.9323572], [5.9234324, 49.932318], [5.9234746, 49.9323159], [5.9235304, 49.9323167], [5.9235634, 49.9323227], [5.9236055, 49.9323316], [5.9236703, 49.9323464], [5.923742, 49.9323628], [5.9238433, 49.9323876], [5.9239992, 49.9324071], [5.9241233, 49.9324206], [5.9243157, 49.9324361], [5.9243875, 49.9324384], [5.9244797, 49.9324408], [5.924531, 49.932438], [5.9245959, 49.9324352], [5.9246483, 49.9324353], [5.9246779, 49.9324434], [5.9247132, 49.932445], [5.9247622, 49.9324355], [5.9247964, 49.9324253], [5.9248227, 49.932418], [5.9248762, 49.9324107], [5.9249332, 49.9324083], [5.9249947, 49.9324143], [5.9250596, 49.9324218], [5.9251336, 49.9324322], [5.9251837, 49.9324368], [5.9252372, 49.9324413], [5.9252805, 49.9324399], [5.9253006, 49.9324355], [5.9253169, 49.9324319], [5.9253363, 49.9324231], [5.9253626, 49.9324107], [5.9253968, 49.9324034], [5.925423, 49.9324005], [5.9255176, 49.9323985], [5.925554, 49.9323978], [5.925587, 49.9324023], [5.9256314, 49.9324098], [5.9257066, 49.9324213], [5.9257453, 49.9324258], [5.9257817, 49.9324251], [5.9258113, 49.9324274], [5.9258352, 49.9324341], [5.9258875, 49.9324467], [5.9259171, 49.932449], [5.9259638, 49.9324491], [5.9259718, 49.9324491], [5.925982, 49.9324513], [5.925998, 49.9324587], [5.9260253, 49.9324654], [5.9260548, 49.9324706], [5.9260833, 49.9324692], [5.9261061, 49.9324699], [5.9261368, 49.9324796], [5.9261891, 49.9325025], [5.9262073, 49.9325084], [5.9262403, 49.9325107], [5.9262676, 49.9325137], [5.9262927, 49.9325211], [5.9263382, 49.9325263], [5.9263541, 49.9325256], [5.926369, 49.9325198], [5.9263974, 49.9325213], [5.9264259, 49.9325221], [5.9264532, 49.9325303], [5.9264794, 49.9325303], [5.9264942, 49.9325259], [5.9265296, 49.9325223], [5.9266879, 49.9325252], [5.9272255, 49.9325297], [5.9274977, 49.932539], [5.927697, 49.9325361], [5.9279146, 49.9325292], [5.9279567, 49.9325315], [5.9280022, 49.9325434], [5.9280738, 49.9325693], [5.9281659, 49.9326041], [5.9283808, 49.9326909], [5.9288911, 49.9329127], [5.9291189, 49.9329098], [5.9293705, 49.9327088], [5.9296403, 49.9327461], [5.929728, 49.9327375], [5.9297668, 49.9327291], [5.9297907, 49.932724], [5.9298204, 49.9327108], [5.9298558, 49.9327006], [5.9298911, 49.9326955], [5.9299492, 49.9326927], [5.929972, 49.9326964], [5.9299947, 49.9327053], [5.9300072, 49.9327068], [5.9300266, 49.9327039], [5.9303756, 49.9326068], [5.9307005, 49.9325164], [5.9316894, 49.9322769], [5.931669, 49.9322548], [5.9316441, 49.9322349], [5.931697, 49.9322065], [5.9317266, 49.9322032], [5.9317562, 49.9321978], [5.9317816, 49.9321897], [5.9318006, 49.9321802], [5.9318313, 49.9321666], [5.9318504, 49.9321618], [5.9318736, 49.9321619], [5.9319084, 49.9321626], [5.9319507, 49.9321695], [5.9320087, 49.9321881], [5.9320666, 49.9322134], [5.9322806, 49.9323018], [5.9322851, 49.9322942], [5.9325398, 49.9319907], [5.9324438, 49.9319591], [5.9323141, 49.9319152], [5.9321592, 49.9318514], [5.9320349, 49.9317963], [5.9320413, 49.9317755], [5.9320803, 49.9317831], [5.9321985, 49.9318024], [5.9323958, 49.9318444], [5.9324433, 49.9318513], [5.9324961, 49.9318569], [5.932569, 49.931853], [5.9326503, 49.9318446], [5.9327687, 49.9318332], [5.9331354, 49.9317733], [5.9333796, 49.931739], [5.9334161, 49.9317376], [5.9337944, 49.9317292], [5.9338287, 49.931622], [5.9338854, 49.9314445], [5.9339351, 49.9312942], [5.9339496, 49.9312503], [5.9340087, 49.9310599], [5.9341072, 49.9307427], [5.9340445, 49.9307402], [5.9338339, 49.9307504], [5.9336962, 49.930753], [5.9335424, 49.9307505], [5.9334708, 49.9307476], [5.9333238, 49.9307407], [5.9332189, 49.9307292], [5.9331139, 49.9307177], [5.9327786, 49.9306635], [5.9325337, 49.9306112], [5.932479, 49.9305995], [5.9323166, 49.9305579], [5.9321859, 49.9304962], [5.9320858, 49.9304558], [5.9320225, 49.9304365], [5.931937, 49.9304186], [5.9318087, 49.9303966], [5.9316859, 49.9303755], [5.9314232, 49.9303197], [5.9313335, 49.9302988], [5.9311785, 49.9302626], [5.9310446, 49.93022], [5.9309297, 49.9301772], [5.9308855, 49.9301532], [5.9308718, 49.9301382], [5.930853, 49.930102], [5.9308465, 49.9300709], [5.9308728, 49.9300127], [5.930989, 49.9298535], [5.9310377, 49.9297868], [5.9310708, 49.9297076], [5.9311425, 49.9295355], [5.9312301, 49.9293252], [5.9311694, 49.9293183], [5.931234, 49.9291008], [5.9313036, 49.9288665], [5.9318764, 49.9289437], [5.9319268, 49.9289519], [5.931474, 49.9286781], [5.9311155, 49.9284554], [5.9311163, 49.9284235], [5.931827, 49.9285714], [5.931821, 49.9285923], [5.9318109, 49.9286277], [5.932379, 49.9287376], [5.9331251, 49.9288821], [5.9333013, 49.9289162], [5.9333649, 49.9289285], [5.9335631, 49.9289619], [5.9340334, 49.929041], [5.9345236, 49.9291235], [5.9347958, 49.9291693], [5.9350198, 49.9292043], [5.9357518, 49.929319], [5.935994, 49.9293517], [5.9362505, 49.9293809], [5.9365926, 49.9294071], [5.9367446, 49.9294136], [5.9368028, 49.9294106], [5.9368587, 49.9294077], [5.9369744, 49.9293956], [5.9370103, 49.9293897], [5.9371504, 49.9293668], [5.9373105, 49.9293293], [5.9374962, 49.9292672], [5.937766, 49.9291583], [5.9380025, 49.9290447], [5.9384791, 49.9287494], [5.9383927, 49.928603], [5.9383298, 49.9285005], [5.9382967, 49.9284728], [5.9382414, 49.9284441], [5.9380913, 49.9283691], [5.9393636, 49.928632], [5.9399792, 49.9287549], [5.9400755, 49.9287762], [5.9403306, 49.9288327], [5.9405744, 49.92884], [5.9406853, 49.9287133], [5.940791, 49.9285924], [5.9408438, 49.928484], [5.9409828, 49.9282403], [5.9412299, 49.9278914], [5.941231, 49.9278271], [5.9412344, 49.9276213], [5.9414811, 49.9270238], [5.9415294, 49.9268591], [5.941645, 49.9265309], [5.9418158, 49.9262315], [5.942151, 49.9256996], [5.942201, 49.9255033], [5.9422014, 49.9254082], [5.9419468, 49.9249759], [5.9417679, 49.9246231], [5.9418018, 49.9244876], [5.941799, 49.924416], [5.9418104, 49.9243301], [5.9418074, 49.9242953], [5.9417871, 49.924239], [5.9417368, 49.9241529], [5.9417054, 49.9240956], [5.941622, 49.923986], [5.9415164, 49.9238809], [5.9414497, 49.9235805], [5.9414423, 49.9234546], [5.9414811, 49.9232925], [5.9415593, 49.9231658], [5.9416994, 49.9230126], [5.942013, 49.9227584], [5.9420476, 49.9227304], [5.9420447, 49.922669], [5.9420681, 49.9224036], [5.9420895, 49.9222251], [5.9421339, 49.9218896], [5.9422174, 49.9216243], [5.9423233, 49.9213396], [5.9425467, 49.9209722], [5.9428003, 49.9205916], [5.9428847, 49.9205078], [5.9431738, 49.9203207], [5.9442222, 49.9195755], [5.9446477, 49.9193339], [5.9456057, 49.9189173], [5.9461787, 49.9186615], [5.9465999, 49.918391], [5.9468061, 49.9182385], [5.9471202, 49.9179303], [5.9473492, 49.9176695], [5.9475383, 49.9173582], [5.9476802, 49.9169362], [5.9476849, 49.9168972], [5.9476468, 49.9168027], [5.9475261, 49.9165038], [5.9474457, 49.9162091], [5.9474967, 49.9159696], [5.9476206, 49.9157184], [5.9477347, 49.9155587], [5.9477868, 49.9154858], [5.9478033, 49.9150672], [5.9478584, 49.9147383], [5.9479039, 49.9145523], [5.9480513, 49.9140648], [5.9480566, 49.913939], [5.9480623, 49.9138039], [5.948065, 49.9135646], [5.9481008, 49.9134156], [5.9481645, 49.9133298], [5.9484004, 49.9131097], [5.9487883, 49.9128786], [5.9488456, 49.9128529], [5.9489846, 49.9127905], [5.9493246, 49.9123667], [5.9495721, 49.9120127], [5.9496988, 49.9117613], [5.9497748, 49.911544], [5.9498404, 49.9112136], [5.9498902, 49.9107019]]]}}]}