{"type": "FeatureCollection", "features": [{"type": "Feature", "properties": {"name": "Liefrange"}, "geometry": {"type": "Polygon", "coordinates": [[[5.8907991, 49.9117537], [5.8900608, 49.9115408], [5.8888595, 49.9110945], [5.8880367, 49.910628], [5.8874549, 49.9101093], [5.8864129, 49.9089086], [5.8863285, 49.9086233], [5.8864155, 49.9084546], [5.8865714, 49.9082544], [5.8864698, 49.9079797], [5.8861798, 49.9075884], [5.8847077, 49.9064182], [5.884194, 49.9060369], [5.8837477, 49.9059091], [5.883146, 49.905876], [5.8822872, 49.9057155], [5.8817722, 49.9055559], [5.8813265, 49.9053225], [5.8810187, 49.9050262], [5.8808659, 49.9046985], [5.8808522, 49.9041073], [5.8806833, 49.9036001], [5.8804272, 49.9032881], [5.8798618, 49.9029383], [5.8789366, 49.902387], [5.8778726, 49.902036], [5.8774088, 49.9019503], [5.8767201, 49.902107], [5.8763073, 49.9021376], [5.8756716, 49.902041], [5.8750697, 49.9020606], [5.8745876, 49.902165], [5.8734681, 49.9024683], [5.8717987, 49.9027174], [5.87056, 49.9028145], [5.869322, 49.9028114], [5.8678788, 49.9026282], [5.8669349, 49.9023301], [5.8663017, 49.9018429], [5.866047, 49.9013355], [5.8658277, 49.9006487], [5.8656441, 49.8997614], [5.8653064, 49.8987787], [5.8649321, 49.8981443], [5.8642292, 49.8978152], [5.8635944, 49.8976024], [5.8620653, 49.8974294], [5.8611365, 49.8974798], [5.8604655, 49.8975625], [5.8598964, 49.8978355], [5.8597059, 49.8980461], [5.8595485, 49.898468], [5.8597169, 49.8990174], [5.85999, 49.8993348], [5.8606063, 49.8997587], [5.8612921, 49.9000773], [5.8620105, 49.9006704], [5.8621462, 49.900961], [5.8621605, 49.9014256], [5.862055, 49.9017948], [5.8619152, 49.9021428], [5.861586, 49.9025326], [5.8610509, 49.902869], [5.8605336, 49.9030893], [5.8596881, 49.9035516], [5.8590315, 49.9040513], [5.858407, 49.9049048], [5.8577109, 49.9062121], [5.8573458, 49.9068234], [5.8582456, 49.9068072], [5.8587375, 49.9069702], [5.8588123, 49.9069411], [5.8588875, 49.9069118], [5.8589467, 49.9068887], [5.8589719, 49.9068789], [5.8592052, 49.9067876], [5.8594016, 49.9067108], [5.8596674, 49.9066017], [5.8598547, 49.9066467], [5.8601228, 49.906711], [5.8604123, 49.9067806], [5.8607764, 49.9068691], [5.8609942, 49.9069342], [5.8610267, 49.9069445], [5.8611067, 49.90697], [5.8615884, 49.9071236], [5.862, 49.9072506], [5.8622976, 49.9073425], [5.8628219, 49.9075019], [5.8630424, 49.908001], [5.86306, 49.9080408], [5.8630835, 49.9080898], [5.8631056, 49.908136], [5.86322, 49.9083751], [5.8630275, 49.908503], [5.8628413, 49.9086274], [5.8627505, 49.9086805], [5.8626318, 49.9087295], [5.8624037, 49.908816], [5.8622989, 49.9088711], [5.8622426, 49.9089062], [5.8622144, 49.9089283], [5.862438, 49.9090573], [5.8624486, 49.9090469], [5.8630065, 49.9093317], [5.8632885, 49.9091447], [5.8635993, 49.909011], [5.8645837, 49.9087977], [5.8655249, 49.9085123], [5.8663404, 49.9081843], [5.8672812, 49.907974], [5.8687154, 49.9078337], [5.8691235, 49.9091771], [5.8694838, 49.9096442], [5.8703263, 49.9104567], [5.8705473, 49.9109694], [5.8706284, 49.9113031], [5.8706637, 49.91136], [5.8706839, 49.9114264], [5.870691, 49.9114615], [5.8706935, 49.9115335], [5.8706947, 49.9115648], [5.8707078, 49.9115838], [5.8707634, 49.9116171], [5.8708145, 49.9116419], [5.8708387, 49.9116599], [5.8708554, 49.9116723], [5.8708918, 49.911715], [5.8709078, 49.911734], [5.8709595, 49.9117785], [5.8709895, 49.9118044], [5.8710261, 49.9118281], [5.8710714, 49.9118453], [5.8710904, 49.9118586], [5.8711006, 49.9118757], [5.8711005, 49.9118913], [5.8710813, 49.911915], [5.8710753, 49.9119301], [5.8710896, 49.9119842], [5.8711242, 49.9120904], [5.8711307, 49.9121191], [5.8711428, 49.912172], [5.8711513, 49.912216], [5.8711639, 49.9123108], [5.8711769, 49.912344], [5.8712438, 49.9124428], [5.87128, 49.9125177], [5.8712959, 49.9125623], [5.8713045, 49.9125865], [5.87133, 49.9127315], [5.8713373, 49.9127644], [5.8713571, 49.9128538], [5.8713873, 49.9129549], [5.8714073, 49.9130449], [5.871414, 49.9131435], [5.8714207, 49.9132501], [5.8714277, 49.9133108], [5.8714566, 49.9133857], [5.8715146, 49.9134863], [5.8715319, 49.9135201], [5.8715813, 49.9136168], [5.871629, 49.9137363], [5.8716721, 49.913871], [5.8716854, 49.9139201], [5.8717037, 49.9139881], [5.8717456, 49.9140896], [5.8718255, 49.9142168], [5.8718592, 49.9142761], [5.8718749, 49.9143036], [5.8719401, 49.9144327], [5.8720198, 49.9145892], [5.8721565, 49.9147748], [5.872238, 49.9148921], [5.872267, 49.9149395], [5.8722829, 49.9149813], [5.8722957, 49.9150514], [5.8722909, 49.9151083], [5.8722759, 49.9151613], [5.8722064, 49.9152549], [5.8721429, 49.915332], [5.8720762, 49.9154465], [5.8722226, 49.9154829], [5.8721558, 49.9156206], [5.8721186, 49.9157086], [5.8720934, 49.9157474], [5.87203, 49.9158003], [5.8719932, 49.9158239], [5.8719622, 49.9158513], [5.8719282, 49.915891], [5.8718987, 49.9159184], [5.871831, 49.915959], [5.8717898, 49.9159883], [5.8717455, 49.9160275], [5.8717013, 49.9160634], [5.871685, 49.9160927], [5.8716583, 49.9161372], [5.8716244, 49.9161703], [5.8716154, 49.9162006], [5.8716181, 49.9162347], [5.8716414, 49.9162689], [5.8716631, 49.9163068], [5.8716703, 49.9163296], [5.8716694, 49.9163466], [5.8716687, 49.9163609], [5.8716433, 49.9164333], [5.8715971, 49.9165478], [5.8715866, 49.9165923], [5.8715907, 49.9166445], [5.8716079, 49.9166966], [5.8716543, 49.9167948], [5.8717065, 49.9168945], [5.8717341, 49.9169372], [5.8718143, 49.9170179], [5.8717643, 49.917042], [5.8721377, 49.9173869], [5.8723056, 49.917538], [5.8724499, 49.9176677], [5.8726192, 49.9178117], [5.8726528, 49.9178475], [5.8727022, 49.9179001], [5.8727619, 49.9179789], [5.8728025, 49.9180614], [5.8728285, 49.9181217], [5.8728388, 49.9181682], [5.8730447, 49.9180436], [5.8731266, 49.9180798], [5.8732173, 49.9181255], [5.873283, 49.9181702], [5.8734135, 49.9181705], [5.8730491, 49.917783], [5.8730705, 49.9177687], [5.8731277, 49.9177299], [5.8733628, 49.917571], [5.8734039, 49.9176032], [5.8736937, 49.9177869], [5.874066, 49.9180066], [5.8744343, 49.9182168], [5.8746309, 49.9180899], [5.8747286, 49.91814], [5.8751229, 49.9183419], [5.8759807, 49.9187801], [5.8760347, 49.9187366], [5.8765351, 49.9189814], [5.8770536, 49.9192076], [5.877352, 49.9193375], [5.8774331, 49.9193787], [5.8775279, 49.9194342], [5.8776341, 49.9194982], [5.8779484, 49.9196877], [5.8780954, 49.9197674], [5.8783607, 49.9199039], [5.8785439, 49.9197137], [5.8788529, 49.9198367], [5.8789469, 49.9198741], [5.879112, 49.9199387], [5.8794669, 49.920071], [5.8798851, 49.9202466], [5.8799862, 49.9202934], [5.8801353, 49.9203625], [5.8802866, 49.9204262], [5.8803557, 49.9204541], [5.8805449, 49.9205305], [5.8811835, 49.9207887], [5.8812865, 49.9208301], [5.8818548, 49.9210589], [5.8820605, 49.9210193], [5.8822485, 49.9211873], [5.8822787, 49.9212132], [5.8823907, 49.9211555], [5.8825066, 49.921146], [5.8826928, 49.9211429], [5.8828348, 49.9211495], [5.8830759, 49.9211831], [5.8837535, 49.9213072], [5.8839023, 49.9213325], [5.8840829, 49.9213467], [5.8842456, 49.9213489], [5.8844428, 49.9213396], [5.8846056, 49.9213177], [5.8848113, 49.9212817], [5.8850735, 49.9212463], [5.885268, 49.9212316], [5.8855163, 49.9212197], [5.8857508, 49.921194], [5.8868037, 49.9210634], [5.8872369, 49.9210244], [5.8873941, 49.9210207], [5.887565, 49.9210256], [5.8875809, 49.9210053], [5.887791, 49.9208253], [5.8882302, 49.9204589], [5.8882927, 49.9204059], [5.8883146, 49.9203873], [5.8886752, 49.9200811], [5.8887115, 49.920047], [5.8888983, 49.919854], [5.8886328, 49.9197862], [5.8885265, 49.9197591], [5.8883361, 49.9197067], [5.888197, 49.9196684], [5.8880695, 49.9196333], [5.8882814, 49.919377], [5.8884984, 49.9191147], [5.8885097, 49.9191017], [5.8878878, 49.9188601], [5.8878932, 49.9188436], [5.8879539, 49.9187535], [5.8880204, 49.918655], [5.8881195, 49.9185081], [5.8882633, 49.9182948], [5.8879986, 49.9182071], [5.8874579, 49.9180272], [5.8871007, 49.9179103], [5.8871425, 49.9178339], [5.8872876, 49.9178822], [5.8879224, 49.9180785], [5.8881035, 49.9178155], [5.8880267, 49.9177858], [5.8879936, 49.9178475], [5.8876234, 49.91776], [5.8875565, 49.917741], [5.8874968, 49.9177169], [5.8873092, 49.9176096], [5.8872403, 49.9175727], [5.8872183, 49.917561], [5.887177, 49.9175388], [5.8870221, 49.9174602], [5.8868444, 49.917375], [5.8866097, 49.917274], [5.8863524, 49.9171523], [5.8862572, 49.9170968], [5.8858978, 49.9168726], [5.8856937, 49.9167533], [5.8856683, 49.9167385], [5.8856193, 49.9167098], [5.885544, 49.916659], [5.8854404, 49.9165795], [5.8853794, 49.9165273], [5.8853101, 49.9164434], [5.8852493, 49.9163539], [5.885207, 49.9162681], [5.8851719, 49.9161755], [5.8851524, 49.9160972], [5.8851289, 49.91597], [5.8851172, 49.9157835], [5.8851985, 49.915779], [5.8852256, 49.9157681], [5.8852428, 49.915746], [5.8852587, 49.9157092], [5.8852789, 49.9156678], [5.8853149, 49.9156145], [5.8853298, 49.9155983], [5.8853522, 49.9155742], [5.8854167, 49.9155047], [5.885507, 49.9154192], [5.8855802, 49.915343], [5.8856749, 49.91524], [5.885873, 49.9150015], [5.8860021, 49.91486], [5.8860868, 49.9147741], [5.8861729, 49.9146961], [5.8862258, 49.9146482], [5.886296, 49.9145821], [5.8863362, 49.9145371], [5.8863822, 49.9144667], [5.886421, 49.9144226], [5.8864739, 49.9143841], [5.8865383, 49.9143455], [5.886641, 49.9142948], [5.886738, 49.9142297], [5.8868059, 49.9141767], [5.8868574, 49.91414], [5.8869075, 49.9141024], [5.8869433, 49.914067], [5.8870064, 49.9140027], [5.8870537, 49.9139687], [5.8870995, 49.9139338], [5.8871168, 49.9139062], [5.8871255, 49.9138786], [5.8871285, 49.9138418], [5.8871373, 49.9138013], [5.8871451, 49.913775], [5.8871519, 49.9137521], [5.8871692, 49.9137208], [5.8872152, 49.91365], [5.8872783, 49.9135783], [5.8873028, 49.9135443], [5.8873143, 49.9135185], [5.8873102, 49.9134872], [5.8873075, 49.9134623], [5.887319, 49.9134458], [5.8873505, 49.9134187], [5.8874852, 49.9133094], [5.8875184, 49.9132769], [5.8875368, 49.9132589], [5.8875581, 49.9132321], [5.8875784, 49.9132065], [5.8876186, 49.9131541], [5.8876603, 49.9131031], [5.8877104, 49.913058], [5.8878221, 49.9129837], [5.8878807, 49.9129424], [5.8878943, 49.9129302], [5.8879051, 49.9129204], [5.8879425, 49.9128661], [5.8879799, 49.9128073], [5.888043, 49.9127351], [5.8880761, 49.9126855], [5.8880879, 49.9126645], [5.8881351, 49.9125806], [5.8881596, 49.9125438], [5.8881797, 49.9125199], [5.8882183, 49.9124952], [5.8882411, 49.9124884], [5.8882797, 49.9124769], [5.8883625, 49.9124541], [5.8884097, 49.9124302], [5.8885142, 49.9123614], [5.8886014, 49.912316], [5.8886529, 49.9122922], [5.888728, 49.9122656], [5.8887976, 49.9122444], [5.8888639, 49.9122321], [5.8890672, 49.9122091], [5.8895465, 49.9120779], [5.8907991, 49.9117537]]]}}]}