{"type": "FeatureCollection", "features": [{"type": "Feature", "properties": {"name": "Mecher"}, "geometry": {"type": "Polygon", "coordinates": [[[5.860867, 49.9378274], [5.8609303, 49.9378903], [5.8610961, 49.9380604], [5.8612815, 49.9382369], [5.8614767, 49.9383329], [5.8615017, 49.9383241], [5.861591, 49.9383319], [5.8616329, 49.9383516], [5.8616643, 49.9383686], [5.8617193, 49.9383967], [5.8617678, 49.9384138], [5.8618558, 49.9384276], [5.8620344, 49.9384307], [5.8622722, 49.9384389], [5.8624035, 49.938452], [5.8626372, 49.9384819], [5.862947, 49.9385226], [5.8631491, 49.9385575], [5.8633682, 49.9386072], [5.8634168, 49.9386184], [5.8634679, 49.9386355], [5.8635807, 49.9386706], [5.8637418, 49.9387363], [5.8640262, 49.9388614], [5.8643694, 49.9390192], [5.8646654, 49.9391651], [5.8650858, 49.9393897], [5.8653161, 49.9393825], [5.8654767, 49.9394114], [5.8655949, 49.939429], [5.8657146, 49.9394476], [5.8658201, 49.9394581], [5.8659006, 49.9394583], [5.8658814, 49.939503], [5.8659619, 49.9394839], [5.8661357, 49.9394212], [5.8663489, 49.9393587], [5.8664384, 49.9393436], [5.8664501, 49.9392732], [5.8664742, 49.9391291], [5.8664861, 49.9390577], [5.8665404, 49.9387331], [5.8665532, 49.9386747], [5.8665582, 49.9386517], [5.8665887, 49.9385755], [5.8666301, 49.9385053], [5.8666968, 49.93842], [5.8667002, 49.9384163], [5.8668191, 49.9382844], [5.8668764, 49.9382239], [5.866973, 49.9381219], [5.8670872, 49.9380066], [5.867301, 49.9378545], [5.8674831, 49.9377216], [5.8675586, 49.9376629], [5.8677546, 49.9375105], [5.8681137, 49.9372315], [5.8685339, 49.9369117], [5.8688423, 49.936677], [5.8689039, 49.9366269], [5.8689164, 49.9366167], [5.8689247, 49.93661], [5.868939, 49.9365917], [5.8689692, 49.93655], [5.8690394, 49.9364158], [5.8690423, 49.9364104], [5.8690614, 49.9363738], [5.8691176, 49.9362659], [5.8691574, 49.9361898], [5.8691866, 49.9361341], [5.8692193, 49.9360716], [5.8693553, 49.9358119], [5.86962, 49.9358334], [5.8697067, 49.9358438], [5.8697854, 49.9358614], [5.8698593, 49.935887], [5.8700134, 49.9359485], [5.870265, 49.9360591], [5.8703232, 49.9360837], [5.8704082, 49.9358518], [5.8704514, 49.9357363], [5.8705121, 49.9356051], [5.8706221, 49.9354069], [5.8710926, 49.9355572], [5.8714089, 49.9356507], [5.8720547, 49.9358364], [5.8720856, 49.9358453], [5.8721013, 49.9358507], [5.8724569, 49.9359715], [5.8726964, 49.9360472], [5.8727118, 49.9360521], [5.8729164, 49.9361086], [5.8732879, 49.9362032], [5.873497, 49.9362479], [5.8735108, 49.9362141], [5.873521, 49.9361892], [5.8737874, 49.935537], [5.8738382, 49.9354125], [5.8738435, 49.9353969], [5.8739006, 49.9352272], [5.8739313, 49.9351358], [5.8740684, 49.9347074], [5.8742666, 49.9347252], [5.8748683, 49.9347791], [5.8750467, 49.9347944], [5.8754163, 49.9348262], [5.875765, 49.9348561], [5.8762515, 49.935079], [5.8768163, 49.9353321], [5.8769063, 49.935349], [5.8770514, 49.9353762], [5.8775296, 49.9354602], [5.8775379, 49.9354612], [5.877585, 49.9354673], [5.8776367, 49.9354739], [5.8777191, 49.9354771], [5.8777282, 49.9354771], [5.8779205, 49.9354768], [5.8780069, 49.935466], [5.8782059, 49.935426], [5.8782554, 49.9354149], [5.8784835, 49.9353642], [5.8785206, 49.9353609], [5.8788501, 49.9353994], [5.8790571, 49.9354166], [5.8792968, 49.9354443], [5.8796373, 49.9354738], [5.8799383, 49.9354969], [5.8799273, 49.9356107], [5.8802622, 49.9355674], [5.8803279, 49.9355589], [5.8809035, 49.9354685], [5.8810196, 49.935449], [5.8810549, 49.9354431], [5.8811949, 49.9353573], [5.8812325, 49.935357], [5.8815751, 49.9353532], [5.8817316, 49.9353521], [5.8825146, 49.9353463], [5.8830767, 49.9355285], [5.8836806, 49.9358065], [5.8837063, 49.9360563], [5.8837205, 49.9363547], [5.8837215, 49.9363806], [5.883735, 49.9367601], [5.8837381, 49.9368467], [5.8846318, 49.9365921], [5.8850709, 49.9364669], [5.8852107, 49.936423], [5.8858495, 49.9362225], [5.885978, 49.9361643], [5.8861191, 49.9361125], [5.8863874, 49.9360142], [5.8864647, 49.9359759], [5.8864987, 49.9359511], [5.8865205, 49.9359249], [5.8866442, 49.9357607], [5.8867005, 49.935686], [5.887366, 49.9356881], [5.8875552, 49.9358506], [5.8875841, 49.9358808], [5.8881244, 49.9355514], [5.8882136, 49.9355439], [5.8885102, 49.9355069], [5.8886241, 49.9354892], [5.8889114, 49.9354047], [5.8890006, 49.9353743], [5.8891228, 49.9353327], [5.8894021, 49.9352294], [5.8897563, 49.9350848], [5.8901699, 49.934916], [5.8900921, 49.9347638], [5.8900491, 49.9346795], [5.8898593, 49.9343083], [5.8899674, 49.9342928], [5.890003, 49.9342877], [5.8901561, 49.9342658], [5.8901868, 49.9342614], [5.890364, 49.934234], [5.8906025, 49.934197], [5.890667, 49.934187], [5.8910282, 49.9341277], [5.8912834, 49.93407], [5.891339, 49.9340575], [5.8914582, 49.934021], [5.8915515, 49.9339866], [5.891711, 49.933911], [5.8918974, 49.9338194], [5.8919496, 49.9337938], [5.8920585, 49.9337481], [5.8921614, 49.933705], [5.8922996, 49.9336472], [5.8923978, 49.9335982], [5.8924163, 49.933589], [5.8924537, 49.9335688], [5.8925564, 49.9335133], [5.8926206, 49.9334717], [5.8926512, 49.9334517], [5.8927166, 49.9334028], [5.8927564, 49.9333731], [5.892876, 49.9332698], [5.8929969, 49.9331623], [5.8931341, 49.9330239], [5.8932219, 49.9329353], [5.8932471, 49.9329108], [5.8934872, 49.9326782], [5.8936412, 49.9325399], [5.8938134, 49.9323854], [5.8939187, 49.9322829], [5.8940865, 49.9321192], [5.8941763, 49.9320251], [5.8942375, 49.9319509], [5.8943039, 49.9318571], [5.894394, 49.931717], [5.8945623, 49.9314447], [5.8946906, 49.9312227], [5.8947608, 49.931101], [5.8948602, 49.9309167], [5.8950923, 49.9304688], [5.8951493, 49.9303588], [5.8951844, 49.930291], [5.895354, 49.9299717], [5.8953831, 49.9299169], [5.8955406, 49.9296284], [5.8955523, 49.929607], [5.8956614, 49.9294072], [5.8958221, 49.9291082], [5.8959868, 49.9287883], [5.8960915, 49.9285647], [5.8961122, 49.9285044], [5.896156, 49.9283765], [5.8961754, 49.9283081], [5.8961863, 49.9282696], [5.8962208, 49.9281704], [5.8962297, 49.9281448], [5.8962441, 49.9281032], [5.8962644, 49.9280508], [5.8962902, 49.9279842], [5.8963558, 49.9278148], [5.896464, 49.9275356], [5.8964646, 49.9275341], [5.8967875, 49.927136], [5.8968794, 49.9269672], [5.8969276, 49.9268948], [5.8970016, 49.9267837], [5.8970582, 49.9266991], [5.8970821, 49.9266644], [5.8971678, 49.9265439], [5.8972372, 49.9264463], [5.8973867, 49.9262362], [5.8974579, 49.9261373], [5.8974676, 49.9261239], [5.8976594, 49.9258451], [5.8977955, 49.9256668], [5.8980675, 49.9253054], [5.8981641, 49.9252349], [5.898596, 49.9249928], [5.8988736, 49.9248773], [5.8986434, 49.9245732], [5.8985479, 49.9244668], [5.8984283, 49.9243365], [5.8983894, 49.9242568], [5.8982116, 49.9238596], [5.8981382, 49.923707], [5.8980212, 49.9235355], [5.8979277, 49.9234456], [5.8977695, 49.9233592], [5.8975456, 49.9231971], [5.8973605, 49.9230775], [5.8970068, 49.9228211], [5.8968532, 49.9227292], [5.896635, 49.9226247], [5.8963359, 49.92246], [5.8962082, 49.9223983], [5.8960242, 49.922325], [5.8958196, 49.9222427], [5.8956658, 49.9221735], [5.8955698, 49.9221297], [5.8955506, 49.9220999], [5.8952649, 49.9219894], [5.8952263, 49.9219733], [5.8950558, 49.9219021], [5.8948139, 49.9217993], [5.8946005, 49.9217086], [5.8943033, 49.921589], [5.8941203, 49.9215229], [5.8940157, 49.921485], [5.8938597, 49.9214335], [5.893801, 49.9214142], [5.8937448, 49.9213977], [5.8934596, 49.921314], [5.8934177, 49.9213004], [5.893059, 49.9211839], [5.8928191, 49.9211039], [5.8927631, 49.9210853], [5.8926049, 49.9210301], [5.8924274, 49.9209584], [5.8922211, 49.920868], [5.8920524, 49.9207877], [5.8919914, 49.9207587], [5.8918415, 49.9206876], [5.8916476, 49.9206052], [5.8914427, 49.9205337], [5.8913809, 49.9205137], [5.8912471, 49.9204724], [5.8910729, 49.9204216], [5.8909608, 49.9203889], [5.8905671, 49.9202735], [5.8905019, 49.9202554], [5.8903442, 49.9202118], [5.8902518, 49.9201863], [5.8901723, 49.9201647], [5.8900137, 49.9201216], [5.8899638, 49.9201081], [5.8898278, 49.9200713], [5.8896309, 49.9200223], [5.8894417, 49.9199788], [5.8891535, 49.9199126], [5.8888983, 49.919854], [5.8887115, 49.920047], [5.8886752, 49.9200811], [5.8883146, 49.9203873], [5.8882927, 49.9204059], [5.8882302, 49.9204589], [5.887791, 49.9208253], [5.8875809, 49.9210053], [5.887565, 49.9210256], [5.8873941, 49.9210207], [5.8872369, 49.9210244], [5.8868037, 49.9210634], [5.8857508, 49.921194], [5.8855163, 49.9212197], [5.885268, 49.9212316], [5.8850735, 49.9212463], [5.8848113, 49.9212817], [5.8846056, 49.9213177], [5.8844428, 49.9213396], [5.8842456, 49.9213489], [5.8840829, 49.9213467], [5.8839023, 49.9213325], [5.8837535, 49.9213072], [5.8830759, 49.9211831], [5.8828348, 49.9211495], [5.8826928, 49.9211429], [5.8825066, 49.921146], [5.8823907, 49.9211555], [5.8822787, 49.9212132], [5.8822485, 49.9211873], [5.8820605, 49.9210193], [5.8818548, 49.9210589], [5.8812865, 49.9208301], [5.8811835, 49.9207887], [5.8805449, 49.9205305], [5.8803557, 49.9204541], [5.8802866, 49.9204262], [5.8801353, 49.9203625], [5.8799862, 49.9202934], [5.8798851, 49.9202466], [5.8794669, 49.920071], [5.879112, 49.9199387], [5.8789469, 49.9198741], [5.8788529, 49.9198367], [5.8785439, 49.9197137], [5.8783607, 49.9199039], [5.8780954, 49.9197674], [5.8779484, 49.9196877], [5.8776341, 49.9194982], [5.8775279, 49.9194342], [5.8774331, 49.9193787], [5.877352, 49.9193375], [5.8770536, 49.9192076], [5.8765351, 49.9189814], [5.8760347, 49.9187366], [5.8759807, 49.9187801], [5.8751229, 49.9183419], [5.8747286, 49.91814], [5.8746309, 49.9180899], [5.8744343, 49.9182168], [5.874066, 49.9180066], [5.8736937, 49.9177869], [5.8734039, 49.9176032], [5.8733628, 49.917571], [5.8731277, 49.9177299], [5.8730705, 49.9177687], [5.8730491, 49.917783], [5.8734135, 49.9181705], [5.873283, 49.9181702], [5.8732173, 49.9181255], [5.8731266, 49.9180798], [5.8730447, 49.9180436], [5.8728388, 49.9181682], [5.8728285, 49.9181217], [5.8728025, 49.9180614], [5.8727619, 49.9179789], [5.8727022, 49.9179001], [5.8726528, 49.9178475], [5.8726192, 49.9178117], [5.8724499, 49.9176677], [5.8723056, 49.917538], [5.8721377, 49.9173869], [5.8717643, 49.917042], [5.8718143, 49.9170179], [5.8717341, 49.9169372], [5.8717065, 49.9168945], [5.8716543, 49.9167948], [5.8716079, 49.9166966], [5.8715907, 49.9166445], [5.8715866, 49.9165923], [5.8715971, 49.9165478], [5.8716433, 49.9164333], [5.8716687, 49.9163609], [5.8716694, 49.9163466], [5.8716703, 49.9163296], [5.8716631, 49.9163068], [5.8716414, 49.9162689], [5.8716181, 49.9162347], [5.8716154, 49.9162006], [5.8716244, 49.9161703], [5.8716583, 49.9161372], [5.871685, 49.9160927], [5.8717013, 49.9160634], [5.8717455, 49.9160275], [5.8717898, 49.9159883], [5.871831, 49.915959], [5.8718987, 49.9159184], [5.8719282, 49.915891], [5.8719622, 49.9158513], [5.8719932, 49.9158239], [5.87203, 49.9158003], [5.8720934, 49.9157474], [5.8721186, 49.9157086], [5.8721558, 49.9156206], [5.8722226, 49.9154829], [5.8720762, 49.9154465], [5.8721429, 49.915332], [5.8722064, 49.9152549], [5.8722759, 49.9151613], [5.8722909, 49.9151083], [5.8722957, 49.9150514], [5.8722829, 49.9149813], [5.872267, 49.9149395], [5.872238, 49.9148921], [5.8721565, 49.9147748], [5.8720198, 49.9145892], [5.8719401, 49.9144327], [5.8718749, 49.9143036], [5.8718592, 49.9142761], [5.8718255, 49.9142168], [5.8717456, 49.9140896], [5.8717037, 49.9139881], [5.8716854, 49.9139201], [5.8716721, 49.913871], [5.871629, 49.9137363], [5.8715813, 49.9136168], [5.8715319, 49.9135201], [5.8715146, 49.9134863], [5.8714566, 49.9133857], [5.8714277, 49.9133108], [5.8714207, 49.9132501], [5.871414, 49.9131435], [5.8714073, 49.9130449], [5.8713873, 49.9129549], [5.8713571, 49.9128538], [5.8713373, 49.9127644], [5.87133, 49.9127315], [5.8713045, 49.9125865], [5.8712959, 49.9125623], [5.87128, 49.9125177], [5.8712438, 49.9124428], [5.8711769, 49.912344], [5.8711639, 49.9123108], [5.8711513, 49.912216], [5.8711428, 49.912172], [5.8711307, 49.9121191], [5.8711242, 49.9120904], [5.8710896, 49.9119842], [5.8710753, 49.9119301], [5.8710813, 49.911915], [5.8711005, 49.9118913], [5.8711006, 49.9118757], [5.8710904, 49.9118586], [5.8710714, 49.9118453], [5.8710261, 49.9118281], [5.8709895, 49.9118044], [5.8709595, 49.9117785], [5.8709078, 49.911734], [5.8708918, 49.911715], [5.8708554, 49.9116723], [5.8708387, 49.9116599], [5.8708145, 49.9116419], [5.8707634, 49.9116171], [5.8707078, 49.9115838], [5.8706947, 49.9115648], [5.8706935, 49.9115335], [5.870691, 49.9114615], [5.8706839, 49.9114264], [5.8706637, 49.91136], [5.8706284, 49.9113031], [5.8705473, 49.9109694], [5.8703263, 49.9104567], [5.8694838, 49.9096442], [5.8691235, 49.9091771], [5.8687154, 49.9078337], [5.8672812, 49.907974], [5.8663404, 49.9081843], [5.8655249, 49.9085123], [5.8645837, 49.9087977], [5.8635993, 49.909011], [5.8632885, 49.9091447], [5.8630065, 49.9093317], [5.8627573, 49.9096956], [5.8626536, 49.9100051], [5.8626493, 49.9106965], [5.8626842, 49.9112927], [5.8625411, 49.9117241], [5.8621374, 49.9120078], [5.8615351, 49.9122831], [5.860604, 49.9124871], [5.860037, 49.9125498], [5.8590444, 49.9125158], [5.8581002, 49.9125039], [5.8573298, 49.9125519], [5.8571118, 49.912578], [5.8568975, 49.9127557], [5.8568673, 49.9129371], [5.8569291, 49.913125], [5.8572658, 49.9134732], [5.8578876, 49.9139364], [5.8581232, 49.9141999], [5.8581654, 49.9144159], [5.8581639, 49.9146505], [5.8580556, 49.9149365], [5.8579187, 49.9151333], [5.8577444, 49.915312], [5.8577163, 49.9153363], [5.8576945, 49.915355], [5.8576742, 49.9153615], [5.857648, 49.9153773], [5.8576248, 49.9153959], [5.8575856, 49.9154117], [5.8575434, 49.915435], [5.8575027, 49.9154667], [5.8574648, 49.915518], [5.8574571, 49.9155297], [5.8574297, 49.9155712], [5.8573757, 49.9156309], [5.8573131, 49.9156915], [5.8572665, 49.9157382], [5.8572142, 49.9157698], [5.8571706, 49.9157963], [5.8571502, 49.9158113], [5.8571327, 49.9158308], [5.8571167, 49.9158495], [5.8570992, 49.9158672], [5.8570716, 49.9158877], [5.8570411, 49.9159045], [5.8570076, 49.9159306], [5.8569959, 49.9159502], [5.8569653, 49.9159866], [5.8569405, 49.9160089], [5.8569157, 49.9160388], [5.856885, 49.9160864], [5.8568631, 49.91612], [5.8568542, 49.9161466], [5.8568657, 49.9161663], [5.8568743, 49.9161757], [5.8568727, 49.9161972], [5.8568566, 49.9162271], [5.8568363, 49.916242], [5.8568044, 49.9162494], [5.8567869, 49.9162596], [5.8567753, 49.9162764], [5.8567765, 49.9163054], [5.8567633, 49.9163315], [5.856721, 49.9163838], [5.8567049, 49.9164071], [5.856712, 49.9164296], [5.8567279, 49.9164437], [5.8567394, 49.9164549], [5.8567378, 49.916475], [5.8567391, 49.9164937], [5.8567217, 49.9165058], [5.8566433, 49.9165412], [5.8562193, 49.9167411], [5.8561655, 49.9167166], [5.8560929, 49.916686], [5.8560368, 49.9166572], [5.8559389, 49.9166095], [5.8558227, 49.9166857], [5.8558146, 49.916691], [5.8555976, 49.9168644], [5.8554748, 49.9169701], [5.8553194, 49.9171379], [5.8552001, 49.9172634], [5.8550831, 49.9174181], [5.8550185, 49.91751], [5.8549639, 49.9176134], [5.8549401, 49.9176888], [5.8549221, 49.91777], [5.8549146, 49.9178089], [5.8549126, 49.9178194], [5.8549105, 49.9179205], [5.8549077, 49.9181229], [5.85492, 49.9182398], [5.854935, 49.9183764], [5.8549701, 49.9185425], [5.8549998, 49.9186454], [5.8550174, 49.9186846], [5.8550384, 49.9187316], [5.855107, 49.9188631], [5.8552087, 49.9190345], [5.8554051, 49.9193179], [5.8556536, 49.9196323], [5.8559597, 49.9199693], [5.8559994, 49.9200159], [5.8560876, 49.9201193], [5.8561535, 49.9202162], [5.856198, 49.9202809], [5.856217, 49.9203173], [5.8562538, 49.9203876], [5.8563237, 49.9205463], [5.8563676, 49.9206886], [5.856398, 49.9208061], [5.8564185, 49.9208856], [5.8564465, 49.921024], [5.8564894, 49.9213304], [5.8565218, 49.9214995], [5.8565342, 49.9215648], [5.8565681, 49.9217032], [5.8566037, 49.9218025], [5.8566493, 49.9218994], [5.8567451, 49.9220904], [5.8568122, 49.9222388], [5.8568933, 49.9224644], [5.8570045, 49.9227147], [5.8570638, 49.922848], [5.8569841, 49.9230076], [5.8569473, 49.9230814], [5.8569071, 49.9231515], [5.856846, 49.923231], [5.8568312, 49.9232519], [5.8568356, 49.9233541], [5.8568366, 49.9233789], [5.8575435, 49.9238056], [5.8578469, 49.9239887], [5.8578909, 49.9239659], [5.8581904, 49.9240885], [5.8582218, 49.9241014], [5.858746, 49.924316], [5.8584729, 49.9245186], [5.8584279, 49.92455], [5.8584054, 49.9245658], [5.8583643, 49.9246105], [5.8583144, 49.92467], [5.8582757, 49.9247163], [5.8582474, 49.9247501], [5.8582411, 49.9247576], [5.8580943, 49.9249346], [5.858073, 49.9249645], [5.8597562, 49.9253621], [5.8603117, 49.9254833], [5.8617551, 49.9257769], [5.8632889, 49.9260799], [5.8633213, 49.926107], [5.8635786, 49.9261496], [5.8637172, 49.9261725], [5.8639201, 49.9262025], [5.8641174, 49.9262316], [5.8641835, 49.9262402], [5.8644838, 49.9262792], [5.8644501, 49.9264482], [5.864447, 49.9264686], [5.8644416, 49.9265036], [5.8643926, 49.9268206], [5.8643918, 49.9268265], [5.8643704, 49.9269728], [5.8645884, 49.9269679], [5.864737, 49.9269719], [5.8648431, 49.926985], [5.864911, 49.9269971], [5.8649349, 49.9270035], [5.8650071, 49.9270229], [5.8651426, 49.9270726], [5.8652161, 49.9270989], [5.8652811, 49.9271137], [5.8653759, 49.9271231], [5.8655726, 49.9271281], [5.8656646, 49.927132], [5.8657338, 49.9271384], [5.8658075, 49.9271452], [5.8659432, 49.9271638], [5.8660719, 49.927187], [5.866554, 49.9272747], [5.8665341, 49.9272993], [5.8664825, 49.9273933], [5.8664624, 49.927439], [5.8664553, 49.9274527], [5.8664749, 49.9274738], [5.8665003, 49.9274912], [5.8665257, 49.9275023], [5.8665427, 49.9275078], [5.8669106, 49.9275275], [5.8669597, 49.927529], [5.8671413, 49.9275345], [5.8674782, 49.9275353], [5.8675899, 49.9275429], [5.8677399, 49.9275575], [5.8679451, 49.9275793], [5.8679959, 49.9275847], [5.8681529, 49.9276052], [5.8683962, 49.9276396], [5.8684633, 49.9276486], [5.8684909, 49.9276522], [5.8685829, 49.927657], [5.8690174, 49.92767], [5.8690065, 49.9277503], [5.8689995, 49.927802], [5.8689835, 49.9279197], [5.8689625, 49.9280745], [5.868956, 49.9281161], [5.868938, 49.928231], [5.8688918, 49.9285263], [5.8688814, 49.9285922], [5.8688759, 49.9286296], [5.8688719, 49.9286563], [5.8688431, 49.9288494], [5.8681274, 49.9292128], [5.8679666, 49.9291228], [5.8677479, 49.9290135], [5.8676364, 49.9289606], [5.8675474, 49.9289238], [5.8675, 49.9289069], [5.8674415, 49.9288861], [5.8673002, 49.9288372], [5.8672186, 49.9289879], [5.8671828, 49.9289953], [5.8669564, 49.9290421], [5.8666644, 49.929103], [5.8665511, 49.9291201], [5.8664012, 49.9290996], [5.8662965, 49.9290828], [5.8661551, 49.9290669], [5.8660192, 49.9290529], [5.8658141, 49.9290373], [5.8656765, 49.9293157], [5.8655002, 49.929654], [5.8653097, 49.930016], [5.8651221, 49.930367], [5.865078, 49.9303957], [5.8649672, 49.930466], [5.8649186, 49.9304956], [5.8647569, 49.9305896], [5.8646298, 49.9306643], [5.8643335, 49.9308386], [5.8642226, 49.9309078], [5.8642112, 49.9309178], [5.8640968, 49.9311784], [5.8640892, 49.9311959], [5.8642275, 49.9312611], [5.8642783, 49.9312878], [5.8643177, 49.9313199], [5.8643402, 49.9313446], [5.8643738, 49.9314055], [5.8643904, 49.9314686], [5.864386, 49.9314915], [5.8643843, 49.9315381], [5.8643742, 49.9315728], [5.8642454, 49.9315615], [5.8640841, 49.9315483], [5.8638974, 49.9315286], [5.8637036, 49.9315011], [5.8636131, 49.9314908], [5.8635069, 49.9314832], [5.863412, 49.9314885], [5.8633299, 49.931501], [5.8632334, 49.9315273], [5.8631454, 49.9315618], [5.8630489, 49.9316064], [5.8629325, 49.9316609], [5.8628614, 49.9317046], [5.8628049, 49.9317447], [5.8626916, 49.9318252], [5.8626439, 49.931859], [5.8625529, 49.9319255], [5.8624647, 49.9319838], [5.8623483, 49.9320456], [5.8621893, 49.9321129], [5.8620914, 49.9321387], [5.8619227, 49.9321775], [5.8618491, 49.9321883], [5.8617924, 49.9321918], [5.8617657, 49.932168], [5.8617347, 49.9321405], [5.8616825, 49.9321074], [5.8615936, 49.9320679], [5.8614975, 49.9320448], [5.8613292, 49.9320164], [5.8612706, 49.9320083], [5.8611948, 49.9319978], [5.8610986, 49.9319847], [5.8609827, 49.9319652], [5.8608809, 49.9319421], [5.8607255, 49.9318942], [5.8606756, 49.9319416], [5.8606231, 49.9319707], [5.8605692, 49.931987], [5.860463, 49.9319922], [5.8603087, 49.9319932], [5.860335, 49.9320783], [5.8604637, 49.932106], [5.8604577, 49.9321517], [5.8603827, 49.9321479], [5.8602723, 49.932143], [5.8601336, 49.9321436], [5.8600544, 49.9321466], [5.8600217, 49.9321478], [5.8598716, 49.9321575], [5.8598238, 49.9321619], [5.8597569, 49.9321682], [5.8596719, 49.9321807], [5.8596437, 49.9321872], [5.8595726, 49.9322033], [5.8594549, 49.9322355], [5.85933, 49.9322739], [5.8591925, 49.9323161], [5.8591193, 49.9323379], [5.8589627, 49.9323845], [5.8589368, 49.9323922], [5.8589032, 49.9324022], [5.8586763, 49.9324496], [5.8583222, 49.9325188], [5.858303, 49.9325618], [5.8582478, 49.9326936], [5.8582329, 49.9327407], [5.8582244, 49.932829], [5.8582072, 49.9330312], [5.8581358, 49.9331955], [5.8580994, 49.933282], [5.8580683, 49.9333744], [5.8580384, 49.9334858], [5.8580278, 49.9335405], [5.8580275, 49.9335423], [5.8580258, 49.9335963], [5.85804, 49.9336597], [5.8580699, 49.9337496], [5.8580523, 49.9338061], [5.8580305, 49.9338901], [5.8580153, 49.9339946], [5.8579991, 49.9340391], [5.8579964, 49.9340434], [5.8575378, 49.9345863], [5.8575298, 49.9345983], [5.8575257, 49.9346171], [5.8575426, 49.9346686], [5.8575673, 49.9347552], [5.8575774, 49.9348238], [5.8575822, 49.9349147], [5.857579, 49.9349884], [5.8575802, 49.935218], [5.8576162, 49.9353972], [5.8576552, 49.9355233], [5.8576853, 49.9355954], [5.8577442, 49.9357138], [5.8578033, 49.9358082], [5.857881, 49.9359061], [5.8579653, 49.9359938], [5.8580075, 49.9360359], [5.8580919, 49.9361132], [5.8582027, 49.9362163], [5.8583888, 49.9363771], [5.8584495, 49.9364321], [5.8584969, 49.9364794], [5.8585191, 49.9365065], [5.8585298, 49.9365197], [5.8586735, 49.9366701], [5.8587539, 49.9367509], [5.8588726, 49.9368617], [5.858806, 49.9369027], [5.8592182, 49.937184], [5.8592975, 49.9372331], [5.8593821, 49.9372796], [5.8594548, 49.9373149], [5.8595342, 49.9373468], [5.859627, 49.9373702], [5.8597449, 49.9373928], [5.8598523, 49.9374076], [5.8603972, 49.9374768], [5.8605363, 49.9374986], [5.8604588, 49.9375935], [5.8605064, 49.9376108], [5.8605752, 49.9376444], [5.8606625, 49.9376917], [5.8607735, 49.9377632], [5.860867, 49.9378274]]]}}]}