{"type": "FeatureCollection", "features": [{"type": "Feature", "properties": {"name": "Nothum"}, "geometry": {"type": "Polygon", "coordinates": [[[5.8710851, 49.9498566], [5.8711301, 49.9498399], [5.8714072, 49.9497372], [5.8720345, 49.9495047], [5.8720728, 49.9494753], [5.8721876, 49.9493871], [5.8722858, 49.9493117], [5.8724761, 49.9488272], [5.8726194, 49.9488541], [5.8729122, 49.9490819], [5.8729515, 49.9490826], [5.8729969, 49.9488171], [5.8730535, 49.9488207], [5.8732439, 49.9488335], [5.873456, 49.9488478], [5.8738358, 49.9488823], [5.8739095, 49.9488913], [5.8745616, 49.9490106], [5.8745772, 49.9490135], [5.8751655, 49.9491447], [5.8754555, 49.9486557], [5.8755274, 49.9485283], [5.875588, 49.9484455], [5.8756376, 49.9483804], [5.8757587, 49.9482487], [5.8760339, 49.9483968], [5.8763691, 49.9485728], [5.8765925, 49.948696], [5.8767437, 49.9487846], [5.8768636, 49.9488608], [5.8769465, 49.9489312], [5.8770876, 49.9491125], [5.8771228, 49.9491549], [5.8772192, 49.9492712], [5.8772926, 49.9493375], [5.877358, 49.9493845], [5.8774465, 49.9494315], [5.8775788, 49.9494918], [5.8777424, 49.9495615], [5.878227, 49.949733], [5.8782775, 49.9497509], [5.8782697, 49.9496069], [5.8782458, 49.9494983], [5.8781856, 49.9492736], [5.8781455, 49.9491239], [5.878135, 49.9490533], [5.878134, 49.9489898], [5.8781467, 49.9489316], [5.8781649, 49.9488566], [5.8782023, 49.9487804], [5.8783529, 49.9485089], [5.878524, 49.9482301], [5.8787338, 49.9478966], [5.8787942, 49.9478022], [5.8787972, 49.9477975], [5.878818, 49.9477481], [5.8788407, 49.9476211], [5.8788934, 49.9472537], [5.8789586, 49.9468713], [5.8790106, 49.9466265], [5.8789956, 49.9465057], [5.8789781, 49.9463649], [5.8789862, 49.946283], [5.8795489, 49.9459957], [5.8797023, 49.9458471], [5.8799074, 49.9456695], [5.8799386, 49.94565], [5.8801838, 49.9455173], [5.8802724, 49.9454717], [5.8806335, 49.9452842], [5.8807824, 49.9452062], [5.8809725, 49.9453357], [5.8810826, 49.9453977], [5.8812472, 49.945472], [5.8816873, 49.9456488], [5.8817884, 49.9456906], [5.8819667, 49.9457655], [5.8822471, 49.9458655], [5.8822805, 49.9458761], [5.8825693, 49.9459672], [5.8826626, 49.945997], [5.8828386, 49.9460668], [5.8829558, 49.9461151], [5.8830392, 49.9461503], [5.8833026, 49.9462753], [5.8834746, 49.9463539], [5.8835486, 49.9463964], [5.883981, 49.946659], [5.8841294, 49.9467], [5.884245, 49.9467568], [5.8843985, 49.9468245], [5.8846299, 49.9469075], [5.8850881, 49.9470775], [5.8853195, 49.9471652], [5.8856856, 49.9472883], [5.8860049, 49.9473943], [5.8862879, 49.9474884], [5.886474, 49.9475344], [5.8865716, 49.9475586], [5.8867323, 49.9475926], [5.8868246, 49.9476017], [5.8869494, 49.9476179], [5.887117, 49.9476278], [5.8872551, 49.9476229], [5.8875591, 49.9476332], [5.8878894, 49.9476435], [5.8880833, 49.9476509], [5.8881655, 49.9476468], [5.8882412, 49.9476311], [5.8884387, 49.9475796], [5.888577, 49.9475491], [5.8886675, 49.947526], [5.8889821, 49.947401], [5.8891934, 49.9475405], [5.8894687, 49.9473841], [5.8895759, 49.9473186], [5.8896016, 49.9473056], [5.8897095, 49.947251], [5.8898298, 49.9471871], [5.8899106, 49.9471364], [5.8899618, 49.9471036], [5.8900806, 49.9470201], [5.8901729, 49.9469646], [5.8902637, 49.9469032], [5.8903492, 49.9468379], [5.8904281, 49.9467697], [5.8905246, 49.9466863], [5.8907226, 49.9465489], [5.8908397, 49.9464717], [5.8909436, 49.9464146], [5.8910953, 49.9463232], [5.8911563, 49.9462947], [5.8912699, 49.9462568], [5.8913522, 49.9462358], [5.8914838, 49.9462233], [5.8916333, 49.9462216], [5.8917451, 49.9462197], [5.8919013, 49.9462116], [5.8919835, 49.9462033], [5.8920592, 49.9461892], [5.892153, 49.9461639], [5.8921958, 49.946163], [5.8922779, 49.9461653], [5.8923831, 49.9461613], [5.8924554, 49.9461678], [5.8925161, 49.9461786], [5.8926693, 49.9462141], [5.8928002, 49.9462447], [5.8930053, 49.946287], [5.8930876, 49.9463164], [5.8932602, 49.9463857], [5.8933377, 49.946413], [5.893412, 49.9464263], [5.89353, 49.9464359], [5.8936965, 49.9464415], [5.8938712, 49.9464388], [5.8940426, 49.946435], [5.8942513, 49.9464261], [5.8943419, 49.9464269], [5.8944695, 49.9464387], [5.894544, 49.9464347], [5.8943751, 49.9462589], [5.8944254, 49.9462423], [5.8949176, 49.9460807], [5.8949859, 49.9460583], [5.8950848, 49.9460293], [5.8953747, 49.9459443], [5.8956079, 49.9458812], [5.8958735, 49.9458077], [5.8960063, 49.9457704], [5.8961246, 49.9457347], [5.8962608, 49.9456692], [5.8964327, 49.9455746], [5.896522, 49.9455142], [5.8966, 49.9454372], [5.8966896, 49.9453366], [5.8967531, 49.9452418], [5.8968052, 49.9451907], [5.896896, 49.9451366], [5.8969641, 49.9451034], [5.8970177, 49.9450753], [5.8970647, 49.9450483], [5.8971054, 49.9450098], [5.8971476, 49.9449697], [5.8971948, 49.9449228], [5.8972257, 49.9448832], [5.8972535, 49.9448331], [5.8972731, 49.9447925], [5.8973041, 49.944756], [5.8973284, 49.9447393], [5.8976345, 49.9445894], [5.8977597, 49.9445138], [5.8978058, 49.9444748], [5.8978472, 49.9444293], [5.8981686, 49.9439829], [5.8982135, 49.9439412], [5.8982655, 49.9439102], [5.8983232, 49.9438887], [5.8988361, 49.9437022], [5.8992771, 49.9435395], [5.8993067, 49.943529], [5.8995365, 49.9434474], [5.8996696, 49.9434139], [5.8998345, 49.9433816], [5.899944, 49.9433682], [5.9002406, 49.9433514], [5.9008832, 49.9433184], [5.9011057, 49.9433086], [5.9012246, 49.9432937], [5.9013106, 49.9432779], [5.9013671, 49.9432621], [5.9013954, 49.9432599], [5.9014272, 49.9432577], [5.9015036, 49.9432609], [5.9015919, 49.9432573], [5.9016602, 49.9432506], [5.9016874, 49.9432472], [5.9017544, 49.9432387], [5.9018215, 49.9432252], [5.9018675, 49.9432086], [5.90193, 49.9431814], [5.9020634, 49.9431023], [5.9021, 49.9430841], [5.9021259, 49.9430758], [5.9021765, 49.9430782], [5.90222, 49.9430844], [5.9022799, 49.943102], [5.9023469, 49.9431181], [5.9024021, 49.9431273], [5.9024915, 49.9431458], [5.9025725, 49.9431647], [5.9026736, 49.9431884], [5.9027606, 49.9432022], [5.9028476, 49.9432085], [5.9029171, 49.9432102], [5.90297, 49.9432096], [5.9030453, 49.9432052], [5.9031125, 49.9431886], [5.9031599, 49.9431722], [5.9032268, 49.943149], [5.9033094, 49.9431135], [5.9033377, 49.9431014], [5.9033813, 49.9430893], [5.9034991, 49.9430668], [5.9036168, 49.9430519], [5.9036642, 49.9430477], [5.9038149, 49.9430346], [5.9039017, 49.9430271], [5.9039653, 49.9430166], [5.9040066, 49.9430007], [5.9040844, 49.9429614], [5.9041292, 49.9429463], [5.9041657, 49.9429433], [5.904201, 49.942951], [5.9042185, 49.9429663], [5.9042349, 49.9429891], [5.9042643, 49.9429983], [5.9042937, 49.9430014], [5.9043935, 49.9429955], [5.904507, 49.9429947], [5.9045965, 49.942999], [5.9047164, 49.9430003], [5.9047563, 49.9430128], [5.9047738, 49.9430335], [5.9047929, 49.943048], [5.9048264, 49.9430636], [5.9048727, 49.943075], [5.9049191, 49.9430772], [5.9049863, 49.9430681], [5.9051063, 49.943043], [5.905188, 49.9430267], [5.9052503, 49.9430299], [5.9052982, 49.9430414], [5.9053094, 49.9430456], [5.9054019, 49.943085], [5.9054594, 49.9431037], [5.9055089, 49.9431152], [5.9055473, 49.9431153], [5.9055921, 49.9431071], [5.9056306, 49.9430928], [5.9056802, 49.9430712], [5.9057059, 49.943065], [5.9057491, 49.9430507], [5.9057748, 49.9430322], [5.9058181, 49.9430137], [5.9058629, 49.9430024], [5.9059333, 49.9429933], [5.9059621, 49.9429892], [5.9060006, 49.9429759], [5.906063, 49.9429574], [5.9061351, 49.9429266], [5.906212, 49.9429], [5.9062585, 49.9428897], [5.9063065, 49.9428769], [5.906377, 49.9428461], [5.9064732, 49.9427947], [5.9065005, 49.9427865], [5.9065196, 49.9427866], [5.9065372, 49.9427949], [5.9065739, 49.9428063], [5.9065947, 49.9428084], [5.9066219, 49.9427982], [5.9066475, 49.9427992], [5.906681, 49.9428055], [5.9067338, 49.9428087], [5.9067642, 49.9427995], [5.9068139, 49.9427748], [5.9068364, 49.9427501], [5.9068526, 49.9427109], [5.9068769, 49.9426676], [5.9069379, 49.9426141], [5.9070166, 49.9425595], [5.9070984, 49.9425024], [5.9071578, 49.9424643], [5.9072155, 49.9424386], [5.9072475, 49.9424377], [5.9072826, 49.9424388], [5.9073083, 49.9424306], [5.9073227, 49.9424224], [5.9073404, 49.9424018], [5.9073485, 49.9423801], [5.907355, 49.9423574], [5.9073728, 49.9423234], [5.907373, 49.9422877], [5.9073764, 49.9422485], [5.9073989, 49.9422207], [5.9074311, 49.9421929], [5.907484, 49.9421641], [5.9075198, 49.9421364], [5.9075386, 49.9421219], [5.9075675, 49.942092], [5.9075869, 49.9420642], [5.9076126, 49.9420281], [5.907656, 49.9419962], [5.9077105, 49.9419684], [5.9077426, 49.9419427], [5.9077732, 49.9419056], [5.9078005, 49.9418814], [5.9078535, 49.9418443], [5.9078887, 49.9418362], [5.9079175, 49.9418259], [5.9079528, 49.9418126], [5.9080057, 49.9417807], [5.9080506, 49.9417632], [5.9080761, 49.9417684], [5.9081048, 49.9417923], [5.9081319, 49.9418006], [5.9081463, 49.9418006], [5.9081591, 49.9417934], [5.9081656, 49.9417852], [5.9081577, 49.9417707], [5.9081529, 49.9417562], [5.9081498, 49.9417397], [5.908142, 49.9417159], [5.9081405, 49.9416943], [5.9081534, 49.9416809], [5.9081806, 49.9416634], [5.9082111, 49.9416521], [5.9082431, 49.9416418], [5.9082752, 49.9416285], [5.9082977, 49.9416079], [5.9083169, 49.9415914], [5.9083202, 49.9415801], [5.9083187, 49.9415594], [5.9083172, 49.9415331], [5.9083477, 49.9415084], [5.9083687, 49.9414785], [5.9083785, 49.9414455], [5.9083853, 49.9413701], [5.9083998, 49.9413392], [5.9084223, 49.9413155], [5.9084849, 49.9412733], [5.9085042, 49.9412537], [5.9085171, 49.9412321], [5.9085318, 49.941183], [5.908548, 49.9411439], [5.9085801, 49.9411068], [5.9086076, 49.9410655], [5.9086377, 49.9410063], [5.9086657, 49.9409511], [5.9086723, 49.9409211], [5.9086791, 49.940853], [5.908692, 49.9408293], [5.9087112, 49.9408149], [5.9087369, 49.9408067], [5.908756, 49.9408098], [5.9087944, 49.9408109], [5.9088152, 49.9407996], [5.9088602, 49.9407662], [5.9088816, 49.9407408], [5.9088924, 49.940728], [5.9088972, 49.9407146], [5.9089054, 49.9406909], [5.9089087, 49.9406703], [5.9089184, 49.9406496], [5.9089602, 49.9406002], [5.908986, 49.9405589], [5.9090022, 49.9405156], [5.9089976, 49.9404784], [5.9090059, 49.9404346], [5.9090221, 49.9403902], [5.9090542, 49.9403593], [5.9090831, 49.9403418], [5.9091216, 49.9403181], [5.9091505, 49.9402955], [5.9091874, 49.9402667], [5.9092357, 49.9402214], [5.9092742, 49.9401915], [5.9092998, 49.9401833], [5.9093399, 49.9401596], [5.909372, 49.9401453], [5.9094249, 49.9401382], [5.909482, 49.939841], [5.9095102, 49.9396939], [5.9095615, 49.939538], [5.9096159, 49.9393725], [5.9096821, 49.9391847], [5.9097441, 49.9390088], [5.9098167, 49.9389043], [5.9100422, 49.9385795], [5.9100598, 49.9385486], [5.9101863, 49.9383268], [5.9103585, 49.9380247], [5.9108149, 49.9375947], [5.9114691, 49.9372384], [5.9117209, 49.9369603], [5.9117312, 49.9369489], [5.9117459, 49.9369294], [5.9119711, 49.9366309], [5.9120262, 49.9365931], [5.9123707, 49.9363566], [5.9107332, 49.9355617], [5.9111151, 49.9353874], [5.9113217, 49.9352972], [5.9116103, 49.9351892], [5.9112481, 49.935057], [5.9111119, 49.9350073], [5.9110217, 49.9348703], [5.9110133, 49.9348569], [5.9105751, 49.9350457], [5.9101676, 49.935246], [5.9098106, 49.935426], [5.9096435, 49.9355125], [5.9094588, 49.9355895], [5.909212, 49.935665], [5.9089559, 49.935721], [5.9085315, 49.9357853], [5.9083215, 49.9358202], [5.9081882, 49.9358567], [5.9079743, 49.9359469], [5.907813, 49.9360202], [5.9078001, 49.9360131], [5.9075064, 49.9359336], [5.9073205, 49.9358896], [5.9071998, 49.9358611], [5.9069895, 49.9358134], [5.9067923, 49.9357762], [5.9065503, 49.9357366], [5.906327, 49.9357], [5.9062726, 49.9353473], [5.9068205, 49.9350213], [5.9068599, 49.9343703], [5.9068688, 49.9341999], [5.9065112, 49.9343644], [5.9062767, 49.9344592], [5.9061207, 49.9345216], [5.905961, 49.9345742], [5.9058863, 49.9346014], [5.9057764, 49.9346521], [5.9056107, 49.9347273], [5.9054173, 49.9348071], [5.905218, 49.9348803], [5.9050445, 49.9349314], [5.9049186, 49.9349632], [5.9047268, 49.9350043], [5.9045161, 49.935034], [5.9042776, 49.9350599], [5.9040385, 49.9350797], [5.9037474, 49.9350923], [5.9034447, 49.9350982], [5.9032525, 49.935101], [5.9032193, 49.9350992], [5.9031808, 49.9350971], [5.9031011, 49.9350848], [5.9030757, 49.9350808], [5.9027938, 49.9350197], [5.9024485, 49.9349297], [5.9021184, 49.9348591], [5.9017547, 49.9347978], [5.9017894, 49.934611], [5.9015812, 49.9345779], [5.9016009, 49.9344476], [5.9011437, 49.9343588], [5.900856, 49.9343043], [5.9006858, 49.9342798], [5.9004687, 49.9342555], [5.9004111, 49.934249], [5.9002211, 49.9342334], [5.9001305, 49.9342295], [5.9000588, 49.9342312], [5.8998825, 49.9342652], [5.8996848, 49.9343129], [5.8991459, 49.9344694], [5.8992328, 49.9346084], [5.899162, 49.9346012], [5.8990786, 49.9345972], [5.8990084, 49.9346008], [5.8989446, 49.9346079], [5.8989002, 49.9346128], [5.8987992, 49.9346258], [5.8987502, 49.934635], [5.8987099, 49.9346426], [5.8986104, 49.9346679], [5.8985137, 49.9346969], [5.898451, 49.9346741], [5.8983896, 49.9346598], [5.89828, 49.9346463], [5.8981273, 49.9346294], [5.8979877, 49.9347604], [5.8978936, 49.9348565], [5.8978487, 49.9349116], [5.8977941, 49.9349974], [5.8977539, 49.9351229], [5.8977226, 49.9352257], [5.8976768, 49.9354414], [5.8979325, 49.9354769], [5.8979039, 49.9356298], [5.8979026, 49.9357256], [5.8979139, 49.9358012], [5.8979611, 49.935991], [5.8978616, 49.9360999], [5.897746, 49.9362106], [5.8976441, 49.9363003], [5.8975381, 49.9363874], [5.8974185, 49.9364749], [5.8973086, 49.9365454], [5.8972108, 49.9366072], [5.8970914, 49.9366655], [5.8969917, 49.9367127], [5.8968391, 49.936785], [5.8966377, 49.9368834], [5.8964403, 49.9369798], [5.8963127, 49.9370516], [5.8962769, 49.9370782], [5.8962611, 49.9370899], [5.8962394, 49.9371117], [5.8961971, 49.9371736], [5.8961631, 49.9372058], [5.8961142, 49.9372398], [5.8960951, 49.9372633], [5.8960758, 49.9373236], [5.8960622, 49.9373423], [5.896035, 49.9373606], [5.8960133, 49.9373833], [5.8960023, 49.937406], [5.8959927, 49.9374383], [5.8959884, 49.9374688], [5.8959666, 49.9375081], [5.8959228, 49.9375857], [5.8959078, 49.9376206], [5.8958357, 49.9376895], [5.8957827, 49.9377348], [5.8957523, 49.937755], [5.8956808, 49.9378027], [5.8956251, 49.9378384], [5.8955749, 49.9378732], [5.8955334, 49.937887], [5.8955003, 49.9378979], [5.8954692, 49.9379066], [5.8954204, 49.937917], [5.8953987, 49.9379283], [5.895362, 49.9379527], [5.895324, 49.93797], [5.8952738, 49.9379983], [5.8952331, 49.9380209], [5.895164, 49.9380435], [5.8951191, 49.9380625], [5.8950799, 49.9380791], [5.8950243, 49.9381026], [5.8949823, 49.9381138], [5.8949106, 49.9381224], [5.8948537, 49.9381273], [5.8947644, 49.9381351], [5.8946791, 49.9381402], [5.8945775, 49.9381368], [5.8945398, 49.9381355], [5.8944167, 49.9381321], [5.8943406, 49.9381396], [5.894303, 49.9381432], [5.8942164, 49.9381535], [5.8941419, 49.9381682], [5.8940796, 49.9381846], [5.8939643, 49.938235], [5.8939114, 49.938255], [5.8938871, 49.9382567], [5.8938614, 49.9382531], [5.8938141, 49.9382312], [5.8937534, 49.9382118], [5.8936709, 49.938195], [5.8936182, 49.9381901], [5.893556, 49.93819], [5.8935126, 49.9381968], [5.8934137, 49.9382228], [5.8933638, 49.9382332], [5.8933392, 49.9382384], [5.8932323, 49.9382521], [5.8931808, 49.9382703], [5.8930912, 49.9383129], [5.8928679, 49.9383395], [5.8926864, 49.9383613], [5.8925633, 49.938368], [5.8923861, 49.9383658], [5.8921927, 49.9383584], [5.8920547, 49.9383458], [5.8919804, 49.9383334], [5.8918791, 49.9383118], [5.8917264, 49.9382747], [5.8915954, 49.9382316], [5.89154, 49.9382097], [5.8914888, 49.9381894], [5.8913795, 49.9381341], [5.8911772, 49.938034], [5.8911134, 49.9379977], [5.8909762, 49.9379196], [5.8908698, 49.9378538], [5.89077, 49.937788], [5.8906959, 49.9377284], [5.8906664, 49.937693], [5.890649, 49.937658], [5.8906172, 49.9375479], [5.8905997, 49.9375199], [5.8905755, 49.9375067], [5.8904998, 49.937489], [5.890339, 49.9374563], [5.8901714, 49.9374306], [5.8900443, 49.9374146], [5.8900038, 49.9374057], [5.8900313, 49.937353], [5.8902938, 49.9368499], [5.8900094, 49.936771], [5.8897954, 49.9367116], [5.8897757, 49.9367058], [5.8896752, 49.9366764], [5.8894267, 49.9366002], [5.8889511, 49.936443], [5.8889495, 49.9364209], [5.8889375, 49.9362622], [5.8889057, 49.9361094], [5.8888809, 49.9359908], [5.8888038, 49.935757], [5.8887372, 49.9356812], [5.888699, 49.9356379], [5.8886942, 49.9356298], [5.8886839, 49.9356121], [5.8886575, 49.9355671], [5.8886241, 49.9354892], [5.8885102, 49.9355069], [5.8882136, 49.9355439], [5.8881244, 49.9355514], [5.8875841, 49.9358808], [5.8875552, 49.9358506], [5.887366, 49.9356881], [5.8867005, 49.935686], [5.8866442, 49.9357607], [5.8865205, 49.9359249], [5.8864987, 49.9359511], [5.8864647, 49.9359759], [5.8863874, 49.9360142], [5.8861191, 49.9361125], [5.885978, 49.9361643], [5.8858495, 49.9362225], [5.8852107, 49.936423], [5.8850709, 49.9364669], [5.8846318, 49.9365921], [5.8837381, 49.9368467], [5.883735, 49.9367601], [5.8837215, 49.9363806], [5.8837205, 49.9363547], [5.8837063, 49.9360563], [5.8836806, 49.9358065], [5.8830767, 49.9355285], [5.8825146, 49.9353463], [5.8817316, 49.9353521], [5.8815751, 49.9353532], [5.8812325, 49.935357], [5.8811949, 49.9353573], [5.8810549, 49.9354431], [5.8810196, 49.935449], [5.8809035, 49.9354685], [5.8803279, 49.9355589], [5.8802622, 49.9355674], [5.8799273, 49.9356107], [5.8799383, 49.9354969], [5.8796373, 49.9354738], [5.8792968, 49.9354443], [5.8790571, 49.9354166], [5.8788501, 49.9353994], [5.8785206, 49.9353609], [5.8784835, 49.9353642], [5.8782554, 49.9354149], [5.8782059, 49.935426], [5.8780069, 49.935466], [5.8779205, 49.9354768], [5.8777282, 49.9354771], [5.8777191, 49.9354771], [5.8776367, 49.9354739], [5.877585, 49.9354673], [5.8775379, 49.9354612], [5.8775296, 49.9354602], [5.8770514, 49.9353762], [5.8769063, 49.935349], [5.8768163, 49.9353321], [5.8762515, 49.935079], [5.875765, 49.9348561], [5.8754163, 49.9348262], [5.8750467, 49.9347944], [5.8748683, 49.9347791], [5.8742666, 49.9347252], [5.8740684, 49.9347074], [5.8739313, 49.9351358], [5.8739006, 49.9352272], [5.8738435, 49.9353969], [5.8738382, 49.9354125], [5.8737874, 49.935537], [5.873521, 49.9361892], [5.8735108, 49.9362141], [5.873497, 49.9362479], [5.8732879, 49.9362032], [5.8729164, 49.9361086], [5.8727118, 49.9360521], [5.8726964, 49.9360472], [5.8724569, 49.9359715], [5.8721013, 49.9358507], [5.8720856, 49.9358453], [5.8720547, 49.9358364], [5.8714089, 49.9356507], [5.8710926, 49.9355572], [5.8706221, 49.9354069], [5.8705121, 49.9356051], [5.8704514, 49.9357363], [5.8704082, 49.9358518], [5.8703232, 49.9360837], [5.870265, 49.9360591], [5.8700134, 49.9359485], [5.8698593, 49.935887], [5.8697854, 49.9358614], [5.8697067, 49.9358438], [5.86962, 49.9358334], [5.8693553, 49.9358119], [5.8692193, 49.9360716], [5.8691866, 49.9361341], [5.8691574, 49.9361898], [5.8691176, 49.9362659], [5.8690614, 49.9363738], [5.8690423, 49.9364104], [5.8690394, 49.9364158], [5.8689692, 49.93655], [5.868939, 49.9365917], [5.8689247, 49.93661], [5.8689164, 49.9366167], [5.8689039, 49.9366269], [5.8688423, 49.936677], [5.8685339, 49.9369117], [5.8681137, 49.9372315], [5.8677546, 49.9375105], [5.8675586, 49.9376629], [5.8674831, 49.9377216], [5.867301, 49.9378545], [5.8670872, 49.9380066], [5.866973, 49.9381219], [5.8668764, 49.9382239], [5.8668191, 49.9382844], [5.8667002, 49.9384163], [5.8666968, 49.93842], [5.8666301, 49.9385053], [5.8665887, 49.9385755], [5.8665582, 49.9386517], [5.8665532, 49.9386747], [5.8665404, 49.9387331], [5.8664861, 49.9390577], [5.8664742, 49.9391291], [5.8664501, 49.9392732], [5.8664384, 49.9393436], [5.8664783, 49.9393488], [5.8665412, 49.9393754], [5.8665805, 49.9393929], [5.8666231, 49.939394], [5.8666878, 49.9393819], [5.866751, 49.9393556], [5.8668079, 49.9393324], [5.8668869, 49.9393142], [5.8669232, 49.9393042], [5.8669627, 49.9392946], [5.8670131, 49.9392968], [5.8670681, 49.9393213], [5.8671185, 49.9393316], [5.8671815, 49.9393379], [5.8672793, 49.9393392], [5.867426, 49.9393304], [5.8675079, 49.9393316], [5.8675535, 49.939349], [5.8676306, 49.939389], [5.8677438, 49.9394269], [5.8677816, 49.9394464], [5.8678506, 49.9394985], [5.8679088, 49.9395174], [5.8681103, 49.939575], [5.8680669, 49.939657], [5.86798, 49.9398213], [5.8677976, 49.9401662], [5.8676907, 49.940385], [5.8675533, 49.9406664], [5.8674845, 49.9408345], [5.8674588, 49.9408973], [5.8674135, 49.9410794], [5.8673844, 49.9411959], [5.8673716, 49.9412356], [5.8672867, 49.9413817], [5.8670961, 49.9417097], [5.8670943, 49.9417128], [5.8669661, 49.9420388], [5.8668667, 49.9423099], [5.8668483, 49.9424367], [5.8668205, 49.9426289], [5.8668102, 49.9426975], [5.8667782, 49.9429085], [5.8667723, 49.9429476], [5.8667677, 49.9429782], [5.8667493, 49.9430995], [5.8667268, 49.9432482], [5.8666965, 49.9435124], [5.8666902, 49.9435674], [5.8666754, 49.9436966], [5.8666487, 49.9438623], [5.8666546, 49.9439432], [5.8666642, 49.9440643], [5.8666696, 49.9441333], [5.8666876, 49.9443602], [5.8667022, 49.9445425], [5.866706, 49.9445899], [5.8667235, 49.9446539], [5.8668302, 49.9450155], [5.8668527, 49.945114], [5.8668572, 49.9451333], [5.8667856, 49.9454881], [5.8667434, 49.9455877], [5.8666393, 49.9457602], [5.8669104, 49.9458191], [5.8671142, 49.9458605], [5.8672447, 49.9458979], [5.8672842, 49.9459172], [5.8674062, 49.9459925], [5.8675049, 49.9460503], [5.8675511, 49.9460744], [5.8676136, 49.9461071], [5.8676942, 49.9461446], [5.8677701, 49.9461661], [5.8678838, 49.9461909], [5.8679976, 49.9462104], [5.8680735, 49.9462202], [5.868167, 49.9463201], [5.8682227, 49.9463959], [5.8682504, 49.9464408], [5.8682699, 49.9465016], [5.8682663, 49.9465474], [5.8682444, 49.9466124], [5.8682062, 49.9466624], [5.8681313, 49.9467432], [5.86802, 49.9468634], [5.8686291, 49.9471416], [5.8683933, 49.94736], [5.8680608, 49.9472025], [5.8677109, 49.9471813], [5.8675492, 49.9471697], [5.8671868, 49.9471292], [5.8671287, 49.9471227], [5.8671215, 49.947176], [5.8670339, 49.9474626], [5.8669497, 49.9477219], [5.8669061, 49.9478295], [5.8668644, 49.9478986], [5.8666315, 49.9481693], [5.8663023, 49.9485118], [5.8663295, 49.9485293], [5.8665015, 49.9486396], [5.86687, 49.9488458], [5.8674051, 49.9490955], [5.8676511, 49.9491911], [5.8676604, 49.9491948], [5.8677947, 49.9492453], [5.8681596, 49.9493826], [5.8683298, 49.9493585], [5.8683909, 49.9493523], [5.8684602, 49.9493557], [5.8689222, 49.9494181], [5.8689555, 49.9494327], [5.8690244, 49.9494627], [5.8694068, 49.9496294], [5.8695665, 49.9496991], [5.8695776, 49.9497039], [5.8696381, 49.9497271], [5.8699449, 49.9498445], [5.8701674, 49.9499165], [5.8701914, 49.9499235], [5.8702449, 49.9499391], [5.870301, 49.9499381], [5.870364, 49.9499323], [5.8705393, 49.9499162], [5.8707339, 49.9498982], [5.8708004, 49.9498903], [5.8710851, 49.9498566]]]}}]}