{"type": "FeatureCollection", "features": [{"type": "Feature", "properties": {"name": "Tarchamps"}, "geometry": {"type": "Polygon", "coordinates": [[[5.8383746, 49.9513393], [5.8385442, 49.951351], [5.8385218, 49.9512882], [5.8384891, 49.9512447], [5.8384769, 49.9512285], [5.8384639, 49.9512205], [5.8384132, 49.9511898], [5.8383956, 49.9511838], [5.8384186, 49.9511335], [5.8385812, 49.9510012], [5.8386129, 49.9509755], [5.8387422, 49.9508702], [5.8386852, 49.9508298], [5.8386692, 49.9507979], [5.8386838, 49.9507759], [5.8387241, 49.9507614], [5.8387868, 49.9507919], [5.8388559, 49.9508249], [5.8388641, 49.9508294], [5.8389288, 49.9508463], [5.8389655, 49.9508638], [5.8390177, 49.9508733], [5.8390459, 49.9508564], [5.8390662, 49.9508042], [5.8391085, 49.950761], [5.8391511, 49.9507367], [5.8391804, 49.9507193], [5.8391807, 49.9506758], [5.8391442, 49.950649], [5.8391094, 49.9506223], [5.8390281, 49.9505598], [5.8387645, 49.9504603], [5.8387426, 49.9504629], [5.8387383, 49.9504481], [5.8387153, 49.950359], [5.8387259, 49.950331], [5.8387757, 49.9503062], [5.8387877, 49.9502748], [5.8387818, 49.9502437], [5.8387686, 49.9502315], [5.8387275, 49.9501613], [5.8387096, 49.9501506], [5.8387009, 49.9501137], [5.8387157, 49.9500214], [5.8386911, 49.949964], [5.838708, 49.9499122], [5.8387198, 49.9498349], [5.838678, 49.9498015], [5.8387105, 49.9497446], [5.8387239, 49.9497197], [5.8387496, 49.9496896], [5.8387489, 49.9496646], [5.8387172, 49.9496425], [5.8386764, 49.9496141], [5.8386488, 49.9495784], [5.8386572, 49.949533], [5.8386865, 49.9494956], [5.8386886, 49.9494928], [5.8386814, 49.9494401], [5.8387441, 49.9493854], [5.8387931, 49.9493466], [5.8388787, 49.9491537], [5.8389178, 49.9491126], [5.8389896, 49.9490778], [5.8390677, 49.9490466], [5.839077, 49.9490129], [5.8390656, 49.9489412], [5.8390933, 49.9488976], [5.8391121, 49.9488823], [5.8392417, 49.948835], [5.8392847, 49.9487511], [5.839326, 49.9487186], [5.839371, 49.9486935], [5.8395067, 49.9486511], [5.8394718, 49.9485959], [5.8393839, 49.9485513], [5.8392861, 49.9485461], [5.8391639, 49.9485624], [5.8391239, 49.9485481], [5.8391147, 49.9485366], [5.8390861, 49.9485009], [5.8390322, 49.9484189], [5.839033, 49.9483807], [5.8389897, 49.9483596], [5.8389493, 49.9483466], [5.8387777, 49.9483978], [5.8387218, 49.9484044], [5.8386856, 49.9483933], [5.8386672, 49.9483698], [5.8386722, 49.9483304], [5.8387271, 49.948253], [5.8387016, 49.9482175], [5.8386437, 49.9481771], [5.8385769, 49.9481722], [5.8383945, 49.9482071], [5.8383487, 49.948207], [5.8382269, 49.9481611], [5.8381639, 49.9481578], [5.8381206, 49.9481506], [5.838018, 49.9481534], [5.8379734, 49.9481273], [5.8379139, 49.9480925], [5.8378722, 49.9480607], [5.8378502, 49.9480521], [5.8377309, 49.9480055], [5.8377144, 49.9479697], [5.837732, 49.9479094], [5.8376655, 49.9478751], [5.8374727, 49.9478804], [5.8374308, 49.9478686], [5.8374129, 49.9478365], [5.8374228, 49.9477131], [5.8375109, 49.9475964], [5.8375085, 49.9475712], [5.8375069, 49.9475551], [5.8375006, 49.9474969], [5.8374703, 49.9474325], [5.837373, 49.947331], [5.8372323, 49.9472472], [5.837132, 49.9472056], [5.837003, 49.9471692], [5.8367871, 49.9471375], [5.8365536, 49.9470378], [5.8365242, 49.9470206], [5.8364661, 49.9469867], [5.8363753, 49.94694], [5.8358241, 49.9467747], [5.8357593, 49.9467636], [5.835696, 49.9467377], [5.8356291, 49.9466898], [5.8356098, 49.9466488], [5.8355581, 49.9466135], [5.8354434, 49.9465744], [5.8354996, 49.9465158], [5.8354969, 49.9464884], [5.8354926, 49.9464849], [5.8354073, 49.946417], [5.8354163, 49.9462807], [5.8353929, 49.9462163], [5.8353062, 49.946128], [5.8352573, 49.9460909], [5.8352102, 49.9460766], [5.8351622, 49.946062], [5.8350359, 49.9459779], [5.8351102, 49.9459114], [5.8352812, 49.9458792], [5.8352943, 49.9458519], [5.8352783, 49.9458127], [5.8352126, 49.9457307], [5.835168, 49.9457031], [5.8351425, 49.9456612], [5.8351283, 49.9456433], [5.8350641, 49.9456179], [5.8349822, 49.945593], [5.8349547, 49.9455693], [5.8349645, 49.9455376], [5.8349623, 49.9455117], [5.8349338, 49.9454944], [5.8348928, 49.9454826], [5.8348869, 49.9454627], [5.8348844, 49.9454546], [5.8348584, 49.9454231], [5.8349289, 49.945298], [5.8351193, 49.9452231], [5.8351839, 49.9451827], [5.8351808, 49.9451488], [5.8351628, 49.945138], [5.8351156, 49.9451354], [5.8350946, 49.9451283], [5.83509, 49.9451125], [5.8351165, 49.9450698], [5.8351, 49.9450455], [5.8349906, 49.944937], [5.8345864, 49.9445358], [5.8345222, 49.9445101], [5.8343116, 49.9445529], [5.8342054, 49.9445883], [5.834163, 49.9445808], [5.8341136, 49.9445622], [5.8341, 49.9445184], [5.8340889, 49.9444999], [5.834076, 49.9444783], [5.8340375, 49.9444551], [5.8339817, 49.944454], [5.8338871, 49.9444762], [5.8338309, 49.9444628], [5.8337915, 49.9444369], [5.833788, 49.9443928], [5.833841, 49.9443084], [5.8338671, 49.9442699], [5.8338645, 49.9442293], [5.8338408, 49.9442025], [5.8338003, 49.9442036], [5.8337572, 49.9442222], [5.8336646, 49.9442266], [5.8335994, 49.9442064], [5.8335653, 49.9442213], [5.8335176, 49.944242], [5.8334789, 49.9442052], [5.8334575, 49.9441849], [5.8334058, 49.9441615], [5.8332832, 49.9441426], [5.8332451, 49.9441188], [5.833172, 49.944073], [5.8331198, 49.9440094], [5.8330685, 49.9439661], [5.8330331, 49.9439074], [5.8330037, 49.9438651], [5.8329658, 49.9438294], [5.832873, 49.9437503], [5.8328506, 49.9437105], [5.8328427, 49.94365], [5.8328585, 49.9436079], [5.8329053, 49.9435586], [5.8329769, 49.9435111], [5.8330265, 49.9434711], [5.8330446, 49.9434538], [5.8330858, 49.9434182], [5.8330962, 49.9433916], [5.8331025, 49.9433757], [5.8330968, 49.943333], [5.8330814, 49.9432909], [5.8330492, 49.9432647], [5.8330184, 49.9432475], [5.832952, 49.9432473], [5.8328891, 49.943257], [5.8328521, 49.9432656], [5.8328515, 49.9432656], [5.8327947, 49.9432629], [5.832779, 49.9432574], [5.8327742, 49.9432533], [5.8327559, 49.9432088], [5.8327196, 49.9431516], [5.8326698, 49.9430907], [5.8326438, 49.9430592], [5.8326433, 49.9430539], [5.8326501, 49.9430255], [5.8326031, 49.9430062], [5.8325116, 49.9429687], [5.8324136, 49.9429324], [5.8323467, 49.9428948], [5.8322903, 49.9428263], [5.8322356, 49.9427369], [5.8321994, 49.9426452], [5.8321902, 49.9425817], [5.8321873, 49.9425617], [5.8322049, 49.9425093], [5.8322557, 49.9423582], [5.8321886, 49.942342], [5.8321208, 49.9423257], [5.8320788, 49.9423156], [5.8320931, 49.9422654], [5.8320614, 49.9422566], [5.832046, 49.9422523], [5.8313359, 49.9420547], [5.8303926, 49.9416498], [5.8300728, 49.9415028], [5.8297558, 49.9413402], [5.8292512, 49.9410813], [5.8292455, 49.9410724], [5.8292285, 49.9410466], [5.829154, 49.9409334], [5.8286353, 49.9407873], [5.8279481, 49.9406374], [5.8279174, 49.9406307], [5.8270291, 49.9404302], [5.8268081, 49.9403834], [5.826696, 49.940335], [5.8266754, 49.940326], [5.8266596, 49.9403192], [5.8266375, 49.9403096], [5.8258029, 49.9399487], [5.8256322, 49.9398424], [5.8251894, 49.9396406], [5.8251616, 49.9396279], [5.8251338, 49.9396152], [5.8251635, 49.939583], [5.8251997, 49.9395438], [5.8252276, 49.9395135], [5.8253173, 49.9394218], [5.8253309, 49.9394079], [5.8253383, 49.9394008], [5.825427, 49.9393153], [5.8254897, 49.9392502], [5.8256082, 49.9391301], [5.8257045, 49.9390374], [5.8258008, 49.9389483], [5.8258073, 49.9389424], [5.8258403, 49.9389128], [5.8258732, 49.9388832], [5.8259589, 49.9388028], [5.8260246, 49.938738], [5.8260842, 49.9386653], [5.826091, 49.938657], [5.8261416, 49.9385859], [5.8261645, 49.9385461], [5.8261985, 49.938487], [5.8262253, 49.9384254], [5.8262294, 49.9384033], [5.8263119, 49.93832], [5.8264183, 49.9381146], [5.8265195, 49.9380216], [5.8266198, 49.9379294], [5.8267527, 49.9378072], [5.8271841, 49.9376935], [5.8271405, 49.9376619], [5.827271, 49.9376374], [5.8273187, 49.937631], [5.8274378, 49.9376145], [5.8274827, 49.9376081], [5.8276793, 49.9375797], [5.8277125, 49.9375747], [5.8278659, 49.9375517], [5.8280656, 49.9375217], [5.8282398, 49.9374993], [5.8284781, 49.9374747], [5.8286693, 49.9374505], [5.828861, 49.9374247], [5.8289438, 49.93741], [5.8289018, 49.9373881], [5.8285378, 49.9371976], [5.8280448, 49.9368582], [5.8278693, 49.9367383], [5.8276404, 49.9365387], [5.8272689, 49.9361521], [5.8271255, 49.935967], [5.8270124, 49.935821], [5.8267767, 49.9355352], [5.8266476, 49.935389], [5.8262233, 49.9349723], [5.8261984, 49.9349478], [5.8261694, 49.9349193], [5.8262712, 49.9348797], [5.8263889, 49.9348447], [5.8265255, 49.9348109], [5.8265807, 49.9348], [5.8266908, 49.9347784], [5.8267035, 49.9347759], [5.8269039, 49.9347357], [5.8269935, 49.9347154], [5.8271311, 49.9346843], [5.8271787, 49.9346728], [5.8271794, 49.9346726], [5.827327, 49.9346371], [5.8274855, 49.9346016], [5.8276284, 49.9345834], [5.8278129, 49.9345649], [5.8278151, 49.9345646], [5.8278848, 49.9345543], [5.8279516, 49.9345445], [5.8281531, 49.9345148], [5.8281719, 49.9345112], [5.8283059, 49.9344857], [5.8285907, 49.9344315], [5.8286154, 49.9344299], [5.8287228, 49.9342395], [5.8283404, 49.9342887], [5.8279054, 49.9342986], [5.8276615, 49.934272], [5.8273679, 49.9342403], [5.8270966, 49.9342999], [5.8267528, 49.934374], [5.8263501, 49.9344011], [5.8257864, 49.9344432], [5.8254717, 49.9346313], [5.8250373, 49.9349289], [5.824696, 49.935175], [5.8247532, 49.935211], [5.8246877, 49.9353513], [5.8244658, 49.935564], [5.824147, 49.9357921], [5.8239223, 49.9359576], [5.8237553, 49.9360806], [5.8236167, 49.9361638], [5.8234056, 49.9362903], [5.823216, 49.9364039], [5.8230143, 49.936562], [5.8229593, 49.9365984], [5.8227805, 49.936717], [5.8226852, 49.9367812], [5.8221801, 49.9372523], [5.8221005, 49.9373266], [5.8220243, 49.9374488], [5.821947, 49.9376361], [5.8218479, 49.9378765], [5.8217713, 49.9380622], [5.8217461, 49.9381232], [5.8217398, 49.9381562], [5.8217098, 49.938312], [5.8217265, 49.9384342], [5.8217548, 49.9385416], [5.8217955, 49.9388041], [5.8217575, 49.9389273], [5.8216859, 49.9389322], [5.820717, 49.9391516], [5.8204543, 49.9392116], [5.8199231, 49.9392282], [5.8187987, 49.9391859], [5.8187835, 49.9391854], [5.8183326, 49.9391755], [5.8178797, 49.9390885], [5.8176908, 49.9392776], [5.8173694, 49.9395861], [5.8172522, 49.9396985], [5.8168834, 49.9399842], [5.8171324, 49.9403199], [5.8172419, 49.9404951], [5.8173617, 49.9406557], [5.8174713, 49.9408028], [5.8178325, 49.9411068], [5.818054, 49.9412066], [5.8180911, 49.9412234], [5.8181781, 49.9412715], [5.8181213, 49.9412885], [5.8180396, 49.9413003], [5.8179154, 49.9413182], [5.8176919, 49.9413331], [5.8174103, 49.9413168], [5.8172145, 49.9413058], [5.8171056, 49.9413254], [5.8170904, 49.9412902], [5.816984, 49.9412027], [5.8168821, 49.9411271], [5.8167699, 49.9410171], [5.8165188, 49.9407068], [5.8164369, 49.9406354], [5.8162563, 49.9404653], [5.8162197, 49.9404146], [5.8161916, 49.9403965], [5.8160238, 49.9402422], [5.8160059, 49.9401819], [5.8159836, 49.940163], [5.8158901, 49.9400763], [5.815793, 49.9400059], [5.815674, 49.9399258], [5.8155043, 49.9398076], [5.8153983, 49.9397191], [5.8152222, 49.9396081], [5.8150633, 49.9395296], [5.8148825, 49.9394118], [5.8147769, 49.9393208], [5.8146876, 49.939225], [5.8146233, 49.9391691], [5.8145614, 49.9391236], [5.8144787, 49.9390721], [5.814397, 49.9390404], [5.8143258, 49.9390092], [5.81421, 49.9389496], [5.8139678, 49.9388562], [5.8138688, 49.9388126], [5.813738, 49.9387559], [5.8135878, 49.9387228], [5.8132959, 49.9386447], [5.8129798, 49.9385564], [5.8127519, 49.938507], [5.8123986, 49.9384304], [5.8122521, 49.9383797], [5.8121917, 49.9383588], [5.812023, 49.938291], [5.8115452, 49.9380875], [5.8112498, 49.9379035], [5.8108702, 49.9376716], [5.8102775, 49.9374418], [5.8102497, 49.9374315], [5.8100549, 49.9373595], [5.8100343, 49.937347], [5.8099392, 49.9372894], [5.809732, 49.9371638], [5.8095891, 49.9370773], [5.8094481, 49.9369918], [5.8094474, 49.9369914], [5.8088931, 49.9367094], [5.8085827, 49.9365514], [5.8082105, 49.9363635], [5.8081902, 49.9363533], [5.8079628, 49.936254], [5.807766, 49.9361682], [5.8076758, 49.9361288], [5.8074403, 49.9360503], [5.8072047, 49.9359717], [5.8057283, 49.935705], [5.8056416, 49.9356949], [5.8056437, 49.935907], [5.8056442, 49.935943], [5.8056487, 49.936293], [5.8056473, 49.9367569], [5.8056473, 49.9367699], [5.8056521, 49.9369154], [5.8056366, 49.9370425], [5.8055326, 49.9374557], [5.8055233, 49.937493], [5.8054459, 49.9377039], [5.80534, 49.9379219], [5.8052341, 49.9381399], [5.8051923, 49.938228], [5.8051648, 49.9382859], [5.8051505, 49.9383161], [5.8050048, 49.9387192], [5.804785, 49.9393273], [5.8046369, 49.9397369], [5.8045572, 49.9400643], [5.8045387, 49.9401404], [5.8045086, 49.9402575], [5.804479, 49.9403174], [5.8043966, 49.9404838], [5.8042486, 49.9406978], [5.8042329, 49.9407146], [5.8038612, 49.9411157], [5.8037462, 49.9412739], [5.8036626, 49.9414181], [5.8036093, 49.9415391], [5.8035456, 49.9416836], [5.80351, 49.9417631], [5.8034567, 49.9418825], [5.8033393, 49.9421247], [5.8033372, 49.942129], [5.8033124, 49.9421802], [5.8033107, 49.9422209], [5.8033082, 49.9422794], [5.8032078, 49.9423824], [5.8030779, 49.9425479], [5.8030191, 49.9426229], [5.8029544, 49.9427113], [5.8028389, 49.9428692], [5.8028033, 49.9429179], [5.80277, 49.9429635], [5.8027004, 49.9430586], [5.8026661, 49.9431055], [5.8025944, 49.9432036], [5.8022644, 49.943102], [5.802086, 49.9430526], [5.8018426, 49.9429853], [5.8016158, 49.9428976], [5.8015053, 49.9428552], [5.8014082, 49.942818], [5.8013517, 49.9427963], [5.801177, 49.9427273], [5.7998349, 49.9424971], [5.7996602, 49.9424671], [5.7993091, 49.942412], [5.7982348, 49.9422434], [5.7977004, 49.9421595], [5.796817, 49.9420588], [5.7965695, 49.9420503], [5.7964682, 49.9420448], [5.7955872, 49.9419822], [5.7950769, 49.9419241], [5.7946138, 49.9418713], [5.7944629, 49.9418287], [5.7941496, 49.9417401], [5.7934813, 49.9415874], [5.7928827, 49.9414585], [5.7925983, 49.9415938], [5.7925272, 49.9416277], [5.7917998, 49.9419738], [5.7917588, 49.9419934], [5.7913263, 49.9419098], [5.791088, 49.9418584], [5.7910633, 49.9418531], [5.7910503, 49.9418491], [5.7908335, 49.9417811], [5.7907186, 49.94174], [5.7906632, 49.9417167], [5.7906501, 49.9417112], [5.7905009, 49.9416484], [5.7904313, 49.9416192], [5.7903941, 49.9416428], [5.7902372, 49.9417426], [5.7901616, 49.9417908], [5.7901117, 49.9418225], [5.7900728, 49.9418473], [5.7900619, 49.9418524], [5.7900154, 49.9418746], [5.7895755, 49.9420841], [5.7892014, 49.9422639], [5.7890604, 49.9423489], [5.7888471, 49.9424776], [5.7888343, 49.9424846], [5.7889524, 49.9425407], [5.7891072, 49.9426143], [5.7894847, 49.9428458], [5.7896227, 49.9429388], [5.7897677, 49.9430366], [5.7901055, 49.9431991], [5.7898853, 49.9433905], [5.7892602, 49.9439281], [5.7894111, 49.9440236], [5.7905375, 49.9447428], [5.7908124, 49.944918], [5.7910891, 49.9450942], [5.7913988, 49.9452916], [5.7914218, 49.9453062], [5.7921954, 49.9458001], [5.7924134, 49.9459393], [5.7927574, 49.9461589], [5.7933408, 49.9465304], [5.7933768, 49.9465529], [5.79322, 49.946611], [5.7933304, 49.9467484], [5.7931658, 49.9468281], [5.7926322, 49.9469898], [5.792511, 49.9471108], [5.7919018, 49.9473008], [5.7915927, 49.9474914], [5.7914919, 49.9478036], [5.7910094, 49.9479353], [5.7907459, 49.9477753], [5.7902901, 49.9478047], [5.7900911, 49.9479141], [5.7898544, 49.9480686], [5.7896264, 49.9481644], [5.7888354, 49.948431], [5.7881338, 49.9486675], [5.7880151, 49.9487846], [5.7875818, 49.9492122], [5.7875051, 49.9492631], [5.7850734, 49.9508764], [5.7850451, 49.9509223], [5.7846364, 49.9515862], [5.7845762, 49.9516838], [5.7846088, 49.9518105], [5.7845116, 49.9518378], [5.7842612, 49.9520471], [5.7841032, 49.9521305], [5.784023, 49.9522108], [5.7838934, 49.9523405], [5.7837509, 49.952615], [5.7836446, 49.9526842], [5.7835262, 49.9528675], [5.7833765, 49.9531359], [5.7833858, 49.9531575], [5.783257, 49.9535162], [5.7832503, 49.9535346], [5.7831589, 49.9536245], [5.7831795, 49.9538398], [5.7831811, 49.9539289], [5.7831188, 49.9540101], [5.7830235, 49.9540458], [5.7829298, 49.9540808], [5.7839523, 49.9544183], [5.7843814, 49.95456], [5.7850592, 49.9547837], [5.7856401, 49.9549755], [5.7859963, 49.955093], [5.7860573, 49.9551132], [5.7861167, 49.9551347], [5.7873771, 49.9545036], [5.7874252, 49.9545211], [5.7885154, 49.954916], [5.7900857, 49.9554849], [5.7902642, 49.9555495], [5.7903978, 49.9555979], [5.7904452, 49.9556281], [5.7898496, 49.9560317], [5.7895262, 49.9562083], [5.7879287, 49.9569246], [5.7878036, 49.957005], [5.7868417, 49.958323], [5.7865613, 49.9586474], [5.7866549, 49.9586959], [5.7870725, 49.9589128], [5.7876926, 49.9583802], [5.7884714, 49.9584953], [5.7885604, 49.9585084], [5.7896235, 49.9587275], [5.7888323, 49.9599935], [5.7894514, 49.959938], [5.7893903, 49.9601865], [5.7893088, 49.9604751], [5.7892774, 49.9606613], [5.7892311, 49.9606625], [5.7892237, 49.9608155], [5.7892512, 49.9612241], [5.7892624, 49.9613927], [5.7892737, 49.9615582], [5.790642, 49.9617811], [5.7907816, 49.9617937], [5.7911851, 49.9617986], [5.7912212, 49.9618595], [5.7912918, 49.9620444], [5.7913224, 49.9621715], [5.7913276, 49.9622237], [5.7913192, 49.9622981], [5.7912982, 49.96237], [5.7912586, 49.9624679], [5.7912226, 49.9625407], [5.7911569, 49.9626361], [5.7910416, 49.9627795], [5.7910304, 49.9630159], [5.7909636, 49.9636084], [5.7909399, 49.9638811], [5.791261, 49.9640149], [5.7915596, 49.9641024], [5.7922744, 49.9642851], [5.7924492, 49.964335], [5.7926549, 49.9643986], [5.792917, 49.9644882], [5.7932392, 49.9646141], [5.7934889, 49.9647251], [5.7936905, 49.9648234], [5.7943193, 49.9651542], [5.7945921, 49.9652889], [5.794846, 49.9653862], [5.7950043, 49.9654342], [5.7954817, 49.9655336], [5.7955475, 49.9655044], [5.7957794, 49.965689], [5.7960782, 49.9656261], [5.7962391, 49.9655303], [5.7963602, 49.9654454], [5.7964803, 49.9653534], [5.7967373, 49.9651284], [5.7970064, 49.964768], [5.797066, 49.9646844], [5.7970941, 49.9646298], [5.797122, 49.9646011], [5.7972358, 49.9645269], [5.7972703, 49.9644945], [5.7973464, 49.9644088], [5.7974347, 49.9643465], [5.7974846, 49.9643565], [5.7975277, 49.9643582], [5.7975771, 49.9643534], [5.797638, 49.9643416], [5.7977372, 49.9643069], [5.7978801, 49.9642448], [5.7979704, 49.9642137], [5.7981533, 49.9641646], [5.7982633, 49.964116], [5.7983152, 49.9640834], [5.7983756, 49.9640384], [5.798436, 49.9639854], [5.7987031, 49.9637924], [5.7989963, 49.963606], [5.7992905, 49.9634422], [5.7995753, 49.9633028], [5.7997112, 49.9632433], [5.7999439, 49.9631017], [5.8002207, 49.9629546], [5.800473, 49.9629312], [5.8007183, 49.9629407], [5.8009979, 49.9630003], [5.8014372, 49.9630204], [5.8022958, 49.9630466], [5.8026878, 49.9630333], [5.8027105, 49.9631014], [5.8030764, 49.963268], [5.8030904, 49.9633269], [5.8034907, 49.9632939], [5.8039343, 49.9632134], [5.8042731, 49.9631395], [5.8045793, 49.9630167], [5.8049834, 49.9628626], [5.8053284, 49.9627207], [5.8065451, 49.9623036], [5.8065957, 49.9623006], [5.8067601, 49.9623292], [5.8070402, 49.9623953], [5.8071986, 49.9624572], [5.8073562, 49.9625507], [5.8074913, 49.9626571], [5.8076672, 49.962782], [5.8080236, 49.963023], [5.8081542, 49.9630827], [5.8085095, 49.9632293], [5.8086012, 49.9632622], [5.8090066, 49.9634667], [5.8092197, 49.9635623], [5.8098299, 49.9638086], [5.8099613, 49.9638548], [5.8100304, 49.9638586], [5.8101077, 49.9638453], [5.8101966, 49.9637486], [5.8102567, 49.9636924], [5.8100689, 49.9636028], [5.8099697, 49.9635549], [5.8099544, 49.9635475], [5.8098122, 49.9634937], [5.8093261, 49.963329], [5.809161, 49.9632676], [5.8088048, 49.9630922], [5.8084291, 49.9629345], [5.8083739, 49.9629113], [5.808327, 49.962837], [5.8083148, 49.9628177], [5.8083034, 49.9628018], [5.8082602, 49.9627418], [5.8082443, 49.962728], [5.8081986, 49.9626882], [5.8081385, 49.9626412], [5.8079257, 49.9624895], [5.8077309, 49.9622769], [5.807661, 49.9622008], [5.807584, 49.9620571], [5.8075545, 49.9618994], [5.8074954, 49.9617416], [5.8074274, 49.961566], [5.8074081, 49.9615162], [5.8073565, 49.9613794], [5.8071983, 49.9610429], [5.8071341, 49.9607522], [5.8071106, 49.960709], [5.8071119, 49.9605088], [5.8071125, 49.9604181], [5.807153, 49.9603263], [5.8072516, 49.9601025], [5.807418, 49.9597795], [5.8075009, 49.9596198], [5.8075013, 49.9595128], [5.8075019, 49.9593661], [5.8076862, 49.9591994], [5.8077747, 49.9591194], [5.808301, 49.9588767], [5.8085337, 49.9587688], [5.8085735, 49.9587388], [5.8088205, 49.9585527], [5.8090729, 49.9583033], [5.8095856, 49.9584401], [5.8098713, 49.9585164], [5.8100844, 49.9585732], [5.8104129, 49.9586605], [5.810885, 49.958786], [5.8109271, 49.9587972], [5.8109791, 49.9588111], [5.8112307, 49.9585672], [5.8118151, 49.9581199], [5.8125623, 49.9575874], [5.812978, 49.9572119], [5.8131816, 49.9568034], [5.8131753, 49.9564589], [5.8131209, 49.9562285], [5.8128341, 49.9559212], [5.8120909, 49.9555041], [5.8121278, 49.9554731], [5.8128897, 49.9547183], [5.8129279, 49.9546805], [5.8129511, 49.9546636], [5.8127218, 49.9545538], [5.8106037, 49.953785], [5.8106226, 49.9537663], [5.8106613, 49.9537279], [5.8114113, 49.9529836], [5.8129421, 49.951467], [5.8129584, 49.9514514], [5.8155884, 49.9521605], [5.815609, 49.9521368], [5.815643, 49.9520964], [5.8159465, 49.9517353], [5.8164793, 49.9511012], [5.816493, 49.9510849], [5.816977, 49.9504988], [5.8170471, 49.9505218], [5.8172067, 49.9505744], [5.8172256, 49.9505806], [5.8173303, 49.9506219], [5.8174888, 49.9506844], [5.8175243, 49.9506984], [5.8180416, 49.9509024], [5.8180954, 49.9509236], [5.8181042, 49.950927], [5.8181759, 49.9509393], [5.8183617, 49.95097], [5.8184138, 49.9509786], [5.8184921, 49.9510155], [5.8185876, 49.951061], [5.8190806, 49.9512364], [5.8192272, 49.9512885], [5.8192633, 49.9513014], [5.8194405, 49.9513769], [5.819519, 49.9514247], [5.8195609, 49.9514374], [5.819686, 49.9514753], [5.8197686, 49.951496], [5.8199639, 49.9515526], [5.8201051, 49.9516075], [5.8201549, 49.9516204], [5.8204437, 49.9516955], [5.8204576, 49.9516992], [5.8204686, 49.951702], [5.8205855, 49.9517128], [5.8206811, 49.9517], [5.8208378, 49.951744], [5.8209404, 49.9517563], [5.8210683, 49.9517429], [5.8211586, 49.9517548], [5.821224, 49.9517866], [5.8212424, 49.9517955], [5.8213153, 49.9517846], [5.8213879, 49.9517829], [5.8216038, 49.951808], [5.8217663, 49.9517741], [5.8218738, 49.9517594], [5.8220602, 49.9517511], [5.822178, 49.9517459], [5.8221888, 49.9517454], [5.8222789, 49.9517494], [5.8224679, 49.9517806], [5.8225613, 49.951808], [5.8225693, 49.9518094], [5.82261, 49.9518163], [5.8227066, 49.9518328], [5.8227365, 49.9518379], [5.8227923, 49.9518435], [5.822868, 49.9518512], [5.8229629, 49.9518452], [5.8229718, 49.9518461], [5.8230636, 49.9518561], [5.8231494, 49.9518491], [5.8231947, 49.9518455], [5.8233555, 49.9518825], [5.8236192, 49.951938], [5.8238882, 49.9519978], [5.8240029, 49.9520497], [5.824099, 49.9520947], [5.8242392, 49.9521885], [5.8243899, 49.952274], [5.8246759, 49.9524075], [5.8248155, 49.9524108], [5.8248983, 49.9524598], [5.8250385, 49.9525662], [5.8250922, 49.9526016], [5.8251232, 49.9526221], [5.82519, 49.9526402], [5.8252259, 49.952643], [5.825274, 49.9526466], [5.8253606, 49.9526822], [5.825417, 49.9526901], [5.825486, 49.9527494], [5.8255546, 49.9527834], [5.8255886, 49.9528002], [5.8256713, 49.9528447], [5.8257015, 49.952861], [5.8258486, 49.9529029], [5.8260249, 49.9529575], [5.8261527, 49.9529613], [5.8262404, 49.9529764], [5.8262799, 49.9529833], [5.8264164, 49.9530116], [5.8264911, 49.9530399], [5.8270266, 49.9530751], [5.8278801, 49.9532549], [5.8280074, 49.9532817], [5.8280255, 49.9532864], [5.8280766, 49.9532997], [5.8281573, 49.9533253], [5.8282868, 49.953326], [5.8286068, 49.9533279], [5.8286209, 49.953328], [5.8288067, 49.9533665], [5.8288633, 49.9533782], [5.8289519, 49.9534282], [5.8290121, 49.9534453], [5.8291675, 49.9534893], [5.8293331, 49.9535247], [5.8294795, 49.9535335], [5.8295935, 49.9535404], [5.8296249, 49.9535423], [5.8296662, 49.95355], [5.8297928, 49.9535737], [5.8298284, 49.9535803], [5.8298796, 49.9536005], [5.8299009, 49.9536088], [5.8299616, 49.953634], [5.8300663, 49.9536719], [5.8302168, 49.9536725], [5.8302187, 49.9536727], [5.8303063, 49.9536823], [5.8303394, 49.9536859], [5.8304384, 49.9536963], [5.830455, 49.9536981], [5.8304947, 49.9537023], [5.8305329, 49.9537063], [5.8305574, 49.953706], [5.8307299, 49.9537037], [5.8311478, 49.9536592], [5.8311901, 49.9536547], [5.8313533, 49.9536329], [5.8315267, 49.9536096], [5.8315735, 49.9535987], [5.8317949, 49.9535472], [5.8318405, 49.9535366], [5.8319536, 49.9535103], [5.8325047, 49.9533613], [5.8326629, 49.9533099], [5.8327934, 49.9532292], [5.8328122, 49.9532175], [5.8328317, 49.9532071], [5.8329402, 49.9531487], [5.8330001, 49.953127], [5.8332734, 49.9530278], [5.8333013, 49.9530177], [5.8334307, 49.9529707], [5.8335283, 49.9529353], [5.8335573, 49.9529304], [5.8337576, 49.9528969], [5.8344976, 49.9525983], [5.834629, 49.9525453], [5.8348873, 49.9524517], [5.8349282, 49.9524369], [5.8350845, 49.9523802], [5.8354997, 49.9521906], [5.8355844, 49.9521519], [5.8357879, 49.9520736], [5.8358527, 49.9520487], [5.8361935, 49.9519368], [5.8361979, 49.9519354], [5.83641, 49.9518558], [5.8364826, 49.9518286], [5.8367399, 49.9517237], [5.8367466, 49.951721], [5.8369653, 49.9516902], [5.8370584, 49.9516937], [5.8371726, 49.9516775], [5.8373905, 49.9516739], [5.8374795, 49.9516646], [5.8378022, 49.9516309], [5.8379464, 49.9516184], [5.8380221, 49.9515922], [5.8380715, 49.9515622], [5.8381394, 49.951499], [5.8383153, 49.9513353], [5.8383746, 49.9513393]]]}}]}