{"type": "FeatureCollection", "features": [{"type": "Feature", "properties": {"name": "Strassen"}, "geometry": {"type": "MultiPolygon", "coordinates": [[[[6.045835, 49.63348], [6.045835, 49.63351], [6.045896, 49.633587], [6.045973, 49.633656], [6.046011, 49.633747], [6.046042, 49.633858], [6.046061, 49.634026], [6.04608, 49.634106], [6.046125, 49.634155], [6.046236, 49.634235], [6.046274, 49.63432], [6.046255, 49.634453], [6.04619, 49.63463], [6.046137, 49.634716], [6.04611, 49.63497], [6.046202, 49.635143], [6.046316, 49.63524], [6.046431, 49.6353], [6.04661, 49.635338], [6.046843, 49.635414], [6.04719, 49.635696], [6.047415, 49.63588], [6.047571, 49.636055], [6.047907, 49.636543], [6.047956, 49.63667], [6.047968, 49.63678], [6.047995, 49.636875], [6.048071, 49.636974], [6.048201, 49.63707], [6.0483, 49.63712], [6.0487, 49.63735], [6.048857, 49.63746], [6.048986, 49.637608], [6.049074, 49.637756], [6.049128, 49.637897], [6.049158, 49.638138], [6.04912, 49.638294], [6.049051, 49.63847], [6.04891, 49.63866], [6.048792, 49.63877], [6.048574, 49.63889], [6.048372, 49.638985], [6.048246, 49.639084], [6.048216, 49.63911], [6.047991, 49.63927], [6.047789, 49.63938], [6.047525, 49.63952], [6.047361, 49.639633], [6.047159, 49.63984], [6.04706, 49.639988], [6.047045, 49.640076], [6.047083, 49.640144], [6.047079, 49.640244], [6.047049, 49.640343], [6.046957, 49.640472], [6.046843, 49.640575], [6.046762, 49.640614], [6.046637, 49.640636], [6.046598, 49.640648], [6.046564, 49.64069], [6.046534, 49.640892], [6.046549, 49.640945], [6.046633, 49.641006], [6.046789, 49.640976], [6.046969, 49.640972], [6.047228, 49.64104], [6.047506, 49.641148], [6.047564, 49.641182], [6.047552, 49.641304], [6.047544, 49.64142], [6.047621, 49.641575], [6.047865, 49.641815], [6.04804, 49.641933], [6.048143, 49.641964], [6.048315, 49.641964], [6.048422, 49.64201], [6.048521, 49.6421], [6.048605, 49.64219], [6.048661, 49.64231], [6.04875, 49.6425], [6.048841, 49.642542], [6.048929, 49.642576], [6.049124, 49.64264], [6.04941, 49.64272], [6.049471, 49.64276], [6.049585, 49.642864], [6.049684, 49.642933], [6.049795, 49.642986], [6.05002, 49.64304], [6.050188, 49.643066], [6.050261, 49.64309], [6.050295, 49.64314], [6.050302, 49.64327], [6.050344, 49.643314], [6.050455, 49.64334], [6.050684, 49.643353], [6.050871, 49.64336], [6.05097, 49.643375], [6.051084, 49.643448], [6.05118, 49.643513], [6.051268, 49.64361], [6.051371, 49.643665], [6.051523, 49.643707], [6.051813, 49.643738], [6.052282, 49.643795], [6.052557, 49.643864], [6.052866, 49.64395], [6.053034, 49.644028], [6.053156, 49.644096], [6.05324, 49.644184], [6.053282, 49.64426], [6.053286, 49.64433], [6.053236, 49.64455], [6.053225, 49.64472], [6.053286, 49.644817], [6.053339, 49.64488], [6.053446, 49.644917], [6.053606, 49.644924], [6.053739, 49.6449], [6.053865, 49.64488], [6.053961, 49.644867], [6.054048, 49.644886], [6.054171, 49.64493], [6.054285, 49.644997], [6.054399, 49.645092], [6.054625, 49.645195], [6.054754, 49.645252], [6.054827, 49.6453], [6.054846, 49.645344], [6.054846, 49.645435], [6.054827, 49.645523], [6.05472, 49.645638], [6.05459, 49.645702], [6.054487, 49.645775], [6.05448, 49.645847], [6.054487, 49.64595], [6.054506, 49.64605], [6.054476, 49.646126], [6.054392, 49.64619], [6.054262, 49.646286], [6.054144, 49.64639], [6.054064, 49.64647], [6.05406, 49.646576], [6.054125, 49.646706], [6.054312, 49.646866], [6.054392, 49.646957], [6.054411, 49.64704], [6.054388, 49.647095], [6.054289, 49.64724], [6.054285, 49.647285], [6.054319, 49.647335], [6.054407, 49.647392], [6.054552, 49.64743], [6.05467, 49.64745], [6.054769, 49.647472], [6.054831, 49.647522], [6.054846, 49.647614], [6.054884, 49.64765], [6.055666, 49.647873], [6.056025, 49.647987], [6.056429, 49.648136], [6.056791, 49.64832], [6.056898, 49.64835], [6.057074, 49.64836], [6.057207, 49.648373], [6.057329, 49.648415], [6.057451, 49.648476], [6.057585, 49.648582], [6.057715, 49.648693], [6.057783, 49.64879], [6.057833, 49.648933], [6.057848, 49.649036], [6.057836, 49.64915], [6.057802, 49.64933], [6.057775, 49.64953], [6.057825, 49.64969], [6.05789, 49.64979], [6.057978, 49.649933], [6.05802, 49.650066], [6.058027, 49.650166], [6.05802, 49.65027], [6.058031, 49.650368], [6.058058, 49.65045], [6.058096, 49.650517], [6.058168, 49.650597], [6.05839, 49.65076], [6.058508, 49.650913], [6.058622, 49.65111], [6.058695, 49.65135], [6.058664, 49.651424], [6.058649, 49.651497], [6.058641, 49.651634], [6.058653, 49.65173], [6.058672, 49.65178], [6.058714, 49.65187], [6.058767, 49.65193], [6.058878, 49.652008], [6.058966, 49.65204], [6.059076, 49.65205], [6.05932, 49.652065], [6.059435, 49.65206], [6.059538, 49.65205], [6.059607, 49.652027], [6.059645, 49.652004], [6.059725, 49.65201], [6.059839, 49.652058], [6.05995, 49.65216], [6.060034, 49.65224], [6.060141, 49.65237], [6.060202, 49.652473], [6.060251, 49.65261], [6.060377, 49.65282], [6.060476, 49.652943], [6.060621, 49.653137], [6.060774, 49.653248], [6.060945, 49.653244], [6.061243, 49.653282], [6.061384, 49.653267], [6.061708, 49.653084], [6.061842, 49.653053], [6.06196, 49.65306], [6.062345, 49.65325], [6.062464, 49.653263], [6.062548, 49.653244], [6.062796, 49.653126], [6.062845, 49.653072], [6.062906, 49.653057], [6.06299, 49.653065], [6.063211, 49.653175], [6.063528, 49.653313], [6.063833, 49.653477], [6.064012, 49.653557], [6.064264, 49.6537], [6.064386, 49.65373], [6.064501, 49.653774], [6.064661, 49.65389], [6.064768, 49.654], [6.064852, 49.654156], [6.064985, 49.65432], [6.065115, 49.65437], [6.065195, 49.654377], [6.065344, 49.65432], [6.065386, 49.654316], [6.065626, 49.654408], [6.065931, 49.65456], [6.066091, 49.654694], [6.06616, 49.654854], [6.06629, 49.655025], [6.066576, 49.655327], [6.066721, 49.65531], [6.066786, 49.655403], [6.066866, 49.65549], [6.066877, 49.65553], [6.06674, 49.655766], [6.06674, 49.655834], [6.066813, 49.65596], [6.066992, 49.65608], [6.067068, 49.65616], [6.06716, 49.656303], [6.067404, 49.656593], [6.067511, 49.656723], [6.06764, 49.656914], [6.067778, 49.657005], [6.067923, 49.657204], [6.067934, 49.65726], [6.067934, 49.657345], [6.067892, 49.657467], [6.067888, 49.65748], [6.067923, 49.657597], [6.067976, 49.65761], [6.068098, 49.657627], [6.068174, 49.657635], [6.068308, 49.657646], [6.068808, 49.657978], [6.069029, 49.658115], [6.069304, 49.658287], [6.069353, 49.65826], [6.069483, 49.658203], [6.06962, 49.658134], [6.069872, 49.658024], [6.06999, 49.657978], [6.070078, 49.657948], [6.070211, 49.657906], [6.070372, 49.657864], [6.07044, 49.657845], [6.070498, 49.65783], [6.070856, 49.657722], [6.071005, 49.65768], [6.071188, 49.65763], [6.071295, 49.657604], [6.071352, 49.657597], [6.071482, 49.657585], [6.071623, 49.657574], [6.071932, 49.65755], [6.072233, 49.657528], [6.072458, 49.657513], [6.072721, 49.65749], [6.072954, 49.657475], [6.07337, 49.657223], [6.073439, 49.657185], [6.073545, 49.65712], [6.073641, 49.65706], [6.073797, 49.656963], [6.074114, 49.65674], [6.074327, 49.656586], [6.074415, 49.656517], [6.074541, 49.65643], [6.074766, 49.65626], [6.07538, 49.655823], [6.075521, 49.65547], [6.075705, 49.65504], [6.075762, 49.654903], [6.075781, 49.65486], [6.075823, 49.654778], [6.075945, 49.654556], [6.076059, 49.654335], [6.07609, 49.65427], [6.07614, 49.65417], [6.076254, 49.653942], [6.076342, 49.65376], [6.076395, 49.653667], [6.076422, 49.653625], [6.076544, 49.653427], [6.07659, 49.653355], [6.076822, 49.65301], [6.077032, 49.652782], [6.077299, 49.6525], [6.077448, 49.652348], [6.077913, 49.651867], [6.078096, 49.651676], [6.078371, 49.65137], [6.078451, 49.651287], [6.078482, 49.651257], [6.078581, 49.651146], [6.0786, 49.651127], [6.078909, 49.650806], [6.078951, 49.650764], [6.079001, 49.650734], [6.079061, 49.65069], [6.079107, 49.65046], [6.079142, 49.650295], [6.079195, 49.650055], [6.079252, 49.64977], [6.079264, 49.649708], [6.079268, 49.649696], [6.079279, 49.64962], [6.079332, 49.64931], [6.079382, 49.649036], [6.079378, 49.648994], [6.079328, 49.648827], [6.079206, 49.648434], [6.079081, 49.64799], [6.079008, 49.6477], [6.078958, 49.647625], [6.078741, 49.64733], [6.07865, 49.647224], [6.078505, 49.647045], [6.078447, 49.646976], [6.078371, 49.64684], [6.078131, 49.64655], [6.077894, 49.646217], [6.07781, 49.64603], [6.077661, 49.64566], [6.077429, 49.64517], [6.077223, 49.644573], [6.077154, 49.644302], [6.077085, 49.64396], [6.077116, 49.643677], [6.077169, 49.643215], [6.077192, 49.64305], [6.077211, 49.64277], [6.077185, 49.642555], [6.077154, 49.642345], [6.077051, 49.641983], [6.076906, 49.64163], [6.076773, 49.641438], [6.076593, 49.641193], [6.076506, 49.641075], [6.076212, 49.64067], [6.07588, 49.6402], [6.075434, 49.639652], [6.07527, 49.63951], [6.07506, 49.63932], [6.074778, 49.639057], [6.074511, 49.638798], [6.074389, 49.63866], [6.074232, 49.638466], [6.074099, 49.63831], [6.073954, 49.63811], [6.073862, 49.637974], [6.073771, 49.637817], [6.073702, 49.63767], [6.073675, 49.637608], [6.073572, 49.63734], [6.073481, 49.63709], [6.0734, 49.636932], [6.073152, 49.636562], [6.073023, 49.6364], [6.072809, 49.636177], [6.072691, 49.636066], [6.072416, 49.63589], [6.072149, 49.635715], [6.07202, 49.635624], [6.071974, 49.63557], [6.071859, 49.635395], [6.071722, 49.63517], [6.071634, 49.63504], [6.07155, 49.634945], [6.071196, 49.63464], [6.070738, 49.634285], [6.07052, 49.634136], [6.070246, 49.633938], [6.069964, 49.633736], [6.069746, 49.63326], [6.069246, 49.632156], [6.069254, 49.631966], [6.06917, 49.631966], [6.069269, 49.631573], [6.069277, 49.631523], [6.069323, 49.63121], [6.069368, 49.630928], [6.069376, 49.630856], [6.069384, 49.630825], [6.069387, 49.630806], [6.069426, 49.63072], [6.069467, 49.63063], [6.069502, 49.630577], [6.069563, 49.630474], [6.069746, 49.6302], [6.069895, 49.629974], [6.069983, 49.629845], [6.070143, 49.6296], [6.070215, 49.629494], [6.070269, 49.629414], [6.070364, 49.629265], [6.070459, 49.62912], [6.070608, 49.628887], [6.070749, 49.628784], [6.070875, 49.62869], [6.071043, 49.628563], [6.071218, 49.628456], [6.071859, 49.628063], [6.072157, 49.6279], [6.072863, 49.627422], [6.073137, 49.627483], [6.074518, 49.627777], [6.074728, 49.62782], [6.074957, 49.62787], [6.07546, 49.627975], [6.075743, 49.628036], [6.076403, 49.628174], [6.076643, 49.628216], [6.076727, 49.62823], [6.0772, 49.628315], [6.077867, 49.62843], [6.078207, 49.628487], [6.078302, 49.6285], [6.078489, 49.628532], [6.078981, 49.628613], [6.079298, 49.62866], [6.079496, 49.628677], [6.079813, 49.628685], [6.080389, 49.628704], [6.080796, 49.628692], [6.081049, 49.62872], [6.081274, 49.628723], [6.082033, 49.62874], [6.082315, 49.628742], [6.082445, 49.628742], [6.082556, 49.628746], [6.082716, 49.628735], [6.082815, 49.628727], [6.083013, 49.628704], [6.083258, 49.628677], [6.083448, 49.62865], [6.083605, 49.62863], [6.083857, 49.628597], [6.084135, 49.628555], [6.084524, 49.628498], [6.0847, 49.628475], [6.084989, 49.62845], [6.085081, 49.62844], [6.085249, 49.628426], [6.085783, 49.628384], [6.086397, 49.62833], [6.086554, 49.628315], [6.086683, 49.6283], [6.086794, 49.628284], [6.086855, 49.628273], [6.086988, 49.62825], [6.087141, 49.62822], [6.087377, 49.62817], [6.08753, 49.628136], [6.087698, 49.628094], [6.087908, 49.628033], [6.088186, 49.62795], [6.088392, 49.627876], [6.088678, 49.627766], [6.088388, 49.6275], [6.088289, 49.627407], [6.088205, 49.62733], [6.088003, 49.62715], [6.087915, 49.627075], [6.087892, 49.627052], [6.087973, 49.62701], [6.088053, 49.62697], [6.088243, 49.626865], [6.088419, 49.626755], [6.088533, 49.62668], [6.088743, 49.626526], [6.0889, 49.626408], [6.089079, 49.626266], [6.089235, 49.626152], [6.089369, 49.626057], [6.089464, 49.625996], [6.089853, 49.62582], [6.090097, 49.625717], [6.090464, 49.625572], [6.090612, 49.62551], [6.091021, 49.625355], [6.090795, 49.625225], [6.090525, 49.625076], [6.090105, 49.624863], [6.089376, 49.624508], [6.089274, 49.624454], [6.089251, 49.624443], [6.089232, 49.624374], [6.089212, 49.62428], [6.08917, 49.624046], [6.089129, 49.62383], [6.089102, 49.623642], [6.089079, 49.623394], [6.089067, 49.623356], [6.089018, 49.623234], [6.08909, 49.623226], [6.089113, 49.62321], [6.089354, 49.623318], [6.090017, 49.62363], [6.090475, 49.623833], [6.090887, 49.624012], [6.09123, 49.624157], [6.091402, 49.62421], [6.091658, 49.62434], [6.091955, 49.624485], [6.092131, 49.624557], [6.092253, 49.624603], [6.092535, 49.62467], [6.092794, 49.62472], [6.092932, 49.624744], [6.093054, 49.624752], [6.093203, 49.62475], [6.093473, 49.624725], [6.093904, 49.62467], [6.094027, 49.62464], [6.094194, 49.62459], [6.094378, 49.62453], [6.094755, 49.624393], [6.094927, 49.624336], [6.095102, 49.62428], [6.095312, 49.624226], [6.095495, 49.624203], [6.095682, 49.62419], [6.096167, 49.624184], [6.096674, 49.624187], [6.097448, 49.624184], [6.097986, 49.624172], [6.099203, 49.624172], [6.09952, 49.624184], [6.09997, 49.62422], [6.100641, 49.6243], [6.101172, 49.624397], [6.101843, 49.624557], [6.102621, 49.624763], [6.103273, 49.624966], [6.103678, 49.62508], [6.103682, 49.625042], [6.103708, 49.624886], [6.103697, 49.62485], [6.103666, 49.62478], [6.103647, 49.62474], [6.103624, 49.624695], [6.103563, 49.624603], [6.103491, 49.62449], [6.10343, 49.624393], [6.103308, 49.624218], [6.103258, 49.62415], [6.103197, 49.62406], [6.103102, 49.623936], [6.103045, 49.62386], [6.10288, 49.623814], [6.10301, 49.62368], [6.102701, 49.623596], [6.102594, 49.62357], [6.102552, 49.623554], [6.102419, 49.62352], [6.102102, 49.623444], [6.1019, 49.623394], [6.101961, 49.623295], [6.10203, 49.62318], [6.101851, 49.623142], [6.101584, 49.62309], [6.101461, 49.623062], [6.101305, 49.62303], [6.101389, 49.622883], [6.101469, 49.622734], [6.101545, 49.622597], [6.10124, 49.622524], [6.10116, 49.622513], [6.101049, 49.62249], [6.100924, 49.62247], [6.100824, 49.622463], [6.100966, 49.622185], [6.100866, 49.622116], [6.100714, 49.62202], [6.100466, 49.621857], [6.100252, 49.62171], [6.100138, 49.621635], [6.099596, 49.621254], [6.098833, 49.620724], [6.098337, 49.620373], [6.09815, 49.620243], [6.09804, 49.62014], [6.097925, 49.62002], [6.097876, 49.619976], [6.097746, 49.619846], [6.097879, 49.619797], [6.098051, 49.619736], [6.098032, 49.61969], [6.098013, 49.61963], [6.097986, 49.619553], [6.097918, 49.619377], [6.097895, 49.61931], [6.097876, 49.61926], [6.097803, 49.619057], [6.097742, 49.618896], [6.097729, 49.618861], [6.097709, 49.618809], [6.097691, 49.618763], [6.097677, 49.618725], [6.097659, 49.618675], [6.097642, 49.61863], [6.097624, 49.618581], [6.097517, 49.618618], [6.097341, 49.618675], [6.097242, 49.61871], [6.09709, 49.618762], [6.097032, 49.61867], [6.097002, 49.618618], [6.096952, 49.618538], [6.096891, 49.618446], [6.096742, 49.618217], [6.09672, 49.61818], [6.096693, 49.618145], [6.096563, 49.617935], [6.096521, 49.61787], [6.096483, 49.617813], [6.096537, 49.61783], [6.096499, 49.617756], [6.09646, 49.61768], [6.096434, 49.61763], [6.096369, 49.617535], [6.096354, 49.617516], [6.096338, 49.617496], [6.096285, 49.61742], [6.096132, 49.617214], [6.096075, 49.617134], [6.095903, 49.616898], [6.095832, 49.616833], [6.095739, 49.616623], [6.095663, 49.616447], [6.09548, 49.616047], [6.095278, 49.615623], [6.09511, 49.61529], [6.095076, 49.615223], [6.09506, 49.615185], [6.093256, 49.61551], [6.093222, 49.615463], [6.092993, 49.615143], [6.092886, 49.614998], [6.092741, 49.614796], [6.092585, 49.614586], [6.092485, 49.614445], [6.092409, 49.614326], [6.092295, 49.614174], [6.092176, 49.61401], [6.092001, 49.61377], [6.091898, 49.613632], [6.091696, 49.613358], [6.091673, 49.613321], [6.091185, 49.613344], [6.090693, 49.613337], [6.09067, 49.613308], [6.090517, 49.6131], [6.090334, 49.612854], [6.090235, 49.612732], [6.09004, 49.612476], [6.089762, 49.612118], [6.089472, 49.611744], [6.089361, 49.611603], [6.089514, 49.611546], [6.089422, 49.611355], [6.089407, 49.61133], [6.089373, 49.611256], [6.089323, 49.611153], [6.08914, 49.61076], [6.089079, 49.610622], [6.088987, 49.61047], [6.088858, 49.610237], [6.088713, 49.61], [6.088461, 49.60965], [6.088179, 49.609337], [6.088068, 49.60922], [6.087908, 49.609093], [6.087877, 49.60902], [6.087732, 49.608902], [6.087542, 49.60875], [6.087248, 49.608524], [6.086798, 49.60817], [6.086485, 49.607925], [6.086298, 49.607788], [6.085932, 49.607525], [6.085745, 49.607395], [6.085665, 49.607338], [6.085589, 49.607292], [6.085474, 49.607224], [6.085348, 49.60715], [6.085199, 49.607063], [6.085047, 49.606976], [6.08486, 49.606873], [6.084318, 49.606586], [6.083914, 49.60638], [6.083628, 49.606236], [6.08341, 49.606125], [6.082651, 49.605747], [6.082472, 49.60566], [6.082437, 49.60564], [6.082354, 49.605602], [6.082235, 49.6057], [6.082171, 49.60575], [6.082098, 49.60581], [6.082029, 49.605865], [6.0819, 49.605972], [6.081449, 49.60633], [6.081404, 49.60636], [6.081259, 49.606476], [6.081228, 49.6065], [6.081076, 49.60663], [6.080942, 49.606556], [6.080919, 49.60657], [6.080816, 49.606644], [6.080522, 49.606853], [6.080408, 49.606937], [6.080336, 49.606987], [6.080168, 49.607105], [6.080019, 49.607204], [6.079592, 49.6075], [6.079191, 49.60778], [6.078741, 49.60753], [6.078627, 49.60748], [6.078409, 49.60765], [6.078367, 49.607685], [6.078245, 49.607784], [6.078218, 49.607803], [6.078096, 49.60791], [6.078066, 49.60793], [6.078123, 49.60796], [6.078066, 49.60801], [6.078711, 49.60833], [6.079428, 49.608696], [6.080248, 49.609127], [6.080107, 49.60926], [6.079843, 49.609516], [6.079805, 49.60955], [6.079714, 49.609642], [6.079481, 49.60988], [6.079424, 49.60995], [6.079386, 49.60999], [6.079355, 49.610023], [6.079317, 49.61006], [6.079294, 49.61009], [6.079248, 49.610138], [6.079206, 49.610184], [6.079184, 49.610207], [6.079096, 49.6103], [6.079081, 49.610313], [6.079061, 49.610336], [6.079019, 49.61038], [6.078958, 49.610447], [6.078909, 49.6105], [6.078852, 49.61056], [6.078566, 49.610855], [6.078543, 49.610874], [6.078436, 49.61098], [6.078402, 49.61101], [6.07826, 49.611153], [6.07823, 49.611153], [6.078085, 49.6113], [6.077692, 49.6111], [6.077398, 49.610943], [6.077017, 49.610744], [6.076994, 49.610733], [6.076975, 49.61072], [6.07686, 49.610664], [6.076834, 49.610687], [6.076467, 49.61098], [6.07612, 49.610798], [6.07596, 49.610916], [6.075949, 49.610924], [6.07583, 49.61101], [6.075506, 49.611248], [6.075224, 49.61144], [6.075193, 49.611465], [6.075064, 49.611553], [6.074919, 49.611656], [6.074888, 49.61168], [6.074778, 49.61175], [6.074545, 49.611916], [6.074438, 49.611988], [6.074377, 49.612034], [6.074243, 49.612133], [6.074091, 49.612103], [6.073969, 49.612053], [6.073729, 49.611923], [6.073439, 49.611744], [6.073194, 49.611633], [6.072626, 49.611458], [6.072561, 49.611485], [6.072512, 49.611504], [6.072024, 49.611682], [6.071958, 49.611706], [6.071432, 49.611897], [6.071157, 49.611984], [6.071116, 49.612], [6.071016, 49.61203], [6.070913, 49.612064], [6.070711, 49.612137], [6.07044, 49.612267], [6.069849, 49.612556], [6.069368, 49.61279], [6.06922, 49.61258], [6.06914, 49.61246], [6.069056, 49.612347], [6.068888, 49.61238], [6.068685, 49.612415], [6.06864, 49.612427], [6.068468, 49.61245], [6.068388, 49.61246], [6.068212, 49.612488], [6.067923, 49.612526], [6.067755, 49.61255], [6.067717, 49.612556], [6.067652, 49.612568], [6.067434, 49.612606], [6.066919, 49.612732], [6.066446, 49.61284], [6.066065, 49.612923], [6.065676, 49.61301], [6.06542, 49.61306], [6.065397, 49.613064], [6.065302, 49.613083], [6.065226, 49.613102], [6.065062, 49.61313], [6.064966, 49.61314], [6.064775, 49.61317], [6.064508, 49.613235], [6.064436, 49.61325], [6.064287, 49.61329], [6.064249, 49.613297], [6.064188, 49.613304], [6.064005, 49.613304], [6.063917, 49.613342], [6.063788, 49.613396], [6.063646, 49.613453], [6.063574, 49.613472], [6.063456, 49.61351], [6.063288, 49.61356], [6.063219, 49.6134], [6.063005, 49.613422], [6.062769, 49.613445], [6.062616, 49.613445], [6.062483, 49.613438], [6.062353, 49.613422], [6.06217, 49.61339], [6.061949, 49.613346], [6.061811, 49.613308], [6.061995, 49.613705], [6.062056, 49.613842], [6.062098, 49.61393], [6.062262, 49.614304], [6.0623, 49.614395], [6.062319, 49.614433], [6.062365, 49.614536], [6.062433, 49.614697], [6.062509, 49.614857], [6.062594, 49.615044], [6.062613, 49.61508], [6.0627, 49.615273], [6.062582, 49.615284], [6.06259, 49.61532], [6.062689, 49.615704], [6.062704, 49.61574], [6.062727, 49.615845], [6.062757, 49.615967], [6.062799, 49.616104], [6.062876, 49.616394], [6.062765, 49.616398], [6.062796, 49.616653], [6.06283, 49.61692], [6.062849, 49.617043], [6.062914, 49.61752], [6.062929, 49.617645], [6.062933, 49.617664], [6.062937, 49.61769], [6.062964, 49.61791], [6.062967, 49.617928], [6.063051, 49.618507], [6.063051, 49.618553], [6.061613, 49.618465], [6.060362, 49.618412], [6.059488, 49.61837], [6.059145, 49.61833], [6.058683, 49.618263], [6.056307, 49.617977], [6.055101, 49.61782], [6.054327, 49.617733], [6.054331, 49.61815], [6.05435, 49.61888], [6.05435, 49.618904], [6.054357, 49.618984], [6.054369, 49.61925], [6.054384, 49.619354], [6.054411, 49.619526], [6.054445, 49.619785], [6.054468, 49.619972], [6.054228, 49.619984], [6.053995, 49.619995], [6.053881, 49.62], [6.05369, 49.620007], [6.053297, 49.620026], [6.052889, 49.620045], [6.052767, 49.62005], [6.052782, 49.620224], [6.052786, 49.6203], [6.052797, 49.62046], [6.05271, 49.620483], [6.052439, 49.62056], [6.052381, 49.620575], [6.052282, 49.6206], [6.052183, 49.62063], [6.052183, 49.620987], [6.052187, 49.62137], [6.052187, 49.62153], [6.052191, 49.62193], [6.052195, 49.622013], [6.051134, 49.621952], [6.05113, 49.62204], [6.05113, 49.622074], [6.051123, 49.62219], [6.051214, 49.622185], [6.051302, 49.622185], [6.051439, 49.62219], [6.0515, 49.62246], [6.051554, 49.622665], [6.051638, 49.62301], [6.051691, 49.623257], [6.051718, 49.62336], [6.051748, 49.62346], [6.051802, 49.623592], [6.051996, 49.624], [6.052061, 49.624126], [6.052034, 49.624138], [6.051832, 49.624203], [6.051569, 49.624294], [6.051348, 49.624382], [6.051245, 49.624428], [6.051119, 49.62448], [6.051001, 49.624535], [6.05065, 49.624664], [6.050066, 49.624886], [6.050188, 49.62507], [6.050257, 49.62517], [6.050341, 49.625298], [6.050413, 49.62541], [6.050455, 49.625477], [6.05047, 49.625496], [6.050543, 49.625603], [6.050695, 49.62582], [6.050211, 49.626007], [6.049738, 49.6262], [6.049559, 49.626263], [6.049048, 49.62638], [6.048822, 49.62645], [6.048544, 49.626553], [6.048182, 49.626713], [6.047911, 49.626835], [6.047602, 49.627018], [6.0473, 49.62719], [6.046831, 49.62746], [6.046541, 49.627617], [6.046251, 49.627777], [6.046091, 49.627903], [6.045977, 49.62802], [6.045916, 49.628117], [6.04587, 49.62824], [6.045862, 49.62835], [6.045893, 49.628506], [6.045893, 49.628532], [6.046072, 49.62861], [6.046362, 49.628723], [6.046507, 49.62882], [6.046678, 49.62902], [6.046896, 49.62922], [6.047171, 49.629425], [6.047281, 49.629513], [6.047426, 49.629803], [6.04756, 49.62994], [6.047785, 49.630043], [6.047853, 49.63012], [6.047823, 49.630264], [6.047777, 49.630493], [6.047674, 49.630592], [6.04759, 49.630657], [6.047567, 49.630753], [6.047537, 49.630875], [6.047514, 49.63107], [6.047518, 49.63134], [6.04748, 49.631416], [6.047457, 49.631474], [6.047495, 49.631603], [6.047583, 49.631878], [6.047552, 49.631992], [6.047495, 49.632065], [6.047361, 49.63216], [6.047205, 49.632244], [6.047144, 49.632328], [6.047098, 49.632454], [6.047098, 49.63248], [6.047144, 49.632523], [6.047152, 49.632572], [6.047102, 49.632603], [6.046781, 49.63273], [6.046743, 49.632763], [6.046682, 49.632877], [6.046606, 49.632957], [6.046274, 49.63321], [6.046057, 49.633347], [6.045851, 49.63345], [6.045835, 49.63348]]]]}}]}