{"type": "FeatureCollection", "features": [{"type": "Feature", "properties": {"name": "Ettelbruck"}, "geometry": {"type": "MultiPolygon", "coordinates": [[[[6.038107, 49.832634], [6.038118, 49.832657], [6.03916, 49.83266], [6.039915, 49.832672], [6.040335, 49.832687], [6.040602, 49.83271], [6.041468, 49.832825], [6.042639, 49.83293], [6.043093, 49.832977], [6.044207, 49.83324], [6.045084, 49.833443], [6.045546, 49.833633], [6.046175, 49.833885], [6.04624, 49.833927], [6.046396, 49.83405], [6.04645, 49.834095], [6.046652, 49.834255], [6.046816, 49.834377], [6.046995, 49.834496], [6.047262, 49.834656], [6.047476, 49.834766], [6.04751, 49.834785], [6.047529, 49.83478], [6.047716, 49.834766], [6.047922, 49.83475], [6.048067, 49.83475], [6.048929, 49.834774], [6.048986, 49.83495], [6.049028, 49.83505], [6.049124, 49.8352], [6.049189, 49.835308], [6.049219, 49.835396], [6.049227, 49.83544], [6.049253, 49.83562], [6.049269, 49.83575], [6.04928, 49.83589], [6.049307, 49.83601], [6.049341, 49.836094], [6.04936, 49.836132], [6.049395, 49.836197], [6.04952, 49.83637], [6.049608, 49.836433], [6.050013, 49.83669], [6.050085, 49.83674], [6.050211, 49.836853], [6.050306, 49.836956], [6.050383, 49.837105], [6.050478, 49.837357], [6.050531, 49.837513], [6.050619, 49.837627], [6.050722, 49.83779], [6.050745, 49.837833], [6.050825, 49.838], [6.051077, 49.838066], [6.051291, 49.838104], [6.051436, 49.838116], [6.05155, 49.83811], [6.051779, 49.838097], [6.051897, 49.83808], [6.052164, 49.838028], [6.05271, 49.837914], [6.053316, 49.8378], [6.053591, 49.83775], [6.053709, 49.837715], [6.053892, 49.837646], [6.054132, 49.83754], [6.05443, 49.837383], [6.054655, 49.837246], [6.054777, 49.837147], [6.054899, 49.837036], [6.055143, 49.836754], [6.055513, 49.836308], [6.055868, 49.83583], [6.055883, 49.83528], [6.055883, 49.834736], [6.055864, 49.834633], [6.055822, 49.834503], [6.055746, 49.834316], [6.056261, 49.834694], [6.056887, 49.835155], [6.057077, 49.835026], [6.057219, 49.83521], [6.057489, 49.83551], [6.057715, 49.835724], [6.057901, 49.835884], [6.058096, 49.836033], [6.058214, 49.83596], [6.058535, 49.83618], [6.058672, 49.836266], [6.058813, 49.836334], [6.059339, 49.836533], [6.05953, 49.836315], [6.060434, 49.83667], [6.06045, 49.836678], [6.060289, 49.83681], [6.060141, 49.836956], [6.060072, 49.837017], [6.060057, 49.836998], [6.059984, 49.83695], [6.059538, 49.83715], [6.059141, 49.83733], [6.059015, 49.83738], [6.058584, 49.837532], [6.058203, 49.83767], [6.058172, 49.838036], [6.058153, 49.838432], [6.057989, 49.838528], [6.057905, 49.83858], [6.057711, 49.838737], [6.057608, 49.838837], [6.057505, 49.83895], [6.057344, 49.83916], [6.057249, 49.839287], [6.05715, 49.839417], [6.057077, 49.839493], [6.056986, 49.839577], [6.056917, 49.839634], [6.056883, 49.83966], [6.056677, 49.83979], [6.056478, 49.83991], [6.05633, 49.84002], [6.056101, 49.840183], [6.056021, 49.84025], [6.055838, 49.840412], [6.055788, 49.84046], [6.055761, 49.840485], [6.055723, 49.84053], [6.055632, 49.840687], [6.055773, 49.840755], [6.056044, 49.840878], [6.056139, 49.840923], [6.056253, 49.84098], [6.056414, 49.841064], [6.056704, 49.84122], [6.057039, 49.841396], [6.057184, 49.841473], [6.05744, 49.84162], [6.057566, 49.841694], [6.057631, 49.84174], [6.057882, 49.841908], [6.058287, 49.842186], [6.058516, 49.842342], [6.058977, 49.842636], [6.059256, 49.842815], [6.059462, 49.84294], [6.059534, 49.843], [6.059603, 49.843056], [6.059691, 49.843136], [6.059786, 49.843235], [6.059839, 49.843296], [6.060007, 49.843494], [6.060331, 49.84388], [6.060213, 49.84394], [6.060083, 49.844], [6.059992, 49.844048], [6.059828, 49.844128], [6.059771, 49.844154], [6.059511, 49.84428], [6.059229, 49.844414], [6.058844, 49.84459], [6.058683, 49.844666], [6.058661, 49.844673], [6.058527, 49.84473], [6.058405, 49.844788], [6.058165, 49.8449], [6.05813, 49.84488], [6.057795, 49.84464], [6.057642, 49.844532], [6.057299, 49.844723], [6.057527, 49.84493], [6.057699, 49.84511], [6.057783, 49.845215], [6.057905, 49.84536], [6.058042, 49.845543], [6.05818, 49.845715], [6.058321, 49.84587], [6.058355, 49.845856], [6.058744, 49.845688], [6.058794, 49.84567], [6.058992, 49.845806], [6.05924, 49.84598], [6.059423, 49.846115], [6.059523, 49.846195], [6.059698, 49.846348], [6.05982, 49.846462], [6.060083, 49.846737], [6.060236, 49.84689], [6.060362, 49.847008], [6.060457, 49.84708], [6.060537, 49.847134], [6.060663, 49.847202], [6.060766, 49.84726], [6.060862, 49.8473], [6.060877, 49.84731], [6.060907, 49.847324], [6.061083, 49.847397], [6.061525, 49.847565], [6.061956, 49.847725], [6.062204, 49.847805], [6.062433, 49.84788], [6.062769, 49.847977], [6.063196, 49.848103], [6.063376, 49.84817], [6.06354, 49.848236], [6.063612, 49.84827], [6.063646, 49.848297], [6.063707, 49.84834], [6.063814, 49.84843], [6.06399, 49.84861], [6.063788, 49.848724], [6.063707, 49.84877], [6.06357, 49.848846], [6.063532, 49.84914], [6.063505, 49.84944], [6.063494, 49.849663], [6.063505, 49.84993], [6.063482, 49.85], [6.063581, 49.850365], [6.06381, 49.85037], [6.063921, 49.850372], [6.06418, 49.850395], [6.06436, 49.850418], [6.064291, 49.850647], [6.064211, 49.850937], [6.064199, 49.85097], [6.065222, 49.8509], [6.066668, 49.850765], [6.068014, 49.85065], [6.068094, 49.850925], [6.068163, 49.851143], [6.068193, 49.851246], [6.068262, 49.851456], [6.068319, 49.85165], [6.068979, 49.851574], [6.069006, 49.85171], [6.069014, 49.85186], [6.069002, 49.852074], [6.068994, 49.852154], [6.068968, 49.852398], [6.068964, 49.852425], [6.068922, 49.85291], [6.068918, 49.852936], [6.068922, 49.85295], [6.068625, 49.852966], [6.068434, 49.852962], [6.068243, 49.85295], [6.068045, 49.85293], [6.067984, 49.852936], [6.067923, 49.853077], [6.067911, 49.853107], [6.067892, 49.85315], [6.067568, 49.85395], [6.067541, 49.85401], [6.067476, 49.854176], [6.067453, 49.854233], [6.067392, 49.854393], [6.067385, 49.85441], [6.06735, 49.8545], [6.067347, 49.854515], [6.067308, 49.85461], [6.067236, 49.854805], [6.067209, 49.854874], [6.067118, 49.854862], [6.067045, 49.855072], [6.067125, 49.855083], [6.067064, 49.85525], [6.067041, 49.855297], [6.06698, 49.855362], [6.066912, 49.85542], [6.066851, 49.855473], [6.066668, 49.8556], [6.066576, 49.85566], [6.066484, 49.855724], [6.066442, 49.855755], [6.066427, 49.855762], [6.066187, 49.855904], [6.06613, 49.855934], [6.065908, 49.856052], [6.065809, 49.856106], [6.065741, 49.85614], [6.065474, 49.856293], [6.065393, 49.856335], [6.065378, 49.856346], [6.065233, 49.856426], [6.065195, 49.856445], [6.065012, 49.85655], [6.064661, 49.856728], [6.064585, 49.85677], [6.064794, 49.856953], [6.064909, 49.857075], [6.06497, 49.85718], [6.065012, 49.8573], [6.065039, 49.857414], [6.065092, 49.857685], [6.065123, 49.857704], [6.065222, 49.857773], [6.065256, 49.857796], [6.065409, 49.857914], [6.065466, 49.857964], [6.065496, 49.857998], [6.065577, 49.858078], [6.065638, 49.858173], [6.065718, 49.858303], [6.065199, 49.858414], [6.064943, 49.858482], [6.064673, 49.858574], [6.064455, 49.858654], [6.064341, 49.858692], [6.064295, 49.858715], [6.064238, 49.85876], [6.064222, 49.85878], [6.064211, 49.858803], [6.064196, 49.858837], [6.064203, 49.85889], [6.064245, 49.85908], [6.064299, 49.859245], [6.06436, 49.859406], [6.064405, 49.859562], [6.064425, 49.859646], [6.064463, 49.85984], [6.06447, 49.859974], [6.06447, 49.860096], [6.064436, 49.86035], [6.064344, 49.860725], [6.064356, 49.86073], [6.064527, 49.86075], [6.064516, 49.86088], [6.064489, 49.86098], [6.064474, 49.86103], [6.064421, 49.861134], [6.06436, 49.86121], [6.064218, 49.861374], [6.064913, 49.86147], [6.065542, 49.861732], [6.065294, 49.862003], [6.065428, 49.862144], [6.065485, 49.86221], [6.065332, 49.86236], [6.065321, 49.86237], [6.065283, 49.86241], [6.065248, 49.86245], [6.065088, 49.86272], [6.064844, 49.863094], [6.064775, 49.863205], [6.06476, 49.863224], [6.064741, 49.863285], [6.064657, 49.863544], [6.064634, 49.863617], [6.0646, 49.86373], [6.064573, 49.863823], [6.064459, 49.8642], [6.064425, 49.864307], [6.064417, 49.864334], [6.064688, 49.86456], [6.064802, 49.86465], [6.064833, 49.864677], [6.064123, 49.86476], [6.063581, 49.864876], [6.063238, 49.86498], [6.063005, 49.86508], [6.062883, 49.865154], [6.062925, 49.86518], [6.062902, 49.86556], [6.062944, 49.865562], [6.063261, 49.86559], [6.06365, 49.86562], [6.063883, 49.865635], [6.064283, 49.865643], [6.064688, 49.86558], [6.064722, 49.865578], [6.064875, 49.86558], [6.065107, 49.86559], [6.065268, 49.865593], [6.065607, 49.865623], [6.065668, 49.86562], [6.065844, 49.86561], [6.066046, 49.865585], [6.066229, 49.865574], [6.066355, 49.86557], [6.066423, 49.86557], [6.066526, 49.865578], [6.066671, 49.86558], [6.066782, 49.86559], [6.066828, 49.865593], [6.066881, 49.865612], [6.066919, 49.86562], [6.066976, 49.86562], [6.067041, 49.865616], [6.067091, 49.86562], [6.067148, 49.865635], [6.067438, 49.86572], [6.067522, 49.865738], [6.067602, 49.865753], [6.067671, 49.86576], [6.067789, 49.86578], [6.068052, 49.865818], [6.068132, 49.865833], [6.068308, 49.865883], [6.068605, 49.865963], [6.068873, 49.866043], [6.06901, 49.866093], [6.06917, 49.866165], [6.069315, 49.86624], [6.069403, 49.866295], [6.069437, 49.866318], [6.069487, 49.866337], [6.069609, 49.866375], [6.069651, 49.866398], [6.069708, 49.86646], [6.069746, 49.866486], [6.069834, 49.86653], [6.069887, 49.86656], [6.069929, 49.8666], [6.069983, 49.86663], [6.070086, 49.86668], [6.070154, 49.866722], [6.070196, 49.86676], [6.07025, 49.86686], [6.07028, 49.8669], [6.070337, 49.86696], [6.070383, 49.867016], [6.070429, 49.86707], [6.07049, 49.867115], [6.070589, 49.867172], [6.070734, 49.867245], [6.070845, 49.867302], [6.070929, 49.86734], [6.070974, 49.867363], [6.071001, 49.867374], [6.071054, 49.86739], [6.071154, 49.8674], [6.071207, 49.867413], [6.071268, 49.867443], [6.071318, 49.86746], [6.071375, 49.86747], [6.071451, 49.867462], [6.071569, 49.867455], [6.071627, 49.86746], [6.071752, 49.867493], [6.071848, 49.867504], [6.071958, 49.86751], [6.072107, 49.867516], [6.072359, 49.867523], [6.072481, 49.86752], [6.072596, 49.86751], [6.07295, 49.867493], [6.073042, 49.867485], [6.073267, 49.867477], [6.07361, 49.86747], [6.073725, 49.867462], [6.073774, 49.86745], [6.073866, 49.86742], [6.073893, 49.867413], [6.073961, 49.86741], [6.074034, 49.867405], [6.074106, 49.86741], [6.074186, 49.8674], [6.074236, 49.8674], [6.07432, 49.86741], [6.074404, 49.86741], [6.074465, 49.867413], [6.074534, 49.867424], [6.074637, 49.86746], [6.074686, 49.86747], [6.074728, 49.867477], [6.07482, 49.867474], [6.074861, 49.867477], [6.074888, 49.867485], [6.07493, 49.867504], [6.075056, 49.867504], [6.075117, 49.867523], [6.075266, 49.86758], [6.075308, 49.867588], [6.075361, 49.867584], [6.075388, 49.86759], [6.075418, 49.867615], [6.075445, 49.86763], [6.075487, 49.867634], [6.075529, 49.86763], [6.075586, 49.86761], [6.075643, 49.86761], [6.075747, 49.867626], [6.075884, 49.86765], [6.076078, 49.867687], [6.076254, 49.86771], [6.076342, 49.867714], [6.076467, 49.86771], [6.076548, 49.86771], [6.076902, 49.86772], [6.076971, 49.86772], [6.077051, 49.867714], [6.077101, 49.867702], [6.077146, 49.86768], [6.077166, 49.86767], [6.077208, 49.86764], [6.077425, 49.867702], [6.07752, 49.86772], [6.077696, 49.867744], [6.07781, 49.86777], [6.077845, 49.867775], [6.077913, 49.867775], [6.07802, 49.867767], [6.078108, 49.867775], [6.078184, 49.86758], [6.078295, 49.86746], [6.078325, 49.867474], [6.078341, 49.867477], [6.078932, 49.867744], [6.079065, 49.867832], [6.079214, 49.867985], [6.079325, 49.86814], [6.079416, 49.86829], [6.079458, 49.868397], [6.079466, 49.868465], [6.079458, 49.86853], [6.079424, 49.86867], [6.079355, 49.868824], [6.079309, 49.868923], [6.079264, 49.868977], [6.079172, 49.869072], [6.079069, 49.869198], [6.078905, 49.869457], [6.078772, 49.869686], [6.07865, 49.869965], [6.07863, 49.870056], [6.07863, 49.870125], [6.07865, 49.87025], [6.078669, 49.87032], [6.078745, 49.870415], [6.078924, 49.870605], [6.079016, 49.87072], [6.079046, 49.87079], [6.079096, 49.870964], [6.079134, 49.871048], [6.079184, 49.871105], [6.079313, 49.871197], [6.079359, 49.871246], [6.079397, 49.871323], [6.079428, 49.871407], [6.079431, 49.871452], [6.079409, 49.871487], [6.079344, 49.87154], [6.079248, 49.871593], [6.079092, 49.871666], [6.079046, 49.87169], [6.079023, 49.8717], [6.078764, 49.871822], [6.0786, 49.871918], [6.078493, 49.871964], [6.078394, 49.871983], [6.078287, 49.871994], [6.078238, 49.871998], [6.078218, 49.871998], [6.078146, 49.872005], [6.078043, 49.872032], [6.077757, 49.872135], [6.077494, 49.87227], [6.077124, 49.87251], [6.076868, 49.872684], [6.076761, 49.872795], [6.076651, 49.872913], [6.076597, 49.872993], [6.076521, 49.87316], [6.076502, 49.87325], [6.076475, 49.87351], [6.076334, 49.873936], [6.076265, 49.874096], [6.076227, 49.874157], [6.076143, 49.874237], [6.07583, 49.874504], [6.075499, 49.874767], [6.075457, 49.874813], [6.075422, 49.87488], [6.075415, 49.87495], [6.075422, 49.875004], [6.07546, 49.875126], [6.07548, 49.875237], [6.075487, 49.875313], [6.075441, 49.87561], [6.075464, 49.87571], [6.075533, 49.875854], [6.075735, 49.87616], [6.0758, 49.876278], [6.075872, 49.876217], [6.075911, 49.876198], [6.075975, 49.87616], [6.076479, 49.87666], [6.076651, 49.87684], [6.076853, 49.87717], [6.076918, 49.877148], [6.080187, 49.876076], [6.080027, 49.875984], [6.079969, 49.87595], [6.079866, 49.875893], [6.07976, 49.87583], [6.079718, 49.875767], [6.0795, 49.875446], [6.079744, 49.87515], [6.079863, 49.874912], [6.079885, 49.87488], [6.080328, 49.874435], [6.080397, 49.874374], [6.080835, 49.874542], [6.081236, 49.874687], [6.081545, 49.874794], [6.081846, 49.87489], [6.082003, 49.874935], [6.082025, 49.87494], [6.082209, 49.874966], [6.08243, 49.87499], [6.082541, 49.874996], [6.082701, 49.874996], [6.083258, 49.87482], [6.083464, 49.874756], [6.083605, 49.874718], [6.083723, 49.8747], [6.083815, 49.874683], [6.08388, 49.874676], [6.084017, 49.874813], [6.084047, 49.87484], [6.084139, 49.87493], [6.084284, 49.875088], [6.08433, 49.875145], [6.08436, 49.87519], [6.084402, 49.87528], [6.084459, 49.875435], [6.08449, 49.875534], [6.084532, 49.87565], [6.084845, 49.875584], [6.085173, 49.875526], [6.085554, 49.87547], [6.08581, 49.87544], [6.086107, 49.875412], [6.086573, 49.875374], [6.087015, 49.87535], [6.087404, 49.875328], [6.087828, 49.875298], [6.087824, 49.87526], [6.087824, 49.875164], [6.087831, 49.87505], [6.087854, 49.874893], [6.087873, 49.874813], [6.087915, 49.874683], [6.088026, 49.87442], [6.088057, 49.874336], [6.088076, 49.874252], [6.08808, 49.874207], [6.08806, 49.874146], [6.08798, 49.874035], [6.08782, 49.87386], [6.087656, 49.873676], [6.087606, 49.873596], [6.087496, 49.87332], [6.087519, 49.87331], [6.087999, 49.87296], [6.088018, 49.87284], [6.08827, 49.872883], [6.088423, 49.872906], [6.088686, 49.872948], [6.088671, 49.872974], [6.088938, 49.873093], [6.089125, 49.87317], [6.089747, 49.873363], [6.089735, 49.873272], [6.089735, 49.873116], [6.089747, 49.873005], [6.089777, 49.872906], [6.089815, 49.87283], [6.089861, 49.872753], [6.089949, 49.872646], [6.090113, 49.872475], [6.090235, 49.87236], [6.090418, 49.87223], [6.090555, 49.87214], [6.090651, 49.872086], [6.090769, 49.87203], [6.090898, 49.871975], [6.091135, 49.87189], [6.091856, 49.871685], [6.092539, 49.87149], [6.093027, 49.871357], [6.093115, 49.871334], [6.093184, 49.87122], [6.093775, 49.871304], [6.094023, 49.871353], [6.094229, 49.871403], [6.094503, 49.871483], [6.094667, 49.871536], [6.0949, 49.871628], [6.095026, 49.87169], [6.095194, 49.871796], [6.095411, 49.871944], [6.09551, 49.872017], [6.095591, 49.87207], [6.095652, 49.872047], [6.095713, 49.871838], [6.095808, 49.871666], [6.095858, 49.871555], [6.095915, 49.871376], [6.095961, 49.871166], [6.095968, 49.87103], [6.095911, 49.87052], [6.095915, 49.8702], [6.095953, 49.869854], [6.095999, 49.869625], [6.096037, 49.869476], [6.096094, 49.869453], [6.096239, 49.869198], [6.096365, 49.868935], [6.096426, 49.868786], [6.096472, 49.86867], [6.096521, 49.86856], [6.096617, 49.868385], [6.09672, 49.8682], [6.096823, 49.867966], [6.096922, 49.86773], [6.096991, 49.86759], [6.097029, 49.867523], [6.097074, 49.86746], [6.097139, 49.867374], [6.097181, 49.86732], [6.097261, 49.867226], [6.097368, 49.867104], [6.097418, 49.86704], [6.097475, 49.86696], [6.097582, 49.866806], [6.097639, 49.86672], [6.097662, 49.866684], [6.097795, 49.86648], [6.097902, 49.86631], [6.097906, 49.8663], [6.098146, 49.865993], [6.098257, 49.86589], [6.098406, 49.8658], [6.09857, 49.86572], [6.098845, 49.86562], [6.098944, 49.865574], [6.099047, 49.86552], [6.099253, 49.865414], [6.099447, 49.865295], [6.099638, 49.865173], [6.099791, 49.86507], [6.100016, 49.86491], [6.100195, 49.864777], [6.100359, 49.86467], [6.100489, 49.864605], [6.100664, 49.864548], [6.100855, 49.86451], [6.100924, 49.864506], [6.100977, 49.86448], [6.101404, 49.86442], [6.101698, 49.864388], [6.101873, 49.864365], [6.101934, 49.864353], [6.102003, 49.864338], [6.10206, 49.864326], [6.102411, 49.86424], [6.102453, 49.864155], [6.102514, 49.86404], [6.102453, 49.864014], [6.101927, 49.86354], [6.101778, 49.86328], [6.101625, 49.863], [6.10153, 49.86275], [6.101496, 49.862656], [6.101477, 49.86261], [6.101408, 49.862408], [6.101389, 49.862362], [6.101175, 49.8619], [6.101187, 49.861675], [6.101332, 49.861244], [6.101381, 49.86111], [6.101412, 49.861046], [6.101488, 49.860928], [6.101652, 49.860664], [6.101683, 49.8606], [6.101755, 49.860466], [6.101782, 49.860428], [6.102011, 49.86015], [6.102091, 49.860054], [6.102156, 49.859974], [6.102274, 49.85984], [6.102297, 49.85982], [6.102308, 49.859806], [6.102564, 49.859604], [6.102587, 49.859577], [6.102613, 49.859547], [6.10285, 49.85926], [6.102961, 49.859142], [6.103117, 49.858994], [6.103224, 49.85891], [6.103403, 49.85879], [6.10367, 49.858612], [6.103773, 49.85854], [6.103811, 49.85851], [6.104029, 49.858326], [6.104048, 49.858307], [6.104151, 49.85824], [6.10428, 49.858162], [6.104361, 49.858124], [6.10438, 49.858112], [6.104635, 49.858013], [6.104971, 49.85789], [6.105135, 49.857826], [6.105238, 49.857765], [6.105303, 49.85772], [6.10557, 49.857548], [6.105654, 49.8575], [6.105772, 49.857445], [6.105536, 49.85738], [6.105612, 49.857334], [6.105715, 49.857265], [6.105783, 49.85721], [6.105864, 49.857124], [6.106016, 49.856934], [6.106104, 49.85683], [6.106215, 49.85673], [6.106363, 49.856594], [6.106417, 49.85652], [6.106485, 49.856422], [6.106539, 49.85632], [6.106703, 49.856236], [6.10676, 49.8562], [6.106901, 49.856148], [6.107012, 49.856113], [6.107305, 49.856026], [6.107622, 49.85571], [6.107851, 49.855473], [6.108057, 49.85525], [6.108221, 49.85506], [6.108389, 49.854847], [6.108534, 49.85464], [6.108896, 49.854797], [6.109148, 49.854904], [6.109232, 49.854942], [6.109343, 49.85498], [6.109465, 49.85483], [6.110022, 49.85416], [6.110502, 49.853577], [6.110792, 49.853123], [6.110987, 49.852703], [6.11138, 49.851585], [6.111387, 49.851566], [6.111422, 49.851322], [6.11146, 49.850906], [6.111452, 49.85049], [6.111536, 49.850216], [6.111548, 49.85017], [6.111567, 49.850113], [6.1117, 49.849438], [6.111803, 49.848694], [6.111849, 49.84841], [6.111925, 49.848347], [6.112692, 49.848194], [6.114019, 49.84799], [6.115923, 49.847927], [6.116713, 49.84791], [6.116682, 49.847733], [6.116636, 49.847492], [6.116594, 49.847298], [6.116552, 49.847298], [6.116545, 49.847267], [6.116514, 49.847034], [6.116465, 49.846672], [6.116427, 49.846485], [6.116419, 49.846428], [6.116411, 49.8464], [6.116312, 49.845875], [6.116297, 49.845818], [6.116297, 49.845787], [6.116312, 49.845367], [6.116316, 49.845215], [6.116324, 49.84499], [6.116331, 49.844833], [6.116362, 49.8443], [6.116365, 49.84427], [6.116365, 49.84423], [6.116373, 49.844017], [6.116381, 49.843884], [6.116404, 49.8434], [6.116377, 49.843395], [6.11566, 49.843346], [6.115293, 49.84332], [6.115049, 49.843304], [6.114302, 49.84328], [6.114325, 49.843056], [6.113493, 49.842987], [6.113676, 49.84265], [6.113859, 49.842323], [6.113947, 49.842148], [6.114157, 49.841713], [6.114439, 49.841084], [6.114531, 49.840878], [6.114569, 49.84078], [6.114599, 49.840664], [6.114615, 49.840576], [6.114679, 49.83965], [6.114695, 49.839397], [6.114702, 49.839317], [6.114725, 49.839046], [6.114752, 49.83881], [6.114778, 49.838478], [6.11479, 49.838352], [6.11479, 49.83833], [6.114794, 49.83828], [6.114824, 49.838005], [6.114836, 49.837887], [6.114832, 49.837837], [6.114477, 49.837982], [6.113962, 49.838207], [6.113375, 49.8385], [6.112753, 49.83828], [6.112444, 49.83816], [6.111368, 49.837685], [6.111078, 49.837563], [6.110853, 49.837486], [6.110632, 49.83742], [6.11043, 49.837364], [6.109957, 49.83725], [6.109617, 49.837166], [6.109377, 49.837112], [6.109133, 49.837044], [6.108969, 49.837006], [6.108892, 49.836998], [6.108812, 49.837], [6.108686, 49.83703], [6.108282, 49.837147], [6.107298, 49.837437], [6.106756, 49.83762], [6.106302, 49.83776], [6.105722, 49.83794], [6.105383, 49.83803], [6.105162, 49.838062], [6.104975, 49.838078], [6.10483, 49.838074], [6.10465, 49.838047], [6.104547, 49.838005], [6.104406, 49.8379], [6.104357, 49.837864], [6.103979, 49.83782], [6.103842, 49.83779], [6.103678, 49.837765], [6.103457, 49.83772], [6.103411, 49.837708], [6.10317, 49.837727], [6.102892, 49.83788], [6.102869, 49.837887], [6.102533, 49.83798], [6.102175, 49.838074], [6.101767, 49.838184], [6.101667, 49.83821], [6.101538, 49.838245], [6.101194, 49.83834], [6.101038, 49.838387], [6.100946, 49.838413], [6.100798, 49.83846], [6.100676, 49.838287], [6.100561, 49.838116], [6.10055, 49.8381], [6.100462, 49.837963], [6.100359, 49.8378], [6.100161, 49.837463], [6.100115, 49.837387], [6.099852, 49.836937], [6.099821, 49.836887], [6.09981, 49.836876], [6.099714, 49.836903], [6.099768, 49.83702], [6.099718, 49.837048], [6.099684, 49.83706], [6.099501, 49.83709], [6.099337, 49.837112], [6.099012, 49.83716], [6.09873, 49.837196], [6.09849, 49.83723], [6.097681, 49.83734], [6.097387, 49.837387], [6.097254, 49.837402], [6.097059, 49.83743], [6.096865, 49.83746], [6.096785, 49.83747], [6.09654, 49.837513], [6.096354, 49.83754], [6.095839, 49.83762], [6.095816, 49.83753], [6.095774, 49.837353], [6.095739, 49.837204], [6.095682, 49.836933], [6.095541, 49.83694], [6.095098, 49.83697], [6.094343, 49.83702], [6.094053, 49.83704], [6.094008, 49.837044], [6.093916, 49.83705], [6.09366, 49.837486], [6.093515, 49.83747], [6.093313, 49.83747], [6.093203, 49.837112], [6.092962, 49.836678], [6.092745, 49.83645], [6.092642, 49.83632], [6.092455, 49.83605], [6.092424, 49.8359], [6.092424, 49.835815], [6.09244, 49.8352], [6.09244, 49.83492], [6.092436, 49.834637], [6.092478, 49.834442], [6.092512, 49.834366], [6.092581, 49.83411], [6.092817, 49.833805], [6.093065, 49.83307], [6.093084, 49.83301], [6.093596, 49.8322], [6.093714, 49.831993], [6.093741, 49.831863], [6.09379, 49.831554], [6.093809, 49.831345], [6.093786, 49.831066], [6.093748, 49.830864], [6.093485, 49.830196], [6.093306, 49.829624], [6.093233, 49.82939], [6.093103, 49.829388], [6.092924, 49.82938], [6.092619, 49.829376], [6.092581, 49.829376], [6.092688, 49.82971], [6.09284, 49.83015], [6.092787, 49.830154], [6.091398, 49.830143], [6.091211, 49.830143], [6.090422, 49.830128], [6.090258, 49.830116], [6.089575, 49.830086], [6.089449, 49.83008], [6.088427, 49.830013], [6.088308, 49.83001], [6.087004, 49.82995], [6.086931, 49.830177], [6.086916, 49.830204], [6.086645, 49.829964], [6.086447, 49.82983], [6.086035, 49.829674], [6.085886, 49.829586], [6.085547, 49.82936], [6.085398, 49.82923], [6.085348, 49.829163], [6.085318, 49.829098], [6.085295, 49.828987], [6.08528, 49.82892], [6.08531, 49.828888], [6.085314, 49.82854], [6.085299, 49.82854], [6.084257, 49.82857], [6.084227, 49.828598], [6.084131, 49.828606], [6.083979, 49.82863], [6.083872, 49.82865], [6.083635, 49.828735], [6.083578, 49.82874], [6.083258, 49.82884], [6.082972, 49.828934], [6.082617, 49.829067], [6.082201, 49.829224], [6.081835, 49.829365], [6.080961, 49.829704], [6.080065, 49.82976], [6.079992, 49.82976], [6.07958, 49.829765], [6.079001, 49.829777], [6.078634, 49.82979], [6.078356, 49.829803], [6.077997, 49.82983], [6.07741, 49.829887], [6.076799, 49.82994], [6.076181, 49.829983], [6.075575, 49.82999], [6.075174, 49.829994], [6.074957, 49.829994], [6.074175, 49.82999], [6.073748, 49.829987], [6.072905, 49.83], [6.072802, 49.83], [6.072496, 49.830006], [6.072069, 49.830013], [6.071119, 49.829994], [6.07107, 49.829994], [6.070391, 49.830036], [6.070311, 49.83004], [6.069429, 49.83008], [6.068663, 49.83012], [6.067881, 49.83016], [6.067091, 49.83017], [6.066904, 49.830177], [6.066374, 49.83019], [6.066324, 49.830193], [6.066301, 49.830193], [6.066145, 49.830196], [6.065939, 49.830204], [6.064371, 49.83036], [6.064062, 49.83091], [6.064016, 49.830936], [6.06394, 49.83093], [6.063932, 49.830956], [6.063932, 49.83097], [6.06391, 49.831226], [6.063879, 49.8316], [6.063887, 49.831814], [6.063891, 49.831944], [6.063894, 49.832], [6.063898, 49.832043], [6.063925, 49.832146], [6.063948, 49.83225], [6.063997, 49.83242], [6.064028, 49.83248], [6.064108, 49.83264], [6.064188, 49.832794], [6.064238, 49.832882], [6.064398, 49.832836], [6.064573, 49.83308], [6.064665, 49.83321], [6.064867, 49.833492], [6.065111, 49.833775], [6.065439, 49.834152], [6.065321, 49.834175], [6.065245, 49.834255], [6.06518, 49.834244], [6.065119, 49.834236], [6.065069, 49.834236], [6.065039, 49.834244], [6.064959, 49.834274], [6.064875, 49.83431], [6.064573, 49.834442], [6.064253, 49.834167], [6.063459, 49.832882], [6.063456, 49.832798], [6.06238, 49.8312], [6.062147, 49.830864], [6.061979, 49.830624], [6.061895, 49.830555], [6.061777, 49.830505], [6.061583, 49.830452], [6.061129, 49.83038], [6.060236, 49.830296], [6.059828, 49.830254], [6.059545, 49.830208], [6.059286, 49.83015], [6.059004, 49.83006], [6.058798, 49.829975], [6.058149, 49.82969], [6.057348, 49.829334], [6.057127, 49.829224], [6.056673, 49.828976], [6.056646, 49.828846], [6.056539, 49.828762], [6.056448, 49.82872], [6.056135, 49.828606], [6.055815, 49.828495], [6.055376, 49.828354], [6.054632, 49.828136], [6.053598, 49.82784], [6.053247, 49.82773], [6.053019, 49.827652], [6.052885, 49.827595], [6.052229, 49.827267], [6.05179, 49.82705], [6.051462, 49.826916], [6.051188, 49.826817], [6.050928, 49.826736], [6.050703, 49.82668], [6.050432, 49.826626], [6.050169, 49.826572], [6.050192, 49.826553], [6.050348, 49.82643], [6.050482, 49.826332], [6.050631, 49.826218], [6.050734, 49.82612], [6.050814, 49.826035], [6.05094, 49.825893], [6.051024, 49.825794], [6.051153, 49.825653], [6.051474, 49.82532], [6.051027, 49.82515], [6.050955, 49.825123], [6.050135, 49.82482], [6.050074, 49.824802], [6.0497, 49.824665], [6.049616, 49.824635], [6.049421, 49.824562], [6.048971, 49.824398], [6.048101, 49.82497], [6.047449, 49.82539], [6.047354, 49.825455], [6.047075, 49.825634], [6.046812, 49.825798], [6.045275, 49.826603], [6.045088, 49.8267], [6.043829, 49.826748], [6.041895, 49.826588], [6.041834, 49.82657], [6.041815, 49.82656], [6.041689, 49.826523], [6.041555, 49.826477], [6.041376, 49.826687], [6.04112, 49.82699], [6.040823, 49.827347], [6.040407, 49.827843], [6.040159, 49.828053], [6.03974, 49.828423], [6.039492, 49.82882], [6.039263, 49.829197], [6.039103, 49.829536], [6.038755, 49.830296], [6.038576, 49.830975], [6.038431, 49.8315], [6.038237, 49.83218], [6.038107, 49.832634]]]]}}]}