{"type": "FeatureCollection", "features": [{"type": "Feature", "properties": {"name": "Kayl"}, "geometry": {"type": "MultiPolygon", "coordinates": [[[[5.993067, 49.46886], [5.99328, 49.46899], [5.993513, 49.46914], [5.99394, 49.46942], [5.994467, 49.469784], [5.994757, 49.469955], [5.994837, 49.470005], [5.994928, 49.470047], [5.995367, 49.47024], [5.995607, 49.47035], [5.995649, 49.470375], [5.995855, 49.470512], [5.995977, 49.470592], [5.996168, 49.47069], [5.996355, 49.47076], [5.996435, 49.470802], [5.996809, 49.470924], [5.99729, 49.471085], [5.99711, 49.471188], [5.996828, 49.471348], [5.996557, 49.4715], [5.996431, 49.471584], [5.996382, 49.471615], [5.996149, 49.471756], [5.996008, 49.471844], [5.995676, 49.47206], [5.995523, 49.47218], [5.995478, 49.47222], [5.995409, 49.472286], [5.995329, 49.472366], [5.995241, 49.47247], [5.995161, 49.472572], [5.995081, 49.472683], [5.994982, 49.472836], [5.994909, 49.472973], [5.994875, 49.473057], [5.994963, 49.47309], [5.995054, 49.47313], [5.995203, 49.473213], [5.995268, 49.47326], [5.995344, 49.473324], [5.995398, 49.47337], [5.99547, 49.473442], [5.995504, 49.47347], [5.995791, 49.47351], [5.995867, 49.473522], [5.995913, 49.473537], [5.995954, 49.473557], [5.996164, 49.473667], [5.996325, 49.47376], [5.995977, 49.47415], [5.995951, 49.474186], [5.995874, 49.474266], [5.996141, 49.474323], [5.996946, 49.47449], [5.997923, 49.474697], [5.998453, 49.47481], [5.998823, 49.474903], [5.999227, 49.475006], [5.999479, 49.47509], [5.999643, 49.475166], [5.99983, 49.475277], [6.000013, 49.475403], [6.000151, 49.475513], [6.000368, 49.475697], [6.000616, 49.475925], [6.001265, 49.4766], [6.001303, 49.476643], [6.001074, 49.476624], [6.001303, 49.477493], [6.00131, 49.477524], [6.001322, 49.477562], [6.001329, 49.47759], [6.001337, 49.477627], [6.001348, 49.477665], [6.001371, 49.47775], [6.001375, 49.47777], [6.001391, 49.477943], [6.001394, 49.47797], [6.001391, 49.478043], [6.001348, 49.478226], [6.001284, 49.478374], [6.001173, 49.478573], [6.001135, 49.478634], [6.001066, 49.478737], [6.001051, 49.478786], [6.001013, 49.47889], [6.001005, 49.47892], [6.000998, 49.478954], [6.000971, 49.479134], [6.001032, 49.479313], [6.00104, 49.479324], [6.001169, 49.47949], [6.001352, 49.479687], [6.001368, 49.479702], [6.001944, 49.480293], [6.002214, 49.48059], [6.002523, 49.48096], [6.002657, 49.48111], [6.003153, 49.481483], [6.00326, 49.481564], [6.003534, 49.48177], [6.00358, 49.481796], [6.004358, 49.482254], [6.004385, 49.48228], [6.004488, 49.482388], [6.004526, 49.48249], [6.004667, 49.48275], [6.004843, 49.483036], [6.00495, 49.48332], [6.004854, 49.483593], [6.004911, 49.48361], [6.005144, 49.483665], [6.005135, 49.483717], [6.005098, 49.48394], [6.005041, 49.484158], [6.005064, 49.48421], [6.004854, 49.48462], [6.004316, 49.48562], [6.004187, 49.485786], [6.004146, 49.485826], [6.003756, 49.486217], [6.003572, 49.486393], [6.003538, 49.48651], [6.003576, 49.48663], [6.003859, 49.487175], [6.005838, 49.48637], [6.00601, 49.486794], [6.006224, 49.48726], [6.006483, 49.487762], [6.006624, 49.488014], [6.006704, 49.48816], [6.0068, 49.488304], [6.006899, 49.488438], [6.006922, 49.488464], [6.006937, 49.488487], [6.007067, 49.488655], [6.007174, 49.488792], [6.006891, 49.48889], [6.007063, 49.489048], [6.007311, 49.489273], [6.007524, 49.48945], [6.007769, 49.489624], [6.008097, 49.489845], [6.00868, 49.490242], [6.009596, 49.490852], [6.009951, 49.4911], [6.010382, 49.4914], [6.010538, 49.49151], [6.010939, 49.49179], [6.01111, 49.491688], [6.012594, 49.492428], [6.012609, 49.492435], [6.01298, 49.492638], [6.013266, 49.492798], [6.013651, 49.49303], [6.013945, 49.493206], [6.014292, 49.49341], [6.014593, 49.49359], [6.014772, 49.493706], [6.01512, 49.493942], [6.015234, 49.49403], [6.015352, 49.49412], [6.015474, 49.49423], [6.015676, 49.494415], [6.016062, 49.49478], [6.0161, 49.49482], [6.016237, 49.49494], [6.016813, 49.495457], [6.017473, 49.496033], [6.017343, 49.496098], [6.017572, 49.496246], [6.017836, 49.496384], [6.018087, 49.496502], [6.018282, 49.496582], [6.018488, 49.496647], [6.01877, 49.496735], [6.018992, 49.4968], [6.01906, 49.496674], [6.019671, 49.496815], [6.020166, 49.496937], [6.020758, 49.497093], [6.021173, 49.497208], [6.02149, 49.49731], [6.021734, 49.497393], [6.021814, 49.49742], [6.021857, 49.49745], [6.022177, 49.49755], [6.022512, 49.497684], [6.022764, 49.497807], [6.023073, 49.497974], [6.023424, 49.498177], [6.023924, 49.498478], [6.024301, 49.49827], [6.024569, 49.498505], [6.024511, 49.498547], [6.024218, 49.498737], [6.025454, 49.499546], [6.025716, 49.499707], [6.025808, 49.499763], [6.026071, 49.499916], [6.026178, 49.499977], [6.026224, 49.500004], [6.026579, 49.500202], [6.026911, 49.500378], [6.027666, 49.500763], [6.027883, 49.500862], [6.028116, 49.50096], [6.028357, 49.501053], [6.028551, 49.501118], [6.028803, 49.50119], [6.02883, 49.501373], [6.02915, 49.501373], [6.029356, 49.501377], [6.029577, 49.501392], [6.029825, 49.50141], [6.029978, 49.501427], [6.030134, 49.50145], [6.030386, 49.501495], [6.030684, 49.501556], [6.031355, 49.50173], [6.031599, 49.501804], [6.031668, 49.501823], [6.031763, 49.50176], [6.031816, 49.50172], [6.032194, 49.501896], [6.032354, 49.501957], [6.033052, 49.502186], [6.03322, 49.502243], [6.034307, 49.50262], [6.034319, 49.502625], [6.034368, 49.502644], [6.034498, 49.50269], [6.034548, 49.50271], [6.034597, 49.50267], [6.034624, 49.502678], [6.034647, 49.50269], [6.034727, 49.502716], [6.034742, 49.502724], [6.034811, 49.50275], [6.034899, 49.50278], [6.034567, 49.50323], [6.034262, 49.503647], [6.034243, 49.503677], [6.034454, 49.50376], [6.034494, 49.503796], [6.034548, 49.50382], [6.034811, 49.503963], [6.034994, 49.504066], [6.035048, 49.504097], [6.035059, 49.504105], [6.035128, 49.504143], [6.035196, 49.50418], [6.035234, 49.504204], [6.035391, 49.504288], [6.03541, 49.5043], [6.035578, 49.504402], [6.035666, 49.50448], [6.035761, 49.50457], [6.035856, 49.50469], [6.035906, 49.504776], [6.035914, 49.504787], [6.036051, 49.50505], [6.036078, 49.505104], [6.036177, 49.505295], [6.036219, 49.505363], [6.036264, 49.505447], [6.036314, 49.505527], [6.036386, 49.505657], [6.036474, 49.505795], [6.036493, 49.505836], [6.036566, 49.505962], [6.036634, 49.506077], [6.036631, 49.506107], [6.036631, 49.506145], [6.037027, 49.506157], [6.03726, 49.506157], [6.0375, 49.506153], [6.037756, 49.50614], [6.037977, 49.506126], [6.038431, 49.50614], [6.038458, 49.506138], [6.038824, 49.50613], [6.038893, 49.50613], [6.039194, 49.506123], [6.039175, 49.5055], [6.039171, 49.505417], [6.039164, 49.50516], [6.039049, 49.505123], [6.039186, 49.504986], [6.039183, 49.50482], [6.039248, 49.504826], [6.039312, 49.504826], [6.039392, 49.50468], [6.039457, 49.50457], [6.039576, 49.504375], [6.039755, 49.504322], [6.039801, 49.50431], [6.039843, 49.504303], [6.039923, 49.504295], [6.039965, 49.50429], [6.040121, 49.50429], [6.040312, 49.504276], [6.040422, 49.504257], [6.040502, 49.504246], [6.040682, 49.504208], [6.040846, 49.504185], [6.040979, 49.504173], [6.041014, 49.504173], [6.041101, 49.504166], [6.04138, 49.504154], [6.041967, 49.504154], [6.042006, 49.504158], [6.042147, 49.504158], [6.042231, 49.50416], [6.042349, 49.50416], [6.042433, 49.504166], [6.042547, 49.504166], [6.042616, 49.50416], [6.042818, 49.50416], [6.043135, 49.504154], [6.044126, 49.50413], [6.044455, 49.504128], [6.044393, 49.503887], [6.044767, 49.503838], [6.044989, 49.503807], [6.04616, 49.503654], [6.046213, 49.503742], [6.047083, 49.503605], [6.047205, 49.503803], [6.047476, 49.503857], [6.048719, 49.504177], [6.04915, 49.504295], [6.049307, 49.504337], [6.049635, 49.50442], [6.049841, 49.504475], [6.050016, 49.504528], [6.050085, 49.504486], [6.050199, 49.50461], [6.050299, 49.504715], [6.050428, 49.504845], [6.050482, 49.504898], [6.050573, 49.504986], [6.050596, 49.505005], [6.050673, 49.505074], [6.05089, 49.50524], [6.050985, 49.50533], [6.051081, 49.505413], [6.051191, 49.505505], [6.05131, 49.50558], [6.051416, 49.505665], [6.051443, 49.505695], [6.051496, 49.50575], [6.051504, 49.50576], [6.051542, 49.505825], [6.05158, 49.505886], [6.051592, 49.50591], [6.051664, 49.50603], [6.051699, 49.50609], [6.051714, 49.50612], [6.051825, 49.50632], [6.051912, 49.50649], [6.051935, 49.506527], [6.05213, 49.506516], [6.052526, 49.506485], [6.052977, 49.506454], [6.053518, 49.506413], [6.054075, 49.506374], [6.05414, 49.50639], [6.054083, 49.50634], [6.054022, 49.5063], [6.05398, 49.50628], [6.053953, 49.50626], [6.054033, 49.50622], [6.054331, 49.5061], [6.055021, 49.505814], [6.055563, 49.50557], [6.055696, 49.505512], [6.056238, 49.50528], [6.056368, 49.505436], [6.056734, 49.505882], [6.056784, 49.50594], [6.057573, 49.50556], [6.057737, 49.505486], [6.058031, 49.50535], [6.058279, 49.505234], [6.058313, 49.505215], [6.058073, 49.504913], [6.057879, 49.504692], [6.057692, 49.504448], [6.057489, 49.50416], [6.057318, 49.503986], [6.057188, 49.503845], [6.057028, 49.503674], [6.056814, 49.50348], [6.056837, 49.503464], [6.056913, 49.503414], [6.056925, 49.503407], [6.056978, 49.503357], [6.05699, 49.50335], [6.057623, 49.502914], [6.058218, 49.50251], [6.058321, 49.502445], [6.058435, 49.502266], [6.058481, 49.502186], [6.058622, 49.50192], [6.058641, 49.501877], [6.058779, 49.501896], [6.058733, 49.501823], [6.058687, 49.501762], [6.058561, 49.50157], [6.058806, 49.50158], [6.058622, 49.50124], [6.058249, 49.500587], [6.058207, 49.500515], [6.058233, 49.50051], [6.058218, 49.50049], [6.059114, 49.5004], [6.059515, 49.500366], [6.059942, 49.500324], [6.060492, 49.500282], [6.06159, 49.500214], [6.061537, 49.499523], [6.061647, 49.499477], [6.061205, 49.498905], [6.060991, 49.498627], [6.060804, 49.498688], [6.060755, 49.498703], [6.06006, 49.498924], [6.059328, 49.499153], [6.059008, 49.499256], [6.058977, 49.499268], [6.058943, 49.49928], [6.058847, 49.499306], [6.05855, 49.498898], [6.058542, 49.498886], [6.058332, 49.49859], [6.058268, 49.498535], [6.057631, 49.498734], [6.056936, 49.49895], [6.056818, 49.498985], [6.056723, 49.499016], [6.055536, 49.49813], [6.054926, 49.49768], [6.054308, 49.49723], [6.054262, 49.497204], [6.054766, 49.496932], [6.055647, 49.496456], [6.057344, 49.495518], [6.058428, 49.49495], [6.059015, 49.494556], [6.058962, 49.494537], [6.058351, 49.494358], [6.058001, 49.494263], [6.057672, 49.494167], [6.057558, 49.494137], [6.05744, 49.494102], [6.057306, 49.494064], [6.057142, 49.494015], [6.056948, 49.493958], [6.056635, 49.493855], [6.056463, 49.49379], [6.056318, 49.493736], [6.056078, 49.49364], [6.055868, 49.493553], [6.055632, 49.493454], [6.055525, 49.49341], [6.055567, 49.493343], [6.055601, 49.493294], [6.055658, 49.493206], [6.055731, 49.4931], [6.05607, 49.49321], [6.056288, 49.493282], [6.056852, 49.493492], [6.056917, 49.49345], [6.056974, 49.493412], [6.057043, 49.493362], [6.057097, 49.49333], [6.057108, 49.49332], [6.057188, 49.493263], [6.057253, 49.49322], [6.057314, 49.49317], [6.057402, 49.493095], [6.057474, 49.493015], [6.057558, 49.492916], [6.057623, 49.492832], [6.057814, 49.492573], [6.057871, 49.49249], [6.05792, 49.492416], [6.057951, 49.49238], [6.058062, 49.49224], [6.058161, 49.49212], [6.058275, 49.491966], [6.058348, 49.491875], [6.058485, 49.49169], [6.0585, 49.491673], [6.058565, 49.49159], [6.058668, 49.491463], [6.058802, 49.49129], [6.058519, 49.49121], [6.058184, 49.491116], [6.058024, 49.49107], [6.057978, 49.49104], [6.057802, 49.490913], [6.05776, 49.490887], [6.057619, 49.490788], [6.057466, 49.49068], [6.057444, 49.490654], [6.057299, 49.49048], [6.056852, 49.489937], [6.056723, 49.489784], [6.056871, 49.489746], [6.056993, 49.48971], [6.057081, 49.489685], [6.057421, 49.489574], [6.057531, 49.489536], [6.057722, 49.489468], [6.057951, 49.489376], [6.058203, 49.48926], [6.058294, 49.489223], [6.058378, 49.489197], [6.058611, 49.48914], [6.058806, 49.48909], [6.059214, 49.488995], [6.059511, 49.488934], [6.059973, 49.488834], [6.060255, 49.488777], [6.060621, 49.488697], [6.060686, 49.488495], [6.060736, 49.488327], [6.060793, 49.48816], [6.060968, 49.487694], [6.061129, 49.48739], [6.061159, 49.487343], [6.060904, 49.487244], [6.060556, 49.487164], [6.060255, 49.48713], [6.059591, 49.48713], [6.058626, 49.487186], [6.058668, 49.487083], [6.058683, 49.48704], [6.058721, 49.48695], [6.058828, 49.48667], [6.058851, 49.48659], [6.057642, 49.486317], [6.057268, 49.48611], [6.056879, 49.48589], [6.0562, 49.485497], [6.056307, 49.485428], [6.056345, 49.485397], [6.056467, 49.485317], [6.056215, 49.48503], [6.056032, 49.484814], [6.055903, 49.48465], [6.055643, 49.484253], [6.056013, 49.484108], [6.056219, 49.48403], [6.056303, 49.483997], [6.05641, 49.48396], [6.056597, 49.483887], [6.056433, 49.483738], [6.056273, 49.48359], [6.055593, 49.48297], [6.055414, 49.482872], [6.055075, 49.4827], [6.053564, 49.481922], [6.053679, 49.481804], [6.053198, 49.481678], [6.052984, 49.481625], [6.051832, 49.481327], [6.051241, 49.48104], [6.051828, 49.480682], [6.052729, 49.48011], [6.053648, 49.479527], [6.054205, 49.479385], [6.054663, 49.47928], [6.055475, 49.47909], [6.056978, 49.478756], [6.058432, 49.478584], [6.058413, 49.478195], [6.058413, 49.477936], [6.057302, 49.477173], [6.056772, 49.476963], [6.055876, 49.476616], [6.054995, 49.476273], [6.05446, 49.47598], [6.054384, 49.475616], [6.054285, 49.475193], [6.054239, 49.474983], [6.054178, 49.47471], [6.054132, 49.474495], [6.054045, 49.474094], [6.05403, 49.474014], [6.053972, 49.473785], [6.053896, 49.473473], [6.053873, 49.47339], [6.053816, 49.473156], [6.053701, 49.472767], [6.053671, 49.47267], [6.053606, 49.47247], [6.053591, 49.472416], [6.053575, 49.472374], [6.05332, 49.472366], [6.052385, 49.472324], [6.052378, 49.472298], [6.0529, 49.472244], [6.052988, 49.472225], [6.053076, 49.472183], [6.053213, 49.472103], [6.053305, 49.47199], [6.0534, 49.471844], [6.05348, 49.47162], [6.053564, 49.47125], [6.053583, 49.471134], [6.053556, 49.47114], [6.053526, 49.471153], [6.053255, 49.471252], [6.053156, 49.471157], [6.052977, 49.470963], [6.052874, 49.47084], [6.052813, 49.47077], [6.052744, 49.470676], [6.052671, 49.470543], [6.052526, 49.470177], [6.052435, 49.46995], [6.052359, 49.469753], [6.052267, 49.46953], [6.05229, 49.46943], [6.052309, 49.469357], [6.052328, 49.46927], [6.052362, 49.469143], [6.052423, 49.4689], [6.052469, 49.46873], [6.052507, 49.46854], [6.052542, 49.468357], [6.05253, 49.46825], [6.052526, 49.46811], [6.052523, 49.46804], [6.052519, 49.467842], [6.052519, 49.467533], [6.052286, 49.46732], [6.052, 49.467194], [6.051596, 49.467003], [6.051374, 49.466904], [6.050985, 49.46671], [6.050596, 49.466507], [6.05055, 49.46641], [6.050539, 49.46639], [6.050455, 49.466225], [6.050287, 49.465904], [6.050066, 49.465523], [6.049936, 49.465324], [6.049688, 49.465015], [6.049448, 49.46474], [6.049437, 49.46473], [6.049223, 49.464497], [6.04912, 49.464394], [6.049005, 49.464283], [6.048834, 49.46412], [6.048605, 49.46389], [6.048513, 49.463806], [6.048346, 49.463646], [6.048162, 49.463444], [6.047998, 49.46323], [6.047915, 49.462997], [6.047827, 49.46279], [6.047754, 49.462605], [6.047724, 49.4625], [6.047647, 49.462215], [6.047544, 49.46184], [6.047499, 49.46168], [6.047895, 49.461185], [6.048117, 49.46095], [6.048273, 49.460793], [6.048403, 49.46066], [6.048494, 49.460564], [6.048563, 49.4605], [6.048922, 49.460266], [6.049498, 49.45992], [6.049906, 49.45967], [6.049787, 49.45942], [6.049746, 49.459282], [6.049696, 49.45911], [6.04962, 49.458946], [6.049547, 49.458824], [6.049482, 49.45872], [6.049417, 49.458633], [6.049299, 49.458492], [6.049074, 49.45819], [6.04891, 49.457977], [6.048555, 49.45754], [6.048513, 49.457485], [6.048273, 49.457184], [6.048166, 49.457027], [6.047922, 49.45669], [6.04785, 49.4566], [6.04738, 49.45606], [6.046934, 49.45555], [6.046923, 49.455086], [6.046728, 49.454826], [6.046587, 49.45463], [6.046492, 49.4545], [6.046347, 49.45429], [6.046309, 49.454227], [6.046156, 49.453987], [6.045828, 49.453484], [6.045713, 49.45332], [6.045389, 49.453014], [6.04513, 49.45276], [6.044722, 49.452377], [6.04431, 49.451725], [6.044168, 49.451496], [6.044084, 49.451374], [6.044008, 49.451275], [6.043982, 49.45123], [6.043814, 49.450962], [6.043634, 49.4507], [6.043371, 49.45032], [6.043127, 49.449978], [6.043016, 49.449696], [6.042852, 49.449387], [6.042707, 49.449112], [6.042627, 49.44899], [6.042414, 49.448685], [6.042208, 49.448383], [6.041774, 49.447854], [6.04163, 49.44789], [6.041342, 49.44795], [6.039892, 49.448246], [6.038817, 49.448463], [6.038237, 49.44859], [6.037657, 49.448635], [6.037546, 49.448643], [6.037024, 49.448677], [6.036142, 49.448742], [6.035708, 49.448853], [6.035356, 49.448975], [6.034849, 49.44914], [6.034624, 49.44921], [6.034334, 49.449306], [6.034048, 49.44934], [6.033358, 49.4494], [6.032976, 49.449436], [6.032583, 49.449535], [6.032576, 49.44957], [6.032572, 49.449608], [6.032572, 49.449627], [6.032503, 49.450096], [6.032503, 49.450768], [6.032412, 49.450924], [6.032194, 49.45103], [6.031946, 49.45113], [6.031714, 49.45121], [6.031229, 49.451344], [6.03071, 49.451496], [6.030016, 49.451733], [6.030069, 49.451817], [6.030165, 49.452038], [6.03026, 49.45221], [6.030386, 49.452374], [6.030539, 49.452538], [6.030714, 49.452686], [6.031019, 49.45289], [6.031259, 49.452747], [6.031511, 49.452885], [6.031752, 49.453003], [6.032007, 49.453083], [6.032324, 49.45314], [6.032805, 49.453182], [6.032846, 49.45273], [6.034517, 49.452625], [6.036821, 49.452557], [6.036829, 49.452675], [6.038683, 49.452744], [6.038759, 49.453037], [6.038843, 49.453205], [6.038992, 49.453373], [6.039183, 49.4535], [6.0394, 49.453598], [6.039644, 49.45367], [6.039862, 49.45372], [6.039904, 49.453766], [6.039545, 49.453983], [6.039511, 49.45414], [6.039503, 49.45421], [6.039492, 49.454292], [6.039476, 49.454422], [6.039007, 49.454502], [6.03895, 49.454514], [6.038118, 49.454678], [6.037878, 49.454952], [6.038061, 49.45546], [6.038172, 49.45589], [6.038259, 49.456326], [6.038572, 49.456287], [6.038832, 49.456272], [6.039385, 49.456287], [6.039984, 49.45631], [6.040552, 49.456276], [6.040995, 49.456264], [6.041559, 49.456192], [6.041964, 49.456196], [6.042326, 49.45622], [6.042803, 49.456253], [6.043066, 49.456272], [6.04336, 49.456303], [6.043585, 49.456314], [6.043631, 49.456543], [6.042993, 49.45666], [6.042829, 49.45671], [6.042639, 49.456776], [6.04241, 49.45686], [6.042459, 49.45698], [6.041906, 49.457153], [6.04141, 49.457314], [6.040361, 49.457645], [6.040342, 49.457653], [6.040213, 49.45769], [6.039084, 49.458046], [6.039, 49.458073], [6.039045, 49.458153], [6.039125, 49.4583], [6.037783, 49.458786], [6.038378, 49.45956], [6.038553, 49.459793], [6.039091, 49.460495], [6.039274, 49.460438], [6.039671, 49.46073], [6.040045, 49.461], [6.0403, 49.461174], [6.040102, 49.46137], [6.039682, 49.461884], [6.039427, 49.462093], [6.039308, 49.46223], [6.038916, 49.462673], [6.038836, 49.462757], [6.038569, 49.463028], [6.038088, 49.46322], [6.037523, 49.463364], [6.037081, 49.46349], [6.03681, 49.46357], [6.036669, 49.463673], [6.03668, 49.463696], [6.036688, 49.463715], [6.036795, 49.463932], [6.036901, 49.464222], [6.036985, 49.46444], [6.037039, 49.46462], [6.037065, 49.4649], [6.037058, 49.46518], [6.037062, 49.46547], [6.037142, 49.465904], [6.037176, 49.466114], [6.037161, 49.466328], [6.036848, 49.46634], [6.036676, 49.466354], [6.036074, 49.466423], [6.035986, 49.46644], [6.035952, 49.466442], [6.035151, 49.46667], [6.03517, 49.466896], [6.035067, 49.467], [6.035036, 49.467094], [6.033644, 49.46732], [6.033728, 49.467514], [6.033018, 49.467625], [6.032946, 49.467636], [6.032797, 49.467663], [6.032766, 49.467667], [6.032484, 49.46771], [6.032412, 49.46759], [6.032289, 49.467327], [6.032198, 49.467346], [6.032152, 49.467354], [6.03187, 49.46741], [6.0315, 49.467487], [6.031462, 49.467133], [6.03092, 49.46711], [6.030909, 49.467068], [6.030794, 49.46706], [6.030169, 49.467033], [6.030054, 49.46703], [6.030027, 49.46706], [6.02984, 49.467056], [6.029722, 49.467056], [6.029539, 49.467117], [6.029345, 49.467163], [6.029131, 49.467216], [6.029112, 49.467216], [6.02902, 49.467236], [6.028959, 49.467247], [6.028765, 49.46727], [6.028521, 49.46729], [6.028471, 49.467262], [6.027788, 49.467567], [6.027556, 49.46768], [6.027349, 49.467804], [6.027155, 49.467953], [6.026796, 49.46823], [6.026751, 49.467995], [6.026701, 49.46786], [6.026632, 49.467743], [6.02651, 49.467606], [6.026377, 49.46749], [6.02619, 49.46738], [6.026041, 49.467293], [6.025907, 49.467224], [6.02495, 49.46681], [6.024908, 49.466824], [6.025019, 49.466953], [6.02519, 49.467113], [6.025297, 49.46723], [6.02532, 49.46734], [6.025305, 49.46743], [6.025267, 49.467525], [6.025221, 49.467598], [6.025152, 49.46768], [6.025137, 49.4677], [6.02482, 49.468014], [6.02429, 49.46855], [6.02416, 49.468655], [6.024023, 49.468723], [6.023859, 49.468777], [6.023523, 49.468857], [6.023344, 49.468918], [6.023069, 49.469025], [6.023043, 49.469], [6.022882, 49.46909], [6.022734, 49.469135], [6.022379, 49.469193], [6.021868, 49.46926], [6.021215, 49.46932], [6.019972, 49.4694], [6.019876, 49.46931], [6.017504, 49.46931], [6.017431, 49.469322], [6.017302, 49.46934], [6.016985, 49.4694], [6.016947, 49.469406], [6.016752, 49.469444], [6.016558, 49.4695], [6.01626, 49.46965], [6.015326, 49.470154], [6.015066, 49.470276], [6.014429, 49.470398], [6.014074, 49.47044], [6.013479, 49.470425], [6.013266, 49.47065], [6.013029, 49.470917], [6.012884, 49.47092], [6.012537, 49.470924], [6.012606, 49.471138], [6.012636, 49.471275], [6.012655, 49.471596], [6.012648, 49.47178], [6.012594, 49.472095], [6.012289, 49.472095], [6.012102, 49.472088], [6.011854, 49.472057], [6.011698, 49.47215], [6.011492, 49.472244], [6.011114, 49.4724], [6.01092, 49.4725], [6.010737, 49.472614], [6.010546, 49.4728], [6.010633, 49.472855], [6.010721, 49.472908], [6.010603, 49.473034], [6.010492, 49.473213], [6.010435, 49.47342], [6.010412, 49.473667], [6.010469, 49.474052], [6.010309, 49.474087], [6.009993, 49.474144], [6.009272, 49.474304], [6.008837, 49.4744], [6.008589, 49.474293], [6.007883, 49.47456], [6.007479, 49.474724], [6.006586, 49.4751], [6.006418, 49.475197], [6.006136, 49.475376], [6.005991, 49.475487], [6.005812, 49.475662], [6.005701, 49.47582], [6.005606, 49.475975], [6.005518, 49.4762], [6.005499, 49.476242], [6.005495, 49.476254], [6.005487, 49.47627], [6.005407, 49.476288], [6.00532, 49.476307], [6.005304, 49.476227], [6.005293, 49.476154], [6.005014, 49.476063], [6.004888, 49.476013], [6.004709, 49.475937], [6.004553, 49.47585], [6.00437, 49.47577], [6.004354, 49.47576], [6.004297, 49.47574], [6.003984, 49.475613], [6.00392, 49.475582], [6.003775, 49.475517], [6.003721, 49.47549], [6.003488, 49.4754], [6.00326, 49.475304], [6.003046, 49.47524], [6.003023, 49.47524], [6.002256, 49.475006], [6.002214, 49.47498], [6.002073, 49.474873], [6.001993, 49.4748], [6.001589, 49.474346], [6.001394, 49.474136], [6.001234, 49.47398], [6.0011, 49.473854], [6.00091, 49.473694], [6.000669, 49.47346], [6.000635, 49.473404], [6.001364, 49.473145], [6.001841, 49.47297], [6.002062, 49.472885], [6.002092, 49.472874], [6.002356, 49.47279], [6.002489, 49.472736], [6.002783, 49.47263], [6.002985, 49.47249], [6.003195, 49.47232], [6.003321, 49.472183], [6.003435, 49.472023], [6.003317, 49.47188], [6.003202, 49.471775], [6.002943, 49.471607], [6.002745, 49.47148], [6.00271, 49.471462], [6.002428, 49.47132], [6.002188, 49.471214], [6.001982, 49.47113], [6.001486, 49.470924], [6.001196, 49.470795], [6.000948, 49.47067], [6.000795, 49.470596], [6.000399, 49.470356], [6.000254, 49.47027], [6.000151, 49.470203], [5.999548, 49.469765], [5.999529, 49.469753], [5.999487, 49.469757], [5.999468, 49.46976], [5.999308, 49.469337], [5.999182, 49.469166], [5.999006, 49.46895], [5.998758, 49.46871], [5.998674, 49.46863], [5.998606, 49.468662], [5.997934, 49.468132], [5.99753, 49.467815], [5.997, 49.467426], [5.996759, 49.46721], [5.996702, 49.46723], [5.996187, 49.467434], [5.995935, 49.467533], [5.995619, 49.46766], [5.995592, 49.467667], [5.995119, 49.46788], [5.994669, 49.46808], [5.994627, 49.468094], [5.994348, 49.467888], [5.993704, 49.468376], [5.993067, 49.46886]]]]}}]}