{"type": "FeatureCollection", "features": [{"type": "Feature", "properties": {"name": "Boulaide"}, "geometry": {"type": "Polygon", "coordinates": [[[5.8030327, 49.8995238], [5.8032114, 49.8993827], [5.8031642, 49.8993577], [5.803429, 49.8992371], [5.8034758, 49.8992159], [5.8035468, 49.8991835], [5.8035924, 49.8991627], [5.8036823, 49.8991431], [5.8037446, 49.8991206], [5.8038579, 49.8990547], [5.8038785, 49.8990415], [5.8039049, 49.8990333], [5.8039546, 49.8990181], [5.8040172, 49.8989988], [5.8041714, 49.8989529], [5.804217, 49.8990152], [5.8042949, 49.8989996], [5.8044891, 49.8989605], [5.8045297, 49.8990236], [5.8047812, 49.899002], [5.8049319, 49.8989941], [5.8050502, 49.8989902], [5.8051991, 49.8989959], [5.8053207, 49.8990058], [5.8053796, 49.899014], [5.8054346, 49.8990218], [5.8055893, 49.8990434], [5.8055543, 49.8991369], [5.8057451, 49.899192], [5.8059722, 49.8992576], [5.8062422, 49.8993373], [5.8065087, 49.8994286], [5.8067991, 49.8995388], [5.8069859, 49.8996172], [5.8071465, 49.8996845], [5.8080984, 49.9000919], [5.8082826, 49.8999725], [5.8083121, 49.8999211], [5.8084032, 49.899649], [5.8087986, 49.8997853], [5.8090499, 49.8998555], [5.809279, 49.899912], [5.8095056, 49.8999626], [5.8097621, 49.900015], [5.810086, 49.9000731], [5.810765, 49.9001269], [5.8108278, 49.9001507], [5.8108768, 49.8997396], [5.8109299, 49.899556], [5.8110016, 49.89945], [5.8112105, 49.8989473], [5.8115187, 49.8981971], [5.8117009, 49.8976386], [5.811722, 49.897374], [5.8117496, 49.8971327], [5.8117059, 49.8967568], [5.8116564, 49.8962336], [5.811646, 49.8960416], [5.8116768, 49.895783], [5.8117617, 49.8951048], [5.8117802, 49.8946242], [5.8118207, 49.894446], [5.8120844, 49.8939966], [5.8121729, 49.8938449], [5.8122335, 49.8938761], [5.8123734, 49.8939516], [5.8124734, 49.8940058], [5.8127309, 49.8941439], [5.8129037, 49.8942313], [5.8129634, 49.8942532], [5.8130204, 49.8942743], [5.8132063, 49.8943417], [5.8136818, 49.8944871], [5.813895, 49.8942703], [5.8141156, 49.8943377], [5.8141228, 49.8943405], [5.8143023, 49.8944115], [5.8141901, 49.8945507], [5.8144036, 49.8946278], [5.8145578, 49.8941109], [5.8146512, 49.8937975], [5.8146618, 49.8937622], [5.814667, 49.8937402], [5.8150611, 49.8940845], [5.8152437, 49.8942225], [5.815264, 49.8942137], [5.815413, 49.8941695], [5.8160468, 49.8939703], [5.8161193, 49.8939391], [5.8159113, 49.8935988], [5.8159844, 49.8936009], [5.8162081, 49.8936249], [5.8166823, 49.8936757], [5.8169723, 49.8937068], [5.817212, 49.8937281], [5.8173664, 49.8937377], [5.8175597, 49.893744], [5.8180871, 49.893737], [5.8186414, 49.8937249], [5.8196526, 49.8936861], [5.8197388, 49.8935997], [5.8195529, 49.8935889], [5.8196247, 49.8934399], [5.8196596, 49.8933675], [5.8197098, 49.8932632], [5.8197483, 49.8931835], [5.8197653, 49.8931545], [5.8197859, 49.8931196], [5.8198172, 49.8930977], [5.8198626, 49.8930662], [5.8201663, 49.892854], [5.8208476, 49.8923838], [5.82067, 49.8923256], [5.8205025, 49.8922707], [5.820712, 49.8921149], [5.821059, 49.8918264], [5.8212127, 49.8916931], [5.8212256, 49.8916818], [5.8213171, 49.891625], [5.8214525, 49.891554], [5.8215438, 49.8915235], [5.8216668, 49.8914987], [5.8218144, 49.8914856], [5.8218417, 49.8914832], [5.8218938, 49.8914868], [5.8220368, 49.8915067], [5.8221659, 49.8915293], [5.8223405, 49.8915629], [5.8224742, 49.8915953], [5.8225799, 49.8916276], [5.8226875, 49.8916736], [5.8227099, 49.891668], [5.8228209, 49.89168], [5.8228787, 49.8916863], [5.8229477, 49.8916938], [5.8229743, 49.891623], [5.8230008, 49.8915524], [5.8232902, 49.8915755], [5.8233642, 49.8915814], [5.8235416, 49.8915881], [5.8236617, 49.8915926], [5.8236824, 49.8915527], [5.8238246, 49.8915596], [5.8238891, 49.8915628], [5.8239297, 49.8915648], [5.8240785, 49.8915675], [5.8241418, 49.8915651], [5.8242561, 49.8915606], [5.8243809, 49.891545], [5.824469, 49.8915245], [5.8245262, 49.8915112], [5.8245431, 49.8914838], [5.8247824, 49.891429], [5.8248877, 49.8914049], [5.8249648, 49.8913798], [5.8251133, 49.8913313], [5.8252494, 49.8912777], [5.8255125, 49.8911739], [5.8256178, 49.8911324], [5.8256499, 49.8910616], [5.8257549, 49.8910309], [5.8258881, 49.8909918], [5.8259528, 49.8909729], [5.8260582, 49.8909396], [5.8260963, 49.8909276], [5.8261451, 49.8909188], [5.8261798, 49.890912], [5.8262735, 49.8908937], [5.8263697, 49.8908839], [5.826402, 49.8908798], [5.8264365, 49.8908772], [5.8264772, 49.8908778], [5.8264841, 49.890878], [5.8266092, 49.8908874], [5.8270556, 49.890921], [5.8270827, 49.890923], [5.8270939, 49.8909238], [5.8271015, 49.8909244], [5.8271804, 49.8909303], [5.8276565, 49.8909658], [5.827698, 49.8909689], [5.8277353, 49.8909717], [5.8277418, 49.8908383], [5.8278796, 49.8908816], [5.8280296, 49.8909258], [5.8281904, 49.8909685], [5.8282618, 49.8909844], [5.8284493, 49.8910263], [5.828582, 49.8910542], [5.8286685, 49.8910737], [5.828737, 49.8910891], [5.8288632, 49.8911238], [5.8290268, 49.8911758], [5.8290749, 49.8911911], [5.8291348, 49.8912102], [5.8292107, 49.8912296], [5.8293162, 49.8912535], [5.8294153, 49.8912773], [5.8293797, 49.8913205], [5.8296344, 49.8914217], [5.8297836, 49.8914809], [5.829876, 49.8915195], [5.8299105, 49.8915339], [5.8300063, 49.8915765], [5.83007, 49.8916169], [5.8300972, 49.8916385], [5.8301437, 49.8916755], [5.8302109, 49.8917289], [5.8302165, 49.8917334], [5.8302376, 49.8917497], [5.8302726, 49.8917767], [5.8303116, 49.8918068], [5.8303578, 49.8918426], [5.8305262, 49.8919727], [5.8306688, 49.8918219], [5.830681, 49.8918089], [5.8309937, 49.8919711], [5.8311748, 49.8920596], [5.8312427, 49.892093], [5.8314125, 49.8921763], [5.8316231, 49.8922693], [5.8317574, 49.8923303], [5.8317843, 49.8923425], [5.8319028, 49.8922412], [5.8319252, 49.8922254], [5.8321394, 49.8923868], [5.8322764, 49.8924816], [5.8326458, 49.8926522], [5.8333018, 49.8929422], [5.8333256, 49.8929786], [5.8332082, 49.8931477], [5.8331339, 49.8932548], [5.8334313, 49.8934193], [5.8335573, 49.8934924], [5.8336194, 49.8935369], [5.8336672, 49.8935773], [5.8337037, 49.8936226], [5.8337202, 49.8936664], [5.8337261, 49.8937382], [5.833716, 49.893808], [5.833681, 49.893891], [5.8336293, 49.8939636], [5.833476, 49.8941652], [5.8336902, 49.8941849], [5.8337267, 49.8942283], [5.8347119, 49.8940242], [5.8349977, 49.8940042], [5.8351516, 49.8939935], [5.8352394, 49.8940223], [5.8354136, 49.894068], [5.8355495, 49.8941008], [5.8356533, 49.8941296], [5.8357028, 49.8941474], [5.8357604, 49.8941574], [5.8358068, 49.8941605], [5.8358613, 49.8941568], [5.8358997, 49.8941559], [5.8362492, 49.8941957], [5.8362896, 49.8941457], [5.8364174, 49.8941864], [5.8364583, 49.894198], [5.8365293, 49.8942181], [5.836574, 49.8942281], [5.8366188, 49.8942322], [5.8366764, 49.8942333], [5.836748, 49.8942318], [5.836843, 49.8942298], [5.8368686, 49.8942319], [5.8369101, 49.8942448], [5.8369516, 49.8942626], [5.8370187, 49.8942844], [5.8370922, 49.8943013], [5.837149, 49.894304], [5.8372595, 49.8943023], [5.8373235, 49.8943103], [5.8374242, 49.8943293], [5.8375201, 49.8943542], [5.8376161, 49.8943702], [5.8377968, 49.8943933], [5.8378784, 49.8944083], [5.8379262, 49.894431], [5.8379773, 49.8944528], [5.8382861, 49.8944934], [5.8384195, 49.8945109], [5.8385699, 49.8945307], [5.8386675, 49.8945447], [5.8387107, 49.8945448], [5.8388292, 49.8945402], [5.8388612, 49.8945453], [5.8389418, 49.8945794], [5.8390089, 49.8945983], [5.8390777, 49.8946103], [5.839116, 49.8946222], [5.8391816, 49.894642], [5.8392135, 49.894646], [5.8392792, 49.8946393], [5.8393433, 49.8946317], [5.8393881, 49.8946347], [5.8395433, 49.8946597], [5.8396313, 49.894663], [5.8397145, 49.8946622], [5.8398305, 49.8946847], [5.839936, 49.8947046], [5.8400288, 49.8947118], [5.8401488, 49.894715], [5.8401869, 49.8947145], [5.8402705, 49.8947134], [5.8403153, 49.8947194], [5.8404193, 49.8947355], [5.8405137, 49.8947446], [5.8406001, 49.8947448], [5.840689, 49.8947436], [5.8407931, 49.8947311], [5.8408354, 49.8947236], [5.8409518, 49.894703], [5.841165, 49.8946643], [5.8412484, 49.894641], [5.841286, 49.8946263], [5.8413511, 49.8946009], [5.8413961, 49.8945794], [5.8414429, 49.8945685], [5.8415008, 49.8945404], [5.8415586, 49.894508], [5.8416164, 49.8944855], [5.8416718, 49.8944729], [5.841741, 49.8944703], [5.8418632, 49.894472], [5.8419439, 49.8944694], [5.8420569, 49.8944584], [5.8421515, 49.8944445], [5.8422692, 49.8944236], [5.8427713, 49.8943453], [5.843651, 49.8940958], [5.8467944, 49.8933146], [5.8468256, 49.8932347], [5.8468567, 49.8931618], [5.8468111, 49.8931098], [5.846708, 49.8930366], [5.84671, 49.8930595], [5.8466866, 49.8929754], [5.8467131, 49.8928722], [5.8467766, 49.8927838], [5.8469001, 49.8927041], [5.8470465, 49.89265], [5.8472427, 49.8926096], [5.8474592, 49.8925887], [5.8476036, 49.8925573], [5.8477759, 49.892501], [5.8480177, 49.8924136], [5.848153, 49.8923618], [5.8482291, 49.8923279], [5.8483399, 49.8923396], [5.8484286, 49.8923455], [5.8485109, 49.8923486], [5.8488845, 49.8923314], [5.8491175, 49.8923219], [5.8493266, 49.8923031], [5.8495236, 49.892277], [5.8497044, 49.8922568], [5.849742, 49.8922526], [5.8498326, 49.8922506], [5.8498843, 49.892253], [5.8500843, 49.8922684], [5.8501135, 49.8922706], [5.85014, 49.8922723], [5.8501911, 49.8922754], [5.8502373, 49.8922721], [5.8502837, 49.8922541], [5.8503746, 49.8922112], [5.8504116, 49.8922011], [5.8505115, 49.8921911], [5.8506448, 49.892172], [5.8507248, 49.892163], [5.8508697, 49.8921468], [5.8509469, 49.8921381], [5.8510432, 49.8921273], [5.851101, 49.8921208], [5.851312, 49.8920887], [5.8515275, 49.8920525], [5.851583, 49.8920404], [5.8516187, 49.8920173], [5.8517034, 49.8919521], [5.8517314, 49.8919363], [5.8517878, 49.8919042], [5.8518348, 49.8918775], [5.8520017, 49.8917949], [5.8521074, 49.8917427], [5.8521897, 49.8917102], [5.8522318, 49.8916933], [5.8523143, 49.8916602], [5.8523856, 49.8916181], [5.852479, 49.8915761], [5.852602, 49.891538], [5.8526791, 49.891514], [5.8528281, 49.8914694], [5.8530525, 49.8914101], [5.8530895, 49.8913934], [5.8531126, 49.891383], [5.853142, 49.8913646], [5.8531984, 49.8913294], [5.8532719, 49.8912806], [5.8532987, 49.8912589], [5.8533411, 49.8912154], [5.8533634, 49.891195], [5.8533946, 49.891176], [5.8534235, 49.8911652], [5.8534724, 49.8911517], [5.8535325, 49.8911314], [5.8536125, 49.8910976], [5.8536685, 49.8910624], [5.853715, 49.8910332], [5.8537529, 49.8910094], [5.853832, 49.8909476], [5.8538921, 49.8908958], [5.8539391, 49.8908552], [5.8539889, 49.8908], [5.8540285, 49.890756], [5.8540731, 49.8907262], [5.8541265, 49.8907059], [5.8541622, 49.8906893], [5.8541821, 49.8906801], [5.8542489, 49.8906367], [5.8542807, 49.890613], [5.8543541, 49.8905581], [5.8544007, 49.8905232], [5.8544691, 49.890472], [5.8546001, 49.890374], [5.8547538, 49.8902492], [5.8548662, 49.890158], [5.8549413, 49.890097], [5.8550038, 49.8900369], [5.8550726, 49.8899707], [5.8551031, 49.8899414], [5.8551567, 49.8898939], [5.8552192, 49.8898513], [5.8552882, 49.8898043], [5.8553345, 49.8897688], [5.8555212, 49.8896258], [5.8556283, 49.8895211], [5.8556593, 49.8894979], [5.8556717, 49.8894886], [5.8557353, 49.889441], [5.8558511, 49.8893746], [5.8558824, 49.8893474], [5.855896, 49.8893011], [5.8559064, 49.8892256], [5.8559177, 49.8891983], [5.8559646, 49.8891549], [5.8560148, 49.8891232], [5.8562207, 49.8889934], [5.8563308, 49.888921], [5.8564168, 49.8888645], [5.8565375, 49.8888002], [5.8565593, 49.8887886], [5.8566505, 49.8887493], [5.8567991, 49.8886913], [5.8563562, 49.8885471], [5.8559335, 49.88839], [5.8557376, 49.8883135], [5.8554216, 49.8881692], [5.8550901, 49.8880114], [5.8546277, 49.8877797], [5.8549288, 49.8873641], [5.8549709, 49.8873082], [5.8550474, 49.887208], [5.8553076, 49.8871327], [5.8550234, 49.8870889], [5.8546697, 49.887029], [5.8544768, 49.88697], [5.8542113, 49.8868913], [5.8542672, 49.886612], [5.854354, 49.8863543], [5.8544196, 49.88624], [5.8546371, 49.8858482], [5.8546606, 49.8858003], [5.8547752, 49.8855372], [5.854838, 49.8853854], [5.8549104, 49.8851872], [5.8549529, 49.8850803], [5.8549672, 49.8850249], [5.8550694, 49.8847612], [5.8536656, 49.8844925], [5.8540958, 49.8844287], [5.8541381, 49.8843329], [5.8542308, 49.8841226], [5.8543672, 49.8838246], [5.8543954, 49.8837687], [5.8544775, 49.8835174], [5.854189, 49.8834147], [5.8539097, 49.883317], [5.853703, 49.8832439], [5.8534577, 49.8831593], [5.8532494, 49.8831037], [5.853078, 49.8830628], [5.8528989, 49.8830143], [5.8526984, 49.8829518], [5.8523759, 49.882841], [5.8520983, 49.8827367], [5.8519749, 49.8826864], [5.8518038, 49.882611], [5.8515972, 49.8825286], [5.8514651, 49.8824791], [5.8513893, 49.8824561], [5.8513241, 49.8824456], [5.8511935, 49.8824316], [5.8505926, 49.882366], [5.8504567, 49.882361], [5.8498564, 49.8823366], [5.8494602, 49.8823024], [5.8489573, 49.8822427], [5.8488636, 49.8825336], [5.8487986, 49.8827424], [5.848774, 49.8828741], [5.8486913, 49.8831485], [5.8481938, 49.8830717], [5.8478956, 49.8830446], [5.8473296, 49.8830351], [5.8470453, 49.8830366], [5.8467521, 49.8830529], [5.8465391, 49.8830774], [5.8462933, 49.8831293], [5.8460599, 49.8831812], [5.8458069, 49.8832467], [5.8455813, 49.8833134], [5.84536, 49.8833927], [5.8451227, 49.8834937], [5.8448855, 49.8835821], [5.8446793, 49.8836512], [5.8443042, 49.8837655], [5.8439379, 49.8838741], [5.8436733, 49.8839578], [5.8435548, 49.8839883], [5.8433003, 49.8840173], [5.8431694, 49.8840432], [5.8430456, 49.8840782], [5.8429446, 49.8841248], [5.8426477, 49.8842952], [5.8425024, 49.8843587], [5.8422952, 49.8844449], [5.8420773, 49.8845437], [5.8414618, 49.884816], [5.8413283, 49.8847135], [5.8405462, 49.8841518], [5.8403563, 49.8840211], [5.8400266, 49.8838204], [5.8397151, 49.8836562], [5.8391155, 49.8834102], [5.8389116, 49.8832737], [5.8391199, 49.8831363], [5.8389613, 49.883106], [5.8390042, 49.8830687], [5.8390163, 49.8830582], [5.8391352, 49.8829775], [5.8391707, 49.8829502], [5.8392922, 49.8828672], [5.839372, 49.8828252], [5.8394765, 49.8827729], [5.8396289, 49.8826923], [5.8396679, 49.8826662], [5.8397424, 49.8826253], [5.8398472, 49.8825388], [5.8399724, 49.8824329], [5.8400311, 49.8823715], [5.8400704, 49.8822951], [5.8401405, 49.8821206], [5.8401441, 49.8821126], [5.8401656, 49.882067], [5.8401889, 49.8820077], [5.8402158, 49.8819484], [5.8403583, 49.8816382], [5.8404897, 49.8813965], [5.8405183, 49.8813532], [5.8406446, 49.8810772], [5.8409419, 49.8805848], [5.8409191, 49.8805676], [5.8408558, 49.8805298], [5.8407766, 49.8804976], [5.8406726, 49.880463], [5.8405562, 49.8804353], [5.8404716, 49.8804213], [5.8404248, 49.8804189], [5.8404126, 49.8803592], [5.8404022, 49.8803077], [5.8403825, 49.8801414], [5.8403796, 49.8800808], [5.8403763, 49.8800123], [5.8403842, 49.8797657], [5.8404019, 49.8793661], [5.8404085, 49.8791387], [5.8409085, 49.8790911], [5.8413717, 49.8790079], [5.8420781, 49.8788717], [5.8425961, 49.8787669], [5.8429311, 49.8787165], [5.8431467, 49.8786851], [5.8432653, 49.8786432], [5.8433521, 49.8786001], [5.8433983, 49.8785534], [5.8434622, 49.8785113], [5.8436535, 49.8784148], [5.8437572, 49.8783614], [5.8438264, 49.8783114], [5.8439456, 49.8781736], [5.844146, 49.8779058], [5.8443383, 49.8776768], [5.8445062, 49.8775152], [5.8446269, 49.8774161], [5.8447848, 49.8773036], [5.8448974, 49.8772342], [5.8450004, 49.8771523], [5.8451196, 49.8770099], [5.8451936, 49.8769062], [5.8453238, 49.8767067], [5.8453862, 49.8766224], [5.8456287, 49.8764027], [5.8458311, 49.8762274], [5.8459617, 49.8761091], [5.8460844, 49.8759667], [5.8461856, 49.8757649], [5.8462274, 49.8755811], [5.8462457, 49.8754841], [5.8462651, 49.8753586], [5.8462858, 49.8751611], [5.8462858, 49.8750195], [5.8462689, 49.8749087], [5.8462253, 49.8748298], [5.8461107, 49.8746662], [5.8459777, 49.8744969], [5.8458855, 49.8743894], [5.8455487, 49.8740596], [5.8452009, 49.8737915], [5.8449424, 49.8736332], [5.8447523, 49.873547], [5.8445355, 49.8734916], [5.8443344, 49.8734602], [5.8441491, 49.873446], [5.8439637, 49.8734489], [5.8438259, 49.8734657], [5.8436454, 49.8735166], [5.8435259, 49.8735779], [5.8432118, 49.8738134], [5.8427751, 49.8741615], [5.8424824, 49.8743594], [5.8421104, 49.8745433], [5.8418981, 49.8746147], [5.8417867, 49.874628], [5.8414451, 49.8746339], [5.8407673, 49.8745978], [5.8403704, 49.8745453], [5.8399052, 49.8744035], [5.8394404, 49.8742035], [5.8391502, 49.8740383], [5.8389659, 49.8738768], [5.8388293, 49.8737154], [5.8387643, 49.8735371], [5.8387138, 49.8731773], [5.838662, 49.8730024], [5.8385416, 49.8728], [5.8382608, 49.8724121], [5.8380983, 49.8721719], [5.8378892, 49.8717534], [5.8375883, 49.8712284], [5.8374363, 49.8709814], [5.8373206, 49.870868], [5.8371311, 49.8706996], [5.8368201, 49.8704727], [5.8366987, 49.8704072], [5.83663, 49.8703933], [5.8365769, 49.8704035], [5.8365185, 49.8704273], [5.8363596, 49.8704371], [5.8359966, 49.87046], [5.8356734, 49.8704694], [5.8353399, 49.8704479], [5.835123, 49.8704096], [5.8348959, 49.8703233], [5.8345849, 49.8701032], [5.8343956, 49.8699074], [5.834306, 49.869842], [5.8341843, 49.8698143], [5.8339303, 49.869793], [5.8335065, 49.8697952], [5.8325223, 49.8697822], [5.8324148, 49.8697751], [5.8322111, 49.8697629], [5.8318621, 49.8696831], [5.8315926, 49.8696001], [5.8313074, 49.8694829], [5.8311438, 49.8694002], [5.8306959, 49.8690666], [5.8301796, 49.868678], [5.8298874, 49.8684306], [5.829561, 49.8681487], [5.8293025, 49.8680007], [5.8286159, 49.8677246], [5.8277444, 49.8673864], [5.8266093, 49.8670124], [5.8259928, 49.8668092], [5.8252266, 49.8665603], [5.8249016, 49.8664566], [5.8245262, 49.8663733], [5.8242774, 49.8663657], [5.8241024, 49.8663994], [5.8238683, 49.8665392], [5.8236134, 49.8666412], [5.822934, 49.8668584], [5.8222759, 49.8670483], [5.8218217, 49.8672387], [5.8212108, 49.8675041], [5.8204789, 49.8676424], [5.8196947, 49.8676948], [5.8189495, 49.8677727], [5.8183066, 49.8678815], [5.817703, 49.8679517], [5.8157501, 49.8681582], [5.8147006, 49.868268], [5.8129033, 49.8685297], [5.8124465, 49.8686128], [5.8124057, 49.8686149], [5.8115414, 49.8686352], [5.8109697, 49.8685957], [5.8103192, 49.8684601], [5.8096926, 49.8683315], [5.8092215, 49.8682889], [5.808565, 49.8682629], [5.8082899, 49.8682141], [5.8080627, 49.8681483], [5.8078779, 49.8680758], [5.807805, 49.8679009], [5.8076585, 49.8673044], [5.8076014, 49.8671467], [5.8074593, 49.8670332], [5.8071369, 49.8669363], [5.8068092, 49.8668462], [5.8066303, 49.8666881], [5.8063789, 49.8663173], [5.806288, 49.8660875], [5.8062042, 49.8659537], [5.8061369, 49.8657411], [5.8061301, 49.8652444], [5.8061669, 49.8649122], [5.8061634, 49.8646793], [5.8061276, 49.8645045], [5.8060755, 49.8643981], [5.8060091, 49.8642803], [5.8054689, 49.8639561], [5.8051485, 49.8637665], [5.8048235, 49.8636276], [5.8045573, 49.8635526], [5.804293, 49.8635062], [5.8040582, 49.8634834], [5.8036095, 49.8634677], [5.8033511, 49.8634851], [5.8031498, 49.8635065], [5.8027978, 49.8635757], [5.8026006, 49.8636245], [5.8023987, 49.8637162], [5.8022599, 49.8638099], [5.8020712, 49.8639798], [5.8018968, 49.864174], [5.8018345, 49.8643133], [5.8018406, 49.8644572], [5.8020752, 49.8648941], [5.8024628, 49.865575], [5.802673, 49.8658879], [5.80288, 49.8661564], [5.8030194, 49.8663162], [5.8030667, 49.8663491], [5.8032832, 49.8664996], [5.8034065, 49.8665853], [5.8040386, 49.8668663], [5.8044909, 49.8671068], [5.804652, 49.8672401], [5.8049984, 49.8676685], [5.8053203, 49.8679928], [5.805635, 49.8683081], [5.80591, 49.8686433], [5.8062205, 49.8690428], [5.8063843, 49.86932], [5.8064619, 49.8695328], [5.8064603, 49.869752], [5.8064228, 49.8699555], [5.8063277, 49.8701434], [5.8061387, 49.870351], [5.8059067, 49.8705428], [5.8057075, 49.8706662], [5.8055558, 49.8707233], [5.8051373, 49.8707818], [5.8047693, 49.8708404], [5.8040014, 49.8708712], [5.8033202, 49.8708801], [5.8030429, 49.8708638], [5.8028845, 49.8708345], [5.8027839, 49.8707965], [5.8026762, 49.8707453], [5.8025221, 49.8706252], [5.8022409, 49.8703953], [5.8019812, 49.8701762], [5.8017124, 49.870021], [5.8012198, 49.8697642], [5.8011139, 49.8697105], [5.8008678, 49.8696226], [5.8007126, 49.8695917], [5.8006272, 49.8695788], [5.8004887, 49.8695983], [5.8004422, 49.8696433], [5.8004221, 49.8698164], [5.8004211, 49.8699529], [5.8004591, 49.8701241], [5.8005176, 49.8702933], [5.8006545, 49.870489], [5.8007706, 49.8707214], [5.8007323, 49.870821], [5.8006324, 49.8708932], [5.800404, 49.8710582], [5.7999787, 49.8712857], [5.7993751, 49.8714906], [5.7986238, 49.8716513], [5.7971479, 49.8718315], [5.7962848, 49.8719228], [5.7956869, 49.8720494], [5.795395, 49.8721801], [5.7952666, 49.8722988], [5.7952291, 49.8725306], [5.7952677, 49.872816], [5.7952799, 49.8732204], [5.795384, 49.8736126], [5.7956836, 49.8744787], [5.7960306, 49.875138], [5.7966255, 49.876074], [5.7969634, 49.8766049], [5.7971238, 49.8769846], [5.7972178, 49.8773736], [5.7972007, 49.8776087], [5.7970371, 49.8783072], [5.7969022, 49.8786014], [5.7968088, 49.8788017], [5.7966232, 49.8790393], [5.7964703, 49.8792288], [5.7963641, 49.8794789], [5.7961778, 49.8797385], [5.7959935, 49.879974], [5.7959033, 49.8800858], [5.7956251, 49.8802755], [5.7955407, 49.8803228], [5.7950329, 49.8804495], [5.7946373, 49.8805683], [5.7944485, 49.8806712], [5.7942082, 49.8806841], [5.7938176, 49.8806337], [5.7934038, 49.880458], [5.7932186, 49.8803293], [5.7929154, 49.8800476], [5.792309, 49.8795535], [5.7919355, 49.8792298], [5.7918193, 49.8790802], [5.7917871, 49.8789131], [5.7918597, 49.8786795], [5.7920278, 49.8781306], [5.7920964, 49.8779244], [5.792094, 49.8775144], [5.7919965, 49.8771236], [5.7920202, 49.876939], [5.7921326, 49.876618], [5.7923276, 49.8759497], [5.7923624, 49.8757823], [5.7923783, 49.8756531], [5.7923436, 49.875573], [5.792192, 49.875429], [5.7920181, 49.8752878], [5.7917923, 49.8751246], [5.7911823, 49.8748031], [5.7906853, 49.8745619], [5.7900642, 49.8742311], [5.789582, 49.8739991], [5.7889569, 49.8737123], [5.7885411, 49.8735663], [5.7879925, 49.8734879], [5.7874974, 49.8734754], [5.787147, 49.8735383], [5.7860829, 49.8739151], [5.7849316, 49.874278], [5.7840106, 49.8748003], [5.7833752, 49.875112], [5.7828476, 49.8754127], [5.7826676, 49.8755756], [5.7825659, 49.8757251], [5.7826997, 49.8757447], [5.7828091, 49.87579], [5.7828793, 49.875832], [5.7829299, 49.8758763], [5.7829622, 49.8759254], [5.7830335, 49.8760769], [5.7830616, 49.8761636], [5.7831332, 49.8764411], [5.7831813, 49.8765468], [5.7833294, 49.8769049], [5.7834313, 49.8771472], [5.7835305, 49.8774127], [5.7835707, 49.8775264], [5.7835794, 49.8775898], [5.7835739, 49.8777002], [5.7835585, 49.8778357], [5.7835113, 49.878104], [5.7834295, 49.8785291], [5.783415, 49.878625], [5.7833923, 49.8786875], [5.7833645, 49.8787387], [5.7833329, 49.8787739], [5.783152, 49.8789327], [5.7830388, 49.8790414], [5.7829684, 49.8791066], [5.7829158, 49.8791482], [5.7828331, 49.8791936], [5.7826719, 49.8792557], [5.7825312, 49.8793218], [5.7824603, 49.8793528], [5.7824203, 49.8793703], [5.7823856, 49.8793855], [5.7823107, 49.879418], [5.7821121, 49.8794449], [5.7820288, 49.8794564], [5.7818259, 49.8794859], [5.7816954, 49.8795287], [5.7813784, 49.8796796], [5.7811764, 49.8797825], [5.7809989, 49.8798567], [5.7809471, 49.8798893], [5.7809147, 49.8799328], [5.7808731, 49.8800179], [5.7808262, 49.8801018], [5.7807412, 49.8801785], [5.7806805, 49.8802133], [5.7806341, 49.8802284], [5.7805576, 49.8802336], [5.7804029, 49.8802375], [5.7802676, 49.8802545], [5.7802124, 49.8802729], [5.7801712, 49.8803044], [5.7801425, 49.8803447], [5.7801079, 49.880444], [5.7800709, 49.880511], [5.7800224, 49.8805775], [5.7799741, 49.8806123], [5.7799312, 49.8806383], [5.7798582, 49.8806534], [5.7797603, 49.8806727], [5.7796871, 49.880702], [5.7795977, 49.8807661], [5.7794857, 49.8808711], [5.7793981, 49.8809396], [5.7793606, 49.8809602], [5.7792714, 49.8809982], [5.7790469, 49.8810597], [5.7789186, 49.8810942], [5.7788677, 49.8811197], [5.7788444, 49.8811425], [5.7788297, 49.8812058], [5.7788192, 49.881398], [5.7788125, 49.8814619], [5.7787256, 49.8816538], [5.778704, 49.881693], [5.7786592, 49.8817344], [5.7786306, 49.8817518], [5.7785969, 49.8817462], [5.7785545, 49.88171], [5.778505, 49.8816694], [5.7784625, 49.8816507], [5.7784269, 49.8816572], [5.7783661, 49.8817028], [5.7782327, 49.8818121], [5.7781591, 49.8818993], [5.778098, 49.8819908], [5.7780581, 49.8820791], [5.7780496, 49.8821441], [5.7780545, 49.8821965], [5.7780804, 49.8822894], [5.7781276, 49.88239], [5.7782887, 49.8825866], [5.77832, 49.8826774], [5.7783393, 49.8828199], [5.7783367, 49.8829292], [5.7783057, 49.8830208], [5.7782092, 49.8831968], [5.7781744, 49.8833158], [5.7781949, 49.8834174], [5.7782267, 49.8834524], [5.7782622, 49.883458], [5.7783156, 49.8834527], [5.7783583, 49.8834431], [5.778401, 49.8834454], [5.7784337, 49.8834646], [5.778514, 49.8835256], [5.7787712, 49.8837965], [5.7788235, 49.8838629], [5.7788869, 49.8838996], [5.7789467, 49.8839828], [5.7789923, 49.8840545], [5.7789987, 49.8840869], [5.778985, 49.8841423], [5.7788864, 49.8843742], [5.7788187, 49.884512], [5.7787918, 49.8845668], [5.7786708, 49.884813], [5.7785958, 49.8849727], [5.7785734, 49.8850321], [5.778567, 49.8850859], [5.7785639, 49.8851117], [5.7785697, 49.8852184], [5.778585, 49.8853057], [5.7785959, 49.8853677], [5.7786183, 49.8854646], [5.7786456, 49.8855827], [5.7786512, 49.8856069], [5.7786603, 49.8856395], [5.7787036, 49.8857949], [5.7787629, 49.8860077], [5.7787783, 49.886063], [5.7793015, 49.8862153], [5.7793804, 49.8862372], [5.7794358, 49.8862472], [5.779565, 49.8862651], [5.7797926, 49.8862706], [5.7799323, 49.8862757], [5.7800796, 49.8862811], [5.7801778, 49.8862812], [5.7803731, 49.8862813], [5.7807895, 49.8862747], [5.7808579, 49.886273], [5.7812914, 49.8862621], [5.7815334, 49.8862399], [5.7818903, 49.8862065], [5.7819268, 49.8862031], [5.7819607, 49.886201], [5.7820285, 49.886197], [5.7821213, 49.8861914], [5.7822602, 49.8861831], [5.7823045, 49.8861805], [5.7824064, 49.8861728], [5.7825403, 49.8861626], [5.7826255, 49.8861561], [5.782698, 49.8861479], [5.7827154, 49.8861459], [5.7831911, 49.8860921], [5.7833438, 49.8860735], [5.7833929, 49.8860785], [5.7834904, 49.8860942], [5.7835737, 49.8861076], [5.7838217, 49.8861482], [5.784067, 49.8861967], [5.784236, 49.8862441], [5.7845273, 49.8863626], [5.7846615, 49.8864075], [5.785809, 49.8866794], [5.7858363, 49.8866859], [5.785872, 49.8866944], [5.7859225, 49.8867063], [5.7859862, 49.886722], [5.7861618, 49.886765], [5.7862355, 49.8867831], [5.7873397, 49.8870541], [5.78818, 49.8872466], [5.7889193, 49.8862387], [5.7890506, 49.8860597], [5.7901305, 49.886425], [5.7901952, 49.8864468], [5.7909736, 49.8867101], [5.7910574, 49.8867623], [5.7913042, 49.886916], [5.7913795, 49.8869629], [5.7915778, 49.8870863], [5.7916647, 49.8871404], [5.7917744, 49.8872114], [5.7918228, 49.8872428], [5.7919508, 49.8873257], [5.7920472, 49.8873881], [5.7921935, 49.8874829], [5.7921426, 49.8875292], [5.7915228, 49.888093], [5.7910448, 49.8885307], [5.7909639, 49.888621], [5.7909147, 49.888682], [5.7907968, 49.8888283], [5.7906688, 49.888987], [5.7905604, 49.8891256], [5.7907446, 49.889167], [5.7909495, 49.8892131], [5.7914584, 49.8893277], [5.7919534, 49.8894391], [5.791563, 49.8900303], [5.7913867, 49.8902974], [5.7925105, 49.8906401], [5.792088, 49.8912622], [5.7924583, 49.8913172], [5.7925204, 49.8913264], [5.7925918, 49.8913369], [5.792797, 49.8913676], [5.7930124, 49.8913998], [5.7930327, 49.8914028], [5.793456, 49.891466], [5.7943007, 49.8917809], [5.7949376, 49.8920168], [5.7954188, 49.8921951], [5.7964066, 49.8925684], [5.7963728, 49.8925857], [5.7964937, 49.8926428], [5.7965317, 49.8926607], [5.79668, 49.8927307], [5.7968354, 49.892804], [5.7970663, 49.8929118], [5.7971473, 49.8929496], [5.797185, 49.8929703], [5.7972838, 49.8930247], [5.7975543, 49.8931796], [5.7978233, 49.8933383], [5.7980268, 49.8934583], [5.7985659, 49.8938293], [5.798852, 49.8939589], [5.799115, 49.8940757], [5.7996435, 49.8943575], [5.7997758, 49.8944281], [5.8000488, 49.8945652], [5.8000988, 49.8945903], [5.8002229, 49.8946527], [5.8004808, 49.8947663], [5.8016804, 49.8952951], [5.8007421, 49.8963367], [5.8006966, 49.8963872], [5.8008711, 49.896447], [5.8009481, 49.8964734], [5.8012315, 49.8965706], [5.8013454, 49.8966096], [5.8013976, 49.8966275], [5.8014104, 49.8966319], [5.8014341, 49.8966401], [5.8014918, 49.8966598], [5.8015419, 49.896677], [5.8016236, 49.896705], [5.8013772, 49.8969987], [5.8018911, 49.8971409], [5.8023306, 49.8972626], [5.8024265, 49.8971666], [5.8027214, 49.8973253], [5.8020255, 49.8981246], [5.8019891, 49.8981569], [5.8020092, 49.8983816], [5.802033, 49.8985354], [5.802054, 49.8986357], [5.8020891, 49.8987468], [5.8021542, 49.89887], [5.8021834, 49.8989073], [5.8022482, 49.8989746], [5.8023463, 49.8990528], [5.8024986, 49.8991663], [5.8026248, 49.899252], [5.8028135, 49.8993802], [5.8030327, 49.8995238]]]}}]}