{"type": "FeatureCollection", "features": [{"type": "Feature", "properties": {"name": "Surré"}, "geometry": {"type": "Polygon", "coordinates": [[[5.7357252, 49.8968745], [5.735708, 49.8968943], [5.7356988, 49.8969246], [5.7357073, 49.8969748], [5.7357273, 49.8970209], [5.7357786, 49.8970916], [5.7358899, 49.8972081], [5.7360064, 49.8973152], [5.7361272, 49.8974217], [5.7362049, 49.8974963], [5.736364, 49.8976035], [5.7364334, 49.8976498], [5.7365236, 49.8977447], [5.7365825, 49.8978254], [5.7366343, 49.8979312], [5.7366634, 49.8980144], [5.736698, 49.8981473], [5.7367125, 49.8982352], [5.7367088, 49.8982666], [5.736673, 49.8983704], [5.7366278, 49.8984717], [5.7365812, 49.8985457], [5.7365132, 49.8986297], [5.7364393, 49.8987047], [5.7363311, 49.8988119], [5.7362664, 49.8989032], [5.7362233, 49.8989689], [5.7362093, 49.8990096], [5.7362142, 49.8990368], [5.7362495, 49.8990882], [5.736513, 49.8994179], [5.7365955, 49.8995228], [5.736645, 49.899604], [5.7367203, 49.8997559], [5.7368267, 49.8999471], [5.7369392, 49.9001325], [5.7370391, 49.9002861], [5.7371434, 49.9004276], [5.7373111, 49.9006211], [5.7374131, 49.9007422], [5.737531, 49.9008765], [5.7376068, 49.9009719], [5.7376625, 49.9010307], [5.7377402, 49.9010979], [5.7378342, 49.9011594], [5.737946, 49.9012173], [5.738097, 49.9012868], [5.7383853, 49.9014144], [5.7385862, 49.9015098], [5.7386438, 49.9015445], [5.7389113, 49.9017253], [5.7392735, 49.9018242], [5.7393309, 49.9018421], [5.7393733, 49.9018553], [5.7394635, 49.9018834], [5.7397413, 49.9019701], [5.739773, 49.9019799], [5.7402257, 49.9021211], [5.7404127, 49.9021635], [5.740461, 49.9021745], [5.74065, 49.9026621], [5.7405736, 49.9031213], [5.7401996, 49.9035397], [5.740074, 49.9036867], [5.7399897, 49.9037815], [5.7397851, 49.9039971], [5.7397798, 49.9040191], [5.739788, 49.9040547], [5.7398334, 49.9041228], [5.7398881, 49.9041956], [5.7399152, 49.9042125], [5.7402564, 49.904335], [5.7402781, 49.9043562], [5.7405432, 49.9044149], [5.7407859, 49.9044722], [5.7411385, 49.9045727], [5.7414431, 49.9046773], [5.7416245, 49.9047306], [5.7416427, 49.9047571], [5.7417149, 49.9047956], [5.7417699, 49.9048071], [5.7418373, 49.9048186], [5.7419677, 49.9048605], [5.7421339, 49.9049031], [5.7422703, 49.9049526], [5.7423823, 49.9049969], [5.7424232, 49.9050033], [5.7425028, 49.9050086], [5.7425864, 49.9050302], [5.7426394, 49.9050405], [5.7426966, 49.9050419], [5.7427763, 49.9050422], [5.7428519, 49.90505], [5.7429682, 49.9050693], [5.7431893, 49.9051334], [5.7433973, 49.9051919], [5.7434687, 49.9052047], [5.7436503, 49.9052317], [5.7437993, 49.9052549], [5.7438666, 49.9052727], [5.7439948, 49.9053334], [5.744247, 49.9054723], [5.7443659, 49.9055436], [5.7445124, 49.9056144], [5.7445489, 49.9056434], [5.7446116, 49.9057214], [5.7446542, 49.9057542], [5.7446928, 49.9057794], [5.7447231, 49.9058234], [5.7447332, 49.9058322], [5.7447618, 49.9058399], [5.744821, 49.9058501], [5.7448596, 49.9058691], [5.7449227, 49.9058957], [5.7449848, 49.9059241], [5.7450215, 49.9059393], [5.7451072, 49.9059509], [5.7451541, 49.9059573], [5.7452132, 49.9059764], [5.7453296, 49.9059856], [5.7454871, 49.9060922], [5.7455806, 49.906149], [5.7456723, 49.9061857], [5.7457986, 49.9062238], [5.7459598, 49.9062557], [5.7461312, 49.9062852], [5.7463068, 49.9063021], [5.7464518, 49.9063115], [5.7466705, 49.9063135], [5.7466516, 49.9066318], [5.7466273, 49.9070397], [5.7465496, 49.9070457], [5.7462947, 49.9074563], [5.7460589, 49.9077867], [5.7461259, 49.9078258], [5.7462053, 49.9078725], [5.7463172, 49.9079244], [5.74647, 49.9079826], [5.7466411, 49.9080435], [5.7466179, 49.9080808], [5.7465916, 49.908123], [5.7464929, 49.9082819], [5.747015, 49.9084018], [5.7472066, 49.9084564], [5.7474277, 49.9085406], [5.747556, 49.90859], [5.7477126, 49.9086721], [5.7477959, 49.9087264], [5.7478791, 49.9087932], [5.7479276, 49.9088661], [5.747985, 49.9089661], [5.7480112, 49.9089988], [5.7480884, 49.9090543], [5.7483545, 49.9092484], [5.7480981, 49.9094391], [5.7485181, 49.9096532], [5.7487688, 49.9097809], [5.7495329, 49.9101686], [5.7497984, 49.9103042], [5.749965, 49.9103893], [5.7501231, 49.91047], [5.7502045, 49.9105115], [5.7504215, 49.9106229], [5.7507464, 49.9107897], [5.7509398, 49.9108889], [5.7510454, 49.9109436], [5.7515846, 49.9112229], [5.7522928, 49.9115825], [5.7524989, 49.9116871], [5.75308, 49.9119805], [5.7535139, 49.9121241], [5.753763, 49.9122065], [5.7538289, 49.9122258], [5.7538686, 49.9122377], [5.7539364, 49.9122582], [5.7540171, 49.9122825], [5.7545901, 49.9124552], [5.7548515, 49.912534], [5.7552292, 49.9126479], [5.7554072, 49.9127015], [5.7554702, 49.9127207], [5.7563481, 49.9129912], [5.7571477, 49.9132376], [5.7575968, 49.9133843], [5.7578935, 49.9134812], [5.7588082, 49.9137813], [5.7588959, 49.91381], [5.7598707, 49.9141313], [5.7600878, 49.9142029], [5.7609297, 49.9144827], [5.7611849, 49.9145676], [5.7613586, 49.9146257], [5.7620327, 49.9148514], [5.7622546, 49.9149253], [5.7625385, 49.91502], [5.7626785, 49.9150669], [5.7628955, 49.9151397], [5.7629483, 49.9151574], [5.7633483, 49.9152916], [5.7635835, 49.9153697], [5.7636811, 49.9154021], [5.7639278, 49.9156765], [5.7639704, 49.9157239], [5.7640109, 49.9157681], [5.7644769, 49.9156433], [5.7645208, 49.9156581], [5.7645491, 49.9156545], [5.7646359, 49.9156433], [5.7647599, 49.9156334], [5.7648806, 49.9156283], [5.7649543, 49.9156462], [5.7649697, 49.9156498], [5.7652099, 49.9157059], [5.7653934, 49.9157463], [5.7655308, 49.9157765], [5.7655638, 49.9157838], [5.7657139, 49.9158125], [5.7658274, 49.9158342], [5.7661151, 49.9158785], [5.7664492, 49.9159229], [5.7665878, 49.9159733], [5.7667154, 49.9160197], [5.766744, 49.9160312], [5.7669724, 49.9161232], [5.7671933, 49.916218], [5.7672825, 49.9162646], [5.767775, 49.9166571], [5.7686538, 49.9171512], [5.7691074, 49.9173698], [5.7691727, 49.9174096], [5.769364, 49.9174997], [5.7695214, 49.9175686], [5.7697113, 49.9176378], [5.770326, 49.9177623], [5.7706156, 49.9178451], [5.7711419, 49.9180078], [5.7717184, 49.9181458], [5.7720523, 49.9182259], [5.7719058, 49.9188329], [5.7721514, 49.9188947], [5.772312, 49.9189426], [5.7725513, 49.9190178], [5.7725836, 49.9190274], [5.7727033, 49.9190769], [5.7727773, 49.9190954], [5.7728811, 49.9191345], [5.7729866, 49.919168], [5.7732256, 49.9192655], [5.7733769, 49.9193359], [5.7734628, 49.9193758], [5.7736924, 49.9192576], [5.7739048, 49.9191483], [5.7740875, 49.9190543], [5.7742791, 49.9189557], [5.7744305, 49.9188897], [5.7746611, 49.9187945], [5.7748046, 49.9186696], [5.7749377, 49.9185506], [5.7750919, 49.9184419], [5.7751887, 49.9183744], [5.775396, 49.9182548], [5.775609, 49.9181567], [5.7760499, 49.9181357], [5.7764644, 49.9181159], [5.7767591, 49.918118], [5.7769268, 49.9181196], [5.7771625, 49.9181218], [5.777691, 49.9181333], [5.7777445, 49.9181344], [5.7778275, 49.9181288], [5.7780331, 49.9181037], [5.7783661, 49.9180853], [5.7793976, 49.9181104], [5.7795104, 49.918112], [5.7795386, 49.9181123], [5.7798189, 49.9181152], [5.779858, 49.918117], [5.7800038, 49.9181176], [5.7802201, 49.9181184], [5.7802062, 49.918094], [5.7801957, 49.9180818], [5.7801696, 49.9180558], [5.7803128, 49.9178628], [5.7803788, 49.9178005], [5.7804582, 49.9177006], [5.7805049, 49.9176575], [5.7807379, 49.9177217], [5.7810824, 49.9178206], [5.7811754, 49.9178474], [5.7814158, 49.9179164], [5.7815639, 49.9179042], [5.7822224, 49.91785], [5.7826135, 49.9178352], [5.7829979, 49.9178411], [5.7833387, 49.9178463], [5.7838802, 49.9178817], [5.7842883, 49.9179195], [5.7845635, 49.9179449], [5.7848645, 49.9179769], [5.7850941, 49.9180013], [5.785358, 49.9180293], [5.7856831, 49.9180767], [5.7859535, 49.9181312], [5.7868956, 49.9183455], [5.7872816, 49.9184258], [5.7874387, 49.9184478], [5.7878121, 49.9184691], [5.7882254, 49.9184878], [5.7883406, 49.918493], [5.7884847, 49.9184926], [5.7885765, 49.9184924], [5.7887446, 49.9184828], [5.7889328, 49.9184721], [5.7895361, 49.9184278], [5.7900695, 49.9183759], [5.7904348, 49.9183201], [5.7913492, 49.9181595], [5.7917735, 49.9181079], [5.7918416, 49.9180996], [5.7918983, 49.9180927], [5.792068, 49.9180721], [5.792303, 49.9180435], [5.7923747, 49.9180348], [5.7924327, 49.9180563], [5.7925207, 49.9180889], [5.7927254, 49.9181646], [5.7928455, 49.9181999], [5.7929542, 49.9182318], [5.7930556, 49.9182566], [5.7932311, 49.9182997], [5.7932959, 49.9183146], [5.793615, 49.9183881], [5.7938875, 49.9184533], [5.7939837, 49.9184745], [5.7945287, 49.9185942], [5.7947466, 49.9186348], [5.7948799, 49.9186596], [5.7949725, 49.9186747], [5.7953316, 49.9187328], [5.7956908, 49.9187885], [5.7958618, 49.918815], [5.7959534, 49.918834], [5.7960406, 49.9188598], [5.7961821, 49.9189139], [5.7962478, 49.9189415], [5.79631, 49.9189677], [5.7965719, 49.919078], [5.796581, 49.919082], [5.796982, 49.9192559], [5.7970205, 49.9192726], [5.7971596, 49.9193337], [5.7973004, 49.9193956], [5.7975212, 49.9194927], [5.7976824, 49.9195569], [5.797692, 49.91956], [5.7978064, 49.9195979], [5.797957, 49.9196476], [5.79843, 49.9197845], [5.7986436, 49.9198452], [5.7987124, 49.9198647], [5.7987551, 49.9198769], [5.7989809, 49.919941], [5.7996956, 49.920144], [5.7998191, 49.920144], [5.8003798, 49.9200022], [5.8003998, 49.9199971], [5.8001776, 49.9196836], [5.8001627, 49.9196626], [5.8000912, 49.9195729], [5.8000668, 49.9195423], [5.7999316, 49.9193959], [5.7998298, 49.9192856], [5.7998224, 49.9192776], [5.799813, 49.9192362], [5.7998014, 49.9191854], [5.7997763, 49.9190751], [5.8000695, 49.9190703], [5.8001562, 49.9190758], [5.8002716, 49.9190897], [5.8004689, 49.9191232], [5.8006349, 49.9191514], [5.8007177, 49.9191673], [5.8008673, 49.9191959], [5.8009496, 49.9192144], [5.8010898, 49.9192601], [5.801231, 49.919306], [5.8013204, 49.9193351], [5.8014158, 49.9193661], [5.8015005, 49.9193934], [5.8016096, 49.9194284], [5.801704, 49.9194588], [5.8018117, 49.9194878], [5.8018417, 49.9194926], [5.8019119, 49.9195038], [5.8020256, 49.919524], [5.8020712, 49.9195366], [5.8021511, 49.9195588], [5.8022427, 49.9195779], [5.8023395, 49.9195844], [5.8024449, 49.9195806], [5.8025385, 49.9195694], [5.8025997, 49.9195654], [5.8026727, 49.919575], [5.8027508, 49.9195815], [5.8028163, 49.9195791], [5.8029302, 49.9195805], [5.803066, 49.9195966], [5.8032204, 49.9196221], [5.8033411, 49.9196285], [5.8034515, 49.919627], [5.8035091, 49.9196215], [5.8035454, 49.9196179], [5.803608, 49.9196119], [5.8037178, 49.9195929], [5.8038607, 49.9195735], [5.8039664, 49.919529], [5.8039919, 49.919526], [5.8040718, 49.9195252], [5.8041499, 49.9195244], [5.8042878, 49.9194998], [5.8044613, 49.9194784], [5.8044855, 49.919418], [5.8045474, 49.9193358], [5.8046168, 49.9192562], [5.8046613, 49.9192105], [5.8047244, 49.9191804], [5.804784, 49.9191639], [5.804932, 49.9191487], [5.8051313, 49.9190878], [5.8054236, 49.9189828], [5.8057763, 49.9188494], [5.805859, 49.9188232], [5.8058871, 49.9188143], [5.8060282, 49.918797], [5.8061082, 49.9187847], [5.8061475, 49.9187744], [5.8061891, 49.9187636], [5.8062334, 49.9187481], [5.806281, 49.9187409], [5.8063337, 49.91874], [5.8063744, 49.9187495], [5.806449, 49.9187769], [5.8065321, 49.9188032], [5.8065813, 49.9188128], [5.8066696, 49.9188193], [5.8068242, 49.9188302], [5.8069549, 49.9188536], [5.8072544, 49.9189124], [5.8074767, 49.9189642], [5.8078833, 49.9190765], [5.8080686, 49.9191277], [5.8080985, 49.9191186], [5.8082534, 49.9190714], [5.8083216, 49.9190435], [5.8083521, 49.9190457], [5.8084013, 49.9190562], [5.8084678, 49.9190272], [5.8085427, 49.919017], [5.8085921, 49.9189942], [5.8086638, 49.9189496], [5.8086997, 49.918931], [5.8087235, 49.9189289], [5.8087523, 49.9189332], [5.8087947, 49.9189521], [5.8088455, 49.9189752], [5.8088811, 49.9189858], [5.8089134, 49.9189848], [5.8089543, 49.9189755], [5.8089781, 49.9189652], [5.809019, 49.9189549], [5.8090564, 49.918954], [5.8091022, 49.9189645], [5.8091445, 49.9189918], [5.80919, 49.9190357], [5.8092169, 49.9190754], [5.8093087, 49.919083], [5.8093533, 49.9192501], [5.8094451, 49.9192514], [5.8095097, 49.9192453], [5.8095548, 49.9192303], [5.8097458, 49.9191538], [5.8096435, 49.9189594], [5.809727, 49.9189273], [5.8097986, 49.9188973], [5.8098293, 49.9188901], [5.8098514, 49.9188933], [5.8098903, 49.9189101], [5.8099124, 49.9189154], [5.8099447, 49.9189061], [5.8099926, 49.9188739], [5.8100164, 49.9188615], [5.8100402, 49.9188615], [5.8100673, 49.9188752], [5.8100774, 49.918893], [5.8100772, 49.918918], [5.810077, 49.918943], [5.8100956, 49.9189566], [5.8101228, 49.9189609], [5.8101415, 49.9189568], [5.8100258, 49.9186346], [5.8101584, 49.9186246], [5.8105076, 49.9186314], [5.8108426, 49.9186353], [5.810997, 49.9186371], [5.8111787, 49.9186543], [5.81143, 49.9186854], [5.8115098, 49.918695], [5.8115216, 49.9187065], [5.8117235, 49.9187309], [5.811698, 49.9186587], [5.811661, 49.9186011], [5.8116219, 49.918541], [5.811556, 49.9184566], [5.8115044, 49.9184028], [5.8114072, 49.9183336], [5.8111599, 49.9181701], [5.8110709, 49.9181111], [5.810945, 49.9179844], [5.8107456, 49.9178096], [5.8104812, 49.9175739], [5.8103645, 49.917467], [5.8103274, 49.9174171], [5.8102841, 49.9173672], [5.8101373, 49.9172582], [5.8100689, 49.9172159], [5.8098939, 49.9171305], [5.8098797, 49.9170794], [5.8098594, 49.9170155], [5.8098409, 49.9169835], [5.8097753, 49.9168531], [5.8096573, 49.9167762], [5.8096118, 49.9167454], [5.8095769, 49.9166853], [5.8095345, 49.9166527], [5.8094211, 49.9165259], [5.8093818, 49.9165016], [5.8093216, 49.9164784], [5.8092968, 49.9164605], [5.8092783, 49.9164323], [5.8092641, 49.9163889], [5.8092553, 49.9163129], [5.8092428, 49.9163002], [5.809214, 49.9162707], [5.809181, 49.9162272], [5.8091481, 49.916176], [5.8090964, 49.9161478], [5.8090654, 49.9161209], [5.8090614, 49.9160966], [5.8090637, 49.916066], [5.8090724, 49.9160175], [5.8090572, 49.9159632], [5.8090222, 49.9159083], [5.8089335, 49.9158122], [5.8088841, 49.9157444], [5.8088475, 49.9156863], [5.8088287, 49.9156562], [5.8088123, 49.9156166], [5.8088022, 49.9155744], [5.8088034, 49.915545], [5.8088061, 49.9154743], [5.8088067, 49.9153939], [5.8088027, 49.9153645], [5.8087759, 49.9153363], [5.8086662, 49.9152658], [5.8085918, 49.9152107], [5.808566, 49.9151832], [5.8085455, 49.9151384], [5.8085189, 49.9150822], [5.8085078, 49.9150712], [5.8084673, 49.915031], [5.808426, 49.91499], [5.8083848, 49.9149363], [5.8083571, 49.9149083], [5.8083353, 49.9148863], [5.8082858, 49.9148313], [5.8082465, 49.9148018], [5.8081896, 49.9147691], [5.8080992, 49.9147288], [5.8080569, 49.91471], [5.8079595, 49.9146688], [5.8078972, 49.9146533], [5.8077996, 49.9146364], [5.8076202, 49.9146141], [5.8074631, 49.9145945], [5.8073405, 49.914575], [5.8072492, 49.9145518], [5.807133, 49.9145169], [5.8068376, 49.9143992], [5.8065867, 49.9143078], [5.8065244, 49.9142974], [5.8064674, 49.9142952], [5.8063456, 49.9142905], [5.8062209, 49.9142812], [5.8061312, 49.9142694], [5.8060818, 49.914263], [5.8060111, 49.9142537], [5.8059613, 49.9142436], [5.8058294, 49.9142168], [5.8056833, 49.9141871], [5.8055741, 49.9141649], [5.8054869, 49.9141379], [5.8053569, 49.9140965], [5.805155, 49.9140321], [5.8050685, 49.9140024], [5.8048813, 49.9139381], [5.8047845, 49.9138955], [5.8046668, 49.9138436], [5.8045288, 49.9137796], [5.8040742, 49.9135687], [5.8040113, 49.9135401], [5.8039823, 49.9135269], [5.8038566, 49.9134697], [5.803497, 49.9133122], [5.8029518, 49.9130897], [5.8031186, 49.9128647], [5.8032174, 49.9127478], [5.8043329, 49.9120544], [5.8048035, 49.9116908], [5.805907, 49.9107925], [5.8068319, 49.9100105], [5.8078085, 49.9092413], [5.8080837, 49.9090079], [5.8083809, 49.9085973], [5.8086558, 49.908115], [5.808197, 49.907887], [5.8080998, 49.9078769], [5.8077882, 49.9077901], [5.8075984, 49.9077327], [5.8075237, 49.9077102], [5.8072893, 49.9076398], [5.8070694, 49.9075702], [5.8069723, 49.9075363], [5.8067828, 49.9074703], [5.8065634, 49.9073938], [5.8060636, 49.9072156], [5.8059943, 49.9071909], [5.8053617, 49.9069653], [5.8056924, 49.9067633], [5.8059258, 49.9066207], [5.8060235, 49.906561], [5.8063851, 49.90634], [5.8066297, 49.9061966], [5.8056745, 49.9058148], [5.8055631, 49.9057881], [5.8058526, 49.9052344], [5.80558, 49.9052002], [5.8054217, 49.9051804], [5.8052813, 49.9048737], [5.8052435, 49.9047708], [5.8052294, 49.9046495], [5.8052268, 49.9045606], [5.8052295, 49.9044908], [5.8052428, 49.9044152], [5.8052676, 49.9042749], [5.8053262, 49.9040373], [5.8054285, 49.9037063], [5.8054863, 49.9035413], [5.8055162, 49.9034562], [5.8056637, 49.9030938], [5.8058197, 49.9027471], [5.8060754, 49.9022638], [5.8061525, 49.9021369], [5.8056803, 49.9019583], [5.8056321, 49.9019401], [5.8055508, 49.9019093], [5.8053641, 49.9018387], [5.8051665, 49.9017671], [5.805131, 49.9017543], [5.8047234, 49.9016067], [5.8046301, 49.9015729], [5.8044868, 49.9018043], [5.8042879, 49.9021522], [5.8041836, 49.9023231], [5.8040578, 49.9024966], [5.8039237, 49.902448], [5.8037154, 49.9023724], [5.8032811, 49.9022149], [5.8033257, 49.9021341], [5.8033485, 49.9020926], [5.8031099, 49.9020161], [5.8029066, 49.901939], [5.8027739, 49.9018886], [5.8021874, 49.9017115], [5.8017047, 49.9015618], [5.8014736, 49.9014807], [5.8011934, 49.9013665], [5.8010374, 49.9012857], [5.8007993, 49.9011327], [5.8006992, 49.9010635], [5.8005218, 49.9009409], [5.8003694, 49.9008159], [5.8003012, 49.9007432], [5.8002651, 49.9006996], [5.8002545, 49.9006811], [5.8002524, 49.9006745], [5.8002785, 49.9006298], [5.8002893, 49.900618], [5.8003108, 49.9006115], [5.800358, 49.9006169], [5.8004243, 49.9006448], [5.8004948, 49.9006793], [5.8004672, 49.900497], [5.8004441, 49.900344], [5.8004305, 49.9002542], [5.8008165, 49.9002726], [5.8008992, 49.9002778], [5.8009924, 49.9002837], [5.8010739, 49.9002813], [5.8011555, 49.9002697], [5.8012612, 49.9002481], [5.8013081, 49.9002386], [5.8012795, 49.9001851], [5.8013818, 49.9001602], [5.8015354, 49.9001227], [5.8015882, 49.9001076], [5.801645, 49.9000914], [5.8018312, 49.9000536], [5.8018943, 49.9000408], [5.8020618, 49.9000124], [5.8022616, 49.899984], [5.8023518, 49.8999658], [5.802397, 49.8999462], [5.802451, 49.8999069], [5.8024767, 49.8998832], [5.802514, 49.8998489], [5.8025939, 49.8997837], [5.8026338, 49.8997623], [5.8027148, 49.8997294], [5.8027855, 49.8997031], [5.8028395, 49.8996726], [5.8029413, 49.8995959], [5.8030327, 49.8995238], [5.8028135, 49.8993802], [5.8026248, 49.899252], [5.8024986, 49.8991663], [5.8023463, 49.8990528], [5.8022482, 49.8989746], [5.8021834, 49.8989073], [5.8021542, 49.89887], [5.8020891, 49.8987468], [5.802054, 49.8986357], [5.802033, 49.8985354], [5.8020092, 49.8983816], [5.8019891, 49.8981569], [5.8020255, 49.8981246], [5.8027214, 49.8973253], [5.8024265, 49.8971666], [5.8023306, 49.8972626], [5.8018911, 49.8971409], [5.8013772, 49.8969987], [5.8016236, 49.896705], [5.8015419, 49.896677], [5.8014918, 49.8966598], [5.8014341, 49.8966401], [5.8014104, 49.8966319], [5.8013976, 49.8966275], [5.8013454, 49.8966096], [5.8012315, 49.8965706], [5.8009481, 49.8964734], [5.8008711, 49.896447], [5.8006966, 49.8963872], [5.8007421, 49.8963367], [5.8016804, 49.8952951], [5.8004808, 49.8947663], [5.8002229, 49.8946527], [5.8000988, 49.8945903], [5.8000488, 49.8945652], [5.7997758, 49.8944281], [5.7996435, 49.8943575], [5.799115, 49.8940757], [5.798852, 49.8939589], [5.7985659, 49.8938293], [5.7980268, 49.8934583], [5.7978233, 49.8933383], [5.7975543, 49.8931796], [5.7972838, 49.8930247], [5.797185, 49.8929703], [5.7971473, 49.8929496], [5.7970663, 49.8929118], [5.7968354, 49.892804], [5.79668, 49.8927307], [5.7965317, 49.8926607], [5.7964937, 49.8926428], [5.7963728, 49.8925857], [5.7964066, 49.8925684], [5.7954188, 49.8921951], [5.7949376, 49.8920168], [5.7943007, 49.8917809], [5.793456, 49.891466], [5.7930327, 49.8914028], [5.7930124, 49.8913998], [5.792797, 49.8913676], [5.7925918, 49.8913369], [5.7925204, 49.8913264], [5.7924583, 49.8913172], [5.792088, 49.8912622], [5.7925105, 49.8906401], [5.7913867, 49.8902974], [5.791563, 49.8900303], [5.7919534, 49.8894391], [5.7914584, 49.8893277], [5.7909495, 49.8892131], [5.7907446, 49.889167], [5.7905604, 49.8891256], [5.7906688, 49.888987], [5.7907968, 49.8888283], [5.7909147, 49.888682], [5.7909639, 49.888621], [5.7910448, 49.8885307], [5.7915228, 49.888093], [5.7921426, 49.8875292], [5.7921935, 49.8874829], [5.7920472, 49.8873881], [5.7919508, 49.8873257], [5.7918228, 49.8872428], [5.7917744, 49.8872114], [5.7916647, 49.8871404], [5.7915778, 49.8870863], [5.7913795, 49.8869629], [5.7913042, 49.886916], [5.7910574, 49.8867623], [5.7909736, 49.8867101], [5.7901952, 49.8864468], [5.7901305, 49.886425], [5.7890506, 49.8860597], [5.7889193, 49.8862387], [5.78818, 49.8872466], [5.7873397, 49.8870541], [5.7862355, 49.8867831], [5.7861618, 49.886765], [5.7859862, 49.886722], [5.7859225, 49.8867063], [5.785872, 49.8866944], [5.7858363, 49.8866859], [5.785809, 49.8866794], [5.7846615, 49.8864075], [5.7845273, 49.8863626], [5.784236, 49.8862441], [5.784067, 49.8861967], [5.7838217, 49.8861482], [5.7835737, 49.8861076], [5.7834904, 49.8860942], [5.7833929, 49.8860785], [5.7833438, 49.8860735], [5.7831911, 49.8860921], [5.7827154, 49.8861459], [5.782698, 49.8861479], [5.7826255, 49.8861561], [5.7825403, 49.8861626], [5.7824064, 49.8861728], [5.7823045, 49.8861805], [5.7822602, 49.8861831], [5.7821213, 49.8861914], [5.7820285, 49.886197], [5.7819607, 49.886201], [5.7819268, 49.8862031], [5.7818903, 49.8862065], [5.7815334, 49.8862399], [5.7812914, 49.8862621], [5.7808579, 49.886273], [5.7807895, 49.8862747], [5.7803731, 49.8862813], [5.7801778, 49.8862812], [5.7800796, 49.8862811], [5.7799323, 49.8862757], [5.7797926, 49.8862706], [5.779565, 49.8862651], [5.7794358, 49.8862472], [5.7793804, 49.8862372], [5.7793015, 49.8862153], [5.7787783, 49.886063], [5.7787629, 49.8860077], [5.7787036, 49.8857949], [5.7786603, 49.8856395], [5.7786512, 49.8856069], [5.7786456, 49.8855827], [5.7786183, 49.8854646], [5.7785959, 49.8853677], [5.778585, 49.8853057], [5.7785697, 49.8852184], [5.7785639, 49.8851117], [5.778567, 49.8850859], [5.7785734, 49.8850321], [5.7785958, 49.8849727], [5.7786708, 49.884813], [5.7787918, 49.8845668], [5.7788187, 49.884512], [5.7788864, 49.8843742], [5.778985, 49.8841423], [5.7789987, 49.8840869], [5.7789923, 49.8840545], [5.7789467, 49.8839828], [5.7788869, 49.8838996], [5.7788235, 49.8838629], [5.7787712, 49.8837965], [5.778514, 49.8835256], [5.7784337, 49.8834646], [5.77843, 49.8834864], [5.778106, 49.8837572], [5.7779343, 49.8838811], [5.7778365, 49.8838874], [5.7775337, 49.8839453], [5.7773369, 49.8839867], [5.7768081, 49.8840756], [5.776712, 49.8840948], [5.7766119, 49.8841148], [5.7764216, 49.8841529], [5.7758473, 49.8842694], [5.7757565, 49.8842833], [5.7756408, 49.8842971], [5.775345, 49.8843144], [5.7750671, 49.8843307], [5.7748768, 49.8843366], [5.7747123, 49.8843394], [5.7746065, 49.8843411], [5.7745235, 49.8843457], [5.7744358, 49.8843506], [5.7743548, 49.884355], [5.7738903, 49.8844102], [5.7734755, 49.8844765], [5.7732092, 49.8845264], [5.772885, 49.8845952], [5.7727052, 49.8846328], [5.7725483, 49.8846814], [5.7724047, 49.8847372], [5.7722012, 49.8848391], [5.7719975, 49.8849608], [5.7718321, 49.8850689], [5.7717838, 49.8851113], [5.7717336, 49.8851624], [5.7716311, 49.8852997], [5.7715097, 49.8854636], [5.7714449, 49.8855595], [5.7714131, 49.885644], [5.7713587, 49.8857804], [5.7713314, 49.8858513], [5.7712936, 49.8859134], [5.7712278, 49.886024], [5.771179, 49.8861112], [5.771046, 49.8864007], [5.7710117, 49.8864639], [5.7709524, 49.8865336], [5.7708843, 49.8865978], [5.7707529, 49.8866842], [5.7706063, 49.8867809], [5.7705543, 49.8868353], [5.7705309, 49.886868], [5.7705108, 49.8869345], [5.7705043, 49.8869667], [5.7705057, 49.8870137], [5.7705135, 49.8870438], [5.7705396, 49.8871171], [5.7706499, 49.8873249], [5.770607, 49.8873455], [5.770218, 49.8870876], [5.7701314, 49.8870217], [5.770064, 49.8869898], [5.7699718, 49.88696], [5.7699008, 49.8869467], [5.7696706, 49.8869355], [5.7692475, 49.8869264], [5.76889, 49.886935], [5.7687397, 49.8869471], [5.7686275, 49.8869598], [5.7683693, 49.8870037], [5.7682073, 49.887037], [5.7679792, 49.8870952], [5.7677822, 49.8871507], [5.7675325, 49.8872405], [5.7674683, 49.8872621], [5.7673543, 49.8872912], [5.7673503, 49.887348], [5.7673483, 49.8873687], [5.7673142, 49.8874112], [5.7672774, 49.887451], [5.7672254, 49.8875054], [5.7671448, 49.8875772], [5.7670981, 49.8876273], [5.7670265, 49.8876838], [5.7669657, 49.8877229], [5.7668423, 49.8877964], [5.7667933, 49.8878255], [5.7667075, 49.8878842], [5.7665876, 49.8879733], [5.7665429, 49.8879972], [5.7664877, 49.8880145], [5.7663059, 49.8880608], [5.7661375, 49.8881077], [5.7657825, 49.888243], [5.7657631, 49.8882277], [5.7656816, 49.8881859], [5.7655771, 49.8881353], [5.7655417, 49.8881188], [5.7655168, 49.8881154], [5.7654795, 49.8881186], [5.7654055, 49.8881429], [5.765377, 49.8881494], [5.7653379, 49.8881438], [5.7652811, 49.888125], [5.7651324, 49.8880524], [5.7649389, 49.8882297], [5.7649126, 49.8881816], [5.7648843, 49.888164], [5.7648524, 49.8881497], [5.7648115, 49.8881441], [5.7647279, 49.8881471], [5.7644522, 49.8881658], [5.7643428, 49.8881703], [5.763983, 49.8882423], [5.7638904, 49.8882561], [5.7638228, 49.888257], [5.7637196, 49.8882484], [5.7635758, 49.8882365], [5.7634905, 49.8882329], [5.7633739, 49.8882429], [5.7632938, 49.888259], [5.7631868, 49.8882957], [5.7628619, 49.8884442], [5.7627424, 49.8884918], [5.7622834, 49.888624], [5.7616324, 49.8888566], [5.761446, 49.8889209], [5.761323, 49.8889521], [5.7611609, 49.8889865], [5.760965, 49.8890229], [5.7608528, 49.8890422], [5.7607584, 49.8890659], [5.7606594, 49.8890989], [5.7602777, 49.8892417], [5.7601832, 49.8892719], [5.760103, 49.8892869], [5.7598485, 49.8893144], [5.7594169, 49.8893561], [5.7589782, 49.8894064], [5.7583766, 49.8894676], [5.7581293, 49.8894842], [5.7579817, 49.8894859], [5.7576697, 49.8894733], [5.7574191, 49.8894549], [5.7573586, 49.8894547], [5.7573408, 49.8894579], [5.7572998, 49.8894709], [5.757273, 49.8894872], [5.7572514, 49.8895166], [5.7570987, 49.8898071], [5.7568593, 49.8897298], [5.7568113, 49.8897242], [5.7567543, 49.8897338], [5.756692, 49.8897478], [5.7566563, 49.8897662], [5.7566026, 49.8898064], [5.7564501, 49.889961], [5.7563021, 49.8901128], [5.7560507, 49.8904046], [5.7559977, 49.8904585], [5.7559476, 49.8904954], [5.7557993, 49.8905866], [5.7559501, 49.890721], [5.7558158, 49.8907308], [5.7556814, 49.8907549], [5.7555459, 49.8907905], [5.7554103, 49.8908381], [5.7552034, 49.890916], [5.7550999, 49.8909593], [5.754915, 49.8910509], [5.7546885, 49.8911396], [5.7542443, 49.8912953], [5.7540919, 49.8913412], [5.7539591, 49.8913663], [5.7538897, 49.8913726], [5.7538434, 49.8913714], [5.7537707, 49.891358], [5.7537144, 49.891342], [5.7532943, 49.8914279], [5.7532051, 49.8914625], [5.7530379, 49.8914706], [5.7529802, 49.8913514], [5.7529772, 49.891305], [5.7529225, 49.8913023], [5.7523991, 49.89131], [5.7522604, 49.8913073], [5.7520569, 49.8912886], [5.7519396, 49.8912816], [5.7518435, 49.8912878], [5.7517083, 49.8912993], [5.7514975, 49.8913354], [5.7514892, 49.8913368], [5.7508295, 49.8914431], [5.7504252, 49.8915093], [5.7501339, 49.8915733], [5.7500078, 49.8916107], [5.7498397, 49.8916607], [5.7493048, 49.8918313], [5.7490417, 49.891916], [5.7486873, 49.8920566], [5.7485815, 49.8920985], [5.7485589, 49.8921075], [5.748418, 49.8921633], [5.7483593, 49.8921874], [5.7478675, 49.8923891], [5.7478174, 49.8924162], [5.7475718, 49.8926414], [5.7474652, 49.8927322], [5.7476015, 49.8928113], [5.7472107, 49.8930627], [5.7469368, 49.8932768], [5.7467764, 49.8934133], [5.7467333, 49.8934689], [5.7467115, 49.8935212], [5.7467147, 49.8935572], [5.7467338, 49.8936152], [5.7467556, 49.8936573], [5.7465296, 49.8936816], [5.7465026, 49.8937121], [5.7465042, 49.8937361], [5.7465693, 49.8938117], [5.7465904, 49.8938435], [5.7465865, 49.8938806], [5.7465755, 49.8940274], [5.7463785, 49.8941796], [5.7462808, 49.894164], [5.7461901, 49.8941647], [5.7459996, 49.8941881], [5.7458092, 49.894207], [5.7454062, 49.8942312], [5.7452744, 49.8942471], [5.7451942, 49.8942643], [5.7450819, 49.8942956], [5.7447679, 49.8944069], [5.7444001, 49.8945254], [5.7442174, 49.8945841], [5.7441284, 49.8946268], [5.7440176, 49.8946996], [5.7438622, 49.8948113], [5.7438234, 49.8948392], [5.7437906, 49.8948219], [5.7437761, 49.8948142], [5.7436159, 49.8948684], [5.7435334, 49.8948969], [5.7434536, 49.8949349], [5.7433938, 49.8949548], [5.7433484, 49.8949546], [5.7432783, 49.8949408], [5.7432372, 49.8949407], [5.7431746, 49.8949518], [5.7430908, 49.8949706], [5.7430269, 49.8949721], [5.7429645, 49.8949676], [5.7429247, 49.8949709], [5.7428805, 49.894996], [5.7427862, 49.8950723], [5.7427449, 49.8950905], [5.7427306, 49.8951061], [5.7427177, 49.8951217], [5.7426851, 49.8951225], [5.7426468, 49.8951206], [5.7425433, 49.8951124], [5.742505, 49.8950991], [5.7421599, 49.8950635], [5.7419472, 49.8950491], [5.7418757, 49.8950478], [5.7417224, 49.895064], [5.7413465, 49.8951175], [5.7412068, 49.8951316], [5.7409768, 49.8951391], [5.7408084, 49.8951322], [5.7406858, 49.8951245], [5.7402105, 49.8950668], [5.7397582, 49.8949961], [5.7393053, 49.8952866], [5.7390535, 49.8954666], [5.7386103, 49.8958094], [5.7384312, 49.8959483], [5.7381279, 49.8961636], [5.7380585, 49.8962099], [5.7379936, 49.8962421], [5.7378603, 49.8962897], [5.7375001, 49.8964002], [5.7370179, 49.8965348], [5.7369325, 49.8965701], [5.7368094, 49.8966292], [5.7367308, 49.8966571], [5.7364851, 49.89672], [5.7363606, 49.8967446], [5.7362609, 49.8967542], [5.7360855, 49.8967504], [5.7359766, 49.8967521], [5.735922, 49.8967655], [5.7358297, 49.8968038], [5.7357698, 49.896835], [5.7357252, 49.8968745]]]}}]}