{"type": "FeatureCollection", "features": [{"type": "Feature", "properties": {"name": "Matgesfeld", "kind": "park"}, "geometry": {"type": "Polygon", "coordinates": [[[5.9250902, 49.5070476], [5.9254364, 49.5070987], [5.9254687, 49.5070129], [5.9256457, 49.5070413], [5.925614, 49.5071249], [5.9256809, 49.5071348], [5.9258272, 49.5071746], [5.9260011, 49.5072112], [5.9260076, 49.5071497], [5.9258459, 49.5070788], [5.9254925, 49.5069389], [5.9255107, 49.5068785], [5.9251317, 49.5067805], [5.9251116, 49.5067237], [5.925047, 49.5066833], [5.924959, 49.5066724], [5.924876, 49.5066944], [5.924825, 49.5067423], [5.9248226, 49.5068005], [5.9248696, 49.5068501], [5.9248735, 49.5068866], [5.9246188, 49.5069064], [5.9246242, 49.5070431], [5.9244992, 49.5070231], [5.9245062, 49.5071328], [5.9250406, 49.5070928], [5.9250902, 49.5070476]]]}}]}