{"type": "FeatureCollection", "features": [{"type": "Feature", "properties": {"name": "Park Old Mine Train", "kind": "park"}, "geometry": {"type": "Polygon", "coordinates": [[[5.9243889, 49.5080318], [5.9243838, 49.5080657], [5.9244558, 49.5080707], [5.9244607, 49.5080361], [5.92447, 49.5079806], [5.9248133, 49.5080093], [5.9249461, 49.5080159], [5.9250782, 49.5080106], [5.9252123, 49.5079854], [5.9253504, 49.507941], [5.9254008, 49.5079246], [5.9254268, 49.5079161], [5.9253108, 49.5077912], [5.925331, 49.5077532], [5.9241938, 49.5079127], [5.9241622, 49.5079096], [5.9241334, 49.5078966], [5.9241129, 49.5079008], [5.9241669, 49.5079762], [5.9242031, 49.5080037], [5.9242554, 49.5080237], [5.9243889, 49.5080318]]]}}]}