{"type": "FeatureCollection", "features": [{"type": "Feature", "properties": {"name": "Réserve naturelle Dreckwiss", "kind": "nature_reserve"}, "geometry": {"type": "Polygon", "coordinates": [[[5.9000833, 49.5549208], [5.9004193, 49.5548715], [5.9006755, 49.5548116], [5.9009037, 49.5547354], [5.9013621, 49.554544], [5.9019136, 49.5543137], [5.9024219, 49.5540825], [5.9026743, 49.5539613], [5.90319, 49.5537124], [5.9040087, 49.553246], [5.9042402, 49.553176], [5.9055428, 49.5523958], [5.9060936, 49.5520659], [5.9062551, 49.551955], [5.9065133, 49.5517701], [5.9070275, 49.5513475], [5.9070832, 49.5513229], [5.9080213, 49.5507926], [5.9085826, 49.5504956], [5.909233, 49.550083], [5.9094436, 49.5500287], [5.9096079, 49.5499443], [5.9108672, 49.5488723], [5.9120627, 49.548406], [5.912274, 49.5482913], [5.9123025, 49.5482775], [5.9125835, 49.5481109], [5.91291, 49.5479087], [5.9142259, 49.5470632], [5.9145771, 49.5468591], [5.9153152, 49.5463371], [5.9149635, 49.5457135], [5.9143111, 49.5455736], [5.9141626, 49.5456513], [5.9137693, 49.5458569], [5.9132741, 49.5461601], [5.912821, 49.546204], [5.9127562, 49.5463399], [5.912718, 49.54642], [5.912176, 49.54666], [5.911806, 49.546688], [5.911257, 49.54668], [5.910738, 49.5467], [5.910101, 49.546707], [5.9083157, 49.546967], [5.9077587, 49.54714], [5.907728, 49.54714], [5.907713, 49.547108], [5.9077053, 49.547043], [5.9077206, 49.547005], [5.907709, 49.546955], [5.9076443, 49.546944], [5.9075794, 49.54695], [5.9075565, 49.546974], [5.907526, 49.54703], [5.9074383, 49.547104], [5.907423, 49.547134], [5.9074306, 49.547188], [5.9074154, 49.547203], [5.907385, 49.54722], [5.9073505, 49.54722], [5.9073086, 49.547207], [5.9072247, 49.547157], [5.9072056, 49.547153], [5.907194, 49.547165], [5.9072247, 49.547226], [5.9072285, 49.547295], [5.907213, 49.547314], [5.90716, 49.54733], [5.9071026, 49.547306], [5.9070644, 49.5473], [5.9070263, 49.547306], [5.907011, 49.54733], [5.907007, 49.547417], [5.906996, 49.547436], [5.9069653, 49.54746], [5.9069195, 49.547462], [5.9068127, 49.54741], [5.9067783, 49.547405], [5.9066906, 49.547405], [5.90666, 49.547417], [5.9065914, 49.547436], [5.906534, 49.547447], [5.9065, 49.54743], [5.9064884, 49.547398], [5.906496, 49.547333], [5.9064846, 49.54732], [5.9064465, 49.547306], [5.906389, 49.547314], [5.9063396, 49.547337], [5.906271, 49.54739], [5.9062176, 49.54741], [5.906191, 49.547405], [5.906168, 49.547382], [5.9061756, 49.547337], [5.906168, 49.54732], [5.9061375, 49.547306], [5.9060764, 49.547318], [5.9060116, 49.547318], [5.9059887, 49.547306], [5.9059277, 49.54725], [5.905878, 49.54724], [5.9058285, 49.547237], [5.9057865, 49.547207], [5.905733, 49.54718], [5.905676, 49.547184], [5.9056377, 49.547215], [5.90563, 49.54723], [5.9056324, 49.5472393], [5.9056144, 49.5472323], [5.9055654, 49.5472221], [5.9054524, 49.5472101], [5.9046967, 49.5472317], [5.9045834, 49.547246], [5.9044882, 49.5472734], [5.9044258, 49.5473161], [5.9041895, 49.5473185], [5.9041584, 49.5469904], [5.90399, 49.5469891], [5.8993068, 49.5469661], [5.8991164, 49.5469632], [5.8986243, 49.5470075], [5.8973909, 49.5470036], [5.8971623, 49.5470073], [5.8979899, 49.5486234], [5.8986725, 49.5500173], [5.8987124, 49.5501344], [5.8987948, 49.5503765], [5.8988938, 49.550837], [5.8989461, 49.5512502], [5.8989823, 49.5512755], [5.898974, 49.5515111], [5.8989611, 49.551808], [5.8988252, 49.5536977], [5.8988088, 49.5537904], [5.8984364, 49.554448], [5.8983719, 49.5547299], [5.898396, 49.5547717], [5.8985534, 49.5548704], [5.8987895, 49.5549223], [5.9000833, 49.5549208]]]}}]}