{"type": "FeatureCollection", "features": [{"type": "Feature", "properties": {"name": "Dellen"}, "geometry": {"type": "Polygon", "coordinates": [[[5.9743297, 49.8471631], [5.9744972, 49.8474237], [5.9745026, 49.8474321], [5.9741439, 49.8475058], [5.9741123, 49.8475552], [5.973948, 49.8476192], [5.9735405, 49.84786], [5.9731692, 49.8480385], [5.9727346, 49.8482628], [5.9719515, 49.8484915], [5.9715739, 49.8487738], [5.9704692, 49.8493891], [5.9701033, 49.8495793], [5.969784, 49.8497322], [5.9696831, 49.8497549], [5.9693145, 49.8499331], [5.9689396, 49.8500907], [5.9685221, 49.8503224], [5.9681298, 49.8505354], [5.9680691, 49.8505826], [5.9679084, 49.8506281], [5.9677572, 49.8506422], [5.9676801, 49.850701], [5.967573, 49.8508584], [5.9672976, 49.8511036], [5.9671754, 49.8511412], [5.96642, 49.8514026], [5.965951, 49.8512767], [5.9655018, 49.8513998], [5.9649229, 49.8515553], [5.9645528, 49.8516247], [5.9641143, 49.8517069], [5.9638918, 49.8517259], [5.9638753, 49.8517337], [5.9638183, 49.8517607], [5.9637849, 49.851746], [5.9635302, 49.8516339], [5.9634734, 49.8516089], [5.9633502, 49.8516382], [5.9631683, 49.8516079], [5.9625611, 49.8515014], [5.9623182, 49.851465], [5.9616682, 49.8513456], [5.9616446, 49.8513413], [5.9616302, 49.8513413], [5.9616459, 49.8513919], [5.9616688, 49.8515514], [5.9616613, 49.8518489], [5.9616381, 49.8520068], [5.961475, 49.852539], [5.9614251, 49.8526699], [5.9613294, 49.8528757], [5.9612292, 49.8530912], [5.9612207, 49.853108], [5.961177, 49.8531301], [5.9611309, 49.8531705], [5.9609077, 49.8533664], [5.9608262, 49.8534378], [5.9605199, 49.8536919], [5.9604071, 49.853796], [5.9602587, 49.8539663], [5.9603752, 49.8540329], [5.9605566, 49.8541329], [5.9605037, 49.8541759], [5.9604392, 49.8542537], [5.9603515, 49.8542658], [5.9603171, 49.8542685], [5.9602916, 49.854277], [5.9602585, 49.854288], [5.9600102, 49.8543394], [5.9599712, 49.8543475], [5.9598819, 49.8544118], [5.9597881, 49.8544235], [5.9593673, 49.8544929], [5.9592677, 49.8545291], [5.9592361, 49.8545285], [5.9592032, 49.8544677], [5.9591134, 49.8543018], [5.9587166, 49.8543304], [5.9583485, 49.8543328], [5.9580358, 49.8543664], [5.9577529, 49.8543615], [5.9572412, 49.854331], [5.9566972, 49.8542615], [5.9563484, 49.8542286], [5.9559295, 49.8542265], [5.9555861, 49.8542276], [5.9554812, 49.8542619], [5.9553556, 49.8543212], [5.955098, 49.8544407], [5.9549198, 49.8545436], [5.9544747, 49.8548325], [5.9544061, 49.8548867], [5.9543339, 49.8549437], [5.9542113, 49.8550464], [5.9541439, 49.8550901], [5.9541157, 49.8551084], [5.9537837, 49.8553207], [5.9534248, 49.8555502], [5.9532369, 49.8554664], [5.9530814, 49.8555513], [5.9528395, 49.8556392], [5.9526214, 49.8557433], [5.9523489, 49.8559018], [5.9521441, 49.8560394], [5.9520229, 49.8561287], [5.9518468, 49.8560762], [5.9517743, 49.8560546], [5.9516412, 49.8560149], [5.9515391, 49.8559803], [5.9512354, 49.8558773], [5.9508656, 49.8561909], [5.9505396, 49.8564794], [5.9501911, 49.8567961], [5.9498862, 49.8569936], [5.9498086, 49.8570444], [5.9498203, 49.8571177], [5.9495971, 49.8569932], [5.9491995, 49.8567292], [5.9490978, 49.8566766], [5.9489143, 49.8565977], [5.9486599, 49.8564988], [5.9486234, 49.8565423], [5.9460054, 49.8593618], [5.945539, 49.8592248], [5.9454753, 49.8592059], [5.9440218, 49.8587782], [5.9441248, 49.8586303], [5.9438313, 49.8585872], [5.9435441, 49.8585654], [5.9429209, 49.8585006], [5.9423065, 49.858426], [5.9416768, 49.858308], [5.9413029, 49.858238], [5.9410895, 49.8582077], [5.9408376, 49.8582006], [5.9405822, 49.8581858], [5.9403615, 49.8582044], [5.9401505, 49.8582358], [5.9397688, 49.8582905], [5.9396216, 49.8583256], [5.9393047, 49.8583885], [5.9390738, 49.8584261], [5.9388895, 49.8584506], [5.9387051, 49.8584752], [5.93842, 49.8585219], [5.938006, 49.8585158], [5.9375479, 49.8585091], [5.937365, 49.8585063], [5.9370784, 49.8585169], [5.9360641, 49.8585901], [5.9359946, 49.8586044], [5.9359146, 49.8586239], [5.9358498, 49.8586487], [5.935838, 49.8586532], [5.9357012, 49.8587206], [5.935617, 49.858762], [5.9354158, 49.8588424], [5.9351805, 49.8589683], [5.9351681, 49.8589749], [5.9350784, 49.8590255], [5.9346434, 49.8592707], [5.9345097, 49.8593564], [5.9341154, 49.8596089], [5.9340006, 49.8596824], [5.9338775, 49.8597764], [5.9337561, 49.8598754], [5.9337233, 49.8599066], [5.9334791, 49.860139], [5.9334079, 49.8602158], [5.9332572, 49.8603781], [5.9331583, 49.8604846], [5.9328174, 49.8608684], [5.9327791, 49.8609059], [5.9325945, 49.8610867], [5.9321814, 49.8614913], [5.9317783, 49.8618861], [5.9317117, 49.8619514], [5.931695, 49.8619676], [5.931605, 49.8620508], [5.9314112, 49.8622298], [5.9312593, 49.8623702], [5.9310023, 49.862666], [5.9309532, 49.862736], [5.9308352, 49.8629043], [5.9307263, 49.8630596], [5.9307177, 49.8632907], [5.9307003, 49.8634751], [5.9305675, 49.8640489], [5.930441, 49.8644918], [5.9305242, 49.8648587], [5.9303896, 49.8649571], [5.9302864, 49.8650432], [5.9302833, 49.865046], [5.9301899, 49.865131], [5.9301603, 49.8651706], [5.9301839, 49.8652871], [5.9302044, 49.865354], [5.9302579, 49.8654654], [5.9304219, 49.8656699], [5.9305166, 49.8657567], [5.9305911, 49.8659288], [5.9309207, 49.8658297], [5.9310187, 49.8659688], [5.9310355, 49.8660552], [5.9311171, 49.8662529], [5.9313262, 49.8666815], [5.9313668, 49.8667617], [5.9314824, 49.8668835], [5.9317217, 49.8670326], [5.9319261, 49.8671569], [5.9324642, 49.8668856], [5.9326496, 49.8670477], [5.9328772, 49.8672106], [5.9331253, 49.8672778], [5.9333029, 49.8672913], [5.9333662, 49.8673304], [5.9333914, 49.8673651], [5.9334394, 49.8673984], [5.9336202, 49.8674895], [5.9338621, 49.867645], [5.9338922, 49.8676813], [5.9339225, 49.8676992], [5.9339496, 49.8677327], [5.9343028, 49.8679965], [5.9346304, 49.8683076], [5.9347425, 49.8684188], [5.9347326, 49.868423], [5.9346396, 49.868462], [5.9352161, 49.869001], [5.9352265, 49.8690147], [5.9354303, 49.8692811], [5.935531, 49.8693702], [5.9356701, 49.8694811], [5.9357383, 49.8695419], [5.9359537, 49.8697608], [5.9361817, 49.8699999], [5.9365616, 49.8703135], [5.9368338, 49.8702828], [5.9372182, 49.8702394], [5.9372492, 49.8702359], [5.9373297, 49.8702722], [5.9375266, 49.8703609], [5.9381001, 49.8705139], [5.9384176, 49.8705425], [5.9386751, 49.870541], [5.939184, 49.8705251], [5.9395574, 49.8705019], [5.9398003, 49.8704774], [5.9402714, 49.8703259], [5.9405911, 49.8702655], [5.9412444, 49.8702321], [5.9414163, 49.8702189], [5.9415514, 49.8702331], [5.9419548, 49.8702134], [5.9429443, 49.8702925], [5.943197, 49.8703298], [5.9437858, 49.8704444], [5.9438497, 49.8704569], [5.9439266, 49.8704301], [5.9439487, 49.8704224], [5.9440437, 49.8704675], [5.94434, 49.8705035], [5.9454012, 49.870673], [5.9456554, 49.8706848], [5.9459502, 49.8706756], [5.9464071, 49.8706315], [5.9467733, 49.8705802], [5.9471415, 49.8705364], [5.9473756, 49.8705085], [5.9474814, 49.8704848], [5.9475396, 49.8704718], [5.9477476, 49.8704006], [5.9478522, 49.8703851], [5.9480481, 49.8703713], [5.9481595, 49.8703022], [5.9482515, 49.8702648], [5.9484969, 49.8701781], [5.9488188, 49.8700353], [5.9491478, 49.8698893], [5.9492426, 49.8698447], [5.9493335, 49.8697983], [5.949452, 49.8697237], [5.9497895, 49.8694653], [5.94993, 49.8693749], [5.9501444, 49.8692512], [5.9502495, 49.8692019], [5.950363, 49.8691536], [5.950563, 49.8691025], [5.9512635, 49.8690221], [5.9515313, 49.8689788], [5.9520927, 49.8689053], [5.9524217, 49.868858], [5.952622, 49.8688224], [5.9527894, 49.8687926], [5.9530872, 49.8687591], [5.9538559, 49.8686615], [5.9540891, 49.8686471], [5.9543447, 49.8686059], [5.954448, 49.8685905], [5.9547241, 49.8685048], [5.9547038, 49.8685012], [5.955212, 49.8683436], [5.9552941, 49.8682976], [5.955948, 49.8679314], [5.9559588, 49.8679373], [5.9561068, 49.8678198], [5.9562647, 49.8677097], [5.9563866, 49.8676011], [5.9565481, 49.8674321], [5.9566902, 49.8673114], [5.9569585, 49.8671758], [5.9568509, 49.866979], [5.9568343, 49.8669487], [5.9568296, 49.8669402], [5.9568842, 49.8669242], [5.9569485, 49.866805], [5.9571777, 49.8665845], [5.9578754, 49.8663784], [5.9580788, 49.8663813], [5.9581091, 49.866377], [5.9581207, 49.8663891], [5.9581479, 49.8664176], [5.95826, 49.8665352], [5.9582842, 49.8665449], [5.958317, 49.8665459], [5.9585269, 49.8664989], [5.9585511, 49.8665007], [5.9587465, 49.8664923], [5.958959, 49.8664831], [5.9591102, 49.8664816], [5.9592514, 49.8664722], [5.9593184, 49.8664741], [5.959276, 49.8663024], [5.9592724, 49.8662877], [5.959339, 49.866259], [5.9595765, 49.8662616], [5.9601715, 49.8662351], [5.9604188, 49.8662781], [5.9606888, 49.8662852], [5.9607502, 49.8662509], [5.9608133, 49.8662155], [5.9610357, 49.8661225], [5.9611519, 49.8659526], [5.961749, 49.8658156], [5.9618689, 49.8657399], [5.9624294, 49.8657279], [5.9628335, 49.865693], [5.962836, 49.8657044], [5.9628354, 49.8657067], [5.962915, 49.8661924], [5.9632289, 49.8661544], [5.9635384, 49.8661015], [5.963711, 49.8660721], [5.9638569, 49.8660338], [5.9638679, 49.8661074], [5.9638926, 49.8662728], [5.964207, 49.8666167], [5.9641922, 49.8665484], [5.9641868, 49.8664801], [5.964197, 49.8664267], [5.9642187, 49.8663654], [5.9642633, 49.8662752], [5.9643135, 49.8661894], [5.9643609, 49.8661203], [5.9644397, 49.8660206], [5.9645514, 49.8659034], [5.9647619, 49.865704], [5.9648707, 49.8656008], [5.9651864, 49.8650768], [5.9652467, 49.8650431], [5.9652704, 49.8650211], [5.9652705, 49.8649898], [5.9652471, 49.8649525], [5.9652106, 49.8649237], [5.9651498, 49.8648897], [5.9652695, 49.8646783], [5.9654346, 49.8642722], [5.965597, 49.8639679], [5.9656374, 49.8638963], [5.9657049, 49.8637531], [5.9657513, 49.8636731], [5.965772, 49.8636361], [5.9660254, 49.8632604], [5.9661031, 49.8631671], [5.9661582, 49.8629637], [5.9662379, 49.8628206], [5.9664439, 49.8625546], [5.966682, 49.862297], [5.966769, 49.8623354], [5.9668877, 49.8621447], [5.9669063, 49.8620793], [5.9670463, 49.8615885], [5.9671458, 49.8613311], [5.9672122, 49.861077], [5.9671755, 49.8610642], [5.9672643, 49.8609677], [5.9675312, 49.860807], [5.9676937, 49.8607092], [5.9680449, 49.8605746], [5.9680983, 49.8605597], [5.968591, 49.8604213], [5.9688017, 49.8603621], [5.9691174, 49.8602684], [5.9693017, 49.8602136], [5.9694619, 49.8601701], [5.9696535, 49.8601285], [5.9700126, 49.8600701], [5.9702107, 49.8600519], [5.970417, 49.8600386], [5.9706047, 49.8600443], [5.9707903, 49.8600634], [5.9709726, 49.8601045], [5.971163, 49.8601457], [5.9714586, 49.8601891], [5.9716576, 49.8602428], [5.9718856, 49.8603151], [5.9721913, 49.8603968], [5.9727963, 49.8605146], [5.9730722, 49.8605601], [5.9732015, 49.8605788], [5.9733639, 49.8606022], [5.9736386, 49.8606405], [5.9745143, 49.8607626], [5.9745797, 49.8607165], [5.9751321, 49.8609186], [5.975051, 49.8608399], [5.9749945, 49.8607045], [5.9752706, 49.8604768], [5.9756415, 49.860285], [5.9758634, 49.8601319], [5.9760412, 49.859934], [5.9762842, 49.8596866], [5.9763737, 49.8595023], [5.9764701, 49.8591761], [5.9765014, 49.8590124], [5.9765484, 49.8588557], [5.976354, 49.8588311], [5.9762862, 49.8588225], [5.975924, 49.8587766], [5.975932, 49.858636], [5.9759638, 49.8584616], [5.975987, 49.8583705], [5.9759966, 49.8583328], [5.97601, 49.8582202], [5.9761209, 49.8580343], [5.976226, 49.8578921], [5.9762365, 49.8578782], [5.9762813, 49.8578187], [5.9763018, 49.8577544], [5.9763729, 49.8576287], [5.9763871, 49.8576041], [5.9764269, 49.8574833], [5.9764325, 49.8574785], [5.9766164, 49.8573228], [5.9766524, 49.8572988], [5.9767452, 49.8572372], [5.9768838, 49.8571627], [5.976888, 49.8571604], [5.9770561, 49.8570762], [5.9773678, 49.8568595], [5.9773861, 49.8568441], [5.9775119, 49.8567385], [5.9776562, 49.8565854], [5.9777221, 49.856451], [5.9777356, 49.8564234], [5.9778746, 49.8561266], [5.9779062, 49.856059], [5.9779962, 49.8557608], [5.9780181, 49.8556452], [5.9780568, 49.85543], [5.9779577, 49.8553237], [5.9778031, 49.8551818], [5.977765, 49.8551688], [5.9775007, 49.8551173], [5.9772003, 49.8551087], [5.9774475, 49.8550007], [5.9778289, 49.854834], [5.9778433, 49.8548277], [5.9781654, 49.8547318], [5.9783279, 49.8546492], [5.9784728, 49.8545754], [5.9787556, 49.8544638], [5.9788426, 49.8544595], [5.9789358, 49.8543925], [5.9790543, 49.8543048], [5.9790958, 49.8542233], [5.9791425, 49.8541322], [5.9792172, 49.8539865], [5.9792671, 49.8538915], [5.9793159, 49.8537987], [5.9794495, 49.853579], [5.9794683, 49.8535479], [5.9796162, 49.8533724], [5.9796892, 49.8533119], [5.9797225, 49.8532824], [5.9797254, 49.8532798], [5.9798664, 49.8531894], [5.980055, 49.85309], [5.9801868, 49.8529957], [5.9802999, 49.8529148], [5.9804041, 49.8528313], [5.9806385, 49.8526932], [5.9808787, 49.8526312], [5.980924, 49.8526346], [5.9809638, 49.8526272], [5.9810632, 49.852592], [5.9810896, 49.8525841], [5.9811509, 49.8525775], [5.9812341, 49.8525622], [5.9813088, 49.8525359], [5.981371, 49.8525023], [5.9814404, 49.8524547], [5.9814635, 49.8524547], [5.9817081, 49.8524317], [5.9821597, 49.8526737], [5.9826945, 49.8529618], [5.9825804, 49.8528443], [5.9825325, 49.852771], [5.9824912, 49.8526875], [5.9824796, 49.8526463], [5.9824844, 49.8526118], [5.9825094, 49.8525687], [5.9825336, 49.8525399], [5.9825878, 49.8524905], [5.98269, 49.8524238], [5.9830291, 49.8522016], [5.9832592, 49.8520387], [5.9832303, 49.8520212], [5.983669, 49.8517688], [5.9838524, 49.8516473], [5.9840538, 49.8515151], [5.984266, 49.8513628], [5.9843741, 49.8512792], [5.9845061, 49.8511704], [5.9847172, 49.8509891], [5.9849212, 49.8507468], [5.9850366, 49.8506687], [5.9852226, 49.8504182], [5.9853836, 49.8501795], [5.9853863, 49.8501478], [5.9854333, 49.850163], [5.9857893, 49.8497908], [5.9860261, 49.8494657], [5.9860933, 49.8493405], [5.9861024, 49.8493234], [5.9861377, 49.8492577], [5.986197, 49.8491489], [5.9862109, 49.8491232], [5.9862188, 49.8491089], [5.9862678, 49.8490188], [5.986299, 49.8489617], [5.9863417, 49.8488906], [5.9863863, 49.8488167], [5.9864185, 49.8487731], [5.9864783, 49.8486215], [5.9864976, 49.8485288], [5.9865072, 49.8484827], [5.9865161, 49.8484398], [5.9865426, 49.84835], [5.9865997, 49.8482388], [5.9867781, 49.8479705], [5.9867319, 49.8478632], [5.9867119, 49.8478135], [5.9867053, 49.8478044], [5.9867513, 49.8478086], [5.9868158, 49.8478143], [5.98692, 49.8477779], [5.9869173, 49.8477252], [5.9870882, 49.8474357], [5.9871184, 49.847368], [5.9871269, 49.847305], [5.9871199, 49.8472512], [5.9871178, 49.8471955], [5.9871461, 49.8470641], [5.9871935, 49.8470116], [5.9872576, 49.8469652], [5.9872925, 49.8469166], [5.9873114, 49.8468682], [5.9873071, 49.8468395], [5.9873005, 49.8468123], [5.9871649, 49.8466603], [5.987144, 49.8463013], [5.9872428, 49.8460594], [5.9872822, 49.8456647], [5.9866522, 49.845621], [5.9866308, 49.8456195], [5.9866127, 49.8452753], [5.9865919, 49.845276], [5.9862502, 49.8452872], [5.9862653, 49.8454413], [5.9861945, 49.8457704], [5.9861095, 49.8458751], [5.9860247, 49.8459269], [5.9859791, 49.8459314], [5.985937, 49.8459356], [5.9858504, 49.8460421], [5.9858085, 49.846113], [5.9857786, 49.8461785], [5.9857445, 49.8461806], [5.9854651, 49.8461878], [5.9853908, 49.8461911], [5.9852196, 49.8461962], [5.9852106, 49.8461842], [5.9849871, 49.8459196], [5.9846957, 49.8459826], [5.98461, 49.8457497], [5.9846161, 49.8456718], [5.9846057, 49.8456458], [5.9844807, 49.8456613], [5.9843538, 49.8456735], [5.9842393, 49.8456802], [5.9841638, 49.8456793], [5.9840837, 49.8456745], [5.983986, 49.8456638], [5.9838818, 49.845645], [5.9837676, 49.8456199], [5.9836321, 49.8455814], [5.9834655, 49.8455199], [5.9834508, 49.8455349], [5.9831341, 49.8456456], [5.9829842, 49.8456957], [5.9826989, 49.8457788], [5.9824845, 49.8458281], [5.9822436, 49.8458742], [5.9820924, 49.8459009], [5.9822066, 49.8461369], [5.9821195, 49.8461566], [5.9818672, 49.8461621], [5.9815749, 49.8461611], [5.9813098, 49.8461495], [5.9810652, 49.8461388], [5.9806108, 49.8461135], [5.9797369, 49.8461959], [5.9796793, 49.8461996], [5.9789092, 49.8462478], [5.9788357, 49.8462552], [5.9787712, 49.8462617], [5.9786998, 49.846136], [5.9780243, 49.8462841], [5.9779833, 49.8462931], [5.9776259, 49.8463887], [5.977469, 49.8464512], [5.977434, 49.8464675], [5.9771292, 49.8466092], [5.9770673, 49.8466294], [5.9768697, 49.8466873], [5.9767866, 49.8467116], [5.9766829, 49.8467459], [5.9766326, 49.8467611], [5.9765379, 49.8467898], [5.9764218, 49.8468119], [5.9764047, 49.8468141], [5.9763415, 49.8468223], [5.9762439, 49.8468218], [5.976172, 49.8468281], [5.9761186, 49.8468328], [5.9758885, 49.8468716], [5.9758197, 49.8468898], [5.9757336, 49.8469125], [5.9755278, 49.8469668], [5.9754839, 49.8469784], [5.975316, 49.8470519], [5.9751006, 49.8471145], [5.9749558, 49.8471405], [5.9747576, 49.8471602], [5.9745804, 49.8471656], [5.9744022, 49.8471639], [5.9743297, 49.8471631]]]}}]}