{"type": "FeatureCollection", "features": [{"type": "Feature", "properties": {"name": "Grosbous"}, "geometry": {"type": "Polygon", "coordinates": [[[5.9859512, 49.8169413], [5.9859432, 49.8169214], [5.9859361, 49.8168747], [5.9859331, 49.8168382], [5.9859296, 49.816816], [5.9859206, 49.8168049], [5.9859026, 49.8167984], [5.9858783, 49.8167896], [5.9858495, 49.8167744], [5.9858414, 49.816761], [5.985828, 49.8167241], [5.9858142, 49.8166783], [5.9857971, 49.8166561], [5.9857863, 49.8166455], [5.9857467, 49.8166244], [5.9857089, 49.8166069], [5.9856946, 49.8165917], [5.9856752, 49.8165668], [5.9856618, 49.8165563], [5.9856375, 49.8165405], [5.9856312, 49.81653], [5.9856223, 49.8165113], [5.9856117, 49.8165026], [5.9855944, 49.8164884], [5.9855827, 49.8164738], [5.9855818, 49.8164598], [5.9855775, 49.8164084], [5.9855754, 49.8163777], [5.9855691, 49.8163649], [5.9855485, 49.8163368], [5.9855233, 49.8163105], [5.9855017, 49.8162935], [5.9854801, 49.816283], [5.9854234, 49.8162578], [5.9853973, 49.8162414], [5.9853802, 49.8162203], [5.9853722, 49.8161964], [5.9853638, 49.8161645], [5.9853476, 49.8161423], [5.985326, 49.8161248], [5.9852698, 49.8160818], [5.98504, 49.815987], [5.9849743, 49.8159625], [5.9849508, 49.8159442], [5.9849392, 49.8159031], [5.9849252, 49.8158772], [5.9849064, 49.8158634], [5.9848735, 49.8158573], [5.984843, 49.8158481], [5.9848196, 49.8158206], [5.9847892, 49.8157521], [5.9847484, 49.815672], [5.9847391, 49.81564], [5.9847252, 49.8155654], [5.9846995, 49.8155303], [5.9845517, 49.8154204], [5.9845189, 49.8153869], [5.984512, 49.8153472], [5.9845428, 49.815297], [5.9845523, 49.8152651], [5.9845465, 49.8152262], [5.984549, 49.8151973], [5.9845327, 49.8151577], [5.9845352, 49.8151196], [5.9845778, 49.8150542], [5.9846369, 49.8149751], [5.9846653, 49.814934], [5.9846913, 49.8148868], [5.9847104, 49.8148198], [5.9847153, 49.8147741], [5.9846931, 49.8147292], [5.9846579, 49.8146895], [5.9846393, 49.8146453], [5.9846254, 49.8145935], [5.9846255, 49.8145554], [5.9846399, 49.814496], [5.9846377, 49.8144519], [5.9846144, 49.8143985], [5.9846051, 49.8143574], [5.9846099, 49.8143239], [5.9846242, 49.8142874], [5.984622, 49.8142371], [5.9846081, 49.8141944], [5.9846082, 49.8141609], [5.9846201, 49.8141274], [5.9846413, 49.8141031], [5.9846556, 49.8140681], [5.9846534, 49.8140346], [5.9846582, 49.8139995], [5.9846678, 49.8139569], [5.9846879, 49.8139105], [5.9846762, 49.8138922], [5.9846552, 49.8138708], [5.9846446, 49.8138563], [5.98464, 49.8138335], [5.9846309, 49.8137512], [5.9846099, 49.8137238], [5.984563, 49.8136795], [5.9845164, 49.8135683], [5.9844907, 49.8135149], [5.9844581, 49.8134113], [5.9844325, 49.813358], [5.9843658, 49.8132566], [5.9843546, 49.8131119], [5.9843307, 49.812953], [5.984315, 49.812892], [5.9842921, 49.8128407], [5.9842476, 49.8127856], [5.9838277, 49.8128366], [5.9831368, 49.8129167], [5.9828725, 49.8129496], [5.9819985, 49.8130395], [5.9819503, 49.8130445], [5.9819023, 49.8130198], [5.9818529, 49.8130041], [5.9817795, 49.8129843], [5.9817364, 49.8129719], [5.9817035, 49.8129678], [5.9816782, 49.8129669], [5.9816484, 49.8129763], [5.9815887, 49.8129902], [5.9815621, 49.8129918], [5.9815393, 49.8129885], [5.9815115, 49.8129753], [5.9814951, 49.8129629], [5.981432, 49.8128824], [5.9814093, 49.8128709], [5.98137, 49.8128626], [5.9813181, 49.8128585], [5.9812788, 49.812851], [5.9812358, 49.8128362], [5.9811852, 49.8128074], [5.9811473, 49.8127925], [5.9811055, 49.81279], [5.9810681, 49.8127969], [5.9809844, 49.8128091], [5.9809387, 49.8128197], [5.9808703, 49.812813], [5.9808184, 49.8128162], [5.9807803, 49.8128252], [5.980722, 49.8128349], [5.980584, 49.8128085], [5.9805181, 49.8128059], [5.9804661, 49.8128107], [5.9803806, 49.81282], [5.9803211, 49.8128101], [5.9802438, 49.8128042], [5.9801209, 49.8128073], [5.9800271, 49.8128137], [5.9799358, 49.8128275], [5.9798724, 49.8128233], [5.9798395, 49.8128249], [5.9797647, 49.8128436], [5.979705, 49.8128583], [5.9796854, 49.8128562], [5.9796196, 49.8128446], [5.9795917, 49.8128454], [5.9795258, 49.8128519], [5.9795004, 49.8128502], [5.9794206, 49.8128256], [5.9793992, 49.8128231], [5.9793543, 49.8128303], [5.9793129, 49.8128326], [5.9792889, 49.8128276], [5.9792279, 49.8128078], [5.9791863, 49.8128019], [5.9791449, 49.8128026], [5.9790602, 49.8128211], [5.9789774, 49.8128416], [5.9789423, 49.8128439], [5.9788594, 49.812842], [5.9788278, 49.8128362], [5.9788049, 49.8128271], [5.9787446, 49.8127918], [5.9787244, 49.8127884], [5.9786969, 49.8127916], [5.9786783, 49.8127981], [5.9786635, 49.812807], [5.9786233, 49.8128412], [5.9785769, 49.8128753], [5.9785584, 49.8128834], [5.9785196, 49.8128865], [5.9784781, 49.8128856], [5.9784545, 49.812892], [5.9784385, 49.812901], [5.9784039, 49.8129523], [5.9783881, 49.8129645], [5.9783498, 49.8129815], [5.9783301, 49.8129937], [5.9782927, 49.813036], [5.978269, 49.8130568], [5.9782257, 49.8130729], [5.9781934, 49.8130835], [5.9781397, 49.8130906], [5.9780457, 49.8130952], [5.9780083, 49.8131016], [5.9779898, 49.8131113], [5.9779667, 49.8131317], [5.9779379, 49.8131699], [5.9779041, 49.8132066], [5.9778795, 49.8132204], [5.9778534, 49.8132285], [5.9777844, 49.813229], [5.9777642, 49.8132257], [5.9776866, 49.8131968], [5.9776389, 49.8131824], [5.9775959, 49.8131732], [5.9775621, 49.8131756], [5.9774618, 49.8131841], [5.9771497, 49.8132104], [5.9769882, 49.8132258], [5.9766506, 49.8132608], [5.9761144, 49.8133046], [5.975894, 49.8133698], [5.9757533, 49.8133959], [5.9755606, 49.8133996], [5.9753, 49.8134322], [5.9752734, 49.8134356], [5.975015, 49.8134742], [5.9749535, 49.8134834], [5.9745628, 49.8135588], [5.9744639, 49.8135734], [5.9738474, 49.8137357], [5.973452, 49.8139085], [5.9733956, 49.8139329], [5.9730678, 49.8140743], [5.9728494, 49.8140056], [5.9725907, 49.8139241], [5.9723144, 49.8138352], [5.9721256, 49.8137744], [5.9717657, 49.8136588], [5.971534, 49.8135843], [5.9711719, 49.8135205], [5.970842, 49.8134621], [5.9704168, 49.8133318], [5.9702515, 49.8132783], [5.9699441, 49.8131788], [5.9695398, 49.8130488], [5.9689706, 49.8126372], [5.9691195, 49.8123326], [5.9690841, 49.8121451], [5.9690911, 49.8120848], [5.9691058, 49.8119576], [5.9691188, 49.8118879], [5.969144, 49.8117783], [5.968804, 49.8117036], [5.968436, 49.8116933], [5.9680061, 49.811691], [5.9677924, 49.8116868], [5.9679712, 49.8119722], [5.967964, 49.8121627], [5.9679299, 49.8122648], [5.9678377, 49.8122223], [5.9674749, 49.8120552], [5.9670441, 49.8119576], [5.9666234, 49.8119234], [5.9659711, 49.8118552], [5.9657782, 49.8118388], [5.9650667, 49.8119679], [5.9649163, 49.8120042], [5.9646831, 49.8120458], [5.9646209, 49.8120624], [5.9640133, 49.811819], [5.9639537, 49.8117943], [5.9639228, 49.8117815], [5.9639646, 49.8116848], [5.9640041, 49.811524], [5.9640465, 49.8113092], [5.9641009, 49.8109914], [5.964154, 49.8106684], [5.9642007, 49.8103536], [5.964225, 49.8101121], [5.964111, 49.8101164], [5.9641098, 49.8101035], [5.964104, 49.8096264], [5.9636689, 49.8096264], [5.9634604, 49.8096313], [5.9631988, 49.8096438], [5.963046, 49.8096581], [5.9628645, 49.8096897], [5.9626934, 49.8097321], [5.9626663, 49.8097283], [5.9620379, 49.8101113], [5.9617211, 49.810312], [5.9615424, 49.8104349], [5.9614912, 49.8104431], [5.9614214, 49.8104547], [5.9613656, 49.8104691], [5.9611737, 49.8105267], [5.9609092, 49.8106101], [5.9606032, 49.8107177], [5.9603818, 49.8107986], [5.9602543, 49.8108452], [5.9600572, 49.8109073], [5.9599159, 49.8109406], [5.959785, 49.8109693], [5.9595556, 49.8110085], [5.9592524, 49.8110507], [5.9589025, 49.8110963], [5.9586992, 49.8111229], [5.9584906, 49.8111484], [5.9582898, 49.8111717], [5.9581511, 49.8112027], [5.9580992, 49.8112216], [5.9576183, 49.8113336], [5.9566513, 49.8115658], [5.9562571, 49.8116704], [5.9562415, 49.8116451], [5.9562136, 49.8115999], [5.9561536, 49.8115027], [5.9560296, 49.8113017], [5.9556524, 49.8113719], [5.9554775, 49.8114127], [5.9553491, 49.8114513], [5.9551981, 49.8115002], [5.9551079, 49.8115294], [5.9549367, 49.8115939], [5.9547122, 49.8116918], [5.9544878, 49.8117951], [5.9541236, 49.8115261], [5.9540657, 49.8114833], [5.9539371, 49.81156], [5.9537852, 49.8116596], [5.9535942, 49.8117987], [5.9534149, 49.8119394], [5.9533803, 49.8119231], [5.9532238, 49.8118494], [5.953181, 49.8118292], [5.9530029, 49.8117445], [5.9529864, 49.8117366], [5.9527441, 49.8116212], [5.9524926, 49.8115015], [5.9523248, 49.8116205], [5.9521522, 49.811733], [5.9520148, 49.8118145], [5.9519286, 49.8118604], [5.9518012, 49.8119108], [5.9517169, 49.8119385], [5.9514113, 49.8120391], [5.9510488, 49.8121605], [5.9509332, 49.8122005], [5.9508841, 49.8122338], [5.9507899, 49.8123062], [5.9506012, 49.8124878], [5.950444, 49.8126484], [5.9504182, 49.8126748], [5.950384, 49.8127155], [5.950325, 49.8127906], [5.950009, 49.8131927], [5.9499856, 49.8132225], [5.9493663, 49.8130037], [5.9490831, 49.8129076], [5.9487354, 49.8127918], [5.9481003, 49.8126086], [5.9479946, 49.8125756], [5.947901, 49.8125479], [5.9477775, 49.8125113], [5.9473453, 49.8123916], [5.9469205, 49.81227], [5.9470481, 49.8123771], [5.947116, 49.8124468], [5.947157, 49.812494], [5.9471727, 49.8125253], [5.9472167, 49.8126004], [5.9472282, 49.8126528], [5.9472319, 49.8127218], [5.9472289, 49.8127752], [5.9472233, 49.8128529], [5.947193, 49.8129428], [5.9471648, 49.8129987], [5.9471159, 49.8130777], [5.9470598, 49.8131313], [5.9469699, 49.8132036], [5.9467903, 49.8133306], [5.9467417, 49.8133667], [5.9467117, 49.8134062], [5.9467078, 49.813438], [5.9467243, 49.8134863], [5.9467614, 49.8135314], [5.9468301, 49.8135985], [5.9468672, 49.8136402], [5.9468764, 49.8136644], [5.9468763, 49.8136995], [5.9468724, 49.8137346], [5.9468853, 49.8137643], [5.9469076, 49.8137918], [5.9469261, 49.8138105], [5.9469291, 49.8138251], [5.9469407, 49.813832], [5.9469639, 49.8138526], [5.9469793, 49.8138824], [5.9469921, 49.8139175], [5.9469907, 49.8139472], [5.9469789, 49.8139799], [5.946954, 49.814037], [5.9469176, 49.814085], [5.9468603, 49.8141436], [5.9467887, 49.8142227], [5.9467483, 49.8142829], [5.9467221, 49.8143407], [5.9467338, 49.8143461], [5.9469545, 49.8145134], [5.9470383, 49.8145806], [5.9470628, 49.8146074], [5.9470847, 49.8146425], [5.9470948, 49.8146859], [5.9470856, 49.8147263], [5.9470621, 49.8147697], [5.9470308, 49.8148078], [5.9469944, 49.8148435], [5.9469514, 49.8148937], [5.9469097, 49.8149546], [5.9468979, 49.814995], [5.9468937, 49.8150621], [5.9469023, 49.8151688], [5.9469196, 49.8152488], [5.9469236, 49.8152938], [5.9469192, 49.8153313], [5.9469005, 49.8153796], [5.9468748, 49.8154279], [5.9467836, 49.8155403], [5.9467228, 49.8155335], [5.9465466, 49.816216], [5.946356, 49.816353], [5.9462833, 49.81642], [5.9462337, 49.81648], [5.946188, 49.816544], [5.9461536, 49.816628], [5.9461308, 49.816742], [5.946863, 49.81702], [5.947054, 49.8171], [5.947218, 49.817192], [5.9474735, 49.81733], [5.947794, 49.817505], [5.9479733, 49.817604], [5.947893, 49.817738], [5.9478397, 49.817825], [5.947691, 49.818047], [5.947588, 49.818207], [5.9478283, 49.818314], [5.9474087, 49.818504], [5.94718, 49.81861], [5.947069, 49.818665], [5.9470387, 49.818684], [5.9466, 49.818924], [5.947275, 49.819435], [5.94779, 49.81983], [5.9480495, 49.82003], [5.9481913, 49.8201447], [5.9492016, 49.82096], [5.949049, 49.821453], [5.948885, 49.82176], [5.9488087, 49.821907], [5.9487247, 49.82206], [5.9486485, 49.82221], [5.9486103, 49.822273], [5.948591, 49.82242], [5.9485188, 49.82289], [5.9484425, 49.823376], [5.9484386, 49.823456], [5.9484158, 49.82361], [5.94763, 49.823513], [5.94756, 49.8235052], [5.94718, 49.823463], [5.9469433, 49.82344], [5.946642, 49.82337], [5.9462964, 49.8233402], [5.946062, 49.82332], [5.9448643, 49.82321], [5.94475, 49.823364], [5.944708, 49.823433], [5.9446697, 49.823513], [5.9446545, 49.823563], [5.944643, 49.82361], [5.944536, 49.823994], [5.9445477, 49.824043], [5.944475, 49.82439], [5.944456, 49.82449], [5.944418, 49.82472], [5.944372, 49.825035], [5.94433, 49.825314], [5.9440365, 49.825623], [5.943857, 49.8258], [5.943674, 49.825977], [5.943533, 49.826115], [5.9434986, 49.82615], [5.943323, 49.82636], [5.943266, 49.82641], [5.9431973, 49.826458], [5.943136, 49.82649], [5.9430447, 49.826527], [5.9429226, 49.826557], [5.942297, 49.82669], [5.9422398, 49.82671], [5.9421597, 49.826744], [5.9420376, 49.826824], [5.941889, 49.82693], [5.9416027, 49.827156], [5.9411526, 49.82752], [5.940756, 49.82785], [5.9407444, 49.827885], [5.9406605, 49.827957], [5.9405003, 49.828117], [5.9404697, 49.828163], [5.9404583, 49.82824], [5.9404316, 49.82845], [5.940405, 49.82863], [5.940344, 49.82891], [5.940275, 49.829105], [5.940218, 49.82923], [5.940153, 49.82935], [5.94005, 49.829487], [5.9398518, 49.829712], [5.9395123, 49.83008], [5.939329, 49.83027], [5.939245, 49.830345], [5.9391613, 49.830414], [5.939085, 49.83046], [5.938513, 49.830814], [5.9382954, 49.83095], [5.938246, 49.83101], [5.9382305, 49.831055], [5.9382343, 49.83113], [5.938265, 49.83126], [5.93828, 49.831337], [5.938261, 49.831425], [5.93812, 49.831875], [5.9380054, 49.83223], [5.9378643, 49.832634], [5.9377583, 49.8329402], [5.937723, 49.833042], [5.9376507, 49.833256], [5.9376354, 49.833355], [5.937639, 49.833454], [5.9376316, 49.833797], [5.9376163, 49.833916], [5.9375935, 49.83402], [5.9375362, 49.8342], [5.9374866, 49.83436], [5.937479, 49.834454], [5.9374676, 49.834682], [5.937441, 49.8348], [5.9373226, 49.83518], [5.9371433, 49.835697], [5.9370937, 49.83582], [5.9370327, 49.835922], [5.9369373, 49.83607], [5.9367466, 49.83633], [5.936674, 49.83643], [5.936289, 49.836933], [5.9362125, 49.837055], [5.936178, 49.83714], [5.9361553, 49.837215], [5.9361324, 49.837387], [5.936102, 49.837532], [5.936075, 49.837612], [5.9360256, 49.83771], [5.935938, 49.837852], [5.9358616, 49.837944], [5.9357853, 49.838013], [5.935629, 49.83813], [5.935446, 49.838253], [5.9350147, 49.838467], [5.934805, 49.838554], [5.9343624, 49.8387], [5.9341526, 49.838787], [5.933672, 49.839005], [5.9335423, 49.83905], [5.93342, 49.83908], [5.933222, 49.83911], [5.9328938, 49.83915], [5.932768, 49.839176], [5.932623, 49.83922], [5.932287, 49.839344], [5.932001, 49.839462], [5.931841, 49.83951], [5.9315243, 49.839573], [5.931246, 49.839626], [5.9310894, 49.839664], [5.9309483, 49.839718], [5.930784, 49.839794], [5.9306507, 49.839874], [5.9305096, 49.839985], [5.93038, 49.840088], [5.9302654, 49.84019], [5.929743, 49.8403], [5.9296093, 49.840324], [5.9293575, 49.84035], [5.9290676, 49.840374], [5.928957, 49.840374], [5.928644, 49.840347], [5.9284916, 49.840336], [5.9282856, 49.840332], [5.9281254, 49.840317], [5.9279957, 49.840294], [5.927679, 49.840187], [5.9274654, 49.840137], [5.927145, 49.84033], [5.926981, 49.840427], [5.9268703, 49.84047], [5.926531, 49.840584], [5.9263134, 49.840668], [5.9259167, 49.840847], [5.9257755, 49.840916], [5.925623, 49.840992], [5.9254284, 49.841103], [5.925009, 49.84137], [5.9248867, 49.841442], [5.92478, 49.841507], [5.924586, 49.8415624], [5.9245663, 49.841568], [5.924452, 49.841595], [5.924219, 49.84162], [5.9239407, 49.841656], [5.923788, 49.841698], [5.92367, 49.841736], [5.923624, 49.841755], [5.923582, 49.841778], [5.9234753, 49.841835], [5.923296, 49.841934], [5.9232306, 49.8419673], [5.9231663, 49.842], [5.9230404, 49.84206], [5.922846, 49.84215], [5.922674, 49.84222], [5.922529, 49.8423], [5.9223537, 49.84244], [5.9222813, 49.8425], [5.9221706, 49.842583], [5.922056, 49.842674], [5.921999, 49.842712], [5.9218807, 49.842793], [5.9218044, 49.842846], [5.921747, 49.84288], [5.9216022, 49.842968], [5.9213657, 49.843105], [5.921232, 49.84319], [5.9211636, 49.843246], [5.9211483, 49.84326], [5.9210644, 49.843346], [5.920969, 49.84344], [5.920908, 49.843502], [5.920805, 49.843597], [5.9207149, 49.8436946], [5.920595, 49.84377], [5.920374, 49.84395], [5.9203053, 49.844], [5.92021, 49.844093], [5.9201717, 49.84414], [5.920084, 49.844234], [5.92, 49.844326], [5.919962, 49.844364], [5.9199123, 49.844425], [5.9198246, 49.844536], [5.9195805, 49.844833], [5.9192867, 49.845158], [5.9192333, 49.845207], [5.919222, 49.845222], [5.9188747, 49.845562], [5.9183826, 49.84606], [5.9182034, 49.84628], [5.91815, 49.846367], [5.917959, 49.846695], [5.917856, 49.84685], [5.917734, 49.847008], [5.9176083, 49.847157], [5.9175854, 49.847183], [5.9174786, 49.8473], [5.91741, 49.847378], [5.917341, 49.84745], [5.9170284, 49.847794], [5.916853, 49.84799], [5.9165287, 49.84835], [5.916235, 49.84868], [5.9161854, 49.848774], [5.915682, 49.849102], [5.915472, 49.849262], [5.915331, 49.84941], [5.914995, 49.849854], [5.915064, 49.849873], [5.915964, 49.85009], [5.9166355, 49.850327], [5.916685, 49.850388], [5.9173985, 49.85083], [5.917986, 49.85119], [5.9175167, 49.85146], [5.917547, 49.851475], [5.9179707, 49.851696], [5.9182873, 49.851856], [5.918539, 49.85199], [5.9189434, 49.852184], [5.9190884, 49.85226], [5.9193287, 49.852367], [5.9194126, 49.852406], [5.919573, 49.852474], [5.920252, 49.85277], [5.9205036, 49.85306], [5.9206486, 49.853184], [5.9208164, 49.85331], [5.921011, 49.853462], [5.9210231, 49.8534714], [5.921091, 49.8535239], [5.9211597, 49.853577], [5.921255, 49.853577], [5.921339, 49.853565], [5.921438, 49.853546], [5.9214744, 49.853534], [5.9215984, 49.853493], [5.9215794, 49.854084], [5.9215717, 49.854492], [5.92132, 49.854492], [5.9213085, 49.854507], [5.9208508, 49.855362], [5.920702, 49.855625], [5.920683, 49.855663], [5.920664, 49.855698], [5.9206944, 49.855705], [5.9206448, 49.855755], [5.9206104, 49.855785], [5.9202557, 49.856125], [5.9201107, 49.85627], [5.9197182, 49.8566449], [5.919695, 49.856667], [5.9198856, 49.856926], [5.9198937, 49.8569381], [5.920023, 49.857132], [5.920046, 49.857162], [5.9200541, 49.8571748], [5.9201183, 49.857277], [5.9202023, 49.857407], [5.9202557, 49.857494], [5.9203205, 49.857597], [5.9203663, 49.857666], [5.920439, 49.857784], [5.920454, 49.857815], [5.920496, 49.85786], [5.9207096, 49.85811], [5.9208317, 49.858242], [5.9210033, 49.8584], [5.9211864, 49.858547], [5.921385, 49.858685], [5.921488, 49.85874], [5.9216137, 49.8588], [5.921793, 49.85885], [5.922003, 49.858906], [5.9222736, 49.858994], [5.9223347, 49.859013], [5.9224873, 49.85906], [5.922598, 49.85909], [5.922674, 49.859104], [5.9227695, 49.859123], [5.9230137, 49.85917], [5.923174, 49.859188], [5.9234676, 49.85911], [5.924124, 49.859108], [5.924532, 49.859123], [5.9250117, 49.8591539], [5.9251818, 49.8590426], [5.9256964, 49.859329], [5.9259586, 49.8594775], [5.9261031, 49.8595745], [5.9261937, 49.8596411], [5.9263553, 49.8597547], [5.9265167, 49.859903], [5.9266266, 49.8600406], [5.9267388, 49.860219], [5.9268288, 49.860405], [5.9268651, 49.8605213], [5.9269081, 49.860757], [5.9269516, 49.860908], [5.9269825, 49.861124], [5.9270238, 49.8612208], [5.9271213, 49.8613916], [5.9271552, 49.8614838], [5.9271866, 49.8615986], [5.9271995, 49.8616336], [5.9272278, 49.8617104], [5.9273009, 49.8618389], [5.9274573, 49.8620204], [5.92755, 49.8621565], [5.9276498, 49.8623364], [5.9277349, 49.8625178], [5.9278948, 49.8629892], [5.9279677, 49.863157], [5.9280796, 49.8633777], [5.9281577, 49.8635047], [5.9282237, 49.8635773], [5.9283876, 49.8637165], [5.9285515, 49.8638633], [5.928784, 49.8640737], [5.9286656, 49.8641459], [5.9288367, 49.8643501], [5.9289272, 49.8644364], [5.929183, 49.864586], [5.9295204, 49.8647878], [5.9298052, 49.8649582], [5.9301603, 49.8651706], [5.9301899, 49.865131], [5.9302833, 49.865046], [5.9302864, 49.8650432], [5.9303896, 49.8649571], [5.9305242, 49.8648587], [5.930441, 49.8644918], [5.9305675, 49.8640489], [5.9307003, 49.8634751], [5.9307177, 49.8632907], [5.9307263, 49.8630596], [5.9308352, 49.8629043], [5.9309532, 49.862736], [5.9310023, 49.862666], [5.9312593, 49.8623702], [5.9314112, 49.8622298], [5.931605, 49.8620508], [5.931695, 49.8619676], [5.9317117, 49.8619514], [5.9317783, 49.8618861], [5.9321814, 49.8614913], [5.9325945, 49.8610867], [5.9327791, 49.8609059], [5.9328174, 49.8608684], [5.9331583, 49.8604846], [5.9332572, 49.8603781], [5.9334079, 49.8602158], [5.9334791, 49.860139], [5.9337233, 49.8599066], [5.9337561, 49.8598754], [5.9338775, 49.8597764], [5.9340006, 49.8596824], [5.9341154, 49.8596089], [5.9345097, 49.8593564], [5.9346434, 49.8592707], [5.9350784, 49.8590255], [5.9351681, 49.8589749], [5.9351805, 49.8589683], [5.9354158, 49.8588424], [5.935617, 49.858762], [5.9357012, 49.8587206], [5.935838, 49.8586532], [5.9358498, 49.8586487], [5.9359146, 49.8586239], [5.9359946, 49.8586044], [5.9360641, 49.8585901], [5.9370784, 49.8585169], [5.937365, 49.8585063], [5.9375479, 49.8585091], [5.938006, 49.8585158], [5.93842, 49.8585219], [5.9387051, 49.8584752], [5.9388895, 49.8584506], [5.9390738, 49.8584261], [5.9393047, 49.8583885], [5.9396216, 49.8583256], [5.9397688, 49.8582905], [5.9401505, 49.8582358], [5.9403615, 49.8582044], [5.9405822, 49.8581858], [5.9408376, 49.8582006], [5.9410895, 49.8582077], [5.9413029, 49.858238], [5.9416768, 49.858308], [5.9423065, 49.858426], [5.9429209, 49.8585006], [5.9435441, 49.8585654], [5.9438313, 49.8585872], [5.9441248, 49.8586303], [5.9440218, 49.8587782], [5.9454753, 49.8592059], [5.945539, 49.8592248], [5.9460054, 49.8593618], [5.9486234, 49.8565423], [5.9486599, 49.8564988], [5.9489143, 49.8565977], [5.9490978, 49.8566766], [5.9491995, 49.8567292], [5.9495971, 49.8569932], [5.9498203, 49.8571177], [5.9498086, 49.8570444], [5.9498862, 49.8569936], [5.9501911, 49.8567961], [5.9505396, 49.8564794], [5.9508656, 49.8561909], [5.9512354, 49.8558773], [5.9515391, 49.8559803], [5.9516412, 49.8560149], [5.9517743, 49.8560546], [5.9518468, 49.8560762], [5.9520229, 49.8561287], [5.9521441, 49.8560394], [5.9523489, 49.8559018], [5.9526214, 49.8557433], [5.9528395, 49.8556392], [5.9530814, 49.8555513], [5.9532369, 49.8554664], [5.9534248, 49.8555502], [5.9537837, 49.8553207], [5.9541157, 49.8551084], [5.9541439, 49.8550901], [5.9542113, 49.8550464], [5.9543339, 49.8549437], [5.9544061, 49.8548867], [5.9544747, 49.8548325], [5.9549198, 49.8545436], [5.955098, 49.8544407], [5.9553556, 49.8543212], [5.9554812, 49.8542619], [5.9555861, 49.8542276], [5.9559295, 49.8542265], [5.9563484, 49.8542286], [5.9566972, 49.8542615], [5.9572412, 49.854331], [5.9577529, 49.8543615], [5.9580358, 49.8543664], [5.9583485, 49.8543328], [5.9587166, 49.8543304], [5.9591134, 49.8543018], [5.9592032, 49.8544677], [5.9592361, 49.8545285], [5.9592677, 49.8545291], [5.9593673, 49.8544929], [5.9597881, 49.8544235], [5.9598819, 49.8544118], [5.9599712, 49.8543475], [5.9600102, 49.8543394], [5.9602585, 49.854288], [5.9602916, 49.854277], [5.9603171, 49.8542685], [5.9603515, 49.8542658], [5.9604392, 49.8542537], [5.9605037, 49.8541759], [5.9605566, 49.8541329], [5.9603752, 49.8540329], [5.9602587, 49.8539663], [5.9604071, 49.853796], [5.9605199, 49.8536919], [5.9608262, 49.8534378], [5.9609077, 49.8533664], [5.9611309, 49.8531705], [5.961177, 49.8531301], [5.9612207, 49.853108], [5.9612292, 49.8530912], [5.9613294, 49.8528757], [5.9614251, 49.8526699], [5.961475, 49.852539], [5.9616381, 49.8520068], [5.9616613, 49.8518489], [5.9616688, 49.8515514], [5.9616459, 49.8513919], [5.9616302, 49.8513413], [5.9616446, 49.8513413], [5.9616682, 49.8513456], [5.9623182, 49.851465], [5.9625611, 49.8515014], [5.9631683, 49.8516079], [5.9633502, 49.8516382], [5.9634734, 49.8516089], [5.9635302, 49.8516339], [5.9637849, 49.851746], [5.9638183, 49.8517607], [5.9638753, 49.8517337], [5.9638918, 49.8517259], [5.9641143, 49.8517069], [5.9645528, 49.8516247], [5.9649229, 49.8515553], [5.9655018, 49.8513998], [5.965951, 49.8512767], [5.96642, 49.8514026], [5.9671754, 49.8511412], [5.9672976, 49.8511036], [5.967573, 49.8508584], [5.9676801, 49.850701], [5.9677572, 49.8506422], [5.9679084, 49.8506281], [5.9680691, 49.8505826], [5.9681298, 49.8505354], [5.9685221, 49.8503224], [5.9689396, 49.8500907], [5.9693145, 49.8499331], [5.9696831, 49.8497549], [5.969784, 49.8497322], [5.9701033, 49.8495793], [5.9704692, 49.8493891], [5.9715739, 49.8487738], [5.9719515, 49.8484915], [5.9727346, 49.8482628], [5.9731692, 49.8480385], [5.9735405, 49.84786], [5.973948, 49.8476192], [5.9741123, 49.8475552], [5.9741439, 49.8475058], [5.9745026, 49.8474321], [5.9744972, 49.8474237], [5.9743297, 49.8471631], [5.9742208, 49.8469146], [5.9741038, 49.8466654], [5.9740252, 49.8465091], [5.9739637, 49.8464091], [5.9737996, 49.8461826], [5.9736814, 49.8458431], [5.9735846, 49.8454936], [5.9735795, 49.8454751], [5.9733587, 49.8454989], [5.973091, 49.8455091], [5.9724439, 49.8455036], [5.9720497, 49.8455116], [5.9717545, 49.8455201], [5.9715761, 49.8455432], [5.971377, 49.8455848], [5.9713735, 49.8455663], [5.9712869, 49.8451123], [5.9712119, 49.8448024], [5.971131, 49.8445132], [5.9708546, 49.8440545], [5.9707503, 49.8439131], [5.9704234, 49.8434573], [5.9701871, 49.8431441], [5.9702241, 49.8430625], [5.9702694, 49.8429626], [5.970328, 49.8428334], [5.9703707, 49.8428], [5.9705235, 49.8427005], [5.9706505, 49.8426386], [5.9707809, 49.8425886], [5.9708052, 49.8425792], [5.9709221, 49.8425466], [5.971154, 49.842491], [5.9714069, 49.8423788], [5.9720989, 49.842111], [5.9722348, 49.8420437], [5.9725225, 49.8418847], [5.9727666, 49.84175], [5.9732022, 49.8414946], [5.9731947, 49.8413948], [5.973338, 49.8412527], [5.9733547, 49.8412362], [5.9733884, 49.8412277], [5.9733282, 49.8411594], [5.9729164, 49.840692], [5.9727262, 49.8404781], [5.9732514, 49.8400779], [5.973595, 49.8398217], [5.9737141, 49.8397464], [5.9737358, 49.8397375], [5.973601, 49.8396006], [5.9734195, 49.8394413], [5.9734498, 49.8394284], [5.9735201, 49.8393976], [5.9739172, 49.8392236], [5.9739757, 49.839198], [5.9742062, 49.839097], [5.974641, 49.8389066], [5.9748171, 49.8388262], [5.9748868, 49.8387944], [5.9749694, 49.8387567], [5.9750457, 49.838694], [5.9750887, 49.8386357], [5.9751237, 49.8384977], [5.9752251, 49.8383895], [5.9754338, 49.8381667], [5.9755968, 49.838099], [5.9759676, 49.8380558], [5.9762955, 49.8380344], [5.9764034, 49.8380776], [5.9765375, 49.8381312], [5.9765516, 49.8380732], [5.9765695, 49.8379998], [5.9765899, 49.8379159], [5.9765949, 49.8378955], [5.9766268, 49.8377648], [5.9766867, 49.837326], [5.9767024, 49.8372378], [5.9767183, 49.8371486], [5.9767277, 49.8371139], [5.9768524, 49.8366547], [5.9768892, 49.8365191], [5.9772313, 49.8364144], [5.9773517, 49.8363775], [5.9775677, 49.8363113], [5.9773795, 49.835854], [5.9773601, 49.8357938], [5.9773469, 49.8356794], [5.9773529, 49.8356264], [5.977365, 49.8355446], [5.9773889, 49.835438], [5.9774127, 49.835361], [5.9774327, 49.8352635], [5.977461, 49.835051], [5.9774713, 49.8349029], [5.977462, 49.8347855], [5.9774392, 49.8346036], [5.9774027, 49.8344175], [5.9773911, 49.8343814], [5.9773659, 49.8343235], [5.9773277, 49.8342782], [5.9772918, 49.8342355], [5.9772138, 49.8341487], [5.977176, 49.8341145], [5.9770984, 49.8340441], [5.9771217, 49.8340355], [5.9771762, 49.8340241], [5.9771963, 49.834009], [5.9772219, 49.8339904], [5.9772497, 49.8339804], [5.9773087, 49.8339653], [5.9773438, 49.833942], [5.9773816, 49.8339284], [5.9774194, 49.8339213], [5.9774884, 49.8339027], [5.9775318, 49.8338855], [5.9775685, 49.8338633], [5.9775997, 49.8338396], [5.9776242, 49.8338275], [5.9776809, 49.8338153], [5.9777065, 49.8338024], [5.9777333, 49.8337809], [5.9777645, 49.8337615], [5.9777978, 49.8337501], [5.9778579, 49.8337365], [5.9779057, 49.8337157], [5.9779347, 49.8337007], [5.9779843, 49.8336472], [5.9780445, 49.8335948], [5.9780735, 49.8335668], [5.9781695, 49.833457], [5.9785828, 49.8333207], [5.9784144, 49.8331191], [5.9782013, 49.8328642], [5.9775474, 49.8321268], [5.9775319, 49.8321093], [5.977511, 49.8320858], [5.9770214, 49.831701], [5.9774296, 49.8314519], [5.9779414, 49.8311353], [5.9780672, 49.8309072], [5.9781921, 49.8306546], [5.9782257, 49.8305835], [5.9783357, 49.8303126], [5.9783878, 49.8301844], [5.9784247, 49.8301168], [5.97902, 49.8301667], [5.9793594, 49.8301791], [5.9794707, 49.8301161], [5.9799342, 49.8300802], [5.9802653, 49.8300512], [5.9808227, 49.8299935], [5.9809302, 49.8297787], [5.9810238, 49.8296045], [5.9810527, 49.8295506], [5.9811199, 49.829417], [5.9813207, 49.829061], [5.9813978, 49.8289303], [5.9815074, 49.8287328], [5.9815309, 49.8286894], [5.9816149, 49.8285345], [5.9816492, 49.8284646], [5.9817655, 49.8282278], [5.9817962, 49.8281652], [5.98195, 49.8278565], [5.9819882, 49.8277797], [5.9817086, 49.8276921], [5.9812312, 49.8275425], [5.9809979, 49.8274693], [5.9813107, 49.8270039], [5.9813996, 49.8268772], [5.9815268, 49.826717], [5.9817099, 49.8264887], [5.9816589, 49.8264735], [5.981801, 49.8263241], [5.9818214, 49.8263027], [5.9818631, 49.8262589], [5.9819728, 49.8261362], [5.9821018, 49.8259918], [5.9825369, 49.8255165], [5.9825763, 49.825529], [5.9829762, 49.8256553], [5.9831294, 49.8257008], [5.9833852, 49.8257756], [5.9834895, 49.8258067], [5.9836615, 49.8258508], [5.9838772, 49.8259011], [5.9838857, 49.8259008], [5.9837673, 49.8256371], [5.9836192, 49.8252892], [5.9836233, 49.8252839], [5.9836413, 49.8252606], [5.983717, 49.8251625], [5.9837318, 49.8251432], [5.9837836, 49.825076], [5.9838325, 49.8250127], [5.983935, 49.8248798], [5.9839608, 49.8248465], [5.9840328, 49.8247531], [5.9840353, 49.8247498], [5.9841949, 49.8245406], [5.9843329, 49.8243663], [5.9844764, 49.824185], [5.9846006, 49.8240282], [5.9846194, 49.8240045], [5.9842009, 49.8237698], [5.9841089, 49.8237193], [5.9840268, 49.8236804], [5.9839558, 49.8236522], [5.9838449, 49.8236082], [5.9835349, 49.8234887], [5.983302, 49.8233855], [5.9831113, 49.8232975], [5.9829411, 49.8232027], [5.9828203, 49.8231241], [5.9827073, 49.8230448], [5.9826088, 49.822967], [5.9824078, 49.8227916], [5.9821196, 49.8224881], [5.9820715, 49.8224373], [5.9820195, 49.8223847], [5.9818036, 49.8222003], [5.9815848, 49.8220292], [5.9813727, 49.8218697], [5.9818874, 49.8216185], [5.9817569, 49.8214709], [5.981726, 49.8214359], [5.9816984, 49.8214046], [5.981637, 49.8213352], [5.9815816, 49.8212739], [5.9813997, 49.8210756], [5.981226, 49.8208722], [5.9810453, 49.8206605], [5.9810009, 49.8206288], [5.9809211, 49.8205841], [5.9808186, 49.8205332], [5.980609, 49.820443], [5.980426, 49.8203708], [5.9801176, 49.8202754], [5.9797331, 49.8201558], [5.9797159, 49.8201427], [5.9792774, 49.8198096], [5.9799454, 49.819408], [5.9802677, 49.8192104], [5.9806295, 49.8190075], [5.980964, 49.8188208], [5.9812523, 49.818648], [5.981662, 49.8183991], [5.982206, 49.8180437], [5.9819456, 49.81792], [5.9817907, 49.8178464], [5.9816812, 49.8177869], [5.98163, 49.8177591], [5.9815901, 49.8177317], [5.9816451, 49.8176911], [5.9816847, 49.8176619], [5.9818937, 49.8175075], [5.9821966, 49.8172937], [5.9825669, 49.8170229], [5.9832526, 49.8173695], [5.9834316, 49.8172567], [5.9841507, 49.8168033], [5.9841856, 49.8167814], [5.984255, 49.8168192], [5.9846177, 49.8170165], [5.9846643, 49.8170419], [5.9850335, 49.8172429], [5.9853233, 49.8171477], [5.9854676, 49.8171002], [5.9857073, 49.8170215], [5.9857839, 49.8169963], [5.9859512, 49.8169413]]]}}]}