{"type": "FeatureCollection", "features": [{"type": "Feature", "properties": {"name": "Rodange"}, "geometry": {"type": "Polygon", "coordinates": [[[5.8458085, 49.5299027], [5.8450839, 49.5307277], [5.8449728, 49.5308781], [5.8447508, 49.5311786], [5.8443635, 49.531706], [5.8441592, 49.5319842], [5.8439456, 49.532278], [5.8436989, 49.5326172], [5.8435065, 49.5328693], [5.8434447, 49.5329365], [5.843429, 49.5329536], [5.8432037, 49.5331591], [5.8429795, 49.5333662], [5.8427198, 49.5336201], [5.8425091, 49.5338252], [5.8423428, 49.5339959], [5.8422205, 49.5341226], [5.8421039, 49.5342432], [5.8420525, 49.5342965], [5.8420083, 49.5343415], [5.8419167, 49.534435], [5.8418943, 49.5344578], [5.8418408, 49.5345145], [5.8417689, 49.5345909], [5.8417216, 49.534641], [5.841575, 49.5347956], [5.8415265, 49.5348434], [5.8414509, 49.5349295], [5.8413752, 49.5350086], [5.8412954, 49.535092], [5.8411394, 49.5352553], [5.8409024, 49.5355036], [5.8405779, 49.5358419], [5.840294, 49.5361357], [5.8399892, 49.5364513], [5.8397413, 49.5367076], [5.8394808, 49.5369785], [5.839157, 49.5373154], [5.8390779, 49.5375122], [5.8389369, 49.537863], [5.8387614, 49.5382995], [5.8386783, 49.5385106], [5.8385624, 49.538805], [5.8384518, 49.5390859], [5.8383891, 49.5392464], [5.8383149, 49.5394364], [5.8382058, 49.5397158], [5.8380022, 49.5402374], [5.8379242, 49.5404308], [5.8378427, 49.5406328], [5.8378279, 49.5406711], [5.8377334, 49.5409153], [5.8376069, 49.5412497], [5.8373844, 49.5418378], [5.8372881, 49.5421204], [5.8370758, 49.5425841], [5.8369626, 49.542652], [5.8369225, 49.5426665], [5.8368663, 49.5426737], [5.8367813, 49.5426765], [5.8366868, 49.5426731], [5.8365297, 49.5426602], [5.8363824, 49.542642], [5.8362887, 49.5426231], [5.8361398, 49.5425903], [5.8358789, 49.5425291], [5.8356116, 49.5424625], [5.835402, 49.5424118], [5.8350738, 49.5423389], [5.8350195, 49.5423231], [5.8346986, 49.5422024], [5.8345387, 49.5421435], [5.8344748, 49.5421162], [5.8343885, 49.5420752], [5.8342654, 49.5420154], [5.8340705, 49.541924], [5.8339211, 49.5418406], [5.8338828, 49.5418237], [5.8338476, 49.5418122], [5.8336715, 49.5417824], [5.8336283, 49.5417677], [5.8335963, 49.541752], [5.8335676, 49.541732], [5.8335356, 49.5417236], [5.8334409, 49.5417369], [5.8329216, 49.5415937], [5.8321908, 49.5413727], [5.8318582, 49.5412742], [5.8318045, 49.5412583], [5.8315266, 49.5411759], [5.8315002, 49.5411719], [5.83064, 49.5410425], [5.8298778, 49.5409364], [5.8293928, 49.5408295], [5.8289725, 49.540722], [5.8285604, 49.5405592], [5.8280105, 49.5403332], [5.8280212, 49.5402242], [5.8280188, 49.5401062], [5.8278593, 49.5400625], [5.8276768, 49.5400125], [5.8271599, 49.5398836], [5.826836, 49.5397922], [5.8267036, 49.5397572], [5.8263736, 49.5396698], [5.8255631, 49.5394579], [5.8254619, 49.5394332], [5.825307, 49.5393955], [5.8250837, 49.5393387], [5.8244836, 49.5391814], [5.8244359, 49.5391688], [5.8240523, 49.5388546], [5.8238317, 49.5386763], [5.8237319, 49.5386003], [5.8236794, 49.5385612], [5.8234497, 49.5384253], [5.8231148, 49.5382351], [5.822971, 49.5381545], [5.8227886, 49.5380611], [5.8227445, 49.5380388], [5.8227157, 49.5380243], [5.8226278, 49.5382092], [5.8225765, 49.5382968], [5.8225271, 49.5383821], [5.8225052, 49.5384386], [5.8224971, 49.5384824], [5.8224954, 49.53855], [5.8224969, 49.5385703], [5.8224413, 49.5385363], [5.8220544, 49.538286], [5.8215676, 49.538051], [5.820371, 49.5377597], [5.8186798, 49.5372998], [5.8171695, 49.5370264], [5.8172142, 49.5377081], [5.8160117, 49.5374969], [5.8154341, 49.5384924], [5.8154459, 49.5385646], [5.8153788, 49.5386726], [5.8153418, 49.5388218], [5.8153398, 49.5389182], [5.8153756, 49.5389481], [5.8154011, 49.5391274], [5.8153506, 49.5391738], [5.8152838, 49.5392492], [5.8148843, 49.5395836], [5.8147418, 49.539701], [5.8146693, 49.5397596], [5.814646, 49.5397743], [5.8145384, 49.5398423], [5.8143199, 49.5400111], [5.8142221, 49.5401233], [5.8141769, 49.5402287], [5.8141398, 49.5403268], [5.8141056, 49.5404142], [5.8140563, 49.5405309], [5.8140442, 49.540556], [5.8140332, 49.5405789], [5.8139743, 49.5406418], [5.8139713, 49.5406449], [5.8138925, 49.5407232], [5.8136997, 49.5409651], [5.8134244, 49.5413313], [5.8133524, 49.5414386], [5.8133216, 49.5414846], [5.8133123, 49.5414984], [5.8130651, 49.5415282], [5.8129168, 49.5417073], [5.8127023, 49.5418204], [5.8124981, 49.5418743], [5.8123706, 49.5418821], [5.8122322, 49.5418525], [5.8121576, 49.5418286], [5.8119556, 49.541997], [5.8119364, 49.5420108], [5.8087137, 49.5409646], [5.8085478, 49.5409107], [5.8082913, 49.5419158], [5.808126, 49.5425635], [5.8082786, 49.5426058], [5.8082842, 49.5426006], [5.8082907, 49.5425957], [5.8082979, 49.5425914], [5.8083058, 49.5425876], [5.8083143, 49.5425844], [5.8083233, 49.5425818], [5.8083327, 49.5425799], [5.8083424, 49.5425787], [5.8083522, 49.5425781], [5.808362, 49.5425783], [5.8083718, 49.5425791], [5.8092605, 49.5428276], [5.8105198, 49.5431769], [5.8105156, 49.5431828], [5.8105145, 49.5431845], [5.810503, 49.5432011], [5.8104928, 49.5432504], [5.810514, 49.5433146], [5.8105259, 49.5433332], [5.8105837, 49.5434238], [5.8105776, 49.5434367], [5.8105581, 49.5434776], [5.8141656, 49.5444746], [5.8152256, 49.544831], [5.8152559, 49.5448412], [5.8158821, 49.545052], [5.8159133, 49.5450625], [5.8172389, 49.5455088], [5.8172601, 49.5455159], [5.8179479, 49.5457474], [5.8180631, 49.5458303], [5.8185727, 49.5463807], [5.8186956, 49.5466258], [5.8188215, 49.5467938], [5.8189477, 49.5469298], [5.8190149, 49.5470271], [5.8190746, 49.5470889], [5.8191709, 49.5471399], [5.8192426, 49.5471749], [5.8199131, 49.5474809], [5.819997, 49.5475223], [5.8200823, 49.5475543], [5.8201079, 49.5476269], [5.8201109, 49.5476958], [5.8200588, 49.5477885], [5.8200058, 49.5478735], [5.8198978, 49.5479942], [5.8198546, 49.5480915], [5.8198821, 49.5481927], [5.8199102, 49.5482651], [5.8199547, 49.5483413], [5.8200299, 49.5485186], [5.8200337, 49.5486013], [5.8200351, 49.5487973], [5.820032, 49.5489133], [5.8200514, 49.5490291], [5.8200736, 49.5490756], [5.8201966, 49.5491845], [5.8202605, 49.5492248], [5.8203368, 49.5492644], [5.8204205, 49.5493082], [5.8207471, 49.5494867], [5.820823, 49.549527], [5.820891, 49.54956], [5.8209746, 49.549597], [5.8210508, 49.5496435], [5.8211611, 49.5497267], [5.8211845, 49.5497401], [5.8212504, 49.5497737], [5.8213293, 49.5498057], [5.8213768, 49.5498295], [5.8214218, 49.5498426], [5.8214646, 49.5498487], [5.8215592, 49.5498414], [5.8216959, 49.5498133], [5.8221176, 49.549668], [5.8221852, 49.5496406], [5.8222681, 49.5496175], [5.8224211, 49.5496273], [5.8226004, 49.5496691], [5.8226492, 49.5496783], [5.8227275, 49.5497639], [5.8227946, 49.5498353], [5.822913, 49.5499645], [5.8229507, 49.5500724], [5.8229991, 49.5501543], [5.8230393, 49.5502319], [5.8231344, 49.5503344], [5.8232227, 49.5504411], [5.8233109, 49.550518], [5.8233486, 49.5505699], [5.8234574, 49.5506951], [5.8235595, 49.5507964], [5.8236608, 49.5508738], [5.8238079, 49.5510174], [5.8239408, 49.5511403], [5.8239634, 49.5511589], [5.8240828, 49.5512236], [5.8242307, 49.5513091], [5.8243808, 49.5514015], [5.824547, 49.551519], [5.8247132, 49.5516365], [5.8247684, 49.5516846], [5.8248595, 49.5517432], [5.8249004, 49.5517745], [5.8249185, 49.5517792], [5.8249542, 49.5517857], [5.8250057, 49.5517951], [5.8250468, 49.5518026], [5.8251389, 49.5518258], [5.8252319, 49.5518492], [5.8260477, 49.5522055], [5.8260521, 49.5522075], [5.8261039, 49.5521897], [5.8261594, 49.5521707], [5.8262767, 49.5521177], [5.8264006, 49.5520411], [5.8264479, 49.5519754], [5.8264201, 49.5518363], [5.8266921, 49.5514556], [5.8273949, 49.5505903], [5.8280039, 49.5499922], [5.8295005, 49.5505543], [5.830268, 49.5507679], [5.8309187, 49.5507848], [5.8313654, 49.5509], [5.8322039, 49.5512355], [5.8336238, 49.5516916], [5.8347843, 49.5520518], [5.8355891, 49.5524505], [5.8377887, 49.5528653], [5.8418322, 49.5530897], [5.8419561, 49.5530966], [5.842156, 49.5536469], [5.8421664, 49.5537907], [5.8420806, 49.5542412], [5.8419903, 49.5545118], [5.8420929, 49.5545213], [5.8425241, 49.5543546], [5.8427692, 49.5543097], [5.8434149, 49.5543689], [5.8436468, 49.554421], [5.8436603, 49.5544241], [5.8444646, 49.5525991], [5.8451325, 49.5511119], [5.8477712, 49.5515106], [5.8482979, 49.5498791], [5.8481017, 49.5498757], [5.8480449, 49.5481269], [5.8471265, 49.546994], [5.847273, 49.5467101], [5.8469774, 49.5461556], [5.8469534, 49.5460217], [5.8469066, 49.5457614], [5.8464854, 49.5451283], [5.8453546, 49.5444817], [5.8451061, 49.5436517], [5.8464959, 49.543422], [5.845439, 49.5421876], [5.8451378, 49.5417521], [5.8455658, 49.5415361], [5.8454073, 49.5404045], [5.8457349, 49.5393037], [5.8461101, 49.5393929], [5.8462316, 49.5390877], [5.8486466, 49.5379081], [5.8535165, 49.5354011], [5.8552008, 49.5351083], [5.8562302, 49.5350164], [5.856217, 49.5349978], [5.8561833, 49.5349506], [5.8561566, 49.5349132], [5.8561063, 49.5348701], [5.8560562, 49.5348273], [5.8559392, 49.5347296], [5.8558288, 49.5346373], [5.8556389, 49.5344786], [5.8553155, 49.5342247], [5.8552129, 49.5341436], [5.8551774, 49.5341102], [5.8551327, 49.5340681], [5.855116, 49.5340462], [5.8550021, 49.5338971], [5.854962, 49.5338546], [5.8549446, 49.533837], [5.8548013, 49.5336915], [5.8546559, 49.5335378], [5.8546372, 49.5335153], [5.8545662, 49.5334305], [5.8544531, 49.5332991], [5.8544385, 49.5332851], [5.8542495, 49.5331046], [5.8541239, 49.5329846], [5.8538286, 49.5326246], [5.853757, 49.5325362], [5.8536332, 49.5323834], [5.8535219, 49.5322411], [5.8535094, 49.5322252], [5.8533202, 49.5321511], [5.8527661, 49.5319161], [5.8525416, 49.5318193], [5.8519288, 49.5315551], [5.8518892, 49.531538], [5.851193, 49.5312378], [5.8512247, 49.5312054], [5.8513069, 49.5311166], [5.8513864, 49.5310101], [5.8514316, 49.5309349], [5.8514424, 49.5308922], [5.8514343, 49.5308239], [5.8514105, 49.5307693], [5.851355, 49.5306775], [5.8512769, 49.5305593], [5.851232, 49.5304918], [5.8511361, 49.5303613], [5.8510859, 49.5302967], [5.8509951, 49.5301991], [5.8506619, 49.5298589], [5.8506421, 49.5298388], [5.850055, 49.5301194], [5.8500147, 49.53011], [5.8497094, 49.5300381], [5.8491674, 49.5299107], [5.8490354, 49.5298797], [5.8489764, 49.5298659], [5.8487587, 49.529815], [5.8485944, 49.5297758], [5.8480276, 49.5296361], [5.847331, 49.5294713], [5.8472109, 49.5294433], [5.8469634, 49.5293859], [5.8468526, 49.5293603], [5.8464205, 49.5292558], [5.8462997, 49.5292284], [5.8461386, 49.5294845], [5.8459566, 49.5297233], [5.8458308, 49.5298773], [5.8458085, 49.5299027]]]}}]}