{"type": "FeatureCollection", "features": [{"type": "Feature", "properties": {"name": "Canton Echternach"}, "geometry": {"type": "MultiPolygon", "coordinates": [[[[6.236654, 49.782864], [6.236765, 49.782864], [6.236845, 49.78287], [6.236944, 49.78288], [6.237055, 49.782894], [6.237158, 49.782913], [6.237211, 49.78293], [6.237246, 49.782948], [6.237303, 49.782986], [6.237349, 49.78301], [6.237417, 49.783016], [6.237474, 49.783016], [6.237577, 49.78301], [6.237669, 49.782993], [6.237715, 49.782993], [6.237795, 49.782997], [6.237993, 49.78302], [6.238092, 49.783047], [6.238207, 49.783077], [6.238321, 49.783108], [6.238432, 49.783134], [6.238512, 49.783146], [6.238523, 49.78315], [6.238592, 49.783157], [6.238676, 49.78316], [6.238771, 49.783176], [6.238836, 49.7832], [6.238874, 49.78321], [6.23892, 49.78322], [6.238985, 49.783222], [6.239039, 49.783226], [6.239092, 49.78324], [6.239149, 49.78326], [6.23918, 49.783264], [6.239214, 49.783264], [6.239248, 49.783257], [6.239271, 49.783245], [6.239294, 49.783245], [6.239306, 49.783253], [6.239309, 49.783264], [6.239313, 49.783283], [6.239344, 49.78329], [6.239424, 49.783295], [6.239588, 49.783318], [6.239878, 49.783348], [6.24021, 49.78339], [6.240427, 49.783424], [6.240622, 49.783455], [6.240683, 49.783463], [6.240736, 49.783463], [6.240805, 49.783455], [6.240889, 49.783455], [6.240965, 49.783478], [6.241018, 49.783504], [6.241083, 49.78353], [6.241129, 49.78355], [6.241171, 49.783573], [6.241213, 49.7836], [6.241266, 49.783615], [6.24148, 49.783657], [6.241526, 49.78366], [6.241617, 49.78365], [6.241674, 49.78364], [6.241713, 49.783638], [6.241747, 49.783638], [6.241804, 49.78365], [6.241919, 49.78367], [6.242086, 49.783695], [6.242128, 49.78371], [6.242163, 49.78373], [6.242178, 49.783737], [6.242209, 49.783752], [6.242292, 49.78376], [6.242353, 49.783752], [6.242388, 49.783726], [6.242449, 49.78362], [6.242468, 49.78359], [6.243246, 49.78363], [6.243338, 49.783672], [6.243513, 49.783726], [6.24365, 49.783764], [6.244238, 49.78387], [6.245157, 49.78405], [6.248575, 49.785378], [6.249239, 49.785526], [6.249689, 49.785625], [6.250269, 49.78577], [6.250807, 49.785908], [6.250921, 49.78594], [6.251417, 49.786064], [6.251696, 49.78574], [6.251772, 49.785755], [6.251982, 49.7858], [6.251959, 49.78584], [6.251638, 49.78638], [6.25149, 49.786613], [6.251062, 49.787285], [6.250563, 49.78805], [6.251047, 49.788258], [6.251131, 49.788296], [6.251219, 49.78833], [6.250456, 49.788837], [6.249304, 49.789646], [6.248545, 49.790195], [6.248007, 49.790573], [6.247477, 49.79093], [6.246698, 49.79142], [6.245516, 49.792137], [6.245272, 49.792294], [6.244928, 49.792572], [6.244432, 49.79298], [6.244337, 49.793076], [6.24439, 49.79376], [6.244432, 49.79418], [6.244543, 49.79538], [6.24457, 49.795593], [6.244635, 49.795784], [6.244883, 49.796436], [6.248712, 49.797894], [6.24991, 49.79831], [6.251223, 49.798763], [6.252924, 49.799397], [6.254389, 49.79994], [6.254324, 49.800106], [6.254202, 49.800373], [6.254637, 49.800587], [6.255762, 49.80115], [6.256109, 49.801407], [6.256571, 49.801804], [6.256826, 49.80206], [6.256926, 49.80213], [6.257555, 49.802456], [6.257837, 49.80259], [6.258486, 49.802837], [6.258062, 49.803455], [6.257464, 49.804344], [6.256769, 49.805344], [6.256048, 49.806328], [6.255407, 49.80722], [6.254583, 49.80844], [6.254545, 49.80849], [6.25432, 49.80868], [6.254171, 49.80881], [6.253981, 49.80902], [6.253714, 49.809414], [6.253485, 49.80969], [6.252779, 49.810303], [6.252792, 49.810302], [6.252844, 49.810326], [6.253023, 49.81037], [6.253183, 49.81041], [6.253553, 49.810493], [6.253626, 49.81051], [6.25416, 49.810547], [6.254385, 49.810684], [6.25448, 49.810524], [6.254824, 49.810497], [6.255152, 49.81048], [6.255426, 49.810444], [6.255938, 49.810352], [6.256308, 49.810287], [6.256716, 49.81022], [6.257074, 49.810165], [6.257204, 49.81015], [6.257349, 49.810143], [6.257708, 49.81013], [6.257578, 49.810394], [6.258734, 49.8106], [6.259489, 49.81073], [6.260233, 49.810856], [6.260801, 49.810936], [6.261831, 49.811073], [6.263704, 49.81132], [6.263533, 49.811676], [6.263491, 49.811756], [6.263201, 49.811714], [6.263086, 49.81171], [6.262995, 49.811714], [6.262937, 49.811726], [6.262911, 49.811745], [6.262762, 49.811905], [6.262487, 49.812195], [6.262281, 49.812416], [6.262438, 49.81245], [6.26293, 49.81257], [6.263086, 49.812607], [6.263475, 49.812706], [6.263876, 49.81289], [6.264292, 49.81317], [6.264448, 49.8134], [6.264498, 49.8135], [6.264517, 49.813545], [6.264525, 49.813606], [6.264536, 49.81383], [6.264525, 49.813896], [6.264482, 49.813995], [6.264429, 49.814095], [6.264345, 49.814217], [6.264013, 49.814632], [6.263777, 49.81492], [6.263636, 49.81517], [6.263788, 49.815193], [6.264063, 49.81524], [6.264177, 49.81526], [6.264269, 49.815277], [6.264471, 49.81529], [6.264536, 49.815285], [6.264593, 49.815277], [6.264681, 49.815277], [6.264738, 49.81527], [6.264792, 49.815254], [6.264883, 49.815247], [6.264952, 49.815247], [6.26502, 49.81526], [6.2651, 49.815254], [6.265131, 49.815254], [6.265238, 49.81524], [6.265333, 49.815243], [6.265455, 49.81523], [6.265619, 49.81523], [6.265684, 49.815247], [6.265749, 49.815247], [6.265837, 49.81523], [6.265993, 49.815186], [6.266024, 49.815178], [6.266058, 49.815186], [6.266081, 49.815186], [6.266115, 49.81517], [6.266165, 49.81515], [6.266203, 49.815147], [6.266237, 49.81514], [6.266375, 49.81514], [6.26642, 49.815132], [6.26652, 49.815117], [6.266558, 49.815117], [6.266623, 49.81512], [6.266687, 49.815125], [6.266768, 49.81515], [6.266828, 49.815186], [6.266863, 49.8152], [6.266897, 49.81521], [6.266932, 49.815224], [6.266966, 49.81524], [6.267, 49.815243], [6.267038, 49.815247], [6.267061, 49.815254], [6.267092, 49.815277], [6.267115, 49.8153], [6.267134, 49.815327], [6.267145, 49.815346], [6.267157, 49.815357], [6.267267, 49.815422], [6.267294, 49.815453], [6.267336, 49.815483], [6.267374, 49.815514], [6.267405, 49.81552], [6.267427, 49.81552], [6.267466, 49.815506], [6.267488, 49.815514], [6.267492, 49.81553], [6.267492, 49.815548], [6.267485, 49.81565], [6.267496, 49.815727], [6.267523, 49.815773], [6.267588, 49.815826], [6.267668, 49.815865], [6.267813, 49.8159], [6.267904, 49.815937], [6.267954, 49.81597], [6.267954, 49.816017], [6.26795, 49.81607], [6.267977, 49.816093], [6.268022, 49.81611], [6.268213, 49.816154], [6.268412, 49.816208], [6.268499, 49.816257], [6.268545, 49.8163], [6.268553, 49.81634], [6.26856, 49.816406], [6.268579, 49.81643], [6.268618, 49.81645], [6.268675, 49.816452], [6.268713, 49.816452], [6.268747, 49.816467], [6.268751, 49.816498], [6.268736, 49.816544], [6.268759, 49.81658], [6.26882, 49.816635], [6.269018, 49.816757], [6.26903, 49.816788], [6.269014, 49.816807], [6.268976, 49.81681], [6.268816, 49.816788], [6.268774, 49.8168], [6.268759, 49.81684], [6.268766, 49.816936], [6.268778, 49.81703], [6.26885, 49.8172], [6.268862, 49.817314], [6.26885, 49.81742], [6.268675, 49.817795], [6.268682, 49.817825], [6.268705, 49.817856], [6.268755, 49.817955], [6.268721, 49.81804], [6.268713, 49.818115], [6.268698, 49.81816], [6.268614, 49.81831], [6.268583, 49.81838], [6.268579, 49.818436], [6.268591, 49.81848], [6.268614, 49.818512], [6.268724, 49.81858], [6.26882, 49.818657], [6.268854, 49.818703], [6.268896, 49.81883], [6.268923, 49.81892], [6.268953, 49.818947], [6.269033, 49.818985], [6.269113, 49.819016], [6.269178, 49.819077], [6.269213, 49.819115], [6.269239, 49.81919], [6.269251, 49.819405], [6.269262, 49.819473], [6.269335, 49.819534], [6.269507, 49.819603], [6.269628, 49.819675], [6.269766, 49.81984], [6.269815, 49.819923], [6.269815, 49.819996], [6.269789, 49.820045], [6.269712, 49.8201], [6.269682, 49.820152], [6.269693, 49.82021], [6.269735, 49.820274], [6.2698, 49.820385], [6.269819, 49.82047], [6.269796, 49.820557], [6.269739, 49.820675], [6.269739, 49.82072], [6.269793, 49.820744], [6.26988, 49.82077], [6.269953, 49.82083], [6.270033, 49.82096], [6.270147, 49.82113], [6.270205, 49.821182], [6.270334, 49.821266], [6.27043, 49.821274], [6.270346, 49.8213], [6.270285, 49.821312], [6.270193, 49.82132], [6.270159, 49.821297], [6.269754, 49.821053], [6.268911, 49.821087], [6.26882, 49.82106], [6.267858, 49.821068], [6.266657, 49.8211], [6.265779, 49.821136], [6.26549, 49.821182], [6.264696, 49.82132], [6.264254, 49.82141], [6.263243, 49.821644], [6.262087, 49.821926], [6.261667, 49.822033], [6.260191, 49.822304], [6.25963, 49.82244], [6.258856, 49.822662], [6.258459, 49.822773], [6.257662, 49.822937], [6.257254, 49.823025], [6.256926, 49.82312], [6.256601, 49.823227], [6.256052, 49.823395], [6.255693, 49.823486], [6.25569, 49.8235], [6.255659, 49.823692], [6.255655, 49.823727], [6.255617, 49.823956], [6.255602, 49.82406], [6.25559, 49.82412], [6.255529, 49.824486], [6.255449, 49.82503], [6.255373, 49.825447], [6.255293, 49.825977], [6.255205, 49.826485], [6.255125, 49.827026], [6.255045, 49.827534], [6.255003, 49.82778], [6.254961, 49.828064], [6.254877, 49.828568], [6.254824, 49.828964], [6.254808, 49.8291], [6.25469, 49.829967], [6.254694, 49.830013], [6.254675, 49.830135], [6.254892, 49.830276], [6.255171, 49.83046], [6.255446, 49.830643], [6.255991, 49.831005], [6.256022, 49.831028], [6.2568, 49.831547], [6.257009, 49.831688], [6.257105, 49.83175], [6.257467, 49.831993], [6.257666, 49.832123], [6.257936, 49.832302], [6.258223, 49.83248], [6.258375, 49.83258], [6.258799, 49.832863], [6.259348, 49.833233], [6.2595, 49.833332], [6.259661, 49.83344], [6.260088, 49.833725], [6.2605, 49.834003], [6.260511, 49.83401], [6.260958, 49.8343], [6.261023, 49.834347], [6.262087, 49.83504], [6.262838, 49.835533], [6.263224, 49.83578], [6.263334, 49.835854], [6.26367, 49.83608], [6.263857, 49.8362], [6.264113, 49.836372], [6.264875, 49.836864], [6.265478, 49.837254], [6.265989, 49.83757], [6.266024, 49.837593], [6.266302, 49.83777], [6.266604, 49.83796], [6.266962, 49.83819], [6.267111, 49.838284], [6.267149, 49.838306], [6.267408, 49.838474], [6.26755, 49.838562], [6.267729, 49.838673], [6.26782, 49.838734], [6.267939, 49.83881], [6.268328, 49.839058], [6.268412, 49.83911], [6.268877, 49.83941], [6.268984, 49.839478], [6.269197, 49.839615], [6.269262, 49.839664], [6.270086, 49.8402], [6.270666, 49.840576], [6.271223, 49.84094], [6.271429, 49.841072], [6.271456, 49.841087], [6.271143, 49.84115], [6.27096, 49.84118], [6.270792, 49.8412], [6.270643, 49.8412], [6.270418, 49.841194], [6.269636, 49.841152], [6.269308, 49.84115], [6.269041, 49.84116], [6.268736, 49.84119], [6.268423, 49.841232], [6.267885, 49.841366], [6.266973, 49.84162], [6.266531, 49.841747], [6.266321, 49.841824], [6.266169, 49.841896], [6.266073, 49.84195], [6.266046, 49.841988], [6.266024, 49.842026], [6.265886, 49.84215], [6.265291, 49.84272], [6.264898, 49.84309], [6.264624, 49.84337], [6.264509, 49.84349], [6.263704, 49.844223], [6.263239, 49.84464], [6.262781, 49.84503], [6.2628, 49.845047], [6.262987, 49.845146], [6.263323, 49.84532], [6.263422, 49.84537], [6.264055, 49.845703], [6.264502, 49.845943], [6.265417, 49.846443], [6.265459, 49.846472], [6.265486, 49.84649], [6.265576, 49.846536], [6.265619, 49.846558], [6.266123, 49.84683], [6.266844, 49.847218], [6.267019, 49.847313], [6.266966, 49.847355], [6.266901, 49.847404], [6.266821, 49.847466], [6.266806, 49.847477], [6.267061, 49.84765], [6.26745, 49.847916], [6.267786, 49.848087], [6.268358, 49.848373], [6.268675, 49.848537], [6.268885, 49.848644], [6.268957, 49.848694], [6.269319, 49.849003], [6.269518, 49.849182], [6.269545, 49.84918], [6.269663, 49.849167], [6.269991, 49.84914], [6.270338, 49.849113], [6.270552, 49.849094], [6.270933, 49.849064], [6.27112, 49.84904], [6.271318, 49.84902], [6.271524, 49.848995], [6.272322, 49.848892], [6.273886, 49.848675], [6.274103, 49.848648], [6.274416, 49.848602], [6.274511, 49.84859], [6.274797, 49.84855], [6.274935, 49.848545], [6.274977, 49.84855], [6.275011, 49.848534], [6.275087, 49.848537], [6.275591, 49.84848], [6.276144, 49.848415], [6.276915, 49.848328], [6.27696, 49.84832], [6.277105, 49.84827], [6.277247, 49.848267], [6.277514, 49.84821], [6.277762, 49.848156], [6.277983, 49.848106], [6.278238, 49.84805], [6.278719, 49.847942], [6.278849, 49.847916], [6.278944, 49.847893], [6.278994, 49.847885], [6.279051, 49.847878], [6.279287, 49.847847], [6.279764, 49.847786], [6.280171, 49.847733], [6.280195, 49.84773], [6.280436, 49.8477], [6.280684, 49.847668], [6.28097, 49.84763], [6.281389, 49.847576], [6.281496, 49.847565], [6.281535, 49.84756], [6.28163, 49.847546], [6.281954, 49.847504], [6.282126, 49.84748], [6.282393, 49.847441], [6.282511, 49.84743], [6.282877, 49.847385], [6.282977, 49.847377], [6.283022, 49.847374], [6.283041, 49.84737], [6.283182, 49.847358], [6.283266, 49.84735], [6.283323, 49.847347], [6.283407, 49.847339], [6.283697, 49.847313], [6.283735, 49.847313], [6.283915, 49.847298], [6.283976, 49.84729], [6.284166, 49.84727], [6.284262, 49.847263], [6.284372, 49.847256], [6.284468, 49.847244], [6.284563, 49.847237], [6.284601, 49.847233], [6.284742, 49.84722], [6.284998, 49.8472], [6.285326, 49.847168], [6.285444, 49.847157], [6.285601, 49.847145], [6.285642, 49.84714], [6.285665, 49.847137], [6.285756, 49.84713], [6.285891, 49.84712], [6.286062, 49.84711], [6.28615, 49.847107], [6.286303, 49.847107], [6.286528, 49.847103], [6.286577, 49.84709], [6.286619, 49.847084], [6.286646, 49.8471], [6.286757, 49.847107], [6.286966, 49.847126], [6.287088, 49.847145], [6.287176, 49.847164], [6.287283, 49.84719], [6.28742, 49.84723], [6.287672, 49.8473], [6.287798, 49.847343], [6.288156, 49.847446], [6.288233, 49.847466], [6.288347, 49.847485], [6.288557, 49.847507], [6.28874, 49.847534], [6.2889, 49.84756], [6.289225, 49.84764], [6.2894, 49.84769], [6.28948, 49.847706], [6.289526, 49.847713], [6.28961, 49.847717], [6.289793, 49.847713], [6.290094, 49.847713], [6.290514, 49.847706], [6.290655, 49.8477], [6.290754, 49.847694], [6.290831, 49.8477], [6.290937, 49.847706], [6.290998, 49.847702], [6.29109, 49.8477], [6.291216, 49.84768], [6.291315, 49.847668], [6.291391, 49.847668], [6.291586, 49.84768], [6.291704, 49.84768], [6.29209, 49.847656], [6.292181, 49.847645], [6.292372, 49.847595], [6.292517, 49.84757], [6.292624, 49.84755], [6.292749, 49.847546], [6.292807, 49.847538], [6.292917, 49.84752], [6.293028, 49.847515], [6.293055, 49.847507], [6.293158, 49.847485], [6.293241, 49.847473], [6.293337, 49.84748], [6.293421, 49.847492], [6.293508, 49.84751], [6.293585, 49.847523], [6.293814, 49.84754], [6.293928, 49.847572], [6.294088, 49.847626], [6.294344, 49.8477], [6.294657, 49.847786], [6.294779, 49.847816], [6.294928, 49.84785], [6.29532, 49.84793], [6.295496, 49.847977], [6.295664, 49.848026], [6.295801, 49.848057], [6.296068, 49.84811], [6.296167, 49.84814], [6.296331, 49.848206], [6.296537, 49.84829], [6.296797, 49.848408], [6.296949, 49.848473], [6.297026, 49.84849], [6.297117, 49.848503], [6.297262, 49.8485], [6.297453, 49.848507], [6.297701, 49.848515], [6.297949, 49.84853], [6.298136, 49.84854], [6.298201, 49.848545], [6.29825, 49.848537], [6.298506, 49.848465], [6.298822, 49.84841], [6.299013, 49.848385], [6.299307, 49.84835], [6.299536, 49.848324], [6.299704, 49.848312], [6.299765, 49.8483], [6.299803, 49.84829], [6.299837, 49.848255], [6.299959, 49.84812], [6.300005, 49.84808], [6.300047, 49.848057], [6.300112, 49.848038], [6.300157, 49.848022], [6.300196, 49.848007], [6.300253, 49.847973], [6.300314, 49.84795], [6.300386, 49.847927], [6.300558, 49.847885], [6.300676, 49.84785], [6.300787, 49.847816], [6.300852, 49.847786], [6.300947, 49.84773], [6.301142, 49.84761], [6.30134, 49.84749], [6.301691, 49.84729], [6.301844, 49.847206], [6.301973, 49.84715], [6.302259, 49.84703], [6.302359, 49.84699], [6.302454, 49.846928], [6.302519, 49.84689], [6.302622, 49.846848], [6.302698, 49.84681], [6.302813, 49.846775], [6.303049, 49.84671], [6.303297, 49.846638], [6.303434, 49.846596], [6.303579, 49.84656], [6.303751, 49.846523], [6.304041, 49.846474], [6.30438, 49.846413], [6.304552, 49.84637], [6.304869, 49.846294], [6.304949, 49.84627], [6.30501, 49.846275], [6.305078, 49.84629], [6.305239, 49.846333], [6.305342, 49.846363], [6.30538, 49.84637], [6.305418, 49.846478], [6.305448, 49.846542], [6.305532, 49.846664], [6.305636, 49.846756], [6.305803, 49.84688], [6.305948, 49.84699], [6.306509, 49.847336], [6.306734, 49.847504], [6.307291, 49.847622], [6.307798, 49.847706], [6.308058, 49.847733], [6.308363, 49.84776], [6.308859, 49.847794], [6.309034, 49.847805], [6.309473, 49.847805], [6.310396, 49.847797], [6.310408, 49.848335], [6.310419, 49.848785], [6.310423, 49.848915], [6.310423, 49.848995], [6.310434, 49.849422], [6.310446, 49.85011], [6.310419, 49.8503], [6.310404, 49.850346], [6.310335, 49.850655], [6.310209, 49.851063], [6.310137, 49.851315], [6.310121, 49.85138], [6.310103, 49.851444], [6.310038, 49.85172], [6.310011, 49.851826], [6.309881, 49.852108], [6.309664, 49.852566], [6.309683, 49.85281], [6.309751, 49.85387], [6.309755, 49.85392], [6.309221, 49.85493], [6.309031, 49.855194], [6.308897, 49.855362], [6.308828, 49.855453], [6.308752, 49.85555], [6.308432, 49.85595], [6.308367, 49.85604], [6.308195, 49.856274], [6.307756, 49.85685], [6.307451, 49.857254], [6.307997, 49.85747], [6.308569, 49.85769], [6.309053, 49.857872], [6.309343, 49.858], [6.309572, 49.858112], [6.310003, 49.858315], [6.310121, 49.858368], [6.310755, 49.85862], [6.310858, 49.858654], [6.311304, 49.858837], [6.311464, 49.858902], [6.311998, 49.85904], [6.312387, 49.859276], [6.312429, 49.859303], [6.312551, 49.859352], [6.312803, 49.859447], [6.313021, 49.85953], [6.31323, 49.859604], [6.313452, 49.85967], [6.313486, 49.859676], [6.313681, 49.859726], [6.31386, 49.859768], [6.314062, 49.85987], [6.314123, 49.859882], [6.314135, 49.859884], [6.314154, 49.859854], [6.314199, 49.859785], [6.314268, 49.859682], [6.314409, 49.859461], [6.314505, 49.859331], [6.314673, 49.85911], [6.314768, 49.859045], [6.314878, 49.858915], [6.31497, 49.858809], [6.315065, 49.858721], [6.315126, 49.858595], [6.31526, 49.858438], [6.315344, 49.858381], [6.315489, 49.858198], [6.315542, 49.858168], [6.315603, 49.858065], [6.315699, 49.85795], [6.315836, 49.85774], [6.315912, 49.857691], [6.315924, 49.857637], [6.316008, 49.857527], [6.316107, 49.85737], [6.316259, 49.857206], [6.316343, 49.857012], [6.316446, 49.856855], [6.316591, 49.856577], [6.316801, 49.856279], [6.317072, 49.855921], [6.317213, 49.855715], [6.317385, 49.855539], [6.317495, 49.85539], [6.317587, 49.855318], [6.317827, 49.855108], [6.317919, 49.85504], [6.318064, 49.854944], [6.318293, 49.854822], [6.318445, 49.85475], [6.318552, 49.854677], [6.318659, 49.854624], [6.318846, 49.854521], [6.319162, 49.854357], [6.319479, 49.854147], [6.319819, 49.853979], [6.320162, 49.853731], [6.320539, 49.853491], [6.320558, 49.853441], [6.320715, 49.853369], [6.320948, 49.853243], [6.321127, 49.853113], [6.321261, 49.853018], [6.321783, 49.85261], [6.321993, 49.852388], [6.322279, 49.852041], [6.322424, 49.851816], [6.32255, 49.851515], [6.322573, 49.851255], [6.322584, 49.850946], [6.322573, 49.850756], [6.322538, 49.850603], [6.32247, 49.850336], [6.322416, 49.850092], [6.32234, 49.84976], [6.322233, 49.849443], [6.322172, 49.849241], [6.322123, 49.849058], [6.32197, 49.848589], [6.321875, 49.848112], [6.321791, 49.84767], [6.321672, 49.847441], [6.321672, 49.847334], [6.321631, 49.847174], [6.321562, 49.846937], [6.321489, 49.846796], [6.321394, 49.846643], [6.321272, 49.846529], [6.321142, 49.846392], [6.321058, 49.846228], [6.320906, 49.846151], [6.320593, 49.845785], [6.320345, 49.845503], [6.32028, 49.845297], [6.320253, 49.845262], [6.320181, 49.845167], [6.320093, 49.845076], [6.320013, 49.844858], [6.31999, 49.844683], [6.320047, 49.844408], [6.319925, 49.844027], [6.319918, 49.843832], [6.319838, 49.843687], [6.319776, 49.843592], [6.31967, 49.843405], [6.319559, 49.843214], [6.319513, 49.84297], [6.319529, 49.842787], [6.319567, 49.842707], [6.31962, 49.842527], [6.319632, 49.84231], [6.319735, 49.84207], [6.319792, 49.842039], [6.319826, 49.841959], [6.31978, 49.841963], [6.319685, 49.841825], [6.319677, 49.841631], [6.319696, 49.841379], [6.319689, 49.841169], [6.319704, 49.840879], [6.319716, 49.840677], [6.319769, 49.840399], [6.320028, 49.839876], [6.320162, 49.839727], [6.320448, 49.839384], [6.32062, 49.839235], [6.320772, 49.83898], [6.320929, 49.838823], [6.321089, 49.838678], [6.321188, 49.838671], [6.321272, 49.838621], [6.321424, 49.838453], [6.321524, 49.838499], [6.321604, 49.838484], [6.32165, 49.8384], [6.321749, 49.838366], [6.322016, 49.838266], [6.322161, 49.83819], [6.322393, 49.838022], [6.322645, 49.837851], [6.323305, 49.837519], [6.323751, 49.837313], [6.32427, 49.837069], [6.32498, 49.836737], [6.325174, 49.836645], [6.325335, 49.836565], [6.325724, 49.836393], [6.326078, 49.836237], [6.326441, 49.836115], [6.326853, 49.836012], [6.327166, 49.835939], [6.327616, 49.835894], [6.328402, 49.835901], [6.328802, 49.835932], [6.329142, 49.835958], [6.329271, 49.835997], [6.32976, 49.836046], [6.329794, 49.836046], [6.32984, 49.83605], [6.329924, 49.836054], [6.330278, 49.836142], [6.330843, 49.836302], [6.331209, 49.836428], [6.331556, 49.836554], [6.331896, 49.836657], [6.332319, 49.836782], [6.332762, 49.836901], [6.333098, 49.837007], [6.333582, 49.837152], [6.334021, 49.837309], [6.334417, 49.837473], [6.334925, 49.837683], [6.335173, 49.837809], [6.335234, 49.837847], [6.335421, 49.837965], [6.335607, 49.838045], [6.33576, 49.838167], [6.335924, 49.838243], [6.336138, 49.838419], [6.33637, 49.838625], [6.336573, 49.838774], [6.336695, 49.838808], [6.336679, 49.838892], [6.336847, 49.838999], [6.337042, 49.839125], [6.337416, 49.839533], [6.337561, 49.839743], [6.337698, 49.839945], [6.337793, 49.840113], [6.337946, 49.840342], [6.338026, 49.840494], [6.338179, 49.840742], [6.338255, 49.840906], [6.338339, 49.841116], [6.338388, 49.841368], [6.338404, 49.841577], [6.338461, 49.841822], [6.33851, 49.842089], [6.338591, 49.842428], [6.338636, 49.842722], [6.338663, 49.842985], [6.338739, 49.843359], [6.338865, 49.843737], [6.338896, 49.84387], [6.338942, 49.844221], [6.338995, 49.844385], [6.339014, 49.844553], [6.339098, 49.844812], [6.339189, 49.84503], [6.339281, 49.845266], [6.339441, 49.845652], [6.339499, 49.845945], [6.339594, 49.846296], [6.339632, 49.846445], [6.339697, 49.84675], [6.3398, 49.847094], [6.339872, 49.847441], [6.340147, 49.847803], [6.340383, 49.848074], [6.340521, 49.848169], [6.34091, 49.848398], [6.341078, 49.848494], [6.341536, 49.84868], [6.342299, 49.848917], [6.342592, 49.849009], [6.342852, 49.849085], [6.343149, 49.849165], [6.343481, 49.849249], [6.343916, 49.849337], [6.344378, 49.849413], [6.344953, 49.849504], [6.34532, 49.849558], [6.345716, 49.8496], [6.346518, 49.849794], [6.346952, 49.849886], [6.34754, 49.849985], [6.348208, 49.850134], [6.348436, 49.850191], [6.348932, 49.850267], [6.349401, 49.85034], [6.34997, 49.850397], [6.35084, 49.850409], [6.351404, 49.850431], [6.351892, 49.850424], [6.352587, 49.850466], [6.353102, 49.850489], [6.353815, 49.850527], [6.35441, 49.850553], [6.3552, 49.850595], [6.356687, 49.850622], [6.357161, 49.850679], [6.35766, 49.850679], [6.358004, 49.85066], [6.358187, 49.850637], [6.358313, 49.850637], [6.358389, 49.850637], [6.358442, 49.850637], [6.359003, 49.850637], [6.359369, 49.850618], [6.359774, 49.850607], [6.360285, 49.850592], [6.360704, 49.850584], [6.361078, 49.850614], [6.361372, 49.850634], [6.361654, 49.850653], [6.362154, 49.850691], [6.362486, 49.850725], [6.362844, 49.850763], [6.363172, 49.850767], [6.363321, 49.850752], [6.363638, 49.85074], [6.363943, 49.850717], [6.364084, 49.850687], [6.364615, 49.850493], [6.364821, 49.850359], [6.365328, 49.850111], [6.365705, 49.849916], [6.365988, 49.849779], [6.366243, 49.849646], [6.366411, 49.849523], [6.366602, 49.849314], [6.366766, 49.8491], [6.366957, 49.848867], [6.367147, 49.848616], [6.367304, 49.848349], [6.367575, 49.848002], [6.367712, 49.847841], [6.367876, 49.847651], [6.368296, 49.847204], [6.368566, 49.846952], [6.368875, 49.846655], [6.369291, 49.846235], [6.369597, 49.845934], [6.370153, 49.845308], [6.370401, 49.845045], [6.370596, 49.844805], [6.370954, 49.844481], [6.371141, 49.844179], [6.371321, 49.843859], [6.371527, 49.843512], [6.371717, 49.843275], [6.371889, 49.843035], [6.372118, 49.842737], [6.372274, 49.842562], [6.372583, 49.842249], [6.372625, 49.842226], [6.372934, 49.842073], [6.373342, 49.841829], [6.373648, 49.841612], [6.374174, 49.841368], [6.374445, 49.841272], [6.374636, 49.841185], [6.374876, 49.841097], [6.375246, 49.840952], [6.375624, 49.84078], [6.375841, 49.840666], [6.376131, 49.840502], [6.376413, 49.840307], [6.376738, 49.840097], [6.376917, 49.839754], [6.37715, 49.839418], [6.37726, 49.83927], [6.377527, 49.838999], [6.377737, 49.8388], [6.37797, 49.83856], [6.378298, 49.838232], [6.378591, 49.837976], [6.378855, 49.837759], [6.378962, 49.837668], [6.379293, 49.83745], [6.379572, 49.837297], [6.379652, 49.837271], [6.37977, 49.83721], [6.380033, 49.837114], [6.380152, 49.837053], [6.380426, 49.836901], [6.380579, 49.836817], [6.380865, 49.836618], [6.381132, 49.836435], [6.381258, 49.836313], [6.381418, 49.836203], [6.381685, 49.835981], [6.381849, 49.83584], [6.381998, 49.835718], [6.382155, 49.835585], [6.382193, 49.835585], [6.382269, 49.835524], [6.382216, 49.83552], [6.382364, 49.835306], [6.382448, 49.83518], [6.382639, 49.834955], [6.382769, 49.834799], [6.382875, 49.834692], [6.383036, 49.834536], [6.38315, 49.834364], [6.383368, 49.834207], [6.38352, 49.834009], [6.383684, 49.83378], [6.383772, 49.833593], [6.383791, 49.833578], [6.383894, 49.833433], [6.384035, 49.83333], [6.384184, 49.833189], [6.384222, 49.833113], [6.38439, 49.83291], [6.384436, 49.832743], [6.384474, 49.832685], [6.384504, 49.832644], [6.384592, 49.832525], [6.384699, 49.832407], [6.384989, 49.832243], [6.385256, 49.832094], [6.385382, 49.831999], [6.385569, 49.831922], [6.385717, 49.831816], [6.385885, 49.831694], [6.386377, 49.831385], [6.386583, 49.831232], [6.3869, 49.831015], [6.38727, 49.83077], [6.387556, 49.830595], [6.387819, 49.830401], [6.387926, 49.830275], [6.388056, 49.830183], [6.388075, 49.830133], [6.388094, 49.830088], [6.388246, 49.829988], [6.388376, 49.829889], [6.388475, 49.829763], [6.388643, 49.829634], [6.388742, 49.829534], [6.388807, 49.829439], [6.389139, 49.829225], [6.389479, 49.829027], [6.389765, 49.828886], [6.390055, 49.828699], [6.390367, 49.828512], [6.390673, 49.828348], [6.390913, 49.828241], [6.391108, 49.82815], [6.391317, 49.828066], [6.39168, 49.827906], [6.391977, 49.827772], [6.392183, 49.82765], [6.392363, 49.827524], [6.392664, 49.827253], [6.392988, 49.826967], [6.393167, 49.82675], [6.393442, 49.826494], [6.39364, 49.826273], [6.393839, 49.826086], [6.393942, 49.825968], [6.394072, 49.825834], [6.394194, 49.825659], [6.394484, 49.8253], [6.39464, 49.825113], [6.395037, 49.82464], [6.395365, 49.824266], [6.395536, 49.824072], [6.395689, 49.823889], [6.395849, 49.823717], [6.396021, 49.823507], [6.396193, 49.82332], [6.396364, 49.823099], [6.396513, 49.822939], [6.396662, 49.82276], [6.396799, 49.822618], [6.396875, 49.822542], [6.397184, 49.822283], [6.397348, 49.822164], [6.397493, 49.822073], [6.39778, 49.821901], [6.397837, 49.821867], [6.398012, 49.821772], [6.398294, 49.821585], [6.398581, 49.821466], [6.398786, 49.821344], [6.399088, 49.821173], [6.399305, 49.821058], [6.399527, 49.820932], [6.399752, 49.820803], [6.400007, 49.820661], [6.400259, 49.820524], [6.400534, 49.820372], [6.400789, 49.820238], [6.401049, 49.820101], [6.4013, 49.819964], [6.401468, 49.819879], [6.401716, 49.819758], [6.401941, 49.819654], [6.402178, 49.819552], [6.402288, 49.819502], [6.40243, 49.819437], [6.402582, 49.819399], [6.402826, 49.819387], [6.403227, 49.819342], [6.403513, 49.819319], [6.403822, 49.819281], [6.404074, 49.819262], [6.40452, 49.819208], [6.404795, 49.819162], [6.404856, 49.819151], [6.405058, 49.819094], [6.405127, 49.819075], [6.40539, 49.818979], [6.405642, 49.818891], [6.405943, 49.8188], [6.406485, 49.818617], [6.407347, 49.818289], [6.407591, 49.818216], [6.407843, 49.818113], [6.408205, 49.817961], [6.408525, 49.817873], [6.408835, 49.817755], [6.409162, 49.817686], [6.409517, 49.817625], [6.409834, 49.81756], [6.410112, 49.817514], [6.410463, 49.81745], [6.410868, 49.817388], [6.411547, 49.817266], [6.411802, 49.817221], [6.412218, 49.817152], [6.412481, 49.81711], [6.412508, 49.817106], [6.412867, 49.817049], [6.413237, 49.816996], [6.413504, 49.816942], [6.413916, 49.816877], [6.41432, 49.816805], [6.414606, 49.816809], [6.414637, 49.816797], [6.414991, 49.816702], [6.4154, 49.816622], [6.415911, 49.816534], [6.416304, 49.816481], [6.416765, 49.816423], [6.41733, 49.816343], [6.417738, 49.816286], [6.418154, 49.816229], [6.418676, 49.816191], [6.419168, 49.816111], [6.419538, 49.81605], [6.419821, 49.816034], [6.42005, 49.815992], [6.420446, 49.815969], [6.420973, 49.815973], [6.421507, 49.815989], [6.421892, 49.815989], [6.422365, 49.815996], [6.422827, 49.815992], [6.423918, 49.816015], [6.42441, 49.816019], [6.424734, 49.815992], [6.424932, 49.815973], [6.425196, 49.815924], [6.425428, 49.815798], [6.425615, 49.815695], [6.425718, 49.81555], [6.425783, 49.815363], [6.425695, 49.814974], [6.425734, 49.814753], [6.425757, 49.814478], [6.425791, 49.814192], [6.425825, 49.813898], [6.425867, 49.813635], [6.425901, 49.813356], [6.425966, 49.813147], [6.42618, 49.812731], [6.426229, 49.812655], [6.426413, 49.812433], [6.426573, 49.812235], [6.426729, 49.812052], [6.426867, 49.811914], [6.427065, 49.81175], [6.427305, 49.811579], [6.42761, 49.811407], [6.427721, 49.811335], [6.427851, 49.811262], [6.427904, 49.811232], [6.428266, 49.811045], [6.428472, 49.810953], [6.42869, 49.810862], [6.428961, 49.810762], [6.429247, 49.810671], [6.429434, 49.810614], [6.429464, 49.810606], [6.429644, 49.810545], [6.429888, 49.81048], [6.430002, 49.810461], [6.430273, 49.810377], [6.430304, 49.810373], [6.430593, 49.81032], [6.430895, 49.81027], [6.431066, 49.810247], [6.431295, 49.810259], [6.431517, 49.810301], [6.431669, 49.810339], [6.431845, 49.810404], [6.432253, 49.810568], [6.432463, 49.810663], [6.432737, 49.810835], [6.432974, 49.810995], [6.433157, 49.811121], [6.433466, 49.811354], [6.433763, 49.811571], [6.434023, 49.811758], [6.434202, 49.811876], [6.434408, 49.812025], [6.434668, 49.812193], [6.434713, 49.81222], [6.434896, 49.812319], [6.434912, 49.812326], [6.435141, 49.812445], [6.435812, 49.812773], [6.436113, 49.81291], [6.436518, 49.813082], [6.436899, 49.813238], [6.437246, 49.813372], [6.437643, 49.813479], [6.437902, 49.813539], [6.438349, 49.813623], [6.438738, 49.813704], [6.43891, 49.813742], [6.439375, 49.813845], [6.439825, 49.813944], [6.440268, 49.814047], [6.440508, 49.814104], [6.440855, 49.814158], [6.441137, 49.814169], [6.441355, 49.814188], [6.441568, 49.814161], [6.441721, 49.814104], [6.441843, 49.813974], [6.441885, 49.813848], [6.441919, 49.813673], [6.441961, 49.813181], [6.441965, 49.813013], [6.442018, 49.812868], [6.442118, 49.812677], [6.442228, 49.812532], [6.442312, 49.812376], [6.442461, 49.81214], [6.442663, 49.811941], [6.442862, 49.811766], [6.442987, 49.811644], [6.443163, 49.811499], [6.443403, 49.811407], [6.443575, 49.811373], [6.443945, 49.811342], [6.444159, 49.811346], [6.444487, 49.811377], [6.444693, 49.811426], [6.44486, 49.811464], [6.445112, 49.811491], [6.445383, 49.811529], [6.445654, 49.811537], [6.445849, 49.811552], [6.446173, 49.811575], [6.446451, 49.811613], [6.446829, 49.811613], [6.447199, 49.811625], [6.447527, 49.811621], [6.447786, 49.811613], [6.448244, 49.811571], [6.448515, 49.811533], [6.448553, 49.811525], [6.449057, 49.81148], [6.449408, 49.811438], [6.449865, 49.811392], [6.450426, 49.811312], [6.450949, 49.81127], [6.4513, 49.811274], [6.451677, 49.811281], [6.451777, 49.811304], [6.451918, 49.811338], [6.452009, 49.811361], [6.452948, 49.8113], [6.453569, 49.811289], [6.45363, 49.811285], [6.454069, 49.811331], [6.454332, 49.811357], [6.454569, 49.811441], [6.454756, 49.811563], [6.455053, 49.811769], [6.455358, 49.811945], [6.455614, 49.81212], [6.455957, 49.812288], [6.456259, 49.812437], [6.456495, 49.812582], [6.456804, 49.812822], [6.45701, 49.812998], [6.45714, 49.813196], [6.457411, 49.813497], [6.457586, 49.813685], [6.457762, 49.813883], [6.457888, 49.814005], [6.458094, 49.814196], [6.4587, 49.814802], [6.459028, 49.815096], [6.459162, 49.815249], [6.459333, 49.815435], [6.459562, 49.815603], [6.459795, 49.815832], [6.460024, 49.816061], [6.460245, 49.816275], [6.460611, 49.816664], [6.46076, 49.816889], [6.460932, 49.817057], [6.461161, 49.817236], [6.461382, 49.817381], [6.461679, 49.817602], [6.461927, 49.817793], [6.462141, 49.817923], [6.462469, 49.818155], [6.46282, 49.818418], [6.463102, 49.818663], [6.463434, 49.818937], [6.463984, 49.819319], [6.464117, 49.819368], [6.464392, 49.819529], [6.464907, 49.819723], [6.465166, 49.819815], [6.465262, 49.819841], [6.465609, 49.819902], [6.46591, 49.820044], [6.466211, 49.820124], [6.466375, 49.820189], [6.466669, 49.820333], [6.466837, 49.820448], [6.467024, 49.820558], [6.467413, 49.820826], [6.467653, 49.820993], [6.468096, 49.821261], [6.468344, 49.821398], [6.468588, 49.821489], [6.468782, 49.821611], [6.46911, 49.821821], [6.469378, 49.821959], [6.469625, 49.822069], [6.470072, 49.822206], [6.470377, 49.822283], [6.470633, 49.822317], [6.470987, 49.822325], [6.471296, 49.82229], [6.47172, 49.822237], [6.471918, 49.822195], [6.472567, 49.821997], [6.473036, 49.821806], [6.473417, 49.821642], [6.473585, 49.821569], [6.473944, 49.821413], [6.474287, 49.821268], [6.474756, 49.821058], [6.475046, 49.820932], [6.475336, 49.820807], [6.475645, 49.820673], [6.475923, 49.820555], [6.476217, 49.820429], [6.476412, 49.820345], [6.47674, 49.820204], [6.477446, 49.819895], [6.47798, 49.819674], [6.478331, 49.819521], [6.478785, 49.819323], [6.479116, 49.819166], [6.479517, 49.818972], [6.479849, 49.8188], [6.480166, 49.818613], [6.480455, 49.818411], [6.480722, 49.818213], [6.48102, 49.817942], [6.481298, 49.817644], [6.481554, 49.817305], [6.481829, 49.816927], [6.481993, 49.816687], [6.482092, 49.816561], [6.482279, 49.816294], [6.482462, 49.816053], [6.48279, 49.815599], [6.483, 49.815317], [6.483232, 49.815], [6.483404, 49.81476], [6.483553, 49.81452], [6.483702, 49.814302], [6.483911, 49.814009], [6.484045, 49.813848], [6.484415, 49.813532], [6.48451, 49.813452], [6.4848, 49.813326], [6.484976, 49.813253], [6.485243, 49.813128], [6.485472, 49.813017], [6.485647, 49.812952], [6.4858, 49.812887], [6.486025, 49.812784], [6.486265, 49.81267], [6.48646, 49.812578], [6.486666, 49.812483], [6.486876, 49.812384], [6.487101, 49.812284], [6.487341, 49.812162], [6.487528, 49.812094], [6.487825, 49.811968], [6.488001, 49.81188], [6.488329, 49.811735], [6.488504, 49.811667], [6.488649, 49.811613], [6.488878, 49.811575], [6.489157, 49.81151], [6.489424, 49.811457], [6.489656, 49.811422], [6.489809, 49.811396], [6.49008, 49.811342], [6.490252, 49.811304], [6.490412, 49.811277], [6.49074, 49.811232], [6.490866, 49.811216], [6.490915, 49.811209], [6.491091, 49.811182], [6.491331, 49.811152], [6.491552, 49.811129], [6.491724, 49.811113], [6.491995, 49.811094], [6.492212, 49.811098], [6.492395, 49.811087], [6.492601, 49.811087], [6.492861, 49.811102], [6.493032, 49.811125], [6.493128, 49.811148], [6.493319, 49.81119], [6.493486, 49.811247], [6.493647, 49.811354], [6.493757, 49.811438], [6.493944, 49.811583], [6.49407, 49.811689], [6.494204, 49.811781], [6.494474, 49.811892], [6.49452, 49.811911], [6.494821, 49.812063], [6.495157, 49.812185], [6.495336, 49.81222], [6.495497, 49.812242], [6.495707, 49.812235], [6.495871, 49.8122], [6.49618, 49.812086], [6.496447, 49.811964], [6.49663, 49.811888], [6.496725, 49.811827], [6.496943, 49.81172], [6.497057, 49.811667], [6.497381, 49.811514], [6.497587, 49.811422], [6.497728, 49.811354], [6.497942, 49.811232], [6.49814, 49.811144], [6.498282, 49.811083], [6.498419, 49.810991], [6.498545, 49.810934], [6.498869, 49.810774], [6.499063, 49.810698], [6.499346, 49.810617], [6.49959, 49.810537], [6.500094, 49.810373], [6.500361, 49.810282], [6.500711, 49.810144], [6.501219, 49.809969], [6.501596, 49.80987], [6.502237, 49.809748], [6.502474, 49.809725], [6.502676, 49.809698], [6.502993, 49.809648], [6.503382, 49.809595], [6.503839, 49.809538], [6.504042, 49.809515], [6.50448, 49.809462], [6.50506, 49.809309], [6.505415, 49.809137], [6.505751, 49.808901], [6.505987, 49.808676], [6.506208, 49.808424], [6.506342, 49.808252], [6.506533, 49.807981], [6.506742, 49.807665], [6.506788, 49.807596], [6.506849, 49.807512], [6.507036, 49.807203], [6.507246, 49.806852], [6.507448, 49.806505], [6.507608, 49.806272], [6.507669, 49.806212], [6.507704, 49.806162], [6.50775, 49.806093], [6.507776, 49.805925], [6.507982, 49.805506], [6.508028, 49.805422], [6.50823, 49.805017], [6.508417, 49.804636], [6.508459, 49.804552], [6.508738, 49.803961], [6.50881, 49.803747], [6.508818, 49.803698], [6.508837, 49.803656], [6.508913, 49.803492], [6.508955, 49.803492], [6.509073, 49.803221], [6.509306, 49.802713], [6.509382, 49.802557], [6.509459, 49.802446], [6.509665, 49.80221], [6.509695, 49.802172], [6.509832, 49.802046], [6.509848, 49.802031], [6.50989, 49.801989], [6.51013, 49.801767], [6.510244, 49.801664], [6.510302, 49.801611], [6.510313, 49.801607], [6.510664, 49.801481], [6.510931, 49.80142], [6.511129, 49.801378], [6.511408, 49.801371], [6.511553, 49.801367], [6.511881, 49.801386], [6.512274, 49.801458], [6.512816, 49.801634], [6.513174, 49.801813], [6.51354, 49.802042], [6.513884, 49.802298], [6.514139, 49.802511], [6.514715, 49.803045], [6.514807, 49.803114], [6.514849, 49.803225], [6.514872, 49.803282], [6.514944, 49.803381], [6.515009, 49.803442], [6.515051, 49.80348], [6.515074, 49.803507], [6.515127, 49.803556], [6.515154, 49.803579], [6.515196, 49.803618], [6.515318, 49.803724], [6.515375, 49.803755], [6.515551, 49.803945], [6.515795, 49.80422], [6.515959, 49.804388], [6.516367, 49.804846], [6.516661, 49.805208], [6.516935, 49.805574], [6.517076, 49.805849], [6.517237, 49.806074], [6.517355, 49.806295], [6.517473, 49.806482], [6.517603, 49.806692], [6.517702, 49.806887], [6.517798, 49.8071], [6.517828, 49.807169], [6.517843, 49.807295], [6.517923, 49.807417], [6.517908, 49.807531], [6.518003, 49.807535], [6.518015, 49.807608], [6.518061, 49.807699], [6.518007, 49.80773], [6.518095, 49.807795], [6.51816, 49.807928], [6.518248, 49.807981], [6.51824, 49.808107], [6.518316, 49.80818], [6.518434, 49.808485], [6.51853, 49.80863], [6.51853, 49.808859], [6.51858, 49.808992], [6.518587, 49.809099], [6.518496, 49.809267], [6.518488, 49.80942], [6.518438, 49.80961], [6.518412, 49.809904], [6.518446, 49.810232], [6.518473, 49.810389], [6.518545, 49.810522], [6.518576, 49.81064], [6.518595, 49.810766], [6.518656, 49.811048], [6.51877, 49.811262], [6.518827, 49.811384], [6.518862, 49.811468], [6.518976, 49.811705], [6.519091, 49.811953], [6.519247, 49.81217], [6.519388, 49.812307], [6.519548, 49.812483], [6.519754, 49.812647], [6.519949, 49.81278], [6.520231, 49.812906], [6.52046, 49.812967], [6.520872, 49.813101], [6.521093, 49.813108], [6.521318, 49.813112], [6.521627, 49.81304], [6.521936, 49.81291], [6.522402, 49.812742], [6.522474, 49.812731], [6.522684, 49.812674], [6.522913, 49.812586], [6.523104, 49.812536], [6.523272, 49.812452], [6.523592, 49.81238], [6.523977, 49.812208], [6.524118, 49.812204], [6.524359, 49.812067], [6.524733, 49.811914], [6.52503, 49.811811], [6.525255, 49.811712], [6.525618, 49.811579], [6.526003, 49.811438], [6.526178, 49.811373], [6.526434, 49.811258], [6.52664, 49.811167], [6.526918, 49.811018], [6.527227, 49.810823], [6.527395, 49.81069], [6.527517, 49.810587], [6.527754, 49.810373], [6.527983, 49.810217], [6.528227, 49.810068], [6.528543, 49.809862], [6.528727, 49.809736], [6.529005, 49.809553], [6.529406, 49.809244], [6.529497, 49.809088], [6.529577, 49.808916], [6.529554, 49.808737], [6.52949, 49.808794], [6.529448, 49.808771], [6.529558, 49.808378], [6.529638, 49.808245], [6.529688, 49.808096], [6.529749, 49.80789], [6.529802, 49.807634], [6.530092, 49.80699], [6.53013, 49.806948], [6.530409, 49.806662], [6.530657, 49.806364], [6.530745, 49.806116], [6.530813, 49.805998], [6.530897, 49.806009], [6.530851, 49.80583], [6.53084, 49.805674], [6.530794, 49.805567], [6.530767, 49.805349], [6.530642, 49.805151], [6.530489, 49.804998], [6.530107, 49.804606], [6.529932, 49.804434], [6.529718, 49.804224], [6.529676, 49.804125], [6.529261, 49.803862], [6.528814, 49.803583], [6.528501, 49.8034], [6.528349, 49.803297], [6.528162, 49.803179], [6.527895, 49.803034], [6.527605, 49.802889], [6.527372, 49.802778], [6.527163, 49.802687], [6.527109, 49.802652], [6.526907, 49.802557], [6.526648, 49.802416], [6.526487, 49.80232], [6.526331, 49.802198], [6.526075, 49.802042], [6.525927, 49.801886], [6.525778, 49.801783], [6.525595, 49.801615], [6.525408, 49.801451], [6.525217, 49.801302], [6.525084, 49.801195], [6.524904, 49.801043], [6.524801, 49.800882], [6.524691, 49.800756], [6.524462, 49.800535], [6.52434, 49.800386], [6.524046, 49.800123], [6.523886, 49.799963], [6.52355, 49.799673], [6.523363, 49.799524], [6.523188, 49.799406], [6.523004, 49.799253], [6.522867, 49.799093], [6.522787, 49.798956], [6.522688, 49.798842], [6.522589, 49.798704], [6.522402, 49.798483], [6.522215, 49.798277], [6.522108, 49.798132], [6.521948, 49.797911], [6.521841, 49.797773], [6.521688, 49.797583], [6.521608, 49.79748], [6.521418, 49.797293], [6.521238, 49.797148], [6.521051, 49.797014], [6.520968, 49.796965], [6.520704, 49.796766], [6.520533, 49.796656], [6.52033, 49.796553], [6.520117, 49.796411], [6.519766, 49.79627], [6.519434, 49.796114], [6.519075, 49.795977], [6.518949, 49.795935], [6.518534, 49.79579], [6.518152, 49.795652], [6.517965, 49.795599], [6.517534, 49.795534], [6.517267, 49.795439], [6.517168, 49.795389], [6.516916, 49.795267], [6.516729, 49.795191], [6.516458, 49.79508], [6.516146, 49.794935], [6.515818, 49.794733], [6.515779, 49.794706], [6.515428, 49.794539], [6.515154, 49.794439], [6.514608, 49.794176], [6.51441, 49.7941], [6.514181, 49.794012], [6.513967, 49.79394], [6.513636, 49.79384], [6.513205, 49.793703], [6.512545, 49.793535], [6.512083, 49.793447], [6.511923, 49.793421], [6.511637, 49.793371], [6.511286, 49.793306], [6.510759, 49.793188], [6.510218, 49.79302], [6.509748, 49.792871], [6.509279, 49.792738], [6.509142, 49.792688], [6.509096, 49.79265], [6.508699, 49.792444], [6.508577, 49.792395], [6.508486, 49.792349], [6.508387, 49.792299], [6.508306, 49.792292], [6.507326, 49.791944], [6.507227, 49.791849], [6.507013, 49.791616], [6.506762, 49.791357], [6.506537, 49.791124], [6.506395, 49.790991], [6.506227, 49.790808], [6.506082, 49.790617], [6.505831, 49.790255], [6.505739, 49.79006], [6.505655, 49.789823], [6.50561, 49.789637], [6.505583, 49.789442], [6.505579, 49.789305], [6.505594, 49.789095], [6.505625, 49.788938], [6.505674, 49.788721], [6.505701, 49.788679], [6.505739, 49.788546], [6.505903, 49.788244], [6.506037, 49.788061], [6.506212, 49.787844], [6.506357, 49.787691], [6.506659, 49.787439], [6.506861, 49.787294], [6.507139, 49.787111], [6.507338, 49.786993], [6.507437, 49.786943], [6.507639, 49.78684], [6.50783, 49.786737], [6.507986, 49.786646], [6.508291, 49.786516], [6.508734, 49.786322], [6.50923, 49.786131], [6.509665, 49.785936], [6.510233, 49.785726], [6.510611, 49.785574], [6.510973, 49.785467], [6.511312, 49.785391], [6.511919, 49.785261], [6.512419, 49.785151], [6.512842, 49.785051], [6.513109, 49.784979], [6.513487, 49.784857], [6.513811, 49.78472], [6.513956, 49.784651], [6.514277, 49.784529], [6.514646, 49.784399], [6.514925, 49.784281], [6.515307, 49.784098], [6.51544, 49.784033], [6.515577, 49.783964], [6.515619, 49.78393], [6.515802, 49.783838], [6.51594, 49.783747], [6.515966, 49.783712], [6.516191, 49.783594], [6.516298, 49.783392], [6.516348, 49.783293], [6.516485, 49.783205], [6.516604, 49.783125], [6.516684, 49.782972], [6.516813, 49.78277], [6.516901, 49.782579], [6.516855, 49.78245], [6.516783, 49.782282], [6.516699, 49.782125], [6.516626, 49.781992], [6.516466, 49.781794], [6.516371, 49.781668], [6.516302, 49.781618], [6.516241, 49.781553], [6.516146, 49.781466], [6.516062, 49.781397], [6.51597, 49.781271], [6.515822, 49.781153], [6.515726, 49.781069], [6.515589, 49.780935], [6.515486, 49.780867], [6.515337, 49.780756], [6.515249, 49.780664], [6.515051, 49.780497], [6.514944, 49.780371], [6.514441, 49.779978], [6.51428, 49.779848], [6.514017, 49.77965], [6.513666, 49.779402], [6.51309, 49.778974], [6.512972, 49.778868], [6.512816, 49.778742], [6.512701, 49.77865], [6.512552, 49.778536], [6.512407, 49.778421], [6.51222, 49.778284], [6.51169, 49.777903], [6.511507, 49.777777], [6.511248, 49.777624], [6.511045, 49.777452], [6.510881, 49.777304], [6.510763, 49.777205], [6.510576, 49.777006], [6.510477, 49.776861], [6.510344, 49.776697], [6.510252, 49.776495], [6.510199, 49.776339], [6.510065, 49.776045], [6.50997, 49.775774], [6.509848, 49.775545], [6.509726, 49.775217], [6.509649, 49.774939], [6.509607, 49.774691], [6.509592, 49.774458], [6.509584, 49.774279], [6.509565, 49.774115], [6.509573, 49.773798], [6.509653, 49.773623], [6.509817, 49.773447], [6.510061, 49.773298], [6.51053, 49.773077], [6.510824, 49.77297], [6.510981, 49.772898], [6.511175, 49.772833], [6.511545, 49.772695], [6.511759, 49.772604], [6.511778, 49.772558], [6.511808, 49.772509], [6.511934, 49.772448], [6.512091, 49.772409], [6.512365, 49.772295], [6.512526, 49.772257], [6.512728, 49.772158], [6.512949, 49.772062], [6.513033, 49.771967], [6.513155, 49.771913], [6.513273, 49.771856], [6.513399, 49.771769], [6.513525, 49.7717], [6.513674, 49.771593], [6.513693, 49.771582], [6.513815, 49.771524], [6.513918, 49.77144], [6.514067, 49.771353], [6.514231, 49.771254], [6.514322, 49.771204], [6.514406, 49.771139], [6.51454, 49.771059], [6.514608, 49.771021], [6.514719, 49.770952], [6.514788, 49.770895], [6.514925, 49.770822], [6.515066, 49.770723], [6.515329, 49.770517], [6.515688, 49.770262], [6.515822, 49.770151], [6.516119, 49.769903], [6.516363, 49.769705], [6.516523, 49.769552], [6.516664, 49.769404], [6.516874, 49.769194], [6.517099, 49.768949], [6.517279, 49.76874], [6.517443, 49.768534], [6.5175, 49.768393], [6.517591, 49.76824], [6.517698, 49.767996], [6.517767, 49.767691], [6.517916, 49.767515], [6.517946, 49.767347], [6.517855, 49.767149], [6.517836, 49.766901], [6.51771, 49.766706], [6.517645, 49.76655], [6.517618, 49.766161], [6.517565, 49.76597], [6.517557, 49.765856], [6.517527, 49.765799], [6.517557, 49.765711], [6.517492, 49.765638], [6.517561, 49.765581], [6.517557, 49.76544], [6.51753, 49.765367], [6.51758, 49.765318], [6.517542, 49.765226], [6.517565, 49.765181], [6.517588, 49.765009], [6.517649, 49.764795], [6.517687, 49.764616], [6.517729, 49.764395], [6.517778, 49.764231], [6.517813, 49.764101], [6.51787, 49.763903], [6.517923, 49.76372], [6.517988, 49.763437], [6.518114, 49.763029], [6.518167, 49.762785], [6.518164, 49.762518], [6.518167, 49.762457], [6.518167, 49.762354], [6.518152, 49.762106], [6.518034, 49.761797], [6.517965, 49.761602], [6.517729, 49.761209], [6.51753, 49.761019], [6.517302, 49.760832], [6.517122, 49.760683], [6.516863, 49.760454], [6.516584, 49.760248], [6.516348, 49.760061], [6.516127, 49.759878], [6.515837, 49.759653], [6.515619, 49.759485], [6.515367, 49.759287], [6.515135, 49.75913], [6.515146, 49.759111], [6.514795, 49.758852], [6.514513, 49.758696], [6.514181, 49.758535], [6.513899, 49.75839], [6.513666, 49.758272], [6.513495, 49.758184], [6.513319, 49.758097], [6.5133, 49.758085], [6.513288, 49.758062], [6.513262, 49.758062], [6.513052, 49.757959], [6.51277, 49.757826], [6.512484, 49.757746], [6.512281, 49.757666], [6.512114, 49.757639], [6.511805, 49.757524], [6.511538, 49.75741], [6.51129, 49.757341], [6.511103, 49.757299], [6.510904, 49.75725], [6.510614, 49.757189], [6.510313, 49.757105], [6.510141, 49.757097], [6.509775, 49.75704], [6.509558, 49.756971], [6.509241, 49.756906], [6.50905, 49.756868], [6.508612, 49.756746], [6.508295, 49.756659], [6.507956, 49.756567], [6.507612, 49.756495], [6.507296, 49.756388], [6.507112, 49.756338], [6.506868, 49.756269], [6.506632, 49.756178], [6.506498, 49.756117], [6.506151, 49.756052], [6.505972, 49.755991], [6.505751, 49.755918], [6.505537, 49.755842], [6.505255, 49.755773], [6.50495, 49.755671], [6.504717, 49.755598], [6.504557, 49.755522], [6.504263, 49.755434], [6.503859, 49.75527], [6.503591, 49.755136], [6.503355, 49.755045], [6.503138, 49.754938], [6.502867, 49.754789], [6.502695, 49.754694], [6.502409, 49.754522], [6.502024, 49.75424], [6.501768, 49.754072], [6.501661, 49.753969], [6.501539, 49.75379], [6.501337, 49.753637], [6.501314, 49.753599], [6.501223, 49.753576], [6.501165, 49.753466], [6.501078, 49.753355], [6.500944, 49.753176], [6.500887, 49.753088], [6.500731, 49.752928], [6.500643, 49.752867], [6.500574, 49.752756], [6.500444, 49.752569], [6.500322, 49.752382], [6.500197, 49.752123], [6.500151, 49.751978], [6.500147, 49.751932], [6.50012, 49.751776], [6.500116, 49.751661], [6.500116, 49.75144], [6.500158, 49.751211], [6.500181, 49.75107], [6.500208, 49.750925], [6.500235, 49.750681], [6.500238, 49.750494], [6.500223, 49.750265], [6.500258, 49.749979], [6.500235, 49.749712], [6.500227, 49.749552], [6.500216, 49.749411], [6.500219, 49.749273], [6.500208, 49.749124], [6.500189, 49.748991], [6.500216, 49.748827], [6.500242, 49.748655], [6.500299, 49.748495], [6.500353, 49.748308], [6.500429, 49.748137], [6.50065, 49.747866], [6.500761, 49.747717], [6.500963, 49.747496], [6.501123, 49.74729], [6.501188, 49.747187], [6.501265, 49.747049], [6.501326, 49.746962], [6.501436, 49.746862], [6.501657, 49.74666], [6.501822, 49.746466], [6.501909, 49.746363], [6.50202, 49.746267], [6.502157, 49.74605], [6.502192, 49.746008], [6.502268, 49.745962], [6.502294, 49.745909], [6.502352, 49.745787], [6.502348, 49.745653], [6.50231, 49.745523], [6.502306, 49.745508], [6.502237, 49.745382], [6.502203, 49.745314], [6.502089, 49.745119], [6.502031, 49.744986], [6.501925, 49.744787], [6.501841, 49.744631], [6.501772, 49.744501], [6.501726, 49.744398], [6.501726, 49.74428], [6.501696, 49.744215], [6.501654, 49.744078], [6.501604, 49.743895], [6.501635, 49.743635], [6.501627, 49.743387], [6.501562, 49.743155], [6.501539, 49.742952], [6.501566, 49.7428], [6.50168, 49.742594], [6.50176, 49.742464], [6.501822, 49.742327], [6.501886, 49.742174], [6.501932, 49.741995], [6.501932, 49.74164], [6.501902, 49.741484], [6.50189, 49.741255], [6.501932, 49.741049], [6.501997, 49.740816], [6.502016, 49.740614], [6.502008, 49.740477], [6.50205, 49.740232], [6.502054, 49.739992], [6.502066, 49.739786], [6.502077, 49.739573], [6.502058, 49.739515], [6.50205, 49.739187], [6.502012, 49.738985], [6.501963, 49.738813], [6.501867, 49.738489], [6.501822, 49.738298], [6.50178, 49.738127], [6.501734, 49.737913], [6.501673, 49.737696], [6.501596, 49.737448], [6.501585, 49.737249], [6.501581, 49.737226], [6.501558, 49.737024], [6.501539, 49.736826], [6.501493, 49.736616], [6.501482, 49.736368], [6.501455, 49.73612], [6.50144, 49.735815], [6.50144, 49.735647], [6.501429, 49.73543], [6.501425, 49.735289], [6.501436, 49.735003], [6.501459, 49.734839], [6.501535, 49.734629], [6.501566, 49.734488], [6.501612, 49.734178], [6.501604, 49.733999], [6.501589, 49.733759], [6.501593, 49.7334], [6.501627, 49.733271], [6.501604, 49.733156], [6.501562, 49.733143], [6.50131, 49.733105], [6.501078, 49.73298], [6.500975, 49.73299], [6.500963, 49.732994], [6.500894, 49.733], [6.500872, 49.733006], [6.500807, 49.73302], [6.500631, 49.73307], [6.500525, 49.733105], [6.500231, 49.733204], [6.500086, 49.733242], [6.500055, 49.733315], [6.499987, 49.733295], [6.499842, 49.733257], [6.499548, 49.733177], [6.499399, 49.733135], [6.499426, 49.733303], [6.499315, 49.7333], [6.499197, 49.7333], [6.499079, 49.733295], [6.499002, 49.733295], [6.49896, 49.7333], [6.498892, 49.733303], [6.498835, 49.73331], [6.498785, 49.733315], [6.498758, 49.73332], [6.498701, 49.733326], [6.498609, 49.73334], [6.498472, 49.73336], [6.498385, 49.733376], [6.498194, 49.733406], [6.498167, 49.733414], [6.498079, 49.733425], [6.497919, 49.73345], [6.497728, 49.733486], [6.497408, 49.733524], [6.497282, 49.73354], [6.496912, 49.733578], [6.496614, 49.7336], [6.496458, 49.733612], [6.496313, 49.73362], [6.496195, 49.733624], [6.496004, 49.73364], [6.495951, 49.733643], [6.495897, 49.73365], [6.495722, 49.733677], [6.495565, 49.733704], [6.495508, 49.733715], [6.495462, 49.733723], [6.495375, 49.733734], [6.495234, 49.73376], [6.495092, 49.733788], [6.495069, 49.73379], [6.494986, 49.73381], [6.494898, 49.733826], [6.494837, 49.73384], [6.494551, 49.733894], [6.49449, 49.733906], [6.494463, 49.733913], [6.494436, 49.733917], [6.494429, 49.73383], [6.494398, 49.733833], [6.494177, 49.73387], [6.494139, 49.733887], [6.494009, 49.73393], [6.493734, 49.73401], [6.49354, 49.734055], [6.493509, 49.73406], [6.49346, 49.73407], [6.493414, 49.73408], [6.493372, 49.73409], [6.493196, 49.734123], [6.493155, 49.73413], [6.493044, 49.73415], [6.492849, 49.734173], [6.492781, 49.734184], [6.49272, 49.734238], [6.492609, 49.73433], [6.492502, 49.734413], [6.492392, 49.73448], [6.492296, 49.734535], [6.492189, 49.73459], [6.49201, 49.73468], [6.491754, 49.73481], [6.491663, 49.734787], [6.491617, 49.734882], [6.491598, 49.734913], [6.491571, 49.73496], [6.491518, 49.735035], [6.491484, 49.735085], [6.491407, 49.735172], [6.491327, 49.73525], [6.49119, 49.735367], [6.491095, 49.735447], [6.490805, 49.735535], [6.490633, 49.735588], [6.490293, 49.7357], [6.489649, 49.735893], [6.489553, 49.735928], [6.489496, 49.73595], [6.489451, 49.735973], [6.489267, 49.736057], [6.489126, 49.73611], [6.488646, 49.736275], [6.488455, 49.73634], [6.48805, 49.73632], [6.487692, 49.736317], [6.487333, 49.736305], [6.487181, 49.736298], [6.487074, 49.736298], [6.486799, 49.736317], [6.486582, 49.73633], [6.485781, 49.73635], [6.485788, 49.736446], [6.485369, 49.736446], [6.485254, 49.736443], [6.485106, 49.736443], [6.484865, 49.73644], [6.484705, 49.736435], [6.484617, 49.736435], [6.484426, 49.736423], [6.484373, 49.736416], [6.484266, 49.73641], [6.484194, 49.7364], [6.484018, 49.73638], [6.483973, 49.736374], [6.483858, 49.736362], [6.483778, 49.736355], [6.483427, 49.736317], [6.483244, 49.736298], [6.483156, 49.736286], [6.482866, 49.736256], [6.482813, 49.736248], [6.482733, 49.736233], [6.482534, 49.736168], [6.482256, 49.736073], [6.481836, 49.73627], [6.481626, 49.736378], [6.481482, 49.736458], [6.481379, 49.73653], [6.481295, 49.736607], [6.481153, 49.73674], [6.481028, 49.736855], [6.480902, 49.736973], [6.480715, 49.737133], [6.480547, 49.73727], [6.480463, 49.73733], [6.480299, 49.737423], [6.479952, 49.737526], [6.479471, 49.737682], [6.47912, 49.737797], [6.478849, 49.737885], [6.478682, 49.737953], [6.478521, 49.738026], [6.478441, 49.73808], [6.478331, 49.738167], [6.478243, 49.738255], [6.478155, 49.738373], [6.477945, 49.738667], [6.4778, 49.738907], [6.477644, 49.739113], [6.477549, 49.73924], [6.47748, 49.739353], [6.477442, 49.739437], [6.477419, 49.739525], [6.477396, 49.73963], [6.477388, 49.73975], [6.477377, 49.740005], [6.477358, 49.74019], [6.477354, 49.740376], [6.477354, 49.740566], [6.477339, 49.740635], [6.477301, 49.740772], [6.477224, 49.740913], [6.477163, 49.740997], [6.477083, 49.741096], [6.477015, 49.74116], [6.476931, 49.74123], [6.476816, 49.741333], [6.476168, 49.741806], [6.47616, 49.74184], [6.475939, 49.742134], [6.475817, 49.74232], [6.475775, 49.74245], [6.475744, 49.742554], [6.475321, 49.742264], [6.475145, 49.742134], [6.475, 49.742035], [6.474768, 49.74189], [6.474634, 49.741817], [6.47452, 49.741756], [6.474398, 49.7417], [6.474295, 49.741665], [6.474112, 49.74161], [6.473845, 49.741554], [6.473421, 49.741497], [6.473177, 49.741436], [6.472574, 49.74129], [6.472254, 49.741135], [6.471823, 49.740925], [6.471727, 49.74102], [6.47117, 49.741604], [6.470942, 49.741863], [6.470663, 49.74221], [6.470621, 49.742275], [6.470602, 49.74233], [6.470591, 49.74235], [6.470552, 49.742447], [6.470537, 49.742477], [6.47051, 49.742546], [6.470472, 49.742622], [6.469419, 49.74237], [6.46937, 49.74236], [6.469481, 49.74223], [6.469297, 49.74215], [6.468428, 49.741787], [6.46792, 49.74161], [6.46731, 49.74142], [6.466799, 49.741257], [6.466383, 49.741123], [6.465933, 49.74098], [6.465876, 49.740955], [6.465734, 49.74089], [6.465418, 49.740746], [6.465338, 49.74073], [6.46525, 49.74071], [6.465181, 49.74069], [6.465078, 49.740635], [6.465017, 49.740604], [6.464895, 49.740566], [6.464445, 49.740433], [6.463942, 49.7403], [6.463793, 49.74027], [6.463663, 49.740246], [6.463541, 49.740215], [6.463419, 49.740166], [6.46335, 49.740147], [6.463293, 49.74014], [6.463202, 49.740128], [6.463175, 49.740116], [6.463137, 49.740093], [6.46298, 49.740078], [6.462904, 49.740055], [6.462851, 49.740025], [6.462763, 49.739983], [6.462709, 49.739975], [6.462523, 49.739937], [6.46221, 49.739853], [6.461985, 49.739788], [6.461855, 49.73975], [6.46139, 49.739567], [6.461264, 49.739723], [6.460627, 49.739582], [6.460417, 49.739536], [6.46028, 49.739815], [6.460237, 49.73996], [6.460062, 49.74026], [6.460115, 49.740536], [6.460096, 49.740532], [6.460066, 49.740532], [6.460051, 49.740578], [6.459715, 49.740532], [6.459463, 49.741066], [6.459433, 49.741127], [6.459074, 49.74079], [6.458979, 49.740826], [6.458445, 49.74111], [6.458246, 49.741207], [6.458078, 49.741287], [6.457796, 49.7414], [6.457785, 49.741405], [6.457762, 49.741413], [6.457567, 49.74147], [6.457514, 49.741486], [6.457422, 49.74151], [6.456972, 49.741577], [6.456568, 49.74161], [6.455969, 49.74158], [6.455813, 49.74169], [6.455675, 49.74176], [6.455568, 49.7418], [6.4555, 49.74182], [6.455294, 49.741863], [6.455236, 49.741867], [6.455107, 49.74188], [6.455038, 49.741882], [6.454962, 49.74189], [6.454752, 49.741894], [6.454557, 49.741886], [6.454363, 49.74187], [6.454206, 49.74186], [6.454061, 49.741848], [6.454035, 49.741844], [6.453932, 49.74184], [6.45376, 49.74183], [6.453657, 49.741814], [6.453589, 49.7418], [6.453527, 49.741787], [6.453344, 49.741745], [6.453199, 49.741714], [6.453058, 49.74169], [6.452955, 49.74168], [6.452856, 49.741657], [6.452768, 49.74164], [6.452654, 49.74161], [6.452597, 49.741592], [6.452559, 49.741585], [6.452452, 49.74156], [6.452085, 49.74149], [6.452032, 49.741478], [6.451963, 49.74146], [6.451902, 49.741447], [6.451777, 49.741463], [6.451605, 49.74145], [6.451582, 49.741463], [6.451231, 49.74143], [6.451193, 49.74144], [6.451181, 49.741444], [6.450907, 49.74158], [6.450636, 49.74162], [6.450392, 49.741657], [6.450155, 49.741695], [6.450132, 49.7417], [6.449881, 49.741737], [6.449781, 49.741753], [6.449484, 49.74176], [6.449305, 49.74185], [6.449198, 49.74191], [6.449144, 49.741924], [6.448916, 49.741997], [6.448832, 49.742023], [6.448595, 49.742092], [6.44834, 49.742165], [6.448191, 49.742207], [6.448065, 49.742245], [6.447958, 49.742275], [6.44784, 49.7423], [6.447592, 49.742348], [6.447348, 49.74241], [6.447271, 49.74243], [6.447149, 49.742455], [6.447081, 49.742428], [6.446386, 49.742188], [6.445398, 49.74157], [6.445334, 49.741528], [6.445067, 49.741142], [6.444979, 49.741013], [6.444952, 49.740967], [6.444857, 49.740788], [6.444811, 49.740704], [6.444765, 49.740616], [6.444593, 49.740295], [6.444525, 49.740158], [6.444429, 49.739906], [6.444407, 49.73984], [6.444368, 49.73974], [6.444223, 49.73928], [6.44412, 49.739002], [6.444052, 49.738804], [6.444014, 49.73871], [6.443972, 49.738495], [6.443953, 49.73841], [6.443941, 49.738346], [6.443903, 49.738243], [6.443876, 49.738167], [6.443853, 49.73811], [6.443811, 49.738052], [6.443319, 49.737404], [6.443201, 49.737305], [6.443048, 49.737206], [6.442766, 49.737034], [6.442682, 49.736984], [6.442636, 49.73696], [6.442533, 49.736916], [6.442423, 49.736862], [6.442285, 49.7368], [6.442137, 49.736732], [6.442018, 49.73668], [6.441919, 49.736633], [6.44142, 49.7364], [6.441332, 49.736355], [6.440992, 49.73622], [6.440626, 49.736084], [6.440042, 49.735863], [6.439833, 49.73576], [6.439714, 49.735695], [6.43965, 49.73565], [6.439276, 49.735394], [6.438807, 49.735073], [6.438688, 49.734993], [6.438452, 49.734867], [6.43836, 49.73482], [6.438242, 49.734768], [6.438219, 49.73474], [6.438177, 49.7347], [6.438063, 49.734665], [6.438002, 49.7346], [6.437921, 49.734577], [6.437845, 49.734467], [6.437773, 49.734447], [6.437738, 49.734383], [6.437662, 49.734283], [6.437639, 49.734238], [6.437605, 49.734177], [6.437536, 49.73411], [6.437498, 49.734035], [6.437357, 49.733974], [6.437361, 49.733894], [6.437296, 49.733864], [6.437193, 49.733818], [6.437101, 49.73378], [6.437044, 49.73369], [6.437029, 49.733665], [6.436869, 49.7336], [6.436838, 49.73356], [6.436811, 49.733524], [6.436697, 49.733494], [6.436644, 49.733402], [6.43656, 49.73337], [6.436533, 49.733303], [6.436369, 49.73328], [6.436396, 49.73318], [6.436266, 49.733124], [6.43622, 49.733067], [6.436132, 49.733047], [6.43609, 49.73302], [6.43601, 49.73296], [6.435995, 49.732918], [6.435949, 49.73289], [6.43593, 49.73283], [6.435854, 49.732773], [6.435846, 49.732727], [6.435854, 49.732674], [6.435789, 49.732624], [6.435812, 49.73258], [6.435747, 49.73251], [6.435667, 49.732426], [6.435545, 49.732372], [6.435236, 49.73265], [6.435202, 49.732635], [6.435175, 49.732635], [6.435125, 49.732704], [6.434965, 49.73285], [6.434801, 49.732952], [6.434545, 49.733227], [6.434278, 49.733337], [6.434023, 49.733376], [6.433931, 49.733406], [6.433798, 49.733543], [6.433744, 49.733578], [6.433668, 49.733597], [6.433115, 49.733624], [6.432871, 49.7338], [6.43273, 49.73387], [6.432444, 49.73397], [6.432333, 49.733963], [6.43223, 49.733932], [6.432077, 49.733917], [6.432074, 49.733902], [6.432066, 49.73386], [6.432024, 49.733677], [6.431917, 49.733536], [6.431826, 49.733418], [6.431547, 49.733055], [6.431326, 49.733074], [6.431143, 49.73296], [6.430925, 49.732815], [6.43088, 49.732788], [6.430792, 49.732727], [6.430609, 49.732597], [6.430498, 49.732525], [6.43038, 49.73244], [6.429926, 49.73211], [6.429731, 49.73197], [6.429518, 49.73183], [6.429354, 49.73174], [6.429151, 49.73165], [6.428919, 49.731556], [6.428759, 49.73149], [6.428732, 49.731483], [6.428656, 49.731453], [6.428621, 49.731445], [6.428534, 49.73142], [6.428408, 49.731388], [6.428362, 49.731373], [6.428316, 49.73136], [6.428019, 49.731297], [6.427919, 49.731277], [6.427694, 49.731544], [6.427534, 49.7317], [6.427523, 49.73171], [6.42737, 49.73182], [6.427069, 49.73198], [6.426512, 49.73223], [6.426458, 49.732258], [6.426092, 49.73247], [6.425489, 49.73283], [6.425158, 49.732998], [6.4251, 49.733025], [6.425005, 49.73306], [6.42491, 49.73309], [6.423716, 49.73329], [6.422674, 49.733337], [6.421652, 49.733387], [6.420363, 49.733448], [6.419935, 49.733463], [6.419874, 49.73367], [6.419794, 49.73398], [6.419767, 49.73408], [6.419592, 49.73468], [6.41958, 49.7347], [6.419477, 49.734924], [6.419455, 49.73498], [6.419439, 49.735027], [6.419435, 49.735092], [6.419451, 49.73526], [6.4195, 49.735664], [6.419493, 49.735718], [6.419393, 49.735962], [6.419416, 49.736164], [6.419416, 49.73625], [6.41942, 49.73636], [6.419401, 49.736485], [6.419378, 49.736546], [6.419317, 49.73665], [6.419252, 49.736702], [6.419115, 49.736782], [6.419008, 49.736828], [6.418493, 49.736916], [6.418371, 49.736935], [6.417833, 49.737015], [6.417551, 49.73704], [6.417124, 49.737083], [6.41699, 49.7371], [6.416273, 49.73717], [6.415998, 49.737194], [6.415968, 49.737194], [6.415926, 49.737198], [6.415747, 49.737213], [6.415121, 49.737263], [6.414995, 49.737408], [6.414934, 49.738235], [6.41493, 49.738297], [6.414618, 49.738483], [6.414194, 49.738743], [6.414114, 49.73879], [6.413988, 49.73886], [6.413855, 49.738926], [6.413565, 49.739033], [6.413168, 49.739174], [6.411837, 49.73895], [6.411341, 49.73887], [6.410029, 49.73866], [6.408918, 49.738476], [6.408819, 49.738472], [6.408762, 49.738503], [6.408689, 49.738544], [6.408487, 49.738686], [6.408281, 49.738846], [6.408159, 49.738884], [6.40798, 49.739124], [6.407862, 49.73933], [6.407881, 49.73937], [6.40798, 49.739502], [6.408045, 49.739597], [6.408125, 49.739727], [6.408186, 49.739853], [6.408228, 49.73999], [6.408262, 49.74012], [6.408274, 49.740246], [6.408277, 49.740383], [6.408266, 49.740494], [6.408255, 49.740536], [6.408232, 49.740593], [6.408197, 49.740673], [6.408136, 49.740776], [6.408079, 49.740845], [6.407995, 49.74091], [6.407869, 49.74099], [6.407782, 49.74103], [6.407465, 49.741093], [6.407167, 49.741146], [6.406553, 49.741253], [6.406317, 49.741295], [6.406214, 49.741314], [6.406141, 49.74133], [6.406069, 49.741352], [6.405924, 49.741405], [6.405775, 49.741463], [6.405352, 49.741623], [6.405287, 49.74167], [6.405237, 49.74172], [6.405161, 49.74181], [6.405012, 49.741978], [6.404909, 49.74211], [6.404779, 49.74229], [6.404867, 49.742336], [6.404982, 49.742397], [6.405176, 49.742496], [6.405348, 49.742588], [6.405512, 49.742672], [6.405607, 49.742718], [6.405786, 49.74281], [6.40708, 49.743366], [6.407873, 49.743706], [6.408258, 49.74388], [6.40946, 49.744404], [6.409548, 49.744434], [6.409262, 49.744503], [6.408426, 49.74475], [6.408064, 49.74486], [6.40737, 49.74509], [6.407038, 49.745224], [6.406546, 49.745434], [6.405829, 49.74563], [6.405298, 49.745777], [6.404734, 49.745968], [6.404371, 49.74611], [6.404016, 49.746243], [6.403162, 49.74643], [6.40233, 49.74667], [6.401197, 49.746998], [6.400324, 49.747253], [6.398706, 49.74779], [6.397093, 49.748337], [6.397142, 49.748398], [6.397222, 49.74845], [6.397314, 49.748512], [6.397375, 49.74855], [6.397497, 49.74863], [6.397284, 49.748737], [6.397104, 49.748825], [6.397192, 49.74888], [6.397291, 49.74894], [6.397444, 49.749035], [6.397413, 49.749046], [6.397078, 49.74925], [6.396326, 49.74962], [6.396006, 49.749767], [6.395761, 49.749874], [6.395556, 49.74996], [6.395128, 49.750126], [6.394259, 49.750416], [6.39422, 49.75043], [6.394342, 49.750725], [6.39451, 49.750927], [6.394735, 49.75121], [6.394999, 49.75153], [6.395254, 49.751842], [6.395952, 49.752605], [6.395952, 49.752625], [6.396162, 49.753223], [6.395857, 49.75333], [6.395708, 49.75329], [6.394701, 49.753597], [6.393839, 49.753864], [6.393061, 49.75411], [6.392977, 49.75404], [6.392958, 49.754025], [6.392897, 49.753975], [6.392866, 49.753952], [6.392637, 49.75376], [6.392351, 49.753525], [6.391897, 49.75364], [6.391817, 49.753677], [6.391432, 49.753876], [6.391397, 49.753933], [6.39131, 49.75407], [6.391375, 49.754353], [6.391447, 49.754654], [6.391279, 49.754787], [6.391157, 49.754887], [6.39068, 49.754833], [6.390535, 49.75482], [6.390486, 49.75482], [6.390432, 49.754833], [6.390047, 49.754932], [6.389448, 49.755074], [6.388632, 49.755264], [6.388372, 49.755325], [6.388228, 49.755363], [6.388185, 49.755375], [6.388147, 49.7554], [6.388006, 49.75558], [6.387293, 49.7556], [6.386904, 49.755623], [6.386648, 49.755646], [6.386583, 49.755653], [6.385199, 49.75398], [6.384214, 49.75292], [6.383226, 49.75197], [6.383085, 49.751953], [6.382849, 49.751884], [6.382692, 49.751816], [6.382227, 49.751682], [6.381754, 49.751556], [6.381514, 49.751507], [6.38125, 49.751465], [6.38101, 49.751442], [6.380728, 49.75143], [6.380041, 49.751423], [6.379561, 49.751408], [6.379461, 49.751404], [6.379011, 49.751392], [6.378954, 49.751392], [6.37882, 49.75139], [6.378416, 49.751377], [6.37834, 49.751377], [6.378061, 49.75137], [6.377905, 49.750893], [6.377783, 49.750553], [6.377756, 49.750523], [6.377367, 49.75052], [6.377356, 49.750492], [6.37718, 49.75018], [6.377119, 49.750053], [6.37707, 49.74992], [6.377047, 49.74981], [6.377035, 49.74972], [6.377027, 49.749573], [6.377035, 49.74938], [6.377073, 49.74892], [6.377134, 49.748352], [6.377127, 49.748215], [6.377119, 49.74811], [6.377096, 49.74794], [6.377081, 49.74789], [6.376925, 49.747467], [6.376848, 49.747314], [6.376718, 49.747078], [6.376532, 49.746838], [6.37623, 49.746468], [6.376127, 49.74634], [6.375773, 49.745907], [6.375753, 49.74588], [6.375414, 49.745434], [6.375345, 49.74533], [6.375338, 49.745316], [6.375322, 49.74529], [6.375387, 49.745262], [6.375448, 49.74523], [6.375601, 49.745094], [6.375856, 49.744877], [6.375521, 49.7443], [6.376326, 49.74416], [6.376402, 49.74415], [6.37649, 49.744255], [6.376558, 49.744236], [6.3766, 49.744194], [6.376631, 49.74417], [6.376726, 49.744144], [6.376852, 49.744114], [6.376928, 49.74411], [6.376982, 49.744114], [6.377081, 49.744114], [6.377161, 49.744106], [6.37723, 49.744083], [6.377344, 49.744034], [6.377451, 49.744007], [6.377634, 49.74398], [6.377848, 49.74394], [6.377703, 49.74365], [6.377623, 49.743484], [6.377615, 49.74347], [6.377554, 49.743347], [6.377542, 49.74332], [6.377516, 49.743275], [6.377432, 49.7431], [6.377405, 49.743053], [6.37734, 49.742935], [6.377241, 49.742756], [6.377169, 49.74262], [6.377092, 49.74248], [6.377043, 49.742386], [6.377008, 49.742325], [6.376944, 49.742207], [6.376925, 49.74217], [6.376917, 49.742157], [6.376825, 49.741985], [6.376787, 49.74193], [6.376772, 49.7419], [6.376741, 49.741848], [6.376711, 49.7418], [6.376677, 49.74174], [6.376665, 49.741722], [6.376631, 49.74166], [6.376535, 49.74151], [6.376512, 49.74146], [6.376505, 49.74143], [6.376509, 49.741405], [6.376512, 49.74136], [6.37652, 49.741295], [6.37681, 49.74102], [6.377226, 49.740784], [6.377367, 49.740734], [6.377668, 49.740692], [6.378019, 49.74067], [6.37845, 49.740654], [6.37903, 49.740646], [6.379198, 49.74064], [6.379313, 49.740578], [6.379393, 49.74046], [6.379396, 49.740284], [6.379393, 49.7401], [6.379393, 49.73999], [6.379416, 49.73994], [6.379461, 49.73986], [6.37953, 49.7398], [6.379492, 49.73933], [6.379473, 49.739048], [6.379621, 49.73905], [6.379728, 49.73905], [6.37974, 49.73893], [6.379763, 49.73876], [6.379774, 49.738667], [6.379789, 49.738407], [6.379782, 49.738064], [6.379763, 49.737873], [6.37974, 49.737755], [6.379725, 49.73769], [6.379713, 49.737637], [6.379686, 49.737507], [6.379675, 49.73744], [6.37966, 49.73737], [6.379648, 49.73731], [6.379641, 49.737286], [6.379633, 49.73725], [6.379625, 49.737198], [6.379618, 49.73717], [6.379602, 49.7371], [6.379587, 49.73701], [6.38011, 49.73694], [6.380426, 49.736885], [6.380487, 49.736874], [6.380758, 49.736816], [6.380915, 49.73678], [6.381105, 49.73672], [6.381338, 49.736637], [6.381258, 49.736572], [6.381189, 49.73652], [6.381166, 49.736504], [6.381102, 49.736454], [6.381033, 49.736397], [6.381079, 49.736385], [6.380979, 49.736298], [6.380888, 49.73621], [6.380842, 49.736156], [6.3808, 49.736084], [6.38072, 49.7359], [6.38067, 49.73575], [6.380655, 49.735714], [6.379931, 49.735573], [6.379427, 49.735497], [6.378672, 49.735447], [6.377001, 49.73534], [6.376646, 49.735325], [6.375425, 49.735146], [6.374418, 49.734917], [6.373373, 49.734734], [6.37232, 49.73457], [6.370794, 49.73437], [6.369711, 49.734257], [6.369158, 49.734207], [6.368723, 49.734184], [6.368422, 49.734196], [6.368277, 49.73422], [6.368124, 49.73426], [6.36767, 49.73442], [6.367044, 49.73465], [6.36669, 49.734753], [6.366529, 49.734795], [6.365511, 49.734932], [6.364809, 49.73502], [6.364565, 49.735046], [6.364397, 49.735058], [6.364153, 49.735073], [6.363855, 49.73507], [6.362474, 49.735153], [6.362234, 49.735157], [6.361483, 49.735096], [6.361162, 49.735058], [6.360426, 49.734917], [6.360258, 49.734898], [6.360098, 49.73491], [6.359522, 49.73498], [6.359312, 49.734955], [6.357889, 49.734825], [6.357191, 49.73478], [6.357031, 49.734783], [6.356649, 49.73482], [6.356008, 49.734905], [6.355806, 49.734947], [6.355604, 49.735012], [6.355375, 49.73509], [6.355234, 49.735123], [6.35504, 49.735065], [6.355001, 49.735085], [6.354841, 49.73554], [6.354826, 49.735577], [6.354715, 49.735863], [6.3547, 49.735893], [6.354624, 49.736095], [6.354559, 49.736256], [6.354471, 49.73651], [6.354437, 49.73661], [6.354372, 49.736706], [6.354299, 49.736794], [6.354219, 49.736885], [6.354196, 49.73691], [6.354059, 49.737057], [6.353979, 49.73714], [6.353285, 49.737694], [6.352961, 49.73762], [6.352613, 49.737545], [6.352491, 49.73743], [6.352366, 49.737316], [6.352251, 49.73721], [6.35222, 49.737183], [6.351988, 49.736965], [6.351931, 49.737053], [6.351782, 49.737278], [6.35177, 49.737293], [6.351641, 49.737484], [6.351469, 49.737766], [6.351244, 49.738167], [6.351198, 49.73811], [6.351187, 49.738094], [6.351129, 49.73803], [6.351065, 49.73795], [6.350943, 49.73784], [6.350885, 49.737785], [6.350847, 49.73775], [6.350828, 49.737736], [6.350759, 49.737675], [6.350565, 49.737522], [6.350401, 49.737568], [6.350355, 49.73753], [6.350088, 49.73732], [6.349882, 49.73718], [6.349695, 49.737076], [6.349451, 49.736973], [6.349249, 49.736904], [6.34905, 49.73685], [6.348696, 49.736774], [6.348448, 49.736732], [6.348188, 49.7367], [6.348154, 49.73669], [6.347921, 49.736668], [6.347467, 49.73662], [6.347498, 49.736534], [6.347513, 49.73649], [6.347559, 49.736343], [6.347567, 49.736324], [6.347002, 49.736225], [6.346857, 49.73619], [6.346624, 49.73613], [6.346346, 49.73605], [6.346186, 49.735996], [6.345839, 49.73585], [6.345606, 49.735733], [6.345404, 49.735622], [6.345312, 49.735573], [6.344984, 49.735394], [6.344965, 49.735382], [6.344995, 49.735306], [6.345038, 49.735237], [6.345114, 49.73514], [6.345114, 49.73511], [6.345156, 49.735058], [6.345186, 49.735016], [6.345221, 49.734978], [6.345411, 49.734734], [6.34553, 49.734585], [6.345556, 49.734554], [6.34561, 49.734486], [6.345659, 49.734417], [6.345686, 49.734386], [6.345915, 49.734104], [6.346006, 49.734005], [6.346083, 49.73392], [6.346125, 49.733875], [6.346445, 49.733578], [6.346556, 49.73347], [6.346827, 49.73324], [6.346937, 49.73314], [6.346994, 49.733093], [6.34701, 49.733078], [6.347052, 49.733044], [6.347078, 49.73302], [6.347444, 49.7327], [6.347628, 49.732544], [6.347967, 49.73225], [6.3482, 49.732044], [6.348238, 49.732014], [6.347494, 49.73164], [6.34691, 49.731388], [6.346857, 49.731438], [6.346712, 49.731537], [6.346666, 49.731514], [6.346678, 49.731476], [6.346682, 49.731434], [6.34667, 49.73139], [6.346628, 49.731335], [6.346502, 49.73123], [6.346354, 49.73112], [6.345976, 49.73087], [6.34601, 49.730843], [6.345846, 49.730755], [6.345663, 49.73067], [6.345636, 49.730705], [6.344797, 49.730415], [6.344385, 49.730843], [6.344252, 49.730976], [6.344187, 49.731045], [6.344164, 49.73108], [6.344145, 49.731113], [6.344122, 49.73119], [6.344118, 49.7312], [6.344068, 49.731373], [6.344042, 49.731457], [6.344034, 49.731495], [6.343985, 49.731583], [6.343958, 49.73164], [6.343943, 49.731667], [6.343977, 49.731792], [6.343996, 49.73188], [6.343985, 49.731903], [6.343954, 49.731937], [6.343172, 49.731766], [6.343145, 49.731747], [6.34305, 49.73171], [6.342806, 49.731636], [6.342073, 49.731632], [6.34165, 49.731625], [6.341185, 49.73161], [6.341372, 49.731583], [6.341494, 49.731556], [6.341589, 49.731514], [6.341776, 49.731426], [6.342009, 49.73128], [6.342108, 49.73122], [6.342123, 49.731194], [6.342119, 49.731182], [6.341433, 49.731266], [6.340902, 49.73133], [6.340292, 49.73141], [6.339659, 49.73149], [6.339537, 49.731503], [6.339518, 49.731506], [6.339464, 49.731697], [6.339453, 49.73172], [6.339426, 49.731735], [6.339388, 49.731747], [6.339079, 49.73175], [6.33795, 49.731766], [6.337625, 49.731762], [6.337374, 49.731754], [6.33708, 49.731747], [6.336485, 49.73177], [6.336264, 49.731777], [6.336172, 49.731792], [6.335905, 49.73186], [6.33573, 49.7319], [6.335592, 49.731922], [6.335329, 49.73195], [6.334925, 49.731983], [6.334864, 49.73199], [6.334692, 49.732014], [6.334326, 49.732075], [6.334104, 49.732117], [6.333712, 49.73221], [6.333265, 49.73231], [6.33272, 49.732445], [6.33272, 49.732456], [6.332724, 49.732468], [6.332731, 49.732517], [6.332762, 49.732647], [6.332834, 49.73301], [6.332838, 49.733036], [6.332846, 49.733063], [6.331774, 49.733135], [6.331747, 49.733124], [6.330599, 49.733128], [6.329561, 49.733128], [6.328993, 49.73312], [6.328882, 49.73316], [6.328871, 49.733253], [6.328859, 49.733315], [6.328852, 49.733402], [6.328848, 49.73347], [6.328833, 49.73361], [6.328833, 49.73363], [6.328806, 49.733883], [6.328791, 49.73407], [6.328791, 49.734085], [6.328779, 49.734184], [6.328775, 49.734272], [6.328764, 49.734386], [6.328753, 49.734516], [6.328737, 49.73471], [6.32873, 49.734856], [6.328718, 49.73496], [6.328245, 49.734932], [6.328085, 49.73492], [6.327925, 49.734913], [6.327772, 49.734905], [6.327341, 49.73488], [6.327185, 49.73487], [6.326899, 49.73485], [6.326803, 49.734848], [6.326788, 49.7351], [6.325838, 49.73507], [6.324865, 49.73504], [6.324858, 49.73515], [6.324171, 49.735123], [6.323606, 49.735096], [6.322447, 49.73505], [6.322081, 49.73504], [6.322065, 49.7352], [6.32205, 49.73535], [6.321993, 49.73535], [6.321913, 49.735348], [6.321478, 49.73533], [6.321211, 49.735317], [6.320913, 49.735306], [6.320753, 49.735302], [6.3206, 49.735294], [6.320551, 49.735294], [6.320421, 49.735283], [6.320311, 49.735275], [6.320204, 49.735268], [6.320112, 49.73526], [6.319937, 49.735252], [6.319845, 49.73525], [6.319586, 49.735233], [6.319429, 49.735233], [6.318933, 49.735268], [6.31877, 49.73528], [6.318605, 49.735294], [6.318304, 49.735313], [6.318201, 49.735317], [6.317873, 49.735336], [6.317816, 49.735336], [6.31772, 49.73534], [6.317602, 49.73534], [6.3174, 49.735344], [6.31711, 49.735348], [6.317038, 49.735348], [6.316496, 49.735355], [6.316412, 49.735493], [6.315176, 49.735184], [6.315062, 49.735165], [6.314985, 49.73517], [6.314485, 49.735016], [6.314096, 49.734882], [6.313486, 49.734695], [6.313158, 49.734623], [6.31262, 49.734524], [6.312098, 49.734455], [6.311426, 49.734356], [6.310259, 49.734188], [6.309641, 49.73409], [6.309629, 49.73411], [6.309324, 49.734615], [6.309244, 49.73473], [6.308825, 49.73498], [6.308516, 49.735165], [6.30847, 49.73519], [6.308145, 49.73539], [6.307844, 49.73536], [6.307325, 49.735302], [6.30731, 49.735382], [6.307299, 49.735447], [6.307276, 49.73553], [6.307245, 49.735733], [6.307234, 49.735783], [6.306604, 49.73573], [6.305708, 49.735638], [6.304834, 49.73554], [6.304709, 49.735905], [6.304666, 49.73602], [6.304312, 49.735935], [6.304197, 49.73591], [6.303873, 49.735836], [6.303698, 49.735794], [6.303442, 49.735737], [6.303679, 49.736248], [6.30382, 49.73661], [6.303884, 49.736805], [6.303938, 49.736988], [6.304045, 49.737396], [6.304117, 49.737724], [6.304136, 49.737797], [6.303217, 49.73776], [6.303221, 49.7376], [6.303221, 49.737385], [6.303228, 49.73724], [6.303156, 49.737236], [6.302992, 49.737225], [6.302824, 49.737217], [6.302683, 49.737206], [6.30261, 49.737198], [6.302526, 49.737186], [6.302385, 49.737164], [6.302237, 49.73713], [6.302088, 49.737087], [6.302, 49.73706], [6.301958, 49.737045], [6.301893, 49.737026], [6.301706, 49.73696], [6.301542, 49.7369], [6.301367, 49.73684], [6.300985, 49.73669], [6.300909, 49.736668], [6.300871, 49.736652], [6.300299, 49.736423], [6.299959, 49.73629], [6.299887, 49.736404], [6.29981, 49.736526], [6.299711, 49.73669], [6.299662, 49.736763], [6.299475, 49.737064], [6.299223, 49.737453], [6.299135, 49.73759], [6.299116, 49.73763], [6.29907, 49.737698], [6.299055, 49.73772], [6.298952, 49.737885], [6.298891, 49.737984], [6.298872, 49.738018], [6.298784, 49.73815], [6.298418, 49.738747], [6.297419, 49.73855], [6.296373, 49.738335], [6.296259, 49.73831], [6.296137, 49.738407], [6.295805, 49.738667], [6.295565, 49.738853], [6.294745, 49.739017], [6.294218, 49.73912], [6.294088, 49.739143], [6.293966, 49.739162], [6.293665, 49.739193], [6.293035, 49.73927], [6.292616, 49.739323], [6.292452, 49.73934], [6.292292, 49.73936], [6.291265, 49.739494], [6.29067, 49.739574], [6.290739, 49.739613], [6.290815, 49.73966], [6.290876, 49.7397], [6.290937, 49.739746], [6.291025, 49.73981], [6.291048, 49.73983], [6.291079, 49.73985], [6.291143, 49.739902], [6.290819, 49.739994], [6.290453, 49.74009], [6.290102, 49.740173], [6.289873, 49.74023], [6.289732, 49.740257], [6.289431, 49.74031], [6.289347, 49.74033], [6.28924, 49.74036], [6.28919, 49.74038], [6.289141, 49.740402], [6.288855, 49.740547], [6.288633, 49.74064], [6.288401, 49.74074], [6.288298, 49.741226], [6.28787, 49.74117], [6.287855, 49.741165], [6.287787, 49.741158], [6.287466, 49.74111], [6.287325, 49.741093], [6.287229, 49.741077], [6.287035, 49.74105], [6.286493, 49.74098], [6.286371, 49.74096], [6.286303, 49.74095], [6.286268, 49.740948], [6.286123, 49.740925], [6.285467, 49.74083], [6.285269, 49.740955], [6.285063, 49.74109], [6.284777, 49.741276], [6.284727, 49.741306], [6.284677, 49.741337], [6.284578, 49.741398], [6.28433, 49.741547], [6.284086, 49.741695], [6.283876, 49.741817], [6.283682, 49.74192], [6.283491, 49.74201], [6.283285, 49.7421], [6.283106, 49.742176], [6.282946, 49.742207], [6.282846, 49.74223], [6.28274, 49.742256], [6.282659, 49.742283], [6.282564, 49.742317], [6.282499, 49.74235], [6.282442, 49.74239], [6.282389, 49.742424], [6.282343, 49.742462], [6.282282, 49.74252], [6.282156, 49.74257], [6.281424, 49.742672], [6.281252, 49.74269], [6.28113, 49.7427], [6.280809, 49.742725], [6.280695, 49.742733], [6.280626, 49.742744], [6.2805, 49.742767], [6.280069, 49.742844], [6.279703, 49.742916], [6.279417, 49.74297], [6.279364, 49.742935], [6.279154, 49.742977], [6.27891, 49.74303], [6.278498, 49.743114], [6.278086, 49.743206], [6.277941, 49.743237], [6.2777, 49.74329], [6.277327, 49.743378], [6.277163, 49.743412], [6.276888, 49.743477], [6.276777, 49.743504], [6.27656, 49.743553], [6.276499, 49.743572], [6.276358, 49.743626], [6.276316, 49.74364], [6.27619, 49.743687], [6.276056, 49.74373], [6.276022, 49.743744], [6.275995, 49.74376], [6.275953, 49.743782], [6.275915, 49.74381], [6.275892, 49.74383], [6.275866, 49.74386], [6.275827, 49.74389], [6.275778, 49.743923], [6.275743, 49.74395], [6.275694, 49.743984], [6.27553, 49.74409], [6.275511, 49.7441], [6.275469, 49.744125], [6.275385, 49.744167], [6.275263, 49.74422], [6.275171, 49.744255], [6.275049, 49.74429], [6.27495, 49.744316], [6.274855, 49.744335], [6.274794, 49.744343], [6.274771, 49.744347], [6.274702, 49.74435], [6.274607, 49.744347], [6.274485, 49.74434], [6.27437, 49.744328], [6.274271, 49.744316], [6.274214, 49.74431], [6.274088, 49.74429], [6.273947, 49.744267], [6.273786, 49.744236], [6.273691, 49.744217], [6.27355, 49.744183], [6.2735, 49.74417], [6.273466, 49.744164], [6.273184, 49.74416], [6.27302, 49.744164], [6.272833, 49.744164], [6.272749, 49.74417], [6.272654, 49.74418], [6.272547, 49.74419], [6.272509, 49.744198], [6.272425, 49.74421], [6.272367, 49.74422], [6.272295, 49.74423], [6.272219, 49.744236], [6.272078, 49.744236], [6.271982, 49.74423], [6.271887, 49.744232], [6.271807, 49.744232], [6.271723, 49.74423], [6.271643, 49.744225], [6.271528, 49.744213], [6.271402, 49.744198], [6.270437, 49.744194], [6.269434, 49.744205], [6.268839, 49.744217], [6.267096, 49.7443], [6.26655, 49.74432], [6.266501, 49.744324], [6.26647, 49.744324], [6.266111, 49.74432], [6.265768, 49.74432], [6.265623, 49.744324], [6.265188, 49.744328], [6.264959, 49.74432], [6.264933, 49.74432], [6.264929, 49.74437], [6.264925, 49.744442], [6.264952, 49.7445], [6.265024, 49.744545], [6.265196, 49.74462], [6.265245, 49.744656], [6.265264, 49.744705], [6.265257, 49.744774], [6.265234, 49.744858], [6.265177, 49.74495], [6.2651, 49.74506], [6.264963, 49.745224], [6.264875, 49.745315], [6.264837, 49.745354], [6.264788, 49.745415], [6.264772, 49.745476], [6.264814, 49.745533], [6.264894, 49.74558], [6.264914, 49.74561], [6.264936, 49.745686], [6.26499, 49.74579], [6.265104, 49.745953], [6.265173, 49.746063], [6.265184, 49.746124], [6.265192, 49.74618], [6.265165, 49.74623], [6.265154, 49.746265], [6.265181, 49.746296], [6.2652, 49.746326], [6.2652, 49.746357], [6.265161, 49.746403], [6.265116, 49.746452], [6.2651, 49.746506], [6.26512, 49.746544], [6.26515, 49.74658], [6.265215, 49.746593], [6.265249, 49.746593], [6.265409, 49.7466], [6.265505, 49.74661], [6.2656, 49.74664], [6.265661, 49.746674], [6.265707, 49.746708], [6.265738, 49.746754], [6.265741, 49.7468], [6.265715, 49.746857], [6.265665, 49.74692], [6.265619, 49.74698], [6.265531, 49.747044], [6.265497, 49.747074], [6.26549, 49.74712], [6.265497, 49.747177], [6.265516, 49.74727], [6.265547, 49.747353], [6.265585, 49.747463], [6.265634, 49.74756], [6.26568, 49.747616], [6.265753, 49.747684], [6.265822, 49.74775], [6.265936, 49.74787], [6.265963, 49.747913], [6.266005, 49.748047], [6.266024, 49.74808], [6.266062, 49.748127], [6.266176, 49.748238], [6.266245, 49.748302], [6.266321, 49.748352], [6.26639, 49.7484], [6.266428, 49.74844], [6.266462, 49.74848], [6.266489, 49.74851], [6.266523, 49.748535], [6.266592, 49.74856], [6.26668, 49.74859], [6.266714, 49.748608], [6.266768, 49.748646], [6.266809, 49.748688], [6.266836, 49.748737], [6.266855, 49.74878], [6.266874, 49.748802], [6.266913, 49.74884], [6.267012, 49.748913], [6.267153, 49.749004], [6.267221, 49.749023], [6.267351, 49.749065], [6.267454, 49.749115], [6.267668, 49.74921], [6.267775, 49.74927], [6.267878, 49.749344], [6.267981, 49.749424], [6.268061, 49.749493], [6.268126, 49.749554], [6.268194, 49.749615], [6.26829, 49.74969], [6.268393, 49.749756], [6.268545, 49.749844], [6.268736, 49.749977], [6.269068, 49.75023], [6.269464, 49.750526], [6.269526, 49.75058], [6.269583, 49.750652], [6.269628, 49.75072], [6.269671, 49.750774], [6.269697, 49.750805], [6.269777, 49.750877], [6.269896, 49.75098], [6.270029, 49.751095], [6.270212, 49.75126], [6.270334, 49.751366], [6.270666, 49.75168], [6.270819, 49.751854], [6.270899, 49.75194], [6.271238, 49.75225], [6.271494, 49.752506], [6.271696, 49.752743], [6.271898, 49.752995], [6.271952, 49.753082], [6.27199, 49.753174], [6.272005, 49.753277], [6.271994, 49.753437], [6.271921, 49.75372], [6.271868, 49.753944], [6.271807, 49.754074], [6.27162, 49.75431], [6.271483, 49.754524], [6.27146, 49.754597], [6.271452, 49.75467], [6.27149, 49.754757], [6.27157, 49.75483], [6.271692, 49.75492], [6.271818, 49.754997], [6.271948, 49.75506], [6.272119, 49.755146], [6.272207, 49.755226], [6.272261, 49.755333], [6.27231, 49.75545], [6.272425, 49.75556], [6.272478, 49.755634], [6.27247, 49.755733], [6.272417, 49.755848], [6.272375, 49.755947], [6.27236, 49.75602], [6.272356, 49.7561], [6.272364, 49.75624], [6.272364, 49.7563], [6.272379, 49.756405], [6.272375, 49.75644], [6.272364, 49.75656], [6.272387, 49.756676], [6.272383, 49.756737], [6.272409, 49.756844], [6.272398, 49.7571], [6.272383, 49.75728], [6.272379, 49.757347], [6.272409, 49.757416], [6.272489, 49.75747], [6.272646, 49.7575], [6.272722, 49.75751], [6.272783, 49.7575], [6.272871, 49.757484], [6.272974, 49.757492], [6.273153, 49.75753], [6.273268, 49.75758], [6.273325, 49.757626], [6.273367, 49.75765], [6.273642, 49.757717], [6.274076, 49.757812], [6.27426, 49.757847], [6.274359, 49.757854], [6.274492, 49.757885], [6.274706, 49.757977], [6.27479, 49.757996], [6.274935, 49.75801], [6.275186, 49.75806], [6.275309, 49.758076], [6.27553, 49.758152], [6.275633, 49.758217], [6.275652, 49.758244], [6.275682, 49.758316], [6.275724, 49.758392], [6.275782, 49.758476], [6.27582, 49.75858], [6.275869, 49.758648], [6.275984, 49.758755], [6.276117, 49.75883], [6.276255, 49.758945], [6.276434, 49.759132], [6.276537, 49.75925], [6.276564, 49.759308], [6.276567, 49.75935], [6.27656, 49.75939], [6.276655, 49.759567], [6.27677, 49.75976], [6.27688, 49.75988], [6.276999, 49.75994], [6.277067, 49.75997], [6.277136, 49.760006], [6.277185, 49.76006], [6.277197, 49.760113], [6.277182, 49.760185], [6.277182, 49.76025], [6.277208, 49.76031], [6.277227, 49.7604], [6.277224, 49.760445], [6.277197, 49.76056], [6.277212, 49.7606], [6.277296, 49.760757], [6.277403, 49.76092], [6.277491, 49.761024], [6.277708, 49.76121], [6.277838, 49.76127], [6.277986, 49.76135], [6.278078, 49.761402], [6.278086, 49.76145], [6.278112, 49.76157], [6.278151, 49.76175], [6.278204, 49.761875], [6.278295, 49.76205], [6.278326, 49.762085], [6.278383, 49.7621], [6.278479, 49.762104], [6.278696, 49.762085], [6.278776, 49.762085], [6.278841, 49.762108], [6.278879, 49.762142], [6.278894, 49.762173], [6.278879, 49.76224], [6.278887, 49.762295], [6.278929, 49.76237], [6.279024, 49.76254], [6.27902, 49.762554], [6.278986, 49.76263], [6.278982, 49.762646], [6.278913, 49.76276], [6.278864, 49.762897], [6.278841, 49.762928], [6.27881, 49.762947], [6.278757, 49.76296], [6.278681, 49.76297], [6.278589, 49.763004], [6.278532, 49.763016], [6.278463, 49.763027], [6.278414, 49.763046], [6.278364, 49.76307], [6.278307, 49.763084], [6.278204, 49.76312], [6.278131, 49.763138], [6.278074, 49.763145], [6.278044, 49.763157], [6.277994, 49.76314], [6.277945, 49.763145], [6.277895, 49.76316], [6.277872, 49.763176], [6.277823, 49.763203], [6.277765, 49.763214], [6.277639, 49.763214], [6.277609, 49.763218], [6.277544, 49.763237], [6.277487, 49.76325], [6.277445, 49.763245], [6.277395, 49.76321], [6.277365, 49.763184], [6.277323, 49.76316], [6.277273, 49.76314], [6.277224, 49.763107], [6.277204, 49.763084], [6.277174, 49.76306], [6.277136, 49.763058], [6.27709, 49.763065], [6.276922, 49.763107], [6.276732, 49.76314], [6.276525, 49.763172], [6.276297, 49.76319], [6.276274, 49.763195], [6.276094, 49.763203], [6.275656, 49.763214], [6.275587, 49.76333], [6.275553, 49.763374], [6.275522, 49.763424], [6.275469, 49.763515], [6.275343, 49.763718], [6.275236, 49.763893], [6.275042, 49.764194], [6.275366, 49.76435], [6.275538, 49.76443], [6.275625, 49.764477], [6.275694, 49.76451], [6.275797, 49.764565], [6.275991, 49.76469], [6.276689, 49.765125], [6.27717, 49.76544], [6.277609, 49.765766], [6.277971, 49.76604], [6.278601, 49.766376], [6.279444, 49.766697], [6.279493, 49.766834], [6.279539, 49.766968], [6.279474, 49.767128], [6.279383, 49.76735], [6.279268, 49.767548], [6.279142, 49.767746], [6.278685, 49.76821], [6.277327, 49.76789], [6.277155, 49.76826], [6.277121, 49.768337], [6.277094, 49.768387], [6.27706, 49.768467], [6.277044, 49.768494], [6.277025, 49.76854], [6.276999, 49.768593], [6.276968, 49.76866], [6.276705, 49.769222], [6.276213, 49.769196], [6.276003, 49.76918], [6.275801, 49.76917], [6.275763, 49.76925], [6.275709, 49.769352], [6.27564, 49.76948], [6.275576, 49.76961], [6.275495, 49.769768], [6.27548, 49.769794], [6.275427, 49.769894], [6.275381, 49.769978], [6.275251, 49.770226], [6.275228, 49.770245], [6.274904, 49.77026], [6.274748, 49.770252], [6.274561, 49.77023], [6.274386, 49.770203], [6.274336, 49.77019], [6.273931, 49.770115], [6.27376, 49.770084], [6.273195, 49.769978], [6.273134, 49.769962], [6.272997, 49.769943], [6.272924, 49.769936], [6.272539, 49.76988], [6.272341, 49.769848], [6.271998, 49.76979], [6.271799, 49.769753], [6.271593, 49.769695], [6.271463, 49.769653], [6.271212, 49.769577], [6.270906, 49.76949], [6.270674, 49.76943], [6.270285, 49.769344], [6.2694, 49.769157], [6.269358, 49.76915], [6.268724, 49.768997], [6.26827, 49.768753], [6.268045, 49.768806], [6.267645, 49.768898], [6.267603, 49.76898], [6.267603, 49.769005], [6.267588, 49.76902], [6.267553, 49.769047], [6.267527, 49.76907], [6.267485, 49.76909], [6.267435, 49.7691], [6.267355, 49.769104], [6.267275, 49.769096], [6.267168, 49.769077], [6.267126, 49.76907], [6.267065, 49.769043], [6.267035, 49.769016], [6.266993, 49.768986], [6.266958, 49.768974], [6.266924, 49.76897], [6.26689, 49.76898], [6.266684, 49.769], [6.266645, 49.768997], [6.266604, 49.768982], [6.266569, 49.769016], [6.266508, 49.7691], [6.267054, 49.769287], [6.267469, 49.769432], [6.267447, 49.769463], [6.267313, 49.769608], [6.267267, 49.76965], [6.267111, 49.769554], [6.266951, 49.769466], [6.266741, 49.76937], [6.266458, 49.76926], [6.265982, 49.7691], [6.265749, 49.769016], [6.265509, 49.768925], [6.265406, 49.76889], [6.265177, 49.768837], [6.264887, 49.768795], [6.264868, 49.76874], [6.264749, 49.768417], [6.263102, 49.76871], [6.263121, 49.769005], [6.263121, 49.76902], [6.263128, 49.769123], [6.263132, 49.769154], [6.26314, 49.76929], [6.263151, 49.76944], [6.263163, 49.76958], [6.263166, 49.76961], [6.263174, 49.769722], [6.263185, 49.769875], [6.263197, 49.770073], [6.263937, 49.77002], [6.264616, 49.769962], [6.264528, 49.770393], [6.264517, 49.77044], [6.264669, 49.77049], [6.264589, 49.770657], [6.264509, 49.770844], [6.264467, 49.770924], [6.264372, 49.771114], [6.264326, 49.7712], [6.264292, 49.771282], [6.264215, 49.771446], [6.264086, 49.77174], [6.263803, 49.772366], [6.263659, 49.772694], [6.263502, 49.77301], [6.263422, 49.7732], [6.2633, 49.77352], [6.263273, 49.77352], [6.263216, 49.77361], [6.263121, 49.77377], [6.262934, 49.774063], [6.262766, 49.774025], [6.262625, 49.774254], [6.262575, 49.774326], [6.262468, 49.77449], [6.262339, 49.774685], [6.262247, 49.77483], [6.26211, 49.77505], [6.26206, 49.775124], [6.262026, 49.775177], [6.261972, 49.77527], [6.261904, 49.77538], [6.261789, 49.775555], [6.26177, 49.775597], [6.261671, 49.775776], [6.261496, 49.776104], [6.261332, 49.776405], [6.261579, 49.77644], [6.261686, 49.77645], [6.261721, 49.776455], [6.261923, 49.77648], [6.262094, 49.776505], [6.262186, 49.776516], [6.263357, 49.776665], [6.263269, 49.776936], [6.26367, 49.776974], [6.263594, 49.77715], [6.263586, 49.777164], [6.263536, 49.77727], [6.263479, 49.7774], [6.26346, 49.777447], [6.263441, 49.77749], [6.263403, 49.777573], [6.263388, 49.77761], [6.263365, 49.77766], [6.263323, 49.777756], [6.263277, 49.777847], [6.263239, 49.777927], [6.263197, 49.778008], [6.263124, 49.77816], [6.263056, 49.778316], [6.262999, 49.77844], [6.262968, 49.778496], [6.262926, 49.778576], [6.262869, 49.778687], [6.262819, 49.77879], [6.262468, 49.778683], [6.262316, 49.778645], [6.262159, 49.778614], [6.261908, 49.778572], [6.26169, 49.778545], [6.261526, 49.778515], [6.261431, 49.7785], [6.261175, 49.778458], [6.260931, 49.77842], [6.260603, 49.77837], [6.259993, 49.778282], [6.259363, 49.7782], [6.258841, 49.778027], [6.258482, 49.77788], [6.257147, 49.77729], [6.256773, 49.777122], [6.25675, 49.77714], [6.256693, 49.77719], [6.256681, 49.777203], [6.256475, 49.777367], [6.256445, 49.77739], [6.256388, 49.777435], [6.256311, 49.7775], [6.256151, 49.777634], [6.255938, 49.77781], [6.255838, 49.777893], [6.25569, 49.778023], [6.255499, 49.778206], [6.255465, 49.77825], [6.255335, 49.77847], [6.255289, 49.77851], [6.25522, 49.778553], [6.255098, 49.77861], [6.254969, 49.778625], [6.254728, 49.77865], [6.254454, 49.77869], [6.253916, 49.778763], [6.253725, 49.77835], [6.253653, 49.778202], [6.253572, 49.77812], [6.253389, 49.777977], [6.253096, 49.777763], [6.252897, 49.777615], [6.252714, 49.777504], [6.252092, 49.77722], [6.251223, 49.77685], [6.250944, 49.777134], [6.250513, 49.777557], [6.250464, 49.777607], [6.250204, 49.77786], [6.249281, 49.778755], [6.248812, 49.779224], [6.248053, 49.77999], [6.247732, 49.78037], [6.248266, 49.7805], [6.248175, 49.780613], [6.248079, 49.780727], [6.247988, 49.78084], [6.247969, 49.780834], [6.247942, 49.780865], [6.246286, 49.780457], [6.246161, 49.780598], [6.24613, 49.78064], [6.246061, 49.780716], [6.245989, 49.7808], [6.245954, 49.780838], [6.245935, 49.78086], [6.244013, 49.780094], [6.243937, 49.78016], [6.243788, 49.78029], [6.243761, 49.780308], [6.243631, 49.780422], [6.243589, 49.78046], [6.24357, 49.780476], [6.243483, 49.780563], [6.243429, 49.780617], [6.243395, 49.780647], [6.24336, 49.78068], [6.243299, 49.780743], [6.2432, 49.78084], [6.243158, 49.780884], [6.243093, 49.780945], [6.243029, 49.78101], [6.242804, 49.78123], [6.242983, 49.78129], [6.24296, 49.781322], [6.242842, 49.78152], [6.242773, 49.78164], [6.242731, 49.78171], [6.242651, 49.78185], [6.242575, 49.781982], [6.241762, 49.781773], [6.241156, 49.78162], [6.240099, 49.78135], [6.240007, 49.781414], [6.237432, 49.781082], [6.236891, 49.78227], [6.236849, 49.782368], [6.23683, 49.78242], [6.236723, 49.782677], [6.236708, 49.78272], [6.236654, 49.782864]]]]}}]}