{"type": "FeatureCollection", "features": [{"type": "Feature", "properties": {"name": "Grevenmacher"}, "geometry": {"type": "MultiPolygon", "coordinates": [[[[6.360189, 49.664703], [6.363012, 49.66595], [6.363081, 49.665985], [6.364573, 49.66664], [6.364721, 49.666706], [6.365293, 49.66693], [6.36635, 49.667316], [6.366507, 49.667374], [6.366835, 49.66748], [6.367414, 49.667645], [6.367815, 49.66775], [6.368254, 49.667637], [6.369009, 49.66745], [6.369944, 49.66719], [6.370462, 49.667034], [6.370756, 49.667206], [6.371313, 49.667503], [6.37208, 49.66793], [6.372873, 49.668293], [6.373388, 49.668526], [6.37377, 49.66898], [6.37414, 49.669437], [6.374247, 49.669544], [6.374487, 49.669777], [6.374792, 49.670055], [6.375246, 49.670483], [6.374178, 49.670845], [6.37348, 49.67109], [6.373823, 49.672123], [6.373907, 49.672382], [6.374128, 49.67272], [6.37462, 49.673397], [6.374811, 49.673653], [6.375208, 49.674026], [6.376028, 49.674805], [6.376318, 49.675087], [6.37694, 49.675682], [6.377306, 49.67603], [6.377485, 49.67617], [6.377878, 49.676434], [6.377626, 49.676876], [6.378626, 49.677486], [6.378675, 49.677513], [6.379007, 49.677715], [6.380205, 49.677917], [6.380346, 49.67795], [6.380648, 49.67803], [6.38217, 49.67842], [6.384695, 49.67873], [6.385664, 49.678864], [6.386793, 49.67903], [6.387777, 49.679424], [6.388353, 49.679535], [6.388407, 49.679573], [6.388964, 49.67974], [6.389013, 49.679756], [6.389204, 49.67981], [6.390108, 49.680084], [6.390253, 49.68013], [6.391188, 49.680416], [6.391535, 49.680523], [6.391775, 49.680595], [6.391828, 49.68061], [6.391859, 49.680622], [6.392019, 49.68067], [6.392035, 49.680676], [6.392836, 49.68092], [6.3943, 49.681362], [6.394587, 49.68145], [6.394976, 49.681572], [6.395174, 49.681637], [6.395598, 49.681767], [6.39591, 49.681854], [6.396219, 49.681847], [6.396448, 49.68186], [6.396818, 49.681915], [6.396837, 49.68195], [6.396864, 49.68199], [6.39694, 49.68213], [6.397032, 49.682297], [6.397219, 49.68257], [6.397501, 49.682915], [6.3976, 49.683037], [6.397627, 49.683067], [6.39789, 49.68339], [6.398333, 49.684013], [6.398474, 49.683945], [6.398848, 49.68375], [6.399286, 49.68351], [6.399553, 49.683777], [6.399805, 49.68404], [6.400125, 49.684345], [6.401075, 49.685276], [6.400957, 49.685326], [6.401529, 49.68588], [6.401823, 49.686203], [6.402552, 49.687065], [6.403173, 49.687847], [6.403406, 49.688145], [6.402948, 49.68832], [6.404066, 49.68917], [6.404676, 49.689632], [6.404921, 49.68984], [6.405207, 49.69013], [6.405443, 49.69038], [6.405886, 49.690838], [6.405912, 49.690865], [6.40653, 49.690617], [6.40719, 49.69036], [6.407244, 49.69035], [6.407637, 49.690193], [6.40856, 49.68983], [6.408701, 49.689762], [6.408819, 49.689693], [6.408972, 49.689583], [6.40904, 49.689583], [6.409529, 49.689377], [6.410158, 49.689175], [6.41123, 49.68897], [6.412073, 49.688984], [6.411955, 49.68825], [6.411901, 49.687992], [6.41202, 49.68796], [6.412191, 49.68792], [6.412237, 49.68791], [6.412435, 49.68783], [6.413073, 49.6881], [6.414041, 49.688496], [6.416006, 49.68937], [6.41736, 49.69006], [6.418024, 49.69038], [6.418695, 49.69069], [6.419584, 49.69105], [6.420626, 49.69141], [6.421236, 49.691746], [6.421827, 49.692085], [6.422403, 49.692463], [6.424124, 49.693424], [6.424871, 49.693874], [6.424913, 49.693897], [6.425909, 49.694496], [6.425959, 49.69453], [6.427782, 49.69593], [6.427721, 49.69613], [6.427683, 49.69624], [6.427633, 49.6964], [6.427576, 49.69658], [6.42935, 49.69749], [6.429289, 49.697536], [6.429285, 49.697594], [6.429483, 49.697742], [6.429602, 49.697876], [6.429598, 49.69794], [6.429518, 49.69803], [6.429678, 49.698055], [6.429777, 49.6981], [6.430544, 49.698654], [6.431036, 49.69895], [6.431089, 49.699036], [6.431192, 49.699192], [6.431448, 49.699406], [6.431505, 49.69944], [6.432753, 49.699844], [6.432802, 49.69946], [6.432829, 49.699406], [6.43392, 49.698788], [6.436247, 49.697468], [6.436964, 49.697063], [6.437021, 49.697037], [6.439775, 49.695877], [6.439947, 49.6958], [6.44021, 49.695683], [6.440432, 49.695583], [6.440729, 49.69545], [6.443132, 49.69427], [6.443056, 49.694134], [6.443899, 49.693897], [6.444269, 49.69379], [6.44438, 49.693764], [6.444345, 49.693676], [6.44449, 49.693604], [6.444719, 49.693752], [6.444757, 49.693512], [6.444864, 49.693394], [6.445139, 49.693462], [6.445372, 49.693504], [6.445723, 49.69356], [6.446058, 49.693558], [6.446535, 49.693474], [6.446947, 49.693367], [6.446978, 49.693336], [6.447058, 49.69325], [6.447145, 49.69315], [6.447184, 49.693108], [6.447897, 49.693386], [6.448275, 49.69351], [6.448904, 49.693695], [6.449606, 49.69391], [6.449854, 49.693966], [6.45022, 49.694016], [6.450685, 49.694054], [6.450861, 49.69407], [6.450979, 49.694065], [6.451212, 49.693928], [6.451338, 49.69386], [6.45151, 49.693794], [6.451662, 49.693764], [6.451818, 49.69373], [6.45188, 49.693695], [6.451906, 49.693615], [6.451986, 49.693535], [6.452059, 49.69355], [6.45281, 49.69358], [6.453539, 49.693695], [6.454136, 49.693614], [6.45468, 49.69354], [6.455053, 49.693455], [6.455427, 49.693275], [6.455648, 49.69316], [6.45608, 49.692852], [6.456057, 49.692844], [6.456274, 49.692673], [6.456415, 49.692627], [6.456518, 49.692535], [6.456621, 49.692505], [6.456827, 49.692425], [6.456923, 49.692387], [6.457006, 49.692356], [6.457148, 49.69242], [6.457277, 49.692482], [6.457712, 49.692642], [6.45841, 49.692898], [6.458643, 49.693043], [6.458601, 49.69315], [6.4592, 49.693398], [6.459585, 49.69356], [6.459951, 49.693607], [6.460108, 49.693542], [6.460264, 49.693336], [6.460344, 49.69321], [6.460447, 49.693096], [6.460504, 49.693024], [6.460562, 49.692947], [6.460878, 49.692535], [6.460913, 49.692497], [6.461058, 49.69235], [6.461331, 49.691921], [6.460667, 49.691713], [6.46007, 49.691429], [6.459565, 49.691135], [6.458346, 49.690323], [6.457561, 49.689594], [6.457299, 49.689296], [6.456927, 49.688735], [6.456534, 49.68806], [6.455921, 49.686965], [6.455287, 49.686008], [6.45437, 49.684971], [6.452933, 49.683597], [6.451539, 49.682461], [6.44968, 49.680778], [6.449599, 49.680706], [6.44919, 49.680297], [6.447898, 49.678851], [6.447336, 49.678165], [6.44648, 49.677447], [6.443787, 49.675602], [6.436218, 49.671173], [6.435782, 49.670978], [6.43511, 49.670757], [6.433958, 49.670574], [6.433307, 49.670421], [6.432177, 49.670032], [6.431872, 49.669864], [6.431395, 49.669513], [6.428975, 49.667225], [6.428038, 49.666214], [6.427163, 49.665161], [6.426639, 49.664417], [6.426356, 49.66399], [6.425257, 49.663815], [6.423807, 49.663994], [6.422712, 49.66401], [6.422148, 49.664013], [6.421621, 49.66402], [6.421408, 49.66403], [6.421236, 49.664032], [6.421038, 49.663586], [6.421087, 49.663486], [6.421133, 49.6634], [6.421179, 49.6633], [6.421259, 49.66313], [6.421385, 49.662853], [6.421492, 49.662506], [6.421545, 49.66237], [6.421568, 49.662193], [6.421503, 49.66202], [6.421411, 49.6619], [6.421396, 49.661877], [6.421366, 49.661835], [6.421347, 49.661797], [6.421316, 49.661724], [6.421286, 49.661644], [6.421259, 49.661587], [6.421247, 49.661564], [6.421213, 49.66152], [6.421202, 49.661495], [6.421171, 49.661434], [6.420988, 49.661007], [6.420984, 49.66099], [6.420977, 49.660973], [6.420908, 49.660793], [6.420874, 49.660698], [6.42074, 49.660355], [6.420679, 49.660202], [6.420576, 49.659836], [6.420565, 49.659805], [6.420542, 49.659733], [6.420534, 49.65968], [6.420515, 49.659573], [6.420504, 49.659477], [6.4205, 49.659412], [6.4205, 49.65928], [6.420511, 49.659187], [6.420511, 49.65916], [6.420527, 49.659084], [6.420534, 49.659027], [6.420542, 49.658997], [6.420576, 49.65883], [6.420584, 49.658806], [6.420607, 49.658714], [6.420614, 49.65868], [6.420622, 49.658657], [6.420637, 49.658566], [6.42066, 49.658268], [6.420893, 49.657734], [6.420931, 49.65769], [6.421221, 49.657387], [6.421232, 49.657356], [6.42127, 49.657234], [6.421312, 49.657085], [6.421331, 49.65699], [6.421335, 49.656967], [6.421362, 49.6567], [6.421373, 49.65662], [6.421381, 49.656548], [6.421389, 49.656494], [6.4214, 49.656395], [6.421415, 49.656277], [6.421415, 49.65626], [6.421434, 49.65604], [6.421434, 49.656017], [6.421438, 49.65599], [6.421438, 49.655952], [6.421446, 49.655853], [6.42145, 49.655823], [6.421457, 49.655716], [6.421461, 49.655697], [6.421465, 49.655647], [6.421465, 49.65562], [6.421473, 49.65558], [6.421495, 49.655468], [6.421503, 49.655434], [6.421537, 49.655323], [6.421549, 49.655277], [6.421583, 49.655174], [6.421598, 49.65512], [6.421648, 49.65497], [6.421686, 49.654816], [6.421701, 49.654766], [6.421747, 49.654644], [6.421824, 49.654476], [6.4219, 49.654297], [6.421743, 49.654385], [6.421656, 49.654423], [6.421583, 49.654453], [6.421495, 49.65449], [6.421396, 49.65453], [6.421232, 49.65448], [6.421164, 49.654465], [6.42082, 49.65438], [6.419451, 49.654057], [6.419333, 49.654064], [6.418985, 49.654083], [6.418215, 49.65413], [6.416906, 49.6542], [6.416155, 49.654243], [6.416048, 49.654247], [6.415487, 49.654255], [6.414827, 49.654266], [6.412664, 49.654305], [6.41197, 49.654514], [6.411341, 49.6547], [6.410742, 49.65488], [6.409708, 49.65585], [6.409449, 49.65609], [6.408613, 49.65681], [6.408571, 49.656845], [6.407785, 49.65752], [6.407621, 49.657665], [6.407206, 49.657562], [6.407038, 49.657516], [6.406881, 49.65729], [6.406511, 49.65688], [6.406084, 49.65639], [6.405844, 49.65617], [6.405577, 49.655975], [6.404951, 49.655655], [6.404421, 49.65536], [6.404394, 49.655342], [6.404188, 49.655193], [6.403849, 49.655033], [6.403559, 49.654945], [6.403044, 49.65484], [6.402216, 49.654682], [6.401358, 49.654625], [6.400793, 49.654427], [6.400248, 49.654305], [6.399511, 49.654293], [6.398821, 49.654285], [6.39855, 49.65429], [6.398188, 49.6543], [6.397913, 49.654358], [6.397272, 49.65449], [6.396631, 49.65468], [6.396475, 49.654743], [6.395906, 49.654842], [6.395453, 49.655006], [6.39538, 49.655033], [6.394976, 49.655125], [6.394308, 49.65527], [6.393908, 49.655396], [6.393221, 49.655563], [6.392511, 49.65569], [6.391863, 49.655716], [6.390863, 49.65575], [6.390406, 49.65577], [6.389875, 49.65585], [6.38928, 49.656082], [6.388994, 49.656147], [6.388479, 49.65622], [6.388086, 49.656235], [6.387823, 49.656284], [6.387743, 49.6563], [6.387503, 49.65634], [6.38719, 49.65639], [6.385813, 49.656403], [6.385164, 49.65651], [6.384188, 49.656837], [6.383768, 49.657063], [6.383463, 49.65727], [6.383333, 49.657448], [6.383303, 49.657486], [6.383108, 49.657787], [6.382978, 49.658], [6.382849, 49.658348], [6.3827, 49.658695], [6.382444, 49.65919], [6.382093, 49.659157], [6.3817, 49.65899], [6.38088, 49.65954], [6.380953, 49.659725], [6.381021, 49.65997], [6.381128, 49.6604], [6.380289, 49.66106], [6.380136, 49.661175], [6.380129, 49.661434], [6.380133, 49.66152], [6.380163, 49.661682], [6.38027, 49.66199], [6.379995, 49.662045], [6.379812, 49.662094], [6.37977, 49.662106], [6.37974, 49.662113], [6.379671, 49.662136], [6.379522, 49.66219], [6.378992, 49.662376], [6.37871, 49.662266], [6.377966, 49.66294], [6.377893, 49.66301], [6.377943, 49.66303], [6.378645, 49.663296], [6.377482, 49.66424], [6.377214, 49.664276], [6.376867, 49.664207], [6.376722, 49.664177], [6.375437, 49.665413], [6.374968, 49.666027], [6.374769, 49.66627], [6.374586, 49.666553], [6.37451, 49.666664], [6.374014, 49.667015], [6.373762, 49.66693], [6.372076, 49.66637], [6.371405, 49.666225], [6.37113, 49.666206], [6.370569, 49.66616], [6.37018, 49.666145], [6.370081, 49.66614], [6.369715, 49.666145], [6.369516, 49.66614], [6.369322, 49.666134], [6.369104, 49.66612], [6.368742, 49.666077], [6.368433, 49.666035], [6.366476, 49.6658], [6.365824, 49.665707], [6.365545, 49.665657], [6.36529, 49.6656], [6.365164, 49.66557], [6.36416, 49.665287], [6.363848, 49.665203], [6.363764, 49.66518], [6.363421, 49.665104], [6.363264, 49.66507], [6.363073, 49.665035], [6.362925, 49.66501], [6.362074, 49.664883], [6.361269, 49.664776], [6.360216, 49.664658], [6.360189, 49.664703]]]]}}]}