{"type": "FeatureCollection", "features": [{"type": "Feature", "properties": {"name": "Tandel"}, "geometry": {"type": "MultiPolygon", "coordinates": [[[[6.108599, 49.910477], [6.10861, 49.91052], [6.10866, 49.91057], [6.108728, 49.910603], [6.108828, 49.910645], [6.108961, 49.91068], [6.109117, 49.910694], [6.109137, 49.910675], [6.109217, 49.91057], [6.109243, 49.910538], [6.109285, 49.91049], [6.109362, 49.910408], [6.109426, 49.910343], [6.109495, 49.91029], [6.109541, 49.910267], [6.109671, 49.91023], [6.109816, 49.91018], [6.109903, 49.910137], [6.109987, 49.910088], [6.110033, 49.910057], [6.110098, 49.910015], [6.110201, 49.90996], [6.110346, 49.909904], [6.110498, 49.909855], [6.110769, 49.90979], [6.111006, 49.909748], [6.111254, 49.90971], [6.111502, 49.909687], [6.111757, 49.90968], [6.111898, 49.909683], [6.112169, 49.90971], [6.112219, 49.90972], [6.112307, 49.909733], [6.112467, 49.909775], [6.112646, 49.90983], [6.112844, 49.90991], [6.112947, 49.909966], [6.112974, 49.909992], [6.11305, 49.910027], [6.113108, 49.910065], [6.11318, 49.910126], [6.113237, 49.9102], [6.113276, 49.910275], [6.113314, 49.910385], [6.113344, 49.910526], [6.113401, 49.91108], [6.113462, 49.911476], [6.113489, 49.9116], [6.113508, 49.91168], [6.113569, 49.911865], [6.113604, 49.911892], [6.113733, 49.91191], [6.113878, 49.91192], [6.114107, 49.911926], [6.114309, 49.911915], [6.114534, 49.91188], [6.114855, 49.911835], [6.115255, 49.911774], [6.115595, 49.91172], [6.115885, 49.91168], [6.115862, 49.91198], [6.115824, 49.9122], [6.115778, 49.912373], [6.115274, 49.91241], [6.115271, 49.912838], [6.115267, 49.912926], [6.11524, 49.91309], [6.115164, 49.91349], [6.115053, 49.913975], [6.114973, 49.914257], [6.114901, 49.91447], [6.114824, 49.914635], [6.114675, 49.914898], [6.114618, 49.915016], [6.114576, 49.915134], [6.114542, 49.915264], [6.114534, 49.915314], [6.114508, 49.91543], [6.114469, 49.91551], [6.114283, 49.91583], [6.114244, 49.9159], [6.11421, 49.915966], [6.114195, 49.91604], [6.114164, 49.91614], [6.114134, 49.916252], [6.114073, 49.91633], [6.113977, 49.916393], [6.113913, 49.916416], [6.113836, 49.91643], [6.11368, 49.916443], [6.113459, 49.91645], [6.11344, 49.91645], [6.113451, 49.916534], [6.113478, 49.91669], [6.113504, 49.916817], [6.113527, 49.916904], [6.113554, 49.91696], [6.113581, 49.917004], [6.113615, 49.917038], [6.113676, 49.917088], [6.113722, 49.917114], [6.113798, 49.91715], [6.113878, 49.91718], [6.113962, 49.9172], [6.114042, 49.917206], [6.114599, 49.917244], [6.114737, 49.917263], [6.114912, 49.917294], [6.114958, 49.917313], [6.114992, 49.91733], [6.115049, 49.91737], [6.115099, 49.917423], [6.115164, 49.917522], [6.115286, 49.91775], [6.115313, 49.91779], [6.115347, 49.91782], [6.115389, 49.917847], [6.115442, 49.91787], [6.115507, 49.91789], [6.115602, 49.917908], [6.115671, 49.91791], [6.115755, 49.917908], [6.115892, 49.91788], [6.115976, 49.91787], [6.116049, 49.917862], [6.116125, 49.917873], [6.116198, 49.917896], [6.116262, 49.91793], [6.116365, 49.918007], [6.116491, 49.918118], [6.116583, 49.918198], [6.116667, 49.91826], [6.116751, 49.918297], [6.116816, 49.918312], [6.11688, 49.918316], [6.116949, 49.91831], [6.117029, 49.918285], [6.11709, 49.91826], [6.117128, 49.91822], [6.117147, 49.918175], [6.117155, 49.918102], [6.11717, 49.918083], [6.11809, 49.91788], [6.118742, 49.91774], [6.118837, 49.91772], [6.118769, 49.917824], [6.118597, 49.918087], [6.118734, 49.918125], [6.118727, 49.918144], [6.118689, 49.918167], [6.118238, 49.91861], [6.118223, 49.918636], [6.118032, 49.918777], [6.117762, 49.91897], [6.11759, 49.919067], [6.117498, 49.919106], [6.117113, 49.919197], [6.117094, 49.9192], [6.117178, 49.919273], [6.117132, 49.919537], [6.117106, 49.919655], [6.117022, 49.919937], [6.11693, 49.920284], [6.116877, 49.920452], [6.116827, 49.920532], [6.116758, 49.92061], [6.116648, 49.9207], [6.116484, 49.920822], [6.116262, 49.92097], [6.115908, 49.921204], [6.115759, 49.92129], [6.115698, 49.92131], [6.115686, 49.921326], [6.11569, 49.92141], [6.115602, 49.921703], [6.115477, 49.92212], [6.1154, 49.922283], [6.115213, 49.9227], [6.115187, 49.9228], [6.115229, 49.923035], [6.115408, 49.923576], [6.115541, 49.924072], [6.115664, 49.924488], [6.115801, 49.92503], [6.115816, 49.925095], [6.115709, 49.925133], [6.115709, 49.925144], [6.115885, 49.92523], [6.116003, 49.925285], [6.116098, 49.925335], [6.116331, 49.925472], [6.116571, 49.92561], [6.116697, 49.925686], [6.116785, 49.92575], [6.116831, 49.925804], [6.116873, 49.92587], [6.116892, 49.925922], [6.116899, 49.925953], [6.116899, 49.925976], [6.116884, 49.926025], [6.116888, 49.926144], [6.116922, 49.926216], [6.11693, 49.926304], [6.116926, 49.926414], [6.116922, 49.92646], [6.116899, 49.926517], [6.116861, 49.926598], [6.116816, 49.926662], [6.116735, 49.926792], [6.116629, 49.92699], [6.116575, 49.927116], [6.116541, 49.927216], [6.116495, 49.92737], [6.116461, 49.92749], [6.11643, 49.92765], [6.116415, 49.92782], [6.116419, 49.927925], [6.116438, 49.928017], [6.116472, 49.928104], [6.116526, 49.92818], [6.116549, 49.92825], [6.11656, 49.928394], [6.116522, 49.928493], [6.11651, 49.92855], [6.116507, 49.928596], [6.116514, 49.92867], [6.116549, 49.92884], [6.116541, 49.928883], [6.116514, 49.92895], [6.116468, 49.929028], [6.116404, 49.929108], [6.116304, 49.929226], [6.116205, 49.929325], [6.116148, 49.929417], [6.116125, 49.92948], [6.11614, 49.929546], [6.116255, 49.929844], [6.116354, 49.93007], [6.116407, 49.9302], [6.116491, 49.930325], [6.116545, 49.930397], [6.116591, 49.930504], [6.116617, 49.930573], [6.116625, 49.93068], [6.116629, 49.930805], [6.116644, 49.93092], [6.116774, 49.931076], [6.116869, 49.93117], [6.116968, 49.931255], [6.117128, 49.93136], [6.117289, 49.93146], [6.117392, 49.931534], [6.117453, 49.931587], [6.117506, 49.93165], [6.117548, 49.93175], [6.117582, 49.931812], [6.117659, 49.93188], [6.117765, 49.93196], [6.117884, 49.932026], [6.118006, 49.93208], [6.118116, 49.932117], [6.118307, 49.93217], [6.118635, 49.932278], [6.118868, 49.932354], [6.11899, 49.932404], [6.119085, 49.932457], [6.119185, 49.932514], [6.119349, 49.93265], [6.119463, 49.93275], [6.119665, 49.93296], [6.119741, 49.933044], [6.119821, 49.93311], [6.119951, 49.933197], [6.120245, 49.933384], [6.120653, 49.933617], [6.121019, 49.933823], [6.121214, 49.933918], [6.121351, 49.93399], [6.121447, 49.934025], [6.121534, 49.934048], [6.121679, 49.93409], [6.121901, 49.934162], [6.122004, 49.934204], [6.122057, 49.93423], [6.122175, 49.93431], [6.122351, 49.934437], [6.122408, 49.93448], [6.122534, 49.934605], [6.122706, 49.934696], [6.122984, 49.934864], [6.123251, 49.93501], [6.123453, 49.935112], [6.123541, 49.93515], [6.123659, 49.93518], [6.123751, 49.93521], [6.1238, 49.935238], [6.123919, 49.935314], [6.12409, 49.93544], [6.124132, 49.935482], [6.124197, 49.935566], [6.124235, 49.9356], [6.124346, 49.93567], [6.124491, 49.935753], [6.124533, 49.935787], [6.124651, 49.93592], [6.124712, 49.93597], [6.124811, 49.936043], [6.124899, 49.936115], [6.125044, 49.936214], [6.125231, 49.936363], [6.125326, 49.936428], [6.125387, 49.93646], [6.125437, 49.936478], [6.12549, 49.93649], [6.125612, 49.9365], [6.125673, 49.93651], [6.125719, 49.93653], [6.125917, 49.93666], [6.125998, 49.9367], [6.126081, 49.936726], [6.126146, 49.93674], [6.126295, 49.936764], [6.126383, 49.936787], [6.126467, 49.93682], [6.126596, 49.936886], [6.126665, 49.936916], [6.126852, 49.936974], [6.126902, 49.93699], [6.12697, 49.937035], [6.127027, 49.937054], [6.127111, 49.93708], [6.127195, 49.937134], [6.127241, 49.93715], [6.127397, 49.937202], [6.12784, 49.937325], [6.128046, 49.937386], [6.128138, 49.93743], [6.128199, 49.937454], [6.128294, 49.937485], [6.128355, 49.937515], [6.128408, 49.937553], [6.128447, 49.93757], [6.128504, 49.937572], [6.128572, 49.937576], [6.128637, 49.937588], [6.128698, 49.937607], [6.128794, 49.937653], [6.128862, 49.937683], [6.129003, 49.937737], [6.129168, 49.93779], [6.129332, 49.93785], [6.129534, 49.93793], [6.129621, 49.937973], [6.129713, 49.93802], [6.129831, 49.938084], [6.129984, 49.938164], [6.130201, 49.938267], [6.130285, 49.938316], [6.130381, 49.938385], [6.130529, 49.93857], [6.130552, 49.93863], [6.130571, 49.938694], [6.130598, 49.93875], [6.130644, 49.93884], [6.130674, 49.938908], [6.130716, 49.938988], [6.130785, 49.93909], [6.130835, 49.939175], [6.130873, 49.93925], [6.130922, 49.93938], [6.130976, 49.939373], [6.130995, 49.939415], [6.13101, 49.939465], [6.131018, 49.939518], [6.131018, 49.939594], [6.131033, 49.939667], [6.131067, 49.93975], [6.131113, 49.93987], [6.131174, 49.93985], [6.131231, 49.93994], [6.131292, 49.940033], [6.131357, 49.940086], [6.131453, 49.940166], [6.131552, 49.940224], [6.131609, 49.94023], [6.131723, 49.940247], [6.132063, 49.940254], [6.132406, 49.94035], [6.13254, 49.94038], [6.132727, 49.940426], [6.132883, 49.940975], [6.132975, 49.941315], [6.133036, 49.94157], [6.133066, 49.941772], [6.133058, 49.941963], [6.133039, 49.94218], [6.133032, 49.942245], [6.13302, 49.942318], [6.132971, 49.942543], [6.132971, 49.942623], [6.132994, 49.942722], [6.133013, 49.94279], [6.13307, 49.942875], [6.13315, 49.942947], [6.133242, 49.943012], [6.133436, 49.943123], [6.133741, 49.943275], [6.133978, 49.943382], [6.134088, 49.94342], [6.134218, 49.943455], [6.134317, 49.94347], [6.134558, 49.9435], [6.134787, 49.943527], [6.135031, 49.943573], [6.135263, 49.943615], [6.135408, 49.943634], [6.135569, 49.943634], [6.135744, 49.943626], [6.135847, 49.94361], [6.135965, 49.94358], [6.136236, 49.943478], [6.136267, 49.94352], [6.13637, 49.943657], [6.136396, 49.9437], [6.136763, 49.94353], [6.136911, 49.943478], [6.13703, 49.943428], [6.137125, 49.943394], [6.137186, 49.943382], [6.13722, 49.943367], [6.137285, 49.943333], [6.137361, 49.943295], [6.137464, 49.943245], [6.13756, 49.94321], [6.13764, 49.94316], [6.137701, 49.94312], [6.13777, 49.943077], [6.137926, 49.943016], [6.137999, 49.942997], [6.138063, 49.942986], [6.138113, 49.94298], [6.138266, 49.94298], [6.138452, 49.94297], [6.138624, 49.94296], [6.138758, 49.94295], [6.138937, 49.942966], [6.139368, 49.94301], [6.139582, 49.94303], [6.139803, 49.943058], [6.140043, 49.9431], [6.140261, 49.943146], [6.140467, 49.9432], [6.140646, 49.94326], [6.14113, 49.94345], [6.141115, 49.943474], [6.141314, 49.943615], [6.141424, 49.943695], [6.141699, 49.94386], [6.141962, 49.944004], [6.142279, 49.94417], [6.142519, 49.9443], [6.142698, 49.94438], [6.143091, 49.944557], [6.143145, 49.944584], [6.143835, 49.945084], [6.144339, 49.945568], [6.144361, 49.945587], [6.144979, 49.94543], [6.145491, 49.945297], [6.145891, 49.94519], [6.146181, 49.945114], [6.146509, 49.944996], [6.146765, 49.944893], [6.147409, 49.944622], [6.14765, 49.944496], [6.147898, 49.944324], [6.148416, 49.943916], [6.148561, 49.943813], [6.14916, 49.94346], [6.14953, 49.94324], [6.149736, 49.94309], [6.150301, 49.94265], [6.150885, 49.94222], [6.151606, 49.94172], [6.151884, 49.941494], [6.152353, 49.94107], [6.152498, 49.94091], [6.152662, 49.940685], [6.152914, 49.940266], [6.152952, 49.940205], [6.15299, 49.940216], [6.153227, 49.940277], [6.15349, 49.940372], [6.153719, 49.940468], [6.153833, 49.940517], [6.154158, 49.94065], [6.154367, 49.94073], [6.154829, 49.940887], [6.155283, 49.941044], [6.155493, 49.94111], [6.155809, 49.941204], [6.156214, 49.941284], [6.157557, 49.941536], [6.157812, 49.941578], [6.157995, 49.9416], [6.158312, 49.94163], [6.158487, 49.941643], [6.158735, 49.941658], [6.158999, 49.94168], [6.159254, 49.9417], [6.159296, 49.941708], [6.159647, 49.941765], [6.160025, 49.941833], [6.160288, 49.941875], [6.160337, 49.94188], [6.160406, 49.94187], [6.160868, 49.9418], [6.161177, 49.94176], [6.161272, 49.941746], [6.161406, 49.94172], [6.1616, 49.941742], [6.161543, 49.94158], [6.162126, 49.94166], [6.162085, 49.941696], [6.161539, 49.942123], [6.161463, 49.9422], [6.16139, 49.942303], [6.161306, 49.942448], [6.161158, 49.94268], [6.161394, 49.942783], [6.16147, 49.942646], [6.16155, 49.94252], [6.161627, 49.942425], [6.161791, 49.94226], [6.161917, 49.94215], [6.162039, 49.942036], [6.162142, 49.94192], [6.162268, 49.941776], [6.162367, 49.94167], [6.1626, 49.941463], [6.162748, 49.941322], [6.162813, 49.941254], [6.162935, 49.94108], [6.163, 49.94098], [6.163065, 49.940876], [6.163004, 49.940823], [6.163095, 49.940765], [6.163313, 49.940655], [6.163408, 49.940594], [6.163485, 49.940548], [6.163603, 49.94051], [6.163858, 49.94041], [6.163774, 49.940346], [6.164144, 49.94018], [6.164827, 49.93988], [6.164988, 49.93982], [6.165205, 49.939754], [6.165564, 49.939716], [6.1653, 49.93995], [6.165163, 49.94007], [6.165125, 49.94012], [6.165075, 49.94027], [6.164961, 49.94069], [6.164946, 49.940777], [6.164965, 49.940834], [6.165003, 49.940907], [6.165022, 49.94096], [6.165052, 49.941006], [6.165079, 49.94103], [6.16514, 49.941048], [6.165602, 49.94116], [6.16575, 49.9412], [6.165853, 49.94124], [6.166044, 49.94134], [6.166098, 49.94137], [6.166224, 49.94143], [6.166296, 49.941456], [6.166388, 49.941494], [6.16641, 49.9415], [6.166414, 49.941517], [6.166399, 49.94158], [6.166418, 49.94161], [6.166483, 49.941654], [6.166559, 49.9417], [6.166594, 49.941734], [6.166723, 49.94195], [6.166769, 49.94201], [6.166819, 49.94205], [6.166868, 49.942078], [6.166956, 49.942112], [6.166998, 49.942135], [6.167051, 49.9422], [6.167086, 49.94222], [6.167139, 49.942234], [6.167215, 49.94224], [6.167257, 49.94226], [6.167295, 49.942287], [6.167326, 49.942318], [6.167364, 49.94234], [6.167444, 49.942364], [6.167528, 49.942387], [6.167574, 49.942413], [6.167646, 49.942463], [6.167685, 49.94248], [6.167734, 49.942486], [6.167917, 49.942486], [6.167978, 49.942497], [6.168039, 49.942516], [6.16815, 49.942574], [6.168238, 49.942596], [6.168314, 49.94261], [6.168448, 49.942627], [6.168592, 49.94266], [6.168756, 49.942715], [6.169481, 49.942993], [6.169599, 49.94304], [6.169642, 49.943066], [6.169741, 49.94314], [6.169798, 49.94317], [6.169905, 49.943203], [6.17042, 49.943336], [6.170477, 49.943363], [6.170744, 49.943497], [6.172193, 49.944639], [6.173456, 49.944494], [6.173582, 49.944479], [6.173967, 49.944433], [6.173384, 49.94288], [6.173292, 49.94253], [6.173109, 49.941845], [6.173098, 49.941784], [6.173231, 49.941288], [6.173468, 49.94109], [6.173601, 49.94098], [6.173983, 49.94066], [6.174391, 49.9402], [6.174669, 49.939465], [6.174803, 49.939095], [6.17483, 49.938004], [6.175749, 49.936428], [6.176146, 49.935986], [6.176653, 49.93564], [6.176714, 49.935596], [6.177347, 49.935165], [6.177416, 49.935085], [6.177435, 49.93506], [6.177523, 49.934956], [6.177675, 49.934826], [6.17782, 49.934677], [6.177931, 49.934536], [6.178026, 49.934425], [6.178839, 49.933372], [6.178972, 49.93324], [6.179155, 49.933105], [6.179407, 49.93297], [6.179598, 49.932884], [6.179857, 49.9328], [6.180033, 49.93273], [6.180227, 49.93264], [6.180422, 49.93254], [6.181257, 49.932236], [6.181589, 49.932148], [6.182424, 49.931953], [6.182791, 49.931866], [6.18284, 49.93184], [6.182878, 49.931816], [6.183001, 49.931694], [6.183336, 49.931297], [6.183825, 49.930664], [6.183935, 49.930527], [6.184076, 49.930416], [6.184206, 49.93028], [6.18445, 49.929962], [6.184591, 49.92975], [6.184683, 49.929638], [6.184847, 49.929497], [6.18524, 49.929226], [6.185732, 49.928864], [6.185881, 49.928776], [6.186029, 49.92869], [6.186098, 49.92864], [6.186197, 49.928505], [6.186285, 49.92839], [6.186346, 49.92833], [6.186541, 49.92818], [6.186823, 49.927986], [6.186979, 49.927876], [6.187342, 49.927666], [6.187555, 49.927547], [6.187681, 49.927467], [6.187796, 49.927372], [6.187872, 49.927288], [6.187963, 49.92717], [6.188028, 49.927082], [6.188108, 49.927006], [6.188211, 49.926914], [6.18844, 49.926693], [6.188574, 49.926567], [6.188692, 49.92646], [6.188791, 49.926384], [6.189066, 49.926193], [6.189394, 49.92599], [6.189909, 49.92568], [6.189997, 49.9256], [6.190069, 49.925533], [6.190317, 49.925385], [6.190752, 49.92515], [6.190977, 49.925056], [6.191343, 49.924915], [6.192247, 49.92463], [6.192503, 49.924545], [6.193129, 49.924355], [6.193193, 49.92433], [6.193205, 49.924347], [6.193235, 49.924423], [6.193346, 49.924686], [6.193434, 49.9249], [6.193479, 49.92502], [6.193522, 49.92512], [6.193651, 49.925354], [6.193609, 49.925514], [6.19346, 49.926113], [6.193663, 49.92621], [6.193785, 49.92626], [6.19388, 49.92632], [6.1942, 49.926487], [6.194449, 49.926502], [6.19467, 49.926517], [6.195261, 49.926556], [6.195074, 49.926865], [6.195818, 49.9272], [6.195967, 49.92725], [6.196245, 49.92737], [6.196711, 49.927452], [6.196882, 49.927483], [6.197195, 49.927517], [6.197248, 49.9275], [6.197184, 49.927406], [6.197164, 49.927322], [6.197161, 49.92724], [6.197119, 49.927204], [6.197069, 49.927155], [6.19702, 49.9271], [6.196947, 49.92701], [6.196726, 49.926723], [6.196539, 49.926506], [6.196413, 49.926365], [6.196302, 49.9262], [6.196081, 49.925896], [6.195715, 49.92608], [6.195436, 49.925827], [6.195364, 49.925755], [6.195299, 49.925694], [6.195051, 49.925457], [6.194975, 49.925385], [6.195166, 49.925285], [6.195349, 49.92519], [6.195688, 49.92501], [6.195856, 49.92492], [6.196104, 49.92479], [6.196489, 49.92459], [6.196619, 49.92451], [6.196863, 49.924355], [6.196962, 49.92429], [6.197435, 49.924267], [6.197546, 49.924263], [6.19766, 49.92427], [6.197851, 49.924294], [6.198019, 49.92432], [6.198278, 49.924374], [6.198564, 49.924442], [6.198694, 49.924488], [6.198824, 49.924557], [6.199095, 49.924706], [6.199694, 49.925053], [6.199831, 49.924904], [6.199846, 49.92489], [6.199633, 49.924698], [6.199808, 49.92475], [6.200125, 49.924828], [6.200594, 49.924927], [6.200621, 49.92493], [6.201029, 49.925007], [6.20204, 49.925205], [6.20257, 49.925297], [6.203188, 49.925407], [6.203516, 49.92548], [6.20376, 49.92555], [6.204309, 49.925713], [6.204485, 49.925777], [6.204725, 49.925888], [6.205358, 49.92617], [6.205408, 49.926125], [6.205938, 49.92565], [6.206369, 49.925255], [6.206636, 49.925007], [6.207274, 49.924408], [6.20566, 49.924206], [6.205702, 49.924458], [6.205652, 49.92454], [6.205557, 49.924538], [6.205481, 49.924526], [6.205332, 49.924477], [6.205263, 49.92445], [6.20503, 49.924324], [6.204969, 49.92429], [6.204798, 49.9241], [6.204676, 49.923973], [6.204596, 49.923893], [6.204519, 49.92384], [6.204481, 49.923817], [6.204401, 49.923782], [6.204321, 49.923763], [6.204229, 49.923756], [6.204111, 49.923763], [6.204004, 49.92377], [6.203394, 49.92383], [6.203062, 49.92385], [6.202818, 49.923862], [6.202726, 49.92386], [6.202669, 49.92386], [6.202578, 49.92384], [6.202414, 49.923798], [6.202337, 49.92377], [6.202303, 49.92375], [6.202276, 49.92372], [6.202257, 49.92364], [6.202238, 49.92362], [6.202112, 49.92351], [6.202257, 49.92342], [6.202333, 49.9234], [6.202704, 49.92336], [6.203131, 49.92331], [6.203329, 49.923252], [6.203577, 49.923183], [6.203707, 49.923126], [6.203951, 49.923008], [6.203978, 49.922993], [6.204104, 49.922943], [6.204351, 49.92288], [6.204546, 49.922844], [6.204729, 49.92283], [6.204924, 49.922832], [6.205088, 49.922844], [6.205187, 49.92286], [6.205301, 49.922894], [6.205477, 49.92296], [6.205618, 49.923008], [6.205931, 49.923058], [6.206152, 49.923096], [6.206316, 49.92313], [6.206469, 49.923145], [6.206644, 49.92316], [6.206736, 49.923176], [6.206861, 49.923183], [6.207064, 49.923172], [6.207174, 49.923153], [6.207575, 49.923073], [6.207769, 49.923023], [6.207846, 49.922966], [6.20796, 49.922874], [6.208174, 49.922997], [6.208334, 49.923077], [6.208628, 49.923206], [6.208837, 49.923283], [6.209093, 49.92336], [6.209623, 49.923477], [6.209913, 49.923546], [6.210077, 49.92357], [6.210371, 49.923634], [6.210543, 49.92368], [6.210684, 49.923717], [6.210817, 49.92376], [6.210951, 49.92382], [6.211069, 49.923904], [6.211176, 49.923958], [6.211256, 49.923996], [6.211805, 49.924168], [6.211908, 49.92421], [6.212053, 49.92428], [6.212309, 49.92442], [6.21266, 49.92462], [6.212778, 49.924683], [6.212854, 49.924732], [6.212885, 49.924763], [6.213018, 49.92487], [6.213087, 49.924923], [6.21314, 49.924984], [6.213182, 49.925045], [6.213213, 49.92511], [6.21324, 49.925194], [6.213247, 49.925243], [6.213243, 49.92533], [6.213251, 49.92556], [6.213266, 49.925694], [6.213297, 49.925785], [6.213339, 49.925865], [6.21335, 49.92589], [6.213362, 49.925957], [6.213362, 49.926037], [6.213358, 49.926086], [6.213381, 49.926113], [6.213461, 49.926178], [6.213434, 49.926193], [6.213484, 49.926224], [6.213705, 49.92633], [6.213823, 49.92638], [6.213922, 49.926407], [6.214037, 49.926426], [6.214159, 49.92644], [6.214254, 49.92645], [6.214457, 49.926453], [6.214628, 49.92644], [6.214979, 49.926422], [6.215219, 49.926407], [6.21533, 49.926403], [6.215483, 49.926403], [6.215601, 49.9264], [6.215822, 49.92639], [6.215887, 49.926388], [6.216105, 49.926346], [6.216921, 49.92619], [6.216871, 49.926163], [6.215906, 49.925583], [6.21599, 49.92553], [6.216062, 49.92546], [6.216105, 49.925407], [6.216139, 49.92534], [6.21615, 49.925278], [6.216154, 49.925175], [6.216135, 49.924995], [6.216127, 49.924957], [6.216139, 49.92484], [6.216154, 49.92476], [6.216238, 49.924477], [6.216288, 49.92436], [6.216372, 49.924213], [6.216421, 49.924133], [6.216574, 49.92393], [6.216635, 49.92386], [6.216742, 49.92373], [6.216856, 49.92373], [6.216879, 49.923637], [6.216883, 49.923603], [6.217077, 49.923454], [6.217325, 49.923237], [6.217443, 49.92315], [6.217646, 49.922882], [6.217821, 49.923004], [6.217905, 49.923042], [6.218031, 49.923075], [6.218122, 49.922949], [6.218172, 49.922884], [6.218222, 49.922834], [6.218283, 49.922785], [6.218416, 49.922705], [6.21855, 49.92264], [6.218656, 49.922598], [6.21879, 49.92256], [6.218962, 49.922522], [6.219206, 49.922457], [6.219744, 49.922331], [6.220301, 49.92219], [6.22061, 49.922106], [6.220724, 49.922083], [6.220953, 49.922022], [6.221083, 49.921987], [6.221147, 49.921976], [6.221365, 49.921938], [6.22172, 49.921881], [6.221975, 49.921824], [6.222238, 49.92177], [6.222597, 49.921694], [6.222803, 49.921663], [6.223089, 49.921621], [6.223185, 49.92161], [6.223471, 49.921587], [6.223646, 49.921541], [6.22386, 49.921484], [6.223974, 49.921461], [6.224138, 49.921427], [6.224531, 49.921362], [6.22463, 49.921358], [6.225042, 49.921289], [6.225134, 49.921274], [6.225344, 49.921244], [6.225409, 49.921232], [6.225614, 49.921202], [6.225756, 49.92119], [6.225981, 49.921179], [6.226267, 49.921171], [6.226641, 49.921164], [6.226797, 49.92116], [6.2269, 49.92116], [6.227099, 49.921148], [6.227488, 49.921122], [6.227686, 49.92111], [6.22793, 49.921114], [6.22819, 49.92111], [6.228437, 49.921114], [6.228582, 49.921103], [6.228697, 49.921091], [6.228907, 49.921068], [6.229097, 49.921022], [6.229235, 49.920969], [6.229296, 49.920938], [6.22941, 49.92087], [6.22965, 49.920675], [6.229666, 49.920603], [6.229776, 49.920519], [6.229899, 49.920423], [6.230028, 49.920286], [6.230249, 49.920046], [6.230284, 49.920012], [6.230299, 49.919996], [6.230432, 49.919851], [6.230894, 49.919344], [6.231035, 49.919264], [6.231218, 49.919001], [6.231333, 49.91884], [6.231573, 49.918493], [6.231642, 49.918386], [6.231806, 49.918062], [6.231859, 49.917959], [6.231901, 49.917879], [6.231924, 49.917833], [6.232012, 49.917665], [6.232042, 49.917612], [6.2321, 49.917471], [6.232202, 49.917231], [6.232412, 49.916948], [6.232496, 49.9168], [6.23263, 49.916426], [6.232702, 49.916304], [6.23276, 49.916204], [6.232912, 49.916002], [6.232901, 49.915789], [6.233049, 49.915411], [6.233076, 49.915358], [6.233126, 49.915293], [6.233156, 49.915251], [6.233335, 49.915037], [6.233477, 49.914873], [6.233526, 49.914812], [6.233633, 49.914675], [6.233675, 49.914579], [6.233725, 49.914511], [6.233736, 49.914492], [6.233786, 49.914411], [6.233847, 49.914305], [6.233881, 49.914225], [6.233923, 49.914087], [6.233946, 49.913977], [6.233973, 49.913847], [6.233999, 49.913691], [6.234011, 49.913546], [6.234011, 49.913393], [6.234007, 49.913294], [6.233992, 49.91316], [6.23395, 49.91297], [6.233896, 49.912775], [6.233919, 49.912775], [6.233843, 49.912649], [6.233786, 49.912592], [6.233675, 49.9125], [6.233618, 49.912458], [6.233431, 49.912359], [6.233026, 49.912146], [6.232653, 49.911966], [6.232454, 49.911848], [6.232237, 49.911715], [6.23205, 49.9116], [6.231825, 49.911428], [6.23173, 49.911352], [6.231615, 49.911238], [6.231523, 49.911184], [6.231291, 49.911154], [6.231039, 49.91115], [6.230932, 49.911142], [6.230749, 49.911123], [6.230425, 49.911108], [6.230375, 49.911108], [6.230204, 49.911123], [6.23004, 49.911177], [6.229864, 49.911245], [6.229563, 49.911306], [6.229563, 49.911322], [6.229357, 49.911364], [6.228952, 49.91144], [6.228319, 49.911554], [6.228121, 49.911577], [6.227804, 49.911608], [6.227678, 49.911615], [6.227579, 49.911619], [6.227507, 49.911615], [6.227426, 49.911592], [6.227358, 49.91157], [6.22727, 49.911539], [6.227198, 49.911493], [6.22714, 49.911448], [6.22703, 49.911341], [6.226988, 49.911264], [6.226965, 49.911196], [6.226911, 49.911024], [6.226896, 49.910799], [6.226919, 49.910627], [6.226946, 49.910513], [6.226961, 49.910482], [6.227003, 49.910418], [6.227072, 49.910322], [6.227121, 49.910315], [6.227144, 49.910299], [6.22711, 49.91028], [6.227156, 49.91025], [6.227514, 49.909998], [6.227617, 49.910006], [6.227694, 49.909971], [6.227789, 49.90991], [6.227858, 49.909903], [6.227957, 49.909838], [6.227968, 49.909792], [6.228136, 49.909677], [6.228182, 49.909605], [6.228319, 49.909517], [6.228396, 49.909475], [6.228506, 49.909414], [6.228586, 49.909361], [6.228701, 49.909281], [6.228857, 49.90917], [6.22883, 49.909162], [6.228933, 49.909094], [6.22901, 49.909044], [6.229128, 49.908987], [6.229372, 49.908884], [6.229528, 49.908785], [6.22957, 49.908754], [6.229628, 49.90872], [6.229837, 49.90859], [6.230013, 49.908461], [6.230394, 49.908167], [6.230681, 49.907953], [6.230848, 49.90782], [6.231196, 49.907515], [6.231325, 49.907389], [6.231417, 49.907301], [6.231485, 49.907221], [6.231604, 49.907053], [6.231722, 49.906889], [6.231829, 49.906755], [6.231966, 49.90658], [6.232061, 49.906462], [6.232115, 49.906393], [6.232138, 49.906343], [6.232142, 49.906317], [6.232134, 49.906195], [6.232126, 49.906015], [6.232126, 49.905958], [6.232038, 49.90592], [6.232084, 49.905783], [6.232073, 49.905695], [6.232058, 49.905649], [6.231978, 49.90555], [6.232004, 49.905493], [6.232019, 49.905371], [6.232027, 49.90534], [6.232058, 49.905325], [6.232065, 49.905218], [6.232004, 49.905218], [6.232012, 49.905127], [6.232054, 49.905065], [6.232073, 49.904814], [6.2321, 49.904703], [6.232126, 49.904566], [6.23213, 49.904554], [6.232161, 49.904455], [6.23221, 49.904345], [6.232256, 49.904253], [6.232206, 49.904196], [6.232294, 49.904028], [6.232355, 49.903849], [6.232374, 49.903784], [6.232519, 49.903513], [6.232607, 49.903341], [6.23263, 49.903292], [6.232748, 49.903101], [6.23282, 49.902994], [6.23282, 49.902784], [6.232836, 49.902761], [6.232824, 49.90272], [6.232824, 49.902689], [6.232843, 49.902662], [6.232973, 49.902468], [6.232935, 49.902346], [6.232923, 49.902288], [6.23292, 49.902246], [6.232927, 49.902197], [6.232943, 49.902163], [6.232992, 49.902075], [6.233107, 49.901995], [6.233107, 49.901903], [6.233114, 49.901716], [6.233122, 49.901625], [6.233084, 49.901567], [6.233095, 49.901438], [6.233137, 49.901049], [6.233156, 49.900885], [6.233225, 49.900705], [6.233335, 49.900412], [6.233412, 49.900286], [6.233477, 49.90019], [6.233526, 49.900122], [6.233568, 49.900087], [6.233725, 49.899984], [6.23385, 49.899908], [6.233931, 49.899893], [6.234221, 49.899713], [6.234514, 49.899553], [6.235201, 49.89921], [6.23522, 49.899198], [6.235365, 49.899126], [6.234926, 49.898926], [6.234861, 49.898884], [6.234827, 49.898865], [6.234682, 49.898647], [6.234663, 49.898613], [6.234617, 49.898537], [6.234495, 49.89833], [6.234476, 49.8983], [6.234026, 49.89816], [6.233034, 49.897846], [6.232832, 49.897785], [6.232576, 49.897705], [6.232489, 49.89768], [6.232435, 49.897663], [6.232401, 49.89763], [6.232222, 49.89745], [6.232115, 49.897335], [6.23171, 49.896866], [6.231546, 49.896576], [6.231276, 49.896088], [6.231165, 49.895885], [6.230772, 49.89551], [6.230631, 49.895344], [6.230196, 49.894825], [6.230166, 49.894787], [6.229959, 49.894535], [6.229917, 49.89448], [6.229872, 49.894424], [6.229845, 49.894394], [6.229822, 49.894363], [6.22949, 49.89396], [6.229456, 49.89392], [6.229357, 49.893764], [6.229086, 49.893368], [6.228903, 49.893093], [6.228746, 49.89286], [6.228666, 49.89274], [6.22862, 49.892673], [6.227716, 49.892788], [6.22724, 49.8927], [6.226996, 49.89261], [6.225771, 49.892647], [6.22431, 49.89288], [6.224028, 49.892895], [6.22352, 49.892925], [6.221777, 49.892925], [6.220907, 49.893013], [6.220182, 49.893085], [6.219759, 49.893135], [6.219458, 49.893173], [6.218615, 49.893276], [6.218439, 49.893265], [6.218061, 49.893234], [6.21765, 49.893135], [6.217253, 49.893055], [6.216818, 49.892803], [6.21578, 49.89221], [6.215147, 49.89184], [6.21456, 49.891502], [6.214483, 49.891457], [6.214232, 49.891296], [6.213881, 49.89108], [6.213282, 49.890766], [6.212511, 49.89037], [6.212301, 49.89026], [6.211943, 49.89007], [6.211847, 49.890026], [6.211546, 49.88987], [6.211161, 49.889675], [6.210531, 49.8893], [6.210245, 49.889133], [6.209894, 49.888893], [6.2096, 49.888668], [6.209406, 49.88852], [6.209314, 49.888454], [6.208757, 49.888046], [6.208651, 49.88798], [6.208399, 49.88783], [6.208368, 49.887806], [6.208345, 49.887817], [6.207964, 49.887978], [6.207823, 49.888027], [6.207376, 49.888187], [6.206675, 49.888348], [6.206507, 49.888382], [6.206415, 49.8884], [6.206373, 49.88841], [6.205339, 49.888577], [6.204947, 49.888283], [6.204603, 49.888012], [6.204458, 49.887913], [6.204428, 49.887894], [6.204104, 49.888023], [6.20373, 49.888065], [6.203302, 49.888115], [6.202906, 49.88819], [6.202719, 49.88823], [6.202425, 49.88828], [6.202082, 49.887993], [6.201899, 49.88782], [6.201734, 49.887672], [6.201456, 49.887356], [6.201441, 49.887333], [6.201055, 49.886883], [6.200705, 49.88649], [6.200331, 49.88617], [6.20019, 49.886047], [6.200163, 49.886055], [6.199915, 49.886143], [6.198774, 49.884842], [6.198423, 49.88444], [6.198362, 49.884464], [6.19676, 49.88508], [6.196363, 49.88523], [6.19597, 49.88538], [6.195936, 49.885395], [6.195555, 49.885544], [6.195509, 49.885563], [6.195452, 49.885582], [6.195394, 49.885605], [6.194876, 49.885807], [6.19459, 49.88592], [6.194483, 49.88596], [6.194159, 49.886086], [6.193781, 49.88623], [6.194113, 49.88666], [6.19401, 49.886692], [6.19364, 49.886826], [6.192976, 49.887062], [6.19282, 49.886803], [6.192617, 49.88646], [6.192095, 49.885838], [6.191816, 49.88546], [6.191572, 49.88513], [6.19105, 49.88429], [6.191011, 49.884243], [6.190535, 49.88361], [6.190363, 49.88327], [6.19034, 49.883205], [6.190149, 49.882713], [6.190119, 49.882458], [6.190226, 49.881516], [6.190172, 49.88141], [6.189978, 49.8811], [6.189676, 49.88069], [6.189596, 49.880722], [6.189093, 49.880108], [6.189058, 49.880074], [6.188963, 49.87994], [6.188887, 49.87987], [6.188761, 49.879784], [6.188658, 49.87973], [6.188578, 49.8797], [6.188528, 49.879696], [6.188467, 49.879696], [6.188406, 49.879704], [6.188387, 49.879707], [6.188257, 49.87974], [6.188044, 49.879837], [6.187944, 49.879772], [6.188162, 49.879223], [6.188256, 49.879025], [6.188559, 49.87839], [6.189314, 49.876682], [6.189714, 49.875805], [6.189997, 49.87518], [6.190229, 49.87463], [6.190294, 49.874413], [6.190329, 49.87417], [6.190249, 49.874157], [6.190081, 49.874126], [6.190058, 49.87412], [6.190069, 49.874077], [6.190065, 49.874043], [6.190042, 49.873985], [6.189962, 49.873863], [6.189779, 49.87363], [6.189722, 49.873554], [6.189695, 49.873493], [6.18965, 49.873337], [6.189604, 49.873135], [6.189573, 49.873055], [6.189539, 49.87301], [6.189493, 49.872963], [6.189409, 49.872913], [6.189161, 49.87279], [6.188913, 49.872646], [6.18878, 49.87258], [6.188597, 49.8725], [6.188498, 49.87244], [6.188456, 49.87239], [6.188452, 49.87233], [6.188513, 49.87209], [6.188574, 49.871944], [6.188623, 49.871845], [6.1887, 49.87177], [6.18886, 49.87165], [6.188902, 49.87162], [6.189005, 49.871548], [6.189268, 49.87134], [6.189402, 49.87122], [6.189501, 49.87109], [6.189581, 49.870815], [6.18852, 49.870728], [6.188459, 49.87081], [6.188261, 49.870983], [6.188341, 49.871002], [6.18825, 49.87111], [6.188162, 49.87114], [6.18812, 49.87123], [6.187876, 49.871475], [6.187818, 49.871464], [6.187716, 49.871464], [6.187586, 49.871452], [6.187536, 49.871456], [6.187403, 49.87148], [6.187079, 49.871567], [6.186689, 49.871693], [6.186541, 49.871742], [6.186472, 49.87178], [6.186094, 49.872093], [6.185747, 49.8724], [6.185354, 49.87275], [6.185202, 49.87288], [6.185106, 49.87295], [6.185015, 49.873013], [6.184935, 49.87306], [6.184858, 49.873085], [6.184782, 49.873104], [6.184694, 49.87311], [6.184572, 49.87311], [6.184305, 49.87309], [6.183718, 49.873005], [6.183241, 49.87293], [6.182508, 49.87281], [6.182062, 49.872723], [6.181658, 49.872627], [6.181047, 49.872475], [6.180902, 49.87244], [6.180662, 49.872437], [6.180494, 49.87243], [6.180323, 49.8724], [6.180033, 49.87234], [6.17993, 49.872322], [6.179918, 49.87234], [6.179914, 49.872353], [6.180025, 49.87238], [6.180277, 49.872437], [6.180487, 49.872482], [6.180658, 49.872524], [6.180632, 49.872578], [6.18062, 49.872604], [6.180597, 49.872635], [6.180548, 49.87272], [6.180536, 49.872738], [6.180403, 49.872974], [6.180338, 49.873085], [6.180319, 49.87312], [6.180231, 49.87327], [6.180101, 49.873505], [6.180075, 49.87357], [6.180017, 49.8737], [6.179899, 49.873985], [6.179254, 49.873928], [6.178949, 49.8739], [6.178686, 49.87388], [6.178518, 49.873863], [6.178316, 49.873844], [6.177607, 49.873775], [6.177622, 49.87407], [6.177637, 49.874416], [6.177664, 49.87474], [6.177698, 49.87513], [6.176989, 49.875126], [6.176813, 49.875122], [6.176626, 49.875122], [6.176447, 49.875126], [6.17642, 49.875393], [6.176413, 49.87559], [6.176409, 49.87564], [6.176405, 49.875877], [6.176397, 49.87612], [6.176397, 49.876163], [6.176409, 49.87635], [6.176432, 49.87653], [6.176451, 49.87663], [6.1765, 49.87682], [6.176539, 49.876896], [6.176428, 49.876907], [6.176401, 49.876907], [6.176382, 49.87691], [6.176172, 49.876923], [6.175947, 49.876938], [6.175608, 49.876965], [6.175585, 49.876953], [6.17555, 49.876953], [6.17536, 49.876972], [6.175169, 49.87699], [6.174898, 49.87719], [6.174776, 49.87727], [6.174738, 49.877296], [6.174658, 49.877346], [6.17457, 49.877384], [6.174406, 49.87744], [6.174246, 49.87748], [6.174097, 49.87751], [6.173994, 49.87756], [6.173902, 49.87761], [6.173845, 49.877632], [6.173635, 49.8777], [6.173452, 49.87776], [6.173307, 49.87783], [6.173105, 49.877934], [6.172854, 49.877724], [6.172609, 49.877876], [6.172251, 49.878094], [6.171911, 49.878304], [6.171591, 49.878475], [6.171419, 49.878563], [6.171183, 49.878685], [6.171038, 49.878742], [6.1709, 49.878784], [6.17042, 49.878918], [6.17021, 49.878994], [6.17016, 49.87901], [6.169642, 49.87922], [6.169168, 49.879402], [6.168928, 49.879513], [6.168543, 49.879707], [6.168089, 49.87995], [6.167437, 49.880333], [6.16712, 49.880527], [6.166922, 49.88067], [6.166864, 49.880703], [6.166826, 49.880733], [6.166788, 49.88076], [6.166575, 49.880905], [6.166231, 49.881115], [6.165682, 49.881462], [6.166037, 49.881752], [6.16564, 49.882023], [6.165522, 49.882072], [6.165148, 49.8822], [6.164866, 49.882282], [6.164511, 49.882378], [6.164351, 49.88195], [6.164137, 49.88197], [6.164015, 49.881985], [6.163672, 49.882023], [6.163534, 49.882034], [6.1635, 49.882034], [6.163439, 49.882027], [6.16263, 49.88188], [6.161451, 49.881668], [6.160704, 49.88195], [6.160616, 49.88198], [6.160524, 49.882], [6.160315, 49.88203], [6.160166, 49.88205], [6.160021, 49.88206], [6.159647, 49.882076], [6.159433, 49.882084], [6.15933, 49.8821], [6.159002, 49.8822], [6.158255, 49.882412], [6.158655, 49.882915], [6.15735, 49.883404], [6.156656, 49.883675], [6.156061, 49.883915], [6.156027, 49.883938], [6.155912, 49.883926], [6.155798, 49.883907], [6.155684, 49.883877], [6.155626, 49.88383], [6.1556, 49.883793], [6.155424, 49.883907], [6.154799, 49.884377], [6.154425, 49.884693], [6.153799, 49.8853], [6.153543, 49.885513], [6.153398, 49.885654], [6.153067, 49.886], [6.153017, 49.88608], [6.152685, 49.886547], [6.152365, 49.886963], [6.152311, 49.887035], [6.151815, 49.887672], [6.151682, 49.88783], [6.151602, 49.887897], [6.151056, 49.888245], [6.15048, 49.8886], [6.150248, 49.888573], [6.149752, 49.888763], [6.149538, 49.888847], [6.149305, 49.888958], [6.148432, 49.889412], [6.148245, 49.889523], [6.148176, 49.88957], [6.148104, 49.889618], [6.14789, 49.88979], [6.147688, 49.889957], [6.147489, 49.890125], [6.147303, 49.890263], [6.147177, 49.89034], [6.146887, 49.89047], [6.14686, 49.890568], [6.146833, 49.890682], [6.14681, 49.890785], [6.146776, 49.890907], [6.146765, 49.89095], [6.146238, 49.89082], [6.145834, 49.89071], [6.145517, 49.890614], [6.144869, 49.89043], [6.144796, 49.890408], [6.144312, 49.890278], [6.143801, 49.89015], [6.143457, 49.89008], [6.142817, 49.88996], [6.142817, 49.890022], [6.142813, 49.89009], [6.142801, 49.89015], [6.142576, 49.89015], [6.142355, 49.890152], [6.142221, 49.89016], [6.142038, 49.890194], [6.14184, 49.89024], [6.141645, 49.890293], [6.141401, 49.890373], [6.141027, 49.89052], [6.140585, 49.89071], [6.140608, 49.89078], [6.140207, 49.890816], [6.139807, 49.89084], [6.138945, 49.890884], [6.138937, 49.891125], [6.138941, 49.891254], [6.138937, 49.891285], [6.138723, 49.891533], [6.13801, 49.891438], [6.137781, 49.891407], [6.137789, 49.89147], [6.137896, 49.891525], [6.137915, 49.89154], [6.137918, 49.89157], [6.137941, 49.891674], [6.137976, 49.89185], [6.137983, 49.891895], [6.138002, 49.89191], [6.138128, 49.891956], [6.138273, 49.891994], [6.138502, 49.89205], [6.138632, 49.89208], [6.138926, 49.89212], [6.139051, 49.892143], [6.139593, 49.892258], [6.139792, 49.89234], [6.139887, 49.89238], [6.140474, 49.89252], [6.140631, 49.892506], [6.140875, 49.892483], [6.14131, 49.892437], [6.141474, 49.89244], [6.14253, 49.892517], [6.142672, 49.89247], [6.142992, 49.892345], [6.14332, 49.89219], [6.14398, 49.89259], [6.144197, 49.89261], [6.144323, 49.89262], [6.144464, 49.89265], [6.144842, 49.89274], [6.144751, 49.892975], [6.146276, 49.893356], [6.146357, 49.893375], [6.146223, 49.893555], [6.146177, 49.893627], [6.146135, 49.8937], [6.146025, 49.89392], [6.145945, 49.89413], [6.145872, 49.8943], [6.145369, 49.895096], [6.145128, 49.895275], [6.145086, 49.895317], [6.144979, 49.89544], [6.144808, 49.895668], [6.144712, 49.89581], [6.144674, 49.89589], [6.144594, 49.896103], [6.144567, 49.896202], [6.144251, 49.89617], [6.144152, 49.89615], [6.144083, 49.89613], [6.144041, 49.896114], [6.143961, 49.896095], [6.143869, 49.896072], [6.143805, 49.896046], [6.143728, 49.896023], [6.143621, 49.896004], [6.14353, 49.89598], [6.143446, 49.895954], [6.143339, 49.895916], [6.143202, 49.895855], [6.143114, 49.895832], [6.143057, 49.89582], [6.142988, 49.895817], [6.142958, 49.89582], [6.142904, 49.895832], [6.142851, 49.89585], [6.142786, 49.89587], [6.142721, 49.89588], [6.142614, 49.89589], [6.142519, 49.895893], [6.142416, 49.8959], [6.142336, 49.895912], [6.14226, 49.895927], [6.142164, 49.895943], [6.142107, 49.895943], [6.142057, 49.89594], [6.142008, 49.89593], [6.141951, 49.89593], [6.141863, 49.89594], [6.141775, 49.895947], [6.141718, 49.895954], [6.141661, 49.895966], [6.141581, 49.895977], [6.141474, 49.89598], [6.141359, 49.89599], [6.141264, 49.896008], [6.141161, 49.89603], [6.141092, 49.896053], [6.141027, 49.89609], [6.140917, 49.896164], [6.140837, 49.89621], [6.140718, 49.896294], [6.140638, 49.896343], [6.14057, 49.89638], [6.14044, 49.896427], [6.140364, 49.89645], [6.140314, 49.896477], [6.140303, 49.89649], [6.140276, 49.89653], [6.140242, 49.89657], [6.140196, 49.896603], [6.140093, 49.896656], [6.140036, 49.896683], [6.13991, 49.896732], [6.139852, 49.89676], [6.139749, 49.896812], [6.139574, 49.896893], [6.139452, 49.89694], [6.139387, 49.89697], [6.139349, 49.896996], [6.139334, 49.897022], [6.139315, 49.897064], [6.139303, 49.897083], [6.139261, 49.897095], [6.139219, 49.897102], [6.139177, 49.89712], [6.139135, 49.89713], [6.139078, 49.897137], [6.139032, 49.897156], [6.138964, 49.897175], [6.138907, 49.897194], [6.138857, 49.897205], [6.138819, 49.8972], [6.138792, 49.897213], [6.138735, 49.89723], [6.138624, 49.897247], [6.138521, 49.897255], [6.138449, 49.897266], [6.138407, 49.897285], [6.138304, 49.897324], [6.138182, 49.897373], [6.138136, 49.897385], [6.138102, 49.897385], [6.13801, 49.897396], [6.137953, 49.89741], [6.137827, 49.89746], [6.137674, 49.8975], [6.137629, 49.89752], [6.137518, 49.89757], [6.137468, 49.89759], [6.137354, 49.8976], [6.13732, 49.897606], [6.137289, 49.89762], [6.13727, 49.897636], [6.137236, 49.89768], [6.13719, 49.8977], [6.13714, 49.89771], [6.137056, 49.89772], [6.13703, 49.89773], [6.136988, 49.897762], [6.136938, 49.897797], [6.136892, 49.897816], [6.136869, 49.89782], [6.13682, 49.897827], [6.136793, 49.897835], [6.13669, 49.8979], [6.136656, 49.897915], [6.136606, 49.897926], [6.136576, 49.897934], [6.136484, 49.898], [6.136389, 49.898037], [6.136347, 49.89806], [6.136316, 49.898083], [6.136301, 49.898098], [6.136274, 49.89811], [6.13624, 49.89813], [6.136209, 49.89815], [6.13595, 49.898273], [6.135908, 49.8983], [6.135828, 49.898396], [6.135782, 49.898422], [6.135729, 49.898434], [6.13571, 49.898445], [6.135694, 49.89846], [6.135687, 49.898514], [6.135675, 49.898525], [6.135641, 49.898552], [6.13558, 49.89861], [6.135538, 49.898636], [6.135477, 49.89867], [6.134981, 49.898438], [6.135004, 49.898327], [6.134851, 49.898163], [6.134729, 49.89801], [6.134649, 49.897877], [6.134607, 49.897793], [6.134569, 49.897755], [6.134527, 49.897724], [6.134199, 49.897533], [6.133905, 49.89737], [6.132811, 49.896828], [6.132731, 49.896774], [6.132605, 49.896675], [6.132406, 49.896523], [6.132177, 49.896336], [6.13212, 49.896297], [6.132048, 49.89625], [6.131987, 49.896206], [6.13164, 49.89597], [6.131411, 49.895622], [6.131254, 49.895344], [6.131197, 49.895233], [6.131098, 49.8949], [6.130892, 49.894184], [6.130545, 49.894394], [6.129732, 49.894382], [6.1294, 49.893997], [6.129137, 49.893707], [6.12879, 49.89377], [6.128656, 49.893795], [6.128485, 49.89383], [6.128324, 49.89387], [6.128263, 49.893818], [6.128222, 49.893772], [6.12818, 49.89371], [6.128138, 49.893684], [6.128046, 49.893642], [6.12797, 49.893597], [6.127859, 49.89351], [6.127817, 49.893486], [6.12768, 49.893433], [6.127554, 49.89339], [6.127539, 49.893387], [6.127523, 49.89339], [6.127482, 49.893387], [6.127344, 49.893353], [6.127283, 49.89334], [6.127256, 49.893333], [6.127218, 49.893333], [6.127134, 49.89333], [6.126997, 49.893322], [6.126856, 49.89331], [6.12668, 49.893288], [6.126329, 49.893215], [6.125979, 49.89315], [6.125971, 49.893173], [6.125895, 49.893337], [6.125845, 49.89345], [6.125765, 49.89367], [6.125723, 49.893803], [6.125669, 49.894005], [6.125616, 49.894268], [6.12557, 49.894535], [6.125551, 49.894684], [6.125555, 49.89472], [6.125566, 49.894753], [6.125589, 49.894783], [6.125876, 49.895023], [6.125704, 49.895145], [6.125635, 49.895187], [6.125509, 49.895245], [6.125639, 49.89537], [6.125734, 49.895477], [6.125803, 49.895573], [6.125959, 49.895786], [6.126116, 49.896008], [6.126261, 49.89628], [6.126413, 49.896572], [6.126551, 49.896873], [6.1266, 49.896988], [6.126734, 49.897343], [6.126783, 49.897453], [6.126856, 49.897587], [6.126928, 49.89771], [6.127001, 49.897804], [6.127085, 49.897884], [6.127256, 49.898026], [6.127482, 49.898197], [6.127317, 49.898308], [6.12715, 49.89842], [6.12797, 49.898975], [6.128355, 49.89924], [6.128706, 49.899494], [6.128878, 49.89961], [6.128954, 49.89966], [6.129023, 49.899704], [6.129465, 49.89997], [6.129652, 49.90008], [6.130148, 49.900406], [6.130545, 49.90058], [6.130617, 49.900616], [6.130476, 49.900753], [6.130526, 49.900803], [6.130674, 49.90096], [6.130964, 49.901344], [6.131399, 49.90196], [6.131529, 49.902187], [6.13172, 49.902195], [6.13172, 49.902233], [6.131716, 49.902264], [6.131617, 49.90226], [6.131411, 49.902554], [6.131399, 49.902596], [6.131384, 49.902645], [6.131189, 49.902687], [6.131014, 49.902687], [6.13061, 49.90262], [6.130346, 49.902584], [6.130014, 49.902584], [6.129606, 49.90261], [6.129213, 49.90266], [6.129068, 49.90263], [6.129015, 49.90262], [6.128839, 49.902634], [6.128675, 49.90265], [6.12837, 49.902683], [6.128126, 49.902706], [6.127996, 49.902714], [6.12789, 49.902714], [6.127707, 49.902706], [6.127245, 49.9027], [6.127111, 49.90269], [6.126966, 49.90268], [6.126497, 49.90264], [6.12594, 49.902603], [6.125769, 49.90258], [6.125021, 49.902534], [6.124765, 49.90252], [6.124464, 49.90254], [6.123667, 49.902603], [6.123259, 49.902668], [6.122488, 49.90283], [6.121767, 49.90302], [6.12108, 49.903275], [6.120417, 49.903557], [6.119886, 49.903847], [6.119509, 49.90408], [6.119005, 49.904457], [6.118597, 49.90475], [6.118116, 49.905067], [6.11801, 49.905136], [6.117098, 49.905663], [6.117338, 49.905857], [6.11735, 49.90587], [6.117456, 49.90597], [6.117621, 49.906147], [6.117666, 49.906208], [6.117731, 49.906315], [6.117788, 49.906425], [6.117849, 49.90667], [6.117853, 49.9067], [6.117983, 49.90671], [6.118322, 49.907036], [6.118471, 49.90717], [6.119234, 49.907845], [6.119131, 49.90799], [6.119089, 49.908077], [6.119062, 49.908157], [6.119001, 49.90842], [6.118952, 49.908577], [6.118925, 49.908646], [6.118891, 49.908703], [6.118811, 49.908802], [6.118734, 49.908867], [6.118612, 49.908955], [6.118429, 49.909058], [6.118368, 49.909077], [6.118036, 49.90909], [6.11783, 49.909092], [6.117643, 49.90909], [6.117418, 49.909077], [6.117247, 49.909058], [6.117022, 49.909027], [6.116606, 49.90896], [6.116144, 49.908897], [6.116003, 49.908867], [6.115595, 49.908745], [6.115, 49.90856], [6.11466, 49.908474], [6.114306, 49.908405], [6.114, 49.90836], [6.113745, 49.908333], [6.113401, 49.90831], [6.113092, 49.908302], [6.112501, 49.908302], [6.112486, 49.908215], [6.112486, 49.908115], [6.112364, 49.908016], [6.112204, 49.90815], [6.111948, 49.908333], [6.111761, 49.90845], [6.11146, 49.908615], [6.110834, 49.90895], [6.110899, 49.908955], [6.111067, 49.908962], [6.110819, 49.90917], [6.11072, 49.90925], [6.11067, 49.909294], [6.110426, 49.909485], [6.110228, 49.90964], [6.110033, 49.90977], [6.109915, 49.90984], [6.109781, 49.90989], [6.109575, 49.909966], [6.109423, 49.910057], [6.109236, 49.910194], [6.109053, 49.9103], [6.108866, 49.91038], [6.108629, 49.910465], [6.108599, 49.910477]]]]}}]}