{"type": "FeatureCollection", "features": [{"type": "Feature", "properties": {"name": "Am Bauch", "kind": "nature_reserve"}, "geometry": {"type": "Polygon", "coordinates": [[[5.9869084, 49.521033], [5.9879746, 49.5212216], [5.9882411, 49.5212545], [5.9893096, 49.5214879], [5.9915983, 49.5219877], [5.992008, 49.522097], [5.9922923, 49.5221501], [5.9940076, 49.5225801], [5.9943386, 49.5221133], [5.9947959, 49.5213984], [5.9973852, 49.5222384], [5.9982562, 49.5224332], [5.9995973, 49.5225758], [6.0008911, 49.5228373], [6.0013144, 49.5229437], [6.0011476, 49.5231922], [6.0022742, 49.5236205], [6.0016776, 49.5240806], [6.0018849, 49.5242294], [6.0024017, 49.5247164], [6.0027379, 49.5250266], [6.0031888, 49.5254573], [6.0038724, 49.524715], [6.0038194, 49.5245831], [6.0038415, 49.5244683], [6.0040503, 49.5242975], [6.0041519, 49.5242524], [6.0039374, 49.5241236], [6.0036665, 49.5239425], [6.0031128, 49.5235466], [6.0028055, 49.5233401], [6.0025919, 49.5231554], [6.0024202, 49.5229583], [6.0023494, 49.5227393], [6.0023986, 49.5224355], [6.002509, 49.5221742], [6.0026632, 49.5219317], [6.0027341, 49.521861], [6.0031608, 49.5214346], [6.0031901, 49.5212748], [6.0031998, 49.5212105], [6.0028243, 49.5208728], [6.0020104, 49.5201366], [6.0016975, 49.5198922], [6.0013694, 49.5196217], [6.000776, 49.5192737], [6.0004432, 49.5190754], [6.0002078, 49.519286], [5.9992076, 49.520179], [5.9983424, 49.5209536], [5.9980107, 49.5214959], [5.9977779, 49.5214616], [5.9974695, 49.5213705], [5.9965046, 49.5211202], [5.9961823, 49.5210676], [5.9951715, 49.5206611], [5.9943686, 49.5203746], [5.9959264, 49.5199174], [5.9957055, 49.5197482], [5.9954191, 49.5198801], [5.9942862, 49.5199191], [5.9934442, 49.5199481], [5.9919691, 49.5204376], [5.9887853, 49.5201651], [5.9883696, 49.5199396], [5.9879082, 49.5195792], [5.9876508, 49.5191169], [5.9874174, 49.5181304], [5.9870322, 49.5180151], [5.9869346, 49.5179859], [5.9865177, 49.5174836], [5.9858607, 49.516692], [5.9857491, 49.5172171], [5.9858765, 49.518275], [5.9859566, 49.5185075], [5.9859425, 49.5185257], [5.9860515, 49.5188017], [5.9860991, 49.5189584], [5.9861326, 49.519123], [5.9861467, 49.519301], [5.9861829, 49.5195208], [5.9863953, 49.5201411], [5.9866351, 49.5207964], [5.9866623, 49.5208737], [5.9867109, 49.5210152], [5.9869084, 49.521033]]]}}]}