{"type": "FeatureCollection", "features": [{"type": "Feature", "properties": {"name": "Bascharage"}, "geometry": {"type": "Polygon", "coordinates": [[[5.8858232, 49.560975], [5.8866883, 49.5611228], [5.887139, 49.5611261], [5.8876061, 49.5609657], [5.8881391, 49.5611617], [5.8883813, 49.5613081], [5.8884684, 49.5614211], [5.8881036, 49.5629045], [5.8894962, 49.5631539], [5.8893094, 49.5635958], [5.8911666, 49.5640983], [5.8902702, 49.5655769], [5.8914358, 49.5657697], [5.8917875, 49.5652494], [5.8946369, 49.565751], [5.8943651, 49.5665571], [5.8949145, 49.5666914], [5.8947712, 49.5671252], [5.8957108, 49.567337], [5.8951215, 49.5683853], [5.894985, 49.5686071], [5.8948784, 49.5690388], [5.8949263, 49.5700607], [5.8952078, 49.5710204], [5.8956723, 49.5715601], [5.8960154, 49.5718496], [5.8964362, 49.5721425], [5.8953347, 49.573481], [5.8948447, 49.5740954], [5.8946269, 49.5745403], [5.8942839, 49.5745561], [5.8935464, 49.5744744], [5.8929969, 49.5742531], [5.8925997, 49.5750602], [5.8923714, 49.5756362], [5.8923026, 49.5759931], [5.8922977, 49.5762562], [5.89234, 49.576353], [5.8925215, 49.5766379], [5.8927819, 49.5769037], [5.8953531, 49.5757759], [5.8958032, 49.5765467], [5.8987544, 49.5756119], [5.9006124, 49.5744594], [5.9010485, 49.57472], [5.9035129, 49.5740824], [5.9033751, 49.5739176], [5.9041281, 49.5735539], [5.9035674, 49.5731418], [5.905323, 49.5718855], [5.90516, 49.571779], [5.9061652, 49.5714109], [5.9071054, 49.5708127], [5.9074502, 49.5705162], [5.9079582, 49.5708185], [5.9081896, 49.5710963], [5.9083653, 49.5714076], [5.9089435, 49.5716488], [5.9091302, 49.571731], [5.9105136, 49.5723037], [5.9102331, 49.5725757], [5.9112209, 49.5730198], [5.912657, 49.573346], [5.914526, 49.5736601], [5.9152951, 49.5737949], [5.9179189, 49.5737923], [5.9197168, 49.5738057], [5.9208761, 49.5737311], [5.9211408, 49.5746506], [5.9213772, 49.5753422], [5.9215529, 49.5765289], [5.9203167, 49.5768314], [5.9207772, 49.5786861], [5.9223073, 49.5808499], [5.9230634, 49.5806493], [5.9241677, 49.5819683], [5.9251051, 49.5829841], [5.9257234, 49.5835726], [5.9260492, 49.5833827], [5.9254564, 49.5828219], [5.9261283, 49.5824062], [5.9268039, 49.5827434], [5.9279852, 49.5823128], [5.9285814, 49.5828121], [5.9291776, 49.5827235], [5.9300594, 49.5827235], [5.9313634, 49.5830617], [5.9328293, 49.5834629], [5.9329412, 49.5833569], [5.933081, 49.5832542], [5.933196, 49.5831851], [5.933352, 49.5831144], [5.9334697, 49.583072], [5.933631, 49.5830261], [5.9338169, 49.5829821], [5.9339267, 49.5829553], [5.9339147, 49.5829164], [5.9338522, 49.5827131], [5.9337897, 49.5825099], [5.9338861, 49.5824927], [5.93402, 49.5824686], [5.9341187, 49.5824475], [5.9342274, 49.5824248], [5.9343184, 49.582398], [5.9344497, 49.5823521], [5.9345455, 49.5823167], [5.9346084, 49.582292], [5.9346536, 49.5822749], [5.9346884, 49.5822618], [5.9347569, 49.5822282], [5.9348655, 49.5821827], [5.9349491, 49.5822821], [5.9350331, 49.582382], [5.935918, 49.5817666], [5.9364712, 49.5813815], [5.9364785, 49.5813764], [5.9365821, 49.5813044], [5.9368179, 49.5811412], [5.9370176, 49.5809977], [5.9371465, 49.5808989], [5.9373181, 49.5807673], [5.9375082, 49.5806189], [5.9376624, 49.5804961], [5.9377987, 49.5803801], [5.9380032, 49.58019], [5.9381502, 49.5800464], [5.9380648, 49.5800112], [5.9381834, 49.5798534], [5.9382517, 49.5797722], [5.9382947, 49.5797199], [5.9383172, 49.5796798], [5.9383291, 49.5796586], [5.9383688, 49.5795869], [5.9383795, 49.5795392], [5.9383797, 49.5794965], [5.938393, 49.5794692], [5.9384167, 49.5794471], [5.9384588, 49.5794267], [5.9384956, 49.5794011], [5.9385563, 49.5793364], [5.9386223, 49.5792461], [5.9387144, 49.5791325], [5.9387383, 49.5790931], [5.9387331, 49.5790506], [5.9387412, 49.5790079], [5.9387703, 49.5789585], [5.9388627, 49.5788477], [5.9389599, 49.5787391], [5.9390183, 49.5786739], [5.9390631, 49.5786365], [5.9390894, 49.578616], [5.9391052, 49.5785956], [5.9391159, 49.5785512], [5.9391425, 49.5784915], [5.9391816, 49.578426], [5.9392362, 49.5783366], [5.9392451, 49.578322], [5.9392576, 49.5783057], [5.9393375, 49.578201], [5.9393671, 49.5781768], [5.939381, 49.5781655], [5.9394083, 49.5781225], [5.9394513, 49.5780912], [5.9394838, 49.5780147], [5.9395061, 49.5778114], [5.9395174, 49.5777085], [5.9395437, 49.5775892], [5.9395507, 49.5775733], [5.9396033, 49.5774536], [5.9396129, 49.5774218], [5.9396359, 49.5773457], [5.9396472, 49.577224], [5.9396747, 49.5771212], [5.9396854, 49.5770813], [5.9397236, 49.5769247], [5.9397351, 49.5767507], [5.9397252, 49.5765549], [5.9397076, 49.5763845], [5.9397003, 49.5762548], [5.9396934, 49.5761738], [5.9396928, 49.5761677], [5.9396778, 49.5760226], [5.9396772, 49.5760189], [5.9396671, 49.5759496], [5.9396651, 49.5759355], [5.9396627, 49.5758809], [5.9396628, 49.5758771], [5.9396656, 49.5758006], [5.9396657, 49.5757972], [5.9396765, 49.575729], [5.9396927, 49.5756266], [5.9396937, 49.5756207], [5.9397116, 49.5755089], [5.9397117, 49.5755056], [5.9397121, 49.5754201], [5.9397099, 49.5753228], [5.9396998, 49.5752323], [5.9396938, 49.5751953], [5.939682, 49.5751231], [5.9396718, 49.5750479], [5.9396667, 49.5750104], [5.939654, 49.5749387], [5.9396425, 49.5747274], [5.9396338, 49.5745673], [5.9396254, 49.5744126], [5.9399325, 49.5743705], [5.9400585, 49.574352], [5.9401561, 49.5742566], [5.9404582, 49.5740698], [5.9405391, 49.5740207], [5.9408028, 49.5738605], [5.9411475, 49.5736513], [5.9412107, 49.5736036], [5.9412608, 49.5735525], [5.941303, 49.5735031], [5.9413241, 49.5734775], [5.9413977, 49.573435], [5.9413771, 49.5731934], [5.941375, 49.5730739], [5.9413832, 49.5730006], [5.9414125, 49.572905], [5.94145, 49.5727498], [5.9409845, 49.5726635], [5.9409865, 49.5725492], [5.9409944, 49.5725138], [5.9410209, 49.5724712], [5.9410657, 49.5724286], [5.941121, 49.5723741], [5.9411501, 49.5723229], [5.9411792, 49.5722632], [5.9412004, 49.5722223], [5.9412241, 49.5721985], [5.9412794, 49.5721491], [5.9413295, 49.5721065], [5.9414033, 49.5720367], [5.9414402, 49.5719872], [5.9414851, 49.5719232], [5.9415486, 49.5718141], [5.9415752, 49.5717323], [5.9415913, 49.5716589], [5.9416181, 49.5715207], [5.9416262, 49.5714832], [5.9416514, 49.5714397], [5.9416659, 49.571415], [5.9416713, 49.5713808], [5.9416689, 49.5713211], [5.9416665, 49.5712733], [5.9416667, 49.5712255], [5.9416826, 49.5711948], [5.9417195, 49.5711539], [5.9417302, 49.5711181], [5.9417327, 49.5710732], [5.9417329, 49.5710237], [5.941741, 49.5709845], [5.94177, 49.5709401], [5.9418122, 49.5708924], [5.941865, 49.5708311], [5.9419046, 49.5707646], [5.9419404, 49.5706763], [5.9426852, 49.5705915], [5.9429873, 49.569109], [5.9429958, 49.5690583], [5.9429941, 49.5687119], [5.9429979, 49.568669], [5.942946, 49.5686666], [5.9428906, 49.5686144], [5.9428975, 49.5685237], [5.9429113, 49.5681184], [5.9429237, 49.5680412], [5.942954, 49.5677577], [5.9429815, 49.5674596], [5.9429832, 49.5674292], [5.9429902, 49.5673024], [5.9432011, 49.5673048], [5.9432118, 49.5673049], [5.9433257, 49.5673062], [5.9433564, 49.5670692], [5.943392, 49.5667165], [5.9434143, 49.5665722], [5.943417, 49.5665707], [5.943415, 49.5665685], [5.9434217, 49.5664507], [5.9434288, 49.5663365], [5.9434325, 49.5662756], [5.9434335, 49.5662302], [5.9434385, 49.5660059], [5.9434306, 49.5658462], [5.9434203, 49.5657036], [5.9434089, 49.5656317], [5.943396, 49.5655502], [5.9433752, 49.5653456], [5.9433208, 49.5651238], [5.9432871, 49.564899], [5.943278, 49.564725], [5.943276, 49.5646866], [5.9433445, 49.5646807], [5.9434207, 49.5646737], [5.9434245, 49.5646734], [5.9434989, 49.5646665], [5.9435909, 49.5646581], [5.9436306, 49.5646607], [5.9438494, 49.565148], [5.9439344, 49.5653706], [5.9439635, 49.5654247], [5.9440053, 49.565476], [5.9440758, 49.5655376], [5.9441899, 49.5656253], [5.9445924, 49.5659402], [5.9449166, 49.5661849], [5.9450996, 49.566315], [5.9451932, 49.5663403], [5.945501, 49.5664695], [5.9458026, 49.5665884], [5.9461326, 49.5667218], [5.9462936, 49.56679], [5.946412, 49.56685], [5.9465619, 49.5669275], [5.9466992, 49.5670059], [5.946747, 49.5670355], [5.9468137, 49.5670767], [5.9469319, 49.5671603], [5.9469482, 49.5671728], [5.947088, 49.56728], [5.947126, 49.5673101], [5.9472992, 49.5674471], [5.9474205, 49.5675467], [5.9474788, 49.5675946], [5.947656, 49.5677383], [5.9477711, 49.567827], [5.9478535, 49.5678878], [5.9479067, 49.5679271], [5.9480391, 49.5680241], [5.948241, 49.5681604], [5.9483734, 49.5682471], [5.9484408, 49.5682897], [5.948524, 49.5683423], [5.9486195, 49.5683998], [5.9486628, 49.5684259], [5.9487101, 49.5684517], [5.9488411, 49.5685106], [5.9490787, 49.5686074], [5.9491838, 49.5686502], [5.9494521, 49.5687722], [5.9496821, 49.5685382], [5.9498283, 49.5683989], [5.9499203, 49.5683112], [5.9499954, 49.5682363], [5.950146, 49.5680862], [5.9502282, 49.5680055], [5.9502648, 49.5679675], [5.9503347, 49.5678791], [5.9504588, 49.5677188], [5.9505575, 49.5675759], [5.9506528, 49.5674958], [5.9509769, 49.5672276], [5.9512558, 49.5671898], [5.9515293, 49.5671729], [5.9517545, 49.5671733], [5.9519206, 49.5671841], [5.9520814, 49.5671913], [5.9521726, 49.5671915], [5.9522906, 49.5671813], [5.9524193, 49.5671641], [5.9525642, 49.567133], [5.9526608, 49.5671054], [5.9530887, 49.5673722], [5.9533782, 49.5675315], [5.9535524, 49.5676288], [5.953618, 49.5676634], [5.9536319, 49.5676707], [5.9537431, 49.567712], [5.9539534, 49.5677893], [5.9541278, 49.5678481], [5.9543689, 49.5679304], [5.9544663, 49.5679657], [5.9545304, 49.5679959], [5.9545991, 49.5680397], [5.9547353, 49.5681266], [5.9548352, 49.568187], [5.9549045, 49.5682222], [5.9549711, 49.5682474], [5.9550917, 49.568276], [5.9552611, 49.5683081], [5.9554048, 49.5683317], [5.955505, 49.5683386], [5.9556051, 49.5683388], [5.9556899, 49.5683373], [5.955785, 49.5683324], [5.9558543, 49.5683325], [5.9559236, 49.5683394], [5.9561245, 49.5683875], [5.9561886, 49.5684093], [5.9562322, 49.5684278], [5.9562808, 49.5684647], [5.9563679, 49.56853], [5.956455, 49.5685836], [5.9565652, 49.5686406], [5.9566831, 49.5686977], [5.9567882, 49.5687363], [5.9569114, 49.568775], [5.957032, 49.5688036], [5.9571321, 49.5688205], [5.9572117, 49.5688256], [5.9574942, 49.5688262], [5.95778, 49.5688231], [5.9577943, 49.568823], [5.9578146, 49.5688227], [5.9578497, 49.5688234], [5.9578881, 49.5688231], [5.9579636, 49.5688234], [5.957874, 49.5687464], [5.9577896, 49.568671], [5.9576847, 49.5685723], [5.9575875, 49.5684701], [5.9574852, 49.5683797], [5.9573471, 49.5682424], [5.9571936, 49.5681001], [5.9570737, 49.5679936], [5.956961, 49.5679232], [5.9567842, 49.5678176], [5.9566356, 49.5677321], [5.9565459, 49.5676785], [5.956446, 49.5676181], [5.9563615, 49.5675695], [5.9562637, 49.5675024], [5.956172, 49.5674371], [5.9560978, 49.5673718], [5.9560082, 49.5672881], [5.9558753, 49.5671391], [5.9557864, 49.5670279], [5.9556663, 49.5668906], [5.955559, 49.5667601], [5.9554773, 49.566653], [5.9554058, 49.5665542], [5.9553037, 49.5664087], [5.955217, 49.5662664], [5.9551877, 49.5662165], [5.9550095, 49.5658869], [5.9548365, 49.5655089], [5.9547984, 49.5654119], [5.9547909, 49.5653684], [5.9548092, 49.5652933], [5.9548795, 49.5650694], [5.9549446, 49.5648807], [5.9549706, 49.5647905], [5.9549633, 49.5647348], [5.954913, 49.564484], [5.9548751, 49.5643335], [5.9547811, 49.5640894], [5.9546769, 49.5638435], [5.9546366, 49.5637691], [5.9546009, 49.5637206], [5.9545037, 49.5636235], [5.9541687, 49.5633037], [5.9538976, 49.5630475], [5.9536214, 49.5627779], [5.953428, 49.5625932], [5.9533333, 49.5625061], [5.9532233, 49.562419], [5.9529416, 49.5622246], [5.9528203, 49.5621346], [5.9528643, 49.5620335], [5.9523008, 49.5618739], [5.951757, 49.5617325], [5.9513164, 49.5616167], [5.9512289, 49.5615994], [5.9512573, 49.5613616], [5.9512576, 49.5612884], [5.9512545, 49.5612262], [5.9512241, 49.5611441], [5.9511629, 49.5610796], [5.9510676, 49.561004], [5.9508098, 49.5608214], [5.9503911, 49.5605231], [5.9501401, 49.5603484], [5.9493854, 49.5597749], [5.9483366, 49.5596814], [5.9478066, 49.5603794], [5.9474305, 49.560892], [5.9471987, 49.5609464], [5.9464641, 49.5611003], [5.9459768, 49.561204], [5.945868, 49.5612307], [5.9456612, 49.5612996], [5.9450988, 49.5614793], [5.9451255, 49.5615494], [5.9446333, 49.5616265], [5.9441483, 49.5618005], [5.9436873, 49.5619753], [5.9430068, 49.5622357], [5.9426396, 49.5622688], [5.9425568, 49.5620452], [5.9423839, 49.5619361], [5.9422623, 49.561909], [5.9420929, 49.5618733], [5.9420061, 49.5618576], [5.9419018, 49.5618489], [5.9418018, 49.5618459], [5.9417557, 49.5618469], [5.9416837, 49.5618486], [5.9414931, 49.561858], [5.9412953, 49.561869], [5.9411497, 49.5618814], [5.9410322, 49.5618953], [5.9409278, 49.5619177], [5.9408038, 49.5619486], [5.9406536, 49.5619893], [5.9406188, 49.5619935], [5.9401999, 49.5620025], [5.9401984, 49.562059], [5.9397138, 49.5620453], [5.9389002, 49.5619886], [5.9384069, 49.5619366], [5.938205, 49.5619107], [5.9380424, 49.561886], [5.9379172, 49.5618675], [5.9378518, 49.561854], [5.9376558, 49.5617981], [5.9374197, 49.5617171], [5.9374352, 49.5616705], [5.9370339, 49.5615056], [5.9371794, 49.560954], [5.937213, 49.5608687], [5.9374165, 49.5602757], [5.9374589, 49.560159], [5.9375424, 49.5599322], [5.9376079, 49.5597638], [5.9376617, 49.5596203], [5.937727, 49.5594621], [5.9366973, 49.5590467], [5.9362206, 49.5588656], [5.9359357, 49.5587624], [5.935216, 49.5585041], [5.9351801, 49.5584913], [5.935098, 49.5584624], [5.934683, 49.5583166], [5.9342129, 49.5581485], [5.9338057, 49.5579577], [5.9333124, 49.5577391], [5.9326994, 49.5574915], [5.9324536, 49.5573924], [5.9321315, 49.5572584], [5.9317149, 49.5570859], [5.9309166, 49.5568778], [5.9307406, 49.5568351], [5.9306682, 49.5568177], [5.9301616, 49.55671], [5.9297727, 49.5566292], [5.9293736, 49.5565433], [5.9287695, 49.5564188], [5.9282197, 49.5563043], [5.9277535, 49.5561139], [5.9272242, 49.5559578], [5.926582, 49.5557675], [5.9261303, 49.5556341], [5.9257726, 49.5555351], [5.9255568, 49.5554809], [5.9254945, 49.5555488], [5.9253189, 49.5555042], [5.9252102, 49.5554757], [5.9250602, 49.5554385], [5.9250446, 49.5554345], [5.9248403, 49.5553853], [5.9247978, 49.5553752], [5.9245358, 49.5553167], [5.9243744, 49.5552831], [5.9241696, 49.5552422], [5.9238406, 49.555187], [5.9238028, 49.5552534], [5.9236882, 49.5552382], [5.9235102, 49.5552223], [5.9233319, 49.555206], [5.9230854, 49.5551829], [5.9227741, 49.5551524], [5.9223038, 49.5550985], [5.9219355, 49.5550575], [5.9217565, 49.5550307], [5.9215467, 49.554997], [5.9213306, 49.5549549], [5.9211581, 49.5549171], [5.9209728, 49.5548636], [5.9208594, 49.5548287], [5.9208253, 49.5548221], [5.9208071, 49.5548148], [5.9208046, 49.5548141], [5.920548, 49.5547499], [5.9205142, 49.5548178], [5.9204348, 49.5549534], [5.9204089, 49.5550007], [5.9201805, 49.5549376], [5.9199466, 49.5548782], [5.9197264, 49.5548201], [5.9195299, 49.5547658], [5.9192507, 49.5546871], [5.9190659, 49.5546393], [5.9188615, 49.5545838], [5.9186119, 49.5545153], [5.9180014, 49.5543407], [5.9177188, 49.5542602], [5.9169504, 49.5540318], [5.9165559, 49.5539156], [5.9161505, 49.5542875], [5.9160437, 49.5543898], [5.9151924, 49.5543879], [5.9150102, 49.5543774], [5.9147869, 49.5543632], [5.9144637, 49.5543369], [5.9141037, 49.5543019], [5.9137859, 49.5542667], [5.9138051, 49.5542589], [5.9136157, 49.5542368], [5.9130939, 49.5541697], [5.9130395, 49.5541638], [5.9128565, 49.5541411], [5.9127303, 49.554118], [5.912594, 49.5540896], [5.9124684, 49.5540621], [5.9124161, 49.5540508], [5.9123189, 49.5540271], [5.9122471, 49.554008], [5.9121713, 49.5539865], [5.9120965, 49.553964], [5.9120216, 49.5539387], [5.9119773, 49.5539233], [5.9118757, 49.5538875], [5.9117528, 49.553838], [5.9116689, 49.553801], [5.9115351, 49.5537392], [5.9114257, 49.5536864], [5.9113182, 49.5536244], [5.9111908, 49.5535505], [5.9109894, 49.5534228], [5.9106451, 49.5532131], [5.9104527, 49.5530985], [5.9102511, 49.5529847], [5.91004, 49.5528755], [5.9098212, 49.5527659], [5.9095988, 49.552662], [5.9093647, 49.552556], [5.9092508, 49.5525145], [5.9090938, 49.552462], [5.9089073, 49.5524117], [5.90881, 49.5523945], [5.9086031, 49.5523758], [5.9083635, 49.5523517], [5.908171, 49.5523321], [5.9081372, 49.5523286], [5.9080312, 49.5523139], [5.9078351, 49.5522783], [5.907631, 49.5522437], [5.9073689, 49.5522028], [5.9071721, 49.5521727], [5.9071385, 49.5521651], [5.907085, 49.5521565], [5.9069889, 49.5521455], [5.9068518, 49.5521267], [5.9066863, 49.5521111], [5.906023, 49.5520394], [5.9048093, 49.5522137], [5.9036208, 49.5518191], [5.9036576, 49.5517465], [5.9036728, 49.5517204], [5.9036913, 49.5516954], [5.9037149, 49.5516726], [5.9037417, 49.5516618], [5.9037902, 49.5516521], [5.9038187, 49.5516424], [5.9038406, 49.551625], [5.9038524, 49.5515978], [5.9038477, 49.5515444], [5.9038429, 49.5514987], [5.9038381, 49.5514606], [5.903835, 49.5514247], [5.9038318, 49.5513811], [5.9038421, 49.5513387], [5.903854, 49.5513071], [5.9038691, 49.5512897], [5.9038876, 49.5512778], [5.9039128, 49.551267], [5.9039362, 49.5512648], [5.9039746, 49.5512693], [5.9040298, 49.5512868], [5.9041182, 49.5513219], [5.9041666, 49.5513427], [5.9042067, 49.5513547], [5.9042284, 49.551358], [5.9042519, 49.5513537], [5.9042686, 49.551344], [5.9042821, 49.5513277], [5.9042871, 49.5512951], [5.9042838, 49.5512672], [5.904028, 49.5511723], [5.9035611, 49.5509895], [5.9035543, 49.5509868], [5.9035463, 49.550983], [5.9035391, 49.5509742], [5.9027999, 49.5504185], [5.9024387, 49.5501531], [5.9016374, 49.5498007], [5.9007397, 49.5493781], [5.9004766, 49.5491156], [5.9003558, 49.5489947], [5.8999845, 49.5486032], [5.8997759, 49.5483839], [5.8995881, 49.5481879], [5.8992772, 49.5478712], [5.8990002, 49.5475835], [5.8985431, 49.5471102], [5.8971005, 49.5468869], [5.8968237, 49.5468484], [5.8961996, 49.5467751], [5.8957393, 49.5467608], [5.8947356, 49.546709], [5.8941785, 49.5466803], [5.8936051, 49.5466127], [5.8926707, 49.5465025], [5.8921289, 49.5464386], [5.8920543, 49.5464298], [5.8918784, 49.5464083], [5.8918569, 49.5464059], [5.8917286, 49.5463915], [5.8917027, 49.5463886], [5.8914767, 49.5463633], [5.8911586, 49.5463277], [5.8911238, 49.5463238], [5.8907803, 49.5462853], [5.8906975, 49.546276], [5.890047, 49.5462031], [5.8900424, 49.5462374], [5.8900391, 49.5462641], [5.8900332, 49.5463097], [5.8900305, 49.5463282], [5.8900222, 49.5463838], [5.8900146, 49.5464348], [5.8900002, 49.5465314], [5.8899942, 49.5465714], [5.8895077, 49.5465355], [5.8892182, 49.5465141], [5.8889993, 49.5464998], [5.8886624, 49.5464831], [5.8884843, 49.5464783], [5.8880723, 49.5464638], [5.8877874, 49.5464544], [5.8876737, 49.5464553], [5.8875876, 49.5464575], [5.8874772, 49.5464667], [5.8868885, 49.546517], [5.8866858, 49.5465488], [5.8863321, 49.5466151], [5.8853979, 49.546788], [5.8853939, 49.5467887], [5.8853157, 49.5468039], [5.8852961, 49.5470426], [5.8856412, 49.5480924], [5.8856951, 49.5483591], [5.8857189, 49.5486192], [5.8857217, 49.5488006], [5.8857333, 49.5489519], [5.8857143, 49.5492299], [5.8856033, 49.5495955], [5.8853622, 49.5499117], [5.8851793, 49.5501198], [5.8850522, 49.5502137], [5.8850595, 49.5502304], [5.8850796, 49.5502739], [5.8851636, 49.550455], [5.8852725, 49.5508033], [5.8853493, 49.5510276], [5.8854204, 49.5510951], [5.8854905, 49.5511541], [5.88557, 49.5512221], [5.8856835, 49.551346], [5.8858009, 49.5515303], [5.8859508, 49.5517537], [5.8861512, 49.5521958], [5.8862231, 49.5523288], [5.8863381, 49.5526096], [5.8863557, 49.5526539], [5.8865836, 49.5531871], [5.8866695, 49.5533166], [5.8866252, 49.5533404], [5.8864864, 49.5534152], [5.8864212, 49.5532559], [5.8864119, 49.5532548], [5.8864058, 49.553254], [5.8862716, 49.5532559], [5.8863638, 49.5534812], [5.8862743, 49.5535602], [5.8862434, 49.5535874], [5.8862175, 49.5536145], [5.8861958, 49.5536432], [5.8861677, 49.5536918], [5.8861369, 49.5537449], [5.8861255, 49.5537708], [5.8860944, 49.5538411], [5.8860907, 49.5538494], [5.8860937, 49.5539346], [5.8861022, 49.5541801], [5.8861804, 49.5543563], [5.8862405, 49.5544917], [5.8862433, 49.5544979], [5.8862765, 49.554541], [5.8863833, 49.5546794], [5.8865344, 49.554857], [5.8866896, 49.5550822], [5.8867393, 49.5551544], [5.8867551, 49.5551773], [5.8867876, 49.555221], [5.8868102, 49.5552513], [5.8868491, 49.5553036], [5.8869697, 49.5554654], [5.8870025, 49.5555095], [5.887007, 49.5555156], [5.8870458, 49.5555677], [5.8870636, 49.5555928], [5.8871202, 49.5556728], [5.8871323, 49.5556898], [5.8872267, 49.5558232], [5.8872535, 49.555861], [5.8872829, 49.5559025], [5.8872934, 49.5559174], [5.8872647, 49.555961], [5.8873248, 49.5560814], [5.8874118, 49.5562605], [5.8874795, 49.556497], [5.8875261, 49.5569731], [5.8874666, 49.5571749], [5.8871155, 49.5574869], [5.8867816, 49.5578781], [5.8866257, 49.5582026], [5.8865922, 49.5582721], [5.8864848, 49.5582503], [5.8861879, 49.5581899], [5.886131, 49.5581783], [5.8860973, 49.5582484], [5.8860649, 49.5583157], [5.8860326, 49.5583389], [5.8859799, 49.5583902], [5.8859119, 49.5584487], [5.8858644, 49.5584955], [5.8857823, 49.5586003], [5.8857203, 49.5587215], [5.8856584, 49.558843], [5.8855935, 49.5589703], [5.885536, 49.5590886], [5.8854726, 49.5592144], [5.8854078, 49.559334], [5.8853779, 49.5593903], [5.8853583, 49.5594526], [5.8853219, 49.5595642], [5.8853172, 49.5596748], [5.8852981, 49.559877], [5.8852782, 49.5600532], [5.8853003, 49.5601771], [5.8853125, 49.5602453], [5.8853824, 49.5604055], [5.8854081, 49.5604644], [5.8855401, 49.5606619], [5.8855967, 49.5607466], [5.8857347, 49.5609013], [5.885745, 49.5609099], [5.8858232, 49.560975]]]}}]}