{"type": "FeatureCollection", "features": [{"type": "Feature", "properties": {"name": "Clemency"}, "geometry": {"type": "Polygon", "coordinates": [[[5.8867591, 49.6273332], [5.8870793, 49.6276025], [5.8872883, 49.6277087], [5.8876411, 49.6278334], [5.8877835, 49.6279001], [5.8879703, 49.6280207], [5.8882421, 49.628179], [5.888574, 49.6283406], [5.8888133, 49.6284417], [5.8890907, 49.6285609], [5.8892466, 49.6286978], [5.889394, 49.6289213], [5.889432, 49.6289908], [5.8894801, 49.6290027], [5.8896375, 49.6290398], [5.8903672, 49.6291454], [5.8908021, 49.6291758], [5.8911411, 49.6292195], [5.8912257, 49.6292027], [5.8913093, 49.6291687], [5.8914381, 49.6291022], [5.8916176, 49.6289862], [5.8916564, 49.6289524], [5.8917058, 49.6289079], [5.8917811, 49.6288111], [5.8918892, 49.6286131], [5.8919117, 49.6285746], [5.8919726, 49.6285009], [5.8920195, 49.628476], [5.8920826, 49.628456], [5.892127, 49.6284541], [5.8922666, 49.628477], [5.89261, 49.6285404], [5.8927496, 49.6285518], [5.8928292, 49.6285598], [5.8928779, 49.6283849], [5.8932942, 49.6284509], [5.8936614, 49.6283981], [5.8939852, 49.6283877], [5.8951781, 49.6283518], [5.8956901, 49.6274733], [5.8956691, 49.6274418], [5.8957929, 49.6274097], [5.8973447, 49.6267053], [5.89732, 49.6266838], [5.8975943, 49.6261417], [5.8978255, 49.6259022], [5.8982313, 49.6258004], [5.8989286, 49.6257252], [5.8989537, 49.6257466], [5.8994882, 49.6254829], [5.900046, 49.625308], [5.9006923, 49.625208], [5.9007992, 49.6251858], [5.9006015, 49.6246827], [5.9004543, 49.6242273], [5.9002965, 49.6232442], [5.8999716, 49.6219489], [5.9001245, 49.6216767], [5.9007291, 49.621019], [5.9009791, 49.6207765], [5.9013791, 49.6204464], [5.9017648, 49.6201855], [5.9026382, 49.6196338], [5.9030792, 49.6194242], [5.9037846, 49.6191218], [5.9042618, 49.6188893], [5.9047354, 49.6186256], [5.9046945, 49.6185977], [5.9042859, 49.6183223], [5.9039023, 49.6182433], [5.9036811, 49.6182111], [5.9034615, 49.6181981], [5.90325, 49.6181997], [5.9029339, 49.6182687], [5.9025036, 49.6183882], [5.9016903, 49.6181103], [5.9016807, 49.6180971], [5.9011009, 49.6172977], [5.9002836, 49.6173032], [5.899169, 49.61734], [5.8980885, 49.6172663], [5.8964928, 49.6169648], [5.8963515, 49.6167554], [5.8960956, 49.6166443], [5.8957124, 49.6166351], [5.8955851, 49.6168818], [5.8927349, 49.6160949], [5.8930029, 49.6153093], [5.8913278, 49.6148727], [5.889478, 49.6145179], [5.8892634, 49.6139282], [5.8869771, 49.6132666], [5.8872582, 49.6127537], [5.8868365, 49.6124564], [5.887495, 49.6118284], [5.8876282, 49.6113777], [5.88768, 49.6101119], [5.8871177, 49.6098674], [5.8870733, 49.6091386], [5.8872435, 49.6087695], [5.8874876, 49.6083955], [5.8880648, 49.6077865], [5.8870659, 49.6075947], [5.8871917, 49.6060604], [5.8866441, 49.605648], [5.8867773, 49.6055569], [5.8848461, 49.6044876], [5.8867403, 49.6038019], [5.8879094, 49.6033512], [5.889441, 49.6031786], [5.8894188, 49.602512], [5.8898997, 49.6025024], [5.8898627, 49.6021668], [5.889663, 49.6015577], [5.8900107, 49.6006226], [5.8910714, 49.6002353], [5.8917428, 49.599379], [5.8937573, 49.5997627], [5.8939089, 49.5994632], [5.8955984, 49.5996504], [5.8955984, 49.5993883], [5.8963782, 49.5993462], [5.8963782, 49.5992386], [5.8963638, 49.5989812], [5.8972591, 49.5988829], [5.897945, 49.5971608], [5.8976706, 49.596997], [5.8978944, 49.5964307], [5.9001038, 49.596997], [5.9010785, 49.5959721], [5.8997589, 49.5944172], [5.8995334, 49.5936648], [5.8997572, 49.5932296], [5.900343, 49.592953], [5.900236, 49.59255], [5.900198, 49.59239], [5.9001865, 49.592354], [5.9001026, 49.591946], [5.9000797, 49.591854], [5.9000645, 49.591827], [5.900038, 49.591797], [5.900011, 49.59177], [5.8999844, 49.591755], [5.8999386, 49.59174], [5.8995304, 49.591644], [5.8994846, 49.591637], [5.8993626, 49.591606], [5.899168, 49.591564], [5.899027, 49.591515], [5.8989887, 49.591496], [5.8989544, 49.59147], [5.898901, 49.591423], [5.898836, 49.59136], [5.8988094, 49.59133], [5.8987103, 49.591232], [5.8981915, 49.590702], [5.898134, 49.59064], [5.8980236, 49.590508], [5.897932, 49.590393], [5.897829, 49.59025], [5.8976383, 49.589973], [5.8975086, 49.589794], [5.8972683, 49.589466], [5.897135, 49.589294], [5.8970814, 49.589245], [5.896887, 49.589054], [5.8968525, 49.589016], [5.896681, 49.588863], [5.8965626, 49.588753], [5.896284, 49.588486], [5.896036, 49.588253], [5.8960056, 49.58821], [5.895975, 49.58818], [5.8959446, 49.58814], [5.8957577, 49.587864], [5.8956623, 49.587715], [5.895609, 49.587646], [5.895483, 49.587467], [5.8954144, 49.587364], [5.895239, 49.58712], [5.895151, 49.587013], [5.894945, 49.586876], [5.8948765, 49.586826], [5.894766, 49.586754], [5.894739, 49.58674], [5.894636, 49.586662], [5.8944645, 49.58652], [5.894411, 49.58648], [5.8943157, 49.5864], [5.894087, 49.586197], [5.8939342, 49.58604], [5.8937206, 49.585827], [5.893675, 49.585777], [5.8936367, 49.585743], [5.8935566, 49.585663], [5.8933277, 49.585445], [5.8931065, 49.585274], [5.893015, 49.58521], [5.8929653, 49.58517], [5.892908, 49.585133], [5.89221, 49.584637], [5.891897, 49.584335], [5.89184, 49.584286], [5.8918056, 49.58425], [5.891718, 49.584175], [5.8916225, 49.584087], [5.8915462, 49.584023], [5.8914585, 49.583942], [5.891363, 49.583862], [5.8912716, 49.58379], [5.8910084, 49.583565], [5.8909283, 49.5835], [5.890215, 49.58322], [5.8901577, 49.5832], [5.8899784, 49.583122], [5.889921, 49.5831], [5.8897266, 49.58301], [5.889677, 49.58299], [5.8896046, 49.582954], [5.8893757, 49.58285], [5.88925, 49.58277], [5.88904, 49.58262], [5.889002, 49.582584], [5.888834, 49.58245], [5.8887997, 49.58242], [5.8887463, 49.58238], [5.888624, 49.582245], [5.888487, 49.582066], [5.8884373, 49.58198], [5.8884068, 49.58191], [5.8883877, 49.581844], [5.88838, 49.581802], [5.888933, 49.581005], [5.8884945, 49.58067], [5.887911, 49.58023], [5.8873425, 49.579807], [5.8873386, 49.579617], [5.8868656, 49.57921], [5.885393, 49.5782], [5.8848286, 49.57781], [5.884451, 49.577534], [5.884001, 49.57732], [5.883562, 49.577106], [5.883169, 49.57691], [5.8828487, 49.576744], [5.8826313, 49.576633], [5.882189, 49.576466], [5.882082, 49.57658], [5.8818073, 49.576866], [5.881651, 49.577026], [5.8815315, 49.5771273], [5.8813, 49.577404], [5.8810253, 49.577705], [5.8808346, 49.5779], [5.8806744, 49.57807], [5.880499, 49.57826], [5.8804607, 49.57829], [5.879957, 49.578518], [5.879896, 49.578545], [5.8795986, 49.57868], [5.8795683, 49.5786915], [5.8795147, 49.578712], [5.8793316, 49.5788], [5.8791637, 49.57888], [5.87908, 49.578823], [5.878763, 49.57861], [5.8783207, 49.57819], [5.8780188, 49.5778887], [5.8780117, 49.577675], [5.877859, 49.577587], [5.877821, 49.577564], [5.8773975, 49.57771], [5.8773174, 49.577736], [5.877119, 49.577805], [5.876116, 49.57722], [5.876093, 49.57721], [5.876173, 49.57717], [5.8762417, 49.577126], [5.876402, 49.576996], [5.876379, 49.576984], [5.8757763, 49.57673], [5.8752155, 49.576492], [5.875101, 49.57656], [5.8748875, 49.57669], [5.8745785, 49.57687], [5.874239, 49.57706], [5.8739605, 49.577198], [5.8735104, 49.577423], [5.8728504, 49.577084], [5.872389, 49.576923], [5.872366, 49.576916], [5.8720646, 49.57681], [5.8715, 49.576645], [5.871477, 49.576637], [5.8710117, 49.5765], [5.8706567, 49.5761966], [5.8697411, 49.5767359], [5.8711651, 49.5777212], [5.8712923, 49.5779504], [5.871758, 49.5788775], [5.8718221, 49.5790007], [5.871903, 49.5790501], [5.8719197, 49.5792648], [5.8719208, 49.5793871], [5.8718966, 49.5796058], [5.8711033, 49.5797675], [5.8708459, 49.5797522], [5.8704193, 49.5797176], [5.8702029, 49.5797154], [5.8699953, 49.5797151], [5.8697842, 49.5797038], [5.8695616, 49.5796897], [5.8693549, 49.579673], [5.8691266, 49.5796594], [5.8689218, 49.5796623], [5.8686622, 49.5797402], [5.8683805, 49.5798245], [5.8680466, 49.5799625], [5.867863, 49.580037], [5.8676546, 49.5801129], [5.8672735, 49.5802621], [5.8670521, 49.5803326], [5.8668158, 49.5803925], [5.8666308, 49.5804317], [5.8665966, 49.5803679], [5.8659716, 49.5805336], [5.8659903, 49.5805687], [5.8664125, 49.580869], [5.8670108, 49.5811031], [5.8674395, 49.5813015], [5.8675727, 49.5813679], [5.8676834, 49.5814324], [5.8680059, 49.5817036], [5.8681001, 49.5818334], [5.8682649, 49.5820934], [5.868332, 49.5821526], [5.8684794, 49.5822359], [5.8687618, 49.5823624], [5.8691128, 49.5825437], [5.8692688, 49.5826078], [5.8694239, 49.5826583], [5.8697511, 49.582776], [5.8699651, 49.5827909], [5.8705921, 49.5828464], [5.8710528, 49.5829039], [5.8725729, 49.5831444], [5.872725, 49.5831667], [5.8732757, 49.5835955], [5.8731302, 49.5840382], [5.8725646, 49.5848451], [5.8723994, 49.5850512], [5.8722255, 49.5852518], [5.8721396, 49.5853581], [5.8720425, 49.585484], [5.8715778, 49.5860622], [5.8715566, 49.5860978], [5.8715416, 49.5861727], [5.8715081, 49.5862841], [5.8714698, 49.5865431], [5.8714669, 49.586632], [5.8715608, 49.5876338], [5.8714742, 49.5878209], [5.8713521, 49.5880212], [5.8710095, 49.5883515], [5.870367, 49.5888344], [5.8702246, 49.5889122], [5.8700848, 49.5889867], [5.8697843, 49.5891968], [5.8691634, 49.5886958], [5.8677625, 49.5896401], [5.8673042, 49.5894184], [5.8671322, 49.5893261], [5.8670351, 49.5892684], [5.8668927, 49.5891696], [5.8659971, 49.5884986], [5.8658729, 49.5884014], [5.866264, 49.5881183], [5.8660914, 49.5880357], [5.8659449, 49.5879588], [5.8656773, 49.5878066], [5.8651892, 49.5874936], [5.8653943, 49.5873545], [5.8648928, 49.5870593], [5.8647581, 49.5869677], [5.8645007, 49.5867117], [5.8642943, 49.5864621], [5.8640068, 49.5866058], [5.8638877, 49.5866676], [5.863825, 49.5866639], [5.8637004, 49.5866473], [5.8635168, 49.5866104], [5.8634645, 49.5865959], [5.8633376, 49.5865985], [5.8630965, 49.586419], [5.8629101, 49.5862571], [5.8628517, 49.5862694], [5.8620344, 49.5867821], [5.8612817, 49.5864241], [5.8610702, 49.5865563], [5.8609967, 49.5865907], [5.8609597, 49.5865637], [5.8608296, 49.5865316], [5.8608194, 49.5865039], [5.8605683, 49.5864318], [5.8605089, 49.586423], [5.8604718, 49.5864001], [5.860379, 49.58636], [5.8603049, 49.5863017], [5.8602661, 49.5862991], [5.860246, 49.5862859], [5.8602307, 49.586257], [5.8600951, 49.586175], [5.8600112, 49.5861426], [5.8598999, 49.5861344], [5.8596769, 49.5860491], [5.8595669, 49.5860192], [5.8593547, 49.5859956], [5.8592908, 49.5859956], [5.8591242, 49.5859563], [5.8590685, 49.5859731], [5.8590069, 49.5859737], [5.8587509, 49.5859605], [5.8585543, 49.5859917], [5.8583777, 49.5860314], [5.8582408, 49.586086], [5.8581514, 49.5860845], [5.8579171, 49.5860609], [5.8578814, 49.5860673], [5.8578287, 49.586093], [5.8576842, 49.5861113], [5.8574432, 49.5860729], [5.8571986, 49.5860394], [5.8571102, 49.586061], [5.8570749, 49.5860568], [5.8570208, 49.5860409], [5.8568028, 49.5860446], [5.856787, 49.5860524], [5.8565733, 49.5860898], [5.8560171, 49.5862738], [5.8558571, 49.5863035], [5.8556681, 49.5863869], [5.8553318, 49.5864433], [5.8552581, 49.586467], [5.8550762, 49.5865649], [5.8550124, 49.5865725], [5.8549377, 49.5865693], [5.8548153, 49.5865824], [5.8544496, 49.5866604], [5.854158, 49.5867286], [5.8540232, 49.586732], [5.8539862, 49.5867639], [5.8538974, 49.5867866], [5.8538216, 49.5867773], [5.8537234, 49.5867893], [5.8536323, 49.5868555], [5.8535705, 49.5868435], [5.853423, 49.5868652], [5.8533661, 49.5868852], [5.8532893, 49.5869563], [5.8532335, 49.5869589], [5.8531095, 49.586905], [5.8530024, 49.5868908], [5.8528687, 49.5868396], [5.8527058, 49.5868794], [5.8526084, 49.5868708], [5.8524717, 49.5868217], [5.8523943, 49.5868199], [5.8520203, 49.5869148], [5.8518737, 49.5868998], [5.8518266, 49.586899], [5.8515492, 49.5869536], [5.8513227, 49.5869648], [5.8512071, 49.5869652], [5.8511118, 49.5869537], [5.8509509, 49.5869889], [5.8508457, 49.5869849], [5.850662, 49.5869289], [5.8506013, 49.58693], [5.8504343, 49.586958], [5.8500883, 49.5869315], [5.8500642, 49.587051], [5.850059, 49.5871022], [5.8500543, 49.5872132], [5.8500596, 49.5876149], [5.8500704, 49.5877329], [5.8500916, 49.5878142], [5.8501323, 49.587897], [5.8502428, 49.5880562], [5.8502659, 49.5881159], [5.8502741, 49.5881748], [5.8502661, 49.588239], [5.8502246, 49.5883484], [5.8501737, 49.5884387], [5.8500558, 49.588585], [5.849797, 49.5888063], [5.8496314, 49.5889532], [5.8494915, 49.5892743], [5.8494308, 49.5894704], [5.8493287, 49.5897254], [5.8492378, 49.5899095], [5.8491665, 49.5900481], [5.8489868, 49.5902836], [5.8488698, 49.5904688], [5.848845, 49.5905401], [5.8488314, 49.5906133], [5.8488273, 49.5906784], [5.8488011, 49.5915345], [5.8487423, 49.5920591], [5.8486604, 49.592589], [5.8486065, 49.592878], [5.848458, 49.593375], [5.8484361, 49.5934746], [5.8484021, 49.5936636], [5.8484695, 49.5938558], [5.8486321, 49.5940212], [5.8486643, 49.5942505], [5.848669, 49.594415], [5.8486241, 49.594573], [5.8483186, 49.5950103], [5.848154, 49.5952587], [5.8479078, 49.5956151], [5.8478342, 49.5957462], [5.8478039, 49.5957966], [5.8477614, 49.5959417], [5.8478163, 49.5960043], [5.8479143, 49.5960995], [5.848354, 49.5964447], [5.8487894, 49.5967381], [5.8486026, 49.5972501], [5.8490743, 49.5977082], [5.8491489, 49.5977402], [5.8500858, 49.5981425], [5.8504347, 49.5982977], [5.8506145, 49.5983757], [5.8508934, 49.5984957], [5.8509014, 49.5984991], [5.8514131, 49.5987067], [5.8517241, 49.5988285], [5.8518557, 49.5988755], [5.8530187, 49.5992608], [5.8536816, 49.5994432], [5.8538683, 49.5994838], [5.8542085, 49.5995817], [5.8546735, 49.5997348], [5.8548343, 49.5997149], [5.8549297, 49.599704], [5.8550345, 49.5996952], [5.8550885, 49.5996933], [5.8551472, 49.5996957], [5.855201, 49.5997062], [5.8553086, 49.5997366], [5.8555586, 49.599812], [5.8556789, 49.5998433], [5.8557153, 49.5998229], [5.8558892, 49.5999188], [5.8560541, 49.6000346], [5.8563154, 49.6001741], [5.8564639, 49.6002585], [5.8565347, 49.6002923], [5.8566307, 49.6003359], [5.8571063, 49.6005975], [5.8596885, 49.6016448], [5.8605651, 49.6021225], [5.86313, 49.6033948], [5.8632693, 49.6032678], [5.8634987, 49.6033844], [5.8637821, 49.603536], [5.8641347, 49.6037458], [5.8644131, 49.603943], [5.8650777, 49.6044628], [5.8651635, 49.6045355], [5.8656021, 49.6049216], [5.8658412, 49.6051519], [5.8660166, 49.6051485], [5.8661251, 49.6051953], [5.8662456, 49.6052264], [5.8663722, 49.6052452], [5.8665288, 49.6052418], [5.8667405, 49.6052292], [5.8668203, 49.6052296], [5.8668966, 49.6052439], [5.8669732, 49.6052785], [5.8669947, 49.6053459], [5.8669949, 49.6054177], [5.867331, 49.6054154], [5.8675278, 49.6054342], [5.8678029, 49.6054691], [5.8681394, 49.6055132], [5.8683157, 49.6055487], [5.8685538, 49.6055912], [5.8687557, 49.6056187], [5.8697276, 49.6056857], [5.8699256, 49.6057202], [5.8701181, 49.6057679], [5.8703364, 49.6058552], [5.870641, 49.6059929], [5.8708421, 49.6060585], [5.8709898, 49.606103], [5.8711689, 49.6061651], [5.8713428, 49.6062239], [5.8724743, 49.6064902], [5.8726274, 49.6065397], [5.8727662, 49.6065982], [5.8730056, 49.6066987], [5.873045, 49.6067703], [5.8731238, 49.6068963], [5.8732768, 49.6069509], [5.8735193, 49.6071099], [5.8737136, 49.6072279], [5.8739061, 49.6073353], [5.8740784, 49.607429], [5.874129, 49.6074593], [5.8741504, 49.6074637], [5.8742019, 49.6074179], [5.8742504, 49.6073788], [5.8743093, 49.6073436], [5.8743216, 49.6073312], [5.8743387, 49.6073361], [5.874656, 49.6074745], [5.8747764, 49.6075377], [5.8748087, 49.6075481], [5.8749685, 49.6075912], [5.8751415, 49.6076679], [5.8755922, 49.607796], [5.8758643, 49.6079926], [5.8757768, 49.6080904], [5.875923, 49.6081367], [5.8762338, 49.6082578], [5.8764827, 49.6084477], [5.8765169, 49.6084775], [5.8765253, 49.6084845], [5.8764945, 49.6085117], [5.8764301, 49.6085493], [5.8763919, 49.6085648], [5.8763799, 49.6085765], [5.8763838, 49.6085935], [5.8764077, 49.6086078], [5.8764558, 49.6086171], [5.8765278, 49.6086251], [5.8765518, 49.608633], [5.8765638, 49.6086434], [5.8765677, 49.6086564], [5.8765577, 49.6086681], [5.8765476, 49.6086811], [5.8765455, 49.6086916], [5.8765574, 49.6087059], [5.8765834, 49.6087229], [5.8766253, 49.6087569], [5.8766412, 49.6087765], [5.876645, 49.6087973], [5.8766328, 49.6088312], [5.8766127, 49.6088455], [5.8765725, 49.6088584], [5.8765464, 49.60887], [5.8765383, 49.608883], [5.8765462, 49.6089026], [5.8765602, 49.608917], [5.8765921, 49.6089457], [5.876618, 49.6089731], [5.8766259, 49.608994], [5.8766237, 49.6090252], [5.8766095, 49.60905], [5.8765793, 49.6090759], [5.8765512, 49.609085], [5.8765131, 49.609081], [5.8764811, 49.6090666], [5.8764452, 49.6090469], [5.8764032, 49.6090299], [5.8763752, 49.609022], [5.8763532, 49.6090233], [5.8763351, 49.6090323], [5.8763189, 49.6090518], [5.8762823, 49.6091403], [5.876274, 49.6091846], [5.8762758, 49.609225], [5.8762857, 49.6092537], [5.8762975, 49.6092798], [5.8763014, 49.6093032], [5.8762992, 49.6093358], [5.8762868, 49.6094169], [5.8762845, 49.6094611], [5.8762903, 49.6094976], [5.876314, 49.6095602], [5.8763198, 49.609585], [5.8763177, 49.609611], [5.8763015, 49.609641], [5.8762712, 49.6096826], [5.8762308, 49.6097255], [5.8762007, 49.6097436], [5.8761505, 49.6097617], [5.8760862, 49.6097824], [5.8760521, 49.6097953], [5.8760239, 49.6098083], [5.8759958, 49.6098226], [5.8759777, 49.6098356], [5.8759575, 49.6098563], [5.8759494, 49.6098746], [5.8759552, 49.6099006], [5.8759731, 49.6099254], [5.876001, 49.6099515], [5.876021, 49.6099698], [5.8760309, 49.609992], [5.8760366, 49.6100376], [5.8760404, 49.610078], [5.8760502, 49.6101002], [5.8760681, 49.6101315], [5.876086, 49.6101524], [5.8761099, 49.6101746], [5.8761558, 49.6102125], [5.8761957, 49.6102347], [5.8762616, 49.6102727], [5.8762916, 49.6102923], [5.8763075, 49.6103067], [5.8763134, 49.6103223], [5.8763053, 49.6103509], [5.8762891, 49.6103717], [5.8762187, 49.6104514], [5.8761622, 49.610519], [5.8760935, 49.6106035], [5.8760531, 49.6106646], [5.8760207, 49.6107193], [5.8759802, 49.6107817], [5.8759237, 49.6108584], [5.8758832, 49.6109182], [5.8758428, 49.610982], [5.8758164, 49.611034], [5.875792, 49.6110965], [5.8757736, 49.6111524], [5.8757551, 49.6112345], [5.8757508, 49.6112788], [5.8757487, 49.6113222], [5.8757484, 49.6113625], [5.8757684, 49.6113756], [5.8758023, 49.6114083], [5.8759059, 49.6115049], [5.8760434, 49.611629], [5.8760973, 49.6116709], [5.8761592, 49.6117088], [5.8762391, 49.6117572], [5.8764168, 49.611854], [5.8767483, 49.6120516], [5.8768034, 49.6121043], [5.8768872, 49.6121709], [5.8770429, 49.6122781], [5.8770909, 49.6122952], [5.8771769, 49.612311], [5.8770372, 49.6128956], [5.8769629, 49.6129267], [5.8769307, 49.6129357], [5.8769067, 49.6129357], [5.8768827, 49.6129343], [5.8768526, 49.6129264], [5.8768307, 49.6129185], [5.8770265, 49.6133145], [5.8768939, 49.6133728], [5.8764499, 49.6135567], [5.8762495, 49.6136699], [5.8761148, 49.6137438], [5.8760061, 49.6138178], [5.8757685, 49.6140113], [5.8756476, 49.6141243], [5.8755789, 49.6142179], [5.8754919, 49.614361], [5.8754532, 49.6144534], [5.8754365, 49.6145693], [5.8754558, 49.6147026], [5.8754775, 49.61476], [5.8755071, 49.6148304], [5.8755428, 49.6148927], [5.8755805, 49.6149608], [5.8756082, 49.6150117], [5.8758002, 49.6153592], [5.8758438, 49.6154505], [5.8758773, 49.6155313], [5.8758891, 49.6155757], [5.8759003, 49.6157112], [5.8755696, 49.6157103], [5.8756032, 49.6157951], [5.8756249, 49.6158564], [5.8756426, 49.6159177], [5.8756581, 49.6160024], [5.8756716, 49.6160858], [5.8756812, 49.6161575], [5.8756927, 49.61625], [5.8756983, 49.6163203], [5.8757015, 49.6164454], [5.875696, 49.6167156], [5.8756934, 49.6168146], [5.8756906, 49.6169526], [5.8756955, 49.6171246], [5.8756929, 49.6172301], [5.8756885, 49.6172992], [5.8756231, 49.6176928], [5.8756146, 49.6177736], [5.8756141, 49.6178557], [5.8756175, 49.6179612], [5.8756212, 49.6180146], [5.8756202, 49.6181866], [5.8756248, 49.6184119], [5.8756225, 49.6188109], [5.875628, 49.6188891], [5.8756417, 49.6189451], [5.8756674, 49.6190103], [5.875697, 49.6190846], [5.8757367, 49.6191512], [5.875838, 49.6193143], [5.8758816, 49.6193951], [5.8759173, 49.6194643], [5.8759524, 49.6195612], [5.875978, 49.6196446], [5.8760074, 49.6197554], [5.876023, 49.6198258], [5.8760426, 49.6198871], [5.8760743, 49.619951], [5.8761161, 49.6200136], [5.8761519, 49.620058], [5.8761877, 49.620092], [5.8762715, 49.6201664], [5.8763612, 49.6202526], [5.8764967, 49.6203806], [5.8765425, 49.6204303], [5.8765683, 49.6204733], [5.876611, 49.6206236], [5.8766288, 49.6206627], [5.8766527, 49.6207006], [5.8766925, 49.6207462], [5.8767582, 49.6208116], [5.8768818, 49.6209213], [5.8769756, 49.6209984], [5.8770673, 49.6210742], [5.8771691, 49.6211474], [5.8773009, 49.621235], [5.8775884, 49.621422], [5.8776583, 49.6214678], [5.8777773, 49.6215647], [5.8780566, 49.6217895], [5.8782281, 49.6219293], [5.8783757, 49.62206], [5.8785451, 49.6222232], [5.8786648, 49.6223199], [5.8788223, 49.622448], [5.878954, 49.6225643], [5.8790666, 49.6226756], [5.8791064, 49.6227109], [5.8791883, 49.6227671], [5.879422, 49.622911], [5.8795458, 49.6229855], [5.8797915, 49.6231281], [5.8800851, 49.6233034], [5.880211, 49.623378], [5.8802169, 49.6233936], [5.8802107, 49.623434], [5.8801922, 49.6235069], [5.880186, 49.6235382], [5.8801959, 49.6235603], [5.8802198, 49.6235878], [5.8802577, 49.6236178], [5.8802769, 49.6236339], [5.8802788, 49.6236457], [5.8802747, 49.62366], [5.8802505, 49.623686], [5.8801639, 49.6237522], [5.8801437, 49.6237821], [5.8801213, 49.6238316], [5.8801071, 49.6238758], [5.8801089, 49.6239084], [5.8801167, 49.6239384], [5.8801387, 49.623958], [5.8801746, 49.6239737], [5.8802367, 49.623983], [5.8803991, 49.6239821], [5.8805073, 49.6239863], [5.8805734, 49.6239929], [5.8806475, 49.6240113], [5.8807135, 49.6240363], [5.8807554, 49.6240637], [5.8807973, 49.6241042], [5.8808151, 49.624142], [5.8808308, 49.6241916], [5.8808517, 49.6243961], [5.8808616, 49.6244183], [5.8808855, 49.6244366], [5.8809175, 49.6244484], [5.8809476, 49.6244498], [5.8809777, 49.6244408], [5.8812069, 49.624315], [5.8812411, 49.6243007], [5.8812752, 49.6242969], [5.8813032, 49.6243009], [5.8813352, 49.624314], [5.8813712, 49.6243336], [5.8814131, 49.6243689], [5.8814752, 49.6244333], [5.881543, 49.6244973], [5.881579, 49.6245208], [5.8816269, 49.6245509], [5.8816648, 49.6245757], [5.8816748, 49.6245888], [5.8816727, 49.6246083], [5.8816585, 49.6246252], [5.8816264, 49.6246408], [5.8815802, 49.6246563], [5.881544, 49.6246718], [5.8815339, 49.6246848], [5.8815398, 49.6247005], [5.8815798, 49.6247266], [5.8816217, 49.6247476], [5.8817178, 49.6247765], [5.881936, 49.6248265], [5.882018, 49.6248476], [5.8821601, 49.624887], [5.8823142, 49.6249408], [5.8823636, 49.6249599], [5.8824076, 49.6249782], [5.8824476, 49.6250031], [5.8824775, 49.6250253], [5.8824954, 49.6250449], [5.8825033, 49.6250762], [5.882493, 49.625127], [5.8824766, 49.6251738], [5.8824745, 49.6251999], [5.8824824, 49.6252207], [5.8825023, 49.6252481], [5.8825282, 49.6252717], [5.8825622, 49.6252913], [5.8825982, 49.6253044], [5.8826322, 49.6253045], [5.8826844, 49.6252968], [5.8827426, 49.62528], [5.8827909, 49.6252593], [5.8828371, 49.6252385], [5.8828693, 49.625223], [5.8828853, 49.6252191], [5.8829013, 49.6252205], [5.8829153, 49.625227], [5.8829293, 49.6252375], [5.8829372, 49.6252531], [5.8829349, 49.6253091], [5.8829388, 49.6253339], [5.8829487, 49.6253522], [5.8829706, 49.6253678], [5.8830006, 49.6253848], [5.8830566, 49.6254019], [5.8831167, 49.6254177], [5.8831547, 49.6254347], [5.8831726, 49.6254478], [5.8831806, 49.6254608], [5.8831804, 49.6254843], [5.8831783, 49.6255064], [5.8831821, 49.6255351], [5.883194, 49.625556], [5.883216, 49.6255769], [5.883248, 49.6255887], [5.8832761, 49.6255861], [5.8833202, 49.6255745], [5.8834126, 49.6255539], [5.8834406, 49.6255527], [5.8834707, 49.6255554], [5.8835067, 49.6255633], [5.8835908, 49.6255895], [5.8836447, 49.6256118], [5.8836967, 49.6256341], [5.8837567, 49.6256681], [5.8837766, 49.6256916], [5.8838719, 49.6258494], [5.8838938, 49.6258703], [5.8839258, 49.6258887], [5.8839558, 49.6258939], [5.8840781, 49.6259008], [5.8841061, 49.6259073], [5.8841401, 49.6259257], [5.88419, 49.6259596], [5.8842219, 49.6259897], [5.8842503, 49.6260395], [5.8843297, 49.6261726], [5.8843556, 49.6261974], [5.8843856, 49.6262144], [5.8844156, 49.6262197], [5.8844818, 49.6262185], [5.8846402, 49.6262072], [5.8846723, 49.6262086], [5.8847123, 49.6262139], [5.8847503, 49.6262348], [5.884866, 49.6263263], [5.8849, 49.6263433], [5.8850361, 49.6263801], [5.8850681, 49.6263958], [5.8851119, 49.6264494], [5.8851318, 49.626465], [5.8851539, 49.626469], [5.885192, 49.6264639], [5.885226, 49.6264543], [5.8852599, 49.6264528], [5.8852961, 49.6264702], [5.8853521, 49.6264839], [5.8854787, 49.6265178], [5.8855403, 49.6265577], [5.8855694, 49.6266132], [5.8855824, 49.6266836], [5.8856136, 49.6267595], [5.8856829, 49.6268254], [5.8860374, 49.6269824], [5.8861573, 49.6270752], [5.8863355, 49.627252], [5.8863763, 49.6272627], [5.8866096, 49.6272412], [5.8866732, 49.62725], [5.8867016, 49.627269], [5.886775, 49.6273182], [5.8867591, 49.6273332]]]}}]}