{"type": "FeatureCollection", "features": [{"type": "Feature", "properties": {"name": "Fingig"}, "geometry": {"type": "Polygon", "coordinates": [[[5.900343, 49.592953], [5.8997572, 49.5932296], [5.8995334, 49.5936648], [5.8997589, 49.5944172], [5.9010785, 49.5959721], [5.9001038, 49.596997], [5.8978944, 49.5964307], [5.8976706, 49.596997], [5.897945, 49.5971608], [5.8972591, 49.5988829], [5.8963638, 49.5989812], [5.8963782, 49.5992386], [5.8963782, 49.5993462], [5.8955984, 49.5993883], [5.8955984, 49.5996504], [5.8939089, 49.5994632], [5.8937573, 49.5997627], [5.8917428, 49.599379], [5.8910714, 49.6002353], [5.8900107, 49.6006226], [5.889663, 49.6015577], [5.8898627, 49.6021668], [5.8898997, 49.6025024], [5.8894188, 49.602512], [5.889441, 49.6031786], [5.8879094, 49.6033512], [5.8867403, 49.6038019], [5.8848461, 49.6044876], [5.8867773, 49.6055569], [5.8866441, 49.605648], [5.8871917, 49.6060604], [5.8870659, 49.6075947], [5.8880648, 49.6077865], [5.8874876, 49.6083955], [5.8872435, 49.6087695], [5.8870733, 49.6091386], [5.8871177, 49.6098674], [5.88768, 49.6101119], [5.8876282, 49.6113777], [5.887495, 49.6118284], [5.8868365, 49.6124564], [5.8872582, 49.6127537], [5.8869771, 49.6132666], [5.8892634, 49.6139282], [5.889478, 49.6145179], [5.8913278, 49.6148727], [5.8930029, 49.6153093], [5.8927349, 49.6160949], [5.8955851, 49.6168818], [5.8957124, 49.6166351], [5.8960956, 49.6166443], [5.8963515, 49.6167554], [5.8964928, 49.6169648], [5.8980885, 49.6172663], [5.899169, 49.61734], [5.9002836, 49.6173032], [5.9011009, 49.6172977], [5.9014041, 49.6171822], [5.9018262, 49.6170343], [5.902123, 49.6169371], [5.9022111, 49.6169118], [5.9023386, 49.616882], [5.9026908, 49.6168256], [5.9030661, 49.6167738], [5.903256, 49.6167501], [5.9038822, 49.6169197], [5.9042709, 49.6166699], [5.9044427, 49.6165815], [5.9046358, 49.6164955], [5.9049401, 49.6163997], [5.905253, 49.6163191], [5.9055636, 49.6162386], [5.9058896, 49.6162504], [5.9059282, 49.6160383], [5.9059561, 49.6159451], [5.9060005, 49.6158534], [5.9060378, 49.6158039], [5.9061077, 49.6157318], [5.9061635, 49.6156838], [5.9057975, 49.6157356], [5.9058308, 49.6155672], [5.9058664, 49.6154017], [5.9058922, 49.6153103], [5.9059134, 49.6152501], [5.9059415, 49.615181], [5.9060794, 49.6148976], [5.9062549, 49.6145324], [5.9066223, 49.6137399], [5.9066433, 49.6136946], [5.9065405, 49.613696], [5.9065054, 49.6135458], [5.9064828, 49.6134314], [5.9064694, 49.6133366], [5.9064675, 49.6132584], [5.906472, 49.6132148], [5.9064749, 49.6131862], [5.9064963, 49.6130809], [5.9065549, 49.6129321], [5.9066184, 49.6127396], [5.9066421, 49.6126321], [5.9066779, 49.6124201], [5.9066964, 49.6122942], [5.906702, 49.6122561], [5.9067121, 49.6120951], [5.9067127, 49.6119853], [5.9067132, 49.6118755], [5.9067073, 49.6116987], [5.9067051, 49.6116752], [5.9066985, 49.6116024], [5.9066967, 49.6115106], [5.9066971, 49.6114279], [5.9066998, 49.6113647], [5.9067071, 49.6113], [5.9067214, 49.6112233], [5.906752, 49.6110948], [5.9067797, 49.6109961], [5.9067874, 49.6109685], [5.9068065, 49.6109047], [5.9068273, 49.6108633], [5.906842, 49.6108394], [5.906867, 49.6107987], [5.906878, 49.6107846], [5.9069649, 49.610674], [5.9070058, 49.6106282], [5.907044, 49.6105854], [5.9071301, 49.6104866], [5.9071395, 49.6104758], [5.9071814, 49.610431], [5.9073095, 49.6102941], [5.9073974, 49.6101945], [5.9074818, 49.6100989], [5.907735, 49.6098083], [5.907884, 49.6096462], [5.9079352, 49.6095876], [5.9079563, 49.6095425], [5.9079596, 49.6095314], [5.9079704, 49.6094959], [5.90802, 49.6093079], [5.9080459, 49.6092267], [5.9080586, 49.6091928], [5.9080741, 49.6091516], [5.908111, 49.609082], [5.9081506, 49.6090219], [5.9081996, 49.6089634], [5.908267, 49.6089063], [5.908332, 49.6088583], [5.9084597, 49.6087924], [5.908657, 49.608686], [5.9084213, 49.6086042], [5.9081367, 49.6085378], [5.9081116, 49.608532], [5.9081233, 49.6085064], [5.9081211, 49.6084854], [5.9080981, 49.6084567], [5.908052, 49.6084205], [5.9079736, 49.6083632], [5.9079414, 49.608333], [5.9079, 49.6082893], [5.9078563, 49.6082395], [5.907831, 49.6082034], [5.9078196, 49.6081687], [5.9078175, 49.6081341], [5.9078246, 49.608107], [5.9078479, 49.6080785], [5.9079618, 49.6079689], [5.9082989, 49.6076958], [5.908415, 49.6076133], [5.9084917, 49.6075548], [5.9086196, 49.6074483], [5.9086567, 49.6074318], [5.9087425, 49.6073944], [5.9088328, 49.6073533], [5.9088231, 49.607344], [5.9086411, 49.6071683], [5.9087875, 49.6070604], [5.9093776, 49.6066239], [5.9100583, 49.6061304], [5.9103254, 49.6059444], [5.9104986, 49.6058318], [5.9106037, 49.6057635], [5.9106166, 49.6057551], [5.9111697, 49.6054235], [5.9114019, 49.605281], [5.9116271, 49.6051386], [5.911857, 49.6049901], [5.9120537, 49.6048514], [5.9122535, 49.6047029], [5.9124859, 49.6045214], [5.9127346, 49.6043248], [5.9129014, 49.6041978], [5.9130948, 49.6042992], [5.9134245, 49.6040399], [5.9135732, 49.6039214], [5.9137569, 49.6037668], [5.9139127, 49.6036121], [5.9140407, 49.6034815], [5.9142292, 49.6032818], [5.9142271, 49.6032276], [5.91462, 49.6032126], [5.914618, 49.6031569], [5.914632, 49.6027518], [5.9150211, 49.6026835], [5.9152434, 49.6026508], [5.9153986, 49.6026286], [5.9157181, 49.6025992], [5.9160006, 49.6025712], [5.9161673, 49.6025535], [5.9162646, 49.6025372], [5.9163341, 49.6025223], [5.9163874, 49.6025013], [5.9164698, 49.60246], [5.9165696, 49.602397], [5.9166741, 49.6023235], [5.9167578, 49.6022605], [5.9168833, 49.6021569], [5.9170827, 49.6019849], [5.9171478, 49.6019249], [5.91697, 49.6018447], [5.9170633, 49.601714], [5.9171472, 49.6015878], [5.9171962, 49.6015037], [5.9172523, 49.6013955], [5.9173178, 49.6012662], [5.9173763, 49.6011324], [5.9174805, 49.6008911], [5.917448, 49.600758], [5.9174137, 49.600616], [5.9173717, 49.600536], [5.917284, 49.6004], [5.917219, 49.600307], [5.917017, 49.600037], [5.916731, 49.599678], [5.9163837, 49.59967], [5.9161587, 49.599667], [5.9159527, 49.599667], [5.9158077, 49.599663], [5.915514, 49.599663], [5.915472, 49.59966], [5.9152393, 49.599655], [5.915167, 49.59965], [5.9150867, 49.599648], [5.9148197, 49.59964], [5.9147053, 49.599636], [5.914606, 49.599648], [5.914461, 49.599667], [5.914343, 49.599678], [5.914095, 49.59971], [5.913965, 49.599438], [5.913744, 49.598957], [5.913542, 49.59853], [5.913431, 49.59828], [5.913328, 49.59811], [5.9132977, 49.598118], [5.913084, 49.59788], [5.913065, 49.59786], [5.9130344, 49.59782], [5.9129734, 49.597767], [5.9127865, 49.597584], [5.9127216, 49.597534], [5.9126797, 49.597504], [5.912653, 49.59749], [5.912573, 49.59743], [5.912363, 49.597305], [5.912283, 49.59726], [5.912279, 49.597286], [5.9122334, 49.597286], [5.912012, 49.59711], [5.9119473, 49.59713], [5.9116306, 49.597214], [5.9115963, 49.59722], [5.911478, 49.597256], [5.9114094, 49.59727], [5.9113293, 49.597294], [5.9113026, 49.5973], [5.9112186, 49.597324], [5.911024, 49.597374], [5.9109898, 49.597263], [5.910818, 49.596542], [5.910692, 49.595974], [5.910429, 49.594765], [5.9104176, 49.5947], [5.9103184, 49.59427], [5.9102535, 49.594044], [5.9093456, 49.59386], [5.9092426, 49.593838], [5.90851, 49.59369], [5.908476, 49.59368], [5.9080753, 49.593594], [5.9080296, 49.593582], [5.9078007, 49.593536], [5.9075794, 49.59349], [5.9075603, 49.593483], [5.9074497, 49.59345], [5.9065304, 49.593185], [5.906412, 49.593147], [5.9059353, 49.59304], [5.9058895, 49.593033], [5.905611, 49.59297], [5.90547, 49.59294], [5.905451, 49.592937], [5.9049397, 49.592808], [5.9048786, 49.592793], [5.9046574, 49.592735], [5.904379, 49.592663], [5.9042645, 49.592632], [5.9041843, 49.592613], [5.9041157, 49.592594], [5.9040127, 49.592575], [5.903948, 49.592567], [5.903784, 49.592556], [5.9037304, 49.592552], [5.903364, 49.592533], [5.902994, 49.59252], [5.9029293, 49.59275], [5.9027004, 49.59275], [5.902426, 49.59276], [5.9020977, 49.592766], [5.9020176, 49.592777], [5.901205, 49.59287], [5.900778, 49.59291], [5.900343, 49.592953]]]}}]}