{"type": "FeatureCollection", "features": [{"type": "Feature", "properties": {"name": "Linger"}, "geometry": {"type": "Polygon", "coordinates": [[[5.89234, 49.576353], [5.8922977, 49.5762562], [5.8923026, 49.5759931], [5.8923714, 49.5756362], [5.8925997, 49.5750602], [5.8929969, 49.5742531], [5.8935464, 49.5744744], [5.8942839, 49.5745561], [5.8946269, 49.5745403], [5.8948447, 49.5740954], [5.8953347, 49.573481], [5.8964362, 49.5721425], [5.8960154, 49.5718496], [5.8956723, 49.5715601], [5.8952078, 49.5710204], [5.8949263, 49.5700607], [5.8948784, 49.5690388], [5.894985, 49.5686071], [5.8951215, 49.5683853], [5.8957108, 49.567337], [5.8947712, 49.5671252], [5.8949145, 49.5666914], [5.8943651, 49.5665571], [5.8946369, 49.565751], [5.8917875, 49.5652494], [5.8914358, 49.5657697], [5.8902702, 49.5655769], [5.8911666, 49.5640983], [5.8893094, 49.5635958], [5.8894962, 49.5631539], [5.8881036, 49.5629045], [5.8884684, 49.5614211], [5.8883813, 49.5613081], [5.8881391, 49.5611617], [5.8876061, 49.5609657], [5.887139, 49.5611261], [5.8866883, 49.5611228], [5.8858232, 49.560975], [5.8858178, 49.5610528], [5.885797, 49.5613543], [5.8857872, 49.5614984], [5.8857765, 49.5616576], [5.885761, 49.5618862], [5.8857935, 49.562054], [5.8852634, 49.5620639], [5.8847925, 49.5620673], [5.8844031, 49.5621329], [5.8840096, 49.5621809], [5.8835579, 49.5622254], [5.8831017, 49.5621865], [5.8827245, 49.5620654], [5.8823349, 49.5617453], [5.8821422, 49.5616068], [5.8821155, 49.5616133], [5.8820293, 49.5616343], [5.8820145, 49.5616363], [5.8817964, 49.5616665], [5.8814476, 49.5616927], [5.8811211, 49.5616847], [5.8807837, 49.5616515], [5.8805101, 49.5616022], [5.8803693, 49.5615406], [5.8802595, 49.5614476], [5.8803648, 49.5614042], [5.8803483, 49.5613803], [5.8802796, 49.5612803], [5.8802422, 49.5612435], [5.8802086, 49.5612268], [5.8801925, 49.5612228], [5.8801686, 49.5612169], [5.8801019, 49.5612148], [5.8797498, 49.5612571], [5.8796798, 49.5612642], [5.8795208, 49.5612798], [5.8793608, 49.5612971], [5.8793136, 49.5613026], [5.8792294, 49.5613124], [5.8789806, 49.561165], [5.8788683, 49.5611387], [5.8786648, 49.5611416], [5.8784646, 49.5611217], [5.878291, 49.5610649], [5.8782799, 49.5610501], [5.878157, 49.5608876], [5.8781513, 49.5608546], [5.8781445, 49.5608146], [5.8781034, 49.5605737], [5.8779672, 49.5603933], [5.8778242, 49.5602101], [5.8775575, 49.5600274], [5.8774075, 49.5599989], [5.8771902, 49.5600192], [5.876786, 49.5600565], [5.8766177, 49.5600545], [5.8763899, 49.5599933], [5.8758715, 49.559744], [5.8757151, 49.5596801], [5.875151, 49.5597644], [5.8751243, 49.5598082], [5.8751001, 49.5598414], [5.8747627, 49.5603055], [5.8744123, 49.5607872], [5.8741725, 49.561117], [5.8741215, 49.5611872], [5.8741119, 49.5612004], [5.8740847, 49.5612378], [5.8740715, 49.5612559], [5.8750815, 49.5614289], [5.8750681, 49.5614684], [5.8748825, 49.5620145], [5.874778, 49.5622866], [5.87477, 49.5623075], [5.8747074, 49.5624706], [5.874558, 49.562816], [5.8743584, 49.5632685], [5.8743468, 49.5632948], [5.8742301, 49.5635581], [5.8741476, 49.563537], [5.8738803, 49.5637875], [5.873831, 49.5638338], [5.8736293, 49.5640284], [5.8736137, 49.5640435], [5.8735476, 49.5641047], [5.8735206, 49.5641299], [5.8734269, 49.564218], [5.8733697, 49.5642717], [5.8733196, 49.5643188], [5.8732793, 49.5643567], [5.8732579, 49.5643744], [5.873217, 49.5644084], [5.8731153, 49.564493], [5.8730918, 49.5645125], [5.8730485, 49.5645484], [5.8729856, 49.5645943], [5.8729617, 49.5646117], [5.8729183, 49.5646433], [5.872866, 49.5646814], [5.8728351, 49.5647039], [5.8728213, 49.5647139], [5.8727906, 49.5647363], [5.8727506, 49.5647639], [5.8726753, 49.564816], [5.8725423, 49.5649079], [5.8725093, 49.5649307], [5.8724922, 49.5649425], [5.8724331, 49.5649834], [5.8723367, 49.5650501], [5.8720569, 49.564933], [5.8720088, 49.5649836], [5.8718843, 49.565115], [5.8718059, 49.5651978], [5.8717993, 49.5652048], [5.8717627, 49.5652435], [5.8717344, 49.5652735], [5.8716034, 49.5654122], [5.8715504, 49.5654675], [5.871296, 49.5657328], [5.8712704, 49.5657595], [5.8710297, 49.5656739], [5.8710256, 49.5657076], [5.8710186, 49.565764], [5.8709953, 49.5659434], [5.8709685, 49.5661576], [5.8709416, 49.5663727], [5.8709255, 49.566498], [5.8709108, 49.5666337], [5.870889, 49.5668058], [5.8708803, 49.5668308], [5.8708066, 49.5670155], [5.870803, 49.5670244], [5.870745, 49.5671758], [5.8708043, 49.5672016], [5.8704941, 49.5675789], [5.8704467, 49.5676613], [5.8704113, 49.5677051], [5.8704047, 49.5677131], [5.8703577, 49.56777], [5.8703071, 49.5678315], [5.8702727, 49.5678731], [5.8702457, 49.5679069], [5.8701722, 49.5679986], [5.8701457, 49.5680318], [5.870126, 49.5680564], [5.8701201, 49.5680638], [5.8701613, 49.5680833], [5.8700515, 49.568184], [5.8699737, 49.5682554], [5.8699537, 49.5682737], [5.8699258, 49.5682993], [5.8698678, 49.5683694], [5.8698056, 49.5684448], [5.8697857, 49.568469], [5.8697792, 49.5684756], [5.8697564, 49.5684991], [5.8697376, 49.5685185], [5.8697228, 49.5685315], [5.8696693, 49.5685785], [5.8696039, 49.568636], [5.869504, 49.5687207], [5.8693703, 49.5688341], [5.8693422, 49.5688573], [5.8692181, 49.5689598], [5.8692096, 49.5689653], [5.8691237, 49.5690217], [5.8689927, 49.5691078], [5.8689823, 49.5691146], [5.8688919, 49.5691742], [5.868865, 49.5691919], [5.868774, 49.5692518], [5.8686984, 49.5693016], [5.8685671, 49.569388], [5.8684702, 49.5694492], [5.868292, 49.5695553], [5.8681, 49.5696871], [5.8679429, 49.5697928], [5.8678757, 49.5698361], [5.867786, 49.569894], [5.8677133, 49.5699409], [5.8676206, 49.5700007], [5.867502, 49.5700786], [5.8674214, 49.5701292], [5.8673896, 49.5701493], [5.8673847, 49.5701523], [5.8673529, 49.5701717], [5.8672853, 49.5702128], [5.8672719, 49.570221], [5.8671702, 49.570283], [5.8671563, 49.5702915], [5.8671312, 49.5703094], [5.8670931, 49.5703367], [5.8670742, 49.5703503], [5.867067, 49.5703555], [5.8670271, 49.5703876], [5.8669988, 49.5704104], [5.8669686, 49.5704347], [5.8669314, 49.5704646], [5.8668955, 49.5704935], [5.8668611, 49.5705211], [5.8668115, 49.570561], [5.8667176, 49.5706365], [5.8666924, 49.5706568], [5.8666107, 49.5707226], [5.8665895, 49.5707396], [5.866555, 49.5707673], [5.8665143, 49.5708001], [5.866451, 49.570851], [5.8664452, 49.5708557], [5.8663927, 49.5708979], [5.8662582, 49.5710062], [5.8662238, 49.5710338], [5.8661532, 49.5710908], [5.8660171, 49.5712005], [5.866008, 49.5712079], [5.865925, 49.5712748], [5.8658925, 49.571301], [5.8658433, 49.571339], [5.8656241, 49.5714985], [5.8656039, 49.5715132], [5.8655774, 49.5715325], [5.8655332, 49.5715646], [5.865513, 49.5715794], [5.8654854, 49.5715995], [5.865431, 49.5716391], [5.8653316, 49.5717114], [5.8653852, 49.571742], [5.8664091, 49.5723279], [5.8671286, 49.5727677], [5.8674976, 49.5730158], [5.8675351, 49.5730411], [5.8675027, 49.5732428], [5.8676458, 49.5733479], [5.8676846, 49.5733774], [5.8677598, 49.5734346], [5.8678803, 49.5735263], [5.8680221, 49.5736342], [5.8680491, 49.5736547], [5.8687044, 49.573324], [5.8692872, 49.5734918], [5.8697332, 49.5736203], [5.8701513, 49.5737847], [5.870491, 49.5738653], [5.8716986, 49.5740631], [5.8718309, 49.5740848], [5.872233, 49.5742018], [5.8727493, 49.5743416], [5.8723766, 49.5752189], [5.8721721, 49.5753583], [5.8712517, 49.5759145], [5.8708374, 49.5761074], [5.8706567, 49.5761966], [5.8710117, 49.5765], [5.871477, 49.576637], [5.8715, 49.576645], [5.8720646, 49.57681], [5.872366, 49.576916], [5.872389, 49.576923], [5.8728504, 49.577084], [5.8735104, 49.577423], [5.8739605, 49.577198], [5.874239, 49.57706], [5.8745785, 49.57687], [5.8748875, 49.57669], [5.875101, 49.57656], [5.8752155, 49.576492], [5.8757763, 49.57673], [5.876379, 49.576984], [5.876402, 49.576996], [5.8762417, 49.577126], [5.876173, 49.57717], [5.876093, 49.57721], [5.876116, 49.57722], [5.877119, 49.577805], [5.8773174, 49.577736], [5.8773975, 49.57771], [5.877821, 49.577564], [5.877859, 49.577587], [5.8780117, 49.577675], [5.8780188, 49.5778887], [5.8783207, 49.57819], [5.878763, 49.57861], [5.87908, 49.578823], [5.8791637, 49.57888], [5.8793316, 49.5788], [5.8795147, 49.578712], [5.8795683, 49.5786915], [5.8795986, 49.57868], [5.879896, 49.578545], [5.879957, 49.578518], [5.8804607, 49.57829], [5.880499, 49.57826], [5.8806744, 49.57807], [5.8808346, 49.5779], [5.8810253, 49.577705], [5.8813, 49.577404], [5.8815315, 49.5771273], [5.881651, 49.577026], [5.8818073, 49.576866], [5.882082, 49.57658], [5.882189, 49.576466], [5.8826313, 49.576633], [5.8828487, 49.576744], [5.883169, 49.57691], [5.883562, 49.577106], [5.884001, 49.57732], [5.884451, 49.577534], [5.8848286, 49.57781], [5.885393, 49.5782], [5.8868656, 49.57921], [5.8870039, 49.5788923], [5.8866985, 49.578087], [5.8871333, 49.5779897], [5.8882911, 49.577864], [5.8888593, 49.5775099], [5.8893316, 49.5771267], [5.8894004, 49.5769949], [5.8895223, 49.5768144], [5.8897037, 49.5767008], [5.8899664, 49.5765832], [5.8902072, 49.5765264], [5.8903448, 49.5765224], [5.8910591, 49.5760224], [5.89234, 49.576353]]]}}]}