{"type": "FeatureCollection", "features": [{"type": "Feature", "properties": {"name": "Dalheim"}, "geometry": {"type": "MultiPolygon", "coordinates": [[[[6.219217, 49.55499], [6.219316, 49.555008], [6.219774, 49.5551], [6.220038, 49.55515], [6.220091, 49.555164], [6.220266, 49.555202], [6.220472, 49.555256], [6.220575, 49.55528], [6.22106, 49.555397], [6.221544, 49.555515], [6.221731, 49.55557], [6.221777, 49.55558], [6.221853, 49.555603], [6.222444, 49.55579], [6.222658, 49.55586], [6.222967, 49.555977], [6.223516, 49.556183], [6.223822, 49.555836], [6.224188, 49.55604], [6.224478, 49.5562], [6.225042, 49.556454], [6.225203, 49.55652], [6.22547, 49.556614], [6.225542, 49.556637], [6.225706, 49.556686], [6.225828, 49.55672], [6.226122, 49.556805], [6.22624, 49.556835], [6.226507, 49.55684], [6.226603, 49.55681], [6.227137, 49.55575], [6.227358, 49.555492], [6.227991, 49.554867], [6.228296, 49.554615], [6.22912, 49.553978], [6.229734, 49.553463], [6.23028, 49.553024], [6.230326, 49.553032], [6.230921, 49.553127], [6.231176, 49.553177], [6.231386, 49.55323], [6.23179, 49.55334], [6.232145, 49.553474], [6.232561, 49.553658], [6.233267, 49.553997], [6.233412, 49.553932], [6.233519, 49.55388], [6.234057, 49.55363], [6.234545, 49.55343], [6.234953, 49.553307], [6.235022, 49.553417], [6.235044, 49.553463], [6.235102, 49.553555], [6.235163, 49.553665], [6.235193, 49.553715], [6.23522, 49.553764], [6.235251, 49.55381], [6.235258, 49.55383], [6.235308, 49.553905], [6.235475, 49.554195], [6.235334, 49.55425], [6.234865, 49.554474], [6.23448, 49.554676], [6.234098, 49.55491], [6.233896, 49.555065], [6.233713, 49.555202], [6.233484, 49.555412], [6.233335, 49.555565], [6.233068, 49.555927], [6.232965, 49.55589], [6.232904, 49.555977], [6.232847, 49.55606], [6.23276, 49.55619], [6.232664, 49.556328], [6.232626, 49.556385], [6.232443, 49.55656], [6.232332, 49.556664], [6.232229, 49.556763], [6.232084, 49.556904], [6.232023, 49.55696], [6.231928, 49.55705], [6.231821, 49.557148], [6.231707, 49.55725], [6.231646, 49.5573], [6.231585, 49.557358], [6.231531, 49.557404], [6.231463, 49.557465], [6.231218, 49.55768], [6.231165, 49.557804], [6.231108, 49.557945], [6.231054, 49.55811], [6.231012, 49.55832], [6.231001, 49.558586], [6.231024, 49.558853], [6.231024, 49.558887], [6.231051, 49.55904], [6.231081, 49.559177], [6.231108, 49.559284], [6.231169, 49.559464], [6.231199, 49.55956], [6.231302, 49.559704], [6.231566, 49.55998], [6.231607, 49.560017], [6.231684, 49.560062], [6.231813, 49.560135], [6.23197, 49.5602], [6.232054, 49.560226], [6.232199, 49.560272], [6.232698, 49.56039], [6.232744, 49.5604], [6.232843, 49.56041], [6.232962, 49.56043], [6.233072, 49.56044], [6.232935, 49.560673], [6.232855, 49.560806], [6.232515, 49.561672], [6.232439, 49.56185], [6.232367, 49.561974], [6.231978, 49.56233], [6.231939, 49.562363], [6.231806, 49.56249], [6.231741, 49.562546], [6.231642, 49.562645], [6.231676, 49.562687], [6.231714, 49.56274], [6.231829, 49.5629], [6.231878, 49.562973], [6.231993, 49.563133], [6.232054, 49.563213], [6.232092, 49.56327], [6.232122, 49.563297], [6.232267, 49.56342], [6.232401, 49.56353], [6.232687, 49.56377], [6.232782, 49.563877], [6.232946, 49.564053], [6.233019, 49.564133], [6.23308, 49.564198], [6.23311, 49.564228], [6.233126, 49.564247], [6.233183, 49.56431], [6.233236, 49.564365], [6.233343, 49.56448], [6.233381, 49.564526], [6.23345, 49.56459], [6.233511, 49.56465], [6.233526, 49.564667], [6.23361, 49.564735], [6.233713, 49.564827], [6.23382, 49.564915], [6.233847, 49.56494], [6.233889, 49.564976], [6.233679, 49.565384], [6.233652, 49.565434], [6.233606, 49.565525], [6.233599, 49.565594], [6.233595, 49.56561], [6.23353, 49.566086], [6.233339, 49.566284], [6.233049, 49.566574], [6.232904, 49.56672], [6.232553, 49.567043], [6.232252, 49.56737], [6.232038, 49.56761], [6.232401, 49.567894], [6.232248, 49.56802], [6.232061, 49.568172], [6.231806, 49.568382], [6.231516, 49.568516], [6.231375, 49.568615], [6.231134, 49.568787], [6.230825, 49.569004], [6.230887, 49.569202], [6.230982, 49.56949], [6.231008, 49.569546], [6.231127, 49.56981], [6.231207, 49.56998], [6.231237, 49.57004], [6.231302, 49.57003], [6.231443, 49.57001], [6.231554, 49.57], [6.23171, 49.569996], [6.231802, 49.569996], [6.23197, 49.570004], [6.23234, 49.570007], [6.23276, 49.569984], [6.232969, 49.569992], [6.233198, 49.57001], [6.233442, 49.57004], [6.233572, 49.570053], [6.233744, 49.570072], [6.234087, 49.570103], [6.234545, 49.57013], [6.235346, 49.570168], [6.23612, 49.570206], [6.236353, 49.570213], [6.236567, 49.57021], [6.23694, 49.570164], [6.23752, 49.570087], [6.237852, 49.570034], [6.238039, 49.569996], [6.238653, 49.569843], [6.239481, 49.56965], [6.239576, 49.569576], [6.239901, 49.569252], [6.240385, 49.568546], [6.240965, 49.568027], [6.241625, 49.56766], [6.241777, 49.567654], [6.24188, 49.567657], [6.242311, 49.56766], [6.242502, 49.567665], [6.24299, 49.56758], [6.243681, 49.567707], [6.24468, 49.56769], [6.245592, 49.567608], [6.245954, 49.567654], [6.246908, 49.567627], [6.247458, 49.567623], [6.248041, 49.567677], [6.248819, 49.567566], [6.249365, 49.567646], [6.250269, 49.56789], [6.250673, 49.567863], [6.251111, 49.56798], [6.251707, 49.56814], [6.252081, 49.568214], [6.2525, 49.568363], [6.25297, 49.56842], [6.25345, 49.568596], [6.253775, 49.568645], [6.253855, 49.56864], [6.253912, 49.568638], [6.254507, 49.568638], [6.254732, 49.56864], [6.255133, 49.568626], [6.2558, 49.568584], [6.256601, 49.568428], [6.257227, 49.568268], [6.257582, 49.56818], [6.258589, 49.56792], [6.258745, 49.56788], [6.259314, 49.567722], [6.25981, 49.56759], [6.260599, 49.5673], [6.261114, 49.56708], [6.261755, 49.566727], [6.262144, 49.56652], [6.262766, 49.566196], [6.263056, 49.566044], [6.263731, 49.565784], [6.264242, 49.56559], [6.264689, 49.565475], [6.265043, 49.565388], [6.265295, 49.565323], [6.265367, 49.565304], [6.265825, 49.56518], [6.266634, 49.564972], [6.26761, 49.564716], [6.268614, 49.564545], [6.268927, 49.564476], [6.268923, 49.564297], [6.268923, 49.564137], [6.268911, 49.56384], [6.268911, 49.563766], [6.268908, 49.563515], [6.268904, 49.5634], [6.268904, 49.563374], [6.2689, 49.563244], [6.268892, 49.56306], [6.268892, 49.562775], [6.268888, 49.562588], [6.268888, 49.562496], [6.268885, 49.56245], [6.268885, 49.56219], [6.268938, 49.56216], [6.269037, 49.562096], [6.269274, 49.56196], [6.269381, 49.56189], [6.269507, 49.561813], [6.269594, 49.561756], [6.269659, 49.56171], [6.26977, 49.561623], [6.269846, 49.561565], [6.270014, 49.56143], [6.270101, 49.561363], [6.270334, 49.56139], [6.270372, 49.56122], [6.270334, 49.56113], [6.270292, 49.561043], [6.270231, 49.560894], [6.270189, 49.560795], [6.270124, 49.560646], [6.270094, 49.560574], [6.270048, 49.56041], [6.27001, 49.56029], [6.269957, 49.560074], [6.269888, 49.55982], [6.269876, 49.559757], [6.269876, 49.559677], [6.269625, 49.559536], [6.269327, 49.559372], [6.268972, 49.559174], [6.268999, 49.558994], [6.269011, 49.558937], [6.269018, 49.558872], [6.269045, 49.558704], [6.269049, 49.55869], [6.269087, 49.5585], [6.269094, 49.558464], [6.269117, 49.5584], [6.269125, 49.558372], [6.269167, 49.558254], [6.269175, 49.558235], [6.26919, 49.558193], [6.269239, 49.558056], [6.269266, 49.557987], [6.269285, 49.55794], [6.269316, 49.557877], [6.26935, 49.557846], [6.269361, 49.55783], [6.26948, 49.557716], [6.269529, 49.557674], [6.269632, 49.55758], [6.269785, 49.55753], [6.269934, 49.557476], [6.269976, 49.55746], [6.270094, 49.557423], [6.270372, 49.557323], [6.27041, 49.557312], [6.270662, 49.557213], [6.270643, 49.55738], [6.270601, 49.55757], [6.27067, 49.557587], [6.270704, 49.55739], [6.270716, 49.55731], [6.27072, 49.55724], [6.270704, 49.557114], [6.270678, 49.55699], [6.270582, 49.556805], [6.270521, 49.556725], [6.270468, 49.556652], [6.270433, 49.556602], [6.27041, 49.556576], [6.270365, 49.556522], [6.270327, 49.55648], [6.270277, 49.556423], [6.270155, 49.556343], [6.270113, 49.55632], [6.269934, 49.556274], [6.269857, 49.556263], [6.269716, 49.55624], [6.269534, 49.556217], [6.269404, 49.5562], [6.269106, 49.55616], [6.269064, 49.55615], [6.269011, 49.55612], [6.268934, 49.556065], [6.268869, 49.556004], [6.268812, 49.55592], [6.268793, 49.555885], [6.268732, 49.555767], [6.268652, 49.55559], [6.268637, 49.55556], [6.26856, 49.555378], [6.268827, 49.555218], [6.268862, 49.5552], [6.269129, 49.555042], [6.269152, 49.554825], [6.269339, 49.554665], [6.269381, 49.55463], [6.269404, 49.55461], [6.269606, 49.554443], [6.269697, 49.554195], [6.269789, 49.55398], [6.26985, 49.55387], [6.269876, 49.55382], [6.269949, 49.553703], [6.27001, 49.5536], [6.270044, 49.553535], [6.270075, 49.553482], [6.270121, 49.553406], [6.270239, 49.553196], [6.270357, 49.552982], [6.270369, 49.552967], [6.27041, 49.55289], [6.270517, 49.5527], [6.270727, 49.552334], [6.270739, 49.55232], [6.270761, 49.552277], [6.270819, 49.552185], [6.270899, 49.55206], [6.270941, 49.55199], [6.271116, 49.551704], [6.271105, 49.5516], [6.271082, 49.55134], [6.270967, 49.551075], [6.27088, 49.55088], [6.270857, 49.550632], [6.270849, 49.550552], [6.270842, 49.55037], [6.270834, 49.550232], [6.270823, 49.550102], [6.270796, 49.54984], [6.270525, 49.54951], [6.270468, 49.549442], [6.270224, 49.549156], [6.270208, 49.549145], [6.269918, 49.54884], [6.269888, 49.548813], [6.26969, 49.548527], [6.269594, 49.548386], [6.269308, 49.547977], [6.268969, 49.54763], [6.268629, 49.54729], [6.26829, 49.547], [6.268385, 49.546383], [6.26827, 49.546375], [6.268148, 49.546364], [6.268095, 49.54636], [6.268007, 49.546352], [6.267919, 49.546337], [6.267836, 49.546318], [6.26774, 49.54629], [6.267668, 49.546265], [6.26761, 49.546234], [6.267534, 49.546192], [6.267401, 49.546124], [6.267443, 49.546074], [6.267603, 49.545895], [6.26763, 49.545868], [6.268087, 49.545902], [6.268206, 49.545906], [6.268362, 49.54591], [6.268457, 49.54591], [6.268599, 49.54595], [6.268747, 49.545994], [6.269156, 49.546104], [6.269526, 49.546207], [6.269846, 49.54607], [6.27017, 49.54593], [6.27041, 49.545822], [6.270731, 49.54569], [6.270933, 49.54561], [6.271112, 49.545536], [6.271208, 49.54532], [6.271284, 49.545128], [6.271406, 49.54484], [6.271418, 49.54478], [6.271486, 49.544468], [6.271532, 49.544292], [6.27154, 49.544266], [6.271559, 49.54419], [6.271589, 49.544075], [6.271925, 49.544003], [6.272203, 49.543945], [6.273043, 49.54378], [6.27318, 49.543377], [6.273848, 49.543495], [6.274092, 49.543537], [6.274588, 49.543625], [6.274691, 49.543644], [6.275042, 49.543705], [6.275068, 49.54371], [6.275095, 49.543713], [6.275137, 49.54372], [6.275377, 49.54381], [6.275522, 49.543865], [6.275549, 49.543877], [6.275576, 49.543884], [6.275923, 49.544006], [6.276075, 49.54406], [6.276152, 49.544086], [6.276293, 49.544132], [6.276403, 49.544174], [6.276808, 49.54432], [6.276873, 49.544346], [6.277556, 49.54457], [6.277616, 49.544594], [6.277693, 49.544617], [6.277796, 49.54465], [6.277891, 49.544685], [6.277994, 49.54472], [6.278032, 49.54473], [6.278376, 49.544838], [6.278398, 49.544846], [6.278521, 49.54488], [6.278891, 49.54499], [6.279024, 49.545036], [6.2792, 49.545094], [6.279551, 49.545223], [6.27968, 49.545273], [6.27981, 49.54532], [6.279844, 49.545334], [6.280172, 49.545486], [6.280222, 49.54551], [6.280325, 49.54555], [6.280386, 49.545578], [6.280451, 49.545605], [6.280607, 49.545677], [6.280653, 49.545696], [6.280767, 49.545746], [6.280863, 49.54579], [6.280928, 49.545822], [6.280966, 49.545837], [6.281069, 49.54588], [6.281145, 49.54591], [6.281443, 49.546036], [6.281553, 49.54608], [6.281637, 49.546112], [6.281969, 49.546234], [6.282042, 49.546257], [6.282145, 49.546295], [6.28219, 49.546314], [6.282347, 49.54637], [6.282492, 49.54642], [6.282518, 49.546432], [6.282652, 49.54648], [6.282793, 49.546528], [6.282881, 49.546562], [6.282968, 49.54659], [6.283071, 49.546627], [6.283216, 49.546677], [6.283274, 49.546696], [6.283388, 49.546738], [6.283438, 49.54675], [6.283506, 49.546764], [6.283762, 49.546814], [6.283968, 49.54691], [6.284189, 49.547012], [6.284372, 49.547085], [6.284643, 49.547153], [6.284811, 49.547184], [6.285124, 49.547226], [6.286131, 49.547314], [6.286352, 49.54716], [6.286856, 49.54713], [6.287382, 49.547096], [6.287569, 49.54708], [6.287954, 49.54706], [6.288027, 49.54746], [6.288031, 49.54747], [6.288053, 49.547565], [6.288061, 49.547607], [6.288134, 49.547977], [6.288191, 49.548252], [6.288252, 49.548363], [6.288385, 49.548615], [6.288752, 49.548557], [6.288824, 49.548546], [6.289026, 49.54851], [6.289518, 49.548428], [6.289644, 49.54841], [6.289698, 49.548397], [6.289846, 49.548378], [6.290186, 49.54834], [6.290289, 49.548325], [6.290613, 49.548283], [6.290697, 49.548275], [6.290968, 49.54824], [6.291147, 49.54823], [6.291254, 49.54822], [6.291441, 49.54822], [6.291895, 49.548244], [6.291937, 49.547943], [6.291994, 49.5475], [6.292055, 49.547302], [6.29217, 49.546974], [6.29228, 49.54677], [6.292399, 49.546608], [6.292543, 49.546413], [6.292662, 49.546295], [6.292738, 49.54624], [6.292845, 49.546173], [6.292986, 49.54609], [6.293093, 49.54604], [6.293364, 49.545906], [6.293493, 49.545834], [6.293573, 49.545788], [6.293802, 49.545647], [6.294115, 49.545452], [6.294252, 49.54536], [6.294489, 49.545155], [6.294622, 49.545033], [6.294645, 49.545006], [6.294729, 49.5449], [6.294805, 49.544773], [6.294882, 49.54458], [6.294958, 49.544403], [6.294985, 49.54436], [6.295076, 49.54423], [6.295229, 49.54412], [6.295454, 49.543972], [6.295469, 49.543957], [6.295526, 49.543888], [6.296625, 49.54348], [6.296671, 49.543404], [6.29669, 49.543377], [6.296713, 49.54334], [6.296793, 49.5432], [6.296866, 49.54308], [6.296938, 49.542904], [6.297014, 49.54275], [6.297072, 49.542664], [6.297193, 49.542526], [6.297274, 49.54241], [6.29735, 49.54227], [6.297434, 49.54205], [6.297495, 49.54183], [6.297514, 49.541706], [6.297529, 49.541622], [6.297533, 49.541496], [6.297518, 49.541298], [6.297476, 49.54101], [6.297464, 49.540886], [6.297449, 49.540756], [6.297472, 49.540714], [6.297953, 49.540024], [6.297991, 49.53997], [6.298086, 49.53983], [6.298113, 49.539776], [6.298159, 49.539635], [6.298212, 49.53936], [6.298819, 49.539185], [6.299124, 49.53902], [6.299631, 49.53901], [6.299841, 49.5389], [6.299982, 49.53883], [6.300157, 49.538746], [6.300356, 49.538662], [6.300566, 49.53864], [6.300749, 49.538628], [6.301351, 49.538616], [6.302031, 49.53861], [6.30216, 49.53861], [6.302256, 49.538628], [6.302351, 49.53865], [6.302729, 49.538727], [6.302957, 49.538776], [6.303164, 49.538815], [6.303591, 49.53891], [6.303877, 49.538967], [6.304029, 49.539032], [6.304159, 49.53911], [6.304247, 49.53919], [6.304522, 49.53943], [6.304705, 49.53958], [6.304838, 49.539692], [6.305326, 49.539906], [6.30567, 49.540062], [6.306021, 49.540226], [6.306269, 49.540344], [6.306574, 49.540524], [6.306692, 49.540592], [6.306795, 49.540627], [6.307321, 49.540787], [6.307486, 49.540836], [6.307596, 49.540867], [6.307833, 49.54093], [6.30839, 49.540627], [6.308546, 49.540543], [6.308603, 49.54051], [6.308847, 49.54038], [6.309027, 49.540283], [6.308966, 49.54021], [6.308889, 49.540134], [6.308771, 49.54003], [6.308691, 49.53997], [6.308622, 49.539917], [6.308516, 49.53985], [6.308394, 49.539783], [6.308222, 49.539696], [6.307749, 49.539463], [6.30802, 49.539406], [6.308691, 49.539272], [6.308958, 49.53923], [6.309294, 49.53918], [6.30979, 49.539116], [6.31006, 49.53909], [6.310179, 49.53909], [6.310324, 49.539097], [6.310862, 49.539135], [6.311735, 49.539223], [6.312303, 49.539303], [6.312372, 49.539314], [6.312773, 49.53939], [6.313173, 49.53947], [6.313421, 49.539516], [6.313646, 49.53956], [6.313818, 49.53958], [6.314119, 49.53962], [6.314211, 49.539627], [6.314367, 49.539642], [6.314459, 49.53965], [6.3146, 49.539658], [6.314756, 49.53966], [6.315138, 49.53966], [6.315172, 49.539658], [6.315264, 49.539646], [6.315527, 49.539623], [6.315725, 49.5396], [6.315954, 49.53957], [6.315988, 49.539562], [6.31624, 49.539524], [6.316614, 49.539463], [6.316854, 49.53942], [6.31695, 49.539375], [6.317049, 49.539326], [6.317305, 49.53918], [6.317366, 49.539143], [6.317328, 49.53911], [6.317167, 49.538967], [6.317305, 49.538902], [6.317438, 49.538837], [6.317473, 49.53886], [6.317595, 49.538948], [6.317976, 49.538704], [6.318193, 49.538563], [6.318281, 49.5385], [6.318701, 49.53825], [6.318781, 49.5382], [6.318796, 49.53819], [6.318747, 49.53817], [6.318674, 49.538166], [6.318609, 49.538166], [6.318537, 49.538185], [6.318476, 49.538197], [6.318426, 49.5382], [6.318373, 49.538193], [6.318323, 49.53817], [6.318296, 49.53814], [6.31827, 49.538105], [6.318258, 49.538063], [6.318255, 49.538025], [6.318239, 49.538], [6.318209, 49.53798], [6.318144, 49.537968], [6.318071, 49.537956], [6.317984, 49.537952], [6.317949, 49.537964], [6.317923, 49.53799], [6.317907, 49.53802], [6.317888, 49.53804], [6.317869, 49.538055], [6.317835, 49.538063], [6.317789, 49.538063], [6.317697, 49.538036], [6.317617, 49.53801], [6.317533, 49.538], [6.31735, 49.53799], [6.317106, 49.53798], [6.316984, 49.537968], [6.316923, 49.537945], [6.316862, 49.537907], [6.316774, 49.537865], [6.316679, 49.53784], [6.316473, 49.53781], [6.31624, 49.53778], [6.316114, 49.53775], [6.315981, 49.537693], [6.315817, 49.537643], [6.315706, 49.537624], [6.315577, 49.53759], [6.315523, 49.537537], [6.315512, 49.537483], [6.315527, 49.53741], [6.315519, 49.537373], [6.315489, 49.537334], [6.315416, 49.537304], [6.315229, 49.537254], [6.31489, 49.53718], [6.314905, 49.537167], [6.315126, 49.536957], [6.315432, 49.536682], [6.315783, 49.536373], [6.315836, 49.536247], [6.31592, 49.536057], [6.315958, 49.53598], [6.315973, 49.535954], [6.315992, 49.535915], [6.31603, 49.53586], [6.316069, 49.535816], [6.316111, 49.535778], [6.316221, 49.535725], [6.316725, 49.535522], [6.317018, 49.535397], [6.317564, 49.535168], [6.317961, 49.534996], [6.318255, 49.53487], [6.318582, 49.534737], [6.318773, 49.53467], [6.318869, 49.53464], [6.319086, 49.534584], [6.319258, 49.53455], [6.31933, 49.534534], [6.319529, 49.534496], [6.319712, 49.53446], [6.319937, 49.534397], [6.320097, 49.534355], [6.320334, 49.53424], [6.320379, 49.534214], [6.320539, 49.53412], [6.320642, 49.53407], [6.320902, 49.53391], [6.321218, 49.53372], [6.321333, 49.533646], [6.321383, 49.533615], [6.321516, 49.533554], [6.321623, 49.533512], [6.321657, 49.5335], [6.32176, 49.53347], [6.322035, 49.533405], [6.322382, 49.533318], [6.322706, 49.533222], [6.322859, 49.533207], [6.32295, 49.53318], [6.323057, 49.533115], [6.323118, 49.533047], [6.32321, 49.5329], [6.323225, 49.532772], [6.323244, 49.532722], [6.323263, 49.532665], [6.323336, 49.53251], [6.323393, 49.53244], [6.323492, 49.532322], [6.32353, 49.53224], [6.323553, 49.532215], [6.323603, 49.53215], [6.323729, 49.53203], [6.323812, 49.53194], [6.323908, 49.531834], [6.324064, 49.531643], [6.324106, 49.531597], [6.324213, 49.531467], [6.324293, 49.531395], [6.324419, 49.53129], [6.324511, 49.53122], [6.324625, 49.531128], [6.324907, 49.53092], [6.324961, 49.530876], [6.324808, 49.530743], [6.324526, 49.53059], [6.324305, 49.530785], [6.324209, 49.530853], [6.32279, 49.530785], [6.321821, 49.530743], [6.321695, 49.53073], [6.321638, 49.530727], [6.320909, 49.53066], [6.320772, 49.530647], [6.320696, 49.530632], [6.32057, 49.53059], [6.320059, 49.530403], [6.31978, 49.530197], [6.319643, 49.530094], [6.319517, 49.529995], [6.319384, 49.52986], [6.319174, 49.529663], [6.319017, 49.52952], [6.318926, 49.529446], [6.318846, 49.52938], [6.318674, 49.529247], [6.318605, 49.5292], [6.318422, 49.52908], [6.318174, 49.52892], [6.317884, 49.52865], [6.317709, 49.528484], [6.317656, 49.528435], [6.317572, 49.528355], [6.31727, 49.528053], [6.316958, 49.527767], [6.31669, 49.527874], [6.31632, 49.528023], [6.316069, 49.528137], [6.316034, 49.528156], [6.315821, 49.528275], [6.315607, 49.528397], [6.31542, 49.528534], [6.31518, 49.528706], [6.314997, 49.528812], [6.314733, 49.52896], [6.314699, 49.52898], [6.314314, 49.52919], [6.313993, 49.529385], [6.313791, 49.529507], [6.313448, 49.52972], [6.313414, 49.529686], [6.313395, 49.52967], [6.31336, 49.529636], [6.313322, 49.5296], [6.313276, 49.529552], [6.313192, 49.529446], [6.313059, 49.52951], [6.313047, 49.529514], [6.313009, 49.529533], [6.312296, 49.529854], [6.312117, 49.52973], [6.31185, 49.529835], [6.312044, 49.53008], [6.311838, 49.530117], [6.311243, 49.530365], [6.311308, 49.53044], [6.311247, 49.530476], [6.310823, 49.53069], [6.310755, 49.53073], [6.310797, 49.530754], [6.310923, 49.530834], [6.311049, 49.530922], [6.311152, 49.531], [6.311007, 49.53111], [6.311182, 49.531284], [6.311228, 49.531372], [6.311094, 49.531536], [6.310995, 49.53165], [6.310976, 49.531673], [6.310011, 49.531433], [6.309713, 49.53136], [6.309607, 49.53133], [6.309233, 49.53123], [6.308924, 49.531155], [6.308721, 49.531105], [6.308409, 49.531013], [6.308325, 49.530987], [6.308199, 49.53095], [6.307814, 49.530872], [6.307791, 49.53087], [6.30773, 49.530743], [6.30765, 49.530567], [6.307612, 49.53049], [6.307367, 49.53047], [6.306902, 49.530437], [6.30641, 49.5304], [6.306223, 49.5304], [6.305498, 49.530453], [6.305372, 49.530464], [6.305075, 49.530487], [6.304766, 49.5305], [6.304216, 49.53053], [6.304186, 49.530827], [6.304171, 49.53099], [6.304163, 49.531105], [6.304163, 49.531143], [6.304155, 49.53128], [6.303884, 49.531273], [6.303736, 49.531265], [6.303682, 49.531258], [6.303587, 49.53124], [6.303469, 49.531216], [6.303404, 49.53122], [6.303312, 49.53123], [6.30324, 49.53125], [6.303145, 49.531284], [6.303129, 49.531296], [6.30311, 49.531364], [6.303091, 49.53139], [6.303041, 49.531433], [6.302961, 49.53149], [6.302832, 49.531563], [6.302675, 49.531635], [6.302485, 49.531715], [6.302267, 49.53182], [6.302259, 49.531834], [6.302259, 49.531883], [6.302267, 49.531937], [6.302271, 49.532013], [6.302263, 49.53204], [6.302248, 49.532066], [6.302202, 49.53211], [6.302141, 49.532158], [6.302023, 49.532234], [6.30192, 49.532303], [6.301851, 49.532352], [6.301767, 49.53242], [6.301683, 49.532494], [6.301569, 49.53257], [6.301481, 49.532623], [6.301416, 49.532654], [6.301344, 49.532684], [6.301466, 49.53287], [6.301817, 49.532883], [6.301733, 49.53318], [6.301725, 49.53324], [6.301718, 49.533356], [6.301752, 49.53363], [6.301756, 49.533646], [6.30176, 49.53369], [6.301802, 49.534027], [6.301851, 49.53438], [6.301672, 49.53437], [6.301508, 49.534355], [6.30131, 49.53433], [6.300489, 49.53423], [6.29978, 49.53414], [6.299406, 49.53412], [6.299185, 49.534103], [6.298967, 49.53409], [6.298498, 49.534122], [6.298067, 49.534153], [6.29698, 49.533916], [6.296721, 49.533867], [6.296591, 49.53385], [6.296396, 49.53384], [6.296198, 49.533833], [6.29608, 49.53383], [6.295946, 49.533825], [6.295717, 49.533813], [6.295336, 49.533783], [6.295324, 49.533783], [6.294989, 49.533485], [6.29487, 49.533382], [6.294676, 49.53322], [6.294691, 49.53319], [6.294695, 49.53315], [6.294691, 49.533062], [6.294653, 49.53274], [6.294615, 49.53248], [6.294767, 49.532207], [6.294775, 49.532036], [6.294943, 49.532047], [6.294977, 49.532047], [6.295122, 49.53204], [6.295317, 49.532013], [6.295427, 49.531986], [6.295488, 49.53196], [6.295572, 49.531902], [6.295595, 49.53188], [6.295664, 49.531826], [6.295713, 49.531773], [6.29574, 49.531715], [6.295698, 49.531704], [6.295698, 49.53103], [6.295652, 49.53103], [6.295542, 49.53102], [6.295404, 49.531002], [6.295153, 49.53098], [6.294886, 49.530956], [6.294699, 49.53094], [6.294451, 49.53092], [6.29439, 49.530914], [6.294085, 49.530952], [6.294035, 49.530956], [6.293844, 49.53098], [6.293348, 49.53098], [6.293131, 49.530975], [6.293043, 49.53097], [6.292952, 49.53097], [6.292292, 49.53091], [6.29191, 49.530865], [6.292074, 49.53031], [6.292109, 49.53018], [6.292173, 49.529945], [6.292181, 49.529926], [6.29204, 49.529922], [6.291842, 49.529907], [6.291704, 49.529583], [6.29159, 49.529465], [6.291761, 49.529408], [6.292006, 49.529438], [6.286688, 49.525684], [6.286608, 49.52567], [6.285803, 49.525505], [6.286585, 49.524654], [6.286257, 49.524544], [6.285418, 49.524254], [6.285097, 49.524147], [6.284838, 49.524055], [6.284281, 49.524612], [6.284105, 49.52477], [6.282694, 49.525917], [6.282019, 49.52559], [6.281042, 49.52609], [6.28084, 49.526043], [6.280786, 49.52602], [6.280645, 49.52605], [6.280455, 49.526104], [6.280107, 49.526222], [6.279345, 49.526543], [6.27857, 49.527023], [6.278418, 49.52712], [6.278364, 49.527157], [6.278017, 49.527378], [6.277224, 49.52793], [6.276857, 49.52819], [6.276827, 49.528168], [6.276678, 49.528248], [6.276476, 49.52836], [6.275686, 49.528793], [6.275366, 49.528984], [6.275236, 49.529064], [6.275183, 49.5291], [6.274916, 49.52927], [6.274031, 49.52882], [6.27397, 49.52879], [6.271524, 49.527664], [6.271132, 49.527893], [6.271288, 49.527966], [6.271093, 49.528084], [6.272677, 49.528988], [6.272707, 49.529087], [6.272737, 49.529182], [6.27276, 49.529247], [6.272818, 49.529415], [6.272989, 49.529957], [6.273001, 49.529995], [6.272901, 49.530117], [6.272856, 49.530167], [6.272234, 49.530663], [6.271662, 49.531116], [6.271601, 49.531166], [6.271227, 49.53146], [6.270906, 49.531715], [6.270845, 49.531765], [6.271025, 49.531864], [6.270887, 49.531956], [6.270845, 49.531998], [6.270521, 49.532265], [6.270502, 49.532272], [6.270536, 49.53234], [6.270643, 49.532593], [6.270704, 49.53277], [6.270681, 49.532772], [6.27054, 49.53279], [6.270445, 49.532784], [6.270224, 49.532635], [6.270178, 49.53265], [6.269262, 49.53312], [6.269022, 49.533314], [6.268698, 49.533592], [6.268541, 49.53372], [6.268515, 49.533737], [6.26837, 49.533665], [6.268236, 49.53362], [6.267343, 49.533245], [6.266863, 49.533142], [6.266363, 49.533104], [6.265284, 49.53313], [6.265238, 49.533073], [6.265039, 49.532806], [6.265001, 49.532753], [6.264994, 49.532707], [6.264959, 49.532402], [6.264956, 49.53236], [6.264982, 49.53219], [6.26502, 49.531975], [6.265024, 49.531944], [6.265039, 49.53174], [6.265078, 49.531666], [6.265249, 49.53146], [6.265467, 49.531246], [6.265604, 49.53107], [6.265593, 49.531025], [6.265211, 49.530663], [6.264997, 49.530415], [6.264772, 49.529625], [6.264711, 49.52958], [6.264666, 49.52951], [6.264502, 49.52927], [6.264372, 49.529106], [6.264303, 49.529022], [6.264234, 49.528934], [6.264189, 49.52888], [6.264166, 49.52885], [6.264082, 49.528755], [6.2638, 49.528423], [6.263441, 49.52803], [6.263155, 49.52773], [6.26309, 49.52766], [6.262152, 49.526733], [6.262014, 49.526646], [6.26211, 49.52662], [6.261229, 49.526054], [6.261202, 49.526035], [6.261156, 49.526], [6.261362, 49.525887], [6.261316, 49.525852], [6.261286, 49.525837], [6.259207, 49.524868], [6.259878, 49.524117], [6.25992, 49.524075], [6.259752, 49.523968], [6.259695, 49.52393], [6.259592, 49.523846], [6.259543, 49.523804], [6.259359, 49.523636], [6.259153, 49.52352], [6.258406, 49.523113], [6.25831, 49.52306], [6.257635, 49.522667], [6.256727, 49.52219], [6.255854, 49.521793], [6.254503, 49.52125], [6.254465, 49.521294], [6.253508, 49.522587], [6.253035, 49.52334], [6.252096, 49.523148], [6.251951, 49.523125], [6.251284, 49.523014], [6.250895, 49.52295], [6.250483, 49.52296], [6.250391, 49.52316], [6.249853, 49.523106], [6.249838, 49.523216], [6.248526, 49.52348], [6.247889, 49.52361], [6.247732, 49.523663], [6.246901, 49.52395], [6.246843, 49.523964], [6.24618, 49.523006], [6.246126, 49.522938], [6.24513, 49.521465], [6.244772, 49.520984], [6.244501, 49.52056], [6.244402, 49.520424], [6.244123, 49.520008], [6.243902, 49.519684], [6.24373, 49.519466], [6.243608, 49.519344], [6.243452, 49.519245], [6.243231, 49.51915], [6.242761, 49.518954], [6.242781, 49.51887], [6.243326, 49.51814], [6.243303, 49.518124], [6.243063, 49.51793], [6.242903, 49.517754], [6.242784, 49.517544], [6.242724, 49.51733], [6.242716, 49.517147], [6.242765, 49.516895], [6.242823, 49.516758], [6.242453, 49.516663], [6.242598, 49.516422], [6.241747, 49.51602], [6.241518, 49.51588], [6.241407, 49.515774], [6.241247, 49.51561], [6.241232, 49.5156], [6.241018, 49.515427], [6.240946, 49.5154], [6.240858, 49.515312], [6.241003, 49.51522], [6.240992, 49.51519], [6.240938, 49.51507], [6.240908, 49.51505], [6.240648, 49.515022], [6.240534, 49.51507], [6.24048, 49.515095], [6.24021, 49.51532], [6.240183, 49.51534], [6.240122, 49.51538], [6.24, 49.515587], [6.239824, 49.515717], [6.239683, 49.5158], [6.239004, 49.516285], [6.238588, 49.516567], [6.238485, 49.516724], [6.23842, 49.516808], [6.238333, 49.51686], [6.238085, 49.516945], [6.237802, 49.517006], [6.237555, 49.51702], [6.237253, 49.51701], [6.237063, 49.516983], [6.236815, 49.516922], [6.23612, 49.516796], [6.235472, 49.516663], [6.235132, 49.516613], [6.235121, 49.51664], [6.234987, 49.51693], [6.234865, 49.517067], [6.234841, 49.517098], [6.234739, 49.517326], [6.234659, 49.517487], [6.234755, 49.517506], [6.2348, 49.517517], [6.234976, 49.517555], [6.235102, 49.5176], [6.235334, 49.51769], [6.23543, 49.51775], [6.235487, 49.51781], [6.235533, 49.517883], [6.235567, 49.51796], [6.235624, 49.51811], [6.235689, 49.518276], [6.235704, 49.518303], [6.23572, 49.518337], [6.2358, 49.518448], [6.235857, 49.51852], [6.23591, 49.51859], [6.236132, 49.518867], [6.236235, 49.51902], [6.236265, 49.51907], [6.236303, 49.51914], [6.236349, 49.519264], [6.23638, 49.519398], [6.236402, 49.519527], [6.236452, 49.519714], [6.236483, 49.51979], [6.236528, 49.519867], [6.236578, 49.51994], [6.236673, 49.520046], [6.236761, 49.520138], [6.236994, 49.520405], [6.23707, 49.520515], [6.237108, 49.520596], [6.237162, 49.520714], [6.23733, 49.52114], [6.2372, 49.521183], [6.237299, 49.521286], [6.237391, 49.521385], [6.23749, 49.52147], [6.237608, 49.521576], [6.237871, 49.521793], [6.237993, 49.521896], [6.23802, 49.52193], [6.238031, 49.521965], [6.238154, 49.522293], [6.238253, 49.5225], [6.238298, 49.5226], [6.238375, 49.522717], [6.238508, 49.522907], [6.238707, 49.523163], [6.238874, 49.52341], [6.238771, 49.523438], [6.238661, 49.523464], [6.238936, 49.52396], [6.239084, 49.524246], [6.239107, 49.52428], [6.239141, 49.524326], [6.239252, 49.52444], [6.239344, 49.52453], [6.239355, 49.524536], [6.239492, 49.52467], [6.23918, 49.52489], [6.23871, 49.525223], [6.23868, 49.525246], [6.238405, 49.52546], [6.238348, 49.52551], [6.238203, 49.52564], [6.237841, 49.52598], [6.237818, 49.525997], [6.237555, 49.525887], [6.237528, 49.52591], [6.237116, 49.52624], [6.236753, 49.526505], [6.236402, 49.526737], [6.236048, 49.526962], [6.236223, 49.527077], [6.236269, 49.52711], [6.236414, 49.52721], [6.236219, 49.52735], [6.236204, 49.52736], [6.236135, 49.52741], [6.236063, 49.527454], [6.235899, 49.527573], [6.235315, 49.527992], [6.235434, 49.52806], [6.235666, 49.528187], [6.235796, 49.52826], [6.235983, 49.52836], [6.236422, 49.528587], [6.236513, 49.528637], [6.236681, 49.52873], [6.236799, 49.528793], [6.236948, 49.528877], [6.237287, 49.529083], [6.237478, 49.529198], [6.237669, 49.529312], [6.237738, 49.529346], [6.237822, 49.529392], [6.23786, 49.52941], [6.237905, 49.529438], [6.238016, 49.529495], [6.238062, 49.529522], [6.238173, 49.52958], [6.238253, 49.52962], [6.23842, 49.52971], [6.238501, 49.52975], [6.238577, 49.529793], [6.238592, 49.5298], [6.238668, 49.52984], [6.23871, 49.52986], [6.238893, 49.52996], [6.23897, 49.53], [6.239023, 49.53003], [6.239153, 49.530094], [6.239195, 49.530113], [6.239256, 49.530144], [6.23934, 49.53018], [6.239473, 49.530247], [6.239573, 49.530296], [6.23971, 49.530365], [6.239546, 49.530525], [6.239531, 49.530537], [6.239405, 49.53066], [6.239153, 49.5309], [6.239023, 49.531025], [6.238981, 49.531067], [6.238932, 49.531113], [6.238718, 49.53132], [6.238329, 49.531693], [6.238081, 49.531933], [6.237947, 49.532063], [6.23773, 49.532253], [6.237417, 49.532528], [6.237394, 49.532547], [6.237501, 49.532623], [6.237478, 49.532642], [6.237379, 49.532722], [6.237276, 49.53281], [6.237074, 49.53298], [6.236807, 49.533207], [6.236776, 49.53323], [6.236753, 49.533253], [6.236631, 49.533295], [6.236525, 49.533333], [6.23636, 49.533394], [6.236292, 49.533417], [6.236155, 49.533466], [6.236036, 49.533512], [6.235804, 49.533592], [6.235437, 49.533184], [6.234865, 49.53337], [6.23461, 49.533447], [6.234262, 49.53354], [6.234064, 49.53358], [6.233877, 49.533623], [6.233801, 49.533638], [6.233728, 49.533653], [6.233694, 49.533684], [6.233644, 49.533726], [6.233427, 49.533916], [6.232824, 49.534473], [6.232531, 49.534767], [6.23239, 49.534924], [6.232248, 49.5351], [6.232103, 49.53531], [6.231878, 49.5356], [6.231928, 49.53561], [6.231867, 49.535698], [6.231821, 49.535786], [6.231798, 49.53582], [6.231703, 49.535995], [6.231611, 49.536148], [6.231516, 49.536316], [6.231451, 49.536434], [6.23139, 49.536552], [6.231356, 49.536617], [6.231386, 49.536625], [6.231108, 49.537163], [6.230848, 49.53767], [6.230719, 49.537655], [6.230623, 49.537647], [6.230372, 49.537617], [6.229944, 49.53758], [6.229708, 49.537567], [6.229368, 49.53756], [6.228804, 49.53756], [6.228823, 49.537643], [6.228865, 49.537766], [6.228914, 49.537888], [6.228929, 49.537933], [6.229021, 49.53813], [6.229105, 49.538307], [6.229166, 49.538433], [6.228979, 49.538483], [6.228781, 49.53854], [6.228838, 49.5388], [6.228918, 49.539177], [6.228968, 49.53932], [6.229013, 49.53942], [6.229032, 49.539455], [6.229078, 49.53953], [6.229147, 49.539616], [6.229284, 49.539738], [6.22957, 49.539936], [6.22978, 49.540077], [6.229818, 49.5401], [6.229986, 49.540207], [6.230062, 49.540253], [6.230116, 49.540287], [6.229891, 49.540367], [6.229395, 49.540535], [6.228693, 49.540806], [6.22838, 49.540966], [6.228617, 49.541256], [6.228754, 49.54143], [6.228857, 49.541553], [6.2292, 49.542046], [6.229418, 49.54233], [6.229383, 49.54235], [6.229196, 49.542454], [6.229044, 49.54255], [6.22888, 49.542667], [6.228819, 49.542713], [6.228697, 49.54281], [6.228647, 49.542847], [6.22859, 49.542892], [6.228399, 49.543064], [6.228338, 49.54312], [6.228281, 49.543175], [6.228235, 49.543217], [6.228151, 49.5433], [6.228254, 49.54336], [6.228464, 49.543476], [6.228846, 49.543694], [6.229231, 49.543915], [6.229376, 49.544003], [6.229494, 49.54407], [6.229876, 49.544292], [6.230135, 49.54444], [6.23036, 49.54458], [6.230169, 49.544716], [6.229963, 49.54487], [6.229765, 49.545013], [6.229643, 49.5451], [6.229521, 49.545193], [6.229372, 49.545303], [6.229265, 49.545383], [6.229002, 49.545288], [6.228697, 49.545177], [6.228449, 49.54507], [6.228018, 49.544888], [6.227632, 49.544716], [6.227503, 49.54466], [6.227476, 49.54469], [6.226927, 49.545242], [6.22666, 49.545506], [6.226538, 49.545628], [6.226442, 49.545727], [6.226236, 49.545933], [6.226091, 49.546085], [6.226046, 49.546135], [6.226011, 49.54617], [6.225779, 49.54642], [6.225668, 49.546543], [6.225573, 49.546646], [6.225466, 49.546764], [6.225359, 49.54688], [6.22526, 49.546986], [6.225504, 49.547066], [6.225908, 49.547203], [6.226309, 49.54735], [6.226458, 49.547417], [6.226168, 49.547504], [6.22579, 49.547615], [6.225676, 49.54765], [6.225515, 49.547703], [6.22537, 49.547756], [6.225183, 49.547844], [6.225138, 49.547863], [6.22502, 49.547935], [6.224897, 49.548008], [6.22476, 49.54811], [6.224798, 49.548195], [6.224722, 49.548267], [6.224516, 49.548477], [6.224413, 49.54858], [6.22436, 49.548637], [6.224337, 49.548664], [6.224302, 49.54871], [6.224268, 49.54875], [6.224234, 49.548794], [6.224142, 49.54893], [6.224123, 49.548965], [6.2241, 49.549004], [6.224066, 49.54907], [6.224039, 49.549118], [6.22402, 49.549168], [6.223993, 49.54923], [6.223974, 49.54928], [6.223967, 49.549294], [6.223959, 49.54932], [6.223944, 49.549385], [6.223913, 49.54946], [6.22389, 49.549522], [6.223841, 49.549644], [6.223825, 49.549675], [6.223822, 49.549686], [6.223738, 49.549828], [6.223715, 49.54984], [6.223425, 49.549957], [6.223379, 49.54998], [6.223181, 49.550095], [6.222933, 49.55027], [6.222902, 49.55029], [6.222708, 49.55041], [6.222689, 49.550423], [6.222639, 49.550453], [6.222494, 49.550533], [6.222372, 49.550602], [6.222311, 49.550632], [6.222246, 49.55067], [6.222174, 49.550724], [6.222082, 49.550846], [6.222052, 49.550873], [6.221945, 49.550938], [6.221827, 49.551006], [6.2218, 49.55102], [6.221537, 49.551247], [6.221491, 49.551285], [6.221411, 49.551357], [6.221224, 49.55152], [6.221205, 49.55154], [6.220999, 49.551723], [6.220766, 49.551918], [6.220621, 49.552044], [6.220453, 49.552464], [6.220385, 49.55263], [6.220293, 49.552845], [6.220224, 49.553013], [6.220079, 49.553314], [6.219889, 49.553646], [6.219797, 49.55379], [6.219644, 49.553986], [6.21961, 49.55405], [6.219591, 49.5541], [6.219564, 49.554245], [6.219511, 49.554523], [6.219431, 49.55465], [6.219259, 49.55492], [6.219217, 49.55499]]]]}}]}