{"type": "FeatureCollection", "features": [{"type": "Feature", "properties": {"name": "Ernster"}, "geometry": {"type": "Polygon", "coordinates": [[[6.2670815, 49.6707093], [6.2668108, 49.6710328], [6.2663462, 49.6715879], [6.2644269, 49.6714926], [6.2637507, 49.6714003], [6.2624924, 49.6712191], [6.2620464, 49.671155], [6.2610491, 49.6710853], [6.2595751, 49.6709942], [6.2588148, 49.6714101], [6.2582145, 49.6717385], [6.2579147, 49.672001], [6.2577963, 49.6721046], [6.2577442, 49.6721503], [6.2573905, 49.6723298], [6.2571911, 49.672431], [6.2570889, 49.6724855], [6.2568826, 49.6725953], [6.2562339, 49.6726936], [6.2555711, 49.6727961], [6.2555126, 49.6728037], [6.255452, 49.6728115], [6.2551532, 49.6728577], [6.2551204, 49.6728173], [6.2551007, 49.6727928], [6.2550234, 49.6728296], [6.2548875, 49.6729313], [6.2541812, 49.6734718], [6.2541081, 49.6735311], [6.2540119, 49.6735817], [6.2539034, 49.6736223], [6.2537493, 49.6736627], [6.2535342, 49.6736995], [6.2533006, 49.6737237], [6.2523021, 49.6738324], [6.2519477, 49.6738908], [6.2517183, 49.6739453], [6.2513721, 49.6740492], [6.2511264, 49.6741492], [6.2508233, 49.6742733], [6.2507127, 49.6743125], [6.2505547, 49.6743476], [6.2503908, 49.6743654], [6.25019, 49.6743757], [6.2499708, 49.6743998], [6.249725, 49.6744417], [6.2495263, 49.6744912], [6.2493139, 49.674544], [6.249062, 49.6745947], [6.2488551, 49.6746252], [6.2486276, 49.6746405], [6.248422, 49.6746592], [6.2480396, 49.6746736], [6.2477345, 49.6746855], [6.2474132, 49.6746585], [6.2469795, 49.6746073], [6.2466131, 49.6745535], [6.2463987, 49.6745099], [6.246206, 49.6744693], [6.2459783, 49.6743989], [6.2458011, 49.6743405], [6.2454198, 49.6741954], [6.2452055, 49.6741092], [6.2450047, 49.6740096], [6.2448026, 49.6739068], [6.2445997, 49.6737914], [6.2444487, 49.6737009], [6.244252, 49.6735848], [6.243795, 49.6733521], [6.2434054, 49.6731657], [6.2429918, 49.6730074], [6.2426608, 49.6728883], [6.2420471, 49.6726971], [6.2417081, 49.6725771], [6.2411301, 49.6723701], [6.2408532, 49.6722685], [6.2401758, 49.6720439], [6.2392138, 49.6717503], [6.2380486, 49.671402], [6.2376468, 49.6712857], [6.237364, 49.6712112], [6.2370993, 49.6711401], [6.2369674, 49.6711136], [6.2368125, 49.6710863], [6.2366597, 49.6710682], [6.2365318, 49.671065], [6.2364012, 49.6710592], [6.2362639, 49.6710543], [6.2361494, 49.6710444], [6.2360917, 49.6710388], [6.2359867, 49.6710001], [6.2358971, 49.6709378], [6.2358153, 49.6708465], [6.2357486, 49.6708618], [6.2356687, 49.6708733], [6.2356258, 49.6708781], [6.2355199, 49.6708899], [6.2355113, 49.6708904], [6.2354536, 49.6708937], [6.2354382, 49.6708946], [6.2354195, 49.6708935], [6.2353659, 49.6708904], [6.2352761, 49.6708853], [6.2351331, 49.6708701], [6.2349157, 49.670842], [6.2347251, 49.6708256], [6.2345077, 49.6708105], [6.2342923, 49.6708047], [6.2341054, 49.670806], [6.2337238, 49.6708204], [6.2333712, 49.6708382], [6.2331615, 49.6708595], [6.2330428, 49.6708418], [6.2329151, 49.6708227], [6.2327991, 49.6708649], [6.2327592, 49.6708704], [6.2325719, 49.6708715], [6.232446, 49.670863], [6.2318945, 49.6708162], [6.2315809, 49.6707893], [6.2314145, 49.6707828], [6.2312107, 49.6707773], [6.2311238, 49.6707848], [6.2304033, 49.6708546], [6.2301305, 49.6709719], [6.2300586, 49.6709955], [6.2299642, 49.6710201], [6.2298908, 49.6710315], [6.2297867, 49.6710413], [6.2297499, 49.6710448], [6.2296173, 49.6710495], [6.2295184, 49.6710524], [6.2292876, 49.6710337], [6.2289609, 49.670997], [6.228623, 49.6709596], [6.2284956, 49.6709483], [6.2283278, 49.670938], [6.2281764, 49.6709315], [6.2278752, 49.670925], [6.2275034, 49.6709138], [6.2274461, 49.6709121], [6.2267612, 49.6708955], [6.2265729, 49.670493], [6.2265354, 49.6704228], [6.2264149, 49.6704186], [6.2263019, 49.6704147], [6.22617, 49.6704101], [6.2260634, 49.6704064], [6.225966, 49.6704031], [6.2258827, 49.6703996], [6.2257888, 49.6703957], [6.2256902, 49.6703916], [6.2255909, 49.6703875], [6.2255376, 49.6703853], [6.2255152, 49.6703844], [6.2252643, 49.6706958], [6.2236785, 49.6705121], [6.2229933, 49.6705534], [6.2226645, 49.6705756], [6.222085, 49.6706147], [6.2215683, 49.6704598], [6.2212372, 49.6706505], [6.2212501, 49.6706823], [6.2214116, 49.6710804], [6.2213179, 49.6714697], [6.2212896, 49.6715613], [6.2211685, 49.6718921], [6.2211118, 49.6720171], [6.2210521, 49.6721455], [6.2209817, 49.6722692], [6.2209138, 49.6723745], [6.2208471, 49.6724777], [6.2208446, 49.6728605], [6.2208344, 49.6731242], [6.2208141, 49.6732916], [6.2207987, 49.6734185], [6.2207601, 49.6737475], [6.2207423, 49.6738841], [6.2206929, 49.6739464], [6.2206614, 49.6739786], [6.220612, 49.6740182], [6.2199555, 49.6738728], [6.2198543, 49.6739399], [6.219748, 49.6740103], [6.2196232, 49.674093], [6.2195425, 49.6741465], [6.2195067, 49.6741701], [6.2193537, 49.6742709], [6.219194, 49.6743762], [6.2191391, 49.6744123], [6.2190857, 49.6744475], [6.2188899, 49.6745744], [6.2185257, 49.6748103], [6.2184524, 49.6748578], [6.2183022, 49.6749573], [6.2182336, 49.6750027], [6.2181759, 49.6750409], [6.2184993, 49.6752195], [6.218488, 49.6752417], [6.2187376, 49.675294], [6.2193709, 49.6756316], [6.2193593, 49.6756569], [6.219292, 49.6758079], [6.2192426, 49.6759363], [6.2191962, 49.6760578], [6.2191543, 49.6761599], [6.2190766, 49.6763643], [6.2190362, 49.6764673], [6.218942, 49.6767315], [6.2188852, 49.6768908], [6.2188283, 49.6770515], [6.218806, 49.6771171], [6.2187851, 49.6771832], [6.2187557, 49.6772616], [6.2187208, 49.6773643], [6.2186856, 49.6774615], [6.2186118, 49.6777038], [6.2185855, 49.6777738], [6.2200324, 49.6790982], [6.2210752, 49.6800836], [6.2214774, 49.6804656], [6.2223353, 49.6812683], [6.2231655, 49.6820249], [6.2233096, 49.6824779], [6.2236184, 49.6832108], [6.2236101, 49.6832679], [6.2235743, 49.6835133], [6.2242985, 49.683429], [6.2245476, 49.6839648], [6.2246788, 49.684213], [6.224749, 49.6843554], [6.2249187, 49.6846263], [6.2250981, 49.6848434], [6.225284, 49.6850251], [6.2253821, 49.6850547], [6.2257263, 49.6851387], [6.2259686, 49.6851872], [6.2262695, 49.6852321], [6.2264426, 49.6852521], [6.226631, 49.6852615], [6.2267848, 49.6852555], [6.2270183, 49.6851996], [6.2273489, 49.6851639], [6.2274173, 49.6851532], [6.2277365, 49.6852514], [6.2285717, 49.6852024], [6.2293317, 49.685145], [6.2302568, 49.6850618], [6.2309006, 49.6849833], [6.2311831, 49.6849452], [6.2315996, 49.6848845], [6.2317591, 49.684869], [6.2317527, 49.6848498], [6.2318046, 49.68487], [6.2319834, 49.6849256], [6.232106, 49.6849574], [6.2325382, 49.6850649], [6.2328151, 49.685124], [6.2330381, 49.685157], [6.2332668, 49.6851865], [6.2334898, 49.6852077], [6.2340208, 49.6852334], [6.2342726, 49.6852403], [6.2342975, 49.6852024], [6.2345159, 49.6849188], [6.2350084, 49.6842854], [6.2354508, 49.6837218], [6.2358408, 49.6836516], [6.2362168, 49.6835698], [6.2366414, 49.6834736], [6.237069, 49.6833951], [6.2371555, 49.6833903], [6.2372996, 49.6833855], [6.2374706, 49.6833842], [6.2377128, 49.6833971], [6.2378224, 49.6834125], [6.2381692, 49.6834712], [6.2383172, 49.6835066], [6.2386345, 49.6835977], [6.2388306, 49.6836568], [6.2390747, 49.6837171], [6.2394829, 49.6838219], [6.2399866, 49.6839342], [6.2411626, 49.6841753], [6.2411947, 49.6841832], [6.2411966, 49.6840659], [6.2411335, 49.6839629], [6.2423412, 49.6842496], [6.2428111, 49.6843592], [6.2436994, 49.6845696], [6.2443693, 49.6847312], [6.2447019, 49.6848092], [6.2452989, 49.6849459], [6.2456007, 49.6850085], [6.2458718, 49.6850557], [6.246816, 49.685186], [6.2474081, 49.6852851], [6.2476875, 49.6853573], [6.2478502, 49.685397], [6.2479352, 49.6854226], [6.2484516, 49.6855948], [6.2487044, 49.68576], [6.2488783, 49.6856062], [6.2491232, 49.6853792], [6.2492004, 49.6852875], [6.2492551, 49.685208], [6.2493549, 49.6850348], [6.2494047, 49.6849024], [6.2494355, 49.6847813], [6.2494424, 49.6846152], [6.2495175, 49.6846203], [6.2495448, 49.684624], [6.249901, 49.6846568], [6.2500823, 49.6846905], [6.2504195, 49.6847299], [6.2508228, 49.6847252], [6.251033, 49.6847146], [6.251202, 49.684708], [6.2517082, 49.6846996], [6.2521288, 49.6846886], [6.2522538, 49.6847615], [6.2527806, 49.6851281], [6.2530354, 49.6851253], [6.2532886, 49.6848699], [6.2535792, 49.684953], [6.2539483, 49.6850466], [6.2544295, 49.6851664], [6.2546527, 49.6852363], [6.2550275, 49.6853619], [6.2555351, 49.6855381], [6.256043, 49.6852742], [6.2563484, 49.6853752], [6.2565219, 49.6854348], [6.256619, 49.6854737], [6.256706, 49.6855133], [6.2568098, 49.6855701], [6.2568719, 49.6856097], [6.2569363, 49.6856563], [6.2569959, 49.6857123], [6.2570344, 49.6857547], [6.2572164, 49.6859376], [6.2575432, 49.6862868], [6.2578538, 49.6861101], [6.2579801, 49.686071], [6.2580853, 49.686032], [6.2582773, 49.6859652], [6.2584757, 49.6858992], [6.2586516, 49.6858313], [6.2587773, 49.6857713], [6.2590012, 49.6856431], [6.2592957, 49.6854574], [6.259489, 49.6853206], [6.259984, 49.6849451], [6.2608021, 49.6847415], [6.2611443, 49.6844501], [6.261332, 49.6843845], [6.2620482, 49.6841446], [6.2621765, 49.6840979], [6.2627164, 49.6842196], [6.2629878, 49.6842824], [6.2631713, 49.6843289], [6.2632849, 49.6843451], [6.2634929, 49.6843667], [6.2637079, 49.6843844], [6.2638639, 49.6843935], [6.263834, 49.6841205], [6.2638992, 49.6841112], [6.2640075, 49.684091], [6.2640815, 49.6840665], [6.2641763, 49.6840214], [6.2643074, 49.6839382], [6.2644568, 49.6838382], [6.2645395, 49.6837675], [6.2651878, 49.6830662], [6.2657028, 49.6824382], [6.2658837, 49.6822134], [6.265952, 49.6821339], [6.2661815, 49.6819213], [6.2664161, 49.6817254], [6.2665964, 49.6815873], [6.2669382, 49.6813408], [6.2672306, 49.6811356], [6.2673309, 49.6810627], [6.2673872, 49.6810121], [6.2674011, 49.6809797], [6.2674147, 49.6807193], [6.2674163, 49.680633], [6.2674645, 49.6800999], [6.2674845, 49.6799586], [6.2675177, 49.6798183], [6.2676888, 49.6792082], [6.2677306, 49.6790239], [6.2677463, 49.6789185], [6.2677589, 49.6786153], [6.2677642, 49.6782426], [6.267762, 49.6780182], [6.2677769, 49.6779497], [6.267805, 49.6779106], [6.2679243, 49.6777603], [6.2679867, 49.6776859], [6.2680104, 49.6776467], [6.2680656, 49.6775379], [6.2681279, 49.6773933], [6.2682056, 49.6771947], [6.2682887, 49.6769648], [6.2683044, 49.6768952], [6.2683201, 49.6768114], [6.2683374, 49.6766462], [6.2683486, 49.67657], [6.2683618, 49.6765206], [6.2683767, 49.6764901], [6.2684118, 49.6764309], [6.2685522, 49.6762604], [6.2687057, 49.6761083], [6.2690917, 49.6765968], [6.2694377, 49.6770891], [6.2698633, 49.6776852], [6.2700239, 49.6779041], [6.2703524, 49.6777292], [6.27075, 49.6775014], [6.2713418, 49.6771232], [6.2712051, 49.6769631], [6.2715757, 49.6762943], [6.271707, 49.6760845], [6.2718661, 49.6758513], [6.2720938, 49.6755303], [6.2724149, 49.6750518], [6.2736317, 49.6754148], [6.2736423, 49.675418], [6.2736415, 49.6754337], [6.2743056, 49.6755825], [6.2741032, 49.6760011], [6.2746708, 49.6763154], [6.2750377, 49.676502], [6.2753875, 49.6766837], [6.275542, 49.6767677], [6.2758669, 49.6769352], [6.2761414, 49.6770675], [6.2763428, 49.6771616], [6.2765562, 49.6772529], [6.2771188, 49.6774529], [6.2773758, 49.6775913], [6.2779307, 49.6778997], [6.2780063, 49.677759], [6.2780464, 49.6775945], [6.2781004, 49.6773764], [6.2781592, 49.6771393], [6.2782165, 49.6769079], [6.2782721, 49.6766836], [6.2783419, 49.6764186], [6.2783905, 49.676234], [6.2784495, 49.6760102], [6.2784629, 49.6759131], [6.2784654, 49.6758127], [6.2784539, 49.6755593], [6.2784502, 49.6753112], [6.2784467, 49.6750757], [6.2784443, 49.6749209], [6.2784358, 49.6747502], [6.2784244, 49.6745143], [6.2784347, 49.6742407], [6.278443, 49.6740246], [6.2784517, 49.6737994], [6.2784602, 49.6735789], [6.2784628, 49.6735438], [6.2784671, 49.6735223], [6.2784789, 49.6734618], [6.2785085, 49.6733363], [6.2784727, 49.6733371], [6.2784358, 49.6733298], [6.2784178, 49.6733201], [6.2783873, 49.6733111], [6.2783468, 49.6733021], [6.2783046, 49.6733005], [6.2782458, 49.6733084], [6.2782116, 49.6733068], [6.27819, 49.6733045], [6.2781711, 49.6732943], [6.2781468, 49.673278], [6.2781207, 49.6732667], [6.2780839, 49.6732684], [6.2780695, 49.6732735], [6.2780507, 49.6732837], [6.2780363, 49.6732911], [6.2780166, 49.6732928], [6.2780004, 49.6732872], [6.2779887, 49.6732792], [6.2779842, 49.6732645], [6.2779778, 49.6732561], [6.2779599, 49.6732532], [6.2779473, 49.6732538], [6.2779302, 49.6732612], [6.2779231, 49.6732697], [6.2779303, 49.673281], [6.2779285, 49.6732923], [6.2779195, 49.6732946], [6.2779015, 49.6732884], [6.2778853, 49.6732793], [6.2778817, 49.6732658], [6.2778736, 49.6732471], [6.2778538, 49.6732403], [6.2778313, 49.673229], [6.2778214, 49.6732183], [6.2778094, 49.6731976], [6.2777905, 49.6731903], [6.2777635, 49.6731796], [6.2777455, 49.6731711], [6.2777302, 49.67317], [6.2777105, 49.6731751], [6.2776961, 49.6731864], [6.2776971, 49.6732062], [6.2776809, 49.6732271], [6.2776666, 49.6732362], [6.2776477, 49.6732351], [6.2776279, 49.67323], [6.2776099, 49.6732193], [6.2775955, 49.6731972], [6.2775802, 49.6731865], [6.2775514, 49.6731798], [6.2775029, 49.6731787], [6.2774723, 49.6731798], [6.2774463, 49.6731765], [6.2774247, 49.6731708], [6.2774031, 49.6731612], [6.2773851, 49.6731426], [6.2773815, 49.6731273], [6.2773769, 49.6731075], [6.2773598, 49.6730917], [6.2773391, 49.6730844], [6.2773086, 49.6730827], [6.277278, 49.6730811], [6.2772151, 49.6730732], [6.2771926, 49.6730738], [6.2771732, 49.6730814], [6.2771086, 49.6731315], [6.2770938, 49.67314], [6.2770642, 49.67314], [6.2770372, 49.6731316], [6.2770089, 49.6731087], [6.2769967, 49.673079], [6.2769899, 49.673062], [6.276967, 49.6730502], [6.2769373, 49.6730442], [6.2769103, 49.6730477], [6.2768848, 49.6730587], [6.2768524, 49.6730664], [6.2768309, 49.673069], [6.2768147, 49.6730639], [6.2768025, 49.6730469], [6.2767917, 49.6730384], [6.2767782, 49.6730368], [6.2767486, 49.6730376], [6.2767243, 49.6730317], [6.2766447, 49.6729851], [6.2766049, 49.6729675], [6.2765699, 49.6729632], [6.2765321, 49.6729633], [6.2764984, 49.6729676], [6.2764661, 49.6729769], [6.276419, 49.6730084], [6.2763934, 49.6730237], [6.2763638, 49.673033], [6.2763342, 49.6730373], [6.2763153, 49.6730288], [6.2763085, 49.6730093], [6.2763206, 49.6729822], [6.2763273, 49.6729669], [6.2763232, 49.672955], [6.2763043, 49.6729423], [6.2762747, 49.6729364], [6.2761938, 49.6729475], [6.2761615, 49.6729619], [6.27614, 49.6729764], [6.2761104, 49.6730019], [6.2760821, 49.6730104], [6.2760646, 49.6730045], [6.2760517, 49.6729944], [6.276049, 49.6729604], [6.2760327, 49.6729154], [6.2760124, 49.6729036], [6.2759868, 49.6729019], [6.2759545, 49.6729096], [6.2759303, 49.672924], [6.2758765, 49.6729674], [6.2758522, 49.6729742], [6.2758212, 49.6729751], [6.2757889, 49.6729674], [6.2757659, 49.672953], [6.275751, 49.6729301], [6.2757483, 49.6729047], [6.2757239, 49.6728521], [6.2757023, 49.6728232], [6.2756699, 49.6728097], [6.2756349, 49.6728012], [6.2756012, 49.6728072], [6.2755568, 49.6728234], [6.2755272, 49.6728455], [6.2755002, 49.6728565], [6.2754746, 49.6728633], [6.2754409, 49.6728608], [6.2754207, 49.6728507], [6.2754126, 49.6728345], [6.2754146, 49.6728104], [6.2754024, 49.6727884], [6.2753767, 49.6727706], [6.275374, 49.6727553], [6.2753686, 49.6727417], [6.2753524, 49.6727298], [6.2753227, 49.6727205], [6.2752904, 49.6727172], [6.2752473, 49.6727223], [6.2752109, 49.6727317], [6.2751812, 49.6727326], [6.2751327, 49.672725], [6.2750869, 49.672708], [6.2750437, 49.6726834], [6.2750153, 49.6726529], [6.2749694, 49.6726131], [6.2749168, 49.6725809], [6.2748894, 49.6725674], [6.2748726, 49.6725591], [6.2748389, 49.6725524], [6.274785, 49.6725456], [6.2747311, 49.6725347], [6.2746838, 49.6725203], [6.2746232, 49.672494], [6.2745436, 49.6724644], [6.2744896, 49.6724475], [6.2744398, 49.6724433], [6.2743885, 49.6724425], [6.2743575, 49.6724357], [6.274327, 49.672419], [6.2742704, 49.6724216], [6.2742407, 49.6724182], [6.2742205, 49.6724123], [6.2742016, 49.6724013], [6.2741921, 49.6723817], [6.2741705, 49.6723639], [6.2741489, 49.6723546], [6.2741099, 49.6723615], [6.2740951, 49.6723725], [6.2740857, 49.6723852], [6.2740641, 49.6723921], [6.2740331, 49.6723946], [6.2739954, 49.672393], [6.2739496, 49.6723811], [6.2738518, 49.6723441], [6.2737762, 49.6723154], [6.2737493, 49.6723052], [6.2736967, 49.6722942], [6.2736684, 49.6722934], [6.2736428, 49.6723036], [6.2736092, 49.672307], [6.2735835, 49.6723054], [6.2735525, 49.6722952], [6.2735269, 49.6722723], [6.2734999, 49.6722545], [6.2734648, 49.6722477], [6.2734271, 49.672252], [6.2733826, 49.6722487], [6.2733516, 49.6722427], [6.2733273, 49.6722309], [6.273303, 49.6722046], [6.2732781, 49.6721887], [6.2732376, 49.6721811], [6.2731878, 49.6721769], [6.2731399, 49.6721838], [6.2730881, 49.6721846], [6.273053, 49.6721728], [6.2730233, 49.672155], [6.2730071, 49.6721253], [6.2730016, 49.6721007], [6.2729854, 49.6720871], [6.2729517, 49.6720787], [6.2728978, 49.672077], [6.2728533, 49.6720737], [6.272825, 49.6720652], [6.2728155, 49.6720525], [6.2728128, 49.6720245], [6.2728006, 49.6720117], [6.272775, 49.6720024], [6.272748, 49.6719957], [6.2727184, 49.6719974], [6.2726901, 49.6720127], [6.2726592, 49.6720238], [6.2726187, 49.6720306], [6.2725716, 49.6720264], [6.2725236, 49.6720148], [6.2724454, 49.6719886], [6.2723821, 49.6719776], [6.272351, 49.6719657], [6.2722391, 49.671937], [6.2721838, 49.671926], [6.2721555, 49.6719269], [6.2720612, 49.6719363], [6.2719817, 49.6719474], [6.2719507, 49.6719466], [6.2719251, 49.6719398], [6.2719143, 49.6719297], [6.2719129, 49.6719085], [6.2719142, 49.6718839], [6.2719048, 49.6718703], [6.2718818, 49.6718602], [6.2718508, 49.6718551], [6.2718225, 49.6718534], [6.2717768, 49.6718526], [6.2717228, 49.671851], [6.2716878, 49.6718425], [6.2716312, 49.6718349], [6.2715617, 49.6718202], [6.2714909, 49.6717986], [6.2714282, 49.6717669], [6.2713432, 49.6717249], [6.2713088, 49.6717097], [6.2712583, 49.671697], [6.2711936, 49.671692], [6.2709894, 49.6716565], [6.2708701, 49.6716362], [6.2706801, 49.6716008], [6.2704891, 49.671558], [6.269753, 49.6713945], [6.2694841, 49.671331], [6.2694194, 49.6713158], [6.2693279, 49.6712886], [6.2687144, 49.6710815], [6.2686236, 49.6710508], [6.2680318, 49.670851], [6.2680062, 49.6708585], [6.2679833, 49.6708602], [6.2679698, 49.6708543], [6.2679549, 49.6708398], [6.2679148, 49.6707863], [6.2678892, 49.6707779], [6.2678608, 49.6707804], [6.2678406, 49.6707907], [6.2678326, 49.6708051], [6.2678258, 49.6708136], [6.2678083, 49.670817], [6.2677813, 49.670817], [6.2677556, 49.6708137], [6.2676962, 49.6707933], [6.2676719, 49.6707815], [6.2676503, 49.6707798], [6.2676287, 49.6707832], [6.2676072, 49.6707892], [6.2675802, 49.6708036], [6.26756, 49.6708113], [6.267533, 49.6708122], [6.2675019, 49.6708062], [6.2674736, 49.6707952], [6.2674371, 49.6707749], [6.2674047, 49.6707554], [6.267379, 49.6707494], [6.2673507, 49.670752], [6.2673291, 49.6707631], [6.2673103, 49.6707673], [6.2672779, 49.670764], [6.2672428, 49.6707538], [6.2671982, 49.6707369], [6.2671631, 49.6707216], [6.2670815, 49.6707093]]]}}]}