{"type": "FeatureCollection", "features": [{"type": "Feature", "properties": {"name": "Oberanven"}, "geometry": {"type": "Polygon", "coordinates": [[[6.2330428, 49.6708418], [6.2331615, 49.6708595], [6.2333712, 49.6708382], [6.2337238, 49.6708204], [6.2341054, 49.670806], [6.2342923, 49.6708047], [6.2345077, 49.6708105], [6.2347251, 49.6708256], [6.2349157, 49.670842], [6.2351331, 49.6708701], [6.2352761, 49.6708853], [6.2353659, 49.6708904], [6.2354195, 49.6708935], [6.2354382, 49.6708946], [6.2354536, 49.6708937], [6.2355113, 49.6708904], [6.2355199, 49.6708899], [6.2356258, 49.6708781], [6.2356687, 49.6708733], [6.2357486, 49.6708618], [6.2358153, 49.6708465], [6.2358971, 49.6709378], [6.2359867, 49.6710001], [6.2360917, 49.6710388], [6.2361494, 49.6710444], [6.2362639, 49.6710543], [6.2364012, 49.6710592], [6.2365318, 49.671065], [6.2366597, 49.6710682], [6.2368125, 49.6710863], [6.2369674, 49.6711136], [6.2370993, 49.6711401], [6.237364, 49.6712112], [6.2376468, 49.6712857], [6.2380486, 49.671402], [6.2392138, 49.6717503], [6.2401758, 49.6720439], [6.2408532, 49.6722685], [6.2411301, 49.6723701], [6.2417081, 49.6725771], [6.2420471, 49.6726971], [6.2426608, 49.6728883], [6.2429918, 49.6730074], [6.2434054, 49.6731657], [6.243795, 49.6733521], [6.244252, 49.6735848], [6.2444487, 49.6737009], [6.2445997, 49.6737914], [6.2448026, 49.6739068], [6.2450047, 49.6740096], [6.2452055, 49.6741092], [6.2454198, 49.6741954], [6.2458011, 49.6743405], [6.2459783, 49.6743989], [6.246206, 49.6744693], [6.2463987, 49.6745099], [6.2466131, 49.6745535], [6.2469795, 49.6746073], [6.2474132, 49.6746585], [6.2477345, 49.6746855], [6.2480396, 49.6746736], [6.248422, 49.6746592], [6.2486276, 49.6746405], [6.2488551, 49.6746252], [6.249062, 49.6745947], [6.2493139, 49.674544], [6.2495263, 49.6744912], [6.249725, 49.6744417], [6.2499708, 49.6743998], [6.25019, 49.6743757], [6.2503908, 49.6743654], [6.2505547, 49.6743476], [6.2507127, 49.6743125], [6.2508233, 49.6742733], [6.2511264, 49.6741492], [6.2513721, 49.6740492], [6.2517183, 49.6739453], [6.2519477, 49.6738908], [6.2523021, 49.6738324], [6.2533006, 49.6737237], [6.2535342, 49.6736995], [6.2537493, 49.6736627], [6.2539034, 49.6736223], [6.2540119, 49.6735817], [6.2541081, 49.6735311], [6.2541812, 49.6734718], [6.2548875, 49.6729313], [6.2550234, 49.6728296], [6.2551007, 49.6727928], [6.2551204, 49.6728173], [6.2551532, 49.6728577], [6.255452, 49.6728115], [6.2555126, 49.6728037], [6.2555711, 49.6727961], [6.2562339, 49.6726936], [6.2568826, 49.6725953], [6.2570889, 49.6724855], [6.2571911, 49.672431], [6.2573905, 49.6723298], [6.2577442, 49.6721503], [6.2577963, 49.6721046], [6.2579147, 49.672001], [6.2582145, 49.6717385], [6.2588148, 49.6714101], [6.2595751, 49.6709942], [6.2610491, 49.6710853], [6.2620464, 49.671155], [6.2624924, 49.6712191], [6.2637507, 49.6714003], [6.2644269, 49.6714926], [6.2663462, 49.6715879], [6.2668108, 49.6710328], [6.2670815, 49.6707093], [6.2661886, 49.6699251], [6.265157, 49.6690577], [6.2644704, 49.6684801], [6.2638217, 49.6680981], [6.2630514, 49.6676464], [6.2623772, 49.6673334], [6.2615851, 49.6669782], [6.2617991, 49.6665727], [6.2620592, 49.6660662], [6.260574, 49.6654975], [6.259887, 49.6649499], [6.2594409, 49.6645957], [6.2596662, 49.6637358], [6.2597507, 49.6634075], [6.2598514, 49.6630741], [6.2598875, 49.6629525], [6.2601336, 49.6625032], [6.260358, 49.6621051], [6.2601189, 49.6619648], [6.2601104, 49.6619529], [6.2600297, 49.661745], [6.259934, 49.6615001], [6.2598172, 49.6612038], [6.2597104, 49.6609262], [6.2595855, 49.660956], [6.2594778, 49.6607189], [6.2593235, 49.6603808], [6.2591736, 49.66004], [6.2590156, 49.6596948], [6.2591556, 49.659589], [6.2592641, 49.659516], [6.2593834, 49.6594463], [6.2595486, 49.6593702], [6.2596932, 49.6593119], [6.2598207, 49.6592662], [6.2598864, 49.6592362], [6.2599199, 49.6592157], [6.2599334, 49.6592014], [6.259937, 49.659182], [6.2599288, 49.6591541], [6.2599161, 49.6591262], [6.2598435, 49.6589931], [6.2598326, 49.65896], [6.2598189, 49.6589119], [6.2598225, 49.6588806], [6.2598378, 49.6588544], [6.2598505, 49.658827], [6.2598567, 49.6587911], [6.2598512, 49.6587563], [6.2598349, 49.6587174], [6.2598095, 49.6586849], [6.2597678, 49.6586519], [6.2595703, 49.6585232], [6.25949, 49.6584684], [6.2594138, 49.6584069], [6.2593431, 49.6583396], [6.2593104, 49.6582906], [6.2592461, 49.6581685], [6.2591962, 49.6580995], [6.259104, 49.6579974], [6.2590496, 49.657929], [6.2589825, 49.6578407], [6.2589009, 49.657726], [6.2588711, 49.6576776], [6.2588518, 49.6576308], [6.258829, 49.657576], [6.2588254, 49.6575193], [6.2588236, 49.6574386], [6.2588297, 49.6571591], [6.258832, 49.6570376], [6.2588339, 49.6568792], [6.2588016, 49.6567683], [6.2587821, 49.656724], [6.2587779, 49.6567091], [6.2587238, 49.6565955], [6.2586346, 49.6564249], [6.2585368, 49.6562576], [6.2584239, 49.6560562], [6.2582972, 49.6558491], [6.2581638, 49.6556378], [6.2580774, 49.6555104], [6.2580428, 49.6554758], [6.2576635, 49.6552907], [6.2575565, 49.6552527], [6.2574017, 49.6551694], [6.2565399, 49.6544655], [6.2564103, 49.6543658], [6.2563352, 49.654302], [6.2562641, 49.6542429], [6.2562147, 49.6541921], [6.2561822, 49.6541688], [6.2561363, 49.6541374], [6.2558627, 49.6539608], [6.2556704, 49.6538558], [6.2554264, 49.6537209], [6.2550983, 49.6535509], [6.2549212, 49.6534582], [6.2548307, 49.6534108], [6.2547393, 49.6533669], [6.2545156, 49.653248], [6.2542933, 49.653127], [6.2542829, 49.6531138], [6.2542213, 49.6530497], [6.2541824, 49.6530155], [6.2541477, 49.6529899], [6.2541016, 49.6529662], [6.2540482, 49.6529423], [6.2539912, 49.6529195], [6.2539411, 49.652903], [6.2539058, 49.6528932], [6.253875, 49.652886], [6.2536936, 49.6527881], [6.2536283, 49.6527525], [6.2535587, 49.6527069], [6.253533, 49.6526882], [6.253354, 49.652796], [6.2533212, 49.6527767], [6.2533176, 49.6527743], [6.2532186, 49.652707], [6.2527334, 49.6523772], [6.2527256, 49.6523719], [6.2529328, 49.652194], [6.2532468, 49.6519583], [6.2535508, 49.651774], [6.253948, 49.651524], [6.2542593, 49.6513277], [6.2544192, 49.6512387], [6.2547623, 49.651064], [6.2547766, 49.6510424], [6.25482, 49.6509454], [6.2538123, 49.6507115], [6.2531216, 49.6505822], [6.2531096, 49.6505805], [6.2511069, 49.6502905], [6.248573, 49.6499299], [6.2476125, 49.6498254], [6.2475311, 49.649813], [6.2475099, 49.6498534], [6.2474888, 49.6498991], [6.2474795, 49.6499192], [6.2474061, 49.6499176], [6.2472774, 49.6499147], [6.2470016, 49.6499076], [6.2469364, 49.6499065], [6.2466457, 49.6499018], [6.2466384, 49.6499226], [6.2466244, 49.6499624], [6.2463366, 49.6499584], [6.2457384, 49.6499354], [6.2456041, 49.6499302], [6.2437949, 49.649819], [6.2432039, 49.6497907], [6.2423933, 49.6496153], [6.2418293, 49.6494955], [6.2414171, 49.6494443], [6.2410304, 49.6493383], [6.240622, 49.6492081], [6.2400561, 49.648952], [6.2396475, 49.6487371], [6.2393537, 49.6486168], [6.2388166, 49.6484064], [6.238408, 49.6482826], [6.2381009, 49.6482283], [6.2377243, 49.648204], [6.2374074, 49.6481754], [6.2370723, 49.6481871], [6.236789, 49.6482065], [6.2365467, 49.6482333], [6.2363581, 49.6482514], [6.2361691, 49.6482746], [6.2359257, 49.6483275], [6.2357782, 49.6483787], [6.235611, 49.6484501], [6.2354415, 49.6485525], [6.2353039, 49.6486657], [6.2351816, 49.6487842], [6.235103, 49.6489067], [6.2350319, 49.6490602], [6.2349219, 49.649352], [6.2348092, 49.6497069], [6.2347396, 49.649917], [6.2346258, 49.6501654], [6.2344655, 49.6504263], [6.2343558, 49.6505494], [6.2342655, 49.650632], [6.2340935, 49.6507468], [6.233892, 49.6508523], [6.2331435, 49.6511109], [6.2321193, 49.6514225], [6.2317332, 49.6515003], [6.2312906, 49.6515718], [6.2309916, 49.651609], [6.2305612, 49.6516434], [6.2300382, 49.6516573], [6.2296874, 49.651655], [6.2295254, 49.6516508], [6.2293497, 49.6516385], [6.2291962, 49.651632], [6.2290569, 49.651601], [6.2288004, 49.6515312], [6.2284546, 49.6513183], [6.2279264, 49.6510707], [6.2274291, 49.6508223], [6.2271348, 49.650601], [6.2269527, 49.6504744], [6.2266979, 49.6502304], [6.2262997, 49.6498668], [6.2261436, 49.6496977], [6.2261021, 49.6496996], [6.2259799, 49.64979], [6.2256449, 49.6496053], [6.2252285, 49.6493715], [6.2250186, 49.649253], [6.2247938, 49.6494143], [6.2247105, 49.6494756], [6.2244539, 49.6496871], [6.2244194, 49.6497371], [6.2243955, 49.6497911], [6.2243821, 49.6498472], [6.2244002, 49.6499185], [6.2244252, 49.6499746], [6.2244816, 49.6500414], [6.2245519, 49.6500889], [6.2246394, 49.6501255], [6.2247478, 49.6501557], [6.2248979, 49.6501684], [6.2250958, 49.6505583], [6.2251847, 49.6511849], [6.2252354, 49.6512619], [6.2252527, 49.6514453], [6.225256, 49.6514851], [6.2253252, 49.6514939], [6.2254636, 49.6516637], [6.2255187, 49.651735], [6.2255455, 49.6517981], [6.2256276, 49.6519084], [6.2255393, 49.6523684], [6.2253928, 49.6526929], [6.2253817, 49.6528909], [6.2252359, 49.6535162], [6.2251115, 49.6537965], [6.2249969, 49.6540785], [6.2248097, 49.6543571], [6.2245703, 49.6548093], [6.2243401, 49.6552355], [6.2241882, 49.6551927], [6.2241862, 49.6552614], [6.2242227, 49.6553322], [6.2243131, 49.6554295], [6.2245379, 49.6555991], [6.2249116, 49.6558547], [6.2252261, 49.6560804], [6.2254101, 49.656209], [6.2257113, 49.6564701], [6.2258308, 49.6565893], [6.2259827, 49.6567927], [6.2261286, 49.6570443], [6.2261799, 49.6571413], [6.2264327, 49.6578269], [6.2264897, 49.6579579], [6.2266163, 49.6581031], [6.227159, 49.6585824], [6.2273489, 49.6587338], [6.2266848, 49.6589819], [6.2266998, 49.6589937], [6.2277659, 49.65985], [6.2277975, 49.6598475], [6.2278925, 49.6598401], [6.2281661, 49.6598189], [6.2287927, 49.6608167], [6.2287347, 49.6608573], [6.2287948, 49.6609689], [6.2287321, 49.6611642], [6.2284496, 49.6617135], [6.2283789, 49.6618965], [6.2283165, 49.6620631], [6.2282614, 49.6621859], [6.2281811, 49.6623655], [6.2282288, 49.6627555], [6.2282527, 49.6630535], [6.2282601, 49.6632107], [6.2282773, 49.663298], [6.2282895, 49.6633229], [6.2283163, 49.663362], [6.2284226, 49.6634657], [6.2285107, 49.6635744], [6.2285573, 49.6636293], [6.2287685, 49.6637217], [6.2289897, 49.6638154], [6.2291074, 49.6638541], [6.2291943, 49.6639207], [6.2292923, 49.6640224], [6.2293577, 49.6641074], [6.2294918, 49.6643204], [6.2295493, 49.6644751], [6.2295591, 49.6645351], [6.2295412, 49.6645917], [6.2295068, 49.6646585], [6.2294594, 49.6647151], [6.2293923, 49.6647718], [6.2293137, 49.6648385], [6.2292373, 49.6648887], [6.2290645, 49.6650193], [6.2290052, 49.6650847], [6.228982, 49.6651533], [6.228995, 49.6652043], [6.2290286, 49.6652425], [6.2291243, 49.6652902], [6.2297025, 49.6655477], [6.2298339, 49.6656127], [6.2300011, 49.6657602], [6.23046, 49.6661808], [6.2305968, 49.6663076], [6.2306486, 49.6663968], [6.2307367, 49.6666374], [6.2308297, 49.6668307], [6.2308995, 49.6669152], [6.2310884, 49.6671175], [6.2311478, 49.6671461], [6.2316037, 49.6673129], [6.2317905, 49.667375], [6.23219, 49.6674762], [6.2325585, 49.6675705], [6.2328609, 49.6676634], [6.2332479, 49.6678095], [6.2334379, 49.6678877], [6.2340642, 49.6684784], [6.2339975, 49.6687045], [6.2339224, 49.6689168], [6.2338055, 49.6692633], [6.2338418, 49.6694772], [6.2337977, 49.6695902], [6.2337578, 49.6697147], [6.2337192, 49.669803], [6.23366, 49.6699301], [6.233587, 49.6700482], [6.2334808, 49.6702127], [6.2333542, 49.6703966], [6.2332039, 49.67062], [6.2331397, 49.6706985], [6.2330467, 49.6707912], [6.2330428, 49.6708418]]]}}]}