{"type": "FeatureCollection", "features": [{"type": "Feature", "properties": {"name": "Senningen"}, "geometry": {"type": "Polygon", "coordinates": [[[6.2085099, 49.6315488], [6.2085729, 49.6315904], [6.2095503, 49.6322351], [6.2104211, 49.6328111], [6.2108313, 49.6333671], [6.2112571, 49.6343708], [6.2122832, 49.6349603], [6.215007, 49.6359512], [6.2158124, 49.6365157], [6.2158737, 49.6365982], [6.216333, 49.637217], [6.2163946, 49.6372735], [6.2163661, 49.6374141], [6.2164198, 49.6375611], [6.216052, 49.6376713], [6.2157173, 49.63773], [6.2157521, 49.6377999], [6.2159578, 49.638696], [6.2158651, 49.6395473], [6.2158309, 49.6398407], [6.2158297, 49.6398523], [6.2157964, 49.6401771], [6.2157882, 49.6402525], [6.2157838, 49.6402942], [6.2157816, 49.6403142], [6.2158, 49.6404105], [6.2158879, 49.6405787], [6.2158989, 49.6406047], [6.2159184, 49.6406511], [6.2159833, 49.6408053], [6.2159724, 49.6408068], [6.2160162, 49.6409527], [6.2160438, 49.6409489], [6.2161048, 49.6410896], [6.216173, 49.6412471], [6.216341, 49.6416343], [6.2163185, 49.6417073], [6.2164431, 49.6418781], [6.216485, 49.6419359], [6.2168375, 49.6424224], [6.2168888, 49.6424931], [6.216927, 49.6425458], [6.2169963, 49.6426415], [6.2170071, 49.6426563], [6.2170805, 49.6427576], [6.2170925, 49.6427741], [6.2171864, 49.6429037], [6.2178122, 49.6438886], [6.2178901, 49.6439595], [6.2182026, 49.6438503], [6.2183852, 49.6439874], [6.2185673, 49.6441242], [6.2187852, 49.644289], [6.2189915, 49.644441], [6.219104, 49.6446462], [6.2192307, 49.6448531], [6.2193886, 49.6449877], [6.219483, 49.645057], [6.2196617, 49.6451883], [6.2197395, 49.6452454], [6.2198216, 49.6453058], [6.2198836, 49.6453513], [6.2200463, 49.6454712], [6.2201671, 49.6455538], [6.220246, 49.645602], [6.220402, 49.6456862], [6.220495, 49.6457364], [6.2205091, 49.645744], [6.2205477, 49.6457649], [6.2206214, 49.6458046], [6.2207755, 49.6458878], [6.2208002, 49.6459011], [6.2210567, 49.6460396], [6.2210752, 49.6460502], [6.2212485, 49.64615], [6.2214394, 49.6462637], [6.2216472, 49.6463874], [6.2216733, 49.6464023], [6.2219229, 49.6465453], [6.2222103, 49.6467099], [6.2222519, 49.6467336], [6.2223001, 49.6467623], [6.2223409, 49.6467865], [6.2224685, 49.6468719], [6.2225116, 49.6469007], [6.2226512, 49.6470372], [6.222733, 49.647117], [6.2228859, 49.6473852], [6.2230213, 49.6476225], [6.2230875, 49.6477433], [6.2232467, 49.6480338], [6.2233027, 49.6481301], [6.2233562, 49.6482288], [6.2235188, 49.6484146], [6.2236865, 49.6486], [6.2237494, 49.6486801], [6.2237771, 49.648695], [6.2239096, 49.6487717], [6.2240921, 49.6488773], [6.2242322, 49.6489526], [6.2243721, 49.6490279], [6.2245059, 49.6489609], [6.2245992, 49.6490141], [6.2246931, 49.6490676], [6.2248435, 49.6491533], [6.2250186, 49.649253], [6.2252285, 49.6493715], [6.2256449, 49.6496053], [6.2259799, 49.64979], [6.2261021, 49.6496996], [6.2261436, 49.6496977], [6.2262997, 49.6498668], [6.2266979, 49.6502304], [6.2269527, 49.6504744], [6.2271348, 49.650601], [6.2274291, 49.6508223], [6.2279264, 49.6510707], [6.2284546, 49.6513183], [6.2288004, 49.6515312], [6.2290569, 49.651601], [6.2291962, 49.651632], [6.2293497, 49.6516385], [6.2295254, 49.6516508], [6.2296874, 49.651655], [6.2300382, 49.6516573], [6.2305612, 49.6516434], [6.2309916, 49.651609], [6.2312906, 49.6515718], [6.2317332, 49.6515003], [6.2321193, 49.6514225], [6.2331435, 49.6511109], [6.233892, 49.6508523], [6.2340935, 49.6507468], [6.2342655, 49.650632], [6.2343558, 49.6505494], [6.2344655, 49.6504263], [6.2346258, 49.6501654], [6.2347396, 49.649917], [6.2348092, 49.6497069], [6.2349219, 49.649352], [6.2350319, 49.6490602], [6.235103, 49.6489067], [6.2351816, 49.6487842], [6.2353039, 49.6486657], [6.2354415, 49.6485525], [6.235611, 49.6484501], [6.2357782, 49.6483787], [6.2359257, 49.6483275], [6.2361691, 49.6482746], [6.2363581, 49.6482514], [6.2365467, 49.6482333], [6.236789, 49.6482065], [6.2370723, 49.6481871], [6.2374074, 49.6481754], [6.2377243, 49.648204], [6.2381009, 49.6482283], [6.238408, 49.6482826], [6.2388166, 49.6484064], [6.2393537, 49.6486168], [6.2396475, 49.6487371], [6.2400561, 49.648952], [6.240622, 49.6492081], [6.2410304, 49.6493383], [6.2414171, 49.6494443], [6.2418293, 49.6494955], [6.2423933, 49.6496153], [6.2432039, 49.6497907], [6.2437949, 49.649819], [6.2456041, 49.6499302], [6.2457384, 49.6499354], [6.2463366, 49.6499584], [6.2466244, 49.6499624], [6.2466384, 49.6499226], [6.2466457, 49.6499018], [6.2469364, 49.6499065], [6.2470016, 49.6499076], [6.2472774, 49.6499147], [6.2474061, 49.6499176], [6.2474795, 49.6499192], [6.2474888, 49.6498991], [6.2475099, 49.6498534], [6.2475311, 49.649813], [6.2476125, 49.6498254], [6.248573, 49.6499299], [6.2511069, 49.6502905], [6.2531096, 49.6505805], [6.2534317, 49.6502266], [6.2534972, 49.6501459], [6.2536286, 49.6500262], [6.2536971, 49.6498346], [6.2539381, 49.6492385], [6.2541779, 49.648811], [6.2542349, 49.6487296], [6.2542888, 49.6486589], [6.2543528, 49.6485945], [6.2544102, 49.6485424], [6.2544308, 49.6485237], [6.2545148, 49.6484467], [6.2545666, 49.648384], [6.2545865, 49.648336], [6.2546181, 49.6481831], [6.254622, 49.6481639], [6.2546294, 49.6481281], [6.2546342, 49.648105], [6.2548077, 49.6481467], [6.255034, 49.6481996], [6.2552444, 49.6482449], [6.2553907, 49.6482738], [6.2555569, 49.6482989], [6.2556681, 49.6483123], [6.2557132, 49.6483177], [6.2558049, 49.6483273], [6.2559011, 49.6483361], [6.2558858, 49.6483676], [6.2558546, 49.648432], [6.2560244, 49.6484545], [6.2563112, 49.6484881], [6.2566059, 49.6485263], [6.2567885, 49.6485475], [6.2570398, 49.6485637], [6.2572525, 49.648576], [6.2574116, 49.6485823], [6.2575077, 49.648587], [6.2575843, 49.6485947], [6.2577063, 49.6486099], [6.2579005, 49.6485653], [6.2581972, 49.6485059], [6.2582951, 49.6484798], [6.2584112, 49.6484434], [6.2583799, 49.6483735], [6.2583458, 49.6482972], [6.2583185, 49.6482106], [6.2583114, 49.6481731], [6.258309, 49.6481068], [6.258434, 49.6480355], [6.2586607, 49.6479412], [6.2593739, 49.647724], [6.2594673, 49.6475937], [6.2601385, 49.6470196], [6.2612252, 49.6461719], [6.2616158, 49.6458305], [6.2619906, 49.6454573], [6.2623507, 49.6450216], [6.2634901, 49.6434913], [6.2638623, 49.6430256], [6.264655, 49.6419711], [6.2641545, 49.6418567], [6.2641215, 49.641849], [6.264035, 49.6418299], [6.2640332, 49.6418345], [6.2639816, 49.6418242], [6.263933, 49.6418146], [6.2638721, 49.6418025], [6.2637494, 49.6417785], [6.2636844, 49.6417633], [6.2633828, 49.6416847], [6.2630678, 49.6415883], [6.2627724, 49.6414789], [6.2622697, 49.6412672], [6.2617882, 49.6410758], [6.2617722, 49.6410693], [6.2616779, 49.6410309], [6.2614192, 49.64094], [6.2614064, 49.6409355], [6.2607039, 49.6406888], [6.2597909, 49.6403778], [6.259034, 49.640116], [6.2588734, 49.6400604], [6.2587966, 49.6400338], [6.258713, 49.6400044], [6.2585574, 49.6399498], [6.2583981, 49.6398938], [6.2582544, 49.6398433], [6.2580572, 49.639774], [6.257855, 49.639703], [6.257753, 49.6396671], [6.2579252, 49.6394738], [6.2565317, 49.6390741], [6.2564757, 49.6390579], [6.2566197, 49.63888], [6.2566863, 49.6387977], [6.2565758, 49.6387537], [6.2563712, 49.6386625], [6.256195, 49.6386], [6.2559819, 49.6385215], [6.2556438, 49.638409], [6.2542904, 49.6380169], [6.2542207, 49.638093], [6.254113, 49.6382105], [6.2540214, 49.6383106], [6.2540048, 49.6383286], [6.2539207, 49.6384204], [6.2537653, 49.63859], [6.2530114, 49.6383523], [6.2520145, 49.6380378], [6.2520469, 49.6379201], [6.2520751, 49.6378177], [6.2521141, 49.6376763], [6.2521396, 49.6375835], [6.2521567, 49.6375214], [6.2519893, 49.6374953], [6.2516858, 49.6374479], [6.2515704, 49.637429], [6.2515136, 49.6374171], [6.251472, 49.6374064], [6.2514266, 49.6373898], [6.2513415, 49.6373529], [6.2510833, 49.637216], [6.250763, 49.636933], [6.250525, 49.6364887], [6.250479, 49.6364943], [6.2503721, 49.6365073], [6.2505433, 49.6363842], [6.2505755, 49.6363611], [6.2505897, 49.6362925], [6.2506074, 49.6362074], [6.2506413, 49.6360449], [6.2506459, 49.6360229], [6.2498836, 49.6360236], [6.2497364, 49.6358206], [6.2497096, 49.6357836], [6.2496272, 49.635684], [6.2494881, 49.6354475], [6.2494468, 49.6353757], [6.2493398, 49.6353464], [6.2492831, 49.6353263], [6.2491475, 49.6352782], [6.2490066, 49.6352342], [6.2489229, 49.6352136], [6.248853, 49.635201], [6.2487163, 49.6351924], [6.2485559, 49.6351816], [6.2484628, 49.6351753], [6.2482943, 49.6351594], [6.2481674, 49.6351475], [6.2479365, 49.6351231], [6.2477339, 49.6351017], [6.247537, 49.6350852], [6.2474374, 49.6350766], [6.2473897, 49.6350746], [6.2473124, 49.6350806], [6.2472754, 49.6350893], [6.2471939, 49.6351121], [6.2470459, 49.6351671], [6.2471458, 49.635117], [6.2473347, 49.6350367], [6.2476836, 49.6349059], [6.2477232, 49.6348368], [6.2477358, 49.6347897], [6.2477421, 49.6347276], [6.2477325, 49.6346686], [6.2477165, 49.6346115], [6.2476448, 49.6344422], [6.2474314, 49.6338997], [6.2472767, 49.633494], [6.2471209, 49.6332081], [6.2470702, 49.6332104], [6.2469381, 49.6332163], [6.2468127, 49.6332219], [6.2466652, 49.6332284], [6.2460071, 49.633417], [6.2460232, 49.6332492], [6.2460243, 49.6332378], [6.2461319, 49.6317301], [6.24577, 49.6317111], [6.2457351, 49.6317093], [6.2453725, 49.6316783], [6.2449835, 49.631645], [6.2449403, 49.6314659], [6.244012, 49.6312966], [6.2431612, 49.6311287], [6.2431569, 49.6311278], [6.242585, 49.6310046], [6.2424944, 49.630985], [6.2420726, 49.6308837], [6.2421754, 49.630794], [6.2422415, 49.6307401], [6.2422847, 49.6307049], [6.2423673, 49.6306299], [6.2423862, 49.6306127], [6.2424289, 49.6305647], [6.2424716, 49.6305033], [6.2424945, 49.630456], [6.2425081, 49.6304278], [6.2425338, 49.6303745], [6.2425435, 49.6303545], [6.242565, 49.6303101], [6.2425776, 49.6302821], [6.2425712, 49.6302441], [6.2425689, 49.6302342], [6.2425584, 49.6301881], [6.2425408, 49.6301113], [6.2425121, 49.6299867], [6.2425096, 49.6299623], [6.242506, 49.6299263], [6.2424832, 49.629703], [6.2424735, 49.6296329], [6.2424607, 49.6295409], [6.2424463, 49.6294799], [6.2424082, 49.6294123], [6.2423779, 49.6293613], [6.2422905, 49.6292478], [6.2421951, 49.6291078], [6.2421363, 49.6290004], [6.2420869, 49.6289053], [6.24203, 49.6287924], [6.2420169, 49.6287663], [6.241996, 49.6286609], [6.2419816, 49.6285679], [6.2419862, 49.6284838], [6.2419919, 49.6284419], [6.2419957, 49.6284138], [6.2420114, 49.6283484], [6.2420429, 49.6282403], [6.242066, 49.628185], [6.2420809, 49.6281492], [6.2421268, 49.6280701], [6.2422058, 49.6279505], [6.2423639, 49.6277074], [6.2423147, 49.6276896], [6.2420564, 49.627596], [6.2414652, 49.6273861], [6.2413871, 49.6273583], [6.2413681, 49.6273516], [6.2412819, 49.6273182], [6.2411025, 49.6272487], [6.2410581, 49.6272316], [6.2409851, 49.6272038], [6.2407249, 49.627105], [6.2406376, 49.6270718], [6.2406052, 49.6270595], [6.2404059, 49.6269838], [6.2403644, 49.6269674], [6.2402398, 49.626918], [6.2402026, 49.6269032], [6.2400993, 49.6268622], [6.2399056, 49.6267853], [6.2398651, 49.6267692], [6.2398031, 49.6267447], [6.2397533, 49.6267249], [6.2396332, 49.6266772], [6.2395272, 49.6266331], [6.2394973, 49.6266207], [6.2392363, 49.626512], [6.2387514, 49.6263275], [6.2386161, 49.6262739], [6.2384658, 49.6262143], [6.2383865, 49.6261829], [6.2381467, 49.6260878], [6.2380563, 49.6260539], [6.2377922, 49.6259547], [6.2376897, 49.6259408], [6.2371497, 49.6258498], [6.2370765, 49.62584], [6.237036, 49.6258345], [6.2369588, 49.6258242], [6.2368651, 49.6258138], [6.2367589, 49.6258019], [6.2367432, 49.6258002], [6.2366226, 49.6257868], [6.2365215, 49.6257755], [6.2363936, 49.6257554], [6.236325, 49.6257447], [6.2361817, 49.6257113], [6.2361361, 49.6256988], [6.2359879, 49.6256581], [6.2356984, 49.6255787], [6.2354516, 49.6255114], [6.2353344, 49.6254794], [6.2351467, 49.625425], [6.2348431, 49.6253369], [6.2346735, 49.625292], [6.2345944, 49.6252744], [6.2344777, 49.6252485], [6.2343778, 49.6252316], [6.2341845, 49.6252018], [6.2341005, 49.6251938], [6.2340657, 49.6251928], [6.2339833, 49.6251949], [6.2338582, 49.6252059], [6.2337099, 49.625217], [6.2334797, 49.6252396], [6.2333146, 49.6252559], [6.2331277, 49.6252749], [6.2330109, 49.6252854], [6.2329155, 49.625294], [6.2328093, 49.6252941], [6.2326984, 49.6252931], [6.2325486, 49.6252858], [6.2323282, 49.625275], [6.2322905, 49.6252729], [6.2321847, 49.62513], [6.2319233, 49.6247694], [6.231572, 49.624285], [6.2315626, 49.6242874], [6.2310404, 49.6244271], [6.231036, 49.6243755], [6.2310243, 49.624337], [6.2310018, 49.6243047], [6.230938, 49.6242479], [6.230742, 49.6241006], [6.2305083, 49.6239307], [6.230477, 49.6239278], [6.229895, 49.6241293], [6.2294724, 49.6242361], [6.229305, 49.6242628], [6.2292251, 49.6242676], [6.2291343, 49.6242649], [6.2289794, 49.6242636], [6.2288594, 49.6242733], [6.2285383, 49.6243017], [6.2284776, 49.6242926], [6.2284047, 49.6242724], [6.2283415, 49.6242616], [6.2283059, 49.6242637], [6.2282696, 49.6242742], [6.2282453, 49.624292], [6.2282187, 49.6243157], [6.228192, 49.6243242], [6.2281653, 49.624322], [6.2281434, 49.6243145], [6.2280363, 49.6242407], [6.2279876, 49.624218], [6.2279147, 49.6242023], [6.2278309, 49.6241986], [6.2276839, 49.6241872], [6.2275867, 49.6241954], [6.2275418, 49.624185], [6.2275077, 49.624162], [6.2273981, 49.6240957], [6.2273478, 49.6240854], [6.227281, 49.6240905], [6.2272312, 49.6240846], [6.2271971, 49.6240685], [6.2271424, 49.6240334], [6.2270985, 49.6240116], [6.2270475, 49.6240065], [6.2269674, 49.6240136], [6.2268776, 49.6240189], [6.2268083, 49.6240133], [6.2267323, 49.6239962], [6.2266642, 49.6239669], [6.2265986, 49.6239591], [6.2265609, 49.623952], [6.2265269, 49.6239397], [6.2265025, 49.623923], [6.2264988, 49.6239091], [6.2265133, 49.6238812], [6.2264974, 49.6238594], [6.2264743, 49.6238489], [6.226433, 49.6238486], [6.2263894, 49.623865], [6.2263214, 49.6238877], [6.2262486, 49.6238896], [6.226189, 49.623882], [6.2261197, 49.6238595], [6.2260407, 49.6238323], [6.2259817, 49.6238257], [6.2259124, 49.6238254], [6.2258736, 49.6238175], [6.2258273, 49.6237957], [6.2257932, 49.623755], [6.2257308, 49.6236464], [6.2256967, 49.6236096], [6.2256565, 49.6235948], [6.2255849, 49.6235922], [6.2255592, 49.6235817], [6.2255087, 49.6235561], [6.2254734, 49.6235246], [6.2254284, 49.6235058], [6.2253956, 49.6235011], [6.2253628, 49.6235049], [6.2253447, 49.6235166], [6.2253338, 49.6235507], [6.2253468, 49.6235922], [6.2253498, 49.6236054], [6.2252648, 49.6236009], [6.2251907, 49.6235914], [6.2251421, 49.6235733], [6.2250958, 49.6235522], [6.2250497, 49.6235472], [6.2249853, 49.6235562], [6.2249477, 49.6235552], [6.2248796, 49.6235328], [6.2248237, 49.6235222], [6.2247375, 49.6235192], [6.2246614, 49.6234936], [6.2246115, 49.623477], [6.2245387, 49.6234751], [6.22445, 49.6234805], [6.2243735, 49.623477], [6.2243042, 49.6234629], [6.2242511, 49.6234357], [6.2241937, 49.6234043], [6.2240599, 49.6233275], [6.2239496, 49.6232884], [6.223828, 49.6232409], [6.2237379, 49.6231882], [6.2237047, 49.6231786], [6.223661, 49.6231754], [6.223627, 49.6231822], [6.2236009, 49.6231834], [6.2235814, 49.6231723], [6.2235611, 49.6231381], [6.223552, 49.6231043], [6.2235624, 49.6230725], [6.2235569, 49.6230469], [6.2235439, 49.6230317], [6.2235204, 49.6230189], [6.2234945, 49.6230162], [6.2234799, 49.6230194], [6.2234517, 49.6230293], [6.223436, 49.6230427], [6.2234086, 49.6230603], [6.2233795, 49.6230723], [6.2233358, 49.6230783], [6.223309, 49.6230735], [6.2232879, 49.6230607], [6.2232716, 49.6230328], [6.2232513, 49.6230139], [6.2232205, 49.6229923], [6.2231792, 49.622978], [6.223137, 49.6229784], [6.2231225, 49.6229892], [6.2231121, 49.6230088], [6.2231121, 49.6230251], [6.2231211, 49.6230432], [6.2231179, 49.6230538], [6.2231058, 49.6230585], [6.2230839, 49.62306], [6.2230653, 49.6230519], [6.2230466, 49.6230402], [6.2230423, 49.6230044], [6.2230234, 49.6230168], [6.2228955, 49.6231009], [6.2228625, 49.6231225], [6.2226721, 49.6232156], [6.2225705, 49.6232359], [6.2224435, 49.6232427], [6.2223271, 49.6232401], [6.2222464, 49.6232374], [6.222188, 49.6232354], [6.2218928, 49.6232255], [6.2213924, 49.623213], [6.2208183, 49.6232048], [6.2206978, 49.6232055], [6.2205612, 49.6232204], [6.2203663, 49.6232445], [6.2199807, 49.6233046], [6.2197548, 49.6233357], [6.2193576, 49.6234037], [6.219182, 49.6234439], [6.2191171, 49.6234687], [6.2190121, 49.6235182], [6.21889, 49.6235938], [6.2188092, 49.6236489], [6.2186956, 49.6237387], [6.2186269, 49.6238083], [6.2185318, 49.6239482], [6.2184409, 49.6241471], [6.2183937, 49.624137], [6.2183246, 49.6242389], [6.2182457, 49.624226], [6.2182138, 49.6242698], [6.2181527, 49.6243454], [6.2180917, 49.6244032], [6.218044, 49.6244433], [6.2179776, 49.6244875], [6.2178631, 49.6245757], [6.217741, 49.6247022], [6.2177048, 49.6247648], [6.2176724, 49.6248386], [6.2176345, 49.6249601], [6.2175544, 49.6253761], [6.2175318, 49.6254077], [6.2174092, 49.6255787], [6.2173537, 49.6256447], [6.217306, 49.6257217], [6.2173225, 49.625744], [6.2173819, 49.6257945], [6.2174995, 49.6258994], [6.2175806, 49.6260281], [6.2176542, 49.6261702], [6.2175913, 49.6262043], [6.217028, 49.6258863], [6.2170008, 49.6259013], [6.216897, 49.6258377], [6.2164989, 49.6258956], [6.216115, 49.6260845], [6.2157645, 49.6258284], [6.2157392, 49.6258099], [6.2161415, 49.6256059], [6.2164104, 49.6252715], [6.2162624, 49.6252067], [6.2162278, 49.6249752], [6.2158716, 49.6246799], [6.2157848, 49.6247119], [6.2153025, 49.6248896], [6.2146949, 49.6250017], [6.2143314, 49.6250438], [6.2138245, 49.6250652], [6.2132259, 49.6250282], [6.2128657, 49.6250499], [6.2122497, 49.6251594], [6.2121982, 49.6251772], [6.2105421, 49.6257487], [6.2100501, 49.6259477], [6.208913, 49.6262465], [6.20855, 49.6264271], [6.2081575, 49.6266789], [6.2080804, 49.6267731], [6.208038, 49.6268432], [6.2080212, 49.626871], [6.2081131, 49.6273227], [6.2081266, 49.6276266], [6.2077717, 49.6286394], [6.2077413, 49.6286949], [6.2075627, 49.6289508], [6.2071166, 49.6292482], [6.2069354, 49.6293689], [6.2068749, 49.6294092], [6.2067042, 49.629523], [6.2062121, 49.6292914], [6.2057471, 49.6297248], [6.2058053, 49.6297632], [6.2066322, 49.6303092], [6.2076057, 49.6309521], [6.2085099, 49.6315488]]]}}]}