{"type": "FeatureCollection", "features": [{"type": "Feature", "properties": {"name": "Nospelt"}, "geometry": {"type": "Polygon", "coordinates": [[[6.0121642, 49.6639931], [6.0070859, 49.6639829], [6.0001264, 49.6638035], [5.9999205, 49.6636347], [5.9990946, 49.6636109], [5.9972679, 49.6635215], [5.994651, 49.6637986], [5.9924221, 49.6635678], [5.9923281, 49.6637578], [5.9922294, 49.6639571], [5.9921316, 49.6641133], [5.9920842, 49.6641858], [5.992041, 49.6642519], [5.9919876, 49.6643337], [5.99182, 49.6645902], [5.9917331, 49.6647232], [5.991503, 49.6650754], [5.9916828, 49.6651258], [5.9920885, 49.6652712], [5.9922908, 49.6653532], [5.9923997, 49.6653963], [5.992659, 49.6655163], [5.9929061, 49.6656506], [5.9931197, 49.665776], [5.9935391, 49.6660267], [5.9938151, 49.6661918], [5.9942503, 49.6664759], [5.9946855, 49.66676], [5.9945655, 49.6669609], [5.9944393, 49.6671792], [5.9943954, 49.6672572], [5.9943514, 49.6673327], [5.9943357, 49.6673595], [5.9943129, 49.6673984], [5.9942893, 49.6674384], [5.9942446, 49.6674956], [5.9942096, 49.6675404], [5.9941955, 49.6675564], [5.9941597, 49.6675972], [5.9941173, 49.6676454], [5.9940436, 49.6677294], [5.9940051, 49.6677732], [5.9938701, 49.667927], [5.9938368, 49.6679648], [5.9937904, 49.6680028], [5.993742, 49.6680093], [5.9937024, 49.6680145], [5.993663, 49.6680198], [5.9934945, 49.6680493], [5.9932515, 49.6681123], [5.9931578, 49.668141], [5.9930595, 49.6681745], [5.9928975, 49.6682377], [5.9928141, 49.6682657], [5.992697, 49.6683051], [5.9926449, 49.6683253], [5.9926327, 49.66833], [5.9925786, 49.6683509], [5.9924945, 49.6683834], [5.9924672, 49.668394], [5.9922465, 49.6685], [5.9921563, 49.6685776], [5.9920404, 49.6686931], [5.991985, 49.6687487], [5.9919098, 49.6688267], [5.9918779, 49.6688597], [5.9918376, 49.6688957], [5.9917252, 49.6689802], [5.9916717, 49.6690183], [5.9915877, 49.6690781], [5.9911874, 49.6693614], [5.9910981, 49.6695347], [5.9910358, 49.6696491], [5.9910072, 49.6697018], [5.9909115, 49.6698453], [5.9908005, 49.6700175], [5.990713, 49.670134], [5.9906291, 49.6702502], [5.9905032, 49.6704055], [5.9901827, 49.6707839], [5.9901612, 49.6708114], [5.9900844, 49.6709095], [5.9900247, 49.670986], [5.9898253, 49.6712496], [5.989803, 49.6712791], [5.989739, 49.6713719], [5.9897205, 49.6713966], [5.9895359, 49.671649], [5.9892608, 49.6719369], [5.9890696, 49.6721282], [5.9884829, 49.6725005], [5.9884056, 49.6725861], [5.9883669, 49.6726418], [5.9883084, 49.6727198], [5.9881599, 49.6730697], [5.9880536, 49.6733297], [5.9880331, 49.6733883], [5.9879739, 49.6735312], [5.9878963, 49.6737187], [5.9883898, 49.6737618], [5.9889122, 49.6738222], [5.9893598, 49.6738845], [5.9895277, 49.6739078], [5.9894956, 49.6739738], [5.9897018, 49.67429], [5.9897933, 49.6744223], [5.9899016, 49.6745628], [5.9899249, 49.6745969], [5.9901449, 49.6748491], [5.990231, 49.6749426], [5.9905155, 49.6752716], [5.9905638, 49.6753315], [5.9906247, 49.6754014], [5.9907899, 49.6755912], [5.9908595, 49.675673], [5.9909702, 49.6758033], [5.9910165, 49.6758579], [5.991136, 49.6759831], [5.9913462, 49.6762036], [5.991654, 49.6762247], [5.9917373, 49.6762306], [5.9919216, 49.6762437], [5.9919252, 49.6763431], [5.9919308, 49.6764958], [5.9919225, 49.6769306], [5.9919195, 49.6772846], [5.992284, 49.6773643], [5.9924107, 49.677388], [5.9923393, 49.6781519], [5.9923217, 49.678396], [5.9922878, 49.6788028], [5.992783, 49.6788469], [5.9929871, 49.6788658], [5.9932926, 49.6788939], [5.9932874, 49.6789331], [5.9936806, 49.6789657], [5.9940369, 49.6790003], [5.99411, 49.6790074], [5.9951101, 49.679109], [5.9951062, 49.6792821], [5.9950902, 49.6795402], [5.9950764, 49.6796516], [5.9950731, 49.6796707], [5.9948371, 49.6796621], [5.994628, 49.6796535], [5.9946233, 49.6797009], [5.994602, 49.6799139], [5.9945347, 49.6804912], [5.9944973, 49.6806646], [5.9944718, 49.6807724], [5.9943634, 49.6811608], [5.9942787, 49.6814621], [5.9938779, 49.6813603], [5.9937242, 49.6813261], [5.9936694, 49.6813139], [5.9934225, 49.6812584], [5.9933551, 49.6812432], [5.9930975, 49.6811943], [5.9929521, 49.6811631], [5.9928651, 49.6811516], [5.9927229, 49.6811401], [5.9921481, 49.6811021], [5.9919531, 49.6810905], [5.9915265, 49.6810671], [5.991144, 49.6810408], [5.9909568, 49.6810245], [5.990771, 49.6810082], [5.9905251, 49.6809872], [5.9904749, 49.6809779], [5.9902764, 49.6809337], [5.9901213, 49.6808993], [5.9897785, 49.6808213], [5.9893722, 49.6807216], [5.9889973, 49.6806285], [5.9887532, 49.6805672], [5.9885742, 49.6805318], [5.9883418, 49.6804912], [5.9881427, 49.6804641], [5.9881135, 49.6805341], [5.9880583, 49.6806659], [5.9880128, 49.6807782], [5.9879722, 49.6808845], [5.9879463, 49.6809588], [5.9879336, 49.6809954], [5.9878947, 49.6810944], [5.9878575, 49.6811965], [5.9878069, 49.6813268], [5.9877815, 49.6813938], [5.9877545, 49.6814681], [5.9876912, 49.681649], [5.9876278, 49.6818269], [5.9875709, 49.6819953], [5.9875061, 49.6821868], [5.9874284, 49.6824298], [5.9874148, 49.6824724], [5.9873211, 49.6827319], [5.9872806, 49.6828061], [5.9872352, 49.6828664], [5.9872139, 49.6828955], [5.9871401, 49.682996], [5.9870754, 49.6830841], [5.9870138, 49.6831679], [5.9868977, 49.683326], [5.986867, 49.6833678], [5.9867953, 49.6834651], [5.9867873, 49.6834759], [5.9867022, 49.6835914], [5.9866343, 49.6836835], [5.9866058, 49.6837221], [5.9865119, 49.6838494], [5.9863851, 49.6840215], [5.9863184, 49.684112], [5.9862971, 49.6841409], [5.9863775, 49.6841784], [5.9866451, 49.6843035], [5.9868102, 49.6843772], [5.9869482, 49.6844402], [5.9870794, 49.6844974], [5.9872336, 49.6845621], [5.9874145, 49.6846396], [5.9875572, 49.6847001], [5.9876434, 49.6847393], [5.9877867, 49.6848055], [5.9880449, 49.6849218], [5.9882513, 49.6850204], [5.988484, 49.685133], [5.9886928, 49.6852293], [5.9889321, 49.6853129], [5.9891127, 49.685363], [5.989267, 49.6854], [5.9893861, 49.6854287], [5.9894302, 49.685446], [5.9893887, 49.6854603], [5.9891778, 49.6855009], [5.988869, 49.6855341], [5.9886466, 49.6855512], [5.988318, 49.6855568], [5.9880949, 49.6855601], [5.9881246, 49.6855252], [5.9879474, 49.685538], [5.9879182, 49.685541], [5.9878659, 49.6855454], [5.9877625, 49.6855572], [5.9876286, 49.685572], [5.9873926, 49.6856076], [5.9871802, 49.6856438], [5.987022, 49.685675], [5.9869721, 49.6856877], [5.9868443, 49.6857205], [5.9867566, 49.6857474], [5.9866324, 49.6857922], [5.986433, 49.6858658], [5.9864067, 49.6858764], [5.98619, 49.686005], [5.9857904, 49.6861054], [5.9856039, 49.6862124], [5.9854264, 49.6863196], [5.9851839, 49.686458], [5.9850193, 49.6865477], [5.9848345, 49.6866454], [5.9846081, 49.686761], [5.9845033, 49.6868107], [5.9843985, 49.6868605], [5.9842928, 49.6869075], [5.9840045, 49.6870395], [5.9837974, 49.6871352], [5.9836311, 49.6872073], [5.983194, 49.6874059], [5.9824794, 49.6877163], [5.9822517, 49.6878126], [5.9819167, 49.6880179], [5.9816353, 49.6882009], [5.9814599, 49.6883115], [5.9814362, 49.6883262], [5.9812139, 49.6884646], [5.9811505, 49.6885027], [5.9809611, 49.6886212], [5.98092, 49.688647], [5.9815224, 49.6888444], [5.9819393, 49.6889812], [5.9823304, 49.6891308], [5.9825958, 49.6892445], [5.9829738, 49.689417], [5.9831749, 49.6895167], [5.983416, 49.6896572], [5.9835841, 49.6897712], [5.9837511, 49.6899066], [5.983894, 49.6900429], [5.9840203, 49.6901636], [5.9841968, 49.6903487], [5.9843027, 49.6904765], [5.9843667, 49.6906028], [5.9844748, 49.6908162], [5.9845608, 49.6908512], [5.9847966, 49.6909469], [5.9850106, 49.6910353], [5.9854868, 49.6912397], [5.9856551, 49.6913072], [5.9857598, 49.6913522], [5.9859769, 49.6914458], [5.986194, 49.6915723], [5.9864233, 49.6917111], [5.9866226, 49.6918356], [5.9866459, 49.6918511], [5.9869055, 49.6920248], [5.987064, 49.6921319], [5.9871492, 49.6921916], [5.9873469, 49.6923321], [5.9875344, 49.6924928], [5.9877609, 49.692682], [5.9880487, 49.6928762], [5.9880786, 49.6928925], [5.9883653, 49.6929544], [5.9886389, 49.6930135], [5.9889184, 49.6930955], [5.9893655, 49.6932268], [5.9898428, 49.6934088], [5.9898711, 49.693422], [5.9901427, 49.693549], [5.9902234, 49.6935856], [5.9903826, 49.6936579], [5.9908017, 49.693848], [5.9911315, 49.6939944], [5.9916791, 49.6939916], [5.9917892, 49.6939781], [5.9919451, 49.6939574], [5.9920536, 49.6939384], [5.9921925, 49.6939093], [5.9923393, 49.693875], [5.9924936, 49.6938048], [5.992693, 49.6937082], [5.9927224, 49.693694], [5.9929125, 49.6936052], [5.9929927, 49.6935578], [5.9931578, 49.6934548], [5.9931665, 49.6934494], [5.9932953, 49.693338], [5.9934037, 49.6932356], [5.9934972, 49.693142], [5.9935631, 49.6930728], [5.9935995, 49.6930201], [5.9936277, 49.6929793], [5.9936649, 49.6929292], [5.9937068, 49.6928728], [5.9938814, 49.6926355], [5.9939392, 49.6925593], [5.9939605, 49.6925312], [5.9940074, 49.6924737], [5.9940762, 49.692399], [5.9941699, 49.6923046], [5.9942183, 49.6922516], [5.9942564, 49.6921932], [5.9942931, 49.6921221], [5.9943182, 49.6920475], [5.9943316, 49.6919824], [5.9943308, 49.6919522], [5.9943303, 49.6919365], [5.9943231, 49.6919059], [5.9943014, 49.6918618], [5.9942622, 49.6917969], [5.9941706, 49.6916951], [5.9941013, 49.6916109], [5.9940463, 49.6915427], [5.9940272, 49.691519], [5.9939648, 49.6914235], [5.9938951, 49.6913227], [5.9938429, 49.6912263], [5.9937996, 49.6911406], [5.993784, 49.6911034], [5.9937142, 49.6909371], [5.993652, 49.6907987], [5.9936158, 49.6907032], [5.9935724, 49.6906099], [5.9935537, 49.6905745], [5.9935347, 49.6905387], [5.9934941, 49.6904812], [5.9934418, 49.6904226], [5.9933822, 49.6903649], [5.9933371, 49.6903271], [5.993273, 49.6902811], [5.9932065, 49.690242], [5.9931676, 49.690224], [5.9929792, 49.6901364], [5.9929043, 49.6900963], [5.9928715, 49.6900786], [5.9927884, 49.6900299], [5.9926911, 49.6899653], [5.9926546, 49.6899352], [5.9926387, 49.689922], [5.992614, 49.6898959], [5.9925995, 49.6898629], [5.9925851, 49.6898134], [5.992578, 49.6897639], [5.9925869, 49.6897126], [5.9926061, 49.6896649], [5.992653, 49.6895903], [5.9927585, 49.6894247], [5.9928861, 49.6892423], [5.9930473, 49.6890384], [5.9931467, 49.6888966], [5.9931628, 49.6888723], [5.9931908, 49.6888289], [5.9932112, 49.6887762], [5.9932231, 49.6887367], [5.9932438, 49.6885984], [5.9933248, 49.6880796], [5.9934636, 49.6880903], [5.993594, 49.6881011], [5.9938288, 49.6881187], [5.9938427, 49.6881036], [5.9938577, 49.6880924], [5.9938823, 49.6880865], [5.9939101, 49.6880839], [5.9939379, 49.6880793], [5.9939508, 49.6880688], [5.9939658, 49.6880484], [5.9939702, 49.688028], [5.993967, 49.6880029], [5.9939576, 49.6879594], [5.9939406, 49.6879192], [5.9939322, 49.6878794], [5.9939345, 49.6878511], [5.9939281, 49.6878313], [5.993909, 49.6878082], [5.9938749, 49.6877726], [5.9938537, 49.6877284], [5.9938378, 49.6876901], [5.9938389, 49.6876802], [5.9938723, 49.6876025], [5.9938927, 49.6875436], [5.9939143, 49.6874962], [5.9939814, 49.6873469], [5.993991, 49.6873346], [5.9940318, 49.6872852], [5.9940522, 49.6872563], [5.9940615, 49.6872163], [5.9940681, 49.6871762], [5.9940752, 49.6871337], [5.9941126, 49.6870875], [5.994124, 49.6870735], [5.9941199, 49.6869971], [5.994133, 49.6869444], [5.9941509, 49.6868721], [5.9942057, 49.6868078], [5.9942115, 49.6867863], [5.9942078, 49.6867703], [5.9941925, 49.6867407], [5.9941814, 49.6866996], [5.9941888, 49.6866769], [5.9941953, 49.6866685], [5.9942119, 49.6866469], [5.9942094, 49.6866307], [5.9942079, 49.6866207], [5.9942057, 49.6866061], [5.9942799, 49.6864952], [5.9943195, 49.6864561], [5.9943442, 49.6864179], [5.9943518, 49.6863843], [5.9943594, 49.6863527], [5.9943755, 49.6863204], [5.9944034, 49.6862941], [5.9944236, 49.6862549], [5.9944323, 49.6862174], [5.9944441, 49.6861976], [5.9944848, 49.686168], [5.9945041, 49.6861536], [5.9945245, 49.6861332], [5.9945491, 49.6861148], [5.9945834, 49.686099], [5.9946144, 49.6860865], [5.9946348, 49.686074], [5.9946476, 49.6860543], [5.9946635, 49.6860297], [5.9946774, 49.6860159], [5.994702, 49.6860061], [5.9947288, 49.6860002], [5.9947651, 49.6859923], [5.994779, 49.6859831], [5.9947983, 49.6859673], [5.9948159, 49.6859513], [5.9948273, 49.685941], [5.9948476, 49.6859272], [5.9948744, 49.68592], [5.9949129, 49.6859121], [5.9949289, 49.6859036], [5.9949525, 49.6858865], [5.9949728, 49.685876], [5.9949899, 49.6858714], [5.9950081, 49.6858728], [5.9950337, 49.6858748], [5.9950572, 49.6858722], [5.995084, 49.6858663], [5.995099, 49.6858571], [5.9951172, 49.6858466], [5.9951364, 49.6858387], [5.9951557, 49.6858282], [5.9951739, 49.685813], [5.9952136, 49.6857815], [5.9952714, 49.6857458], [5.9955205, 49.6859882], [5.99554, 49.6860079], [5.9956953, 49.6861645], [5.9959121, 49.6863833], [5.9959527, 49.6864242], [5.9959398, 49.6864368], [5.9958584, 49.6865163], [5.995794, 49.6866005], [5.9957818, 49.6866217], [5.9957603, 49.6866593], [5.995751, 49.6866755], [5.9957273, 49.6867241], [5.99571, 49.6867781], [5.9956969, 49.6868742], [5.9957029, 49.6869848], [5.9957038, 49.6870271], [5.99571, 49.6870884], [5.9957204, 49.6871494], [5.9957256, 49.6871731], [5.9957691, 49.6872687], [5.9958179, 49.687357], [5.9958729, 49.6874403], [5.9959409, 49.68753], [5.9960484, 49.68765], [5.9961591, 49.687749], [5.9962876, 49.6878528], [5.9963753, 49.6879191], [5.9964283, 49.6879591], [5.9965731, 49.6880699], [5.9967688, 49.6882105], [5.9969276, 49.6883188], [5.9971855, 49.6884884], [5.9972667, 49.6885361], [5.9972975, 49.6885545], [5.9973844, 49.6886036], [5.9975337, 49.6886829], [5.9976776, 49.6887568], [5.997723, 49.6887764], [5.9979033, 49.6888603], [5.9981348, 49.6889535], [5.9981785, 49.6889701], [5.9982474, 49.6889949], [5.9984149, 49.6890492], [5.9984714, 49.6890671], [5.9984871, 49.6890721], [5.9985714, 49.6891025], [5.9986653, 49.6891343], [5.9987923, 49.6891687], [5.9991286, 49.689243], [5.9991851, 49.6892589], [5.9993042, 49.6892888], [5.9994489, 49.6893205], [5.9996764, 49.6893563], [5.9999879, 49.6893981], [6.0001084, 49.6894135], [6.0001136, 49.6894142], [6.0001767, 49.6894223], [6.0002497, 49.6894317], [6.0003663, 49.6894479], [6.0005282, 49.6894738], [6.0006558, 49.6894941], [6.0006869, 49.6894991], [6.0007336, 49.6895066], [6.0008371, 49.6895255], [6.000884, 49.6895341], [6.0009398, 49.6895463], [6.0010412, 49.6895685], [6.0010486, 49.6895701], [6.0010638, 49.6895737], [6.0011873, 49.6896029], [6.0012878, 49.6896312], [6.0013849, 49.6896578], [6.0014747, 49.6896859], [6.0015635, 49.6897134], [6.0016451, 49.6897379], [6.0016816, 49.6897496], [6.0016936, 49.6897534], [6.0017958, 49.6897909], [6.0019375, 49.6898473], [6.0020792, 49.6899036], [6.0021526, 49.6899279], [6.0024522, 49.6900241], [6.0026867, 49.6900988], [6.0028313, 49.6901468], [6.0029057, 49.6901691], [6.0029609, 49.6901814], [6.0030658, 49.6902042], [6.0031421, 49.6902168], [6.0032366, 49.6902307], [6.0033826, 49.69025], [6.0034501, 49.6902597], [6.0036282, 49.690279], [6.0037115, 49.6902906], [6.003814, 49.6902984], [6.0038978, 49.6903014], [6.0039839, 49.6903005], [6.0040689, 49.6902983], [6.0042195, 49.690288], [6.0045272, 49.6902635], [6.0045519, 49.6901662], [6.0045656, 49.6901002], [6.0047659, 49.6900987], [6.0049096, 49.6901011], [6.0049835, 49.6901035], [6.0050673, 49.6901086], [6.0051999, 49.6901182], [6.0053522, 49.6901323], [6.0055239, 49.6901554], [6.0056618, 49.6901767], [6.0058087, 49.6902047], [6.0058584, 49.6902151], [6.0060566, 49.6902568], [6.006097, 49.690266], [6.0061251, 49.6902724], [6.0062064, 49.6902923], [6.00631, 49.6903191], [6.0064415, 49.6903588], [6.0065298, 49.6903895], [6.0066361, 49.6904308], [6.0067518, 49.6904802], [6.0069004, 49.6905438], [6.0070234, 49.6906014], [6.0070884, 49.6905197], [6.007114, 49.6904875], [6.007181, 49.6904103], [6.0072081, 49.6903753], [6.0076797, 49.6905019], [6.0080122, 49.6905941], [6.0081169, 49.690624], [6.0084207, 49.6907107], [6.0086263, 49.6907691], [6.0088339, 49.6908282], [6.0090348, 49.6908852], [6.0090638, 49.6908931], [6.0094421, 49.6909963], [6.0094781, 49.6910036], [6.0095656, 49.6906841], [6.0095887, 49.6905404], [6.0095974, 49.6903782], [6.0095871, 49.6902462], [6.009561, 49.6901012], [6.0094719, 49.6896946], [6.0093795, 49.6892744], [6.0093548, 49.6891596], [6.0093157, 49.6889835], [6.0092934, 49.6888637], [6.0092808, 49.6887515], [6.0092738, 49.6886687], [6.0092798, 49.6885844], [6.0093362, 49.6885919], [6.0097258, 49.6886695], [6.0097879, 49.6886819], [6.009909, 49.6887061], [6.0101051, 49.6887451], [6.0104469, 49.6888129], [6.0106123, 49.6888457], [6.0108197, 49.688888], [6.0109954, 49.6889239], [6.0110711, 49.6889394], [6.0111633, 49.688958], [6.0113591, 49.6889975], [6.0115564, 49.6890373], [6.0116148, 49.6890491], [6.011692, 49.6890644], [6.0117848, 49.6890827], [6.0120039, 49.6891261], [6.0120888, 49.6891429], [6.0121498, 49.689155], [6.0122543, 49.6891767], [6.0124789, 49.6892234], [6.0125571, 49.6892396], [6.0126927, 49.6892678], [6.0129031, 49.6893125], [6.013081, 49.6893503], [6.0132148, 49.6893787], [6.0135372, 49.6894456], [6.013651, 49.6894693], [6.013737, 49.6894868], [6.0139051, 49.689521], [6.0140239, 49.6895452], [6.0141463, 49.6895671], [6.0142817, 49.6895913], [6.0145519, 49.6896401], [6.0149536, 49.6897153], [6.0155071, 49.68982], [6.0160108, 49.6899139], [6.0163502, 49.6899825], [6.0166896, 49.6900491], [6.0168941, 49.6900908], [6.0170044, 49.6901214], [6.0171676, 49.6900723], [6.0173357, 49.6900256], [6.0175024, 49.6899821], [6.0177309, 49.6899264], [6.0178699, 49.6898957], [6.0181319, 49.6898405], [6.0184884, 49.689774], [6.0187942, 49.6897229], [6.0179762, 49.6889037], [6.019806, 49.6877873], [6.0202485, 49.6870103], [6.02062, 49.6848259], [6.0211987, 49.6846981], [6.0230381, 49.6842841], [6.0254433, 49.6856648], [6.026954, 49.6857079], [6.0282869, 49.685521], [6.0292199, 49.684788], [6.0301308, 49.6844862], [6.0305307, 49.6837531], [6.0314307, 49.6833867], [6.0314967, 49.6823669], [6.029188, 49.6816131], [6.0288325, 49.6819535], [6.0281074, 49.6817051], [6.0282922, 49.6811715], [6.0277377, 49.6809416], [6.0288644, 49.6789871], [6.025634, 49.6781334], [6.0260162, 49.676255], [6.0239324, 49.6760784], [6.0209933, 49.6754895], [6.019783, 49.6723214], [6.0179904, 49.6697951], [6.0177357, 49.6698657], [6.0158157, 49.6673393], [6.0155063, 49.6673864], [6.0144689, 49.6656077], [6.0142323, 49.6647773], [6.0133679, 49.6646713], [6.0126672, 49.6643709], [6.0121642, 49.6639931]]]}}]}