{"type": "FeatureCollection", "features": [{"type": "Feature", "properties": {"name": "Olm"}, "geometry": {"type": "Polygon", "coordinates": [[[5.9774434, 49.6486418], [5.9775766, 49.6486884], [5.9779957, 49.6488181], [5.9784597, 49.6489654], [5.9788948, 49.649148], [5.9791351, 49.6492489], [5.9791828, 49.6492695], [5.9792298, 49.6492898], [5.9795365, 49.649422], [5.9796235, 49.6494633], [5.9796952, 49.6494973], [5.9798678, 49.6495862], [5.9799314, 49.6496237], [5.9800187, 49.6496753], [5.9805541, 49.6499841], [5.9808677, 49.6501688], [5.9810901, 49.6502896], [5.9811784, 49.6503376], [5.9811958, 49.6503461], [5.9815869, 49.6506646], [5.9819289, 49.6509729], [5.9822697, 49.651243], [5.9824026, 49.6513386], [5.9825697, 49.6514441], [5.982901, 49.6516299], [5.9829255, 49.6516437], [5.9829591, 49.6516625], [5.9831412, 49.6517605], [5.9833915, 49.6518912], [5.983576, 49.6519838], [5.9837034, 49.6520404], [5.9838445, 49.6521031], [5.9840961, 49.6522111], [5.9843259, 49.6523104], [5.9844952, 49.6523912], [5.9849606, 49.6525908], [5.9849839, 49.6526008], [5.9851542, 49.6526663], [5.9853523, 49.6527424], [5.9856205, 49.6528455], [5.9858019, 49.6529152], [5.9858503, 49.6529338], [5.9860483, 49.652932], [5.9866405, 49.6529602], [5.9866787, 49.6531605], [5.9867264, 49.6532908], [5.9867635, 49.6533675], [5.9868223, 49.6534709], [5.986868, 49.653535], [5.9869293, 49.6536022], [5.9870051, 49.6536779], [5.9869749, 49.653692], [5.9870387, 49.6537361], [5.9871435, 49.6537988], [5.9872845, 49.6538736], [5.9874252, 49.6539316], [5.9874951, 49.6539682], [5.9875987, 49.6540354], [5.9878211, 49.6542129], [5.9878433, 49.6542337], [5.9879073, 49.6543481], [5.9879186, 49.6543717], [5.9878988, 49.654394], [5.9878627, 49.6544346], [5.9877738, 49.6545453], [5.9877164, 49.6546256], [5.9876612, 49.6547086], [5.9876186, 49.6547811], [5.9875949, 49.6548326], [5.9875822, 49.6548751], [5.9875789, 49.6549234], [5.9875423, 49.6550655], [5.9874872, 49.6551829], [5.9874722, 49.6552035], [5.9873595, 49.6553588], [5.9872161, 49.6556001], [5.9871592, 49.6557167], [5.9870327, 49.6560626], [5.9869695, 49.6562313], [5.9868476, 49.6565461], [5.9867605, 49.6568116], [5.9866798, 49.6569943], [5.9866311, 49.6570857], [5.9864406, 49.6574016], [5.9865888, 49.6574772], [5.9867212, 49.6575448], [5.9868332, 49.6576228], [5.9869641, 49.6577139], [5.9870808, 49.6577951], [5.987282, 49.6579369], [5.9871438, 49.6580505], [5.9870425, 49.6581105], [5.9869955, 49.6581321], [5.9874835, 49.6583985], [5.9876939, 49.6585476], [5.9880193, 49.6587991], [5.9883647, 49.6591242], [5.988635, 49.6593607], [5.9888949, 49.6595338], [5.988845, 49.6595629], [5.9890534, 49.659769], [5.9892836, 49.6600024], [5.9896606, 49.6604903], [5.9902065, 49.6611374], [5.9902909, 49.6612571], [5.9903997, 49.661433], [5.9904118, 49.6614944], [5.9903924, 49.6615618], [5.9903427, 49.661687], [5.9902834, 49.6617976], [5.9902119, 49.661895], [5.9900791, 49.662093], [5.9899598, 49.6622708], [5.9898706, 49.6624039], [5.9897449, 49.6626174], [5.9896849, 49.6627195], [5.9895548, 49.6629149], [5.9895907, 49.6629635], [5.9897907, 49.6630328], [5.9898775, 49.6630622], [5.989963, 49.6630903], [5.9900593, 49.6631219], [5.9902467, 49.6631796], [5.9906876, 49.6632957], [5.990932, 49.6633495], [5.991146, 49.6633965], [5.9917577, 49.6634905], [5.9920777, 49.6635346], [5.9924221, 49.6635678], [5.994651, 49.6637986], [5.9972679, 49.6635215], [5.9990946, 49.6636109], [5.9999205, 49.6636347], [6.0001264, 49.6638035], [6.0070859, 49.6639829], [6.0121642, 49.6639931], [6.0116852, 49.6628384], [6.010931, 49.66161], [6.0120136, 49.6609407], [6.0131502, 49.6605352], [6.0132934, 49.6597473], [6.0136642, 49.6601148], [6.0144199, 49.6598165], [6.0132872, 49.6589294], [6.0136088, 49.6585221], [6.012616, 49.6581871], [6.0138745, 49.6565577], [6.0192861, 49.657128], [6.0202869, 49.6551161], [6.0202541, 49.6551048], [6.0202317, 49.655074], [6.0202189, 49.6550532], [6.020198, 49.6550412], [6.0201771, 49.6550323], [6.0201385, 49.6550193], [6.0201109, 49.6549998], [6.0201032, 49.6549885], [6.0201017, 49.6549617], [6.0200857, 49.6549269], [6.0200806, 49.6549119], [6.0200442, 49.6548624], [6.019996, 49.6548187], [6.0199543, 49.6547918], [6.0198836, 49.6547639], [6.019808, 49.6547351], [6.0197309, 49.6547111], [6.0195721, 49.6546672], [6.0194884, 49.6546445], [6.0190801, 49.6545946], [6.0186856, 49.6545465], [6.0184404, 49.6545155], [6.0180825, 49.6544702], [6.0177999, 49.6544352], [6.0172149, 49.6543581], [6.0169495, 49.65432], [6.016749, 49.6542851], [6.0164516, 49.6542301], [6.0164551, 49.6541467], [6.01646, 49.6541033], [6.0164662, 49.6540493], [6.0164718, 49.6540009], [6.0162226, 49.6539401], [6.0158046, 49.6538403], [6.0155428, 49.6537728], [6.0153753, 49.653732], [6.0152535, 49.6536995], [6.0154174, 49.6535189], [6.0152926, 49.65344], [6.0151566, 49.653363], [6.0146201, 49.6530722], [6.0144977, 49.6530179], [6.0143601, 49.6529525], [6.014248, 49.6529301], [6.0141229, 49.6529165], [6.0138819, 49.6528986], [6.0135779, 49.6528805], [6.0132982, 49.6528688], [6.0131115, 49.6528593], [6.0129625, 49.6528557], [6.0126211, 49.6527497], [6.0122489, 49.6526346], [6.0118925, 49.6525238], [6.0117264, 49.652475], [6.011544, 49.6523025], [6.0111351, 49.652244], [6.010929, 49.6522177], [6.0107617, 49.6522048], [6.0105993, 49.6521973], [6.0104924, 49.6521985], [6.0103412, 49.6522017], [6.0102883, 49.6522049], [6.0099416, 49.6523349], [6.0094641, 49.6525132], [6.0092687, 49.6525882], [6.0088336, 49.6525675], [6.0085727, 49.6525539], [6.0084114, 49.6525532], [6.0082384, 49.6525503], [6.0080802, 49.652552], [6.0078108, 49.6525538], [6.0076567, 49.6525597], [6.0074487, 49.6525667], [6.0069686, 49.6525965], [6.0065676, 49.6525996], [6.0064361, 49.6526006], [6.0062702, 49.6525931], [6.0061122, 49.6525831], [6.005977, 49.6525683], [6.0058269, 49.6525486], [6.005428, 49.6524957], [6.0051122, 49.6524391], [6.0048486, 49.6523841], [6.0043582, 49.6522568], [6.0039517, 49.6521428], [6.0036641, 49.6520451], [6.0032386, 49.6518767], [6.0024558, 49.6515529], [6.0024164, 49.6515285], [6.0020339, 49.6516633], [6.0019474, 49.6515389], [6.0018691, 49.6514176], [6.0017943, 49.6513261], [6.0016938, 49.6512589], [6.0015739, 49.6512053], [6.0013746, 49.6511356], [6.0011614, 49.6510877], [6.0008048, 49.65103], [6.0000761, 49.6509631], [5.999641, 49.6509252], [5.9995986, 49.6506698], [5.9995506, 49.650431], [5.9995152, 49.6502546], [5.9994512, 49.6499153], [5.9993946, 49.6497055], [5.9992948, 49.6494597], [5.9991518, 49.6491639], [5.9988873, 49.6485852], [5.9986661, 49.6480338], [5.9984919, 49.6475793], [5.9982519, 49.6470937], [5.9984081, 49.6469824], [5.9987996, 49.6466351], [5.9986857, 49.6465957], [5.9983538, 49.6464587], [5.9982437, 49.6464132], [5.9982327, 49.6464087], [5.9981662, 49.6463847], [5.9980493, 49.6463454], [5.9980848, 49.646295], [5.9980719, 49.6462666], [5.9980569, 49.6462542], [5.998027, 49.6462443], [5.9978178, 49.6462616], [5.9978038, 49.6461697], [5.9977761, 49.6459666], [5.9977637, 49.6459043], [5.9977479, 49.6458424], [5.9977265, 49.6456829], [5.9977195, 49.6455842], [5.9976998, 49.6454486], [5.9976801, 49.6453237], [5.9976713, 49.6452712], [5.9976496, 49.6451404], [5.9976425, 49.6450903], [5.9976227, 49.6449549], [5.9976138, 49.6448847], [5.9976032, 49.6447729], [5.9975871, 49.6446788], [5.9975635, 49.6446098], [5.9975061, 49.6444339], [5.9975019, 49.6444092], [5.9974681, 49.6443111], [5.9973686, 49.6439596], [5.997318, 49.6438828], [5.9970257, 49.6439648], [5.996899, 49.6439873], [5.9968877, 49.6439894], [5.9968692, 49.643992], [5.9967937, 49.6440098], [5.9967526, 49.6440194], [5.9966193, 49.644051], [5.9965727, 49.644062], [5.9964613, 49.6440881], [5.9964509, 49.6440906], [5.9963599, 49.6441123], [5.9963386, 49.6441174], [5.9962404, 49.6441408], [5.9962252, 49.6441441], [5.9960985, 49.6441716], [5.9959234, 49.6442097], [5.9958375, 49.6442284], [5.9957673, 49.6442437], [5.9957339, 49.6442507], [5.9956571, 49.6442673], [5.9956316, 49.6442728], [5.9955649, 49.6442872], [5.9954081, 49.644321], [5.9953986, 49.644323], [5.9952663, 49.6443526], [5.9951607, 49.6443744], [5.99513, 49.644381], [5.9948524, 49.6444404], [5.9946528, 49.6444793], [5.9946035, 49.6444887], [5.9944061, 49.6445266], [5.9943414, 49.644539], [5.9941787, 49.6445681], [5.9940976, 49.6445833], [5.9939444, 49.6446111], [5.993871, 49.6446251], [5.9938583, 49.6446275], [5.9935999, 49.6446767], [5.9935704, 49.6446823], [5.9935574, 49.6446848], [5.9933371, 49.6447268], [5.9932987, 49.6447341], [5.9932563, 49.6447422], [5.9930081, 49.6447895], [5.9929815, 49.6447944], [5.9928196, 49.6448246], [5.9926971, 49.6448474], [5.9926797, 49.6448506], [5.9926727, 49.6448519], [5.9924238, 49.6448983], [5.9923347, 49.6449149], [5.9921789, 49.6449461], [5.9920899, 49.6449639], [5.9920464, 49.6449736], [5.9919726, 49.6449902], [5.9918663, 49.6450141], [5.9917013, 49.6450512], [5.9916453, 49.6450638], [5.9913311, 49.6451216], [5.9913184, 49.645124], [5.9913066, 49.6451266], [5.9912744, 49.6451339], [5.9912517, 49.6451392], [5.9912132, 49.645148], [5.9912456, 49.645178], [5.9913821, 49.6452454], [5.9915313, 49.645336], [5.9914864, 49.6453423], [5.9912771, 49.6454136], [5.9912404, 49.6454266], [5.9911487, 49.6454539], [5.9910182, 49.6455036], [5.9909672, 49.6454298], [5.9907567, 49.6454675], [5.9906522, 49.6454864], [5.9906181, 49.6454943], [5.9904261, 49.6455438], [5.9904322, 49.6457083], [5.9904329, 49.6457282], [5.9900759, 49.6457639], [5.9901051, 49.645951], [5.9901251, 49.646079], [5.9901361, 49.6461495], [5.9901511, 49.6462522], [5.9901571, 49.6462936], [5.9901633, 49.6463361], [5.9901703, 49.646384], [5.9901781, 49.646439], [5.9901854, 49.6464909], [5.9901909, 49.6465304], [5.9902166, 49.6467131], [5.9902395, 49.6468788], [5.990363, 49.6468719], [5.9903736, 49.6469614], [5.9903842, 49.6470509], [5.9903994, 49.6471641], [5.9900862, 49.6472282], [5.9898625, 49.6471333], [5.9898544, 49.6471298], [5.9897261, 49.6471636], [5.9894321, 49.6472443], [5.9894065, 49.6472513], [5.9890498, 49.6473464], [5.9889797, 49.6473574], [5.9886311, 49.6474019], [5.9886103, 49.6474459], [5.9884801, 49.6477207], [5.9883594, 49.6479731], [5.9883246, 49.6480459], [5.9881673, 49.6481272], [5.9880627, 49.6481213], [5.9879421, 49.6482633], [5.9878639, 49.6483102], [5.9878293, 49.6483309], [5.9874774, 49.6485356], [5.9874091, 49.6485648], [5.9873365, 49.6485895], [5.9872244, 49.6486275], [5.9871442, 49.6486522], [5.9871372, 49.6486546], [5.9867226, 49.6485087], [5.9838128, 49.6474847], [5.9836231, 49.6474297], [5.9835421, 49.6474062], [5.9830406, 49.6472804], [5.9824597, 49.6471375], [5.9822331, 49.6470714], [5.9819733, 49.6470097], [5.9814787, 49.6468958], [5.9814453, 49.6468881], [5.9810638, 49.6467911], [5.9810555, 49.6467889], [5.980965, 49.6467759], [5.9809342, 49.6468305], [5.980897, 49.6468868], [5.9808482, 49.6469487], [5.9807911, 49.6470099], [5.98072, 49.6470668], [5.9806785, 49.6470944], [5.9806092, 49.6471477], [5.9805046, 49.6472138], [5.9804491, 49.6472434], [5.9801363, 49.6473082], [5.9795452, 49.6474308], [5.9788468, 49.6475754], [5.9787697, 49.6475979], [5.9786508, 49.6476363], [5.9786016, 49.6476573], [5.9785033, 49.6477397], [5.9784579, 49.6477777], [5.9784533, 49.6477817], [5.978368, 49.647836], [5.9782072, 49.6479384], [5.9781483, 49.6479885], [5.9780893, 49.6480379], [5.9779577, 49.6481946], [5.9777962, 49.6484027], [5.9774434, 49.6486418]]]}}]}