{"type": "FeatureCollection", "features": [{"type": "Feature", "properties": {"name": "Eschweiler"}, "geometry": {"type": "Polygon", "coordinates": [[[6.2993692, 49.70401], [6.2993115, 49.7040666], [6.2984147, 49.704037], [6.298204, 49.70403], [6.2974998, 49.7040023], [6.2973356, 49.7039959], [6.2971415, 49.7039744], [6.2965108, 49.7039207], [6.2958993, 49.7038638], [6.2954613, 49.7038187], [6.2953743, 49.7037937], [6.2950936, 49.7037132], [6.2947035, 49.7036013], [6.2946728, 49.7035925], [6.2940465, 49.7034109], [6.2934928, 49.7032507], [6.2934435, 49.7032365], [6.2932213, 49.7031736], [6.2931515, 49.7031578], [6.2928924, 49.7031177], [6.2924367, 49.7030436], [6.2919736, 49.7029744], [6.291168, 49.7028549], [6.2904547, 49.7027704], [6.2892012, 49.7025995], [6.2886575, 49.7024984], [6.2886146, 49.7024904], [6.2885003, 49.7024685], [6.2882049, 49.702412], [6.287702, 49.7023081], [6.2873655, 49.7022386], [6.2872972, 49.7022245], [6.2865639, 49.702072], [6.2864011, 49.7020381], [6.286292, 49.7020157], [6.285543, 49.7018619], [6.2854839, 49.7018499], [6.2842167, 49.7015925], [6.284132, 49.7015753], [6.2832317, 49.7013918], [6.2829867, 49.7013419], [6.2825718, 49.7012574], [6.2825589, 49.7012757], [6.2823912, 49.7014977], [6.2821413, 49.7018283], [6.2819311, 49.702112], [6.2818064, 49.7022803], [6.2816908, 49.7024477], [6.2816151, 49.7025578], [6.2813929, 49.7028483], [6.2813785, 49.7028672], [6.2812499, 49.7030737], [6.2811423, 49.7032466], [6.2810347, 49.7034174], [6.2808919, 49.7036409], [6.280543, 49.704084], [6.2804494, 49.7041977], [6.2802225, 49.7044332], [6.2801448, 49.7045139], [6.2798403, 49.7048183], [6.2798104, 49.7048421], [6.2792782, 49.7052667], [6.2792099, 49.7053212], [6.2789899, 49.7055173], [6.2789369, 49.7055668], [6.2788285, 49.705668], [6.2787294, 49.7057775], [6.2786785, 49.7058338], [6.278619, 49.7058995], [6.278213, 49.7063838], [6.278093, 49.7065311], [6.2779065, 49.70676], [6.2777544, 49.7069636], [6.277464, 49.7073662], [6.2772167, 49.7077155], [6.277557, 49.707791], [6.2778902, 49.7078649], [6.2781297, 49.707918], [6.278378, 49.707973], [6.2785819, 49.7080145], [6.2787725, 49.7080532], [6.2793524, 49.708171], [6.27955, 49.7082111], [6.2797444, 49.7082519], [6.2798867, 49.7082818], [6.2800154, 49.7083088], [6.2801623, 49.7083396], [6.2803564, 49.7083804], [6.2804844, 49.7084048], [6.2805499, 49.7084174], [6.2808122, 49.7084771], [6.2809549, 49.7085119], [6.2812772, 49.7085864], [6.2814305, 49.7086177], [6.2815679, 49.7086458], [6.2818215, 49.7086938], [6.282054, 49.7087284], [6.2823408, 49.7087693], [6.2825011, 49.7087922], [6.2828229, 49.7088302], [6.2833683, 49.7088945], [6.2839036, 49.7089659], [6.2840624, 49.7089802], [6.2842033, 49.7089905], [6.2844608, 49.7090094], [6.2844595, 49.7090215], [6.2844507, 49.7091082], [6.2844553, 49.7092015], [6.2845014, 49.7094151], [6.284428, 49.709442], [6.2846212, 49.7096453], [6.2849945, 49.7099768], [6.2852511, 49.710196], [6.2854671, 49.7103676], [6.28556, 49.7104377], [6.2858695, 49.7106815], [6.2860742, 49.7108285], [6.286155, 49.7108167], [6.2870155, 49.7106869], [6.2873443, 49.7106369], [6.287439, 49.7106224], [6.2876443, 49.7105909], [6.2879419, 49.7105471], [6.2881188, 49.7105208], [6.2881449, 49.710518], [6.2883078, 49.7106674], [6.2885631, 49.7108809], [6.2887272, 49.7110169], [6.2887578, 49.7110151], [6.2890651, 49.7110066], [6.2891703, 49.7110051], [6.2893419, 49.7110049], [6.2895775, 49.7110127], [6.2897401, 49.7110177], [6.2898532, 49.7110246], [6.2900601, 49.7110428], [6.2904882, 49.7110822], [6.2907647, 49.7111054], [6.2909895, 49.7111281], [6.2909885, 49.7111835], [6.2909867, 49.7112785], [6.2909844, 49.7114063], [6.2909833, 49.7114755], [6.2909801, 49.7116824], [6.2909796, 49.7117181], [6.290978, 49.7118224], [6.2909776, 49.7118565], [6.2909774, 49.7118734], [6.2909747, 49.7120837], [6.290974, 49.7121421], [6.2909742, 49.7122158], [6.2909763, 49.7122559], [6.290978, 49.712288], [6.290989, 49.7123912], [6.2910508, 49.7127097], [6.2910883, 49.7129192], [6.2911096, 49.7130309], [6.2911356, 49.7131671], [6.2911694, 49.7133417], [6.2911762, 49.7133575], [6.2911979, 49.7133908], [6.2912214, 49.7134221], [6.2913012, 49.7135286], [6.2913901, 49.7136472], [6.2915111, 49.7138088], [6.2916058, 49.7139351], [6.2916341, 49.7139694], [6.2916551, 49.7140011], [6.2916666, 49.7140185], [6.2916864, 49.7140507], [6.2917304, 49.7141225], [6.2918145, 49.7142732], [6.2918488, 49.7143338], [6.2919519, 49.7145164], [6.2919881, 49.7146081], [6.2923673, 49.7148908], [6.2926684, 49.7152716], [6.2927422, 49.715275], [6.2933174, 49.7152583], [6.2938555, 49.7152418], [6.2941946, 49.7152306], [6.2951693, 49.7152786], [6.2959463, 49.7153169], [6.2965239, 49.7153418], [6.2965675, 49.7153499], [6.2965668, 49.7155847], [6.2965234, 49.7156206], [6.2965326, 49.715715], [6.2965525, 49.7159187], [6.2965692, 49.7160618], [6.2965785, 49.7161411], [6.2965857, 49.7162026], [6.2965957, 49.7162679], [6.2965967, 49.7162747], [6.2966168, 49.7164061], [6.2966512, 49.7166313], [6.296653, 49.7166433], [6.2966735, 49.7167473], [6.2966916, 49.7169247], [6.2967027, 49.7170321], [6.296706, 49.7171177], [6.296707, 49.717142], [6.296711, 49.7172592], [6.2967187, 49.7174886], [6.2968257, 49.7175308], [6.2969418, 49.7175765], [6.2973545, 49.7177392], [6.2973319, 49.7177856], [6.2970546, 49.7183529], [6.2970424, 49.7183778], [6.2971141, 49.7184002], [6.2973845, 49.7184806], [6.2981115, 49.7186893], [6.2984231, 49.7187809], [6.2985263, 49.7188073], [6.2985853, 49.7188224], [6.2989098, 49.7188961], [6.2990779, 49.7189323], [6.2992109, 49.7189562], [6.2993781, 49.7189861], [6.2999296, 49.7190804], [6.3003293, 49.7191508], [6.3005872, 49.7191961], [6.3009135, 49.7192444], [6.300763, 49.7194268], [6.3006579, 49.719536], [6.3005152, 49.7196607], [6.3004446, 49.7197205], [6.3005069, 49.719754], [6.3008321, 49.7199292], [6.3009118, 49.7199721], [6.3009915, 49.7200133], [6.3012905, 49.720168], [6.3014666, 49.7202621], [6.3015227, 49.7202158], [6.3015968, 49.7201491], [6.3016763, 49.7200666], [6.3017437, 49.7199899], [6.3019091, 49.7197902], [6.3020099, 49.7196639], [6.3021068, 49.7195289], [6.3021793, 49.719406], [6.302194, 49.7193808], [6.3022329, 49.7193141], [6.3022828, 49.7192285], [6.3023428, 49.7192495], [6.3025786, 49.7193317], [6.3031489, 49.7195576], [6.303387, 49.7196531], [6.3035232, 49.7197232], [6.3037816, 49.719867], [6.3040885, 49.7200626], [6.3044188, 49.7202796], [6.3045474, 49.7203477], [6.3046831, 49.7204109], [6.3053982, 49.7207228], [6.3060105, 49.72098], [6.3058612, 49.721204], [6.3059253, 49.7212202], [6.306754, 49.7214268], [6.3071398, 49.7215234], [6.3073688, 49.7212858], [6.3076123, 49.7213738], [6.3082455, 49.7215942], [6.308658, 49.7217377], [6.3091693, 49.7219045], [6.3094037, 49.7219744], [6.3097621, 49.7220747], [6.3101543, 49.7221717], [6.3103305, 49.7222202], [6.3105252, 49.722265], [6.3106888, 49.7222981], [6.3108889, 49.7223345], [6.3112587, 49.7223863], [6.3113397, 49.7222515], [6.3113998, 49.7221516], [6.3115245, 49.7221662], [6.3117153, 49.7221885], [6.3118533, 49.7222046], [6.3119634, 49.7222175], [6.3121555, 49.7222389], [6.3122468, 49.7222491], [6.3125074, 49.7222781], [6.3126123, 49.7222898], [6.3127814, 49.7223062], [6.3131206, 49.722339], [6.3132503, 49.7223515], [6.3134747, 49.7223758], [6.3137924, 49.7224102], [6.3139033, 49.7224222], [6.3140578, 49.7224389], [6.3141205, 49.7224458], [6.3142948, 49.7224648], [6.3144847, 49.7224856], [6.3146755, 49.7225064], [6.3150187, 49.7220012], [6.3150724, 49.7219224], [6.3152499, 49.721662], [6.3153701, 49.7215105], [6.31555, 49.721283], [6.3156986, 49.7210951], [6.3159394, 49.7207887], [6.3161665, 49.7204917], [6.3162342, 49.7204031], [6.3162627, 49.7203682], [6.3170283, 49.7205962], [6.3180695, 49.7208956], [6.3182563, 49.7209434], [6.3184984, 49.7207319], [6.3186908, 49.7205292], [6.3187905, 49.7203762], [6.3188607, 49.7202488], [6.3189567, 49.7200883], [6.319099, 49.7198569], [6.3194223, 49.7194136], [6.3197042, 49.7190012], [6.3197731, 49.7188783], [6.31995, 49.7185558], [6.3199954, 49.7184731], [6.3200364, 49.7183553], [6.3201353, 49.7179641], [6.3201834, 49.7173292], [6.3202366, 49.7167751], [6.3202861, 49.7166121], [6.320696, 49.7160578], [6.3208403, 49.7158045], [6.3210384, 49.7155517], [6.3213392, 49.715285], [6.3219254, 49.714532], [6.3221538, 49.7142784], [6.3223764, 49.7140545], [6.322547, 49.7139277], [6.322708, 49.7138243], [6.3230876, 49.7137259], [6.3232252, 49.7136999], [6.3232276, 49.7136633], [6.3232656, 49.7130894], [6.3233202, 49.7128899], [6.32317, 49.7127288], [6.3230828, 49.7126621], [6.3229068, 49.7125702], [6.3228371, 49.7125338], [6.3224965, 49.7124438], [6.3224255, 49.712425], [6.3220262, 49.7123523], [6.3215676, 49.712267], [6.3215072, 49.7122546], [6.3205846, 49.7120641], [6.3209169, 49.7117219], [6.3210131, 49.7116227], [6.3210561, 49.7115869], [6.3210731, 49.7115726], [6.3211818, 49.7114819], [6.3212396, 49.7114336], [6.3212605, 49.7114161], [6.3213276, 49.7113589], [6.3213987, 49.7112982], [6.3214914, 49.7112191], [6.3215876, 49.711137], [6.3216297, 49.7111011], [6.32173, 49.7110168], [6.3218326, 49.7109306], [6.3219475, 49.7108323], [6.321992, 49.7107942], [6.3220622, 49.7107343], [6.3221857, 49.7106289], [6.3222213, 49.7105976], [6.3224118, 49.7104297], [6.3224963, 49.7103518], [6.322508, 49.7103411], [6.322568, 49.7102858], [6.3227534, 49.7100924], [6.3228831, 49.7099571], [6.3230109, 49.7098239], [6.3231933, 49.7096339], [6.3233842, 49.7094351], [6.3234377, 49.70938], [6.3235273, 49.7092875], [6.3237547, 49.7090528], [6.3243853, 49.7083903], [6.3244082, 49.7083679], [6.3229382, 49.7078707], [6.3225471, 49.7077574], [6.3222826, 49.7076808], [6.3214581, 49.7074946], [6.3215956, 49.7070568], [6.3216565, 49.7069699], [6.3216829, 49.7069233], [6.3216161, 49.7068094], [6.3215291, 49.7067019], [6.3214377, 49.7066062], [6.3212708, 49.7064794], [6.3209414, 49.7063045], [6.3203868, 49.7060653], [6.3202264, 49.7059703], [6.3200021, 49.7058745], [6.319842, 49.7058452], [6.3197153, 49.7058413], [6.3195064, 49.7058525], [6.3193416, 49.7058322], [6.3191881, 49.705781], [6.3190567, 49.7055802], [6.3188159, 49.7053284], [6.3186835, 49.7052092], [6.3185511, 49.7051484], [6.318332, 49.7050775], [6.3177741, 49.7048868], [6.3174375, 49.7047656], [6.316889, 49.7045382], [6.3165115, 49.7043818], [6.3161277, 49.7042535], [6.3159201, 49.7041786], [6.3158567, 49.7041493], [6.3157709, 49.7040891], [6.3156656, 49.7039978], [6.3156133, 49.7039677], [6.3155266, 49.703939], [6.3149073, 49.7038357], [6.3145503, 49.7037734], [6.3143112, 49.7037176], [6.3138475, 49.7035983], [6.3134848, 49.7034923], [6.3133469, 49.7034363], [6.3132289, 49.7033796], [6.3131248, 49.7033288], [6.3130203, 49.7033008], [6.3128869, 49.7032791], [6.3126857, 49.7032553], [6.3126267, 49.703241], [6.3125189, 49.7032151], [6.3124444, 49.7032056], [6.3121911, 49.7032107], [6.3120619, 49.7032157], [6.3119808, 49.7032097], [6.3118785, 49.7031844], [6.3117873, 49.7031613], [6.3115706, 49.7031362], [6.3114216, 49.7031124], [6.3113333, 49.7030928], [6.311241, 49.7030799], [6.3111599, 49.7030807], [6.3110599, 49.7030911], [6.3109078, 49.7031139], [6.3106719, 49.7031393], [6.3105919, 49.7031537], [6.3103422, 49.7031707], [6.3100278, 49.7031848], [6.3096608, 49.7031921], [6.3095474, 49.7031819], [6.3093807, 49.7031657], [6.3092685, 49.7031631], [6.3089014, 49.7031738], [6.3086725, 49.7031728], [6.3083602, 49.7031615], [6.3081587, 49.7031576], [6.308082, 49.7031543], [6.3079252, 49.7031257], [6.3078007, 49.7031067], [6.3076818, 49.7030979], [6.3075708, 49.7030986], [6.3072302, 49.7031042], [6.3072359, 49.7031125], [6.3073121, 49.7032251], [6.3073613, 49.7032977], [6.3074519, 49.7034257], [6.3074641, 49.7034428], [6.3075006, 49.70349], [6.3075215, 49.7035092], [6.3062488, 49.7035489], [6.3058006, 49.7035568], [6.3040903, 49.7035848], [6.3034446, 49.7036003], [6.3024251, 49.7036294], [6.3013968, 49.7037384], [6.3013017, 49.7037514], [6.3009794, 49.7037956], [6.300202, 49.7038981], [6.2994659, 49.7039952], [6.2994004, 49.7040039], [6.2993692, 49.70401]]]}}]}