{"type": "FeatureCollection", "features": [{"type": "Feature", "properties": {"name": "Junglinster"}, "geometry": {"type": "Polygon", "coordinates": [[[6.2649035, 49.744297], [6.2649249, 49.7442966], [6.2651737, 49.7442907], [6.2651866, 49.7442904], [6.2655843, 49.744281], [6.2656035, 49.7442806], [6.2656189, 49.7442802], [6.2657757, 49.7442793], [6.2657972, 49.7442792], [6.2658231, 49.744279], [6.2659506, 49.7442783], [6.2661049, 49.7442775], [6.2664749, 49.7442737], [6.2664881, 49.7442737], [6.2665526, 49.7442916], [6.267105, 49.7442618], [6.2688365, 49.7442171], [6.2694347, 49.7442062], [6.270065, 49.7441988], [6.2704361, 49.7441945], [6.2714, 49.7441998], [6.2715255, 49.7442136], [6.2716429, 49.7442262], [6.2717217, 49.7442304], [6.2718068, 49.744234], [6.2718838, 49.7442344], [6.2719808, 49.7442294], [6.2720777, 49.7442356], [6.2721445, 49.7442373], [6.2722192, 49.7442359], [6.2722955, 49.7442306], [6.2723666, 49.7442208], [6.2724241, 49.7442114], [6.2725066, 49.7441985], [6.2725469, 49.7441926], [6.272592, 49.7441861], [6.2726538, 49.7441789], [6.272746, 49.7441714], [6.2728311, 49.744165], [6.2730196, 49.7441628], [6.2731826, 49.7441617], [6.2734638, 49.744165], [6.2734994, 49.7441727], [6.2735493, 49.7441835], [6.2736918, 49.7442167], [6.2737838, 49.7442372], [6.2739462, 49.7442685], [6.2740852, 49.7442907], [6.274213, 49.7443105], [6.2742696, 49.7443176], [6.2743675, 49.7443298], [6.2744853, 49.7443412], [6.2746055, 49.7443473], [6.2746996, 49.7443503], [6.2747707, 49.7443458], [6.2747924, 49.7443428], [6.2748547, 49.7443342], [6.274948, 49.744316], [6.2750492, 49.7442907], [6.2751708, 49.7442543], [6.2752627, 49.7442202], [6.2753837, 49.7441667], [6.2754684, 49.7441251], [6.2755094, 49.7441012], [6.2755276, 49.7440906], [6.2756926, 49.7439849], [6.2757413, 49.7439521], [6.2757779, 49.7439252], [6.2758258, 49.7438899], [6.2758638, 49.743858], [6.2758896, 49.7438327], [6.2759131, 49.7438099], [6.2759511, 49.7437838], [6.2759927, 49.743759], [6.276021, 49.7437461], [6.2760544, 49.743731], [6.2761886, 49.7436862], [6.2763159, 49.7436415], [6.2763547, 49.743626], [6.2764962, 49.7435738], [6.2765604, 49.7435553], [6.2767749, 49.7435045], [6.2768848, 49.7434785], [6.2771622, 49.7434142], [6.2773271, 49.743377], [6.2777003, 49.7432903], [6.2779399, 49.7432372], [6.2780863, 49.7432054], [6.278335, 49.7431494], [6.2784947, 49.7431161], [6.2789096, 49.7430298], [6.2791523, 49.7429794], [6.279361, 49.7429359], [6.2794169, 49.7429699], [6.2797035, 49.742917], [6.2800689, 49.7428454], [6.2805287, 49.7427612], [6.2806556, 49.7427389], [6.2807272, 49.7427263], [6.2808404, 49.7427161], [6.281162, 49.7426941], [6.2812783, 49.7426871], [6.2814437, 49.7426756], [6.2817655, 49.7426382], [6.2821941, 49.7425985], [6.2823239, 49.7425576], [6.2823609, 49.7424875], [6.2823886, 49.7424411], [6.2824245, 49.7423933], [6.2824854, 49.7423143], [6.2825448, 49.7422838], [6.2826303, 49.7422501], [6.282702, 49.7422249], [6.2828011, 49.7421946], [6.2828926, 49.7421705], [6.2829782, 49.7421501], [6.2830586, 49.7421276], [6.2832419, 49.7420544], [6.2834603, 49.7419654], [6.283658, 49.7418745], [6.2838458, 49.7417631], [6.2840438, 49.7416265], [6.2842873, 49.7414712], [6.284499, 49.74134], [6.2845853, 49.741286], [6.2846664, 49.741227], [6.2847199, 49.7411963], [6.2851122, 49.7409477], [6.285131, 49.7409357], [6.2852175, 49.7408809], [6.2853802, 49.7407779], [6.2857568, 49.7408315], [6.2860763, 49.7408713], [6.2861995, 49.7408867], [6.2862335, 49.740891], [6.2863635, 49.7409063], [6.2865019, 49.7408248], [6.2870639, 49.7406158], [6.2869704, 49.7403761], [6.2869409, 49.7402654], [6.2869433, 49.7401607], [6.2869695, 49.7400282], [6.287245, 49.7396124], [6.2873077, 49.739632], [6.2873356, 49.7396412], [6.2874942, 49.7395624], [6.2876343, 49.7394929], [6.2878055, 49.7394079], [6.2879286, 49.739348], [6.2877771, 49.7386632], [6.2875993, 49.7385462], [6.2875905, 49.7385371], [6.287565, 49.7385093], [6.2875313, 49.7384685], [6.2875112, 49.7384385], [6.2874817, 49.7383877], [6.2874722, 49.7383663], [6.2874665, 49.7383536], [6.2874586, 49.7383356], [6.2874496, 49.7383041], [6.2874457, 49.7382721], [6.2874567, 49.7381721], [6.2874748, 49.7381157], [6.2874881, 49.7380739], [6.2875356, 49.7379539], [6.2876336, 49.7377693], [6.2875514, 49.7372988], [6.2876917, 49.7372133], [6.2877192, 49.7371849], [6.2877511, 49.737152], [6.287774, 49.7370909], [6.2877837, 49.7370152], [6.2877525, 49.7369402], [6.2877503, 49.7369349], [6.2877298, 49.7368721], [6.2877159, 49.7368029], [6.287698, 49.7367141], [6.28769, 49.7366741], [6.287671, 49.7366281], [6.28765, 49.7365582], [6.2876421, 49.7365096], [6.287642, 49.7364581], [6.2876486, 49.7363947], [6.2876624, 49.7363333], [6.2876727, 49.7362985], [6.2876868, 49.7362697], [6.2877175, 49.7361924], [6.287761, 49.736074], [6.2878186, 49.7359168], [6.2879822, 49.7356338], [6.2880937, 49.7355046], [6.288157, 49.7354313], [6.2882506, 49.7353228], [6.2883198, 49.7352442], [6.288542, 49.734995], [6.288924, 49.7345666], [6.2888042, 49.7345929], [6.2886417, 49.7346212], [6.2885197, 49.7346347], [6.2883513, 49.73464], [6.2882467, 49.734645], [6.2881977, 49.7344969], [6.2882187, 49.734275], [6.287937, 49.7342056], [6.2876577, 49.7341368], [6.2871307, 49.734007], [6.2866537, 49.7338811], [6.2859861, 49.7335085], [6.2848956, 49.7329188], [6.2847343, 49.7328316], [6.2841968, 49.7321828], [6.2831889, 49.730955], [6.2828166, 49.7305026], [6.2828908, 49.7304789], [6.2830306, 49.7304342], [6.2829938, 49.730249], [6.2829277, 49.7300866], [6.282812, 49.7299234], [6.2826876, 49.7298242], [6.2824789, 49.7297047], [6.2823111, 49.7296307], [6.2821819, 49.7295559], [6.2820735, 49.7294775], [6.2819256, 49.7294601], [6.2817501, 49.7292605], [6.2818299, 49.7291962], [6.2821331, 49.728952], [6.2832605, 49.7280523], [6.2834114, 49.7279219], [6.2836476, 49.7277346], [6.2837177, 49.7276791], [6.2837524, 49.7276278], [6.2841839, 49.7272637], [6.2842358, 49.7272572], [6.2849357, 49.7271694], [6.2850437, 49.7268412], [6.2850922, 49.7266859], [6.2851502, 49.7265092], [6.2852228, 49.7262858], [6.2853374, 49.7259328], [6.2853361, 49.725913], [6.2853305, 49.7258304], [6.2853259, 49.7257621], [6.2853014, 49.725402], [6.285294, 49.7253005], [6.2852784, 49.7250891], [6.2852736, 49.7250228], [6.2852786, 49.7249553], [6.2852217, 49.724701], [6.2850387, 49.7238811], [6.2850333, 49.7238572], [6.2849757, 49.7235903], [6.2849171, 49.7233185], [6.2848805, 49.7231286], [6.284832, 49.722877], [6.2845827, 49.7228827], [6.2844613, 49.7228828], [6.2842639, 49.722853], [6.2843619, 49.7226421], [6.2844218, 49.7225131], [6.2846782, 49.722022], [6.2849601, 49.7215802], [6.2851742, 49.7211688], [6.2853455, 49.720741], [6.2854678, 49.7203809], [6.2855555, 49.7200186], [6.2854948, 49.7199821], [6.2855318, 49.7199517], [6.2855241, 49.7197016], [6.2854908, 49.7192405], [6.2854239, 49.7188335], [6.2853554, 49.7184273], [6.2853097, 49.7181363], [6.2852236, 49.7177543], [6.2851487, 49.7174097], [6.2850898, 49.7169992], [6.2850069, 49.7166387], [6.2849029, 49.7162189], [6.2848253, 49.7160092], [6.2846569, 49.7155818], [6.2845974, 49.7154243], [6.2844871, 49.7150441], [6.2844749, 49.714659], [6.2844259, 49.714347], [6.2844094, 49.7141708], [6.2844055, 49.7139012], [6.2844238, 49.7135021], [6.2844362, 49.713237], [6.2843456, 49.713022], [6.2842339, 49.7127579], [6.2842065, 49.7127048], [6.2840678, 49.7125673], [6.2839613, 49.7124499], [6.2838082, 49.7122502], [6.2837304, 49.7120008], [6.2836817, 49.7118287], [6.2837426, 49.7117125], [6.2835058, 49.7112861], [6.2835325, 49.7112821], [6.2843074, 49.7111425], [6.2846244, 49.711085], [6.2859883, 49.7108439], [6.2860742, 49.7108285], [6.2858695, 49.7106815], [6.28556, 49.7104377], [6.2854671, 49.7103676], [6.2852511, 49.710196], [6.2849945, 49.7099768], [6.2846212, 49.7096453], [6.284428, 49.709442], [6.2845014, 49.7094151], [6.2844553, 49.7092015], [6.2844507, 49.7091082], [6.2844595, 49.7090215], [6.2844608, 49.7090094], [6.2842033, 49.7089905], [6.2840624, 49.7089802], [6.2839036, 49.7089659], [6.2833683, 49.7088945], [6.2828229, 49.7088302], [6.2825011, 49.7087922], [6.2823408, 49.7087693], [6.282054, 49.7087284], [6.2818215, 49.7086938], [6.2815679, 49.7086458], [6.2814305, 49.7086177], [6.2812772, 49.7085864], [6.2809549, 49.7085119], [6.2808122, 49.7084771], [6.2805499, 49.7084174], [6.2804844, 49.7084048], [6.2803564, 49.7083804], [6.2801623, 49.7083396], [6.2800154, 49.7083088], [6.2798867, 49.7082818], [6.2797444, 49.7082519], [6.27955, 49.7082111], [6.2793524, 49.708171], [6.2787725, 49.7080532], [6.2785819, 49.7080145], [6.278378, 49.707973], [6.2781297, 49.707918], [6.2778902, 49.7078649], [6.277557, 49.707791], [6.2772167, 49.7077155], [6.277464, 49.7073662], [6.2777544, 49.7069636], [6.2779065, 49.70676], [6.278093, 49.7065311], [6.278213, 49.7063838], [6.278619, 49.7058995], [6.2786785, 49.7058338], [6.2787294, 49.7057775], [6.2788285, 49.705668], [6.2789369, 49.7055668], [6.2789899, 49.7055173], [6.2792099, 49.7053212], [6.2792782, 49.7052667], [6.2798104, 49.7048421], [6.2798403, 49.7048183], [6.2801448, 49.7045139], [6.2802225, 49.7044332], [6.2804494, 49.7041977], [6.280543, 49.704084], [6.2808919, 49.7036409], [6.2810347, 49.7034174], [6.2811423, 49.7032466], [6.2812499, 49.7030737], [6.2813785, 49.7028672], [6.2813929, 49.7028483], [6.2816151, 49.7025578], [6.2816908, 49.7024477], [6.2818064, 49.7022803], [6.2819311, 49.702112], [6.2821413, 49.7018283], [6.2823912, 49.7014977], [6.2825589, 49.7012757], [6.2818007, 49.7010338], [6.281281, 49.7008742], [6.2812405, 49.7008618], [6.2813221, 49.7007637], [6.2812878, 49.7007463], [6.2809635, 49.7005818], [6.2809125, 49.7005559], [6.2802914, 49.7002079], [6.279653, 49.6998257], [6.2792807, 49.6995968], [6.2791422, 49.6995117], [6.2789946, 49.6994118], [6.2785988, 49.6991442], [6.2782355, 49.698876], [6.2780161, 49.6986839], [6.2779363, 49.6985712], [6.2778767, 49.6984689], [6.2778262, 49.6983742], [6.2777953, 49.6983162], [6.2774984, 49.6983432], [6.2773368, 49.6983814], [6.2772355, 49.6984054], [6.2769202, 49.6981942], [6.2767111, 49.6980542], [6.2763287, 49.6978003], [6.2760176, 49.6980405], [6.2758312, 49.6981679], [6.2756235, 49.6982911], [6.2751394, 49.6985402], [6.2750727, 49.6985745], [6.2746892, 49.6987542], [6.2746387, 49.6987727], [6.2743819, 49.6988666], [6.2740935, 49.6989416], [6.2737941, 49.6989775], [6.2734569, 49.6989965], [6.2731779, 49.6990035], [6.2729162, 49.6989936], [6.272471, 49.6989583], [6.2719988, 49.6989095], [6.2717979, 49.6988835], [6.2717573, 49.6988782], [6.2715178, 49.6988472], [6.2705787, 49.698719], [6.2706089, 49.6988999], [6.270661, 49.6993125], [6.27045, 49.6993818], [6.2703258, 49.6994226], [6.2701838, 49.6994692], [6.2701516, 49.6994817], [6.2700178, 49.6995334], [6.2699279, 49.6995682], [6.2697579, 49.6996339], [6.2696679, 49.6996687], [6.2694809, 49.6997509], [6.269262, 49.6998471], [6.2691908, 49.6998784], [6.2689556, 49.6999777], [6.2688799, 49.70001], [6.26858, 49.7001379], [6.2683707, 49.7002271], [6.2682533, 49.7002772], [6.2682087, 49.7002567], [6.2679826, 49.7001569], [6.2679762, 49.700154], [6.2679757, 49.7001539], [6.2679361, 49.7001441], [6.2677309, 49.7000932], [6.2675527, 49.7000593], [6.2674844, 49.7000535], [6.267434, 49.7000493], [6.267033, 49.7000571], [6.2671634, 49.7002035], [6.2671909, 49.7002594], [6.2663944, 49.7001387], [6.2658358, 49.7000492], [6.2654499, 49.6999901], [6.2651044, 49.699919], [6.2648382, 49.6998178], [6.2648122, 49.6998028], [6.2646236, 49.6996939], [6.2645154, 49.6996062], [6.2644015, 49.6994955], [6.2642743, 49.6993613], [6.2641522, 49.6992282], [6.2640698, 49.6992029], [6.263978, 49.6991747], [6.263928, 49.6991594], [6.2637387, 49.6990962], [6.263668, 49.6990669], [6.2635804, 49.6990305], [6.2635227, 49.699005], [6.263195, 49.6988602], [6.2625685, 49.6985329], [6.2624208, 49.6984672], [6.2621319, 49.6983434], [6.2618025, 49.6982078], [6.2615874, 49.6981304], [6.2615212, 49.6981934], [6.2612517, 49.69845], [6.2611482, 49.6985485], [6.2610379, 49.6986516], [6.260983, 49.6987], [6.2609812, 49.6987351], [6.2609898, 49.6987534], [6.2610173, 49.698812], [6.2611042, 49.698981], [6.2612156, 49.6991287], [6.2613184, 49.6992297], [6.2614661, 49.6993519], [6.2615957, 49.6994413], [6.2617393, 49.6995436], [6.2617614, 49.6995594], [6.2616725, 49.699756], [6.2615002, 49.7001369], [6.2614538, 49.7002436], [6.2613681, 49.7004407], [6.2613286, 49.7004893], [6.2612607, 49.7005477], [6.2612124, 49.7005892], [6.2610837, 49.7006998], [6.2610585, 49.7007215], [6.2610243, 49.7007508], [6.2608678, 49.7008854], [6.2608351, 49.7008767], [6.2607753, 49.7008608], [6.2604687, 49.7007794], [6.260459, 49.7007769], [6.2604944, 49.7007104], [6.260604, 49.7005095], [6.260615, 49.7004676], [6.2606804, 49.7002849], [6.260741, 49.7000997], [6.2608134, 49.6998662], [6.2606633, 49.699702], [6.2604698, 49.6994861], [6.2602922, 49.6992971], [6.2602819, 49.6993018], [6.2601088, 49.6991785], [6.2599978, 49.6992347], [6.259856, 49.6993066], [6.2597715, 49.6992624], [6.2594265, 49.6990819], [6.2593842, 49.6990603], [6.2590419, 49.6988861], [6.2587387, 49.6987629], [6.2585699, 49.6990237], [6.2584431, 49.6992274], [6.2584228, 49.69926], [6.2583918, 49.6993098], [6.2583562, 49.699367], [6.2583146, 49.6994339], [6.2583034, 49.6994518], [6.2583035, 49.6994675], [6.2584, 49.6996725], [6.2583452, 49.6997652], [6.2580412, 49.7002249], [6.2581038, 49.7002966], [6.258259, 49.7004956], [6.2583002, 49.7005763], [6.2581827, 49.7006448], [6.2580372, 49.7007545], [6.2579251, 49.7008578], [6.2578681, 49.7008948], [6.2576818, 49.7010157], [6.2573242, 49.701261], [6.2573477, 49.7014428], [6.2573301, 49.701573], [6.2570244, 49.7016368], [6.2567109, 49.701701], [6.2565719, 49.7017156], [6.2564453, 49.7017169], [6.2563348, 49.7017091], [6.2561672, 49.7016913], [6.2556763, 49.7016369], [6.2552895, 49.7016091], [6.2550724, 49.7015937], [6.2547876, 49.7015735], [6.2547181, 49.7015634], [6.254448, 49.7014982], [6.2543464, 49.7014726], [6.2541343, 49.7016911], [6.2540905, 49.7017464], [6.2540216, 49.7018335], [6.2540187, 49.7018384], [6.2539417, 49.7019713], [6.2539164, 49.7020152], [6.2539554, 49.7020279], [6.2539651, 49.7023578], [6.2539631, 49.7025731], [6.253962, 49.7026879], [6.2538284, 49.7029235], [6.2534395, 49.7028615], [6.2530164, 49.7027704], [6.2526, 49.7026631], [6.2516695, 49.7023826], [6.251632, 49.7023713], [6.2516297, 49.702452], [6.2515916, 49.7024492], [6.2512556, 49.7024245], [6.2510319, 49.702408], [6.2505583, 49.7023712], [6.2505701, 49.7021889], [6.250588, 49.7019119], [6.2498166, 49.7018832], [6.248804, 49.7017746], [6.2486649, 49.7017596], [6.2484921, 49.7017411], [6.2484577, 49.7017288], [6.248456, 49.7017319], [6.2484241, 49.7017914], [6.2484101, 49.7018176], [6.2484037, 49.7018294], [6.2481703, 49.7022648], [6.2479404, 49.7026935], [6.2476418, 49.7032006], [6.2475732, 49.7032128], [6.2475412, 49.7032579], [6.247401, 49.7032075], [6.2449122, 49.7023126], [6.2447307, 49.7025249], [6.2445306, 49.7027632], [6.2444117, 49.7029047], [6.2442735, 49.7030692], [6.2427324, 49.702616], [6.242721, 49.7025994], [6.2426733, 49.7025598], [6.2425855, 49.702503], [6.2420338, 49.7021451], [6.2419529, 49.7020781], [6.2421192, 49.7020057], [6.2424499, 49.7018716], [6.2425549, 49.7018282], [6.2427746, 49.7017364], [6.2429451, 49.7015722], [6.2431344, 49.7014096], [6.2431419, 49.7014027], [6.2432254, 49.7013309], [6.2433012, 49.7012657], [6.2433321, 49.7012393], [6.243435, 49.701151], [6.2433605, 49.7011167], [6.2431294, 49.7010115], [6.2428047, 49.7008537], [6.2427192, 49.7008234], [6.2425043, 49.7007769], [6.242318, 49.7007469], [6.2419721, 49.7006994], [6.2418897, 49.7006881], [6.2419033, 49.7006514], [6.2419278, 49.7005726], [6.2419476, 49.7004965], [6.2419522, 49.7004759], [6.2419629, 49.7004286], [6.2419756, 49.7003546], [6.2419801, 49.7003283], [6.2419936, 49.700232], [6.2420141, 49.7001085], [6.2420276, 49.7000315], [6.2420354, 49.6999361], [6.2420435, 49.6998551], [6.242047, 49.6997445], [6.242046, 49.6997221], [6.2420417, 49.6996232], [6.2420498, 49.6995441], [6.2420421, 49.6994245], [6.2419848, 49.6994987], [6.2419851, 49.6994184], [6.2409517, 49.6990381], [6.2404236, 49.6988379], [6.2403101, 49.698808], [6.2401091, 49.6987941], [6.2399859, 49.6987857], [6.23994, 49.698784], [6.239867, 49.6987824], [6.2397981, 49.6987816], [6.2397212, 49.6987875], [6.2396064, 49.6987917], [6.2394605, 49.6988068], [6.239287, 49.6988234], [6.2391479, 49.6988393], [6.2391317, 49.6988419], [6.2388229, 49.6989783], [6.2387109, 49.6990325], [6.2385786, 49.6991134], [6.2384855, 49.6991743], [6.2384483, 49.6991576], [6.2383174, 49.6990989], [6.2379768, 49.6989442], [6.2379038, 49.6989193], [6.2378201, 49.6988944], [6.2377417, 49.6988811], [6.2376593, 49.6988728], [6.2375728, 49.6988695], [6.2374499, 49.6988721], [6.2373737, 49.6988746], [6.2372643, 49.6988905], [6.2371509, 49.6989064], [6.2370078, 49.698929], [6.2369642, 49.698936], [6.2367605, 49.698969], [6.2366734, 49.6989831], [6.2362831, 49.6990483], [6.2358722, 49.6991157], [6.2352228, 49.6992258], [6.235504, 49.699506], [6.2353649, 49.6995518], [6.2353394, 49.6995592], [6.2351273, 49.6996203], [6.2346889, 49.6997477], [6.2344646, 49.699817], [6.2345192, 49.6998614], [6.2345855, 49.6999189], [6.2346342, 49.699968], [6.2346951, 49.7000271], [6.234737, 49.7000737], [6.2348166, 49.7001639], [6.2350492, 49.7004723], [6.2350858, 49.7005231], [6.2351345, 49.7005988], [6.2352631, 49.7008156], [6.2350958, 49.7008675], [6.2349108, 49.7009249], [6.2345921, 49.7010238], [6.2344604, 49.7010647], [6.2342816, 49.7011187], [6.2341205, 49.7011674], [6.2340555, 49.7011871], [6.2340188, 49.7011982], [6.2339236, 49.7012614], [6.2338011, 49.7013426], [6.2337304, 49.7013895], [6.2336175, 49.7014633], [6.2334272, 49.7015876], [6.2332633, 49.7016947], [6.2332245, 49.7017201], [6.2330874, 49.7018078], [6.2329605, 49.7018889], [6.2325454, 49.7020505], [6.2323117, 49.7021406], [6.2319005, 49.7022991], [6.231872, 49.7023101], [6.231855, 49.7023162], [6.2319172, 49.7024412], [6.2319436, 49.7025122], [6.2319553, 49.7025626], [6.2319568, 49.7026139], [6.2319205, 49.7026294], [6.2317667, 49.7026996], [6.231649, 49.7027534], [6.231522, 49.7028031], [6.2313796, 49.7028462], [6.2312717, 49.7028755], [6.2311106, 49.70291], [6.2309295, 49.7029407], [6.2307204, 49.7029685], [6.2307053, 49.7029698], [6.2305222, 49.7029867], [6.2303813, 49.7029963], [6.2302481, 49.7030002], [6.2300649, 49.703002], [6.2298248, 49.7029907], [6.2295646, 49.7029775], [6.2294411, 49.7029681], [6.2293151, 49.7029585], [6.2292893, 49.7029564], [6.2290475, 49.7033786], [6.2288075, 49.703789], [6.2287099, 49.7039444], [6.228624, 49.7040812], [6.2282134, 49.7046999], [6.227848, 49.7052598], [6.2276487, 49.7055813], [6.2274519, 49.7058397], [6.2271607, 49.7062587], [6.2267281, 49.7067854], [6.226345, 49.7072389], [6.2263387, 49.7072958], [6.2263047, 49.7073834], [6.2262242, 49.7075481], [6.2262145, 49.7075986], [6.2262243, 49.707625], [6.2262838, 49.7076993], [6.2263646, 49.7078243], [6.2264388, 49.7079868], [6.2265744, 49.7082971], [6.2267656, 49.7087332], [6.2268221, 49.7088797], [6.2268319, 49.7089379], [6.2268282, 49.7090837], [6.2268381, 49.7092421], [6.2268636, 49.7093531], [6.2269094, 49.7094641], [6.2269308, 49.7095056], [6.2269571, 49.7095392], [6.2270136, 49.7095746], [6.2272248, 49.7096515], [6.2274331, 49.7097175], [6.2274724, 49.70974], [6.2275088, 49.7097758], [6.2275261, 49.7098197], [6.2275265, 49.7098542], [6.2275023, 49.7099013], [6.2274207, 49.7100505], [6.2273698, 49.7101578], [6.2273383, 49.7102613], [6.2272214, 49.7107155], [6.2271218, 49.711112], [6.2271, 49.711258], [6.2271391, 49.7114983], [6.2271553, 49.7116464], [6.2271543, 49.7118547], [6.2271542, 49.7118754], [6.2270673, 49.712356], [6.226969, 49.7128803], [6.2269255, 49.7130249], [6.2268288, 49.7132301], [6.2267038, 49.7134722], [6.2265065, 49.7139236], [6.226361, 49.7142285], [6.22627, 49.7144524], [6.2261163, 49.7147401], [6.2259378, 49.7149934], [6.2258994, 49.7150633], [6.2258893, 49.7151352], [6.2258585, 49.7151635], [6.2249205, 49.7159665], [6.224754, 49.715973], [6.2245212, 49.7159878], [6.2243127, 49.7160122], [6.2241316, 49.7160369], [6.2240222, 49.716059], [6.2239566, 49.7160799], [6.2238969, 49.7161167], [6.2235742, 49.7163236], [6.2234594, 49.7163983], [6.2233774, 49.7164547], [6.2233254, 49.7164936], [6.2233081, 49.7165189], [6.2232971, 49.7165705], [6.2232816, 49.7167455], [6.2232786, 49.7168545], [6.2232945, 49.7169683], [6.2233326, 49.7171983], [6.2233532, 49.7173198], [6.2233785, 49.7173933], [6.2233935, 49.7174307], [6.2235146, 49.7177325], [6.2235651, 49.7178593], [6.2236117, 49.7179009], [6.2237957, 49.7180653], [6.2240794, 49.7183203], [6.2242466, 49.7184753], [6.2243733, 49.7185858], [6.2245039, 49.7186997], [6.2246568, 49.7188245], [6.2247784, 49.7189139], [6.2248212, 49.7189398], [6.2248683, 49.7189683], [6.2250136, 49.719047], [6.2250668, 49.7190922], [6.2252058, 49.7192176], [6.225335, 49.7193318], [6.2253964, 49.7193434], [6.2256442, 49.7194784], [6.2256763, 49.7194979], [6.2258503, 49.7196033], [6.2260035, 49.7196917], [6.2262371, 49.7198238], [6.2263668, 49.7198934], [6.226439, 49.7199322], [6.2263996, 49.7199516], [6.2262115, 49.7200312], [6.2259106, 49.7201306], [6.2261539, 49.7203453], [6.226286, 49.7204599], [6.2265105, 49.7206545], [6.2268516, 49.7209507], [6.2269398, 49.7210273], [6.2272321, 49.7212799], [6.2272505, 49.7212958], [6.2273626, 49.7213755], [6.2274873, 49.7214493], [6.227611, 49.7215165], [6.227678, 49.7215528], [6.2278138, 49.7216264], [6.2277523, 49.7216799], [6.2273863, 49.7217122], [6.2271869, 49.7217296], [6.227084, 49.7217385], [6.2275482, 49.7219707], [6.2282564, 49.722307], [6.2284342, 49.7223989], [6.2290483, 49.7227604], [6.2293729, 49.7229501], [6.2298645, 49.7232451], [6.2301976, 49.7236063], [6.2304154, 49.7238244], [6.2306642, 49.7240578], [6.230795, 49.7241806], [6.2312775, 49.7245903], [6.2316556, 49.7244161], [6.2319353, 49.7246397], [6.2320183, 49.724706], [6.2322004, 49.7248514], [6.2322971, 49.7249285], [6.2323582, 49.7249078], [6.2324127, 49.7248894], [6.2329293, 49.7247146], [6.2329704, 49.7246927], [6.2333516, 49.7244288], [6.2334367, 49.7243699], [6.2336677, 49.7241888], [6.2338062, 49.723688], [6.2339327, 49.7236916], [6.2341108, 49.7236967], [6.2342741, 49.7236981], [6.2343878, 49.7236948], [6.2344456, 49.7236865], [6.2345159, 49.7236712], [6.2345913, 49.7236521], [6.2347152, 49.723624], [6.2348976, 49.7235847], [6.2350122, 49.7235617], [6.2352374, 49.723524], [6.2354528, 49.7234897], [6.2356583, 49.7234539], [6.235819, 49.7233279], [6.2360005, 49.7231771], [6.2360287, 49.7231493], [6.2360469, 49.7231314], [6.2360944, 49.7230817], [6.2361769, 49.7229941], [6.2362997, 49.7228603], [6.2364346, 49.7227096], [6.2364701, 49.7227252], [6.2367132, 49.7227956], [6.2369026, 49.7228396], [6.237343, 49.7229323], [6.2373987, 49.7229488], [6.2374376, 49.7229649], [6.2375335, 49.7230046], [6.2376199, 49.7230502], [6.2377093, 49.723122], [6.2377681, 49.7231935], [6.2378151, 49.7232989], [6.2378288, 49.7233409], [6.2378517, 49.7234379], [6.2378609, 49.7235305], [6.237855, 49.723621], [6.2378385, 49.7237402], [6.2378298, 49.7238918], [6.2380054, 49.7238621], [6.2384081, 49.7238678], [6.2385557, 49.7238702], [6.2386899, 49.7238761], [6.2390014, 49.7239126], [6.2392333, 49.7239456], [6.239607, 49.7239957], [6.2396998, 49.724011], [6.2398708, 49.7240457], [6.2401131, 49.7241061], [6.2402915, 49.7241535], [6.2404871, 49.7242117], [6.2405105, 49.7242276], [6.240559, 49.7242693], [6.2406173, 49.7243085], [6.2406514, 49.7243227], [6.2407191, 49.7243388], [6.2408878, 49.7243632], [6.240977, 49.7243706], [6.2413787, 49.7244027], [6.2412576, 49.7245673], [6.241435, 49.724547], [6.2415461, 49.7245372], [6.2417131, 49.7245259], [6.2419632, 49.7245178], [6.2421237, 49.7245175], [6.2422554, 49.7245232], [6.2423951, 49.7245395], [6.2425115, 49.7245588], [6.2427063, 49.7245997], [6.2428638, 49.7246308], [6.2430674, 49.7246675], [6.2432881, 49.7247051], [6.2433749, 49.7247181], [6.2434171, 49.7247247], [6.2436223, 49.7247556], [6.2438383, 49.7247966], [6.2439649, 49.7248206], [6.2441073, 49.7248539], [6.2442238, 49.7248811], [6.244354, 49.7249116], [6.244447, 49.7249333], [6.2446095, 49.7249713], [6.2448057, 49.7250353], [6.2446998, 49.7252192], [6.2446982, 49.7252223], [6.2446742, 49.7252697], [6.2445917, 49.725433], [6.2444867, 49.7256561], [6.244441, 49.7257552], [6.2444315, 49.7257716], [6.2444075, 49.7258133], [6.2443804, 49.7258603], [6.2443678, 49.7258819], [6.2443492, 49.7259141], [6.2443334, 49.7259415], [6.2442962, 49.7260058], [6.2442789, 49.7260358], [6.2442619, 49.7260653], [6.2442264, 49.7261268], [6.2442091, 49.7261573], [6.2441856, 49.7261987], [6.2441702, 49.7262257], [6.2441552, 49.7262523], [6.2441392, 49.7262773], [6.2441088, 49.7263248], [6.2440778, 49.7263732], [6.2440174, 49.7264627], [6.2446645, 49.7266377], [6.2451381, 49.7267664], [6.2451158, 49.7267945], [6.2448713, 49.7267276], [6.2446799, 49.7266753], [6.2445871, 49.72665], [6.2445275, 49.7266337], [6.244479, 49.7266206], [6.2443168, 49.7265769], [6.2439969, 49.7264907], [6.2440707, 49.7266267], [6.2441159, 49.7266968], [6.2442005, 49.7268136], [6.244307, 49.7269473], [6.2444011, 49.7270579], [6.2444284, 49.7270998], [6.2444748, 49.727157], [6.2445625, 49.7272573], [6.2446279, 49.7273261], [6.2447444, 49.7274366], [6.2448777, 49.7275514], [6.2450158, 49.7276609], [6.2451295, 49.7277382], [6.2451953, 49.7277832], [6.2452673, 49.7278325], [6.2453435, 49.7278812], [6.2454649, 49.7279531], [6.2455755, 49.7280126], [6.2456197, 49.7280293], [6.2456516, 49.7280414], [6.2457444, 49.7280696], [6.2459705, 49.7281233], [6.2463793, 49.7282091], [6.2467595, 49.728283], [6.2475207, 49.728894], [6.2476693, 49.729009], [6.2479124, 49.729197], [6.2481086, 49.7293288], [6.2483047, 49.7294382], [6.2484344, 49.7294901], [6.2485641, 49.7295197], [6.2486941, 49.7295443], [6.2487148, 49.7297122], [6.2480475, 49.7301015], [6.2481379, 49.7301999], [6.2482445, 49.7303108], [6.2483335, 49.7301933], [6.2486013, 49.7303699], [6.2489242, 49.7305822], [6.2489348, 49.7305911], [6.248776, 49.7306668], [6.2487314, 49.7306881], [6.2484543, 49.730832], [6.248286, 49.7309272], [6.2482449, 49.7309568], [6.2481846, 49.7310198], [6.2481151, 49.7311358], [6.247997, 49.7313516], [6.2478673, 49.7315736], [6.2478302, 49.7316438], [6.2478189, 49.7317203], [6.2478009, 49.732071], [6.2477782, 49.7324551], [6.2477647, 49.73271], [6.2477581, 49.7329333], [6.247776, 49.7329582], [6.2477862, 49.7329811], [6.2478552, 49.7331349], [6.2476774, 49.7331396], [6.2476443, 49.7331408], [6.2474136, 49.7331391], [6.2472887, 49.7331366], [6.247036, 49.7331229], [6.2470631, 49.7332421], [6.2470521, 49.7333857], [6.247013, 49.7335258], [6.2469263, 49.7337126], [6.2468773, 49.7337797], [6.2467666, 49.7339154], [6.2466869, 49.7340249], [6.2466156, 49.7341478], [6.2465931, 49.7341867], [6.2465754, 49.7342154], [6.2465105, 49.7343205], [6.2463356, 49.7346135], [6.2462057, 49.734889], [6.2461778, 49.7349838], [6.2461709, 49.7350356], [6.2461543, 49.7351861], [6.2461349, 49.7353553], [6.2461155, 49.7354954], [6.2461036, 49.7356006], [6.2460948, 49.7356783], [6.246081, 49.7358469], [6.2460798, 49.7359139], [6.2460869, 49.7359598], [6.2460996, 49.7359996], [6.2461926, 49.7361363], [6.24632, 49.7363181], [6.2463508, 49.7363622], [6.2464379, 49.7364872], [6.246445, 49.7364974], [6.2465218, 49.7366076], [6.2466942, 49.7368563], [6.246707, 49.7368755], [6.2467194, 49.7368941], [6.2468336, 49.7370651], [6.247013, 49.7373376], [6.2471092, 49.7375053], [6.2472272, 49.7377074], [6.2473057, 49.7378471], [6.2474085, 49.7380731], [6.2475174, 49.7383131], [6.2476137, 49.7384604], [6.2476837, 49.7385434], [6.2477648, 49.7386353], [6.2478898, 49.7387574], [6.2479913, 49.738856], [6.2480808, 49.738943], [6.2482133, 49.7390782], [6.2482731, 49.7391401], [6.2482994, 49.7391785], [6.248322, 49.73923], [6.2483458, 49.7393084], [6.2483621, 49.7393834], [6.2483685, 49.7394834], [6.2483599, 49.7395757], [6.2483401, 49.7396361], [6.2483039, 49.7396807], [6.2482018, 49.7397998], [6.248218, 49.7398222], [6.2482326, 49.7400108], [6.2482403, 49.740116], [6.2484219, 49.7401621], [6.2484931, 49.7401738], [6.2488723, 49.7402365], [6.249289, 49.7403124], [6.2495898, 49.7403748], [6.2496943, 49.7403965], [6.250036, 49.7404919], [6.2504585, 49.7406311], [6.2505989, 49.7406809], [6.2506598, 49.7407125], [6.2507265, 49.7407593], [6.2507891, 49.7408292], [6.2509037, 49.7409572], [6.2509456, 49.7410005], [6.2510576, 49.7410432], [6.2512019, 49.741105], [6.2513336, 49.7411614], [6.2514193, 49.7412257], [6.2515566, 49.7413897], [6.2515852, 49.7414705], [6.2515739, 49.7415308], [6.2515379, 49.7415694], [6.2514809, 49.7416163], [6.2512453, 49.7417664], [6.251181, 49.741806], [6.2510778, 49.7418491], [6.2509852, 49.7418917], [6.2509529, 49.7419128], [6.2508836, 49.7419779], [6.2508427, 49.7420096], [6.2507819, 49.7420488], [6.2507639, 49.7420635], [6.2507544, 49.7420817], [6.2507573, 49.7420957], [6.2507773, 49.7421179], [6.2507973, 49.7421457], [6.2508059, 49.742175], [6.2507917, 49.7422073], [6.2507698, 49.7422337], [6.2507461, 49.7422524], [6.2507043, 49.74227], [6.2506267, 49.7423051], [6.2505697, 49.7423356], [6.2505165, 49.7423661], [6.250468, 49.7423995], [6.2504082, 49.7424451], [6.2503607, 49.7424891], [6.2503322, 49.7425178], [6.2503009, 49.7425413], [6.2502762, 49.7425524], [6.250228, 49.7425698], [6.2501966, 49.7425762], [6.2501747, 49.742578], [6.2500834, 49.7425787], [6.2500586, 49.7425793], [6.2500368, 49.7425875], [6.2499674, 49.7426221], [6.2499059, 49.7426478], [6.2498507, 49.7426625], [6.249807, 49.7426719], [6.249749, 49.7426755], [6.2496529, 49.7426738], [6.2495834, 49.7426721], [6.2495302, 49.7426792], [6.2494871, 49.7426887], [6.2494246, 49.7427109], [6.2493566, 49.7427419], [6.2493025, 49.7427683], [6.2492758, 49.7427788], [6.2492502, 49.7427812], [6.2492292, 49.7427783], [6.2491997, 49.7427672], [6.2491778, 49.7427637], [6.2491579, 49.742766], [6.2491369, 49.7427754], [6.2491151, 49.7427866], [6.2490888, 49.7427935], [6.2490402, 49.7428017], [6.2490184, 49.7428146], [6.2489737, 49.7428551], [6.2489433, 49.7428686], [6.2489253, 49.7428756], [6.2489094, 49.742878], [6.2488577, 49.7428856], [6.2488349, 49.742895], [6.2488036, 49.742922], [6.2487828, 49.7429365], [6.24876, 49.7429436], [6.2487296, 49.7429489], [6.248701, 49.7429501], [6.2486116, 49.7429449], [6.2485517, 49.7429473], [6.2484994, 49.7429614], [6.248436, 49.7429929], [6.2483993, 49.7430099], [6.248357, 49.7430232], [6.2483277, 49.7430294], [6.248307, 49.7430303], [6.2482908, 49.7430251], [6.2482584, 49.7430038], [6.2482407, 49.7429982], [6.2482261, 49.743001], [6.2482146, 49.7430124], [6.2482069, 49.743038], [6.2481939, 49.7430489], [6.2481593, 49.7430584], [6.2480918, 49.7430698], [6.2480571, 49.7430722], [6.2480387, 49.7430755], [6.248031, 49.7430778], [6.2479948, 49.7430884], [6.2479548, 49.7431059], [6.2479279, 49.7431197], [6.2478972, 49.743141], [6.2478751, 49.7431523], [6.2478474, 49.743159], [6.2478166, 49.7431633], [6.2477566, 49.7431709], [6.2477097, 49.7431804], [6.2475606, 49.7432192], [6.2475098, 49.7432273], [6.247466, 49.7432354], [6.2474567, 49.7432411], [6.2475531, 49.7432981], [6.247604, 49.7433802], [6.2478935, 49.7438476], [6.2482788, 49.7444973], [6.2486888, 49.7451967], [6.2488139, 49.7453926], [6.2489297, 49.7453445], [6.2490799, 49.745606], [6.2491328, 49.7455823], [6.2492339, 49.7455369], [6.2494105, 49.7454669], [6.2496053, 49.7453956], [6.2498422, 49.745306], [6.2501632, 49.7452017], [6.2502675, 49.7451783], [6.2503739, 49.7451587], [6.2504902, 49.7451394], [6.2506398, 49.7451224], [6.2508199, 49.7451062], [6.2508766, 49.7451023], [6.2512067, 49.7450851], [6.2514147, 49.7450805], [6.2517499, 49.7450757], [6.2521272, 49.7450774], [6.2524153, 49.7450778], [6.2526599, 49.7450828], [6.2528755, 49.7450885], [6.2529521, 49.7450908], [6.2531307, 49.7450961], [6.2532456, 49.7451005], [6.2535165, 49.7451146], [6.2537793, 49.7451267], [6.2543275, 49.7451568], [6.2547147, 49.7451753], [6.2549874, 49.7451887], [6.2550159, 49.7451899], [6.2550209, 49.7450641], [6.2550733, 49.745069], [6.2553356, 49.7450919], [6.2555977, 49.7451139], [6.2562536, 49.7451649], [6.2563676, 49.7451738], [6.256655, 49.7451988], [6.2569449, 49.7452212], [6.2570722, 49.745225], [6.2571661, 49.7452262], [6.2571946, 49.7452268], [6.2573032, 49.7452287], [6.257762, 49.7452326], [6.258045, 49.7452347], [6.2581083, 49.7452372], [6.2584528, 49.7452655], [6.25866, 49.7452783], [6.2587454, 49.7452873], [6.2588731, 49.7452982], [6.2589574, 49.7453021], [6.2590671, 49.7453078], [6.2592955, 49.7453154], [6.2595176, 49.7453218], [6.2599159, 49.7453327], [6.2601174, 49.7453362], [6.2602957, 49.7453406], [6.2604855, 49.7453521], [6.2607217, 49.7453671], [6.2610446, 49.7453919], [6.2612875, 49.745408], [6.261559, 49.7454274], [6.2620044, 49.7452889], [6.2621369, 49.7452484], [6.2626091, 49.7450999], [6.2629859, 49.744983], [6.2632039, 49.7449153], [6.2633578, 49.7448522], [6.2636325, 49.7446801], [6.263964, 49.7444755], [6.2642988, 49.7442646], [6.2643346, 49.7442515], [6.2644086, 49.7443203], [6.2648268, 49.7442595], [6.2648579, 49.7442542], [6.2649035, 49.744297]]]}}]}