{"type": "FeatureCollection", "features": [{"type": "Feature", "properties": {"name": "Steekollen", "kind": "nature_reserve"}, "geometry": {"type": "Polygon", "coordinates": [[[5.9060585, 49.6670515], [5.9062839, 49.6671308], [5.90511, 49.6674261], [5.9051075, 49.6674776], [5.9052697, 49.6675455], [5.9052025, 49.6676532], [5.9050316, 49.6676448], [5.9048513, 49.6677821], [5.9044754, 49.6672181], [5.9043843, 49.6671643], [5.9042528, 49.6669291], [5.9051313, 49.6669223], [5.9053337, 49.6666442], [5.9054923, 49.6662818], [5.9056838, 49.666127], [5.9060083, 49.6661236], [5.9061626, 49.666088], [5.9064992, 49.6661435], [5.906809, 49.6662329], [5.9071831, 49.666285], [5.9075466, 49.6663809], [5.9078752, 49.6663882], [5.9078069, 49.6664745], [5.9076431, 49.6665016], [5.907498, 49.6664742], [5.9072434, 49.6665211], [5.9070273, 49.6667917], [5.9067624, 49.6667533], [5.9065469, 49.6666766], [5.9063729, 49.666619], [5.9062997, 49.6666868], [5.9062642, 49.6668736], [5.9060585, 49.6670515]]]}}]}