{"type": "FeatureCollection", "features": [{"type": "Feature", "properties": {"name": "Kneppchen", "kind": "nature_reserve"}, "geometry": {"type": "Polygon", "coordinates": [[[6.1869829, 49.7093706], [6.1873198, 49.7095441], [6.1876965, 49.7096552], [6.1912838, 49.7103393], [6.1911864, 49.7104934], [6.1914984, 49.7105021], [6.1923368, 49.7106585], [6.1929269, 49.7107357], [6.1933695, 49.7107435], [6.1936417, 49.7107322], [6.1938804, 49.7106941], [6.1942171, 49.7105883], [6.1944853, 49.7103645], [6.1946234, 49.7102656], [6.194787, 49.7101676], [6.1951424, 49.7099378], [6.1952631, 49.7098355], [6.1953677, 49.7097349], [6.1954764, 49.7095918], [6.1962354, 49.7082953], [6.196758, 49.7074032], [6.1969207, 49.7071253], [6.1965725, 49.7069082], [6.1955675, 49.7062814], [6.1941701, 49.7055217], [6.1934563, 49.7059828], [6.1929189, 49.70633], [6.1926533, 49.7065355], [6.1925393, 49.7066813], [6.1923608, 49.7068096], [6.1918071, 49.7072077], [6.1910323, 49.7077303], [6.1905512, 49.7080094], [6.1902058, 49.7081218], [6.1897273, 49.7081846], [6.1894923, 49.7082155], [6.1879876, 49.7083143], [6.1867807, 49.7084641], [6.1865272, 49.7084956], [6.1863689, 49.7085468], [6.1869829, 49.7093706]]]}}]}