{"type": "FeatureCollection", "features": [{"type": "Feature", "properties": {"name": "Luxembourg"}, "geometry": {"type": "MultiPolygon", "coordinates": [[[[6.06917, 49.631966], [6.069254, 49.631966], [6.069246, 49.632156], [6.069746, 49.63326], [6.069964, 49.633736], [6.070246, 49.633938], [6.07052, 49.634136], [6.070738, 49.634285], [6.071196, 49.63464], [6.07155, 49.634945], [6.071634, 49.63504], [6.071722, 49.63517], [6.071859, 49.635395], [6.071974, 49.63557], [6.07202, 49.635624], [6.072149, 49.635715], [6.072416, 49.63589], [6.072691, 49.636066], [6.072809, 49.636177], [6.073023, 49.6364], [6.073152, 49.636562], [6.0734, 49.636932], [6.073481, 49.63709], [6.073572, 49.63734], [6.073675, 49.637608], [6.073702, 49.63767], [6.073771, 49.637817], [6.073862, 49.637974], [6.073954, 49.63811], [6.074099, 49.63831], [6.074232, 49.638466], [6.074389, 49.63866], [6.074511, 49.638798], [6.074778, 49.639057], [6.07506, 49.63932], [6.07527, 49.63951], [6.075434, 49.639652], [6.07588, 49.6402], [6.076212, 49.64067], [6.076506, 49.641075], [6.076593, 49.641193], [6.076773, 49.641438], [6.076906, 49.64163], [6.077051, 49.641983], [6.077154, 49.642345], [6.077185, 49.642555], [6.077211, 49.64277], [6.077192, 49.64305], [6.077169, 49.643215], [6.077116, 49.643677], [6.077085, 49.64396], [6.077154, 49.644302], [6.077223, 49.644573], [6.077429, 49.64517], [6.077661, 49.64566], [6.07781, 49.64603], [6.077894, 49.646217], [6.078131, 49.64655], [6.078371, 49.64684], [6.079187, 49.64667], [6.07974, 49.64646], [6.080931, 49.64647], [6.082228, 49.646473], [6.083284, 49.64643], [6.083429, 49.64642], [6.083506, 49.646416], [6.084322, 49.646362], [6.085249, 49.64628], [6.085272, 49.64628], [6.085401, 49.646267], [6.085424, 49.646263], [6.085482, 49.64626], [6.086081, 49.646217], [6.086607, 49.646183], [6.087835, 49.646107], [6.088198, 49.646095], [6.089052, 49.64607], [6.090269, 49.64604], [6.091436, 49.646008], [6.0926, 49.64599], [6.093863, 49.645992], [6.09511, 49.64607], [6.095449, 49.646076], [6.096399, 49.646103], [6.097685, 49.64612], [6.099215, 49.64619], [6.099581, 49.6462], [6.100008, 49.646206], [6.100149, 49.64621], [6.101164, 49.64627], [6.101458, 49.64632], [6.101812, 49.646385], [6.102396, 49.64649], [6.10248, 49.646496], [6.102873, 49.646534], [6.103624, 49.64662], [6.10494, 49.646744], [6.105169, 49.64678], [6.10589, 49.64689], [6.106401, 49.647305], [6.106661, 49.647625], [6.106733, 49.647713], [6.106882, 49.64775], [6.106852, 49.647808], [6.106798, 49.6479], [6.106779, 49.647934], [6.107374, 49.648308], [6.107481, 49.64839], [6.107763, 49.6488], [6.10795, 49.64892], [6.108572, 49.64912], [6.109022, 49.64921], [6.110136, 49.649437], [6.110907, 49.649696], [6.111254, 49.64981], [6.111898, 49.65003], [6.112997, 49.6503], [6.113192, 49.65033], [6.113436, 49.650322], [6.113646, 49.65032], [6.1141, 49.65031], [6.114855, 49.650185], [6.115469, 49.65008], [6.115557, 49.65007], [6.115599, 49.65011], [6.116343, 49.65014], [6.116861, 49.65016], [6.117201, 49.649914], [6.117521, 49.649673], [6.11754, 49.649647], [6.117678, 49.64945], [6.118021, 49.64895], [6.118063, 49.648884], [6.118132, 49.648773], [6.118288, 49.648525], [6.118475, 49.648373], [6.118627, 49.64835], [6.118658, 49.648346], [6.118769, 49.648327], [6.118818, 49.648315], [6.118841, 49.648308], [6.118879, 49.648293], [6.118918, 49.648266], [6.119028, 49.648174], [6.119055, 49.64816], [6.119108, 49.64812], [6.119146, 49.64811], [6.119288, 49.648094], [6.119333, 49.64809], [6.11936, 49.64809], [6.119421, 49.648087], [6.119478, 49.64809], [6.119554, 49.648098], [6.119688, 49.648113], [6.119856, 49.648125], [6.11989, 49.64813], [6.120108, 49.648125], [6.120195, 49.648125], [6.120348, 49.64813], [6.120474, 49.648136], [6.120554, 49.648144], [6.120573, 49.648148], [6.121042, 49.648224], [6.121412, 49.64829], [6.121523, 49.648308], [6.121706, 49.648342], [6.121756, 49.64835], [6.121977, 49.64839], [6.122183, 49.648426], [6.122259, 49.64844], [6.122358, 49.64846], [6.12237, 49.64846], [6.12256, 49.648495], [6.12277, 49.64853], [6.122881, 49.64855], [6.122942, 49.64856], [6.123114, 49.648586], [6.123262, 49.648613], [6.1234, 49.648636], [6.123495, 49.64865], [6.123579, 49.648663], [6.123617, 49.64867], [6.123701, 49.64868], [6.123789, 49.648697], [6.123903, 49.648716], [6.124121, 49.64875], [6.124235, 49.648766], [6.124643, 49.648827], [6.125071, 49.64889], [6.125316, 49.648927], [6.125654, 49.64897], [6.125917, 49.64901], [6.1262, 49.649048], [6.126615, 49.64911], [6.126673, 49.649117], [6.126722, 49.649124], [6.126757, 49.649124], [6.126795, 49.649128], [6.126856, 49.64913], [6.12705, 49.649147], [6.127211, 49.64916], [6.127226, 49.64916], [6.127279, 49.649162], [6.12731, 49.649166], [6.127325, 49.64917], [6.127485, 49.649185], [6.127634, 49.649202], [6.127649, 49.649206], [6.127765, 49.649217], [6.127851, 49.649227], [6.127871, 49.649227], [6.128019, 49.64925], [6.128145, 49.649273], [6.128256, 49.649284], [6.128275, 49.64929], [6.128462, 49.649334], [6.128725, 49.649395], [6.128767, 49.64923], [6.128779, 49.649235], [6.128782, 49.64922], [6.129545, 49.649418], [6.129888, 49.6495], [6.130575, 49.64967], [6.130613, 49.64968], [6.13064, 49.64969], [6.130789, 49.649723], [6.130903, 49.64975], [6.131006, 49.649776], [6.131216, 49.649826], [6.131628, 49.64992], [6.132029, 49.650017], [6.13207, 49.650024], [6.132216, 49.650055], [6.132242, 49.650063], [6.13246, 49.65011], [6.132746, 49.65017], [6.132887, 49.650196], [6.133177, 49.650257], [6.133451, 49.65031], [6.133654, 49.650032], [6.133722, 49.650047], [6.134657, 49.650227], [6.134703, 49.65023], [6.1355, 49.650326], [6.13566, 49.65034], [6.135908, 49.650368], [6.136049, 49.65039], [6.136148, 49.650406], [6.136225, 49.650417], [6.136419, 49.650444], [6.136686, 49.65048], [6.136885, 49.650505], [6.137384, 49.650574], [6.138113, 49.65067], [6.138205, 49.65068], [6.13825, 49.65069], [6.138285, 49.650692], [6.138582, 49.650734], [6.138742, 49.650486], [6.138971, 49.65057], [6.139303, 49.650684], [6.139795, 49.650856], [6.139994, 49.650635], [6.140131, 49.65056], [6.140261, 49.650486], [6.140486, 49.65026], [6.140581, 49.650185], [6.140673, 49.650116], [6.14076, 49.65007], [6.140787, 49.650055], [6.140867, 49.650013], [6.140997, 49.64994], [6.14113, 49.649883], [6.141424, 49.649754], [6.142084, 49.649483], [6.142118, 49.64947], [6.142237, 49.64942], [6.142267, 49.64941], [6.142389, 49.649395], [6.142626, 49.64944], [6.142755, 49.649464], [6.142927, 49.6495], [6.143095, 49.649536], [6.143236, 49.64956], [6.143419, 49.649582], [6.143679, 49.649616], [6.143518, 49.64946], [6.143427, 49.64937], [6.143309, 49.649216], [6.14366, 49.649296], [6.144068, 49.649387], [6.144762, 49.649517], [6.145155, 49.649586], [6.145308, 49.649616], [6.145601, 49.64967], [6.146349, 49.64982], [6.146639, 49.64988], [6.146784, 49.64992], [6.147047, 49.65], [6.14731, 49.650085], [6.147749, 49.650173], [6.147963, 49.650215], [6.148043, 49.65023], [6.148317, 49.650288], [6.148397, 49.650307], [6.1485, 49.650326], [6.148905, 49.65041], [6.149019, 49.65043], [6.149241, 49.65048], [6.149561, 49.650543], [6.149942, 49.65064], [6.150209, 49.650707], [6.150473, 49.650707], [6.15082, 49.650703], [6.151106, 49.650703], [6.152037, 49.650623], [6.152418, 49.650593], [6.152693, 49.650566], [6.153021, 49.65054], [6.153322, 49.650517], [6.153532, 49.65056], [6.153948, 49.650658], [6.154322, 49.650745], [6.154398, 49.650764], [6.154509, 49.650803], [6.154676, 49.650867], [6.155184, 49.651073], [6.155592, 49.65124], [6.155931, 49.65138], [6.156183, 49.651493], [6.156626, 49.651703], [6.156797, 49.65179], [6.156923, 49.65185], [6.157103, 49.651917], [6.157446, 49.65204], [6.157705, 49.652134], [6.15806, 49.65226], [6.158014, 49.652832], [6.157968, 49.653194], [6.157946, 49.65339], [6.157671, 49.653572], [6.157404, 49.653748], [6.157324, 49.65381], [6.157259, 49.65387], [6.157507, 49.653965], [6.157839, 49.65409], [6.158091, 49.65419], [6.158377, 49.65431], [6.15877, 49.65447], [6.158983, 49.654556], [6.159121, 49.654613], [6.159719, 49.65487], [6.15988, 49.654633], [6.160086, 49.654285], [6.160238, 49.654022], [6.160421, 49.653793], [6.160524, 49.653667], [6.160833, 49.653282], [6.161093, 49.652943], [6.161005, 49.652668], [6.160982, 49.65256], [6.160967, 49.6525], [6.160952, 49.652424], [6.160936, 49.65237], [6.160929, 49.65234], [6.160917, 49.65228], [6.160952, 49.65221], [6.160852, 49.651886], [6.160807, 49.65164], [6.160746, 49.651104], [6.160593, 49.650597], [6.160524, 49.65046], [6.160456, 49.650368], [6.160231, 49.65015], [6.159639, 49.64961], [6.159376, 49.649353], [6.159483, 49.64917], [6.159651, 49.64895], [6.159704, 49.648857], [6.159582, 49.648735], [6.159052, 49.648247], [6.158701, 49.647926], [6.158575, 49.647778], [6.158525, 49.64763], [6.158552, 49.647606], [6.158854, 49.64741], [6.158411, 49.64725], [6.158323, 49.64722], [6.157885, 49.647064], [6.15748, 49.646923], [6.157652, 49.646675], [6.157389, 49.6465], [6.156969, 49.646225], [6.156519, 49.646095], [6.156378, 49.646046], [6.156027, 49.645927], [6.155867, 49.645863], [6.155779, 49.64583], [6.155668, 49.645676], [6.155565, 49.64553], [6.155535, 49.6455], [6.155447, 49.645443], [6.155214, 49.645332], [6.154673, 49.64506], [6.154383, 49.644913], [6.153929, 49.64467], [6.153543, 49.644432], [6.153208, 49.64422], [6.152925, 49.64404], [6.152742, 49.643944], [6.152651, 49.643894], [6.15243, 49.64379], [6.15214, 49.643665], [6.15185, 49.643536], [6.151594, 49.64342], [6.151487, 49.6433], [6.151369, 49.64316], [6.151232, 49.643005], [6.151159, 49.642937], [6.151026, 49.64282], [6.150969, 49.642773], [6.150824, 49.64265], [6.150694, 49.642555], [6.150591, 49.642487], [6.150503, 49.64243], [6.150408, 49.64238], [6.150232, 49.642292], [6.150087, 49.64223], [6.149809, 49.642113], [6.149721, 49.64208], [6.149565, 49.64202], [6.149443, 49.641983], [6.149328, 49.64195], [6.149183, 49.64191], [6.149038, 49.641884], [6.148722, 49.64184], [6.148767, 49.641808], [6.148813, 49.641785], [6.148867, 49.64176], [6.148939, 49.64174], [6.149023, 49.641724], [6.149111, 49.641712], [6.149263, 49.641705], [6.149603, 49.641693], [6.149843, 49.64168], [6.149942, 49.641617], [6.150053, 49.64154], [6.150236, 49.64142], [6.150549, 49.641476], [6.151075, 49.641563], [6.151514, 49.64164], [6.152048, 49.64173], [6.152266, 49.641823], [6.152483, 49.64187], [6.152559, 49.641884], [6.152708, 49.642113], [6.152796, 49.642216], [6.152803, 49.64218], [6.152826, 49.642082], [6.152849, 49.64199], [6.152868, 49.641953], [6.152906, 49.641903], [6.152956, 49.641865], [6.152986, 49.64184], [6.15304, 49.641808], [6.153074, 49.641785], [6.153246, 49.641678], [6.153292, 49.64165], [6.153322, 49.64162], [6.153406, 49.64149], [6.153524, 49.641296], [6.1541, 49.641357], [6.154966, 49.641445], [6.156099, 49.641563], [6.156286, 49.641586], [6.156416, 49.641598], [6.15679, 49.641636], [6.15737, 49.6417], [6.157522, 49.641716], [6.158094, 49.641773], [6.158544, 49.641823], [6.159147, 49.641884], [6.15938, 49.64191], [6.160181, 49.641994], [6.160513, 49.64203], [6.16086, 49.642067], [6.161207, 49.6421], [6.161512, 49.642128], [6.161737, 49.64215], [6.16181, 49.64216], [6.161978, 49.642162], [6.162554, 49.642185], [6.162973, 49.642838], [6.163591, 49.643787], [6.163629, 49.643852], [6.164911, 49.644485], [6.165213, 49.644733], [6.165262, 49.64471], [6.165487, 49.64461], [6.164991, 49.644196], [6.164217, 49.643505], [6.164034, 49.643234], [6.163717, 49.642746], [6.163492, 49.64225], [6.163412, 49.64209], [6.163187, 49.64158], [6.163294, 49.641434], [6.163416, 49.64127], [6.163511, 49.64114], [6.163961, 49.64084], [6.164331, 49.640594], [6.164343, 49.640587], [6.16361, 49.640545], [6.162775, 49.640495], [6.1625, 49.640472], [6.162283, 49.64044], [6.161951, 49.64038], [6.161364, 49.640263], [6.16081, 49.64016], [6.160501, 49.640106], [6.160219, 49.64008], [6.159666, 49.640034], [6.158838, 49.639957], [6.158739, 49.63993], [6.158373, 49.639896], [6.158175, 49.639877], [6.157946, 49.639786], [6.157625, 49.639717], [6.157511, 49.639675], [6.156927, 49.63951], [6.156809, 49.63949], [6.156313, 49.639423], [6.1555, 49.639317], [6.154077, 49.63913], [6.153601, 49.63886], [6.153246, 49.638676], [6.15317, 49.638645], [6.152502, 49.63846], [6.152029, 49.638317], [6.151224, 49.638077], [6.150316, 49.63781], [6.149145, 49.637474], [6.148775, 49.63737], [6.148489, 49.637265], [6.148092, 49.63712], [6.147497, 49.636906], [6.147032, 49.63673], [6.146112, 49.63627], [6.145876, 49.636154], [6.145876, 49.636135], [6.145952, 49.636086], [6.145693, 49.635902], [6.145372, 49.63566], [6.145193, 49.635517], [6.14472, 49.63516], [6.144587, 49.63505], [6.144442, 49.634937], [6.144319, 49.634827], [6.144243, 49.634754], [6.144117, 49.634644], [6.143934, 49.634476], [6.143785, 49.634342], [6.143667, 49.634243], [6.14353, 49.63412], [6.143423, 49.63403], [6.143301, 49.63393], [6.143477, 49.63376], [6.142969, 49.633484], [6.142824, 49.6334], [6.142706, 49.633324], [6.142687, 49.633064], [6.142698, 49.633068], [6.143122, 49.63324], [6.14366, 49.633472], [6.144148, 49.633698], [6.144598, 49.633904], [6.144888, 49.634094], [6.145193, 49.634293], [6.145544, 49.634518], [6.145819, 49.63444], [6.146006, 49.634647], [6.146158, 49.634804], [6.146261, 49.63489], [6.146383, 49.634983], [6.146494, 49.635056], [6.146647, 49.63514], [6.146734, 49.63518], [6.146769, 49.635197], [6.14686, 49.635235], [6.147127, 49.635338], [6.147345, 49.635406], [6.147528, 49.63546], [6.147516, 49.635475], [6.147543, 49.635483], [6.147909, 49.635582], [6.148054, 49.63563], [6.14813, 49.635666], [6.148378, 49.63581], [6.148459, 49.63585], [6.148806, 49.635967], [6.149343, 49.63616], [6.149759, 49.6363], [6.150301, 49.63646], [6.150652, 49.63656], [6.15095, 49.63664], [6.151098, 49.636772], [6.152189, 49.636906], [6.152475, 49.63694], [6.15254, 49.636955], [6.152788, 49.637043], [6.153044, 49.63713], [6.15407, 49.6375], [6.155096, 49.637894], [6.156076, 49.63806], [6.156282, 49.63797], [6.156382, 49.63798], [6.157255, 49.63808], [6.157469, 49.638123], [6.15761, 49.63815], [6.157797, 49.63821], [6.158365, 49.638374], [6.158991, 49.63842], [6.159403, 49.638237], [6.15954, 49.63819], [6.159689, 49.63818], [6.160276, 49.63817], [6.160494, 49.638165], [6.160704, 49.638206], [6.160902, 49.63825], [6.161791, 49.638428], [6.163401, 49.638298], [6.164061, 49.63847], [6.164297, 49.638535], [6.165167, 49.63876], [6.165312, 49.63869], [6.16535, 49.63867], [6.165476, 49.638607], [6.165693, 49.63858], [6.166616, 49.638462], [6.16752, 49.638016], [6.168348, 49.63791], [6.168482, 49.637867], [6.168615, 49.63783], [6.169046, 49.637695], [6.169439, 49.637733], [6.169691, 49.6378], [6.170706, 49.637894], [6.171148, 49.637848], [6.171755, 49.637787], [6.172613, 49.63775], [6.173078, 49.63758], [6.173563, 49.637405], [6.173857, 49.6373], [6.174799, 49.63728], [6.175409, 49.637276], [6.176004, 49.63726], [6.17621, 49.637245], [6.176786, 49.637157], [6.177557, 49.63696], [6.178194, 49.636906], [6.178499, 49.63693], [6.17856, 49.636936], [6.179182, 49.636982], [6.179323, 49.636875], [6.179358, 49.636852], [6.179419, 49.636806], [6.179438, 49.636795], [6.179499, 49.63675], [6.179548, 49.63671], [6.17956, 49.636703], [6.17969, 49.636608], [6.179926, 49.636436], [6.18049, 49.63627], [6.18265, 49.6365], [6.182577, 49.6359], [6.182814, 49.635647], [6.182047, 49.6351], [6.182962, 49.634342], [6.183432, 49.634], [6.184889, 49.63294], [6.185049, 49.632572], [6.185228, 49.632256], [6.185884, 49.632545], [6.186094, 49.632362], [6.18564, 49.63212], [6.185221, 49.63189], [6.184561, 49.631577], [6.184, 49.63133], [6.183832, 49.631264], [6.183359, 49.631084], [6.183279, 49.631054], [6.183027, 49.630745], [6.183206, 49.630381], [6.182234, 49.630102], [6.18247, 49.629475], [6.181902, 49.629253], [6.181715, 49.629177], [6.181547, 49.629116], [6.181108, 49.628944], [6.181105, 49.628807], [6.181101, 49.62861], [6.181097, 49.62856], [6.181093, 49.62838], [6.181345, 49.62804], [6.181395, 49.627968], [6.18141, 49.62795], [6.181467, 49.627865], [6.181654, 49.627594], [6.180784, 49.627018], [6.180674, 49.627083], [6.179487, 49.6262], [6.179647, 49.626], [6.179827, 49.625774], [6.179205, 49.62536], [6.179373, 49.625057], [6.179468, 49.62488], [6.178625, 49.62455], [6.178575, 49.62453], [6.178522, 49.6245], [6.178446, 49.62442], [6.178511, 49.624367], [6.178308, 49.624264], [6.178412, 49.62421], [6.178595, 49.624084], [6.178953, 49.623844], [6.178858, 49.62377], [6.17911, 49.623665], [6.179564, 49.623497], [6.179873, 49.62337], [6.18017, 49.623283], [6.180483, 49.62324], [6.18054, 49.62337], [6.180586, 49.62352], [6.180731, 49.624027], [6.180845, 49.624054], [6.18088, 49.624058], [6.181345, 49.624157], [6.181745, 49.62424], [6.181833, 49.62426], [6.181974, 49.62429], [6.18231, 49.624363], [6.182775, 49.624462], [6.182997, 49.624508], [6.183737, 49.624073], [6.184443, 49.62429], [6.184996, 49.624443], [6.185568, 49.624607], [6.186056, 49.624744], [6.186232, 49.62479], [6.186529, 49.624855], [6.187025, 49.624954], [6.187578, 49.62507], [6.187845, 49.62513], [6.187986, 49.62517], [6.189066, 49.625633], [6.189203, 49.62569], [6.189226, 49.625637], [6.18947, 49.624996], [6.1896, 49.624653], [6.189703, 49.624386], [6.189817, 49.624107], [6.189913, 49.62387], [6.19005, 49.623516], [6.190176, 49.62317], [6.190191, 49.62312], [6.190226, 49.62303], [6.190279, 49.622868], [6.190302, 49.622803], [6.189502, 49.622536], [6.188222, 49.622174], [6.187539, 49.622017], [6.187498, 49.622009], [6.185289, 49.621468], [6.185354, 49.621418], [6.185465, 49.621326], [6.186396, 49.62123], [6.186449, 49.621227], [6.18648, 49.621227], [6.18651, 49.62123], [6.186548, 49.621243], [6.186602, 49.621258], [6.186667, 49.62127], [6.186705, 49.621273], [6.186831, 49.621273], [6.186995, 49.62127], [6.187258, 49.62126], [6.187284, 49.62126], [6.188047, 49.62125], [6.188284, 49.62124], [6.188509, 49.621223], [6.188826, 49.621197], [6.189035, 49.621178], [6.189386, 49.62114], [6.189627, 49.621113], [6.190073, 49.621044], [6.190397, 49.620983], [6.190508, 49.620964], [6.190592, 49.620953], [6.190676, 49.620937], [6.190741, 49.620926], [6.190988, 49.620876], [6.191248, 49.62084], [6.191511, 49.62081], [6.191534, 49.620716], [6.191542, 49.620678], [6.190985, 49.620728], [6.190432, 49.620777], [6.190371, 49.62028], [6.190363, 49.62021], [6.190229, 49.620228], [6.189508, 49.62033], [6.189585, 49.619987], [6.189608, 49.61988], [6.18963, 49.619793], [6.189638, 49.619762], [6.189714, 49.61941], [6.189806, 49.61902], [6.189814, 49.618973], [6.190466, 49.619003], [6.191126, 49.61903], [6.19113, 49.61901], [6.191236, 49.61804], [6.191587, 49.61805], [6.191698, 49.618046], [6.191881, 49.618034], [6.192011, 49.61802], [6.192102, 49.618008], [6.192205, 49.61799], [6.192308, 49.617977], [6.192453, 49.617973], [6.19256, 49.617973], [6.192675, 49.617985], [6.192785, 49.617992], [6.1929, 49.617996], [6.193029, 49.617992], [6.193125, 49.617985], [6.193777, 49.617878], [6.193953, 49.617844], [6.194037, 49.617825], [6.194132, 49.617798], [6.194235, 49.61776], [6.194368, 49.617706], [6.194578, 49.617607], [6.194979, 49.6174], [6.195227, 49.61727], [6.19525, 49.617268], [6.195818, 49.617237], [6.196085, 49.61722], [6.196218, 49.61721], [6.196299, 49.6172], [6.196417, 49.617176], [6.196531, 49.617146], [6.196871, 49.617046], [6.19721, 49.61694], [6.197378, 49.616882], [6.197477, 49.61684], [6.197588, 49.616795], [6.197699, 49.616737], [6.197794, 49.616684], [6.198015, 49.616558], [6.198427, 49.6163], [6.198511, 49.616245], [6.19858, 49.616184], [6.198771, 49.61603], [6.198359, 49.61588], [6.198511, 49.615692], [6.198656, 49.615532], [6.199141, 49.61522], [6.199232, 49.61516], [6.199263, 49.615143], [6.199099, 49.614944], [6.199614, 49.614536], [6.200029, 49.61439], [6.200289, 49.614304], [6.20038, 49.61428], [6.20056, 49.61423], [6.200857, 49.61415], [6.20112, 49.614082], [6.201277, 49.614006], [6.2027, 49.613976], [6.20307, 49.613873], [6.203291, 49.613804], [6.203299, 49.613773], [6.203646, 49.613064], [6.203375, 49.612976], [6.203207, 49.612926], [6.203012, 49.612873], [6.202768, 49.612812], [6.202402, 49.612732], [6.202349, 49.61272], [6.202326, 49.612404], [6.202292, 49.612206], [6.202196, 49.611877], [6.202078, 49.611366], [6.202044, 49.611164], [6.202017, 49.61099], [6.201891, 49.610714], [6.201803, 49.61056], [6.20133, 49.610332], [6.201059, 49.61019], [6.200792, 49.61002], [6.200327, 49.60962], [6.200216, 49.60958], [6.199427, 49.609245], [6.199099, 49.609135], [6.198221, 49.60865], [6.197153, 49.607967], [6.196302, 49.607418], [6.195906, 49.607136], [6.195639, 49.60698], [6.194925, 49.60661], [6.19388, 49.60615], [6.193781, 49.60613], [6.193582, 49.606052], [6.193495, 49.60597], [6.193312, 49.605793], [6.193239, 49.60572], [6.19309, 49.605675], [6.192999, 49.605644], [6.1929, 49.605614], [6.192698, 49.605495], [6.19256, 49.605408], [6.192396, 49.605267], [6.192175, 49.60504], [6.192095, 49.60494], [6.192045, 49.604877], [6.191961, 49.60489], [6.191938, 49.604893], [6.191809, 49.6049], [6.191744, 49.60492], [6.191652, 49.60496], [6.191591, 49.60498], [6.191496, 49.604992], [6.191423, 49.60499], [6.191374, 49.604984], [6.191298, 49.604965], [6.19121, 49.604942], [6.190931, 49.60483], [6.190786, 49.604786], [6.190687, 49.604763], [6.190584, 49.604748], [6.190493, 49.604744], [6.190371, 49.60475], [6.190298, 49.60476], [6.190149, 49.60479], [6.190012, 49.604824], [6.189829, 49.604874], [6.189852, 49.605114], [6.189722, 49.605152], [6.189463, 49.605225], [6.189241, 49.60529], [6.188925, 49.60538], [6.188612, 49.605476], [6.188528, 49.605515], [6.188456, 49.605545], [6.188333, 49.60562], [6.188284, 49.605667], [6.188231, 49.60572], [6.188185, 49.605774], [6.188162, 49.605804], [6.188147, 49.605835], [6.188128, 49.606007], [6.188105, 49.606094], [6.188089, 49.606133], [6.188051, 49.606194], [6.188013, 49.60624], [6.187979, 49.60627], [6.18788, 49.606335], [6.187754, 49.60643], [6.187716, 49.606464], [6.187677, 49.606514], [6.187639, 49.606575], [6.187613, 49.606655], [6.18759, 49.606754], [6.187597, 49.606842], [6.187605, 49.6069], [6.18767, 49.607113], [6.187677, 49.607155], [6.187654, 49.607193], [6.187613, 49.60723], [6.187536, 49.607285], [6.187456, 49.607353], [6.187342, 49.607445], [6.187162, 49.60765], [6.187128, 49.607693], [6.187079, 49.607727], [6.187021, 49.60775], [6.186968, 49.607758], [6.186914, 49.607765], [6.186869, 49.60778], [6.186796, 49.60782], [6.186758, 49.607834], [6.186716, 49.60784], [6.186659, 49.607845], [6.186598, 49.607857], [6.186552, 49.60787], [6.18646, 49.6079], [6.186365, 49.607925], [6.186319, 49.607933], [6.186277, 49.607933], [6.186201, 49.607925], [6.186136, 49.60792], [6.186049, 49.607925], [6.185938, 49.60792], [6.185846, 49.607918], [6.185774, 49.60792], [6.18572, 49.607937], [6.185652, 49.607967], [6.185602, 49.607998], [6.185427, 49.608147], [6.185362, 49.608185], [6.185263, 49.608215], [6.185133, 49.608234], [6.184927, 49.608234], [6.184694, 49.60827], [6.184607, 49.608276], [6.18453, 49.608257], [6.184484, 49.60823], [6.184454, 49.6082], [6.184423, 49.60818], [6.184355, 49.608162], [6.184217, 49.60813], [6.184137, 49.60811], [6.184019, 49.60806], [6.183928, 49.60802], [6.183866, 49.608006], [6.183813, 49.607998], [6.183676, 49.607994], [6.183554, 49.607994], [6.183474, 49.607983], [6.183409, 49.607956], [6.183332, 49.607906], [6.18326, 49.60786], [6.183039, 49.607784], [6.182905, 49.60772], [6.182791, 49.607662], [6.182745, 49.607647], [6.182711, 49.60764], [6.182688, 49.60764], [6.182589, 49.607635], [6.18255, 49.607628], [6.18252, 49.607616], [6.182467, 49.607586], [6.182375, 49.607548], [6.18228, 49.607506], [6.182196, 49.60747], [6.18215, 49.607445], [6.182123, 49.60741], [6.182108, 49.607372], [6.182093, 49.60728], [6.182074, 49.607246], [6.182054, 49.60722], [6.18202, 49.607193], [6.181971, 49.607162], [6.181902, 49.607132], [6.181845, 49.607113], [6.181761, 49.60709], [6.181536, 49.60706], [6.181379, 49.607044], [6.181234, 49.607033], [6.180994, 49.60702], [6.180853, 49.60702], [6.180799, 49.60703], [6.180754, 49.60704], [6.180716, 49.60706], [6.180685, 49.60707], [6.180658, 49.607067], [6.180609, 49.607044], [6.180532, 49.607018], [6.180353, 49.60699], [6.180044, 49.60697], [6.179644, 49.606956], [6.179407, 49.606953], [6.179228, 49.60696], [6.179045, 49.606976], [6.178881, 49.606995], [6.178782, 49.607014], [6.178698, 49.607044], [6.178438, 49.60718], [6.17819, 49.607307], [6.178019, 49.607384], [6.177736, 49.607494], [6.177668, 49.607517], [6.177607, 49.607533], [6.177561, 49.607536], [6.177511, 49.607533], [6.177469, 49.60753], [6.177374, 49.607536], [6.176512, 49.607605], [6.176397, 49.607616], [6.176348, 49.607624], [6.176188, 49.607666], [6.176107, 49.607674], [6.176035, 49.60766], [6.175898, 49.607624], [6.17581, 49.607616], [6.175699, 49.60762], [6.175489, 49.607624], [6.175337, 49.607628], [6.175272, 49.607624], [6.175234, 49.607616], [6.175192, 49.607605], [6.175169, 49.607582], [6.175165, 49.607563], [6.175161, 49.60754], [6.17515, 49.60752], [6.175127, 49.60751], [6.175032, 49.607475], [6.17465, 49.60737], [6.174131, 49.60722], [6.173849, 49.607136], [6.173765, 49.60711], [6.173723, 49.607098], [6.173555, 49.60704], [6.173266, 49.606934], [6.173037, 49.606853], [6.172846, 49.606796], [6.172751, 49.60678], [6.17264, 49.606777], [6.172441, 49.60678], [6.172201, 49.606792], [6.172007, 49.606804], [6.171866, 49.60681], [6.171602, 49.606827], [6.171278, 49.60684], [6.171164, 49.60683], [6.17108, 49.60682], [6.170824, 49.60672], [6.170294, 49.60648], [6.169912, 49.606308], [6.169573, 49.606163], [6.169424, 49.606106], [6.169249, 49.60605], [6.169161, 49.606018], [6.169077, 49.605843], [6.169035, 49.60575], [6.169016, 49.605732], [6.168951, 49.60573], [6.168825, 49.6057], [6.168692, 49.605648], [6.168547, 49.60557], [6.16847, 49.60553], [6.168344, 49.605495], [6.168215, 49.605476], [6.1681, 49.605476], [6.16791, 49.605484], [6.167666, 49.605507], [6.16762, 49.60544], [6.167524, 49.605297], [6.167467, 49.60521], [6.167357, 49.605103], [6.167265, 49.605038], [6.167067, 49.604942], [6.167051, 49.60493], [6.166918, 49.604843], [6.166902, 49.60483], [6.166815, 49.604767], [6.16675, 49.604725], [6.166571, 49.604595], [6.166441, 49.60451], [6.166319, 49.604443], [6.166098, 49.604324], [6.165915, 49.604233], [6.165659, 49.604103], [6.16564, 49.604095], [6.165453, 49.604], [6.1653, 49.60392], [6.165213, 49.603878], [6.164988, 49.603752], [6.164934, 49.603725], [6.164774, 49.603638], [6.164648, 49.60357], [6.16461, 49.60355], [6.164347, 49.603405], [6.163984, 49.60335], [6.163889, 49.603336], [6.163744, 49.603313], [6.163496, 49.603275], [6.163641, 49.60306], [6.16366, 49.602985], [6.16353, 49.602924], [6.163305, 49.60282], [6.163271, 49.602806], [6.163145, 49.602745], [6.16295, 49.602657], [6.162901, 49.60263], [6.162859, 49.60261], [6.162554, 49.60245], [6.162538, 49.602444], [6.162344, 49.602345], [6.162218, 49.60228], [6.162172, 49.602257], [6.162146, 49.60224], [6.162104, 49.602222], [6.162008, 49.602173], [6.161989, 49.60216], [6.161924, 49.602127], [6.16189, 49.60211], [6.161814, 49.60207], [6.161596, 49.60196], [6.161657, 49.60191], [6.161444, 49.601795], [6.161383, 49.601765], [6.161341, 49.601738], [6.161272, 49.6017], [6.161131, 49.60162], [6.160898, 49.601467], [6.160776, 49.60138], [6.160715, 49.601406], [6.160643, 49.60135], [6.160238, 49.601017], [6.159544, 49.600456], [6.159525, 49.600437], [6.159235, 49.600197], [6.158976, 49.599976], [6.158842, 49.599865], [6.158751, 49.599785], [6.158556, 49.599613], [6.158457, 49.59953], [6.158354, 49.599438], [6.158178, 49.599277], [6.158079, 49.599194], [6.15801, 49.59913], [6.157854, 49.59899], [6.157713, 49.598866], [6.157545, 49.59872], [6.157442, 49.598637], [6.157385, 49.59859], [6.157282, 49.598503], [6.157152, 49.598392], [6.157091, 49.598343], [6.156904, 49.598183], [6.156778, 49.59808], [6.156542, 49.59788], [6.156363, 49.597733], [6.156279, 49.59766], [6.156187, 49.597584], [6.15616, 49.59756], [6.156027, 49.59745], [6.155966, 49.5974], [6.15587, 49.597324], [6.155851, 49.59734], [6.155424, 49.596977], [6.15497, 49.596603], [6.154715, 49.596397], [6.154482, 49.59618], [6.15391, 49.595703], [6.153646, 49.59549], [6.153505, 49.595375], [6.153482, 49.59534], [6.153441, 49.595318], [6.153295, 49.595238], [6.153119, 49.595126], [6.153273, 49.594734], [6.153398, 49.59443], [6.15357, 49.594048], [6.153711, 49.59375], [6.153727, 49.59372], [6.153494, 49.593548], [6.153181, 49.593376], [6.152781, 49.593174], [6.152571, 49.593067], [6.152391, 49.592968], [6.152094, 49.592793], [6.151663, 49.592525], [6.151422, 49.592373], [6.151087, 49.59215], [6.150942, 49.59207], [6.150824, 49.59203], [6.150694, 49.592], [6.15048, 49.59196], [6.150164, 49.59192], [6.149977, 49.591908], [6.148981, 49.591896], [6.149008, 49.591877], [6.149176, 49.591766], [6.149656, 49.591454], [6.150392, 49.59096], [6.150274, 49.590893], [6.150232, 49.590874], [6.150152, 49.590824], [6.150053, 49.590885], [6.149843, 49.590763], [6.149721, 49.59069], [6.149614, 49.59063], [6.149477, 49.59055], [6.149336, 49.59047], [6.14929, 49.590443], [6.149107, 49.590332], [6.149069, 49.59031], [6.149, 49.590267], [6.148481, 49.58996], [6.146914, 49.58904], [6.146818, 49.58898], [6.146635, 49.588875], [6.146486, 49.588787], [6.146357, 49.588882], [6.146086, 49.589085], [6.146006, 49.589146], [6.145872, 49.58925], [6.145807, 49.589294], [6.145758, 49.589325], [6.145716, 49.589355], [6.145552, 49.589466], [6.145376, 49.58959], [6.145292, 49.58964], [6.145243, 49.589676], [6.145109, 49.589767], [6.144976, 49.58986], [6.144815, 49.589767], [6.144739, 49.589723], [6.144651, 49.589672], [6.144571, 49.589626], [6.144518, 49.589596], [6.144457, 49.589558], [6.144415, 49.589535], [6.144354, 49.5895], [6.144297, 49.589466], [6.144251, 49.58944], [6.14414, 49.589375], [6.144011, 49.589302], [6.143744, 49.589146], [6.143686, 49.589115], [6.143518, 49.58902], [6.143328, 49.588917], [6.143087, 49.588806], [6.142847, 49.588707], [6.142805, 49.58869], [6.142687, 49.588646], [6.142572, 49.588604], [6.142488, 49.58857], [6.142332, 49.588512], [6.142248, 49.588493], [6.141913, 49.58906], [6.141275, 49.588882], [6.139933, 49.588383], [6.138994, 49.588055], [6.138655, 49.58787], [6.137739, 49.587326], [6.137354, 49.587036], [6.136988, 49.586773], [6.136622, 49.58643], [6.136209, 49.586082], [6.136004, 49.5858], [6.135992, 49.58576], [6.136, 49.585606], [6.136057, 49.585594], [6.136087, 49.585316], [6.136007, 49.58533], [6.136015, 49.58527], [6.136026, 49.585052], [6.136, 49.584995], [6.136026, 49.58449], [6.136026, 49.58431], [6.136004, 49.584232], [6.135916, 49.584114], [6.135893, 49.584053], [6.13587, 49.583942], [6.135847, 49.583935], [6.135496, 49.58386], [6.135107, 49.583775], [6.135031, 49.583755], [6.134981, 49.583683], [6.134569, 49.583073], [6.134523, 49.582996], [6.134054, 49.5823], [6.134028, 49.582306], [6.132887, 49.58288], [6.132742, 49.58268], [6.132692, 49.58267], [6.132441, 49.582325], [6.13209, 49.58185], [6.131922, 49.58158], [6.131483, 49.580883], [6.131426, 49.58079], [6.131117, 49.580315], [6.131163, 49.58029], [6.131018, 49.58014], [6.130884, 49.579983], [6.130686, 49.579746], [6.13064, 49.579693], [6.130434, 49.579445], [6.130407, 49.57941], [6.130278, 49.57948], [6.130072, 49.579617], [6.129076, 49.58027], [6.128977, 49.58037], [6.128225, 49.58115], [6.127501, 49.581924], [6.127287, 49.58215], [6.127218, 49.582092], [6.127024, 49.581944], [6.126879, 49.58185], [6.126715, 49.58176], [6.126596, 49.581707], [6.12641, 49.58163], [6.126081, 49.58152], [6.125742, 49.58142], [6.125475, 49.58135], [6.12546, 49.581337], [6.125204, 49.58118], [6.125193, 49.581177], [6.125132, 49.58114], [6.124823, 49.58095], [6.12454, 49.580757], [6.124254, 49.580524], [6.124044, 49.58029], [6.123945, 49.580116], [6.123869, 49.579884], [6.123838, 49.5797], [6.123804, 49.57942], [6.123705, 49.5791], [6.123514, 49.578667], [6.123415, 49.57841], [6.123198, 49.578083], [6.123045, 49.577873], [6.12298, 49.577797], [6.122892, 49.57769], [6.122847, 49.57763], [6.122801, 49.577576], [6.122702, 49.577454], [6.122606, 49.577343], [6.122549, 49.57727], [6.122488, 49.577198], [6.122393, 49.57708], [6.122095, 49.576717], [6.121881, 49.57648], [6.121809, 49.576397], [6.121443, 49.5761], [6.121267, 49.575954], [6.121248, 49.57594], [6.120954, 49.57576], [6.120317, 49.575356], [6.12023, 49.575283], [6.120203, 49.575237], [6.120058, 49.574837], [6.119905, 49.574455], [6.119841, 49.574287], [6.119806, 49.574192], [6.119841, 49.574196], [6.121054, 49.5743], [6.121702, 49.574356], [6.122026, 49.574383], [6.122744, 49.574448], [6.122793, 49.574318], [6.122866, 49.57415], [6.122919, 49.574024], [6.123053, 49.57372], [6.123148, 49.57354], [6.123301, 49.57331], [6.123404, 49.57318], [6.123461, 49.573112], [6.124193, 49.572334], [6.124308, 49.572178], [6.124575, 49.571934], [6.124685, 49.57183], [6.12525, 49.57121], [6.125677, 49.57073], [6.12549, 49.57062], [6.125296, 49.570507], [6.125212, 49.570454], [6.125009, 49.570343], [6.124899, 49.57028], [6.124746, 49.57019], [6.124331, 49.570034], [6.123789, 49.56988], [6.123583, 49.569798], [6.122992, 49.56964], [6.122427, 49.569523], [6.12232, 49.56949], [6.122244, 49.569473], [6.122053, 49.569458], [6.12182, 49.56943], [6.12155, 49.569378], [6.121401, 49.569344], [6.121256, 49.5693], [6.121031, 49.569214], [6.120951, 49.569176], [6.120905, 49.569145], [6.120848, 49.569035], [6.120733, 49.568996], [6.120623, 49.568954], [6.120508, 49.568897], [6.12042, 49.568844], [6.120176, 49.5687], [6.120195, 49.568626], [6.117067, 49.568253], [6.116251, 49.568172], [6.115473, 49.568092], [6.116526, 49.567085], [6.116575, 49.56701], [6.116594, 49.566975], [6.116758, 49.566704], [6.11709, 49.566395], [6.117384, 49.566124], [6.117556, 49.56554], [6.117567, 49.565506], [6.117636, 49.56526], [6.117716, 49.56499], [6.117926, 49.56506], [6.118521, 49.565212], [6.11894, 49.56529], [6.119257, 49.565342], [6.119146, 49.56519], [6.119085, 49.565113], [6.118944, 49.564922], [6.118761, 49.5647], [6.118681, 49.56462], [6.118643, 49.564587], [6.118563, 49.564514], [6.118151, 49.564198], [6.117861, 49.56391], [6.117773, 49.563816], [6.117384, 49.563423], [6.117128, 49.56316], [6.117094, 49.563126], [6.116858, 49.562885], [6.116602, 49.562626], [6.116278, 49.56228], [6.115972, 49.56186], [6.115656, 49.56103], [6.115557, 49.561028], [6.115454, 49.561024], [6.114256, 49.560997], [6.113855, 49.56099], [6.113714, 49.560986], [6.11352, 49.561058], [6.113272, 49.561153], [6.113138, 49.561188], [6.11252, 49.56133], [6.112028, 49.561428], [6.111322, 49.561543], [6.110205, 49.56175], [6.109407, 49.561893], [6.108232, 49.562107], [6.108297, 49.562553], [6.108511, 49.563297], [6.108793, 49.564293], [6.108946, 49.564827], [6.108999, 49.565056], [6.109026, 49.56525], [6.109049, 49.5656], [6.109083, 49.565968], [6.109148, 49.566525], [6.109034, 49.56653], [6.10895, 49.56653], [6.108789, 49.566532], [6.108747, 49.566536], [6.108694, 49.56654], [6.108633, 49.56655], [6.108576, 49.566566], [6.108454, 49.566597], [6.108122, 49.566692], [6.107084, 49.56679], [6.106192, 49.56674], [6.10589, 49.566467], [6.105471, 49.56636], [6.105268, 49.566307], [6.105028, 49.566246], [6.104857, 49.566196], [6.104471, 49.566036], [6.10425, 49.565952], [6.104158, 49.56589], [6.103918, 49.5657], [6.103895, 49.56568], [6.103865, 49.565655], [6.103701, 49.565506], [6.10359, 49.56541], [6.103441, 49.565304], [6.103342, 49.565247], [6.102938, 49.565033], [6.102556, 49.564842], [6.102343, 49.564747], [6.102117, 49.564655], [6.10174, 49.564648], [6.101755, 49.564716], [6.101767, 49.564785], [6.101782, 49.56486], [6.101744, 49.56497], [6.101652, 49.565094], [6.101507, 49.56521], [6.101419, 49.565273], [6.101122, 49.56549], [6.100428, 49.565937], [6.099691, 49.566414], [6.099619, 49.56646], [6.100424, 49.567135], [6.101259, 49.56783], [6.101854, 49.56828], [6.102194, 49.568466], [6.102827, 49.568798], [6.10362, 49.569168], [6.103739, 49.569286], [6.103945, 49.569496], [6.104193, 49.569763], [6.104315, 49.569916], [6.104342, 49.569977], [6.104353, 49.570034], [6.104338, 49.570087], [6.104319, 49.57014], [6.104208, 49.570198], [6.103575, 49.570564], [6.103262, 49.570744], [6.103048, 49.570843], [6.102781, 49.570957], [6.102522, 49.57104], [6.102003, 49.571194], [6.101637, 49.571297], [6.101419, 49.571346], [6.101297, 49.57136], [6.100775, 49.571415], [6.100759, 49.571415], [6.100614, 49.57148], [6.100477, 49.57154], [6.100443, 49.571556], [6.100397, 49.57157], [6.100351, 49.57158], [6.100283, 49.571575], [6.10021, 49.57156], [6.09992, 49.57149], [6.099718, 49.57143], [6.099634, 49.571377], [6.09936, 49.57119], [6.098833, 49.57131], [6.098715, 49.571335], [6.098192, 49.571453], [6.09807, 49.571625], [6.097856, 49.571915], [6.097818, 49.57196], [6.097757, 49.572044], [6.09767, 49.57216], [6.097597, 49.57225], [6.097529, 49.572308], [6.097422, 49.572395], [6.097315, 49.572483], [6.097261, 49.57253], [6.09717, 49.5726], [6.097097, 49.572666], [6.096994, 49.572758], [6.096895, 49.572853], [6.0968, 49.57295], [6.096788, 49.57296], [6.096697, 49.573067], [6.096563, 49.57323], [6.096182, 49.57374], [6.095926, 49.57406], [6.095697, 49.574364], [6.095346, 49.574814], [6.095182, 49.57503], [6.095247, 49.57517], [6.095137, 49.575207], [6.094923, 49.57528], [6.094786, 49.57533], [6.094683, 49.575363], [6.094626, 49.575382], [6.094458, 49.57544], [6.094408, 49.57546], [6.094004, 49.575592], [6.093988, 49.575603], [6.093962, 49.575638], [6.093947, 49.575676], [6.093939, 49.57571], [6.093958, 49.57594], [6.093962, 49.575977], [6.093992, 49.57611], [6.094057, 49.576324], [6.094111, 49.576622], [6.094118, 49.576702], [6.094122, 49.57685], [6.094122, 49.576942], [6.094137, 49.57724], [6.094149, 49.577374], [6.094141, 49.57739], [6.094107, 49.57745], [6.093927, 49.577778], [6.09384, 49.57795], [6.093809, 49.578003], [6.093782, 49.578064], [6.093645, 49.578342], [6.093607, 49.578415], [6.09355, 49.578564], [6.093245, 49.57853], [6.092787, 49.578423], [6.092287, 49.57829], [6.091108, 49.57797], [6.091074, 49.57796], [6.09104, 49.577946], [6.091001, 49.57792], [6.090986, 49.577892], [6.090986, 49.577877], [6.090975, 49.5778], [6.0903, 49.577637], [6.089682, 49.577473], [6.089338, 49.577377], [6.088785, 49.577206], [6.088537, 49.577126], [6.088411, 49.577084], [6.088263, 49.577038], [6.088083, 49.576984], [6.087877, 49.576923], [6.087278, 49.576782], [6.087042, 49.5767], [6.086756, 49.576595], [6.086645, 49.57657], [6.085638, 49.57637], [6.084917, 49.57623], [6.084406, 49.576576], [6.083776, 49.576855], [6.08325, 49.577103], [6.082567, 49.57709], [6.081636, 49.57741], [6.081129, 49.577663], [6.080557, 49.577522], [6.080473, 49.577503], [6.080244, 49.577454], [6.07976, 49.577408], [6.079413, 49.577377], [6.079397, 49.577377], [6.07939, 49.577395], [6.079306, 49.577625], [6.079195, 49.57788], [6.079031, 49.57823], [6.079119, 49.578697], [6.079229, 49.57911], [6.079225, 49.57912], [6.078814, 49.579895], [6.078611, 49.580105], [6.078531, 49.580177], [6.07836, 49.58032], [6.078325, 49.580345], [6.078287, 49.580376], [6.07823, 49.580414], [6.078276, 49.580477], [6.078566, 49.580875], [6.078138, 49.581333], [6.078211, 49.581573], [6.078264, 49.581745], [6.078341, 49.581947], [6.078386, 49.582096], [6.078421, 49.5822], [6.078432, 49.582235], [6.078459, 49.58232], [6.078516, 49.582493], [6.078566, 49.582596], [6.078749, 49.582962], [6.078791, 49.58305], [6.078833, 49.583153], [6.078844, 49.58319], [6.078844, 49.58322], [6.078829, 49.583275], [6.078817, 49.583332], [6.078814, 49.58339], [6.078817, 49.58345], [6.078878, 49.58363], [6.079012, 49.584038], [6.079023, 49.584076], [6.079065, 49.584194], [6.079126, 49.584217], [6.079195, 49.584244], [6.079271, 49.58429], [6.079351, 49.584335], [6.079409, 49.58438], [6.079454, 49.58442], [6.079493, 49.584446], [6.079534, 49.584457], [6.079584, 49.584465], [6.079611, 49.58446], [6.079653, 49.584442], [6.079725, 49.584393], [6.07976, 49.584366], [6.079645, 49.584553], [6.079428, 49.58489], [6.079298, 49.5851], [6.079275, 49.585136], [6.079287, 49.58524], [6.078997, 49.585434], [6.078756, 49.585594], [6.078501, 49.585747], [6.078344, 49.58584], [6.077852, 49.58613], [6.077589, 49.586296], [6.076948, 49.586708], [6.076815, 49.586796], [6.076368, 49.58711], [6.076227, 49.587273], [6.076757, 49.587498], [6.076685, 49.587666], [6.07667, 49.587704], [6.07662, 49.58781], [6.076555, 49.587955], [6.076525, 49.588028], [6.076506, 49.588093], [6.076471, 49.588303], [6.076407, 49.58868], [6.076384, 49.588768], [6.076376, 49.588802], [6.076307, 49.589058], [6.076257, 49.58923], [6.076231, 49.58932], [6.076216, 49.589363], [6.075918, 49.589333], [6.075739, 49.58931], [6.075705, 49.589424], [6.075174, 49.589382], [6.074736, 49.589405], [6.074385, 49.58942], [6.074224, 49.589806], [6.073744, 49.589386], [6.073633, 49.5894], [6.073511, 49.589417], [6.073107, 49.58936], [6.072986, 49.589284], [6.072981, 49.58934], [6.07284, 49.589203], [6.072782, 49.589146], [6.072744, 49.58911], [6.072676, 49.589043], [6.072622, 49.58899], [6.072569, 49.58894], [6.072519, 49.58889], [6.072477, 49.588852], [6.072428, 49.5888], [6.072363, 49.588737], [6.071653, 49.588337], [6.071295, 49.58803], [6.070982, 49.58769], [6.070936, 49.587795], [6.070665, 49.588577], [6.070654, 49.588608], [6.070612, 49.58873], [6.070604, 49.58876], [6.070581, 49.588825], [6.070166, 49.5887], [6.069906, 49.588673], [6.06967, 49.589157], [6.069544, 49.589413], [6.069513, 49.58947], [6.06946, 49.589584], [6.069357, 49.589825], [6.069776, 49.589928], [6.069889, 49.589954], [6.070051, 49.589996], [6.070564, 49.590219], [6.070669, 49.590275], [6.070806, 49.59034], [6.07097, 49.59042], [6.071253, 49.590572], [6.071428, 49.59067], [6.071566, 49.590763], [6.071772, 49.590904], [6.071955, 49.591038], [6.072172, 49.591194], [6.072363, 49.591324], [6.07263, 49.5915], [6.072851, 49.59165], [6.073004, 49.591747], [6.073053, 49.59178], [6.073149, 49.59186], [6.073355, 49.592037], [6.073652, 49.592297], [6.073923, 49.592545], [6.074179, 49.59277], [6.07427, 49.592854], [6.074335, 49.592922], [6.074408, 49.593002], [6.074495, 49.593113], [6.07461, 49.59327], [6.074652, 49.59332], [6.074724, 49.59339], [6.074789, 49.593445], [6.074858, 49.59349], [6.074892, 49.59351], [6.075003, 49.593563], [6.075243, 49.59367], [6.07543, 49.59375], [6.075567, 49.593822], [6.07567, 49.593895], [6.075758, 49.59396], [6.076029, 49.594154], [6.076159, 49.594242], [6.076281, 49.594315], [6.076456, 49.594418], [6.07657, 49.594482], [6.076696, 49.59457], [6.07683, 49.59466], [6.076998, 49.594788], [6.07715, 49.59491], [6.077249, 49.594994], [6.077421, 49.595146], [6.077692, 49.595383], [6.077837, 49.595505], [6.0776, 49.59579], [6.077505, 49.595913], [6.077394, 49.596058], [6.07733, 49.59614], [6.077249, 49.59625], [6.077116, 49.596436], [6.076979, 49.596634], [6.076922, 49.596714], [6.07686, 49.596798], [6.076818, 49.59684], [6.076761, 49.596886], [6.076712, 49.596916], [6.076654, 49.596943], [6.076601, 49.59696], [6.076521, 49.596966], [6.076365, 49.596962], [6.076204, 49.59696], [6.076063, 49.59696], [6.075937, 49.596962], [6.075811, 49.59697], [6.075605, 49.59699], [6.075682, 49.5972], [6.075766, 49.59742], [6.075663, 49.59746], [6.075632, 49.597523], [6.075571, 49.597652], [6.07554, 49.59772], [6.075495, 49.59784], [6.075468, 49.597908], [6.075453, 49.597973], [6.075426, 49.598156], [6.075426, 49.598244], [6.075437, 49.59832], [6.075457, 49.598396], [6.075483, 49.598495], [6.075495, 49.598564], [6.075499, 49.598675], [6.075491, 49.598827], [6.075499, 49.598984], [6.075514, 49.599136], [6.075533, 49.599247], [6.075567, 49.599407], [6.075598, 49.599564], [6.075609, 49.599663], [6.075609, 49.599792], [6.075594, 49.600014], [6.075586, 49.60005], [6.07554, 49.60012], [6.075464, 49.600227], [6.075361, 49.600357], [6.075254, 49.600483], [6.075136, 49.600613], [6.075056, 49.600697], [6.074953, 49.600796], [6.074854, 49.60089], [6.074789, 49.600945], [6.074656, 49.60105], [6.07498, 49.60117], [6.075033, 49.60119], [6.075361, 49.601307], [6.075804, 49.601467], [6.075838, 49.60148], [6.075998, 49.601536], [6.076078, 49.601562], [6.0762, 49.60161], [6.076342, 49.601658], [6.076391, 49.601677], [6.076628, 49.60176], [6.076662, 49.601776], [6.076982, 49.60189], [6.077116, 49.60148], [6.077661, 49.60152], [6.077799, 49.601532], [6.078062, 49.60155], [6.07823, 49.601562], [6.078512, 49.601585], [6.078436, 49.60181], [6.07839, 49.60195], [6.078383, 49.601994], [6.078375, 49.60202], [6.078352, 49.602135], [6.078325, 49.602295], [6.078299, 49.60248], [6.078283, 49.60266], [6.078276, 49.60278], [6.078279, 49.602882], [6.078279, 49.603027], [6.078291, 49.60322], [6.078642, 49.60323], [6.078756, 49.603218], [6.078829, 49.603207], [6.078951, 49.60318], [6.079058, 49.603157], [6.079283, 49.603085], [6.079294, 49.60308], [6.079321, 49.603085], [6.079531, 49.60313], [6.079985, 49.603237], [6.080084, 49.60326], [6.080271, 49.603306], [6.080378, 49.60333], [6.080427, 49.603344], [6.080679, 49.60327], [6.080954, 49.60319], [6.080957, 49.603226], [6.080958, 49.603234], [6.080996, 49.60352], [6.08098, 49.603645], [6.080973, 49.60373], [6.080957, 49.60384], [6.080942, 49.6039], [6.080942, 49.60401], [6.080946, 49.60406], [6.080954, 49.604107], [6.080984, 49.604225], [6.080999, 49.604263], [6.081015, 49.60431], [6.081099, 49.604393], [6.081602, 49.604256], [6.081457, 49.604332], [6.0814, 49.604446], [6.081354, 49.60456], [6.081293, 49.604702], [6.081266, 49.60477], [6.081247, 49.604847], [6.08124, 49.604885], [6.081221, 49.605], [6.081293, 49.60503], [6.081369, 49.60506], [6.081549, 49.605133], [6.081705, 49.605194], [6.081793, 49.605232], [6.081945, 49.605293], [6.082048, 49.605335], [6.082228, 49.60541], [6.082403, 49.605484], [6.082304, 49.605583], [6.082354, 49.605602], [6.082437, 49.60564], [6.082472, 49.60566], [6.082651, 49.605747], [6.08341, 49.606125], [6.083628, 49.606236], [6.083914, 49.60638], [6.084318, 49.606586], [6.08486, 49.606873], [6.085047, 49.606976], [6.085199, 49.607063], [6.085348, 49.60715], [6.085474, 49.607224], [6.085589, 49.607292], [6.085665, 49.607338], [6.085745, 49.607395], [6.085932, 49.607525], [6.086298, 49.607788], [6.086485, 49.607925], [6.086798, 49.60817], [6.087248, 49.608524], [6.087542, 49.60875], [6.087732, 49.608902], [6.087877, 49.60902], [6.087908, 49.609093], [6.088068, 49.60922], [6.088179, 49.609337], [6.088461, 49.60965], [6.088713, 49.61], [6.088858, 49.610237], [6.088987, 49.61047], [6.089079, 49.610622], [6.08914, 49.61076], [6.089323, 49.611153], [6.089373, 49.611256], [6.089407, 49.61133], [6.089422, 49.611355], [6.089514, 49.611546], [6.089361, 49.611603], [6.089472, 49.611744], [6.089762, 49.612118], [6.09004, 49.612476], [6.090235, 49.612732], [6.090334, 49.612854], [6.090517, 49.6131], [6.09067, 49.613308], [6.090693, 49.613337], [6.091185, 49.613344], [6.091673, 49.613321], [6.091696, 49.613358], [6.091898, 49.613632], [6.092001, 49.61377], [6.092176, 49.61401], [6.092295, 49.614174], [6.092409, 49.614326], [6.092485, 49.614445], [6.092585, 49.614586], [6.092741, 49.614796], [6.092886, 49.614998], [6.092993, 49.615143], [6.093222, 49.615463], [6.093256, 49.61551], [6.09506, 49.615185], [6.095076, 49.615223], [6.09511, 49.61529], [6.095278, 49.615623], [6.09548, 49.616047], [6.095663, 49.616447], [6.095739, 49.616623], [6.095832, 49.616833], [6.095903, 49.616898], [6.096075, 49.617134], [6.096132, 49.617214], [6.096285, 49.61742], [6.096338, 49.617496], [6.096354, 49.617516], [6.096369, 49.617535], [6.096434, 49.61763], [6.09646, 49.61768], [6.096499, 49.617756], [6.096537, 49.61783], [6.096483, 49.617813], [6.096521, 49.61787], [6.096563, 49.617935], [6.096693, 49.618145], [6.09672, 49.61818], [6.096742, 49.618217], [6.096891, 49.618446], [6.096952, 49.618538], [6.097002, 49.618618], [6.097032, 49.61867], [6.09709, 49.618762], [6.097242, 49.61871], [6.097341, 49.618675], [6.097517, 49.618618], [6.097624, 49.618581], [6.097642, 49.61863], [6.097659, 49.618675], [6.097677, 49.618725], [6.097691, 49.618763], [6.097709, 49.618809], [6.097729, 49.618861], [6.097742, 49.618896], [6.097803, 49.619057], [6.097876, 49.61926], [6.097895, 49.61931], [6.097918, 49.619377], [6.097986, 49.619553], [6.098013, 49.61963], [6.098032, 49.61969], [6.098051, 49.619736], [6.097879, 49.619797], [6.097746, 49.619846], [6.097876, 49.619976], [6.097925, 49.62002], [6.09804, 49.62014], [6.09815, 49.620243], [6.098337, 49.620373], [6.098833, 49.620724], [6.099596, 49.621254], [6.100138, 49.621635], [6.100252, 49.62171], [6.100466, 49.621857], [6.100714, 49.62202], [6.100866, 49.622116], [6.100966, 49.622185], [6.100824, 49.622463], [6.100924, 49.62247], [6.101049, 49.62249], [6.10116, 49.622513], [6.10124, 49.622524], [6.101545, 49.622597], [6.101469, 49.622734], [6.101389, 49.622883], [6.101305, 49.62303], [6.101461, 49.623062], [6.101584, 49.62309], [6.101851, 49.623142], [6.10203, 49.62318], [6.101961, 49.623295], [6.1019, 49.623394], [6.102102, 49.623444], [6.102419, 49.62352], [6.102552, 49.623554], [6.102594, 49.62357], [6.102701, 49.623596], [6.10301, 49.62368], [6.10288, 49.623814], [6.103045, 49.62386], [6.103102, 49.623936], [6.103197, 49.62406], [6.103258, 49.62415], [6.103308, 49.624218], [6.10343, 49.624393], [6.103491, 49.62449], [6.103563, 49.624603], [6.103624, 49.624695], [6.103647, 49.62474], [6.103666, 49.62478], [6.103697, 49.62485], [6.103708, 49.624886], [6.103682, 49.625042], [6.103678, 49.62508], [6.103273, 49.624966], [6.102621, 49.624763], [6.101843, 49.624557], [6.101172, 49.624397], [6.100641, 49.6243], [6.09997, 49.62422], [6.09952, 49.624184], [6.099203, 49.624172], [6.097986, 49.624172], [6.097448, 49.624184], [6.096674, 49.624187], [6.096167, 49.624184], [6.095682, 49.62419], [6.095495, 49.624203], [6.095312, 49.624226], [6.095102, 49.62428], [6.094927, 49.624336], [6.094755, 49.624393], [6.094378, 49.62453], [6.094194, 49.62459], [6.094027, 49.62464], [6.093904, 49.62467], [6.093473, 49.624725], [6.093203, 49.62475], [6.093054, 49.624752], [6.092932, 49.624744], [6.092794, 49.62472], [6.092535, 49.62467], [6.092253, 49.624603], [6.092131, 49.624557], [6.091955, 49.624485], [6.091658, 49.62434], [6.091402, 49.62421], [6.09123, 49.624157], [6.090887, 49.624012], [6.090475, 49.623833], [6.090017, 49.62363], [6.089354, 49.623318], [6.089113, 49.62321], [6.08909, 49.623226], [6.089018, 49.623234], [6.089067, 49.623356], [6.089079, 49.623394], [6.089102, 49.623642], [6.089129, 49.62383], [6.08917, 49.624046], [6.089212, 49.62428], [6.089232, 49.624374], [6.089251, 49.624443], [6.089274, 49.624454], [6.089376, 49.624508], [6.090105, 49.624863], [6.090525, 49.625076], [6.090795, 49.625225], [6.091021, 49.625355], [6.090612, 49.62551], [6.090464, 49.625572], [6.090097, 49.625717], [6.089853, 49.62582], [6.089464, 49.625996], [6.089369, 49.626057], [6.089235, 49.626152], [6.089079, 49.626266], [6.0889, 49.626408], [6.088743, 49.626526], [6.088533, 49.62668], [6.088419, 49.626755], [6.088243, 49.626865], [6.088053, 49.62697], [6.087973, 49.62701], [6.087892, 49.627052], [6.087915, 49.627075], [6.088003, 49.62715], [6.088205, 49.62733], [6.088289, 49.627407], [6.088388, 49.6275], [6.088678, 49.627766], [6.088392, 49.627876], [6.088186, 49.62795], [6.087908, 49.628033], [6.087698, 49.628094], [6.08753, 49.628136], [6.087377, 49.62817], [6.087141, 49.62822], [6.086988, 49.62825], [6.086855, 49.628273], [6.086794, 49.628284], [6.086683, 49.6283], [6.086554, 49.628315], [6.086397, 49.62833], [6.085783, 49.628384], [6.085249, 49.628426], [6.085081, 49.62844], [6.084989, 49.62845], [6.0847, 49.628475], [6.084524, 49.628498], [6.084135, 49.628555], [6.083857, 49.628597], [6.083605, 49.62863], [6.083448, 49.62865], [6.083258, 49.628677], [6.083013, 49.628704], [6.082815, 49.628727], [6.082716, 49.628735], [6.082556, 49.628746], [6.082445, 49.628742], [6.082315, 49.628742], [6.082033, 49.62874], [6.081274, 49.628723], [6.081049, 49.62872], [6.080796, 49.628692], [6.080389, 49.628704], [6.079813, 49.628685], [6.079496, 49.628677], [6.079298, 49.62866], [6.078981, 49.628613], [6.078489, 49.628532], [6.078302, 49.6285], [6.078207, 49.628487], [6.077867, 49.62843], [6.0772, 49.628315], [6.076727, 49.62823], [6.076643, 49.628216], [6.076403, 49.628174], [6.075743, 49.628036], [6.07546, 49.627975], [6.074957, 49.62787], [6.074728, 49.62782], [6.074518, 49.627777], [6.073137, 49.627483], [6.072863, 49.627422], [6.072157, 49.6279], [6.071859, 49.628063], [6.071218, 49.628456], [6.071043, 49.628563], [6.070875, 49.62869], [6.070749, 49.628784], [6.070608, 49.628887], [6.070459, 49.62912], [6.070364, 49.629265], [6.070269, 49.629414], [6.070215, 49.629494], [6.070143, 49.6296], [6.069983, 49.629845], [6.069895, 49.629974], [6.069746, 49.6302], [6.069563, 49.630474], [6.069502, 49.630577], [6.069467, 49.63063], [6.069426, 49.63072], [6.069387, 49.630806], [6.069384, 49.630825], [6.069376, 49.630856], [6.069368, 49.630928], [6.069323, 49.63121], [6.069277, 49.631523], [6.069269, 49.631573], [6.06917, 49.631966]]]]}}]}