{"type": "FeatureCollection", "features": [{"type": "Feature", "properties": {"name": "Schuttrange"}, "geometry": {"type": "MultiPolygon", "coordinates": [[[[6.230917, 49.62354], [6.230989, 49.62355], [6.231375, 49.62401], [6.231405, 49.62405], [6.231485, 49.62415], [6.231573, 49.624283], [6.231924, 49.624767], [6.232187, 49.62513], [6.23229, 49.62527], [6.232328, 49.625275], [6.23255, 49.625286], [6.232698, 49.625294], [6.232916, 49.625294], [6.233011, 49.625286], [6.233129, 49.625275], [6.233316, 49.625256], [6.23348, 49.62524], [6.233709, 49.625217], [6.233858, 49.625206], [6.233984, 49.625195], [6.234068, 49.62519], [6.234102, 49.625195], [6.234186, 49.625202], [6.234381, 49.62523], [6.23448, 49.625248], [6.234594, 49.625275], [6.234674, 49.62529], [6.234846, 49.625336], [6.235144, 49.625423], [6.235334, 49.625477], [6.235453, 49.62551], [6.235701, 49.625576], [6.23599, 49.625656], [6.236181, 49.62571], [6.236326, 49.625744], [6.236395, 49.625755], [6.236525, 49.625774], [6.236624, 49.625786], [6.236746, 49.6258], [6.236761, 49.6258], [6.23696, 49.625824], [6.237036, 49.625835], [6.237078, 49.62584], [6.23715, 49.62585], [6.237673, 49.62592], [6.237776, 49.62593], [6.238039, 49.62603], [6.238131, 49.626064], [6.238371, 49.62616], [6.238451, 49.62619], [6.238604, 49.62625], [6.239237, 49.62651], [6.2395, 49.62662], [6.239527, 49.626633], [6.239634, 49.626675], [6.239756, 49.626724], [6.239805, 49.626743], [6.239866, 49.62677], [6.239908, 49.626785], [6.240099, 49.62686], [6.24024, 49.62692], [6.240366, 49.62697], [6.240408, 49.626984], [6.240606, 49.62706], [6.240641, 49.62707], [6.240988, 49.6272], [6.241102, 49.627247], [6.241369, 49.62735], [6.242056, 49.627594], [6.242315, 49.62769], [6.242365, 49.62771], [6.242209, 49.62795], [6.242128, 49.62807], [6.242083, 49.628147], [6.242044, 49.62824], [6.242014, 49.62835], [6.241999, 49.628414], [6.241995, 49.62844], [6.241987, 49.628483], [6.241983, 49.628567], [6.241999, 49.62866], [6.242018, 49.628765], [6.242033, 49.62879], [6.242086, 49.628906], [6.242197, 49.62911], [6.242292, 49.629246], [6.24238, 49.62936], [6.242411, 49.62941], [6.242449, 49.62948], [6.24246, 49.62954], [6.242476, 49.62963], [6.24251, 49.629963], [6.242514, 49.629986], [6.24254, 49.63011], [6.242571, 49.630238], [6.242578, 49.63028], [6.242567, 49.63031], [6.242544, 49.630352], [6.242536, 49.630375], [6.24251, 49.63043], [6.242495, 49.630455], [6.242472, 49.6305], [6.24243, 49.630566], [6.242369, 49.63063], [6.242285, 49.630703], [6.242243, 49.630737], [6.242178, 49.630795], [6.242075, 49.630882], [6.242495, 49.630985], [6.242586, 49.631004], [6.243162, 49.631126], [6.244013, 49.631294], [6.24494, 49.631466], [6.244986, 49.631645], [6.245375, 49.631676], [6.245737, 49.63171], [6.245771, 49.63171], [6.246134, 49.63173], [6.246027, 49.633236], [6.246023, 49.633247], [6.246008, 49.633415], [6.246668, 49.63323], [6.246813, 49.63322], [6.246939, 49.633217], [6.247072, 49.63321], [6.247122, 49.633205], [6.247278, 49.63349], [6.247431, 49.6339], [6.247644, 49.63444], [6.247717, 49.63461], [6.247732, 49.634666], [6.247744, 49.634727], [6.247736, 49.63479], [6.247724, 49.634834], [6.247686, 49.634907], [6.247335, 49.635036], [6.247148, 49.635117], [6.247045, 49.635166], [6.247194, 49.635113], [6.247278, 49.63509], [6.247312, 49.63508], [6.247393, 49.635075], [6.247438, 49.635075], [6.247538, 49.635086], [6.247736, 49.6351], [6.247938, 49.63512], [6.248167, 49.635147], [6.248297, 49.63516], [6.248465, 49.635174], [6.248556, 49.63518], [6.248716, 49.635193], [6.248854, 49.6352], [6.248922, 49.635212], [6.249006, 49.635235], [6.249147, 49.635277], [6.249285, 49.635326], [6.249342, 49.635345], [6.249449, 49.635376], [6.249491, 49.63545], [6.249628, 49.635685], [6.249712, 49.635784], [6.249739, 49.63582], [6.249884, 49.636024], [6.250647, 49.63602], [6.250643, 49.636044], [6.250608, 49.636208], [6.250589, 49.63629], [6.250578, 49.63636], [6.250544, 49.636383], [6.250372, 49.636505], [6.250479, 49.636494], [6.250524, 49.636486], [6.250765, 49.636932], [6.251085, 49.637215], [6.251341, 49.637352], [6.251429, 49.63739], [6.251474, 49.637405], [6.251516, 49.637417], [6.251574, 49.63743], [6.251688, 49.637447], [6.251989, 49.637493], [6.252157, 49.63752], [6.252142, 49.63758], [6.252115, 49.637676], [6.252077, 49.637817], [6.252047, 49.63792], [6.252016, 49.63804], [6.253012, 49.63835], [6.253767, 49.638588], [6.254007, 49.63833], [6.254023, 49.63831], [6.254221, 49.638092], [6.254293, 49.638016], [6.255644, 49.63841], [6.255983, 49.63852], [6.256197, 49.6386], [6.256372, 49.63866], [6.256578, 49.638752], [6.256689, 49.638798], [6.25662, 49.638878], [6.256475, 49.639057], [6.256533, 49.639072], [6.257925, 49.639473], [6.257753, 49.639668], [6.257856, 49.6397], [6.258058, 49.639774], [6.258257, 49.639843], [6.258558, 49.63995], [6.258715, 49.640003], [6.258799, 49.640034], [6.259035, 49.640114], [6.25979, 49.640377], [6.260706, 49.640686], [6.261679, 49.64103], [6.261774, 49.641068], [6.262442, 49.64134], [6.262876, 49.64151], [6.263147, 49.641613], [6.263525, 49.641727], [6.263647, 49.641758], [6.263826, 49.641796], [6.263937, 49.641815], [6.263987, 49.641827], [6.264036, 49.641834], [6.26412, 49.641857], [6.264135, 49.641857], [6.264536, 49.641945], [6.26457, 49.641953], [6.264643, 49.641968], [6.264658, 49.64197], [6.265001, 49.642048], [6.265814, 49.642227], [6.267187, 49.64268], [6.267885, 49.64289], [6.268316, 49.643055], [6.26874, 49.643223], [6.268984, 49.643322], [6.269159, 49.6434], [6.269514, 49.643562], [6.26988, 49.64373], [6.270352, 49.643937], [6.270398, 49.643972], [6.270475, 49.643993], [6.270826, 49.644146], [6.271076, 49.644255], [6.271288, 49.644337], [6.27162, 49.64446], [6.27186, 49.64452], [6.27183, 49.64472], [6.272207, 49.64475], [6.273027, 49.644863], [6.273073, 49.644867], [6.273195, 49.644844], [6.273302, 49.64483], [6.2735, 49.64481], [6.273607, 49.64481], [6.273752, 49.644814], [6.273947, 49.644825], [6.274069, 49.644825], [6.274176, 49.644817], [6.274256, 49.644806], [6.274363, 49.64478], [6.27445, 49.64476], [6.27453, 49.644745], [6.27463, 49.64473], [6.274817, 49.644703], [6.274973, 49.644676], [6.275133, 49.644646], [6.275427, 49.64456], [6.275602, 49.644524], [6.275904, 49.644474], [6.276083, 49.644436], [6.276369, 49.64437], [6.27659, 49.644325], [6.276735, 49.6443], [6.276892, 49.644276], [6.276945, 49.64426], [6.277067, 49.64421], [6.27714, 49.64419], [6.277185, 49.644184], [6.277247, 49.64418], [6.277338, 49.644176], [6.277372, 49.644176], [6.277418, 49.644165], [6.277464, 49.644146], [6.277502, 49.644127], [6.277605, 49.644093], [6.277636, 49.644077], [6.277723, 49.64402], [6.277838, 49.64396], [6.277933, 49.643913], [6.278139, 49.643837], [6.278334, 49.643772], [6.278562, 49.64373], [6.279161, 49.64369], [6.279394, 49.643665], [6.279802, 49.643555], [6.27984, 49.643547], [6.280085, 49.643677], [6.28042, 49.643887], [6.280882, 49.64407], [6.281218, 49.6442], [6.281019, 49.64425], [6.280775, 49.644302], [6.280451, 49.644356], [6.280355, 49.644432], [6.280417, 49.644444], [6.281805, 49.64488], [6.282034, 49.64495], [6.282682, 49.645153], [6.284494, 49.645714], [6.284597, 49.645596], [6.284662, 49.645615], [6.284727, 49.64563], [6.287767, 49.646503], [6.287744, 49.646526], [6.287706, 49.64658], [6.287699, 49.646603], [6.28771, 49.646618], [6.287729, 49.646637], [6.287756, 49.646645], [6.28779, 49.646645], [6.287817, 49.64664], [6.28784, 49.64663], [6.287924, 49.646584], [6.287947, 49.646584], [6.287966, 49.646587], [6.287977, 49.646595], [6.288023, 49.646618], [6.288073, 49.646652], [6.288199, 49.646774], [6.288233, 49.646805], [6.288271, 49.646816], [6.288305, 49.646812], [6.28834, 49.646812], [6.288359, 49.64682], [6.288385, 49.64684], [6.288408, 49.64687], [6.288443, 49.64689], [6.288515, 49.646915], [6.288538, 49.64693], [6.288591, 49.646996], [6.288626, 49.647022], [6.288668, 49.64705], [6.288702, 49.647068], [6.28874, 49.647076], [6.288782, 49.647076], [6.288813, 49.64707], [6.288912, 49.647053], [6.288954, 49.64705], [6.289, 49.64706], [6.289034, 49.64708], [6.289064, 49.6471], [6.289103, 49.64712], [6.289148, 49.647137], [6.289167, 49.64715], [6.289175, 49.64716], [6.289179, 49.647198], [6.289186, 49.647217], [6.289251, 49.64726], [6.289297, 49.647266], [6.289427, 49.647266], [6.289469, 49.64727], [6.289499, 49.647278], [6.289515, 49.64728], [6.289843, 49.647167], [6.290014, 49.64725], [6.29006, 49.647274], [6.289988, 49.64716], [6.2899, 49.647057], [6.28977, 49.646908], [6.289484, 49.646698], [6.28937, 49.64662], [6.289267, 49.64657], [6.289087, 49.646503], [6.289373, 49.646114], [6.28961, 49.645775], [6.289717, 49.645626], [6.289763, 49.645546], [6.289785, 49.64543], [6.289801, 49.645344], [6.289812, 49.64522], [6.289835, 49.64511], [6.289877, 49.644997], [6.289934, 49.644875], [6.290041, 49.64462], [6.290075, 49.644516], [6.290129, 49.64436], [6.290186, 49.64417], [6.290213, 49.644073], [6.290228, 49.643932], [6.290232, 49.64382], [6.290228, 49.643803], [6.290216, 49.64374], [6.29019, 49.643517], [6.290186, 49.643433], [6.290194, 49.64333], [6.290197, 49.64326], [6.290201, 49.64325], [6.290205, 49.64318], [6.290205, 49.643166], [6.290209, 49.643147], [6.290209, 49.6431], [6.290194, 49.64302], [6.290152, 49.642834], [6.290129, 49.64274], [6.290102, 49.642624], [6.290098, 49.64261], [6.290102, 49.64258], [6.290102, 49.642513], [6.29011, 49.64239], [6.29011, 49.642345], [6.290121, 49.64211], [6.290125, 49.64205], [6.290129, 49.642002], [6.290136, 49.641937], [6.29014, 49.64188], [6.290171, 49.641514], [6.290178, 49.641453], [6.290197, 49.641228], [6.290209, 49.64116], [6.290247, 49.640926], [6.290285, 49.640686], [6.290297, 49.640633], [6.290373, 49.640545], [6.290461, 49.64044], [6.290529, 49.640385], [6.290712, 49.64022], [6.29085, 49.640095], [6.290972, 49.639988], [6.291037, 49.63993], [6.291235, 49.639755], [6.291327, 49.639675], [6.291437, 49.639576], [6.291559, 49.63947], [6.291674, 49.639366], [6.291693, 49.639347], [6.291773, 49.63928], [6.291807, 49.639248], [6.291842, 49.639217], [6.291868, 49.6392], [6.291895, 49.639175], [6.291975, 49.639107], [6.292135, 49.638966], [6.292192, 49.63892], [6.292242, 49.638878], [6.29233, 49.638805], [6.292463, 49.638687], [6.292555, 49.638607], [6.292669, 49.638504], [6.292784, 49.638535], [6.292917, 49.638573], [6.293123, 49.63862], [6.293192, 49.638638], [6.293299, 49.63866], [6.293432, 49.638695], [6.293653, 49.638424], [6.293741, 49.638298], [6.293787, 49.638233], [6.293821, 49.638187], [6.29384, 49.638165], [6.29392, 49.638046], [6.294809, 49.63819], [6.295012, 49.63822], [6.295469, 49.638294], [6.295481, 49.638256], [6.295519, 49.63815], [6.295572, 49.637955], [6.295622, 49.637783], [6.295645, 49.637688], [6.295679, 49.637512], [6.295702, 49.63737], [6.295717, 49.637234], [6.295725, 49.637074], [6.295713, 49.636963], [6.295664, 49.636726], [6.295637, 49.636623], [6.295565, 49.636356], [6.296015, 49.63643], [6.296225, 49.636467], [6.29656, 49.63652], [6.296778, 49.63656], [6.296862, 49.636574], [6.296995, 49.636597], [6.297228, 49.636635], [6.29756, 49.63669], [6.297613, 49.6367], [6.297648, 49.636707], [6.297693, 49.636715], [6.297785, 49.63673], [6.297998, 49.63677], [6.298109, 49.636787], [6.29822, 49.636806], [6.298544, 49.636864], [6.298613, 49.636875], [6.298857, 49.636917], [6.29896, 49.636932], [6.299059, 49.636948], [6.299147, 49.636963], [6.299292, 49.63699], [6.299467, 49.63702], [6.299543, 49.63703], [6.299662, 49.637054], [6.299746, 49.637066], [6.299932, 49.6371], [6.300379, 49.637177], [6.30044, 49.637188], [6.300554, 49.637207], [6.300661, 49.637226], [6.300688, 49.63723], [6.300703, 49.637238], [6.300844, 49.637287], [6.300932, 49.63732], [6.301104, 49.637386], [6.301199, 49.637424], [6.30126, 49.63745], [6.30131, 49.637466], [6.301424, 49.637512], [6.301542, 49.637558], [6.301603, 49.6375], [6.301737, 49.637356], [6.301844, 49.637222], [6.301966, 49.637062], [6.302031, 49.636982], [6.302134, 49.637028], [6.302248, 49.637085], [6.302393, 49.637154], [6.302526, 49.63722], [6.302664, 49.637287], [6.302694, 49.637203], [6.302706, 49.637157], [6.30271, 49.63711], [6.302702, 49.63701], [6.302675, 49.636883], [6.302641, 49.636787], [6.302622, 49.636753], [6.302603, 49.63671], [6.30295, 49.636665], [6.303038, 49.636654], [6.303175, 49.636635], [6.303248, 49.636456], [6.30327, 49.636395], [6.303358, 49.636177], [6.303793, 49.63518], [6.303827, 49.6351], [6.303888, 49.63495], [6.303999, 49.634705], [6.304754, 49.63431], [6.304796, 49.634235], [6.304956, 49.63415], [6.307077, 49.63314], [6.307424, 49.632973], [6.307474, 49.63292], [6.307879, 49.632248], [6.308603, 49.63102], [6.308718, 49.63067], [6.308866, 49.630177], [6.309214, 49.628906], [6.30924, 49.62882], [6.309282, 49.62875], [6.309687, 49.628384], [6.309034, 49.6281], [6.307718, 49.62757], [6.307173, 49.627354], [6.307035, 49.627308], [6.306784, 49.627235], [6.30652, 49.627132], [6.305998, 49.626904], [6.305605, 49.6267], [6.304953, 49.626354], [6.30472, 49.62622], [6.304468, 49.62605], [6.304293, 49.625893], [6.303991, 49.62566], [6.303915, 49.625603], [6.303793, 49.62551], [6.303659, 49.625412], [6.30345, 49.625263], [6.303171, 49.62507], [6.302641, 49.62469], [6.302423, 49.62453], [6.301855, 49.62412], [6.301348, 49.62375], [6.300825, 49.623363], [6.300562, 49.62317], [6.300264, 49.62295], [6.299852, 49.62265], [6.299665, 49.622513], [6.299643, 49.622498], [6.299589, 49.622444], [6.299547, 49.622437], [6.299032, 49.621925], [6.298868, 49.62177], [6.298788, 49.62171], [6.298487, 49.621536], [6.2983, 49.62141], [6.297884, 49.621086], [6.297304, 49.620655], [6.296934, 49.620384], [6.296698, 49.620213], [6.296434, 49.61999], [6.295923, 49.619537], [6.295385, 49.61907], [6.294542, 49.61842], [6.29384, 49.617886], [6.293058, 49.61728], [6.292879, 49.61717], [6.292559, 49.617], [6.292387, 49.616875], [6.292223, 49.616707], [6.292181, 49.616642], [6.292231, 49.616634], [6.291819, 49.616276], [6.291029, 49.615654], [6.290373, 49.61514], [6.289682, 49.61462], [6.289045, 49.614132], [6.288168, 49.61348], [6.287233, 49.61279], [6.286894, 49.612545], [6.286577, 49.61239], [6.286116, 49.61207], [6.285887, 49.611885], [6.285753, 49.611736], [6.285616, 49.61162], [6.284456, 49.610775], [6.283556, 49.610126], [6.282732, 49.60953], [6.281858, 49.60891], [6.281298, 49.60851], [6.280466, 49.607895], [6.279921, 49.607487], [6.279718, 49.607307], [6.279528, 49.607132], [6.27923, 49.6068], [6.279097, 49.606686], [6.278784, 49.606434], [6.278612, 49.606277], [6.278479, 49.60611], [6.278357, 49.606003], [6.278116, 49.605896], [6.277609, 49.605675], [6.277388, 49.60552], [6.277021, 49.60525], [6.276869, 49.605133], [6.276682, 49.60496], [6.27627, 49.604557], [6.276064, 49.60434], [6.276026, 49.60435], [6.275721, 49.60445], [6.275618, 49.604485], [6.275538, 49.60451], [6.275339, 49.604576], [6.275312, 49.604584], [6.275259, 49.604603], [6.275213, 49.604614], [6.275076, 49.60466], [6.274973, 49.604694], [6.27492, 49.604713], [6.274893, 49.60472], [6.274744, 49.60477], [6.274305, 49.604645], [6.274118, 49.604588], [6.273848, 49.604507], [6.27355, 49.60442], [6.273371, 49.604362], [6.273081, 49.604275], [6.272875, 49.604202], [6.272829, 49.604183], [6.272718, 49.60414], [6.272505, 49.604053], [6.272074, 49.603863], [6.271891, 49.603794], [6.271475, 49.60365], [6.271433, 49.603638], [6.271341, 49.603745], [6.270948, 49.603603], [6.270723, 49.60352], [6.270548, 49.60345], [6.27035, 49.603374], [6.270231, 49.603325], [6.270117, 49.60328], [6.270033, 49.60325], [6.269926, 49.603207], [6.269831, 49.603172], [6.269587, 49.60311], [6.269464, 49.60308], [6.269319, 49.603046], [6.269163, 49.60301], [6.269045, 49.602985], [6.268919, 49.602962], [6.268709, 49.602932], [6.268351, 49.60288], [6.268179, 49.602848], [6.267954, 49.602802], [6.26771, 49.60292], [6.266703, 49.603424], [6.266359, 49.603592], [6.266016, 49.603764], [6.265966, 49.60379], [6.265863, 49.603848], [6.265642, 49.603962], [6.265585, 49.603992], [6.265512, 49.604065], [6.265394, 49.604176], [6.265295, 49.604267], [6.265272, 49.60429], [6.26531, 49.604313], [6.265516, 49.60442], [6.265608, 49.60446], [6.265593, 49.604485], [6.265463, 49.6045], [6.265284, 49.604515], [6.265097, 49.604527], [6.264151, 49.604584], [6.264113, 49.60459], [6.263819, 49.604595], [6.263727, 49.604656], [6.263693, 49.604656], [6.263411, 49.604668], [6.262381, 49.604717], [6.26214, 49.604736], [6.261976, 49.60475], [6.261896, 49.60476], [6.261743, 49.60477], [6.261251, 49.604813], [6.260023, 49.604916], [6.259699, 49.604946], [6.259432, 49.604973], [6.259287, 49.604984], [6.259203, 49.604992], [6.259169, 49.604996], [6.259127, 49.605], [6.259062, 49.605003], [6.258966, 49.60501], [6.258955, 49.60501], [6.257975, 49.60486], [6.25791, 49.60485], [6.257868, 49.604843], [6.257807, 49.60484], [6.257757, 49.60483], [6.257608, 49.604816], [6.257563, 49.60481], [6.257517, 49.604805], [6.257196, 49.604767], [6.257124, 49.60476], [6.257074, 49.60475], [6.256891, 49.604733], [6.256819, 49.60472], [6.256685, 49.60471], [6.256567, 49.604694], [6.256494, 49.604687], [6.256304, 49.60467], [6.256281, 49.60467], [6.256144, 49.604664], [6.25551, 49.604664], [6.255362, 49.604668], [6.255129, 49.60467], [6.254888, 49.60467], [6.254713, 49.604675], [6.254499, 49.60468], [6.254419, 49.60468], [6.254248, 49.60472], [6.254133, 49.60475], [6.254003, 49.604786], [6.253389, 49.604946], [6.252428, 49.605198], [6.25189, 49.605343], [6.251421, 49.605473], [6.251387, 49.605484], [6.251326, 49.6055], [6.251276, 49.605515], [6.251146, 49.605553], [6.250738, 49.605682], [6.250433, 49.605804], [6.250197, 49.605896], [6.250132, 49.605915], [6.250067, 49.60594], [6.249834, 49.606052], [6.249708, 49.606106], [6.249613, 49.60614], [6.249563, 49.606155], [6.249311, 49.606243], [6.249281, 49.60625], [6.249227, 49.60627], [6.249056, 49.606327], [6.249018, 49.606342], [6.2488, 49.606415], [6.248426, 49.606544], [6.248087, 49.60666], [6.247938, 49.60671], [6.247866, 49.60673], [6.247797, 49.606754], [6.247629, 49.60681], [6.247442, 49.606873], [6.247351, 49.606903], [6.247183, 49.60696], [6.247011, 49.607014], [6.246973, 49.60703], [6.24684, 49.60707], [6.246687, 49.60712], [6.246527, 49.607174], [6.246458, 49.6072], [6.246344, 49.60724], [6.246138, 49.60731], [6.245851, 49.607418], [6.245562, 49.607533], [6.245283, 49.607647], [6.245169, 49.607693], [6.245138, 49.607704], [6.245062, 49.607735], [6.24486, 49.607815], [6.244657, 49.60789], [6.244455, 49.60797], [6.244242, 49.60806], [6.244028, 49.608143], [6.243666, 49.6083], [6.243311, 49.608456], [6.243036, 49.608578], [6.242826, 49.60867], [6.242666, 49.608738], [6.242422, 49.608845], [6.242308, 49.608894], [6.241999, 49.60903], [6.241896, 49.609074], [6.241789, 49.609123], [6.241686, 49.609173], [6.241194, 49.60939], [6.241022, 49.60947], [6.240934, 49.609512], [6.240896, 49.609528], [6.240805, 49.609573], [6.240645, 49.609646], [6.24058, 49.609673], [6.24053, 49.609695], [6.240385, 49.609768], [6.240267, 49.60982], [6.240179, 49.609863], [6.239985, 49.609955], [6.239778, 49.61005], [6.239725, 49.610073], [6.238775, 49.609657], [6.238684, 49.60977], [6.238523, 49.609993], [6.238508, 49.610012], [6.238485, 49.610043], [6.238409, 49.61015], [6.238257, 49.61035], [6.238195, 49.610435], [6.238142, 49.610504], [6.2381, 49.61056], [6.238092, 49.610577], [6.237947, 49.61077], [6.237856, 49.61089], [6.237806, 49.610954], [6.237753, 49.611034], [6.237623, 49.611202], [6.237585, 49.61125], [6.2372, 49.6118], [6.237093, 49.61197], [6.237066, 49.612007], [6.237314, 49.61252], [6.237516, 49.612926], [6.237726, 49.613327], [6.237863, 49.613586], [6.237978, 49.613705], [6.238085, 49.613808], [6.238291, 49.614002], [6.239073, 49.614697], [6.239203, 49.614937], [6.239367, 49.615234], [6.239443, 49.615376], [6.239515, 49.615498], [6.239584, 49.615635], [6.239626, 49.61574], [6.239668, 49.615883], [6.23971, 49.616154], [6.239733, 49.61625], [6.239756, 49.616375], [6.239786, 49.616634], [6.239805, 49.616917], [6.239821, 49.61726], [6.239832, 49.61775], [6.240026, 49.61775], [6.240149, 49.618103], [6.240164, 49.618153], [6.240198, 49.618244], [6.240293, 49.6186], [6.239954, 49.61899], [6.239649, 49.619354], [6.2395, 49.619534], [6.239428, 49.61963], [6.239389, 49.619705], [6.239244, 49.620045], [6.239035, 49.620342], [6.238962, 49.620453], [6.238836, 49.62066], [6.238771, 49.62076], [6.238539, 49.621113], [6.238504, 49.621162], [6.23844, 49.62126], [6.238268, 49.621525], [6.238184, 49.621647], [6.238138, 49.62172], [6.237997, 49.62193], [6.237917, 49.622047], [6.237837, 49.622173], [6.237734, 49.62233], [6.237707, 49.622368], [6.237604, 49.62252], [6.237494, 49.62268], [6.237371, 49.62286], [6.237287, 49.622833], [6.237196, 49.622807], [6.236883, 49.62271], [6.236857, 49.622704], [6.236677, 49.62265], [6.236578, 49.622604], [6.236399, 49.622517], [6.236334, 49.622482], [6.2362, 49.622417], [6.235922, 49.622288], [6.235315, 49.622013], [6.235159, 49.62195], [6.235105, 49.62193], [6.235025, 49.621914], [6.234945, 49.621902], [6.234724, 49.62187], [6.234503, 49.621834], [6.234182, 49.621788], [6.234087, 49.621777], [6.23398, 49.621777], [6.233702, 49.62178], [6.23348, 49.62178], [6.233194, 49.62179], [6.233087, 49.6218], [6.232996, 49.621807], [6.232813, 49.621864], [6.232637, 49.62194], [6.232435, 49.622044], [6.23234, 49.622097], [6.232286, 49.62213], [6.23221, 49.62219], [6.232149, 49.622242], [6.232073, 49.62231], [6.231928, 49.622456], [6.231859, 49.622528], [6.231684, 49.622707], [6.231577, 49.622807], [6.231314, 49.623047], [6.231234, 49.623135], [6.231169, 49.62322], [6.231131, 49.623264], [6.231092, 49.62331], [6.231008, 49.623417], [6.230978, 49.623455], [6.230917, 49.62354]]]]}}]}