{"type": "FeatureCollection", "features": [{"type": "Feature", "properties": {"name": "Colmar-Berg"}, "geometry": {"type": "MultiPolygon", "coordinates": [[[[6.04035, 49.82609], [6.041555, 49.826477], [6.041689, 49.826523], [6.041815, 49.82656], [6.041834, 49.82657], [6.041895, 49.826588], [6.043829, 49.826748], [6.045088, 49.8267], [6.045275, 49.826603], [6.046812, 49.825798], [6.047075, 49.825634], [6.047354, 49.825455], [6.047449, 49.82539], [6.048101, 49.82497], [6.048971, 49.824398], [6.049421, 49.824562], [6.049616, 49.824635], [6.0497, 49.824665], [6.050074, 49.824802], [6.050135, 49.82482], [6.050955, 49.825123], [6.051027, 49.82515], [6.051474, 49.82532], [6.051153, 49.825653], [6.051024, 49.825794], [6.05094, 49.825893], [6.050814, 49.826035], [6.050734, 49.82612], [6.050631, 49.826218], [6.050482, 49.826332], [6.050348, 49.82643], [6.050192, 49.826553], [6.050169, 49.826572], [6.050432, 49.826626], [6.050703, 49.82668], [6.050928, 49.826736], [6.051188, 49.826817], [6.051462, 49.826916], [6.05179, 49.82705], [6.052229, 49.827267], [6.052885, 49.827595], [6.053019, 49.827652], [6.053247, 49.82773], [6.053598, 49.82784], [6.054632, 49.828136], [6.055376, 49.828354], [6.055815, 49.828495], [6.056135, 49.828606], [6.056448, 49.82872], [6.056539, 49.828762], [6.056646, 49.828846], [6.056673, 49.828976], [6.057127, 49.829224], [6.057348, 49.829334], [6.058149, 49.82969], [6.058798, 49.829975], [6.059004, 49.83006], [6.059286, 49.83015], [6.059545, 49.830208], [6.059828, 49.830254], [6.060236, 49.830296], [6.061129, 49.83038], [6.061583, 49.830452], [6.061777, 49.830505], [6.061895, 49.830555], [6.061979, 49.830624], [6.062147, 49.830864], [6.06238, 49.8312], [6.063456, 49.832798], [6.063459, 49.832882], [6.064253, 49.834167], [6.064573, 49.834442], [6.064875, 49.83431], [6.064959, 49.834274], [6.065039, 49.834244], [6.065069, 49.834236], [6.065119, 49.834236], [6.06518, 49.834244], [6.065245, 49.834255], [6.065321, 49.834175], [6.065439, 49.834152], [6.065111, 49.833775], [6.064867, 49.833492], [6.064665, 49.83321], [6.064573, 49.83308], [6.064398, 49.832836], [6.064238, 49.832882], [6.064188, 49.832794], [6.064108, 49.83264], [6.064028, 49.83248], [6.063997, 49.83242], [6.063948, 49.83225], [6.063925, 49.832146], [6.063898, 49.832043], [6.063894, 49.832], [6.063891, 49.831944], [6.063887, 49.831814], [6.063879, 49.8316], [6.06391, 49.831226], [6.063932, 49.83097], [6.063932, 49.830956], [6.06394, 49.83093], [6.064016, 49.830936], [6.064062, 49.83091], [6.064371, 49.83036], [6.065939, 49.830204], [6.066145, 49.830196], [6.066301, 49.830193], [6.066324, 49.830193], [6.066374, 49.83019], [6.066904, 49.830177], [6.067091, 49.83017], [6.067881, 49.83016], [6.068663, 49.83012], [6.069429, 49.83008], [6.070311, 49.83004], [6.070391, 49.830036], [6.07107, 49.829994], [6.071119, 49.829994], [6.072069, 49.830013], [6.072496, 49.830006], [6.072405, 49.829758], [6.07329, 49.829525], [6.074076, 49.829315], [6.074568, 49.829556], [6.075048, 49.829453], [6.075064, 49.829197], [6.074743, 49.829], [6.074873, 49.828854], [6.074701, 49.82876], [6.074591, 49.82883], [6.074469, 49.828735], [6.074022, 49.828316], [6.07353, 49.82777], [6.073683, 49.827057], [6.073793, 49.826447], [6.073332, 49.825993], [6.072916, 49.825577], [6.072779, 49.82545], [6.072844, 49.82544], [6.072992, 49.825413], [6.074854, 49.825058], [6.076136, 49.824936], [6.077059, 49.82474], [6.07942, 49.824043], [6.080271, 49.823696], [6.081282, 49.82339], [6.082132, 49.823147], [6.082575, 49.823074], [6.08259, 49.82307], [6.083078, 49.823013], [6.083571, 49.822952], [6.084215, 49.8227], [6.084745, 49.822517], [6.085314, 49.822487], [6.085768, 49.822487], [6.086344, 49.82252], [6.086718, 49.822548], [6.087461, 49.822605], [6.08769, 49.82262], [6.087927, 49.82264], [6.089025, 49.822716], [6.08946, 49.822754], [6.089766, 49.822777], [6.089838, 49.822758], [6.090258, 49.822796], [6.090918, 49.822857], [6.09099, 49.822872], [6.091074, 49.822845], [6.091169, 49.822834], [6.091196, 49.82275], [6.091291, 49.82264], [6.091524, 49.822544], [6.091974, 49.822456], [6.092684, 49.822285], [6.093199, 49.82206], [6.093763, 49.82174], [6.094202, 49.821476], [6.09445, 49.821236], [6.09474, 49.820984], [6.09506, 49.82064], [6.095304, 49.820335], [6.095598, 49.819916], [6.095968, 49.81932], [6.096247, 49.818924], [6.096392, 49.81861], [6.096495, 49.818367], [6.096544, 49.8182], [6.09654, 49.818123], [6.096457, 49.81803], [6.096266, 49.81792], [6.095766, 49.817726], [6.095038, 49.817368], [6.094801, 49.81724], [6.094599, 49.817093], [6.094503, 49.816944], [6.094496, 49.816734], [6.094545, 49.81658], [6.094656, 49.81637], [6.094957, 49.816036], [6.095617, 49.815514], [6.095758, 49.81543], [6.095869, 49.815357], [6.096254, 49.815097], [6.096522, 49.814978], [6.096777, 49.814896], [6.097067, 49.814842], [6.097303, 49.81482], [6.097639, 49.814857], [6.097959, 49.81492], [6.097982, 49.81492], [6.098127, 49.81495], [6.098146, 49.81495], [6.098356, 49.814995], [6.098444, 49.814987], [6.098589, 49.81494], [6.098726, 49.814884], [6.098841, 49.814857], [6.098997, 49.814827], [6.099222, 49.8148], [6.099302, 49.814796], [6.099474, 49.814774], [6.099798, 49.814766], [6.099875, 49.81476], [6.100824, 49.81463], [6.100988, 49.81462], [6.101839, 49.814644], [6.101847, 49.81466], [6.101885, 49.81475], [6.1028, 49.814926], [6.102785, 49.814995], [6.102991, 49.814953], [6.103186, 49.814987], [6.103418, 49.815002], [6.103605, 49.815002], [6.103777, 49.814995], [6.103834, 49.814987], [6.104227, 49.814873], [6.104963, 49.81462], [6.105017, 49.814606], [6.105196, 49.814537], [6.105574, 49.814354], [6.106043, 49.813965], [6.106131, 49.813843], [6.106493, 49.81371], [6.106836, 49.813545], [6.10739, 49.813232], [6.107855, 49.812973], [6.108065, 49.81281], [6.10813, 49.812645], [6.108168, 49.81237], [6.108133, 49.81207], [6.108152, 49.811882], [6.108229, 49.811653], [6.108381, 49.811417], [6.10853, 49.811142], [6.108751, 49.810852], [6.108976, 49.81064], [6.109228, 49.810467], [6.109338, 49.81038], [6.109461, 49.810285], [6.109791, 49.810048], [6.110005, 49.809911], [6.110329, 49.809807], [6.110594, 49.809742], [6.110824, 49.809671], [6.11094, 49.809613], [6.110981, 49.809551], [6.111015, 49.809457], [6.110987, 49.809334], [6.110927, 49.80905], [6.110911, 49.808872], [6.110949, 49.808644], [6.111005, 49.80843], [6.110997, 49.808327], [6.110931, 49.808197], [6.110947, 49.80809], [6.111025, 49.807785], [6.111168, 49.807373], [6.111212, 49.80722], [6.111275, 49.807065], [6.111326, 49.806812], [6.111342, 49.806561], [6.111414, 49.806225], [6.11148, 49.805946], [6.111549, 49.805751], [6.111643, 49.80549], [6.111814, 49.805177], [6.112023, 49.804817], [6.112147, 49.804646], [6.112307, 49.804451], [6.112488, 49.804283], [6.112791, 49.80406], [6.113037, 49.803865], [6.1134, 49.80349], [6.113635, 49.803253], [6.113977, 49.803001], [6.114326, 49.802765], [6.11463, 49.802591], [6.115174, 49.802335], [6.115609, 49.802174], [6.115918, 49.802014], [6.116127, 49.801915], [6.116243, 49.801865], [6.116374, 49.80184], [6.116506, 49.801865], [6.116666, 49.80193], [6.116896, 49.802033], [6.117012, 49.80209], [6.11705, 49.80218], [6.117121, 49.802228], [6.117215, 49.802235], [6.117319, 49.802197], [6.117584, 49.802095], [6.11777, 49.801991], [6.117935, 49.801915], [6.118009, 49.801884], [6.117991, 49.801823], [6.117975, 49.801786], [6.117957, 49.801758], [6.117921, 49.801713], [6.117899, 49.801674], [6.117883, 49.80164], [6.117871, 49.801611], [6.117852, 49.801502], [6.11783, 49.801423], [6.117809, 49.801373], [6.117783, 49.801323], [6.117759, 49.801293], [6.11774, 49.801271], [6.117713, 49.801248], [6.117682, 49.801217], [6.117652, 49.801181], [6.117623, 49.801136], [6.117597, 49.801086], [6.11757, 49.801051], [6.117529, 49.801006], [6.117489, 49.800973], [6.117453, 49.800945], [6.117398, 49.800911], [6.117354, 49.80089], [6.11731, 49.800874], [6.117257, 49.800854], [6.117216, 49.800843], [6.117135, 49.800827], [6.117087, 49.800821], [6.117047, 49.800804], [6.117003, 49.800786], [6.116947, 49.80076], [6.116916, 49.800747], [6.116887, 49.800736], [6.116855, 49.800731], [6.116822, 49.800728], [6.116792, 49.800731], [6.116737, 49.800741], [6.116696, 49.800741], [6.116659, 49.800731], [6.116629, 49.800717], [6.116555, 49.800674], [6.116518, 49.800651], [6.116482, 49.800641], [6.116423, 49.800621], [6.116264, 49.800581], [6.116167, 49.80055], [6.116122, 49.800531], [6.116087, 49.800519], [6.11605, 49.800503], [6.116006, 49.800491], [6.115979, 49.800485], [6.115869, 49.800471], [6.115801, 49.80046], [6.115749, 49.800446], [6.115721, 49.800438], [6.115694, 49.800424], [6.115675, 49.800404], [6.115651, 49.800378], [6.115629, 49.800365], [6.11559, 49.800351], [6.115524, 49.800327], [6.115489, 49.800311], [6.115468, 49.800294], [6.115454, 49.80028], [6.115437, 49.800261], [6.115388, 49.800195], [6.115338, 49.800134], [6.115318, 49.800117], [6.115292, 49.8001], [6.115175, 49.800046], [6.11513, 49.800026], [6.115091, 49.800015], [6.114918, 49.799974], [6.114837, 49.799946], [6.114711, 49.7999], [6.11457, 49.799854], [6.114278, 49.79976], [6.114219, 49.799745], [6.114152, 49.799725], [6.114092, 49.799714], [6.11396, 49.799686], [6.113912, 49.79967], [6.113865, 49.799656], [6.113806, 49.799633], [6.113738, 49.7996], [6.113673, 49.79956], [6.113555, 49.799489], [6.113503, 49.799455], [6.113471, 49.799436], [6.113446, 49.799411], [6.113427, 49.799397], [6.113397, 49.799366], [6.113371, 49.799343], [6.113347, 49.799324], [6.113322, 49.79931], [6.113298, 49.799301], [6.113245, 49.799282], [6.113218, 49.79927], [6.113201, 49.799256], [6.113194, 49.799244], [6.113188, 49.799211], [6.113182, 49.799191], [6.113168, 49.799175], [6.113141, 49.79916], [6.113074, 49.799134], [6.113032, 49.799107], [6.112993, 49.799081], [6.112944, 49.799058], [6.112877, 49.79905], [6.112829, 49.79904], [6.112763, 49.79902], [6.112722, 49.798997], [6.112677, 49.798966], [6.112688, 49.798966], [6.112673, 49.798921], [6.112675, 49.798862], [6.112684, 49.798794], [6.112698, 49.798744], [6.112718, 49.79871], [6.112777, 49.798656], [6.112838, 49.798595], [6.112851, 49.798566], [6.112852, 49.798535], [6.112827, 49.798474], [6.112798, 49.798417], [6.112787, 49.798386], [6.112782, 49.79834], [6.112809, 49.798252], [6.112812, 49.798206], [6.112799, 49.79816], [6.112755, 49.798085], [6.112744, 49.798059], [6.112739, 49.79802], [6.112734, 49.79799], [6.11271, 49.797943], [6.112563, 49.797863], [6.112511, 49.797832], [6.112401, 49.79775], [6.112351, 49.797711], [6.112247, 49.797607], [6.1121, 49.797455], [6.111985, 49.79734], [6.111957, 49.797311], [6.111924, 49.797241], [6.111743, 49.79685], [6.111707, 49.796771], [6.11169, 49.796734], [6.111652, 49.79667], [6.111602, 49.7966], [6.111545, 49.796543], [6.111346, 49.796357], [6.11121, 49.796215], [6.111026, 49.796005], [6.110881, 49.795845], [6.110702, 49.795643], [6.110649, 49.795591], [6.110586, 49.79552], [6.110529, 49.795487], [6.110313, 49.795358], [6.109784, 49.795044], [6.109425, 49.79484], [6.109147, 49.794685], [6.109035, 49.794621], [6.109001, 49.794601], [6.108967, 49.794582], [6.108956, 49.794581], [6.108956, 49.794525], [6.108568, 49.794423], [6.108209, 49.794328], [6.108001, 49.794261], [6.10696, 49.793835], [6.106605, 49.793698], [6.106147, 49.793466], [6.105577, 49.79309], [6.105418, 49.79298], [6.105382, 49.792954], [6.105338, 49.79292], [6.105145, 49.79275], [6.104583, 49.792268], [6.104748, 49.792214], [6.10531, 49.792031], [6.105326, 49.792028], [6.105382, 49.792007], [6.105496, 49.791978], [6.105709, 49.791916], [6.105874, 49.791871], [6.10659, 49.7917], [6.10692, 49.79162], [6.107421, 49.7913], [6.10747, 49.791272], [6.107168, 49.791145], [6.10634, 49.790833], [6.10499, 49.79032], [6.103544, 49.78976], [6.102838, 49.78949], [6.10232, 49.789272], [6.101683, 49.788982], [6.101648, 49.789005], [6.101564, 49.789047], [6.101496, 49.789085], [6.101233, 49.789227], [6.10087, 49.789425], [6.100718, 49.78951], [6.100332, 49.78971], [6.100199, 49.789783], [6.100012, 49.789883], [6.099806, 49.789986], [6.098993, 49.7904], [6.09857, 49.790627], [6.098063, 49.79089], [6.097971, 49.79094], [6.098143, 49.791325], [6.098103, 49.791342], [6.097696, 49.791523], [6.097471, 49.791622], [6.097231, 49.79173], [6.096895, 49.791878], [6.096472, 49.79206], [6.096041, 49.79225], [6.095575, 49.792458], [6.094877, 49.792767], [6.094815, 49.792794], [6.094736, 49.792828], [6.094698, 49.792843], [6.094729, 49.7929], [6.094694, 49.79292], [6.094416, 49.79303], [6.094301, 49.79305], [6.094236, 49.793076], [6.094198, 49.793087], [6.094137, 49.793095], [6.094103, 49.7931], [6.094061, 49.79312], [6.094034, 49.793144], [6.09392, 49.793182], [6.093466, 49.793358], [6.093199, 49.79346], [6.092939, 49.79356], [6.092882, 49.79357], [6.092699, 49.793606], [6.092627, 49.793617], [6.092241, 49.793686], [6.091913, 49.79375], [6.091875, 49.793766], [6.091765, 49.79379], [6.09162, 49.793816], [6.091589, 49.793827], [6.091558, 49.793842], [6.091543, 49.793865], [6.091536, 49.79389], [6.091536, 49.79392], [6.091517, 49.79394], [6.09149, 49.793953], [6.091452, 49.793953], [6.091413, 49.79396], [6.091364, 49.793964], [6.091333, 49.793972], [6.091295, 49.793987], [6.091265, 49.793995], [6.091246, 49.793983], [6.091227, 49.79396], [6.091211, 49.79395], [6.091196, 49.793945], [6.091169, 49.79394], [6.091116, 49.79394], [6.090998, 49.79395], [6.090876, 49.793953], [6.090811, 49.793953], [6.090769, 49.793945], [6.090738, 49.793938], [6.090723, 49.793922], [6.090719, 49.793907], [6.090712, 49.793873], [6.090689, 49.79387], [6.090651, 49.793873], [6.090605, 49.793873], [6.09057, 49.79387], [6.090532, 49.793854], [6.090506, 49.793854], [6.090475, 49.793858], [6.090414, 49.793873], [6.090303, 49.79391], [6.090239, 49.793922], [6.090204, 49.79392], [6.090159, 49.79391], [6.09004, 49.79386], [6.089937, 49.79382], [6.089838, 49.79379], [6.089819, 49.793785], [6.089785, 49.79378], [6.089747, 49.79378], [6.089621, 49.793823], [6.089521, 49.79387], [6.089296, 49.793972], [6.08917, 49.794064], [6.088911, 49.79429], [6.088842, 49.794373], [6.08877, 49.794426], [6.088571, 49.79451], [6.088404, 49.79457], [6.088167, 49.794647], [6.08811, 49.79467], [6.088026, 49.79473], [6.087965, 49.79477], [6.087736, 49.794857], [6.087664, 49.794914], [6.087545, 49.795017], [6.087473, 49.79506], [6.087145, 49.795204], [6.086973, 49.79529], [6.086702, 49.795452], [6.08655, 49.79555], [6.086493, 49.795586], [6.08639, 49.795628], [6.086321, 49.795662], [6.086264, 49.795715], [6.086226, 49.795765], [6.086191, 49.795815], [6.086107, 49.795853], [6.086031, 49.795864], [6.085932, 49.795876], [6.085897, 49.79589], [6.085833, 49.795937], [6.085749, 49.79601], [6.085707, 49.796032], [6.08563, 49.79605], [6.085581, 49.79606], [6.085554, 49.796078], [6.085436, 49.79621], [6.08539, 49.796253], [6.085329, 49.79629], [6.085119, 49.796406], [6.08502, 49.796467], [6.084951, 49.796528], [6.084887, 49.796608], [6.084818, 49.796654], [6.084749, 49.796707], [6.084707, 49.79675], [6.084696, 49.796776], [6.084707, 49.796795], [6.084749, 49.796825], [6.084795, 49.796844], [6.084799, 49.796856], [6.084776, 49.796867], [6.084681, 49.797028], [6.084662, 49.79707], [6.084642, 49.79711], [6.0847, 49.79715], [6.084837, 49.7972], [6.084867, 49.79721], [6.084883, 49.79724], [6.084898, 49.79734], [6.084902, 49.797398], [6.08489, 49.797447], [6.084818, 49.79751], [6.084749, 49.797554], [6.084703, 49.79759], [6.0842, 49.79762], [6.083502, 49.79759], [6.083204, 49.79759], [6.083021, 49.79761], [6.082773, 49.79765], [6.082529, 49.797733], [6.082193, 49.797836], [6.081881, 49.797977], [6.081575, 49.798103], [6.081404, 49.798138], [6.080973, 49.798187], [6.080732, 49.798187], [6.080488, 49.79812], [6.08029, 49.79806], [6.079855, 49.798035], [6.079451, 49.798004], [6.079187, 49.797962], [6.079077, 49.797955], [6.078829, 49.797935], [6.078546, 49.797943], [6.077955, 49.798035], [6.077394, 49.79809], [6.077242, 49.798145], [6.077127, 49.79816], [6.076986, 49.798183], [6.076715, 49.798206], [6.076597, 49.79821], [6.076475, 49.7982], [6.076391, 49.798183], [6.076338, 49.798164], [6.076307, 49.798145], [6.076265, 49.798088], [6.076216, 49.798008], [6.076181, 49.79795], [6.076155, 49.797916], [6.076124, 49.79787], [6.076151, 49.797756], [6.076006, 49.797672], [6.075632, 49.79745], [6.075483, 49.79755], [6.075376, 49.79762], [6.07522, 49.797653], [6.075041, 49.79784], [6.075033, 49.79785], [6.074976, 49.79794], [6.074961, 49.797955], [6.074942, 49.797985], [6.074934, 49.79801], [6.07493, 49.79805], [6.074945, 49.798107], [6.074965, 49.79816], [6.074976, 49.79821], [6.074972, 49.798252], [6.074961, 49.798286], [6.074934, 49.79831], [6.074903, 49.79833], [6.074842, 49.798355], [6.074629, 49.79838], [6.074606, 49.798397], [6.074572, 49.79842], [6.074537, 49.798462], [6.074499, 49.798496], [6.074446, 49.79852], [6.074396, 49.798534], [6.074346, 49.798546], [6.074209, 49.79856], [6.074076, 49.798584], [6.074003, 49.7986], [6.073927, 49.798622], [6.073889, 49.798634], [6.073812, 49.79868], [6.073694, 49.79875], [6.073568, 49.798832], [6.073423, 49.798916], [6.073351, 49.79895], [6.073202, 49.798996], [6.073152, 49.799015], [6.072958, 49.79922], [6.072844, 49.799343], [6.072782, 49.799397], [6.072607, 49.799522], [6.072504, 49.799603], [6.072462, 49.799633], [6.072405, 49.799656], [6.072241, 49.799725], [6.072161, 49.79976], [6.072081, 49.799793], [6.072039, 49.79982], [6.071951, 49.799873], [6.071848, 49.79995], [6.071756, 49.80002], [6.071699, 49.800056], [6.071581, 49.800125], [6.071482, 49.800175], [6.071405, 49.800205], [6.071321, 49.80024], [6.07115, 49.800285], [6.071085, 49.80031], [6.071039, 49.80033], [6.070997, 49.800365], [6.070959, 49.8004], [6.070902, 49.80043], [6.070837, 49.80045], [6.070745, 49.80047], [6.07062, 49.800488], [6.070345, 49.800545], [6.069952, 49.800632], [6.069738, 49.800674], [6.069609, 49.800705], [6.069475, 49.800743], [6.069239, 49.800823], [6.069063, 49.800873], [6.06901, 49.80088], [6.068968, 49.80088], [6.068899, 49.80087], [6.068777, 49.800846], [6.068705, 49.800846], [6.068644, 49.800854], [6.068582, 49.800877], [6.068418, 49.800945], [6.068342, 49.80096], [6.068247, 49.800972], [6.068125, 49.800972], [6.067968, 49.800964], [6.067774, 49.800945], [6.067709, 49.800945], [6.067659, 49.800953], [6.067556, 49.800983], [6.067453, 49.801014], [6.067278, 49.801056], [6.067194, 49.80108], [6.067095, 49.801117], [6.066954, 49.80118], [6.066805, 49.801247], [6.066736, 49.801285], [6.066649, 49.80134], [6.066553, 49.801395], [6.066511, 49.80141], [6.066446, 49.801422], [6.066378, 49.801422], [6.066298, 49.801414], [6.066198, 49.80139], [6.066103, 49.80138], [6.066046, 49.801376], [6.065996, 49.801384], [6.065908, 49.801403], [6.06579, 49.801426], [6.065725, 49.801426], [6.065672, 49.801414], [6.06555, 49.801373], [6.065489, 49.80136], [6.065447, 49.801353], [6.06529, 49.801376], [6.06518, 49.801384], [6.064817, 49.801384], [6.064707, 49.801373], [6.064581, 49.801353], [6.064451, 49.801334], [6.064337, 49.80134], [6.064257, 49.801342], [6.064131, 49.801334], [6.063986, 49.801323], [6.063818, 49.801323], [6.063692, 49.80133], [6.063604, 49.801334], [6.063555, 49.80133], [6.063501, 49.80132], [6.063448, 49.801292], [6.063383, 49.80126], [6.06333, 49.801254], [6.063154, 49.801273], [6.06304, 49.801277], [6.062948, 49.801266], [6.062876, 49.801247], [6.062826, 49.801228], [6.062754, 49.801205], [6.062685, 49.8012], [6.062571, 49.801178], [6.06238, 49.801147], [6.062345, 49.80125], [6.062296, 49.80141], [6.06225, 49.80157], [6.06217, 49.801826], [6.062124, 49.801994], [6.062117, 49.802025], [6.062036, 49.802265], [6.06201, 49.802334], [6.061956, 49.80246], [6.061861, 49.802692], [6.061789, 49.802917], [6.061777, 49.802944], [6.061758, 49.803074], [6.061655, 49.803516], [6.061495, 49.80392], [6.061403, 49.804237], [6.061396, 49.804523], [6.061396, 49.804688], [6.0614, 49.804806], [6.061407, 49.804924], [6.06143, 49.805195], [6.061464, 49.805687], [6.061468, 49.80575], [6.061476, 49.80582], [6.061506, 49.806263], [6.061518, 49.80639], [6.061525, 49.806522], [6.061537, 49.806652], [6.061758, 49.80688], [6.062155, 49.807312], [6.062445, 49.807606], [6.06288, 49.808033], [6.063795, 49.80818], [6.064474, 49.808308], [6.065073, 49.808426], [6.065718, 49.80862], [6.066183, 49.80887], [6.065832, 49.8091], [6.065416, 49.80942], [6.06463, 49.809723], [6.064489, 49.809776], [6.063887, 49.81002], [6.063219, 49.810295], [6.063116, 49.810337], [6.062429, 49.810658], [6.061777, 49.811028], [6.061022, 49.811394], [6.060419, 49.811848], [6.05982, 49.8123], [6.059343, 49.81254], [6.058878, 49.812782], [6.058275, 49.81322], [6.057734, 49.813625], [6.057424, 49.813858], [6.057123, 49.81408], [6.055815, 49.81449], [6.054827, 49.814682], [6.054728, 49.81472], [6.054686, 49.814735], [6.054655, 49.814747], [6.053766, 49.81508], [6.053369, 49.815132], [6.053095, 49.815163], [6.052423, 49.81508], [6.052275, 49.815056], [6.052156, 49.81505], [6.052031, 49.815037], [6.051752, 49.81505], [6.051058, 49.815163], [6.050486, 49.815308], [6.049864, 49.815453], [6.049089, 49.815643], [6.048307, 49.815994], [6.047739, 49.81631], [6.047049, 49.8167], [6.046633, 49.816917], [6.046282, 49.817192], [6.045896, 49.817497], [6.045755, 49.817604], [6.044943, 49.8181], [6.044909, 49.81814], [6.044603, 49.818565], [6.04429, 49.819138], [6.044306, 49.8195], [6.044321, 49.81961], [6.044367, 49.8199], [6.044439, 49.820366], [6.044451, 49.820732], [6.044168, 49.821224], [6.043901, 49.821697], [6.043657, 49.82238], [6.043241, 49.82297], [6.043154, 49.823093], [6.043016, 49.82308], [6.042993, 49.82308], [6.040766, 49.822823], [6.040972, 49.823544], [6.040983, 49.823586], [6.04104, 49.823772], [6.041101, 49.823997], [6.041124, 49.824066], [6.041159, 49.824158], [6.040998, 49.8247], [6.040777, 49.825466], [6.04035, 49.82609]]]]}}]}