{"type": "FeatureCollection", "features": [{"type": "Feature", "properties": {"name": "Kasselslay-Zogel", "kind": "nature_reserve"}, "geometry": {"type": "Polygon", "coordinates": [[[6.1191503, 50.0645259], [6.1186476, 50.0645175], [6.118487, 50.0645409], [6.1182395, 50.0645929], [6.1175188, 50.0648308], [6.116445, 50.0654744], [6.1159432, 50.0657158], [6.1155758, 50.0658715], [6.1149896, 50.0659164], [6.1146864, 50.0658743], [6.1137667, 50.0656129], [6.1136259, 50.0655515], [6.1135308, 50.0654735], [6.1134424, 50.0652523], [6.1137091, 50.0646458], [6.1138208, 50.0639537], [6.1139431, 50.0635756], [6.1135227, 50.0628261], [6.1131022, 50.0622194], [6.1123399, 50.0605023], [6.1119957, 50.0606049], [6.1115354, 50.0607165], [6.1116738, 50.0608308], [6.1118287, 50.0610663], [6.1120778, 50.0613234], [6.1124139, 50.0616484], [6.1125872, 50.061816], [6.1127303, 50.0620938], [6.1125069, 50.0622023], [6.1129279, 50.062789], [6.1131324, 50.0632458], [6.1132688, 50.0636737], [6.1119185, 50.0638101], [6.1104989, 50.0639521], [6.1104353, 50.0639586], [6.1106231, 50.0641648], [6.1106985, 50.064304], [6.1107556, 50.0644161], [6.1105715, 50.0643739], [6.1104285, 50.0645458], [6.1110767, 50.0649443], [6.11159, 50.0652649], [6.1117929, 50.0653897], [6.1118417, 50.0654136], [6.112385, 50.0657484], [6.1124999, 50.0658181], [6.112637, 50.0659012], [6.1126801, 50.0659291], [6.1126289, 50.0659567], [6.1124706, 50.0660418], [6.1123438, 50.0660809], [6.112126, 50.0661593], [6.1121117, 50.0661702], [6.1121046, 50.0662446], [6.1124918, 50.0661335], [6.1126336, 50.0661115], [6.1130816, 50.0660151], [6.1137092, 50.0659101], [6.1138693, 50.0658649], [6.1146746, 50.0660697], [6.1140619, 50.0671067], [6.1138565, 50.0673634], [6.1141388, 50.0677489], [6.1141959, 50.0679503], [6.1139527, 50.067916], [6.1137485, 50.0678499], [6.1136739, 50.0678258], [6.1133093, 50.0679089], [6.1130209, 50.0680122], [6.1128047, 50.0680727], [6.1126716, 50.0680762], [6.1125385, 50.0681333], [6.1123943, 50.0682795], [6.1122202, 50.068396], [6.1119948, 50.0685469], [6.1117285, 50.0688072], [6.1116729, 50.0689713], [6.1113897, 50.0693387], [6.1112408, 50.0699498], [6.1112336, 50.0701128], [6.1114272, 50.070484], [6.1113168, 50.0709478], [6.1112184, 50.0712387], [6.1110708, 50.0716257], [6.1110579, 50.0717324], [6.1110739, 50.071984], [6.1110925, 50.072078], [6.1111232, 50.0722333], [6.1107486, 50.072421], [6.1116062, 50.0727437], [6.1119937, 50.0728921], [6.1124201, 50.0730473], [6.1139452, 50.0736159], [6.1149606, 50.0740094], [6.1150011, 50.074008], [6.1156885, 50.0740019], [6.1159661, 50.0739678], [6.1160902, 50.0739907], [6.1163796, 50.0739732], [6.1166134, 50.0736741], [6.1166355, 50.0736884], [6.1168868, 50.0734538], [6.1171902, 50.0731999], [6.1172579, 50.0731456], [6.117432, 50.0730415], [6.1176532, 50.072921], [6.1178206, 50.0728498], [6.1179526, 50.0728049], [6.1183755, 50.0726816], [6.1188551, 50.0724718], [6.1189811, 50.0724049], [6.1190914, 50.072362], [6.1193615, 50.0723381], [6.1197298, 50.0723249], [6.1200194, 50.0722968], [6.1205229, 50.0722941], [6.1207539, 50.0723417], [6.1212711, 50.0725352], [6.1216404, 50.0727851], [6.1218297, 50.0729755], [6.1220096, 50.0732312], [6.122108, 50.073592], [6.1221567, 50.0739597], [6.1224247, 50.0746388], [6.1225486, 50.0748905], [6.1230954, 50.0757019], [6.1232959, 50.0760147], [6.1233882, 50.0762169], [6.1235114, 50.0763648], [6.1236051, 50.0764311], [6.1238175, 50.0765649], [6.1241824, 50.0767256], [6.1245241, 50.0768447], [6.1247966, 50.076931], [6.1249029, 50.0769489], [6.1250923, 50.0769103], [6.1251478, 50.0768776], [6.1254207, 50.0765804], [6.1258645, 50.0762119], [6.1264562, 50.0757869], [6.126729, 50.0755937], [6.1269405, 50.0754567], [6.1273253, 50.0752074], [6.1275656, 50.0750886], [6.1277736, 50.0750084], [6.1280139, 50.0749163], [6.1280745, 50.0748916], [6.128611, 50.0745705], [6.128944, 50.0740497], [6.1291106, 50.0737144], [6.1291551, 50.0735645], [6.129122, 50.073379], [6.1291127, 50.0733504], [6.1290667, 50.0732077], [6.1284904, 50.0728293], [6.1279364, 50.0724224], [6.1276372, 50.072251], [6.1270719, 50.072051], [6.1266952, 50.0718083], [6.1264957, 50.0716584], [6.1265069, 50.0715299], [6.1261414, 50.0711373], [6.1251551, 50.0706589], [6.1240467, 50.0702946], [6.1232599, 50.0699517], [6.1226061, 50.0696232], [6.1225507, 50.0695447], [6.1222102, 50.0694004], [6.1213206, 50.0690233], [6.121221, 50.0688949], [6.121066, 50.0685951], [6.1210553, 50.0682026], [6.1209784, 50.0674533], [6.1209898, 50.0671893], [6.1209023, 50.0659476], [6.1208914, 50.0657764], [6.1208249, 50.0656836], [6.1207477, 50.0652697], [6.1206038, 50.0650841], [6.1205707, 50.0649485], [6.1205597, 50.0648914], [6.1202937, 50.0647843], [6.1195777, 50.0646168], [6.1191503, 50.0645259]]]}}]}