{"type": "FeatureCollection", "features": [{"type": "Feature", "properties": {"name": "Mittleres Ourtal zw. Dreiländereck und Rellesmühle", "kind": "nature_reserve"}, "geometry": {"type": "Polygon", "coordinates": [[[6.1366528, 50.1203757], [6.1367401, 50.1204023], [6.1372376, 50.1203375], [6.1373206, 50.1203509], [6.1376924, 50.1202701], [6.1379419, 50.1201526], [6.1379983, 50.120093], [6.1383444, 50.1199136], [6.138354, 50.1198399], [6.1386884, 50.1195392], [6.1388329, 50.119316], [6.1388737, 50.1192825], [6.1382976, 50.1188663], [6.137912, 50.1186244], [6.1373588, 50.1184758], [6.1372251, 50.1183853], [6.1369399, 50.1182448], [6.1366698, 50.118029], [6.1365201, 50.117928], [6.136324, 50.1176959], [6.1362421, 50.1176136], [6.1361581, 50.1175114], [6.1361381, 50.1174953], [6.1358944, 50.1172372], [6.1358657, 50.1171494], [6.1358321, 50.1169662], [6.1358683, 50.1168987], [6.1359347, 50.1168006], [6.1359906, 50.1166883], [6.1361043, 50.1165146], [6.1362194, 50.1163815], [6.1363331, 50.1162303], [6.1365118, 50.1160624], [6.1367709, 50.1158994], [6.1369171, 50.1158143], [6.1369351, 50.1157961], [6.1370608, 50.11572], [6.1370986, 50.1156913], [6.1375087, 50.1155955], [6.1377551, 50.11535], [6.1379948, 50.1151355], [6.1381641, 50.115129], [6.138228, 50.1150787], [6.1383803, 50.1149868], [6.1385548, 50.1148552], [6.1387197, 50.1148156], [6.1388063, 50.114802], [6.1391219, 50.1147971], [6.1394695, 50.1148537], [6.1399671, 50.1150456], [6.1402217, 50.1152025], [6.1404141, 50.1153868], [6.1408493, 50.1154889], [6.141231, 50.1153897], [6.1416904, 50.1152257], [6.1420019, 50.1150318], [6.1425326, 50.1145905], [6.1426868, 50.1144535], [6.1447472, 50.114886], [6.1452059, 50.1149882], [6.1452427, 50.114927], [6.1434087, 50.1140308], [6.1429294, 50.1137306], [6.1426316, 50.1135013], [6.1425981, 50.1131574], [6.1422241, 50.112711], [6.1421552, 50.1121765], [6.1420061, 50.1118497], [6.1422589, 50.111656], [6.1425895, 50.1113837], [6.1429097, 50.1111877], [6.1432102, 50.1110389], [6.143724, 50.1108981], [6.1437, 50.1103172], [6.1454064, 50.1100408], [6.14566, 50.1099815], [6.1456296, 50.1099193], [6.1454518, 50.109605], [6.1452646, 50.1092947], [6.1451688, 50.109116], [6.1450659, 50.1089993], [6.1448014, 50.1087546], [6.144414, 50.1084572], [6.1442025, 50.1083044], [6.1439356, 50.1079876], [6.1437863, 50.1077945], [6.1432327, 50.1067217], [6.1431635, 50.1065474], [6.1434666, 50.1064977], [6.1440507, 50.1064182], [6.1440742, 50.1064116], [6.1441127, 50.1064106], [6.1451189, 50.106298], [6.1452352, 50.1062736], [6.1453004, 50.106245], [6.1455707, 50.1061873], [6.1457652, 50.1061508], [6.1460152, 50.1061411], [6.1468266, 50.1059369], [6.1473066, 50.1059578], [6.1476745, 50.1060194], [6.1476837, 50.1059977], [6.1474616, 50.1058523], [6.1474067, 50.1058204], [6.1470791, 50.1055929], [6.1469747, 50.1054211], [6.1468589, 50.1052075], [6.1466511, 50.1048861], [6.1466926, 50.1047767], [6.1470469, 50.1045866], [6.1474503, 50.104279], [6.147589, 50.1041965], [6.1470822, 50.1037684], [6.1461622, 50.1029312], [6.1458144, 50.1025333], [6.1458104, 50.102752], [6.144572, 50.1028071], [6.1445265, 50.1030596], [6.1445518, 50.1033462], [6.1445909, 50.1034937], [6.1446916, 50.1036209], [6.1443948, 50.1038651], [6.1440908, 50.1044588], [6.1451059, 50.1051367], [6.1447654, 50.1053431], [6.1444594, 50.105398], [6.1441664, 50.105396], [6.1435787, 50.1053711], [6.1432824, 50.1052717], [6.1431407, 50.1052358], [6.1427561, 50.1051524], [6.1420329, 50.104968], [6.1413367, 50.1047545], [6.140918, 50.1046734], [6.1406629, 50.1046134], [6.1405547, 50.1045752], [6.1403229, 50.1044776], [6.1401377, 50.1045951], [6.1400022, 50.104722], [6.1397376, 50.1046264], [6.1392481, 50.1047028], [6.1389785, 50.1048039], [6.1386548, 50.1047263], [6.1383631, 50.1045474], [6.138188, 50.1042775], [6.1381069, 50.1040302], [6.1382985, 50.1038557], [6.1386546, 50.1033596], [6.138803, 50.1030922], [6.1390434, 50.1028115], [6.1387128, 50.1023599], [6.1385501, 50.102107], [6.1383732, 50.101795], [6.138453, 50.1017867], [6.1381752, 50.1010834], [6.1379812, 50.1008066], [6.1376957, 50.1005331], [6.1374574, 50.1002583], [6.1371296, 50.0999004], [6.1369682, 50.0995344], [6.1370378, 50.0992419], [6.1381572, 50.0992368], [6.1386439, 50.0992531], [6.1386215, 50.0988483], [6.1389305, 50.0987922], [6.1393749, 50.0988129], [6.1401838, 50.0987097], [6.1403578, 50.0986037], [6.1403163, 50.0978417], [6.1402453, 50.0978057], [6.1403324, 50.0977009], [6.1399751, 50.0976762], [6.1400437, 50.0974136], [6.1401361, 50.0970923], [6.1399025, 50.0968085], [6.1396727, 50.0965986], [6.1387102, 50.0956568], [6.1379006, 50.0959991], [6.1376452, 50.0960315], [6.1373265, 50.0957565], [6.1371018, 50.0958217], [6.1369104, 50.0956123], [6.136753, 50.0954657], [6.1366429, 50.0949148], [6.1378576, 50.0948823], [6.1380423, 50.0945383], [6.1387656, 50.094089], [6.1381888, 50.0941816], [6.1375639, 50.0934756], [6.1383728, 50.0932233], [6.1387507, 50.0931186], [6.1393495, 50.0929342], [6.1398032, 50.0927553], [6.1402899, 50.0926058], [6.1407256, 50.0925153], [6.1409728, 50.092487], [6.141205, 50.0925112], [6.141052, 50.091415], [6.1410285, 50.0913666], [6.1417366, 50.0909526], [6.1411949, 50.09048], [6.1410768, 50.0901961], [6.1402687, 50.0906492], [6.139666, 50.090437], [6.1400831, 50.0894626], [6.1399239, 50.0894756], [6.139174, 50.089271], [6.13796, 50.0891947], [6.1376157, 50.0891592], [6.1373443, 50.0891558], [6.137111, 50.0891062], [6.1369313, 50.0891371], [6.1367569, 50.0890601], [6.1365483, 50.0890758], [6.1361825, 50.0891368], [6.1358897, 50.0891452], [6.1354687, 50.0891261], [6.1351256, 50.0891001], [6.1346395, 50.0890512], [6.1345021, 50.0890258], [6.1342103, 50.0889636], [6.1343896, 50.0888972], [6.1343554, 50.0887023], [6.133102, 50.0876625], [6.1330922, 50.0876489], [6.1331939, 50.0876172], [6.1327371, 50.0875473], [6.1321354, 50.0877573], [6.1317439, 50.0879577], [6.1311656, 50.0882437], [6.1306429, 50.0885375], [6.1302621, 50.0888197], [6.1300832, 50.0889414], [6.1298438, 50.0891148], [6.1294357, 50.0895217], [6.129246, 50.0896866], [6.1291006, 50.0899744], [6.1290885, 50.0900697], [6.1290811, 50.090361], [6.1285513, 50.0903709], [6.1278724, 50.0902385], [6.1275522, 50.0900955], [6.1275187, 50.0900647], [6.1271398, 50.0899718], [6.1263681, 50.0896849], [6.1258321, 50.0894153], [6.1256403, 50.0892717], [6.1252328, 50.0888353], [6.1248704, 50.0883896], [6.1247796, 50.0881819], [6.1248639, 50.0879077], [6.1249045, 50.0877921], [6.1250133, 50.0877372], [6.1250198, 50.087592], [6.1248868, 50.0873148], [6.1246018, 50.0869136], [6.1243985, 50.0865176], [6.1247218, 50.0860533], [6.124774, 50.0859902], [6.1250827, 50.0857938], [6.125623, 50.0852721], [6.1259638, 50.0849838], [6.1254474, 50.0838546], [6.1254922, 50.0838174], [6.1253644, 50.08372], [6.1252717, 50.0833764], [6.1251177, 50.083182], [6.1251819, 50.0829448], [6.1252088, 50.0827393], [6.1252401, 50.0824117], [6.1251987, 50.0816156], [6.1255282, 50.0803544], [6.125293, 50.0801652], [6.1251812, 50.0800536], [6.125176, 50.0799989], [6.1251891, 50.0797333], [6.1252104, 50.0797023], [6.1253059, 50.0797506], [6.1256954, 50.0799742], [6.1264613, 50.0801521], [6.126928, 50.0802686], [6.1274131, 50.0804042], [6.1276054, 50.080472], [6.1278545, 50.0806048], [6.1280413, 50.08077], [6.1280744, 50.0808033], [6.1281145, 50.0808591], [6.1281379, 50.0810155], [6.1280836, 50.0812941], [6.1281645, 50.0817327], [6.1282515, 50.0819864], [6.1282915, 50.0820566], [6.1283974, 50.0821564], [6.1286035, 50.082364], [6.1288135, 50.082634], [6.1289978, 50.0828233], [6.1293412, 50.0830556], [6.1305816, 50.0821376], [6.1307389, 50.0822057], [6.1322043, 50.0814941], [6.132074, 50.0813964], [6.1327463, 50.0808854], [6.1322013, 50.080355], [6.1320899, 50.0802526], [6.1320343, 50.0801924], [6.1315631, 50.0803351], [6.1314163, 50.0803513], [6.1311537, 50.0804152], [6.1309142, 50.0804259], [6.1308458, 50.0804138], [6.1306412, 50.0803162], [6.1305221, 50.0802241], [6.1303789, 50.0804183], [6.1303108, 50.080361], [6.1301831, 50.0802742], [6.1301026, 50.0802454], [6.1300267, 50.0800441], [6.1299903, 50.079992], [6.1298226, 50.0799016], [6.1296592, 50.0796552], [6.1306415, 50.0789598], [6.1304595, 50.0785782], [6.1317421, 50.0780017], [6.1315572, 50.0776941], [6.1314825, 50.0775947], [6.1312815, 50.0774484], [6.1309316, 50.0773013], [6.1304509, 50.0771942], [6.1300589, 50.0772287], [6.1303467, 50.0770057], [6.1305808, 50.0769561], [6.1306923, 50.0768224], [6.1308149, 50.076763], [6.1308582, 50.0764975], [6.1311776, 50.076558], [6.1319435, 50.0765926], [6.1328375, 50.0767121], [6.1337144, 50.0768359], [6.1339124, 50.0761006], [6.1336602, 50.0760763], [6.1340382, 50.0751568], [6.1340402, 50.075036], [6.1343359, 50.0750384], [6.135271, 50.0752303], [6.1357677, 50.0753245], [6.1361573, 50.0753142], [6.1363745, 50.0752587], [6.1369503, 50.0751025], [6.1380282, 50.0749116], [6.1388485, 50.0747843], [6.1395246, 50.0746024], [6.1396687, 50.0741527], [6.139815, 50.0738418], [6.140184, 50.0736893], [6.1395563, 50.073343], [6.1388623, 50.0735026], [6.1383614, 50.0735112], [6.1379647, 50.0734691], [6.1374041, 50.0733464], [6.1374098, 50.0732323], [6.137444, 50.0731777], [6.1376699, 50.0730432], [6.1375692, 50.0729201], [6.1374969, 50.0728871], [6.1372327, 50.0728999], [6.1369365, 50.0729715], [6.1367293, 50.0727323], [6.1366626, 50.0727593], [6.1363836, 50.0724783], [6.1352928, 50.0729241], [6.1351742, 50.0726974], [6.1350793, 50.0724356], [6.1348256, 50.0723349], [6.1342938, 50.0720956], [6.1338611, 50.0717737], [6.1335281, 50.0714909], [6.1331484, 50.0712836], [6.1329165, 50.071123], [6.1326698, 50.0709681], [6.1325904, 50.0708649], [6.1323944, 50.070844], [6.1323327, 50.0706894], [6.1322061, 50.0706318], [6.13195, 50.0705243], [6.1293644, 50.0699052], [6.1288983, 50.0698974], [6.1287164, 50.0697698], [6.1289035, 50.0696561], [6.1292472, 50.0694105], [6.1292997, 50.0693831], [6.1301643, 50.0696636], [6.130517, 50.0697121], [6.1305795, 50.0696524], [6.1301865, 50.0692986], [6.129614, 50.0689946], [6.1286707, 50.0688022], [6.1285715, 50.06877], [6.1271609, 50.0678193], [6.1276682, 50.0679902], [6.1279178, 50.0671326], [6.1281329, 50.0671509], [6.128685, 50.0672146], [6.1287481, 50.067218], [6.1287685, 50.0670953], [6.1288417, 50.0669786], [6.1297976, 50.0671539], [6.1304154, 50.0671706], [6.1309378, 50.067206], [6.1312224, 50.0672117], [6.1315523, 50.0671808], [6.1319163, 50.0670941], [6.1321974, 50.0670184], [6.1325526, 50.0667912], [6.1327524, 50.0665805], [6.1324778, 50.0662173], [6.132398, 50.0662544], [6.1319405, 50.0663148], [6.1319101, 50.0663138], [6.1315498, 50.0662017], [6.1313645, 50.0661253], [6.1311902, 50.0659993], [6.1311737, 50.0659844], [6.1307099, 50.0654301], [6.1308302, 50.0653209], [6.130949, 50.0652642], [6.1307193, 50.0650231], [6.1306728, 50.0649537], [6.130371, 50.0649976], [6.1301138, 50.0649873], [6.1299503, 50.0649567], [6.1293215, 50.0648769], [6.1288786, 50.0651553], [6.1286534, 50.065064], [6.1273678, 50.0649485], [6.1259758, 50.0648322], [6.1254216, 50.0647952], [6.125042, 50.0646032], [6.1246675, 50.0642824], [6.1244698, 50.0640371], [6.1243537, 50.0639224], [6.1237978, 50.064087], [6.1233941, 50.0637381], [6.123169, 50.0636048], [6.1229243, 50.0636115], [6.1224882, 50.0637374], [6.1223854, 50.0631485], [6.1226331, 50.0628582], [6.1230642, 50.0625049], [6.1234051, 50.0624847], [6.1235463, 50.0624726], [6.12415, 50.0623756], [6.1247171, 50.0623388], [6.1247557, 50.0622978], [6.1249878, 50.0620879], [6.1253655, 50.0619006], [6.1255479, 50.061834], [6.1258774, 50.0616783], [6.1262367, 50.0615749], [6.1269454, 50.061254], [6.1270142, 50.061291], [6.1271984, 50.0612953], [6.1275039, 50.0603081], [6.1275479, 50.0600885], [6.1276697, 50.0600836], [6.1279267, 50.0600863], [6.1281792, 50.0600956], [6.128312, 50.0598794], [6.1285271, 50.0595826], [6.1286545, 50.059382], [6.1285773, 50.0592776], [6.1281406, 50.0594112], [6.1280355, 50.0592643], [6.1277908, 50.0588864], [6.1276724, 50.0586928], [6.128098, 50.0585125], [6.1281581, 50.0585052], [6.1283683, 50.0584439], [6.1284511, 50.0582299], [6.127842, 50.0577499], [6.1280331, 50.0575321], [6.1278038, 50.0572596], [6.127534, 50.056995], [6.1275143, 50.0567763], [6.1276308, 50.0567673], [6.1272809, 50.0563744], [6.1267877, 50.0558874], [6.1265693, 50.0557166], [6.1261326, 50.0552664], [6.1257335, 50.0549431], [6.1256757, 50.0549845], [6.1249277, 50.0546319], [6.1244181, 50.054459], [6.1240536, 50.0543817], [6.1237197, 50.0543224], [6.1230618, 50.0543289], [6.1228949, 50.0545753], [6.1228594, 50.054942], [6.1229109, 50.0552322], [6.1233264, 50.0559476], [6.123139, 50.0559882], [6.1232115, 50.0560792], [6.123357, 50.0562872], [6.1234533, 50.0564025], [6.1235788, 50.0566036], [6.1237702, 50.0570294], [6.1239226, 50.0574338], [6.1240133, 50.0576502], [6.124124, 50.05801], [6.1241771, 50.0581561], [6.1242308, 50.0582866], [6.1242741, 50.0583665], [6.1243426, 50.0585229], [6.1243456, 50.0586939], [6.1243387, 50.058912], [6.1243285, 50.0590667], [6.1243023, 50.059176], [6.124301, 50.059271], [6.1242852, 50.0594194], [6.1242094, 50.0596274], [6.1241585, 50.0597316], [6.1240811, 50.0598205], [6.1237953, 50.060058], [6.1236105, 50.0601603], [6.1233226, 50.0602679], [6.1230574, 50.060336], [6.1229432, 50.0603619], [6.1226303, 50.0604013], [6.1219647, 50.0605101], [6.1217463, 50.0605106], [6.1214731, 50.0604714], [6.1212429, 50.0604116], [6.1209485, 50.0603275], [6.1207548, 50.0602645], [6.1205924, 50.0601867], [6.1204119, 50.0600727], [6.1203793, 50.0599472], [6.1202378, 50.059742], [6.1201922, 50.0595902], [6.1201876, 50.0594197], [6.1202157, 50.0592692], [6.1202181, 50.0589713], [6.1202502, 50.058777], [6.1202954, 50.0585906], [6.1203616, 50.0584199], [6.1204109, 50.0582706], [6.1204258, 50.0580682], [6.1204476, 50.0579138], [6.1204439, 50.0577784], [6.120451, 50.0576573], [6.1204442, 50.0573946], [6.1204248, 50.0572358], [6.1203825, 50.0570723], [6.1202234, 50.0568429], [6.1201031, 50.0567451], [6.1199537, 50.0566468], [6.11981, 50.0565913], [6.1196707, 50.0565237], [6.1190987, 50.056522], [6.1187918, 50.0564939], [6.1183845, 50.0565458], [6.1181951, 50.0564556], [6.1180198, 50.056392], [6.1177577, 50.0564336], [6.1175564, 50.0565085], [6.1174146, 50.0565894], [6.116839, 50.0568304], [6.1165722, 50.0569202], [6.1161839, 50.0570344], [6.1158964, 50.0571949], [6.1157045, 50.0572442], [6.1154161, 50.0573315], [6.1151841, 50.057408], [6.1147872, 50.0574963], [6.1145268, 50.0575688], [6.114331, 50.0576412], [6.1140301, 50.0577776], [6.1138451, 50.0579413], [6.1136399, 50.0581045], [6.1135135, 50.0582144], [6.1134017, 50.0583849], [6.1132173, 50.0586217], [6.1129129, 50.0589647], [6.1127763, 50.0591472], [6.1127, 50.0592817], [6.1125955, 50.0596074], [6.1125367, 50.0597572], [6.112507, 50.0599002], [6.1124708, 50.0601261], [6.1125049, 50.0603014], [6.1125289, 50.0604719], [6.1125952, 50.0606514], [6.1127128, 50.0607763], [6.1128724, 50.0608458], [6.1130105, 50.0612618], [6.1131899, 50.0615202], [6.1133873, 50.061917], [6.1134403, 50.0620591], [6.1135925, 50.0623714], [6.11365, 50.0625176], [6.113785, 50.0627037], [6.1139309, 50.0629781], [6.1140125, 50.0631929], [6.1140857, 50.0633491], [6.1141506, 50.0635276], [6.1141765, 50.0636687], [6.1141585, 50.0637956], [6.1141173, 50.0639266], [6.1139999, 50.0640502], [6.113976, 50.064214], [6.1139256, 50.0643585], [6.1138734, 50.064957], [6.1137785, 50.065183], [6.1137165, 50.0652919], [6.1138026, 50.0654313], [6.1138636, 50.0655098], [6.1140616, 50.0655836], [6.1142339, 50.0656096], [6.1143678, 50.0656607], [6.1145803, 50.0657338], [6.1147437, 50.0657781], [6.1149433, 50.0658191], [6.1151383, 50.0658121], [6.1156249, 50.0656895], [6.1157711, 50.0656194], [6.1159301, 50.0655539], [6.1160558, 50.0654533], [6.1166033, 50.0651661], [6.11678, 50.0650637], [6.116921, 50.0650002], [6.117114, 50.0648776], [6.1173698, 50.0647422], [6.1175578, 50.0646438], [6.1177109, 50.0645783], [6.1181133, 50.0644534], [6.1184459, 50.0644071], [6.1189052, 50.0643872], [6.1191623, 50.064403], [6.1194014, 50.064436], [6.1199064, 50.064531], [6.1202227, 50.06461], [6.1204161, 50.064684], [6.1207305, 50.0648454], [6.1208345, 50.0649224], [6.1209683, 50.0650573], [6.1211055, 50.0654024], [6.1211187, 50.0655485], [6.1211686, 50.0657382], [6.1212022, 50.0659391], [6.1212152, 50.0662034], [6.1212636, 50.0663781], [6.1212642, 50.0665735], [6.1212392, 50.0667658], [6.1212321, 50.0669773], [6.1212703, 50.0671661], [6.1212596, 50.0673607], [6.1212856, 50.0675477], [6.1212911, 50.0678171], [6.1212448, 50.0684874], [6.1213105, 50.0686856], [6.1214039, 50.0688225], [6.1215551, 50.0689433], [6.121863, 50.0690528], [6.1221325, 50.0691638], [6.1224538, 50.0692696], [6.1230261, 50.0695269], [6.1232978, 50.0696557], [6.1235669, 50.0698104], [6.1238988, 50.0699417], [6.1240718, 50.0700218], [6.1243825, 50.0701466], [6.1248989, 50.0703783], [6.1251441, 50.0704958], [6.1254191, 50.0706043], [6.1258393, 50.0708242], [6.1262103, 50.0709928], [6.1264904, 50.0711667], [6.1266017, 50.0712773], [6.1266569, 50.0713918], [6.1267285, 50.0715209], [6.1268399, 50.0716399], [6.1271617, 50.0718188], [6.1277623, 50.0720905], [6.127964, 50.0721771], [6.1280828, 50.0723317], [6.1283031, 50.0724808], [6.1284181, 50.0725134], [6.128574, 50.0726187], [6.1287577, 50.0727625], [6.1291441, 50.0730476], [6.1293886, 50.0732869], [6.1294647, 50.073497], [6.1294813, 50.0736318], [6.1292425, 50.0739456], [6.1291573, 50.07408], [6.1290105, 50.0742814], [6.128926, 50.0744568], [6.1288847, 50.0745648], [6.128796, 50.0747045], [6.1285115, 50.0748869], [6.128244, 50.0750226], [6.1279577, 50.0751184], [6.1276753, 50.0752498], [6.1274816, 50.0753708], [6.1273474, 50.0754783], [6.1271023, 50.0756501], [6.1269275, 50.0757543], [6.1266955, 50.0759082], [6.1265027, 50.0760167], [6.1263291, 50.076133], [6.1261505, 50.076246], [6.1259862, 50.0763763], [6.1255851, 50.0766663], [6.1253087, 50.0769194], [6.1251772, 50.0770137], [6.1249742, 50.0770871], [6.1248225, 50.0770783], [6.1246587, 50.0770514], [6.1244887, 50.0770168], [6.1242731, 50.0769098], [6.1241452, 50.0768544], [6.1239329, 50.0767743], [6.1236778, 50.0766349], [6.123443, 50.0765005], [6.1232308, 50.0763246], [6.1231418, 50.0761773], [6.1230926, 50.0760118], [6.1229126, 50.0758048], [6.1228453, 50.0757126], [6.1228131, 50.0756402], [6.122709, 50.0754612], [6.1225327, 50.0752355], [6.1224675, 50.0751122], [6.1223701, 50.0749545], [6.1222238, 50.0746863], [6.1221246, 50.074532], [6.1220025, 50.0744078], [6.1219378, 50.0742278], [6.1219897, 50.0741405], [6.1219432, 50.0738181], [6.1219034, 50.0736823], [6.1218974, 50.0734966], [6.121779, 50.0731385], [6.1216327, 50.0729781], [6.121487, 50.072856], [6.1213261, 50.0727396], [6.1211441, 50.0726327], [6.1209281, 50.0725411], [6.120713, 50.0724767], [6.1204973, 50.072449], [6.1202316, 50.0724439], [6.1199243, 50.0724787], [6.1196738, 50.0724789], [6.1194913, 50.0724661], [6.1192166, 50.0725162], [6.118878, 50.0726499], [6.1186204, 50.0727259], [6.1184119, 50.0728331], [6.1180938, 50.0729501], [6.1178273, 50.0730365], [6.1176223, 50.0731244], [6.117283, 50.0733555], [6.1169789, 50.0736116], [6.1168703, 50.0737324], [6.1167073, 50.0739294], [6.1165125, 50.0741481], [6.1163995, 50.0742488], [6.1162386, 50.0744426], [6.1162142, 50.0745579], [6.1162169, 50.0746297], [6.1162594, 50.0747327], [6.1164076, 50.074887], [6.116638, 50.0750166], [6.1169018, 50.0751339], [6.1171245, 50.0751997], [6.1172435, 50.0752652], [6.1175243, 50.0753343], [6.1176947, 50.0754046], [6.1179915, 50.0755653], [6.1182505, 50.0756672], [6.1184985, 50.0758696], [6.1184054, 50.0760703], [6.1181968, 50.0761818], [6.1181936, 50.0763854], [6.1182653, 50.0766184], [6.1184468, 50.0767952], [6.118657, 50.0769082], [6.1188327, 50.0770894], [6.1191492, 50.0774463], [6.1194004, 50.0775845], [6.1195584, 50.0777045], [6.1199165, 50.0779593], [6.1201623, 50.0781936], [6.1204539, 50.0785153], [6.120739, 50.0788505], [6.1209952, 50.079252], [6.1211157, 50.0794621], [6.1213355, 50.0796828], [6.1215895, 50.080049], [6.1216763, 50.0802162], [6.1217438, 50.0803983], [6.1218439, 50.0805843], [6.1219263, 50.0807614], [6.1220503, 50.0809212], [6.1221025, 50.0810746], [6.1222008, 50.0813011], [6.1222324, 50.0815064], [6.1222404, 50.0817095], [6.1221864, 50.0821813], [6.122197, 50.0824884], [6.1222315, 50.0827368], [6.1223203, 50.0829491], [6.1223537, 50.0832035], [6.1223075, 50.0834028], [6.1222318, 50.0835508], [6.1220671, 50.0836954], [6.1218194, 50.0838647], [6.1216034, 50.0840239], [6.1211949, 50.0843424], [6.1209992, 50.0844832], [6.1206334, 50.0847929], [6.1205062, 50.0848678], [6.1204571, 50.0849443], [6.1203282, 50.085099], [6.1202083, 50.0852359], [6.1200541, 50.0853939], [6.1199433, 50.0855667], [6.1198402, 50.0856686], [6.1197695, 50.0857828], [6.1197717, 50.0859296], [6.1197452, 50.086071], [6.1197465, 50.0863013], [6.1197713, 50.0865189], [6.1198359, 50.0866999], [6.1198494, 50.0868629], [6.1198712, 50.0870322], [6.1198648, 50.0872491], [6.1198362, 50.0874164], [6.1197831, 50.0875228], [6.1197211, 50.0876759], [6.1196942, 50.0877982], [6.1196503, 50.0879494], [6.1196253, 50.0881025], [6.1196287, 50.088319], [6.119657, 50.0885347], [6.1196548, 50.0886913], [6.1196378, 50.0888767], [6.1196327, 50.0890934], [6.119605, 50.0892114], [6.1195009, 50.089486], [6.1195352, 50.0896656], [6.1197064, 50.0899779], [6.1197407, 50.0900939], [6.1197946, 50.0903155], [6.1199101, 50.0906986], [6.119947, 50.0909094], [6.1199818, 50.0910455], [6.1200081, 50.0912034], [6.1200951, 50.0914874], [6.1201441, 50.0916222], [6.1202579, 50.0917959], [6.1207848, 50.0923519], [6.1209499, 50.092503], [6.1210491, 50.0926242], [6.121151, 50.0927693], [6.1212432, 50.0928822], [6.1214236, 50.0930437], [6.1215971, 50.0931856], [6.1218191, 50.0933289], [6.1220547, 50.0934437], [6.122283, 50.0935377], [6.1224956, 50.0935841], [6.1228013, 50.0936283], [6.1232341, 50.0936695], [6.123484, 50.0936369], [6.123743, 50.0935104], [6.1239255, 50.093392], [6.1245667, 50.0931544], [6.1248242, 50.0930894], [6.1254548, 50.0929425], [6.1260421, 50.0928588], [6.1262436, 50.0928498], [6.1264223, 50.0928638], [6.1268421, 50.0928347], [6.1271742, 50.0927815], [6.1273422, 50.0927438], [6.127568, 50.0926804], [6.1278258, 50.0925715], [6.1279323, 50.0925494], [6.128212, 50.0925292], [6.1286967, 50.0924302], [6.1295092, 50.0922399], [6.1297801, 50.0922068], [6.1301131, 50.0921802], [6.1304425, 50.0921967], [6.1307599, 50.0922171], [6.1312574, 50.0923124], [6.1317931, 50.0924255], [6.1320869, 50.0925302], [6.1323223, 50.0926278], [6.1326403, 50.0927754], [6.1329897, 50.0929907], [6.1331611, 50.0931767], [6.1332921, 50.0935042], [6.133335, 50.0936299], [6.1333326, 50.0937425], [6.1331276, 50.0942711], [6.1330139, 50.0945086], [6.1328256, 50.0947175], [6.1326991, 50.0948931], [6.1324569, 50.0950241], [6.1321822, 50.0951039], [6.1321589, 50.0951071], [6.1319464, 50.0951092], [6.1316116, 50.0951379], [6.1310944, 50.0951481], [6.1309088, 50.095125], [6.1308327, 50.0951094], [6.1306187, 50.0950894], [6.130237, 50.0950644], [6.1299121, 50.0950561], [6.1296337, 50.0950784], [6.1293536, 50.0951325], [6.1289818, 50.0952817], [6.1288042, 50.0953279], [6.1285712, 50.0954722], [6.1283527, 50.0957722], [6.1281334, 50.095996], [6.1278903, 50.0962166], [6.1276049, 50.0964514], [6.1274678, 50.0967042], [6.1271194, 50.0971699], [6.1268876, 50.0975332], [6.1267165, 50.0977634], [6.1265076, 50.0979845], [6.1262952, 50.0982602], [6.1261163, 50.0985327], [6.1257874, 50.0989911], [6.1257108, 50.0991482], [6.1256734, 50.0996665], [6.1257001, 50.0998561], [6.1257476, 50.1001233], [6.1256228, 50.1006727], [6.1255897, 50.1009493], [6.1256077, 50.1010944], [6.1257719, 50.1013563], [6.12592, 50.1015108], [6.1263364, 50.1017345], [6.1265057, 50.1018155], [6.1268322, 50.1019872], [6.1271499, 50.1020936], [6.1275739, 50.1022112], [6.1279415, 50.1022872], [6.1283704, 50.1023822], [6.1284303, 50.1024186], [6.128642, 50.1024839], [6.129048, 50.1025779], [6.1293545, 50.1026542], [6.1295947, 50.1027188], [6.1298566, 50.1027789], [6.1301353, 50.1028192], [6.1303441, 50.1028073], [6.1306578, 50.1027722], [6.1307567, 50.1027051], [6.1308507, 50.1026997], [6.1311096, 50.1026539], [6.13178, 50.1024722], [6.1321166, 50.1024199], [6.1322529, 50.1024152], [6.1324789, 50.1024163], [6.132517, 50.102412], [6.1329971, 50.1024295], [6.1333414, 50.1024638], [6.133814, 50.1024986], [6.1340902, 50.1025403], [6.1343952, 50.1026321], [6.1351016, 50.1029331], [6.1353156, 50.103043], [6.1354537, 50.1031361], [6.1355957, 50.1032204], [6.1357447, 50.1033669], [6.1358289, 50.1035012], [6.1358328, 50.1036586], [6.1357335, 50.1038392], [6.1356043, 50.1040085], [6.1354287, 50.1042749], [6.135217, 50.1044944], [6.1351191, 50.1046329], [6.1350451, 50.1047939], [6.1348461, 50.1049675], [6.1347066, 50.1050679], [6.1344904, 50.1052101], [6.1342481, 50.1053353], [6.1342026, 50.1054738], [6.1339365, 50.1056296], [6.1338849, 50.1056251], [6.1338319, 50.1056151], [6.1337259, 50.1055597], [6.13342, 50.1056417], [6.1331394, 50.1056969], [6.1328202, 50.1057698], [6.1325532, 50.1058377], [6.1323918, 50.1058955], [6.1321865, 50.1059894], [6.131975, 50.1060763], [6.1316323, 50.1063236], [6.131458, 50.1064549], [6.1313437, 50.1065691], [6.1313162, 50.1067432], [6.1312094, 50.1069952], [6.1311219, 50.1073038], [6.1310231, 50.1075229], [6.1309815, 50.1076945], [6.1310389, 50.1078897], [6.1311186, 50.1080764], [6.1311309, 50.108259], [6.1313026, 50.1084448], [6.1314543, 50.108567], [6.1315456, 50.108748], [6.1317399, 50.1090106], [6.1320819, 50.1094074], [6.1321578, 50.1096436], [6.1324016, 50.1098215], [6.132596, 50.1099528], [6.1327546, 50.110117], [6.1329431, 50.1102398], [6.1330628, 50.1104335], [6.1338487, 50.1111518], [6.134216, 50.111518], [6.1343619, 50.1117127], [6.1345166, 50.1120294], [6.1348217, 50.1124531], [6.134966, 50.1127623], [6.1350889, 50.1129824], [6.1351888, 50.1131152], [6.1351906, 50.1132424], [6.135114, 50.1133788], [6.135007, 50.1135122], [6.1347262, 50.1137007], [6.1343933, 50.1138469], [6.1340639, 50.1139281], [6.133275, 50.1139359], [6.1328264, 50.1138479], [6.1324462, 50.1138358], [6.1319944, 50.1138626], [6.1316918, 50.1138402], [6.1312578, 50.1138701], [6.131008, 50.1139208], [6.1307562, 50.1139413], [6.1305363, 50.1139652], [6.1302862, 50.1140207], [6.1301613, 50.1140693], [6.1299449, 50.1141764], [6.1296228, 50.1142972], [6.1293428, 50.1145453], [6.1291709, 50.1147422], [6.1288612, 50.1150822], [6.1287359, 50.1152922], [6.1285824, 50.1154369], [6.1281536, 50.1158953], [6.1280364, 50.1160904], [6.1280556, 50.1161846], [6.1282616, 50.1164674], [6.1283851, 50.1166655], [6.1284748, 50.1169221], [6.1285498, 50.1170899], [6.1285878, 50.1168494], [6.1285918, 50.1166637], [6.128742, 50.1164595], [6.1288877, 50.1163202], [6.1291368, 50.1161296], [6.1294634, 50.1159444], [6.1301563, 50.1156284], [6.1305897, 50.1155236], [6.1306493, 50.1155121], [6.1308243, 50.1155151], [6.1309457, 50.1155569], [6.1312147, 50.1157417], [6.1312907, 50.1158452], [6.1313059, 50.1159817], [6.1314105, 50.1160155], [6.1313928, 50.1161595], [6.1315114, 50.1163696], [6.1315621, 50.1163904], [6.1316238, 50.1165392], [6.1317446, 50.1166542], [6.1317677, 50.1167001], [6.131777, 50.1167615], [6.1317454, 50.1168297], [6.1318241, 50.1169244], [6.1318307, 50.1170602], [6.1319123, 50.117124], [6.131864, 50.1172653], [6.131942, 50.1174579], [6.132067, 50.1175859], [6.1320868, 50.1176673], [6.1321605, 50.1177563], [6.1321949, 50.1178332], [6.1321708, 50.1178901], [6.1322816, 50.1180544], [6.132338, 50.1181009], [6.1322977, 50.1181272], [6.1323099, 50.1182013], [6.1324943, 50.1184047], [6.1327131, 50.1187306], [6.1329218, 50.1188203], [6.1330898, 50.1190672], [6.1335775, 50.11951], [6.1337508, 50.119559], [6.1344351, 50.1199978], [6.1345679, 50.1200206], [6.1347312, 50.1201125], [6.1350201, 50.1201887], [6.1351706, 50.1202648], [6.1355287, 50.1202915], [6.1356922, 50.1203288], [6.1357972, 50.1203088], [6.1359521, 50.1203629], [6.1363136, 50.1204103], [6.1366528, 50.1203757]]]}}]}