{"type": "FeatureCollection", "features": [{"type": "Feature", "properties": {"name": "Réserve Naturelle Deiwelskopp", "kind": "nature_reserve"}, "geometry": {"type": "Polygon", "coordinates": [[[6.497127, 49.756], [6.4973281, 49.7560043], [6.4975843, 49.7560927], [6.4979383, 49.7561048], [6.4983018, 49.7560346], [6.4984305, 49.7559393], [6.4984453, 49.7558501], [6.4986518, 49.7558085], [6.4987755, 49.7557958], [6.4988155, 49.7557539], [6.4988002, 49.7557453], [6.4987735, 49.7557077], [6.4987606, 49.7556632], [6.4987658, 49.7556032], [6.4987794, 49.7555518], [6.4988013, 49.7555004], [6.4988275, 49.7554627], [6.4988399, 49.755396], [6.4990836, 49.7553034], [6.4991122, 49.7552633], [6.4991024, 49.755202], [6.4989831, 49.7549889], [6.4987899, 49.754521], [6.4986545, 49.7541328], [6.4984855, 49.7536892], [6.498338, 49.7534258], [6.4982939, 49.753268], [6.4982414, 49.7528245], [6.4981878, 49.7526477], [6.4981502, 49.7524224], [6.4981329, 49.7519943], [6.4981384, 49.751433], [6.498139, 49.7513637], [6.49815, 49.7502371], [6.4981512, 49.750113], [6.4981491, 49.7500249], [6.4982244, 49.7499888], [6.4991014, 49.7498864], [6.4998461, 49.7498991], [6.4998773, 49.748758], [6.4999249, 49.7485589], [6.4994029, 49.7485651], [6.4992708, 49.7485667], [6.4992663, 49.7485161], [6.499042, 49.7485282], [6.4988527, 49.7485384], [6.4988168, 49.7483353], [6.4987927, 49.7481993], [6.4987273, 49.7480668], [6.4986417, 49.7479591], [6.4985232, 49.7477226], [6.4984986, 49.7475537], [6.498693, 49.7475393], [6.4986347, 49.7474165], [6.4984885, 49.7473022], [6.4983928, 49.7471768], [6.4983942, 49.7471099], [6.4984632, 49.7470983], [6.4984174, 49.7470253], [6.4984719, 49.7469692], [6.4983587, 49.7468498], [6.4983729, 49.7468316], [6.498397, 49.746761], [6.498395, 49.7467077], [6.4983387, 49.7466193], [6.498338, 49.7465716], [6.4983687, 49.746511], [6.4984366, 49.7464265], [6.4985298, 49.7463723], [6.4985168, 49.746321], [6.4986029, 49.7462895], [6.4985566, 49.7461669], [6.4984958, 49.7460636], [6.4986813, 49.7460136], [6.499087, 49.7459211], [6.4991269, 49.7458564], [6.4991597, 49.7457833], [6.4990252, 49.7456293], [6.4988731, 49.7454451], [6.4992174, 49.7455503], [6.4992178, 49.7454676], [6.4991888, 49.7454261], [6.4991528, 49.7453999], [6.4988872, 49.7453005], [6.4983005, 49.7452171], [6.4983459, 49.7451121], [6.498286, 49.7451587], [6.4982252, 49.7451991], [6.4981539, 49.7452347], [6.4980571, 49.7452612], [6.497981, 49.7452748], [6.4978954, 49.745286], [6.4977981, 49.7452937], [6.4976955, 49.745294], [6.4971447, 49.7452559], [6.496994, 49.7452503], [6.4967199, 49.7453762], [6.496616, 49.7454095], [6.4962204, 49.7455075], [6.4955631, 49.745596], [6.4954019, 49.7456129], [6.4952576, 49.7456179], [6.4951958, 49.7456141], [6.4951436, 49.7456038], [6.4950272, 49.7455593], [6.4948331, 49.7454726], [6.4946496, 49.7453484], [6.4941381, 49.7449927], [6.4934425, 49.7446472], [6.4932489, 49.7445778], [6.4926062, 49.7443357], [6.4921707, 49.7442085], [6.4915406, 49.7440902], [6.4909613, 49.7440295], [6.4903563, 49.743995], [6.4897152, 49.7439836], [6.4894554, 49.7440034], [6.48915, 49.7440558], [6.4887888, 49.74415], [6.4883749, 49.744273], [6.4882267, 49.7443341], [6.4881429, 49.7443835], [6.4879438, 49.744656], [6.4878935, 49.7447682], [6.4877909, 49.7448926], [6.4875645, 49.7452037], [6.4875206, 49.7452639], [6.487352, 49.7453626], [6.4872274, 49.7453969], [6.4870385, 49.7454489], [6.4867667, 49.745532], [6.4862806, 49.7456806], [6.4859918, 49.7457874], [6.4858282, 49.7458922], [6.485627, 49.7461418], [6.4853534, 49.7463671], [6.485053, 49.7466566], [6.4847714, 49.7468767], [6.4838666, 49.7474527], [6.4841064, 49.7477715], [6.4848069, 49.7474493], [6.4852057, 49.7473147], [6.4858273, 49.7471476], [6.4862648, 49.7468486], [6.4866427, 49.7466853], [6.4868219, 49.7466847], [6.4870387, 49.7465758], [6.4876976, 49.746394], [6.4877128, 49.7463898], [6.4882823, 49.7463331], [6.4884474, 49.7463273], [6.4887794, 49.7463328], [6.4887837, 49.7462426], [6.4887928, 49.7461313], [6.4887975, 49.7460878], [6.4889158, 49.7460747], [6.4890957, 49.7460594], [6.4892265, 49.7460516], [6.4893573, 49.7460512], [6.4894603, 49.7460542], [6.4895371, 49.7460582], [6.4896251, 49.7460663], [6.4897951, 49.7460909], [6.4900888, 49.7461643], [6.4907841, 49.7466051], [6.4910525, 49.7468443], [6.4913066, 49.7470708], [6.491778, 49.7476078], [6.4921978, 49.7480929], [6.4924001, 49.7483267], [6.4926583, 49.748625], [6.4926693, 49.7486464], [6.492763, 49.748829], [6.492912, 49.7490853], [6.4930088, 49.7493743], [6.4929527, 49.7497539], [6.4931102, 49.7499726], [6.493179, 49.7500494], [6.4933566, 49.7502704], [6.4935176, 49.7505696], [6.4935212, 49.7508157], [6.4934596, 49.7510983], [6.4937543, 49.7516546], [6.4938151, 49.7519844], [6.493828, 49.7520194], [6.4939051, 49.7522288], [6.4937838, 49.7524083], [6.4935542, 49.7527153], [6.4936506, 49.7534757], [6.4937652, 49.753745], [6.4935762, 49.75415], [6.4932074, 49.7545076], [6.4933448, 49.7551891], [6.4938667, 49.7561793], [6.4940545, 49.7564427], [6.4942406, 49.7568468], [6.494364, 49.757023], [6.4943297, 49.7571957], [6.4947341, 49.7574947], [6.4951098, 49.7577725], [6.4953917, 49.7578282], [6.4954171, 49.7578341], [6.4954781, 49.7577921], [6.495576, 49.7577839], [6.4956082, 49.7577527], [6.4956041, 49.7576938], [6.4957416, 49.757602], [6.4958784, 49.7574243], [6.4958234, 49.7571618], [6.4959146, 49.7570856], [6.4960273, 49.7570457], [6.4960648, 49.7569816], [6.496034, 49.756934], [6.496046, 49.7568889], [6.4961413, 49.7568343], [6.4961493, 49.7567139], [6.4961962, 49.7566368], [6.4962573, 49.7566041], [6.4962983, 49.7565821], [6.4963384, 49.7565606], [6.4963464, 49.7565517], [6.4964859, 49.7563979], [6.4965852, 49.7562963], [6.4966254, 49.7561958], [6.4967839, 49.756134], [6.4970277, 49.756039], [6.497127, 49.756]]]}}]}