{"type": "FeatureCollection", "features": [{"type": "Feature", "properties": {"name": "Differdange"}, "geometry": {"type": "Polygon", "coordinates": [[[5.8506421, 49.5298388], [5.8506212, 49.5298204], [5.8510246, 49.5296296], [5.8511562, 49.5295727], [5.8512902, 49.5295182], [5.8513405, 49.5294994], [5.8514038, 49.5294759], [5.8515075, 49.5294372], [5.8515814, 49.5294102], [5.8521817, 49.5291352], [5.8529025, 49.5288072], [5.8538062, 49.5283668], [5.8540802, 49.5282335], [5.8547167, 49.5279239], [5.8553052, 49.5276375], [5.8557002, 49.5274435], [5.856483, 49.5270545], [5.8567308, 49.5269385], [5.8567808, 49.5269176], [5.8570828, 49.5268309], [5.8572386, 49.5267856], [5.8576945, 49.5265961], [5.8582667, 49.5263434], [5.8588969, 49.5260666], [5.8589687, 49.5260635], [5.859307, 49.5258306], [5.8599603, 49.525349], [5.8603317, 49.5250828], [5.8610928, 49.5246285], [5.8616996, 49.5242599], [5.8618367, 49.5241888], [5.8620485, 49.5241016], [5.8624368, 49.5239499], [5.8627722, 49.5238115], [5.862902, 49.5237466], [5.8642115, 49.5238713], [5.8645865, 49.5239198], [5.8651718, 49.5239904], [5.8658892, 49.5240737], [5.8666601, 49.5241649], [5.8674293, 49.5242595], [5.8680332, 49.524341], [5.8688983, 49.5244638], [5.8702676, 49.5246289], [5.8704781, 49.5246479], [5.8707974, 49.5248514], [5.8708906, 49.5249228], [5.870974, 49.5249691], [5.8713656, 49.5251081], [5.8717016, 49.5252265], [5.871993, 49.5253333], [5.8723444, 49.5254823], [5.8725669, 49.5256015], [5.8726071, 49.5255795], [5.8729267, 49.5257945], [5.8731989, 49.5259858], [5.873306, 49.5260497], [5.8734227, 49.5261168], [5.8735274, 49.5261695], [5.8738155, 49.5262935], [5.874176, 49.5264216], [5.8742149, 49.5264349], [5.8747628, 49.5266229], [5.8747875, 49.5266314], [5.8750885, 49.5267264], [5.8750921, 49.5267275], [5.8752505, 49.5267732], [5.8754065, 49.5268078], [5.8755797, 49.5268313], [5.8758449, 49.5268708], [5.875981, 49.5268911], [5.8761912, 49.526929], [5.8764343, 49.5269728], [5.8764955, 49.5269838], [5.8766464, 49.5270063], [5.8767875, 49.5270274], [5.877059, 49.5270616], [5.8770643, 49.5270623], [5.8770718, 49.5270628], [5.8773266, 49.527082], [5.8776354, 49.5271002], [5.8778113, 49.5271093], [5.8778748, 49.5271087], [5.8779322, 49.5271049], [5.8779835, 49.527097], [5.8780495, 49.5270813], [5.8789666, 49.5268086], [5.879334, 49.5267], [5.8793508, 49.5267184], [5.8793703, 49.5267395], [5.8794184, 49.5267918], [5.8794244, 49.5267984], [5.879443, 49.5268187], [5.879457, 49.5268339], [5.8795031, 49.5268841], [5.8795739, 49.526961], [5.8797616, 49.5271653], [5.8797682, 49.5271725], [5.8797862, 49.5271938], [5.8798852, 49.5269587], [5.8799167, 49.5268988], [5.8799536, 49.5268456], [5.8800003, 49.5267829], [5.8800667, 49.5267044], [5.8801747, 49.5266061], [5.8802691, 49.52653], [5.8803855, 49.5264564], [5.8805398, 49.5263781], [5.8806016, 49.5263455], [5.880685, 49.5262869], [5.8807549, 49.5262282], [5.8808396, 49.5261442], [5.8809121, 49.5260585], [5.8811709, 49.5257457], [5.8812115, 49.525706], [5.8812519, 49.5256696], [5.8812998, 49.5256299], [5.8813635, 49.5255864], [5.8814419, 49.5255405], [5.8815423, 49.5254938], [5.8816939, 49.5254409], [5.8820535, 49.5253234], [5.8824447, 49.5252147], [5.8827087, 49.5251482], [5.8828774, 49.5251097], [5.8830216, 49.5250798], [5.8831853, 49.5250532], [5.8833418, 49.525025], [5.8835932, 49.5249758], [5.8837694, 49.5249345], [5.8838902, 49.5249184], [5.8842653, 49.5248904], [5.8846268, 49.5247537], [5.8846992, 49.5247406], [5.8847575, 49.5247365], [5.8848866, 49.5247515], [5.8852533, 49.5248241], [5.8856584, 49.5249107], [5.8860482, 49.5249722], [5.8863484, 49.525035], [5.8865304, 49.5250824], [5.8868923, 49.5252032], [5.8871919, 49.5252744], [5.8873715, 49.525329], [5.8875107, 49.5253634], [5.887564, 49.5253964], [5.8877128, 49.5254622], [5.8878125, 49.5255173], [5.8879583, 49.5256193], [5.8879584, 49.5256194], [5.8881386, 49.5257415], [5.8881935, 49.5257775], [5.888247, 49.5258106], [5.8882859, 49.5258321], [5.8883396, 49.5258473], [5.8884048, 49.5258572], [5.8885278, 49.525876], [5.8886231, 49.5258891], [5.8888683, 49.5258886], [5.8890963, 49.5258566], [5.8893901, 49.5258317], [5.8897248, 49.5258005], [5.8901091, 49.5257897], [5.8901576, 49.5260317], [5.8902644, 49.5261031], [5.8903014, 49.5261066], [5.890303, 49.5261068], [5.890471, 49.5261229], [5.8905917, 49.5261344], [5.8906831, 49.5261433], [5.8906927, 49.5261441], [5.890799, 49.5261531], [5.8908527, 49.5261004], [5.8910507, 49.5261926], [5.8913098, 49.5263132], [5.8914631, 49.5263846], [5.8918043, 49.5262067], [5.8922333, 49.526261], [5.892449, 49.5262883], [5.8932177, 49.5264214], [5.8947944, 49.5266783], [5.8948838, 49.5267913], [5.8953845, 49.5274243], [5.8959807, 49.528204], [5.896357, 49.528572], [5.8965095, 49.5286927], [5.8968163, 49.5289308], [5.8975467, 49.5293286], [5.8978127, 49.5294114], [5.897706, 49.529835], [5.8977002, 49.5298579], [5.8976932, 49.5299391], [5.8976352, 49.5306054], [5.8976238, 49.531765], [5.897658, 49.5317877], [5.8979645, 49.5317634], [5.897997, 49.5317197], [5.8980112, 49.5317123], [5.8980206, 49.5317121], [5.898065, 49.5317263], [5.8981652, 49.5317779], [5.8982293, 49.5317869], [5.8982958, 49.5317632], [5.8983284, 49.5317374], [5.8983418, 49.531704], [5.8983419, 49.5316908], [5.8988222, 49.5315203], [5.8992917, 49.5320076], [5.9000482, 49.5319363], [5.9009468, 49.5328748], [5.901014, 49.5323051], [5.9019617, 49.532053], [5.9020001, 49.532043], [5.9020625, 49.5319909], [5.9020911, 49.5319812], [5.9022165, 49.531969], [5.9025906, 49.5318821], [5.9027669, 49.5318641], [5.9029082, 49.5318579], [5.9029843, 49.5318599], [5.9031422, 49.531873], [5.9031732, 49.5318652], [5.9031961, 49.5318504], [5.9032556, 49.5317505], [5.9032925, 49.5316512], [5.9033046, 49.5315504], [5.9032897, 49.5314533], [5.903253, 49.5313498], [5.9031945, 49.5312695], [5.9031326, 49.5312187], [5.9030507, 49.5311777], [5.9029834, 49.5311628], [5.9029609, 49.5311609], [5.9029638, 49.5311489], [5.9029766, 49.5310946], [5.9042643, 49.5310938], [5.9048525, 49.5311031], [5.9051504, 49.531099], [5.9053463, 49.5310934], [5.9055588, 49.5310827], [5.9057321, 49.5310672], [5.905908, 49.5310469], [5.9060864, 49.531014], [5.9062501, 49.530973], [5.9064971, 49.5308988], [5.9076433, 49.5304765], [5.9074151, 49.5302522], [5.9072773, 49.5299958], [5.9080077, 49.5293465], [5.9076352, 49.5292825], [5.9069011, 49.5286539], [5.906927, 49.52864], [5.9064976, 49.5275876], [5.9064403, 49.5274145], [5.9063918, 49.5272109], [5.9063584, 49.5270102], [5.9063367, 49.5266411], [5.9063376, 49.5265539], [5.9063838, 49.5263011], [5.9065275, 49.5257327], [5.9066356, 49.5254928], [5.9070857, 49.5241202], [5.9072844, 49.5237908], [5.9074894, 49.5236678], [5.9077541, 49.5235516], [5.9078646, 49.5234793], [5.9079434, 49.5234052], [5.9080099, 49.5232887], [5.9081702, 49.5229914], [5.9082658, 49.5229872], [5.9081543, 49.5218665], [5.9080419, 49.5208016], [5.9079796, 49.5207753], [5.9079108, 49.5207128], [5.9078252, 49.5206184], [5.9077639, 49.5204984], [5.9076937, 49.5203856], [5.9075571, 49.5202674], [5.9074367, 49.5201687], [5.9072268, 49.5200425], [5.9072528, 49.5200175], [5.9072662, 49.5200045], [5.907349, 49.5199246], [5.9074565, 49.5198209], [5.9075947, 49.5196866], [5.9076301, 49.5196522], [5.9077619, 49.5195294], [5.9078055, 49.5194847], [5.9078531, 49.5194385], [5.9078802, 49.5194122], [5.9078914, 49.5193979], [5.9079348, 49.5193451], [5.9079754, 49.5192957], [5.9079874, 49.5192764], [5.9080449, 49.5191841], [5.9080651, 49.5191412], [5.9081069, 49.5190524], [5.9081226, 49.5190077], [5.9081739, 49.5188618], [5.908187, 49.5187967], [5.908231, 49.5185795], [5.907937, 49.5185416], [5.9072986, 49.5184593], [5.9068081, 49.5183959], [5.9065637, 49.5183676], [5.9065629, 49.5183676], [5.9063888, 49.5183472], [5.906386, 49.5183469], [5.9062972, 49.5183379], [5.9062494, 49.5183338], [5.9062189, 49.5183311], [5.9061042, 49.5183166], [5.9059871, 49.5183017], [5.9059458, 49.5182965], [5.9057992, 49.5182784], [5.9055442, 49.5180898], [5.905472, 49.5181089], [5.9053568, 49.5181394], [5.9051473, 49.5181949], [5.9051405, 49.5181719], [5.9051335, 49.5181477], [5.9051218, 49.5181081], [5.9051217, 49.5181075], [5.9051096, 49.5180662], [5.9050986, 49.5180289], [5.9050839, 49.5179787], [5.9049828, 49.5180202], [5.9049822, 49.5180204], [5.9049204, 49.518045], [5.9049066, 49.5179999], [5.904893, 49.5179553], [5.904881, 49.5179164], [5.9048303, 49.5179279], [5.9048292, 49.5179281], [5.9047751, 49.5179404], [5.9047198, 49.5179528], [5.9046564, 49.5179671], [5.9045915, 49.5179818], [5.9045333, 49.5179949], [5.9044679, 49.5180096], [5.9044192, 49.5180206], [5.9043978, 49.5180254], [5.9043631, 49.5180335], [5.9043096, 49.5180461], [5.9042465, 49.5180609], [5.9041887, 49.5180744], [5.9041426, 49.5180852], [5.9041092, 49.518093], [5.9040759, 49.5181008], [5.904013, 49.5181155], [5.9039972, 49.5181192], [5.90396, 49.518128], [5.9039006, 49.5181419], [5.903832, 49.518158], [5.9037748, 49.5181714], [5.9037215, 49.5181839], [5.903663, 49.5181977], [5.9036029, 49.5182117], [5.9035444, 49.5182255], [5.9034779, 49.5182411], [5.9033351, 49.5180417], [5.9032839, 49.5179716], [5.9032636, 49.5179438], [5.9032625, 49.5179168], [5.9031167, 49.5179704], [5.9025999, 49.5181303], [5.9025471, 49.5180927], [5.9025249, 49.5180712], [5.9024503, 49.5179995], [5.90227, 49.5178264], [5.9022051, 49.517849], [5.9021452, 49.5178698], [5.9020567, 49.5179005], [5.9019409, 49.5179544], [5.9019181, 49.517964], [5.9018971, 49.5179729], [5.9017857, 49.5180199], [5.9017806, 49.5180219], [5.9017768, 49.5180169], [5.9017414, 49.518027], [5.9017383, 49.5180279], [5.9017033, 49.5180379], [5.9017029, 49.518038], [5.9016682, 49.5180479], [5.901668, 49.518048], [5.9016332, 49.518058], [5.9016289, 49.5180592], [5.9015955, 49.5180688], [5.9015549, 49.5180802], [5.9014979, 49.5180963], [5.9014053, 49.5181225], [5.9013944, 49.5181256], [5.9013207, 49.5180072], [5.9013199, 49.5180059], [5.901253, 49.5178983], [5.9012534, 49.5178982], [5.9012338, 49.5178665], [5.9012068, 49.517873], [5.9011697, 49.5178819], [5.9011358, 49.5178896], [5.9011225, 49.5178925], [5.901102, 49.5178971], [5.9010907, 49.5178992], [5.901077, 49.5179016], [5.9010261, 49.5179104], [5.9009168, 49.517927], [5.9008992, 49.5179297], [5.9008161, 49.5179424], [5.9007945, 49.517945], [5.9006985, 49.5179567], [5.9005892, 49.5179699], [5.9004437, 49.5179876], [5.9002545, 49.5180122], [5.9002511, 49.5179532], [5.9002251, 49.5179543], [5.9000087, 49.5179731], [5.8993201, 49.5179441], [5.8993548, 49.5178898], [5.8994016, 49.5178685], [5.8990789, 49.5178378], [5.8990453, 49.5178327], [5.8987602, 49.5177894], [5.8986685, 49.5177754], [5.8985383, 49.5177521], [5.8982516, 49.5177005], [5.8982183, 49.5176945], [5.8980112, 49.5176579], [5.8979742, 49.5176514], [5.8978095, 49.5176234], [5.8976268, 49.5175958], [5.8975239, 49.5176171], [5.8974099, 49.5176289], [5.8948075, 49.5173044], [5.8946277, 49.5173401], [5.8942205, 49.5172999], [5.8941244, 49.5172084], [5.894049, 49.5171382], [5.8940241, 49.5171129], [5.8939529, 49.5170452], [5.8939456, 49.5170381], [5.8939311, 49.517024], [5.8938231, 49.5168861], [5.8937849, 49.5168373], [5.8937403, 49.5167803], [5.8936878, 49.5167189], [5.8936269, 49.5166478], [5.8935756, 49.5165878], [5.8934592, 49.5167041], [5.8935019, 49.5167728], [5.8934606, 49.5167879], [5.8933771, 49.516677], [5.8933256, 49.5166091], [5.8932824, 49.5165521], [5.8933658, 49.5164635], [5.8933899, 49.5164378], [5.8934437, 49.5163806], [5.8934618, 49.5163613], [5.8934768, 49.5163454], [5.8935067, 49.5162912], [5.8934393, 49.5162923], [5.8933649, 49.516293], [5.8932071, 49.5162967], [5.8930395, 49.5163121], [5.8928506, 49.5163424], [5.8926045, 49.5163944], [5.8914211, 49.5167834], [5.8910277, 49.5169397], [5.8907778, 49.5170286], [5.8907344, 49.5170992], [5.890515, 49.5172259], [5.8905067, 49.5172098], [5.8903314, 49.517196], [5.8901149, 49.5171791], [5.8900183, 49.5171715], [5.8899938, 49.5171693], [5.8898877, 49.5171599], [5.8894922, 49.5171247], [5.8894361, 49.5171193], [5.8893976, 49.517116], [5.8893471, 49.5171115], [5.8891011, 49.5170902], [5.8890156, 49.5170712], [5.8889431, 49.517071], [5.8889271, 49.5170474], [5.8885298, 49.5170467], [5.8885312, 49.5170697], [5.8884714, 49.5170696], [5.8883235, 49.517069], [5.8877495, 49.5170815], [5.8877338, 49.5171507], [5.8877195, 49.5172145], [5.8877194, 49.5172228], [5.8877183, 49.5173148], [5.8877168, 49.5174448], [5.8877159, 49.5175247], [5.8877156, 49.5175461], [5.8877311, 49.5176677], [5.8877336, 49.5178284], [5.8877341, 49.5178559], [5.8877317, 49.5178898], [5.8877289, 49.5179288], [5.8877248, 49.5179874], [5.8877187, 49.5180399], [5.8877065, 49.5181454], [5.8877016, 49.5181878], [5.8876954, 49.5182396], [5.8876891, 49.5182912], [5.8876863, 49.5183146], [5.8876767, 49.5183942], [5.887674, 49.5184162], [5.8876686, 49.518461], [5.8876594, 49.5185757], [5.8876541, 49.5186424], [5.8876527, 49.5186601], [5.8876496, 49.51871], [5.8876451, 49.5187805], [5.8876281, 49.5190501], [5.8876245, 49.5191064], [5.88762, 49.519183], [5.887612, 49.5193197], [5.8876062, 49.5194168], [5.8875634, 49.5194162], [5.8874457, 49.5194179], [5.8872806, 49.519416], [5.8871703, 49.5194153], [5.8869727, 49.519413], [5.8869725, 49.51942], [5.8869345, 49.5194193], [5.8868029, 49.5194169], [5.8867739, 49.5194164], [5.8866521, 49.5194155], [5.8866157, 49.5193425], [5.8865781, 49.5193003], [5.8865498, 49.519275], [5.8858076, 49.5187949], [5.8855585, 49.5186637], [5.8854581, 49.5185857], [5.8853887, 49.5184578], [5.8853378, 49.5183952], [5.8852317, 49.5182396], [5.885119, 49.5180637], [5.8850152, 49.5178965], [5.8847951, 49.5175035], [5.884603, 49.5171706], [5.8846499, 49.5171547], [5.8845386, 49.51695], [5.8844105, 49.5167508], [5.8843045, 49.5166117], [5.8841043, 49.5163844], [5.8837753, 49.5160108], [5.8835874, 49.5157789], [5.8835211, 49.51568], [5.8834703, 49.5155899], [5.8834198, 49.5154707], [5.8834033, 49.5154039], [5.8833958, 49.5153734], [5.8833763, 49.5152775], [5.8833486, 49.5150626], [5.8833319, 49.5148607], [5.883338, 49.5145525], [5.8837084, 49.5141004], [5.8841233, 49.5135565], [5.8842919, 49.5133014], [5.8843638, 49.513197], [5.8844334, 49.5131203], [5.8845589, 49.5130044], [5.8847023, 49.5128683], [5.8847517, 49.5128103], [5.8847854, 49.5127625], [5.884826, 49.5126711], [5.8848803, 49.5124676], [5.8849216, 49.512263], [5.8849406, 49.5120671], [5.8849656, 49.5115938], [5.8849795, 49.5115039], [5.8850064, 49.511438], [5.8850852, 49.5113133], [5.8852468, 49.5111061], [5.8854487, 49.510856], [5.8856463, 49.5105951], [5.8856846, 49.5105197], [5.885705, 49.5104631], [5.8857165, 49.5104065], [5.8857147, 49.5103296], [5.8857084, 49.5102555], [5.8856933, 49.5101785], [5.8856003, 49.5098852], [5.8854455, 49.5095093], [5.885217, 49.5089779], [5.8851631, 49.5088428], [5.8851269, 49.5087461], [5.8850886, 49.5086219], [5.8850602, 49.5085289], [5.8850331, 49.508411], [5.8850028, 49.5082491], [5.8849814, 49.508106], [5.8849677, 49.5079757], [5.8849542, 49.5078138], [5.884933, 49.5074375], [5.8849214, 49.5073198], [5.8849119, 49.5072341], [5.8848591, 49.5069231], [5.884824, 49.5067402], [5.8848222, 49.506731], [5.8847877, 49.5065519], [5.8847768, 49.5065054], [5.8847582, 49.5064528], [5.8847318, 49.5063925], [5.8846932, 49.5063285], [5.8846556, 49.506282], [5.8846068, 49.5062383], [5.8839947, 49.5063566], [5.8839599, 49.5063633], [5.8837731, 49.5063994], [5.8833888, 49.5064736], [5.8833286, 49.5064853], [5.8829956, 49.5059517], [5.8829052, 49.5057918], [5.8828612, 49.5056944], [5.882837, 49.5056305], [5.8828152, 49.5055521], [5.882809, 49.505462], [5.8828058, 49.5052559], [5.8828583, 49.5046644], [5.8828205, 49.5042534], [5.8827042, 49.50319], [5.8826663, 49.5024391], [5.8826697, 49.5022388], [5.882686, 49.5020711], [5.8827, 49.5019608], [5.8827709, 49.5018452], [5.882844, 49.5017314], [5.8829531, 49.501548], [5.8830552, 49.5013761], [5.8831971, 49.5011267], [5.8833535, 49.5008585], [5.8835423, 49.5005185], [5.8836301, 49.5003634], [5.8837469, 49.5002032], [5.883833, 49.5000864], [5.8839081, 49.4999995], [5.8839877, 49.4999111], [5.8840561, 49.4998394], [5.8841065, 49.4997858], [5.8841444, 49.4997418], [5.8842017, 49.4996679], [5.8842421, 49.4996099], [5.8842703, 49.4995541], [5.8842917, 49.4995019], [5.8843168, 49.4994127], [5.884325, 49.499335], [5.8843278, 49.4992436], [5.8843283, 49.4991358], [5.8843458, 49.4989166], [5.884358, 49.4987641], [5.8842383, 49.4987982], [5.8828077, 49.4990161], [5.881834, 49.4991667], [5.8818249, 49.4991681], [5.8812994, 49.4990783], [5.8809465, 49.4990281], [5.8803029, 49.4989459], [5.8797571, 49.4988699], [5.8789421, 49.4987727], [5.8788427, 49.4989408], [5.8787085, 49.4989462], [5.8787056, 49.4989463], [5.8786688, 49.4989455], [5.8786121, 49.498933], [5.878384, 49.4988663], [5.8782506, 49.4988239], [5.8780382, 49.4987508], [5.8776766, 49.4986247], [5.8774497, 49.4985435], [5.8773674, 49.4985172], [5.8773074, 49.4985003], [5.8772473, 49.4984871], [5.8771549, 49.4984695], [5.8770035, 49.4984437], [5.8769022, 49.4984318], [5.876258, 49.4983692], [5.8761745, 49.4983574], [5.8756297, 49.4982567], [5.8755308, 49.4983878], [5.8750513, 49.498388], [5.8748351, 49.4983955], [5.8746289, 49.4984051], [5.8743557, 49.4984335], [5.8741567, 49.4984474], [5.8741551, 49.4984475], [5.8740089, 49.4984492], [5.8738729, 49.4984481], [5.8737738, 49.4984515], [5.8736534, 49.4984628], [5.8735778, 49.4984734], [5.8735017, 49.4984842], [5.8734351, 49.4984962], [5.8733823, 49.4985057], [5.8733143, 49.4985215], [5.8732606, 49.4985409], [5.8732041, 49.498566], [5.8730645, 49.4986331], [5.8729817, 49.4986779], [5.8728766, 49.4987452], [5.8727241, 49.4988603], [5.8726964, 49.4988812], [5.8726079, 49.4989507], [5.8725519, 49.4989992], [5.8725014, 49.4990549], [5.8724625, 49.4991117], [5.8724354, 49.4991646], [5.8724151, 49.4992139], [5.8723821, 49.499322], [5.8723706, 49.4993881], [5.8723769, 49.4994389], [5.8723945, 49.4994876], [5.8724187, 49.4995356], [5.8724765, 49.4996288], [5.8721293, 49.500028], [5.8720658, 49.5001011], [5.8719233, 49.5002649], [5.8713125, 49.4999947], [5.87069, 49.4997124], [5.8699953, 49.4993957], [5.8698065, 49.4993179], [5.8697518, 49.4992984], [5.8696854, 49.4992812], [5.8695325, 49.4992926], [5.8693308, 49.4993275], [5.8693204, 49.4993303], [5.8687662, 49.4994795], [5.8678021, 49.4997498], [5.8671561, 49.4999392], [5.8670835, 49.4999587], [5.867017, 49.499969], [5.8669526, 49.4999728], [5.8668398, 49.4999751], [5.8666123, 49.4999745], [5.8665317, 49.4999604], [5.8664869, 49.4999526], [5.8662624, 49.4999133], [5.8654919, 49.5003358], [5.8649563, 49.5006742], [5.8643826, 49.5009849], [5.864227, 49.5008827], [5.8642222, 49.5008795], [5.8641093, 49.5009387], [5.8640072, 49.5010047], [5.8639052, 49.5010608], [5.863795, 49.5011209], [5.8636556, 49.5012104], [5.8634979, 49.501307], [5.863316, 49.5014167], [5.8632542, 49.5014462], [5.8631906, 49.5014677], [5.8631321, 49.5014852], [5.8630857, 49.5015041], [5.8630382, 49.5015303], [5.8629948, 49.501559], [5.8629543, 49.5015917], [5.8628966, 49.5016414], [5.8627925, 49.5017139], [5.8626924, 49.501774], [5.8626399, 49.5017994], [5.8625743, 49.5018229], [5.8624946, 49.5018509], [5.8624583, 49.5018718], [5.8624188, 49.5019077], [5.8623489, 49.5019758], [5.8623231, 49.5019955], [5.8622635, 49.5020308], [5.8622311, 49.502053], [5.862225, 49.5020707], [5.8622259, 49.5020845], [5.8622409, 49.5021016], [5.862301, 49.5021529], [5.8623069, 49.5021693], [5.8623108, 49.502191], [5.8623006, 49.5022132], [5.8622844, 49.5022302], [5.8622652, 49.5022394], [5.8622309, 49.5022472], [5.8621906, 49.5022569], [5.8621744, 49.5022647], [5.8621623, 49.5022752], [5.8621521, 49.5022909], [5.862148, 49.5023106], [5.8621478, 49.5023335], [5.8621694, 49.5024195], [5.8621713, 49.502451], [5.862164, 49.502484], [5.8621507, 49.5025155], [5.8621264, 49.5025403], [5.8621031, 49.50256], [5.8620919, 49.5025809], [5.8620898, 49.5026026], [5.8620986, 49.5026367], [5.8621154, 49.5026918], [5.8621183, 49.5027148], [5.8621121, 49.5027351], [5.8620999, 49.5027554], [5.8620695, 49.5027894], [5.8620502, 49.5028195], [5.86204, 49.5028438], [5.8620418, 49.5028661], [5.8620617, 49.502918], [5.8620905, 49.5029839], [5.8620963, 49.5030206], [5.8620921, 49.5030528], [5.8620798, 49.5030914], [5.8620614, 49.5031268], [5.862032, 49.5031641], [5.8620026, 49.5031948], [5.8619733, 49.5032184], [5.8619258, 49.5032419], [5.8618794, 49.5032581], [5.861824, 49.5032704], [5.8617726, 49.5032749], [5.8617061, 49.5032767], [5.8616468, 49.5032739], [5.8615703, 49.5032659], [5.8615378, 49.5032654], [5.8615066, 49.5032692], [5.8614521, 49.5032855], [5.8614158, 49.5032952], [5.8613533, 49.5033062], [5.861318, 49.503316], [5.8612797, 49.503329], [5.8612464, 49.5033486], [5.8611563, 49.5034224], [5.861131, 49.5034466], [5.8611188, 49.5034676], [5.8611196, 49.5034899], [5.8611305, 49.503526], [5.8611383, 49.5035562], [5.8611362, 49.5035706], [5.8611241, 49.5035824], [5.8611069, 49.5035915], [5.8610908, 49.5035974], [5.8610656, 49.5035986], [5.8609015, 49.5035949], [5.8608776, 49.5035978], [5.8608524, 49.5036043], [5.8608312, 49.5036147], [5.8607888, 49.5036389], [5.8607636, 49.503648], [5.8607303, 49.5036506], [5.8606367, 49.5036523], [5.8605944, 49.5036574], [5.8605631, 49.5036711], [5.8605206, 49.5036959], [5.8603869, 49.5038254], [5.8602927, 49.5039144], [5.8601966, 49.5039935], [5.8601769, 49.5040049], [5.8601496, 49.5040127], [5.8601224, 49.5040172], [5.8600891, 49.5040256], [5.860069, 49.5040341], [5.8599962, 49.5040785], [5.8599608, 49.5041066], [5.8599536, 49.5041223], [5.8599545, 49.5041518], [5.8599623, 49.504186], [5.8599602, 49.5042043], [5.859951, 49.5042154], [5.8599349, 49.5042259], [5.8599167, 49.5042331], [5.8598986, 49.5042337], [5.8598744, 49.5042303], [5.859797, 49.5042085], [5.8597749, 49.5042065], [5.8597588, 49.5042064], [5.8597457, 49.5042103], [5.8597356, 49.5042149], [5.8597215, 49.5042221], [5.8597093, 49.5042332], [5.8596592, 49.5043491], [5.859653, 49.5043813], [5.8596578, 49.504418], [5.8596627, 49.5044482], [5.8596565, 49.5044698], [5.8596423, 49.5044855], [5.859621, 49.5045005], [5.8595675, 49.5045266], [5.8594831, 49.5045606], [5.8594477, 49.5045822], [5.8594295, 49.5046025], [5.8594223, 49.5046202], [5.8594201, 49.5046464], [5.8594405, 49.5047625], [5.8594502, 49.5048314], [5.8594469, 49.5048668], [5.8594397, 49.504899], [5.8594151, 49.5049592], [5.8593927, 49.5050018], [5.8593674, 49.5050293], [5.8593471, 49.5050469], [5.8593209, 49.5050639], [5.8592704, 49.5050854], [5.8592039, 49.5051124], [5.8591746, 49.50513], [5.8591523, 49.505149], [5.859134, 49.5051699], [5.8591218, 49.5051922], [5.8591176, 49.5052217], [5.8591225, 49.5052512], [5.8591394, 49.5052807], [5.8591793, 49.5053366], [5.8591922, 49.5053681], [5.859192, 49.5053944], [5.8591879, 49.5054107], [5.8591767, 49.5054271], [5.8591605, 49.5054428], [5.8591373, 49.5054532], [5.8591071, 49.5054571], [5.8590611, 49.5054573], [5.8590007, 49.5054532], [5.8589725, 49.5054544], [5.8589604, 49.5054584], [5.8589503, 49.5054655], [5.8589452, 49.505476], [5.8589407, 49.5055403], [5.8589315, 49.5055632], [5.8589133, 49.5055848], [5.8588687, 49.5056254], [5.8588545, 49.505645], [5.8588463, 49.5056679], [5.8588461, 49.5056948], [5.858857, 49.5057276], [5.8589039, 49.5057966], [5.8589188, 49.5058308], [5.8589206, 49.505861], [5.8589164, 49.5058852], [5.8589002, 49.5059062], [5.8588799, 49.5059199], [5.8588497, 49.5059316], [5.8588184, 49.5059394], [5.8587328, 49.5059457], [5.8586336, 49.5059542], [5.8585651, 49.5059619], [5.8585227, 49.505969], [5.8584582, 49.5059852], [5.8583815, 49.5060145], [5.8582583, 49.5060732], [5.8582169, 49.5060869], [5.8581807, 49.5060927], [5.8581293, 49.5060945], [5.8580689, 49.5060944], [5.8580045, 49.5060889], [5.8579361, 49.5060848], [5.8579018, 49.5060854], [5.8578706, 49.5060892], [5.8578474, 49.5060971], [5.8578251, 49.5061121], [5.8577165, 49.5062067], [5.8576619, 49.5062426], [5.8575882, 49.5062765], [5.8575095, 49.5063038], [5.8573895, 49.5063363], [5.8573441, 49.506346], [5.8573139, 49.5063466], [5.8572999, 49.5063426], [5.8572819, 49.5063157], [5.8572711, 49.506275], [5.8572622, 49.5062514], [5.8572482, 49.5062375], [5.8572301, 49.506227], [5.85721, 49.5062224], [5.8571858, 49.5062249], [5.8571606, 49.5062334], [5.8571172, 49.5062529], [5.8570545, 49.5062954], [5.8569907, 49.5063484], [5.8569462, 49.5063804], [5.8569139, 49.5063914], [5.8568968, 49.506396], [5.8568847, 49.5063966], [5.8568656, 49.5063939], [5.8568455, 49.5063867], [5.8567743, 49.5063504], [5.8567117, 49.5063234], [5.8566604, 49.5063088], [5.8566111, 49.5063001], [5.8565447, 49.5062947], [5.8564974, 49.5062959], [5.856439, 49.5063016], [5.8563745, 49.5063159], [5.8563371, 49.5063329], [5.8563199, 49.5063505], [5.8563107, 49.5063682], [5.8563055, 49.5063957], [5.8563142, 49.5064436], [5.856321, 49.5064843], [5.8563209, 49.5065079], [5.8563127, 49.5065263], [5.8562904, 49.5065459], [5.8562713, 49.5065544], [5.856244, 49.5065615], [5.8562118, 49.5065647], [5.8561816, 49.506562], [5.8561565, 49.5065547], [5.8561394, 49.5065435], [5.8561154, 49.5065225], [5.8560913, 49.5065073], [5.8560652, 49.5064968], [5.85602, 49.5064848], [5.8559879, 49.5064716], [5.8559668, 49.5064591], [5.8559317, 49.5064367], [5.8559126, 49.5064314], [5.8558975, 49.5064307], [5.8558804, 49.5064326], [5.8558632, 49.5064398], [5.8558501, 49.5064503], [5.8558349, 49.5064679], [5.8557586, 49.5065904], [5.8557401, 49.5066072], [5.8557169, 49.5066169], [5.8557028, 49.5066202], [5.8556816, 49.5066201], [5.8556645, 49.5066188], [5.8556364, 49.5066036], [5.8555481, 49.5065575], [5.855516, 49.5065495], [5.8554878, 49.5065468], [5.8554536, 49.506548], [5.8554253, 49.5065525], [5.855389, 49.5065629], [5.8553527, 49.5065746], [5.8553284, 49.506589], [5.8553133, 49.5066021], [5.8553, 49.5066276], [5.8552887, 49.5066669], [5.8552754, 49.5066951], [5.8552572, 49.5067121], [5.855236, 49.5067271], [5.8552147, 49.5067376], [5.8551784, 49.5067473], [5.8551442, 49.5067531], [5.855121, 49.506755], [5.8551059, 49.5067517], [5.8550869, 49.5067385], [5.8550739, 49.5067234], [5.8550699, 49.5067083], [5.8550644, 49.5066237], [5.8550585, 49.5066138], [5.8550424, 49.5066027], [5.8550223, 49.506598], [5.8549921, 49.5066005], [5.8549699, 49.5066038], [5.8549386, 49.5066155], [5.8548831, 49.5066462], [5.8548204, 49.506688], [5.854791, 49.5067135], [5.8547687, 49.5067475], [5.8547329, 49.5068248], [5.8547106, 49.5068543], [5.8546812, 49.5068791], [5.85466, 49.5068922], [5.8546338, 49.5068993], [5.8545955, 49.5069032], [5.8545663, 49.5069014], [5.8545371, 49.506898], [5.8544999, 49.5068894], [5.8544155, 49.5068616], [5.8543612, 49.506851], [5.8543189, 49.5068463], [5.8542908, 49.5068462], [5.8542615, 49.5068507], [5.8542434, 49.5068566], [5.8542221, 49.5068683], [5.8542009, 49.5068886], [5.8541805, 49.5069194], [5.854148, 49.5069757], [5.8541318, 49.5069848], [5.8541227, 49.5069868], [5.8541016, 49.5069867], [5.8540774, 49.5069808], [5.8539699, 49.5069542], [5.8539417, 49.5069515], [5.8539216, 49.5069561], [5.8539054, 49.5069665], [5.8538882, 49.5069802], [5.8537776, 49.5071072], [5.8537301, 49.5071464], [5.8537027, 49.5071673], [5.8536785, 49.5071784], [5.8536472, 49.5071842], [5.85361, 49.5071848], [5.8534872, 49.5071799], [5.8533945, 49.5071816], [5.8533682, 49.5071794], [5.8533562, 49.5071754], [5.8533381, 49.5071682], [5.8533251, 49.507157], [5.8533101, 49.5071386], [5.8532692, 49.5070709], [5.8532542, 49.5070591], [5.8532391, 49.5070564], [5.853224, 49.507055], [5.8532079, 49.5070602], [5.8531968, 49.5070661], [5.8531563, 49.5071047], [5.8531401, 49.5071171], [5.8531169, 49.5071249], [5.8529495, 49.5071645], [5.8529142, 49.5071775], [5.8528899, 49.5071912], [5.8528656, 49.5072082], [5.8527715, 49.5072847], [5.8526734, 49.5073552], [5.8525693, 49.5074225], [5.85245, 49.5074943], [5.8523394, 49.5075546], [5.8522526, 49.5075885], [5.8521931, 49.5076119], [5.852076, 49.5076483], [5.8520276, 49.5076653], [5.8519963, 49.5076789], [5.85197, 49.5076913], [5.8519458, 49.5077064], [5.8519094, 49.5077325], [5.8518527, 49.5077789], [5.8516457, 49.5079178], [5.851408, 49.5080785], [5.8513669, 49.5081011], [5.8513415, 49.5081071], [5.8513366, 49.5081082], [5.8513003, 49.5081173], [5.851261, 49.5081192], [5.8512147, 49.5081204], [5.8511543, 49.508115], [5.8511141, 49.5081083], [5.8510649, 49.5080937], [5.8510347, 49.5080825], [5.8510006, 49.5080713], [5.8509734, 49.5080646], [5.8509493, 49.5080633], [5.8509322, 49.5080645], [5.850911, 49.508069], [5.8508726, 49.5080807], [5.850799, 49.5081114], [5.8506318, 49.5081849], [5.8505802, 49.5082116], [5.8505368, 49.5082391], [5.8504791, 49.5082881], [5.8504122, 49.5083535], [5.8503028, 49.5084483], [5.8501713, 49.5085503], [5.8500038, 49.5086754], [5.8499258, 49.508746], [5.8498072, 49.5088644], [5.8497646, 49.5089128], [5.8497455, 49.5089438], [5.8497332, 49.5089733], [5.849728, 49.5090068], [5.8497247, 49.5090409], [5.8497255, 49.5090737], [5.8497262, 49.5091209], [5.849732, 49.5091603], [5.8497448, 49.5092101], [5.8497496, 49.5092423], [5.8495511, 49.5096003], [5.8494032, 49.5099039], [5.8493576, 49.509988], [5.8493149, 49.5100535], [5.8492641, 49.5101143], [5.8491972, 49.5101883], [5.8491222, 49.5102595], [5.8490362, 49.5103328], [5.8489856, 49.5103667], [5.848929, 49.5103987], [5.8489146, 49.5104127], [5.8489105, 49.5104271], [5.8489124, 49.5104428], [5.8489203, 49.5104632], [5.8489591, 49.51054], [5.8489691, 49.5105617], [5.848971, 49.5105801], [5.8489688, 49.5106037], [5.8489646, 49.510624], [5.848943, 49.5106922], [5.8489347, 49.51074], [5.8489344, 49.5107859], [5.8489471, 49.5108411], [5.8490056, 49.5109875], [5.8490265, 49.5110481], [5.8490363, 49.5110901], [5.8490401, 49.5111255], [5.8490429, 49.5111609], [5.8490396, 49.5112003], [5.8490303, 49.5112357], [5.8490211, 49.5112599], [5.8490028, 49.5112933], [5.8489824, 49.5113333], [5.8489711, 49.5113582], [5.8489659, 49.5113831], [5.8489666, 49.511405], [5.8489734, 49.5114358], [5.8489912, 49.5114949], [5.848995, 49.5115218], [5.8489928, 49.511552], [5.8489926, 49.511588], [5.8489954, 49.5116195], [5.8490083, 49.5116484], [5.849046, 49.5117377], [5.8490529, 49.5117607], [5.8490557, 49.5117935], [5.8490555, 49.5118329], [5.8490438, 49.5119293], [5.8490256, 49.5120804], [5.8490293, 49.5121283], [5.8490392, 49.5121644], [5.8490549, 49.5122156], [5.8490848, 49.5122767], [5.8490906, 49.5123006], [5.8490914, 49.5123295], [5.8490852, 49.5123544], [5.849075, 49.5123754], [5.8490536, 49.5124179], [5.8490301, 49.5124658], [5.8490249, 49.5124946], [5.8490248, 49.5125176], [5.8490316, 49.5125445], [5.8490436, 49.5125648], [5.8490566, 49.5125826], [5.8490986, 49.5126201], [5.8491537, 49.5126747], [5.8491596, 49.5126893], [5.8491655, 49.512709], [5.8491654, 49.51273], [5.8491612, 49.5127484], [5.849152, 49.5127719], [5.8491326, 49.5128099], [5.8490419, 49.512975], [5.8490316, 49.513009], [5.8490213, 49.5130562], [5.8490026, 49.5131575], [5.8489903, 49.5131988], [5.8489719, 49.5132361], [5.8489536, 49.5132616], [5.8489353, 49.5132852], [5.8489191, 49.5133075], [5.8489119, 49.513331], [5.8488983, 49.5134071], [5.848891, 49.5134366], [5.8488737, 49.51347], [5.8488503, 49.5135047], [5.8488026, 49.5135669], [5.8487925, 49.5135868], [5.8487894, 49.5136045], [5.8487933, 49.5136169], [5.8488053, 49.5136275], [5.8488395, 49.5136426], [5.8488495, 49.5136525], [5.8488524, 49.513665], [5.8488483, 49.5136814], [5.8488371, 49.513701], [5.8487844, 49.5137488], [5.8487621, 49.5137749], [5.8487539, 49.5137952], [5.8487518, 49.5138136], [5.8487566, 49.5138379], [5.8487754, 49.5138904], [5.8487773, 49.5139134], [5.8487742, 49.5139317], [5.8487609, 49.5139494], [5.8487427, 49.5139664], [5.84866, 49.5140156], [5.8485943, 49.5140581], [5.8485599, 49.5140849], [5.8485376, 49.5141071], [5.8485243, 49.5141268], [5.8485202, 49.5141458], [5.848518, 49.5141674], [5.8485205, 49.5142481], [5.8485163, 49.5142835], [5.848506, 49.5143189], [5.8484916, 49.5143615], [5.8484435, 49.5144788], [5.8484224, 49.5145111], [5.8484021, 49.5145307], [5.8483779, 49.5145483], [5.8483475, 49.5145627], [5.8482315, 49.5145971], [5.8480691, 49.514638], [5.8479944, 49.5146608], [5.8479581, 49.5146771], [5.8479298, 49.514694], [5.8479035, 49.5147143], [5.8478731, 49.514745], [5.8478506, 49.5147837], [5.8478424, 49.5148086], [5.8478362, 49.5148309], [5.8478351, 49.5148473], [5.847836, 49.5148643], [5.8478509, 49.5149037], [5.8478523, 49.5149191], [5.8478441, 49.5149368], [5.8478259, 49.5149499], [5.8477925, 49.5149642], [5.8477532, 49.5149752], [5.8477109, 49.5149804], [5.84759, 49.514984], [5.8475074, 49.5149896], [5.8474429, 49.5149973], [5.8473804, 49.5150103], [5.847342, 49.5150266], [5.8473177, 49.5150409], [5.8472459, 49.5150886], [5.8472161, 49.5151035], [5.8471949, 49.51511], [5.8471727, 49.5151132], [5.8471445, 49.5151124], [5.8470318, 49.515101], [5.8469956, 49.5150989], [5.8469634, 49.5151001], [5.8469361, 49.5151066], [5.8469068, 49.5151164], [5.8468614, 49.5151353], [5.8467927, 49.5151653], [5.8467524, 49.515175], [5.8467101, 49.5151795], [5.8466415, 49.5151858], [5.8465921, 49.5151955], [5.8465568, 49.5152079], [5.8465326, 49.5152183], [5.8465043, 49.5152353], [5.846484, 49.5152549], [5.8464616, 49.515285], [5.84642, 49.5153439], [5.8463993, 49.5153633], [5.8463669, 49.5153855], [5.8463295, 49.5154064], [5.8462669, 49.5154337], [5.8461579, 49.5154715], [5.8459863, 49.5155228], [5.8457987, 49.5155748], [5.8456081, 49.5156195], [5.845433, 49.5156609], [5.8453866, 49.5156667], [5.8453514, 49.5156685], [5.8453242, 49.5156665], [5.845288, 49.5156592], [5.8452629, 49.5156493], [5.8452298, 49.5156302], [5.8451105, 49.5155459], [5.8450798, 49.5155321], [5.8450526, 49.5155248], [5.8450194, 49.5155227], [5.8449942, 49.5155246], [5.8449761, 49.5155305], [5.8449609, 49.5155416], [5.8449376, 49.5155645], [5.8449092, 49.5155972], [5.8448879, 49.5156142], [5.8448627, 49.515624], [5.8448133, 49.515635], [5.8447306, 49.5156498], [5.8446922, 49.5156589], [5.8446619, 49.5156719], [5.8445993, 49.5157059], [5.8445386, 49.5157411], [5.8445063, 49.5157515], [5.8444438, 49.5157605], [5.8440908, 49.5157987], [5.8440525, 49.5158064], [5.8440121, 49.5158175], [5.8439879, 49.5158279], [5.8439646, 49.5158436], [5.8439454, 49.5158612], [5.8439291, 49.5158842], [5.8438771, 49.5159798], [5.8438619, 49.5159928], [5.8438357, 49.5160079], [5.8438165, 49.5160157], [5.8437761, 49.5160234], [5.8436108, 49.5160446], [5.8435717, 49.5160547], [5.8435475, 49.5160651], [5.8435293, 49.5160742], [5.8435141, 49.516086], [5.843505, 49.5160984], [5.8434978, 49.5161135], [5.8434987, 49.5161286], [5.8435106, 49.5161548], [5.8435296, 49.5161825], [5.8435506, 49.5162068], [5.8435866, 49.5162515], [5.8435905, 49.5162692], [5.8435893, 49.5162869], [5.8435802, 49.5163046], [5.8435721, 49.5163124], [5.8434429, 49.5163521], [5.8433995, 49.5163671], [5.8433358, 49.5163957], [5.8432924, 49.5164192], [5.8431984, 49.5164741], [5.8431637, 49.5164908], [5.8431385, 49.5164973], [5.8431184, 49.5164998], [5.8430992, 49.5164991], [5.8430781, 49.5164971], [5.843049, 49.5164872], [5.8429445, 49.516443], [5.8429174, 49.5164363], [5.8428942, 49.516433], [5.842864, 49.5164322], [5.8428388, 49.5164354], [5.8428108, 49.5164444], [5.8427875, 49.5164555], [5.8427613, 49.5164719], [5.8426914, 49.5165281], [5.842653, 49.5165516], [5.8426237, 49.5165646], [5.8425803, 49.5165789], [5.8424572, 49.5166061], [5.8424149, 49.5166191], [5.8423845, 49.5166374], [5.8423613, 49.5166557], [5.8423268, 49.5166864], [5.8422527, 49.5167682], [5.8422197, 49.5167902], [5.8421632, 49.5168156], [5.8421157, 49.5168312], [5.8420744, 49.5168396], [5.8419061, 49.516849], [5.8418286, 49.516852], [5.8418024, 49.5168493], [5.8417763, 49.5168414], [5.841718, 49.5168216], [5.8416898, 49.5168169], [5.8416495, 49.5168187], [5.8415024, 49.51684], [5.8414141, 49.5168501], [5.8413667, 49.5168591], [5.8413102, 49.516874], [5.8412637, 49.516891], [5.8412284, 49.5169112], [5.841198, 49.5169314], [5.841127, 49.5170067], [5.8410946, 49.5170348], [5.841042, 49.517074], [5.8408012, 49.5172438], [5.8407694, 49.517263], [5.8406291, 49.5173177], [5.8405382, 49.5173555], [5.8404887, 49.5173803], [5.8404646, 49.5173965], [5.8404382, 49.5174226], [5.8403742, 49.5175071], [5.840352, 49.5175208], [5.8403298, 49.5175279], [5.8403096, 49.5175292], [5.8402835, 49.5175258], [5.8402302, 49.5175132], [5.840209, 49.5175138], [5.8401909, 49.5175164], [5.8401626, 49.5175274], [5.8401323, 49.5175464], [5.840108, 49.517566], [5.8400836, 49.5175941], [5.8400653, 49.5176236], [5.840057, 49.5176505], [5.8400558, 49.5176839], [5.8400627, 49.5177134], [5.8400805, 49.5177561], [5.8401053, 49.517812], [5.8401064, 49.5178286], [5.8400992, 49.517843], [5.840082, 49.5178554], [5.8400467, 49.5178691], [5.8399922, 49.5178795], [5.8398995, 49.5178897], [5.8398219, 49.5178927], [5.8397917, 49.517894], [5.8397675, 49.5178959], [5.8397524, 49.517903], [5.8397402, 49.5179115], [5.8397341, 49.5179246], [5.8397328, 49.5179673], [5.8397386, 49.5180066], [5.8397484, 49.5180486], [5.8397634, 49.5180703], [5.8397894, 49.5180921], [5.8398365, 49.5181237], [5.8398475, 49.5181355], [5.8398534, 49.5181513], [5.8398563, 49.5181716], [5.8398476, 49.5182772], [5.8398194, 49.5184168], [5.8398074, 49.5184543], [5.8397951, 49.5184759], [5.8397667, 49.5185099], [5.8397038, 49.518574], [5.8396735, 49.5185956], [5.8396371, 49.5186145], [5.8395957, 49.5186341], [5.839524, 49.5186621], [5.8394765, 49.518679], [5.8393807, 49.518705], [5.8393396, 49.5187217], [5.8393012, 49.5187452], [5.8392496, 49.5187831], [5.8391979, 49.5188242], [5.8391199, 49.5188975], [5.8390754, 49.5189288], [5.8390269, 49.5189549], [5.8389763, 49.5189856], [5.838946, 49.5190059], [5.8388497, 49.5190961], [5.8387348, 49.519161], [5.8386771, 49.5191996], [5.8385173, 49.5193113], [5.8383504, 49.5194125], [5.838219, 49.5194888], [5.8381634, 49.5195162], [5.8381371, 49.519524], [5.8381317, 49.5195238], [5.8381132, 49.5195229], [5.8380942, 49.519515], [5.8380302, 49.5194848], [5.8379571, 49.5194545], [5.837898, 49.5194367], [5.8378268, 49.5194201], [5.8377295, 49.5194114], [5.8376614, 49.5194151], [5.8375509, 49.5194265], [5.8374605, 49.519442], [5.837371, 49.5194692], [5.8372139, 49.51954], [5.8370946, 49.5195892], [5.8370032, 49.5196111], [5.8369117, 49.5196266], [5.8367229, 49.5196417], [5.8365792, 49.5196609], [5.8364917, 49.5196836], [5.836382, 49.519727], [5.8362726, 49.519788], [5.8361455, 49.5198733], [5.8360829, 49.5199306], [5.8360566, 49.5199632], [5.8360312, 49.5200089], [5.8360085, 49.5200958], [5.835992, 49.5201688], [5.8359666, 49.5202138], [5.8359423, 49.5202503], [5.8359341, 49.5202758], [5.83594, 49.5202987], [5.8359589, 49.5203197], [5.8360048, 49.5203656], [5.8360118, 49.5203795], [5.8360107, 49.5204017], [5.8359974, 49.5204357], [5.8359505, 49.5205395], [5.835933, 49.5206022], [5.8359335, 49.5206794], [5.8359459, 49.5207736], [5.8359437, 49.5208089], [5.8359356, 49.5208226], [5.8359154, 49.520831], [5.8358752, 49.5208414], [5.835843, 49.5208524], [5.8358359, 49.5208592], [5.8358328, 49.5208716], [5.8358285, 49.5209135], [5.8358303, 49.520952], [5.835838, 49.5209985], [5.8358519, 49.5210325], [5.8358698, 49.5210554], [5.8358947, 49.5210745], [5.8359658, 49.5211074], [5.8359796, 49.5211162], [5.8359975, 49.5211352], [5.8360194, 49.5211621], [5.8360444, 49.5211824], [5.8360804, 49.5212034], [5.8361324, 49.5212252], [5.8361564, 49.5212409], [5.8361773, 49.5212632], [5.8361882, 49.521292], [5.836192, 49.521326], [5.8361867, 49.5213698], [5.8361753, 49.521411], [5.836154, 49.5214514], [5.8361205, 49.5215023], [5.8360819, 49.5215679], [5.8360655, 49.5216137], [5.8360572, 49.5216568], [5.8360559, 49.5216993], [5.8360566, 49.5217496], [5.8360534, 49.5217843], [5.8360443, 49.5218107], [5.8360241, 49.5218368], [5.8360039, 49.521859], [5.8359766, 49.5218824], [5.8359322, 49.5219124], [5.8358515, 49.521969], [5.8358071, 49.5220022], [5.8357839, 49.522029], [5.8357676, 49.5220564], [5.8357534, 49.5220871], [5.8357451, 49.5221165], [5.8357429, 49.5221518], [5.8357455, 49.5222047], [5.835758, 49.5222943], [5.8357655, 49.5223834], [5.8357716, 49.5225253], [5.8357738, 49.5226436], [5.8357676, 49.522678], [5.8357523, 49.5227054], [5.8357241, 49.5227308], [5.8356676, 49.5227686], [5.8353411, 49.5229527], [5.8353182, 49.5229498], [5.8352456, 49.5229407], [5.8347127, 49.5228742], [5.834702, 49.5230021], [5.8346799, 49.523267], [5.8346618, 49.5234843], [5.8346595, 49.523512], [5.8346374, 49.5237763], [5.8344275, 49.5237422], [5.8342998, 49.5237214], [5.8342954, 49.5240784], [5.8342928, 49.5244487], [5.8343951, 49.5244504], [5.8344364, 49.5244511], [5.8344624, 49.5244513], [5.8344418, 49.5247933], [5.8344264, 49.5250657], [5.8344278, 49.5253085], [5.8344266, 49.5254849], [5.8344181, 49.5256131], [5.8343961, 49.5257339], [5.8343649, 49.5258693], [5.8342985, 49.5260659], [5.8342447, 49.5261752], [5.8341152, 49.5263847], [5.8343325, 49.5266167], [5.8344702, 49.5267601], [5.8344908, 49.5267815], [5.8345087, 49.5267996], [5.8346254, 49.5269172], [5.8347228, 49.5270106], [5.8347587, 49.5270401], [5.8348207, 49.5270841], [5.8348707, 49.5271143], [5.8349207, 49.5271347], [5.8349949, 49.5271578], [5.835067, 49.5271731], [5.8354401, 49.5272389], [5.8356981, 49.5272831], [5.8359287, 49.5273289], [5.8361904, 49.5273807], [5.8364591, 49.5274377], [5.8366756, 49.5274814], [5.8376513, 49.5276807], [5.8376461, 49.527699], [5.8377568, 49.5277194], [5.83782, 49.5277287], [5.8378912, 49.5277322], [5.8380588, 49.5277405], [5.8381512, 49.527748], [5.8382003, 49.5277521], [5.8382364, 49.5277607], [5.8382595, 49.5277673], [5.8384417, 49.5278325], [5.8387722, 49.5279544], [5.8391638, 49.5280965], [5.8392762, 49.5281373], [5.8393392, 49.528178], [5.8394212, 49.5282175], [5.8395123, 49.5282537], [5.8396205, 49.5283004], [5.8397178, 49.5283533], [5.8398118, 49.5284111], [5.8398978, 49.5284662], [5.8399648, 49.5284971], [5.8400369, 49.5285287], [5.8401451, 49.528563], [5.8403064, 49.5286106], [5.8403775, 49.5286363], [5.8404336, 49.5286599], [5.8405527, 49.5287191], [5.8406808, 49.5287724], [5.840764, 49.5288021], [5.8408665, 49.5288321], [5.8410759, 49.5288896], [5.8413124, 49.5289536], [5.8414377, 49.52899], [5.841611, 49.5290467], [5.84177, 49.5290966], [5.8420424, 49.5291876], [5.8422919, 49.5292739], [5.8427431, 49.5294174], [5.8430257, 49.5294999], [5.8432194, 49.5295467], [5.8433783, 49.5295825], [5.8433931, 49.5295612], [5.8434148, 49.5295303], [5.8436733, 49.529599], [5.843926, 49.5296546], [5.8446068, 49.5297791], [5.8448877, 49.5298151], [5.8452288, 49.5298527], [5.8457579, 49.5298984], [5.8458085, 49.5299027], [5.8458308, 49.5298773], [5.8459566, 49.5297233], [5.8461386, 49.5294845], [5.8462997, 49.5292284], [5.8464205, 49.5292558], [5.8468526, 49.5293603], [5.8469634, 49.5293859], [5.8472109, 49.5294433], [5.847331, 49.5294713], [5.8480276, 49.5296361], [5.8485944, 49.5297758], [5.8487587, 49.529815], [5.8489764, 49.5298659], [5.8490354, 49.5298797], [5.8491674, 49.5299107], [5.8497094, 49.5300381], [5.8500147, 49.53011], [5.850055, 49.5301194], [5.8506421, 49.5298388]]]}}]}