{"type": "FeatureCollection", "features": [{"type": "Feature", "properties": {"name": "Niederkorn"}, "geometry": {"type": "Polygon", "coordinates": [[[5.8779982, 49.5459733], [5.8786261, 49.5460483], [5.8788934, 49.5460802], [5.8795985, 49.5461491], [5.880028, 49.5461851], [5.8804234, 49.5462033], [5.8813675, 49.5462202], [5.881537, 49.5463902], [5.881664, 49.5464676], [5.8818823, 49.5466006], [5.882511, 49.5469838], [5.8826002, 49.5470247], [5.8827566, 49.5471365], [5.8828976, 49.5472451], [5.8829657, 49.5472759], [5.883061, 49.5473027], [5.8831644, 49.5473194], [5.8832892, 49.5473283], [5.8834055, 49.5473431], [5.8835843, 49.5473785], [5.8837408, 49.5473905], [5.8837993, 49.5473932], [5.8840464, 49.5474055], [5.8843937, 49.5473999], [5.884627, 49.547384], [5.8848238, 49.5473667], [5.8849822, 49.5473441], [5.8850315, 49.5473304], [5.8850442, 49.5473271], [5.8850642, 49.547301], [5.8850802, 49.5472706], [5.8850754, 49.5472436], [5.885072, 49.5472326], [5.8850489, 49.5471492], [5.8850522, 49.5471004], [5.8850668, 49.5470589], [5.8852068, 49.5470491], [5.8852961, 49.5470426], [5.8853157, 49.5468039], [5.8853939, 49.5467887], [5.8853979, 49.546788], [5.8863321, 49.5466151], [5.8866858, 49.5465488], [5.8868885, 49.546517], [5.8874772, 49.5464667], [5.8875876, 49.5464575], [5.8876737, 49.5464553], [5.8877874, 49.5464544], [5.8880723, 49.5464638], [5.8884843, 49.5464783], [5.8886624, 49.5464831], [5.8889993, 49.5464998], [5.8892182, 49.5465141], [5.8895077, 49.5465355], [5.8899942, 49.5465714], [5.8900002, 49.5465314], [5.8900146, 49.5464348], [5.8900222, 49.5463838], [5.8900305, 49.5463282], [5.8900332, 49.5463097], [5.8900391, 49.5462641], [5.8900424, 49.5462374], [5.890047, 49.5462031], [5.8906975, 49.546276], [5.8907803, 49.5462853], [5.8911238, 49.5463238], [5.8911586, 49.5463277], [5.8914767, 49.5463633], [5.8917027, 49.5463886], [5.8917286, 49.5463915], [5.8918569, 49.5464059], [5.8918784, 49.5464083], [5.8920543, 49.5464298], [5.8921289, 49.5464386], [5.8926707, 49.5465025], [5.8936051, 49.5466127], [5.8941785, 49.5466803], [5.8947356, 49.546709], [5.8957393, 49.5467608], [5.8961996, 49.5467751], [5.8968237, 49.5468484], [5.8971005, 49.5468869], [5.8985431, 49.5471102], [5.9003223, 49.5471533], [5.9025526, 49.5472209], [5.9042944, 49.5472685], [5.9043375, 49.5472358], [5.9050542, 49.5472558], [5.9056239, 49.5472667], [5.9056399, 49.5472667], [5.9056314, 49.5472459], [5.905629, 49.5472307], [5.9056365, 49.5472148], [5.9056501, 49.5471988], [5.9056747, 49.5471853], [5.905698, 49.5471813], [5.9057324, 49.547183], [5.9057582, 49.5471911], [5.9057851, 49.5472079], [5.9058059, 49.5472287], [5.9058267, 49.5472384], [5.9058463, 49.5472432], [5.9058758, 49.5472433], [5.9059053, 49.5472441], [5.9059261, 49.5472506], [5.9059694, 49.547289], [5.905989, 49.5473074], [5.906011, 49.5473202], [5.9060392, 49.5473203], [5.9060749, 49.5473172], [5.9061044, 49.5473108], [5.9061351, 49.5473085], [5.9061523, 49.5473125], [5.9061682, 49.5473222], [5.9061755, 49.547339], [5.9061716, 49.547363], [5.9061678, 49.5473821], [5.9061751, 49.5473957], [5.9061886, 49.5474045], [5.9062156, 49.5474086], [5.9062402, 49.5474055], [5.9062709, 49.5473911], [5.9063116, 49.5473609], [5.9063388, 49.5473377], [5.9063585, 49.5473274], [5.906388, 49.5473155], [5.9064175, 49.5473091], [5.9064445, 49.5473084], [5.9064666, 49.5473133], [5.9064838, 49.5473221], [5.9064935, 49.5473333], [5.9064922, 49.5473589], [5.9064883, 49.5473972], [5.9064906, 49.5474156], [5.9064992, 49.5474284], [5.9065175, 49.5474437], [5.9065347, 49.5474477], [5.906558, 49.5474461], [5.9065912, 49.5474374], [5.9066576, 49.5474168], [5.9066908, 49.5474081], [5.9067203, 49.5474057], [5.9067775, 49.5474048], [5.9068097, 49.5474103], [5.9068531, 49.5474296], [5.906895, 49.5474503], [5.9069175, 49.5474617], [5.9069474, 49.5474633], [5.9069646, 49.5474593], [5.9069833, 49.5474504], [5.9069934, 49.5474363], [5.9070047, 49.5474163], [5.9070077, 49.5473871], [5.907005, 49.5473652], [5.907008, 49.5473305], [5.9070137, 49.5473177], [5.9070249, 49.5473086], [5.9070362, 49.5473014], [5.9070643, 49.5472996], [5.9071007, 49.5473088], [5.9071259, 49.5473198], [5.9071568, 49.547329], [5.9071848, 49.5473236], [5.9072102, 49.5473145], [5.9072271, 49.5472963], [5.9072244, 49.5472726], [5.9072218, 49.5472251], [5.9072052, 49.5471904], [5.9071913, 49.5471667], [5.9072026, 49.5471558], [5.907225, 49.5471576], [5.907267, 49.5471851], [5.9073061, 49.5472071], [5.9073482, 49.5472181], [5.9073819, 49.5472182], [5.9074156, 49.5472055], [5.9074297, 49.5471873], [5.9074216, 49.5471343], [5.9074358, 49.5471052], [5.9074809, 49.547067], [5.9075232, 49.5470306], [5.907543, 49.5470014], [5.9075544, 49.546974], [5.907555, 49.5469623], [5.9075791, 49.5469524], [5.9076437, 49.5469452], [5.9076801, 49.5469471], [5.9077081, 49.5469563], [5.9077193, 49.5469746], [5.9077191, 49.5470056], [5.9077049, 49.5470421], [5.9077066, 49.5470616], [5.907702, 49.5471017], [5.9077061, 49.5471436], [5.9077116, 49.5471633], [5.9077167, 49.5471725], [5.9077272, 49.5471784], [5.9082682, 49.5469888], [5.909415, 49.5468133], [5.9098427, 49.5467525], [5.9101076, 49.5467137], [5.9106765, 49.5467016], [5.9112542, 49.5466853], [5.9118229, 49.5466962], [5.9121486, 49.5466734], [5.9126852, 49.5464386], [5.912784, 49.5462158], [5.9130654, 49.5462031], [5.9132586, 49.5461944], [5.9132332, 49.5456762], [5.9130428, 49.5455736], [5.9129994, 49.545585], [5.912935, 49.5456012], [5.9128701, 49.5456166], [5.912852, 49.5456207], [5.9128047, 49.5456312], [5.9127389, 49.5456447], [5.9127204, 49.5456484], [5.9126546, 49.5456606], [5.9126057, 49.5456688], [5.912554, 49.5456769], [5.9125385, 49.5456792], [5.9124527, 49.5456912], [5.9124107, 49.5456965], [5.9123767, 49.5457005], [5.9123427, 49.5457043], [5.9123086, 49.5457078], [5.9122484, 49.5457135], [5.9122059, 49.545717], [5.9121454, 49.5457213], [5.9120684, 49.5457257], [5.9120339, 49.5457273], [5.9119994, 49.5457287], [5.9119649, 49.5457299], [5.9119304, 49.5457308], [5.9118959, 49.5457315], [5.9118614, 49.545732], [5.9118349, 49.5457322], [5.9117577, 49.5457315], [5.9117313, 49.545731], [5.9116887, 49.5457299], [5.9116542, 49.5457287], [5.9116197, 49.5457273], [5.9115852, 49.5457257], [5.9115246, 49.5457224], [5.911482, 49.5457197], [5.9114215, 49.5457154], [5.9114077, 49.5457142], [5.9113231, 49.5457058], [5.9112168, 49.5456943], [5.9111869, 49.5456907], [5.9111149, 49.5456818], [5.9110134, 49.5456683], [5.9109123, 49.5456537], [5.9108489, 49.5456441], [5.9107817, 49.5456337], [5.9107108, 49.5456224], [5.9106476, 49.545612], [5.9105808, 49.5456007], [5.9105116, 49.5455884], [5.9104132, 49.5455703], [5.9103419, 49.5455565], [5.9102492, 49.5455377], [5.9101834, 49.545524], [5.9101177, 49.54551], [5.9100437, 49.545494], [5.9099208, 49.5454659], [5.9098235, 49.5454429], [5.9097268, 49.5454188], [5.9096633, 49.5454025], [5.9095992, 49.5453856], [5.9095346, 49.5453682], [5.9094393, 49.5453418], [5.9093446, 49.5453144], [5.9092825, 49.545296], [5.9092198, 49.545277], [5.9091567, 49.5452575], [5.9090953, 49.5452381], [5.9090334, 49.5452181], [5.908971, 49.5451976], [5.9089103, 49.5451772], [5.908879, 49.5451666], [5.9088252, 49.545148], [5.9087716, 49.545129], [5.9087726, 49.5451281], [5.9088505, 49.5450359], [5.9088814, 49.544999], [5.9088104, 49.544973], [5.9087661, 49.5449565], [5.9086704, 49.5449205], [5.9086352, 49.5449069], [5.9085757, 49.5448835], [5.9084816, 49.5448457], [5.908421, 49.5448208], [5.9079611, 49.5446219], [5.9078356, 49.5445686], [5.9077228, 49.5445222], [5.9076481, 49.5444924], [5.9075532, 49.5444555], [5.9074792, 49.5444274], [5.9073612, 49.5443841], [5.9072304, 49.544338], [5.9071664, 49.5443162], [5.9070678, 49.5442836], [5.9069774, 49.5442545], [5.9068691, 49.5442206], [5.9067211, 49.5441761], [5.9066681, 49.5441607], [5.9065668, 49.5441318], [5.9064597, 49.5441025], [5.9063623, 49.5440773], [5.9062531, 49.5440507], [5.9056557, 49.5434229], [5.9054926, 49.5430016], [5.9054928, 49.5429533], [5.9055785, 49.5428685], [5.9055736, 49.5427527], [5.9057065, 49.5426669], [5.9057172, 49.5425446], [5.9057482, 49.5425031], [5.9058314, 49.5424428], [5.9058478, 49.5423595], [5.905877, 49.5423227], [5.9059245, 49.5421766], [5.9059769, 49.5421481], [5.9060566, 49.5421411], [5.9061269, 49.5421019], [5.9061464, 49.5420581], [5.9061508, 49.5420035], [5.9062478, 49.5418589], [5.9063948, 49.541758], [5.9064951, 49.5416958], [5.9065965, 49.541647], [5.9066737, 49.541612], [5.9067558, 49.5415876], [5.90686, 49.5415632], [5.9070075, 49.5415374], [5.9071165, 49.5415219], [5.9072942, 49.5415027], [5.9075242, 49.5414845], [5.9077013, 49.541476], [5.907789, 49.5414772], [5.9078677, 49.5414804], [5.9079539, 49.5414884], [5.9080295, 49.5415014], [5.9081307, 49.5415243], [5.9083911, 49.5416063], [5.9087022, 49.5417124], [5.9089061, 49.5417788], [5.9090073, 49.5418096], [5.9092642, 49.5418732], [5.9093408, 49.541889], [5.9094746, 49.5419009], [5.909583, 49.5419042], [5.909659, 49.5419043], [5.9097421, 49.5418978], [5.9099205, 49.5418757], [5.9106127, 49.5417483], [5.9105783, 49.5414818], [5.9105697, 49.5414654], [5.9105368, 49.5414042], [5.9104977, 49.5413359], [5.910355, 49.5411533], [5.9100632, 49.5407647], [5.9099279, 49.540685], [5.9100044, 49.5406429], [5.910655, 49.5403111], [5.9107304, 49.5402748], [5.9108933, 49.540251], [5.9109097, 49.5402197], [5.9114636, 49.5400273], [5.912166, 49.5398251], [5.9124478, 49.5395776], [5.9126057, 49.5394027], [5.9129257, 49.5390436], [5.913076, 49.5388344], [5.9133045, 49.5384771], [5.9133713, 49.538372], [5.9134435, 49.538286], [5.9134992, 49.5382203], [5.913613, 49.5381271], [5.913857, 49.5379523], [5.9140871, 49.5378215], [5.9144777, 49.5376156], [5.9141956, 49.5374469], [5.9147295, 49.5370164], [5.91342, 49.5353934], [5.913631, 49.5349884], [5.9137296, 49.5348816], [5.9138164, 49.5347992], [5.9140394, 49.5346729], [5.9143761, 49.5344884], [5.9148386, 49.5342682], [5.914998, 49.5341661], [5.9150862, 49.5340768], [5.9151434, 49.5339727], [5.9151841, 49.5337897], [5.9137557, 49.5329222], [5.9116815, 49.5315505], [5.910793, 49.5311064], [5.9103553, 49.5309331], [5.9103543, 49.5308287], [5.9092772, 49.5306668], [5.9089808, 49.5306691], [5.9083925, 49.5308211], [5.9083069, 49.5308365], [5.9081435, 49.5308283], [5.9079201, 49.5307451], [5.9076433, 49.5304765], [5.9064971, 49.5308988], [5.9062501, 49.530973], [5.9060864, 49.531014], [5.905908, 49.5310469], [5.9057321, 49.5310672], [5.9055588, 49.5310827], [5.9053463, 49.5310934], [5.9051504, 49.531099], [5.9048525, 49.5311031], [5.9042643, 49.5310938], [5.9029766, 49.5310946], [5.9029638, 49.5311489], [5.9029609, 49.5311609], [5.9029834, 49.5311628], [5.9030507, 49.5311777], [5.9031326, 49.5312187], [5.9031945, 49.5312695], [5.903253, 49.5313498], [5.9032897, 49.5314533], [5.9033046, 49.5315504], [5.9032925, 49.5316512], [5.9032556, 49.5317505], [5.9031961, 49.5318504], [5.9031732, 49.5318652], [5.9031422, 49.531873], [5.9029843, 49.5318599], [5.9029082, 49.5318579], [5.9027669, 49.5318641], [5.9025906, 49.5318821], [5.9022165, 49.531969], [5.9020911, 49.5319812], [5.9020625, 49.5319909], [5.9020001, 49.532043], [5.9019617, 49.532053], [5.901014, 49.5323051], [5.9009468, 49.5328748], [5.9000482, 49.5319363], [5.8992917, 49.5320076], [5.8988222, 49.5315203], [5.8983419, 49.5316908], [5.8983418, 49.531704], [5.8983284, 49.5317374], [5.8982958, 49.5317632], [5.8982293, 49.5317869], [5.8981652, 49.5317779], [5.898065, 49.5317263], [5.8980206, 49.5317121], [5.8980112, 49.5317123], [5.897997, 49.5317197], [5.8979645, 49.5317634], [5.897658, 49.5317877], [5.8976238, 49.531765], [5.8976352, 49.5306054], [5.8976932, 49.5299391], [5.8977002, 49.5298579], [5.897706, 49.529835], [5.8978127, 49.5294114], [5.8975467, 49.5293286], [5.8968163, 49.5289308], [5.8965095, 49.5286927], [5.896357, 49.528572], [5.8959807, 49.528204], [5.8953845, 49.5274243], [5.8948838, 49.5267913], [5.8947944, 49.5266783], [5.8932177, 49.5264214], [5.892449, 49.5262883], [5.8922333, 49.526261], [5.8918043, 49.5262067], [5.8914631, 49.5263846], [5.8913098, 49.5263132], [5.8910507, 49.5261926], [5.8908527, 49.5261004], [5.890799, 49.5261531], [5.8906927, 49.5261441], [5.8906831, 49.5261433], [5.8905917, 49.5261344], [5.890471, 49.5261229], [5.890303, 49.5261068], [5.8903014, 49.5261066], [5.8902644, 49.5261031], [5.8901576, 49.5260317], [5.8901091, 49.5257897], [5.8897248, 49.5258005], [5.8893901, 49.5258317], [5.8890963, 49.5258566], [5.8888683, 49.5258886], [5.8886231, 49.5258891], [5.8885278, 49.525876], [5.8884048, 49.5258572], [5.8883396, 49.5258473], [5.8882859, 49.5258321], [5.888247, 49.5258106], [5.8881935, 49.5257775], [5.8881386, 49.5257415], [5.8879584, 49.5256194], [5.8879583, 49.5256193], [5.8878125, 49.5255173], [5.8877128, 49.5254622], [5.887564, 49.5253964], [5.8875107, 49.5253634], [5.8873715, 49.525329], [5.8871919, 49.5252744], [5.8868923, 49.5252032], [5.8865304, 49.5250824], [5.8863484, 49.525035], [5.8860482, 49.5249722], [5.8856584, 49.5249107], [5.8852533, 49.5248241], [5.8848866, 49.5247515], [5.8847575, 49.5247365], [5.8846992, 49.5247406], [5.8846268, 49.5247537], [5.8842653, 49.5248904], [5.8838902, 49.5249184], [5.8837694, 49.5249345], [5.8835932, 49.5249758], [5.8833418, 49.525025], [5.8831853, 49.5250532], [5.8830216, 49.5250798], [5.8828774, 49.5251097], [5.8827087, 49.5251482], [5.8824447, 49.5252147], [5.8820535, 49.5253234], [5.8816939, 49.5254409], [5.8815423, 49.5254938], [5.8814419, 49.5255405], [5.8813635, 49.5255864], [5.8812998, 49.5256299], [5.8812519, 49.5256696], [5.8812115, 49.525706], [5.8811709, 49.5257457], [5.8809121, 49.5260585], [5.8808396, 49.5261442], [5.8807549, 49.5262282], [5.880685, 49.5262869], [5.8806016, 49.5263455], [5.8805398, 49.5263781], [5.8803855, 49.5264564], [5.8802691, 49.52653], [5.8801747, 49.5266061], [5.8800667, 49.5267044], [5.8800003, 49.5267829], [5.8799536, 49.5268456], [5.8799167, 49.5268988], [5.8798852, 49.5269587], [5.8797862, 49.5271938], [5.8797682, 49.5271725], [5.8797616, 49.5271653], [5.8795739, 49.526961], [5.8795031, 49.5268841], [5.879457, 49.5268339], [5.879443, 49.5268187], [5.8794244, 49.5267984], [5.8794184, 49.5267918], [5.8793703, 49.5267395], [5.8793508, 49.5267184], [5.879334, 49.5267], [5.8789666, 49.5268086], [5.8780495, 49.5270813], [5.8779835, 49.527097], [5.8779322, 49.5271049], [5.8778748, 49.5271087], [5.8778113, 49.5271093], [5.8776354, 49.5271002], [5.8773266, 49.527082], [5.8770718, 49.5270628], [5.8770643, 49.5270623], [5.877059, 49.5270616], [5.8767875, 49.5270274], [5.8766464, 49.5270063], [5.8764955, 49.5269838], [5.8764343, 49.5269728], [5.8761912, 49.526929], [5.875981, 49.5268911], [5.8758449, 49.5268708], [5.8755797, 49.5268313], [5.8754065, 49.5268078], [5.8752505, 49.5267732], [5.8750921, 49.5267275], [5.8750885, 49.5267264], [5.8747875, 49.5266314], [5.8747628, 49.5266229], [5.8742149, 49.5264349], [5.874176, 49.5264216], [5.8738155, 49.5262935], [5.8735274, 49.5261695], [5.8734227, 49.5261168], [5.873306, 49.5260497], [5.8731989, 49.5259858], [5.8729267, 49.5257945], [5.8726071, 49.5255795], [5.8725669, 49.5256015], [5.8723444, 49.5254823], [5.871993, 49.5253333], [5.8717016, 49.5252265], [5.8713656, 49.5251081], [5.870974, 49.5249691], [5.8708906, 49.5249228], [5.8707974, 49.5248514], [5.8704781, 49.5246479], [5.8702676, 49.5246289], [5.8688983, 49.5244638], [5.8680332, 49.524341], [5.8674293, 49.5242595], [5.8666601, 49.5241649], [5.8658892, 49.5240737], [5.8651718, 49.5239904], [5.8645865, 49.5239198], [5.8642115, 49.5238713], [5.862902, 49.5237466], [5.8627722, 49.5238115], [5.8624368, 49.5239499], [5.8620485, 49.5241016], [5.8618367, 49.5241888], [5.8616996, 49.5242599], [5.8610928, 49.5246285], [5.8603317, 49.5250828], [5.8599603, 49.525349], [5.859307, 49.5258306], [5.8589687, 49.5260635], [5.8588969, 49.5260666], [5.8582667, 49.5263434], [5.8576945, 49.5265961], [5.8572386, 49.5267856], [5.8570828, 49.5268309], [5.8567808, 49.5269176], [5.8567308, 49.5269385], [5.856483, 49.5270545], [5.8557002, 49.5274435], [5.8553052, 49.5276375], [5.8547167, 49.5279239], [5.8540802, 49.5282335], [5.8538062, 49.5283668], [5.8529025, 49.5288072], [5.8521817, 49.5291352], [5.8515814, 49.5294102], [5.8515075, 49.5294372], [5.8514038, 49.5294759], [5.8513405, 49.5294994], [5.8512902, 49.5295182], [5.8511562, 49.5295727], [5.8510246, 49.5296296], [5.8506212, 49.5298204], [5.8506421, 49.5298388], [5.8506619, 49.5298589], [5.8509951, 49.5301991], [5.8510859, 49.5302967], [5.8511361, 49.5303613], [5.851232, 49.5304918], [5.8512769, 49.5305593], [5.851355, 49.5306775], [5.8514105, 49.5307693], [5.8514343, 49.5308239], [5.8514424, 49.5308922], [5.8514316, 49.5309349], [5.8513864, 49.5310101], [5.8513069, 49.5311166], [5.8512247, 49.5312054], [5.851193, 49.5312378], [5.8518892, 49.531538], [5.8519288, 49.5315551], [5.8525416, 49.5318193], [5.8527661, 49.5319161], [5.8533202, 49.5321511], [5.8535094, 49.5322252], [5.8535219, 49.5322411], [5.8536332, 49.5323834], [5.853757, 49.5325362], [5.8538286, 49.5326246], [5.8541239, 49.5329846], [5.8542495, 49.5331046], [5.8544385, 49.5332851], [5.8544531, 49.5332991], [5.8545662, 49.5334305], [5.8546372, 49.5335153], [5.8546559, 49.5335378], [5.8548013, 49.5336915], [5.8549446, 49.533837], [5.854962, 49.5338546], [5.8550021, 49.5338971], [5.855116, 49.5340462], [5.8551327, 49.5340681], [5.8551774, 49.5341102], [5.8552129, 49.5341436], [5.8553155, 49.5342247], [5.8556389, 49.5344786], [5.8558288, 49.5346373], [5.8559392, 49.5347296], [5.8560562, 49.5348273], [5.8561063, 49.5348701], [5.8561566, 49.5349132], [5.8561833, 49.5349506], [5.856217, 49.5349978], [5.8562302, 49.5350164], [5.8563019, 49.5351169], [5.8563776, 49.535223], [5.856435, 49.5353035], [5.8571019, 49.5352476], [5.8576847, 49.5351988], [5.8580101, 49.5351787], [5.8580317, 49.5351783], [5.8580651, 49.5351776], [5.8581291, 49.5351762], [5.8582068, 49.5351746], [5.8583288, 49.5351736], [5.8583682, 49.5351732], [5.8584969, 49.5351596], [5.8585284, 49.5351544], [5.8586357, 49.5351366], [5.85883, 49.5351179], [5.8590401, 49.5350921], [5.8595645, 49.5350278], [5.8604279, 49.5348143], [5.8606529, 49.5347587], [5.8607914, 49.5347472], [5.8608723, 49.5347404], [5.8609449, 49.5347344], [5.8612139, 49.5346958], [5.8613312, 49.5346789], [5.8615879, 49.5346359], [5.8618198, 49.5345958], [5.8618892, 49.5345896], [5.8619739, 49.5345855], [5.8620378, 49.5345756], [5.8620973, 49.5345629], [5.8622174, 49.5345331], [5.8623607, 49.5344948], [5.8626491, 49.5343969], [5.8628278, 49.5343293], [5.862951, 49.5342775], [5.8631441, 49.5341913], [5.8632098, 49.5341604], [5.8632986, 49.5341186], [5.863363, 49.5340866], [5.8634189, 49.5340588], [5.863516, 49.534021], [5.8636141, 49.5339955], [5.8637739, 49.5339672], [5.8639871, 49.5339404], [5.8640995, 49.5339262], [5.8643598, 49.533903], [5.864425, 49.533899], [5.8644804, 49.5338955], [5.8646449, 49.5338852], [5.8649597, 49.5338816], [5.865002, 49.5338846], [5.8650451, 49.5338876], [5.8650571, 49.5338998], [5.8650636, 49.5339134], [5.8650666, 49.53394], [5.8650687, 49.5339836], [5.8650573, 49.5340431], [5.8650372, 49.5340846], [5.8650082, 49.534126], [5.8649768, 49.5341542], [5.8648507, 49.534257], [5.8647755, 49.534317], [5.8647025, 49.5343827], [5.8646228, 49.5344613], [5.8644212, 49.5346844], [5.8642176, 49.534916], [5.8638935, 49.5352896], [5.8637567, 49.5354508], [5.8636845, 49.5355599], [5.8636842, 49.5356064], [5.8637188, 49.5356603], [5.8637473, 49.5356768], [5.8638085, 49.5356895], [5.8639517, 49.5357253], [5.8640066, 49.5357463], [5.8640548, 49.5357758], [5.8640953, 49.5358103], [5.8642618, 49.5360111], [5.8643288, 49.5360891], [5.8643802, 49.5361566], [5.8644216, 49.5362147], [5.8644597, 49.5362772], [5.8645359, 49.5364207], [5.864651, 49.5366433], [5.864725, 49.536766], [5.8647565, 49.5368203], [5.8647958, 49.536888], [5.8648283, 49.5369543], [5.8648543, 49.5370182], [5.8648692, 49.5370992], [5.8648808, 49.5371837], [5.8648848, 49.5372454], [5.864878, 49.5372833], [5.8648623, 49.5373255], [5.8648156, 49.5374137], [5.8647845, 49.5374652], [5.8647456, 49.5375224], [5.8647056, 49.5375753], [5.8646705, 49.5376219], [5.8646867, 49.5376274], [5.8647832, 49.5376605], [5.8650824, 49.5377629], [5.8652705, 49.537831], [5.8655053, 49.5379297], [5.8657992, 49.5380616], [5.8662062, 49.5382434], [5.867053, 49.5386134], [5.8676123, 49.5388651], [5.867568, 49.5390792], [5.8675543, 49.5391616], [5.867552, 49.5391881], [5.8675551, 49.5392146], [5.8675627, 49.5392397], [5.8675943, 49.5392914], [5.8676921, 49.5394298], [5.8677249, 49.5394672], [5.8677555, 49.5394923], [5.8677741, 49.5395053], [5.8677983, 49.5395125], [5.8678269, 49.5395154], [5.8679249, 49.5395085], [5.8684635, 49.5392546], [5.8686319, 49.5391756], [5.8688758, 49.5390612], [5.8696453, 49.538694], [5.8700283, 49.5385173], [5.8700501, 49.5385073], [5.8703422, 49.538373], [5.8706578, 49.5382184], [5.8708266, 49.5381304], [5.8708643, 49.5381108], [5.8709911, 49.5380599], [5.871079, 49.5380246], [5.8711684, 49.5379919], [5.8712715, 49.5379606], [5.871342, 49.5379443], [5.8714103, 49.5379337], [5.8714499, 49.5379324], [5.8715005, 49.537934], [5.8715522, 49.5379405], [5.8716258, 49.5379536], [5.8717269, 49.5379861], [5.8717817, 49.5380185], [5.8718452, 49.5380652], [5.8719195, 49.5381238], [5.8720418, 49.5382244], [5.8721966, 49.5383681], [5.8724209, 49.5384453], [5.8725648, 49.5384958], [5.872869, 49.5385918], [5.8731755, 49.5386901], [5.8731729, 49.5387307], [5.8731695, 49.5387428], [5.8731551, 49.5387629], [5.8731252, 49.5387943], [5.8730954, 49.5388165], [5.8730622, 49.5388357], [5.8730263, 49.5388511], [5.8729149, 49.5388888], [5.8727848, 49.5389293], [5.8726647, 49.5389584], [5.8725005, 49.5389909], [5.8723672, 49.5390149], [5.8722064, 49.5390482], [5.8721735, 49.5390558], [5.8720199, 49.5390912], [5.8718369, 49.5391352], [5.8716628, 49.539182], [5.8715371, 49.539219], [5.8714269, 49.5392545], [5.8713309, 49.5392872], [5.8712497, 49.5393211], [5.8711868, 49.5393525], [5.8711426, 49.5393831], [5.871106, 49.5394096], [5.8710873, 49.5394231], [5.8710618, 49.5394503], [5.8710375, 49.5394753], [5.8710064, 49.5395139], [5.8709742, 49.5395668], [5.8708192, 49.5399314], [5.8705592, 49.5405319], [5.8704734, 49.5407172], [5.8703853, 49.5409033], [5.8703131, 49.5410479], [5.8702475, 49.5411545], [5.8701753, 49.5412597], [5.8700599, 49.5414156], [5.8699568, 49.5415632], [5.8699255, 49.5416319], [5.8699088, 49.5416755], [5.8699008, 49.5417185], [5.8700071, 49.5417947], [5.8700356, 49.5418098], [5.8701245, 49.541848], [5.8701835, 49.5418602], [5.8702494, 49.5418676], [5.8702957, 49.5418698], [5.8705004, 49.5418639], [5.8706523, 49.5418586], [5.870772, 49.5418489], [5.8709705, 49.5418364], [5.8711903, 49.5418242], [5.8714214, 49.5418204], [5.8716598, 49.5418125], [5.872148, 49.5418037], [5.8727641, 49.5418073], [5.8730276, 49.5418088], [5.8736168, 49.5418103], [5.8737499, 49.5418121], [5.8738578, 49.5418166], [5.8739986, 49.5418263], [5.8741372, 49.5418381], [5.8742439, 49.5418463], [5.8747238, 49.5418954], [5.8753129, 49.5419533], [5.8756154, 49.541982], [5.8758342, 49.5420048], [5.8761736, 49.5420391], [5.8763726, 49.5422639], [5.8763816, 49.5422747], [5.8764749, 49.5423876], [5.8765523, 49.5425122], [5.8765676, 49.542564], [5.876577, 49.5426422], [5.876574, 49.5427869], [5.8765556, 49.5429165], [5.87654, 49.5429755], [5.8765143, 49.5430392], [5.8764988, 49.5430649], [5.87646, 49.5431092], [5.8763748, 49.5431814], [5.8762686, 49.5432707], [5.8761814, 49.5433476], [5.8760829, 49.5434355], [5.8759537, 49.5435566], [5.8758895, 49.5436166], [5.875842, 49.5436523], [5.8757846, 49.5436909], [5.8757326, 49.5437208], [5.8756532, 49.5437593], [5.8755572, 49.5438014], [5.8754711, 49.5438362], [5.8753094, 49.5438993], [5.8751715, 49.5439562], [5.8750799, 49.5439997], [5.8750313, 49.5440275], [5.874976, 49.5440646], [5.8749274, 49.5441039], [5.8748433, 49.5441851], [5.8748167, 49.5442202], [5.8748067, 49.5442452], [5.8748065, 49.5442653], [5.8748141, 49.5442868], [5.8748403, 49.5443205], [5.874873, 49.5443548], [5.8749157, 49.5443907], [5.875032, 49.5444619], [5.8751208, 49.544513], [5.8752591, 49.5445764], [5.8755445, 49.5447061], [5.8757942, 49.5448154], [5.8762933, 49.5450364], [5.8765358, 49.5451452], [5.8767735, 49.5452644], [5.876948, 49.5453551], [5.8770686, 49.545427], [5.8771169, 49.5454573], [5.877164, 49.5454867], [5.8772419, 49.5455271], [5.8772858, 49.5455465], [5.8773606, 49.5455736], [5.8774753, 49.5456156], [5.8775818, 49.545666], [5.8776925, 49.5457343], [5.8779982, 49.5459733]]]}}]}