{"type": "FeatureCollection", "features": [{"type": "Feature", "properties": {"name": "Rosport-Hëlt", "kind": "nature_reserve"}, "geometry": {"type": "Polygon", "coordinates": [[[6.5147348, 49.8030605], [6.5148301, 49.8031751], [6.5148481, 49.8032237], [6.5148721, 49.8032822], [6.5149423, 49.8033785], [6.5150066, 49.8034405], [6.5151944, 49.8036158], [6.5153173, 49.8037233], [6.5153739, 49.8037556], [6.5157937, 49.8042192], [6.516365, 49.8048466], [6.5166613, 49.8052054], [6.5169337, 49.8055744], [6.5170772, 49.8058467], [6.5172371, 49.8060733], [6.5173544, 49.8062949], [6.517472, 49.8064827], [6.517601, 49.8066901], [6.5177016, 49.8068866], [6.5177963, 49.807099], [6.5178285, 49.8071666], [6.5178416, 49.8072922], [6.5179209, 49.8074144], [6.5179072, 49.8075294], [6.5180031, 49.8075335], [6.5180121, 49.8076058], [6.5180589, 49.8076965], [6.518008, 49.8077275], [6.5180949, 49.8077936], [6.5181585, 49.8079264], [6.5182452, 49.807982], [6.5182397, 49.8081057], [6.5183163, 49.8081796], [6.518432, 49.8084842], [6.5185281, 49.8086281], [6.518527, 49.8088575], [6.5185775, 49.808992], [6.5185844, 49.8090987], [6.5184941, 49.8092669], [6.5184856, 49.8094173], [6.518439, 49.8096105], [6.5184103, 49.8099031], [6.5184445, 49.8102296], [6.518445, 49.810233], [6.5184717, 49.8103871], [6.5185421, 49.8105214], [6.5185755, 49.8106409], [6.5185924, 49.810767], [6.5186554, 49.8110486], [6.5187076, 49.8111471], [6.5187688, 49.8112625], [6.5188254, 49.811383], [6.5189734, 49.8117049], [6.5190897, 49.8119524], [6.5192476, 49.8121703], [6.5195462, 49.8124817], [6.5197547, 49.812646], [6.5199481, 49.8127808], [6.520231, 49.8129041], [6.5204578, 49.8129659], [6.5208703, 49.8130983], [6.5210937, 49.8131076], [6.521317, 49.8131127], [6.5216277, 49.8130381], [6.5219358, 49.8129105], [6.5224734, 49.8127292], [6.5226826, 49.8126741], [6.52291, 49.8125856], [6.5231012, 49.8125365], [6.5232719, 49.8124525], [6.5235916, 49.8123801], [6.5239766, 49.8122063], [6.5241191, 49.8122024], [6.5243593, 49.8120662], [6.52473, 49.8119127], [6.5250294, 49.8118109], [6.5252523, 49.8117113], [6.5255745, 49.8115947], [6.5260012, 49.8114373], [6.526176, 49.8113701], [6.5264315, 49.8112586], [6.5266378, 49.811167], [6.5269172, 49.8110176], [6.5272245, 49.8108227], [6.5273954, 49.8106905], [6.5277517, 49.8103717], [6.5279808, 49.8102171], [6.5282254, 49.8100656], [6.5285405, 49.8098602], [6.5287242, 49.8097346], [6.5290022, 49.8095502], [6.5294047, 49.8092435], [6.5294962, 49.8090867], [6.5295763, 49.8089141], [6.5295549, 49.8087359], [6.529487, 49.8087945], [6.5294478, 49.8087685], [6.5295576, 49.8083783], [6.5296389, 49.8082424], [6.5296859, 49.8080951], [6.5297465, 49.8078881], [6.5298022, 49.8076314], [6.5299824, 49.8072329], [6.5300252, 49.8071382], [6.5300924, 49.8069896], [6.5304082, 49.8066607], [6.5306556, 49.8063645], [6.5307435, 49.8061155], [6.530813, 49.8059986], [6.5308978, 49.8060065], [6.5308486, 49.8058277], [6.5308389, 49.8056709], [6.5307916, 49.8055663], [6.5307657, 49.8053494], [6.5306401, 49.8051481], [6.5304891, 49.8049977], [6.5297827, 49.8042868], [6.5297191, 49.804224], [6.5296742, 49.8041229], [6.5292592, 49.8038607], [6.5284166, 49.8033426], [6.5281603, 49.8031773], [6.5276041, 49.8028868], [6.5271621, 49.8026874], [6.5266446, 49.8024145], [6.5264877, 49.8023208], [6.5263282, 49.8021962], [6.5260744, 49.8020403], [6.5259258, 49.8018829], [6.5257755, 49.8017797], [6.5254688, 49.8015042], [6.5250818, 49.8011924], [6.5248941, 49.8010275], [6.5248003, 49.80088], [6.5246888, 49.8007537], [6.5245, 49.8005721], [6.5244602, 49.8005339], [6.5243384, 49.8003841], [6.5240441, 49.800121], [6.5238849, 49.7999627], [6.5235486, 49.799671], [6.5231854, 49.7994066], [6.5230031, 49.7992534], [6.5228995, 49.7991305], [6.5227859, 49.7989535], [6.5226854, 49.7988398], [6.5225877, 49.7987041], [6.5225842, 49.7987], [6.5223989, 49.7984803], [6.5222143, 49.7982741], [6.5221058, 49.7981321], [6.5216884, 49.7975806], [6.521607, 49.7974797], [6.5214174, 49.7972897], [6.5212019, 49.7971232], [6.5209672, 49.7969633], [6.5207012, 49.7967666], [6.520532, 49.7966553], [6.5203276, 49.796552], [6.5201159, 49.7964086], [6.5197647, 49.7962677], [6.5196572, 49.7962172], [6.5194328, 49.7961118], [6.5190753, 49.7959765], [6.5179652, 49.7955986], [6.5175347, 49.7955334], [6.5171981, 49.7954039], [6.516916, 49.7952661], [6.5167295, 49.795191], [6.516459, 49.7950783], [6.5161451, 49.7949354], [6.5157661, 49.7946992], [6.5154267, 49.794536], [6.5151534, 49.7944395], [6.5141817, 49.7940109], [6.5139646, 49.7939367], [6.5136328, 49.7938406], [6.513203, 49.7937039], [6.512681, 49.7935699], [6.5125133, 49.7937749], [6.512278, 49.7940626], [6.51223, 49.7941212], [6.5121223, 49.794253], [6.511892, 49.7945297], [6.5115531, 49.7949368], [6.5115007, 49.7950084], [6.5114317, 49.7951027], [6.5113967, 49.7952049], [6.5113767, 49.795295], [6.5113342, 49.7955378], [6.5112384, 49.7960238], [6.5112007, 49.7961341], [6.5111718, 49.7962185], [6.5110879, 49.7964501], [6.5096855, 49.7961135], [6.5095639, 49.7977015], [6.5094937, 49.7976906], [6.5093711, 49.7976694], [6.5093108, 49.7982342], [6.5092662, 49.7985902], [6.5092576, 49.7987099], [6.5092479, 49.7990275], [6.5092562, 49.7991664], [6.5092798, 49.7992763], [6.5093139, 49.7994346], [6.5094124, 49.7996455], [6.5095773, 49.7998839], [6.5097696, 49.8000469], [6.5099497, 49.8001644], [6.5100546, 49.8002269], [6.5104203, 49.8003895], [6.5108014, 49.8004872], [6.5111354, 49.8005612], [6.5113445, 49.8006214], [6.5115192, 49.8006904], [6.5116418, 49.8007691], [6.5117138, 49.800852], [6.51178, 49.8009827], [6.511809, 49.8010147], [6.5117841, 49.8010424], [6.5117075, 49.8011466], [6.5123784, 49.8013094], [6.5127246, 49.8014238], [6.5127931, 49.8014623], [6.5128491, 49.8015074], [6.5129577, 49.801622], [6.5130281, 49.8016792], [6.5130786, 49.8017078], [6.5132389, 49.8017692], [6.513302, 49.8018033], [6.5133689, 49.8018594], [6.5134268, 49.8019278], [6.5134654, 49.8019953], [6.5135388, 49.8020405], [6.5138837, 49.8022972], [6.5141394, 49.8025105], [6.5147348, 49.8030605]]]}}]}