{"type": "FeatureCollection", "features": [{"type": "Feature", "properties": {"name": "Mondercange"}, "geometry": {"type": "MultiPolygon", "coordinates": [[[[5.953009, 49.53416], [5.953012, 49.53417], [5.953054, 49.534214], [5.953226, 49.534412], [5.953318, 49.534515], [5.953436, 49.53465], [5.953596, 49.534836], [5.953634, 49.534878], [5.953642, 49.53489], [5.953745, 49.535], [5.953791, 49.535053], [5.95381, 49.535072], [5.953852, 49.53512], [5.953856, 49.535126], [5.95389, 49.535164], [5.953928, 49.53521], [5.953985, 49.535263], [5.954004, 49.535282], [5.954046, 49.535316], [5.954157, 49.53542], [5.954172, 49.53543], [5.954245, 49.535496], [5.954447, 49.535675], [5.954493, 49.535744], [5.954622, 49.535954], [5.954916, 49.53641], [5.955023, 49.536583], [5.955076, 49.536663], [5.95511, 49.53671], [5.955263, 49.53691], [5.955282, 49.536938], [5.955423, 49.537125], [5.955755, 49.537556], [5.955923, 49.53778], [5.956091, 49.538], [5.956179, 49.53811], [5.956266, 49.538208], [5.95643, 49.538406], [5.956613, 49.53862], [5.956739, 49.538765], [5.95677, 49.538803], [5.956858, 49.538906], [5.9569, 49.538956], [5.956919, 49.53898], [5.956934, 49.538994], [5.956976, 49.53904], [5.956999, 49.539062], [5.957399, 49.539425], [5.957415, 49.539448], [5.957643, 49.539707], [5.957663, 49.53973], [5.957834, 49.539806], [5.957891, 49.53983], [5.95801, 49.539883], [5.958361, 49.54003], [5.958639, 49.540176], [5.958918, 49.540318], [5.959116, 49.540424], [5.959207, 49.54047], [5.959318, 49.54053], [5.959417, 49.540585], [5.959677, 49.54072], [5.959722, 49.540764], [5.959837, 49.540882], [5.960093, 49.541138], [5.960142, 49.54119], [5.960188, 49.541237], [5.960272, 49.541313], [5.960287, 49.541332], [5.960295, 49.541336], [5.960325, 49.541367], [5.960398, 49.54143], [5.960421, 49.541454], [5.960615, 49.541634], [5.960653, 49.541668], [5.960665, 49.541683], [5.960711, 49.54172], [5.960752, 49.541744], [5.960783, 49.541763], [5.960802, 49.54177], [5.960821, 49.541782], [5.961279, 49.542007], [5.961466, 49.542103], [5.961657, 49.54219], [5.961843, 49.54228], [5.962313, 49.542393], [5.962484, 49.542435], [5.962549, 49.54245], [5.963419, 49.54267], [5.963644, 49.542725], [5.964018, 49.54282], [5.964247, 49.542877], [5.964563, 49.542953], [5.964571, 49.542988], [5.96467, 49.543324], [5.964746, 49.54357], [5.9648, 49.54375], [5.964899, 49.54405], [5.964933, 49.54415], [5.964937, 49.544167], [5.964956, 49.54422], [5.964975, 49.544266], [5.965021, 49.544388], [5.965036, 49.544422], [5.965059, 49.544476], [5.965101, 49.544586], [5.965109, 49.54461], [5.965116, 49.54462], [5.965136, 49.544674], [5.965151, 49.54471], [5.965166, 49.544743], [5.965189, 49.544777], [5.9652, 49.54479], [5.965212, 49.5448], [5.965239, 49.54482], [5.965708, 49.54513], [5.965849, 49.54521], [5.965963, 49.54528], [5.965986, 49.545296], [5.966055, 49.545326], [5.966185, 49.54538], [5.966253, 49.54541], [5.966276, 49.545418], [5.966349, 49.545456], [5.966429, 49.5455], [5.966444, 49.54551], [5.966505, 49.545547], [5.966627, 49.545628], [5.967024, 49.545742], [5.967371, 49.545895], [5.967543, 49.545937], [5.967657, 49.545963], [5.967691, 49.54597], [5.967718, 49.545967], [5.967749, 49.545967], [5.967791, 49.545963], [5.967855, 49.54596], [5.967867, 49.54596], [5.968027, 49.545948], [5.968241, 49.545937], [5.96879, 49.545902], [5.969225, 49.545902], [5.969255, 49.5459], [5.969839, 49.5459], [5.969816, 49.54602], [5.969778, 49.546207], [5.969774, 49.546234], [5.96977, 49.546246], [5.969713, 49.546474], [5.969606, 49.54704], [5.969523, 49.54747], [5.969507, 49.54757], [5.969454, 49.547894], [5.969435, 49.548027], [5.969427, 49.548107], [5.969408, 49.548176], [5.969446, 49.54824], [5.969423, 49.54836], [5.969191, 49.549175], [5.968855, 49.55011], [5.96871, 49.55059], [5.968748, 49.550735], [5.969095, 49.551533], [5.969187, 49.551548], [5.96945, 49.551598], [5.969809, 49.551662], [5.96998, 49.55171], [5.970243, 49.551777], [5.970408, 49.551823], [5.970953, 49.55197], [5.971602, 49.55215], [5.972204, 49.55217], [5.97246, 49.552177], [5.972631, 49.55217], [5.972666, 49.552166], [5.972879, 49.552155], [5.973043, 49.552177], [5.973291, 49.552216], [5.973326, 49.55222], [5.973471, 49.55224], [5.973535, 49.552284], [5.973715, 49.55229], [5.973734, 49.552265], [5.974401, 49.55238], [5.97447, 49.552387], [5.974775, 49.552406], [5.974825, 49.55241], [5.974901, 49.552418], [5.974932, 49.552395], [5.975496, 49.552395], [5.975637, 49.552383], [5.976095, 49.552353], [5.976313, 49.552326], [5.976366, 49.55232], [5.976618, 49.55232], [5.97674, 49.55229], [5.976835, 49.552273], [5.977121, 49.55211], [5.977182, 49.552074], [5.977354, 49.55205], [5.977522, 49.552032], [5.977747, 49.552044], [5.978323, 49.55208], [5.978682, 49.5521], [5.978861, 49.55209], [5.979075, 49.552074], [5.979116, 49.55207], [5.979158, 49.552063], [5.979239, 49.55204], [5.979292, 49.552017], [5.979311, 49.55201], [5.979502, 49.551907], [5.97962, 49.55187], [5.980017, 49.551777], [5.980108, 49.55175], [5.980318, 49.551693], [5.980486, 49.551643], [5.980665, 49.551586], [5.980978, 49.551476], [5.981153, 49.551407], [5.981318, 49.551334], [5.981352, 49.55132], [5.98152, 49.551243], [5.981737, 49.55114], [5.981749, 49.551136], [5.981871, 49.551075], [5.981974, 49.55102], [5.982256, 49.55088], [5.982672, 49.550663], [5.982901, 49.55051], [5.983133, 49.550343], [5.983328, 49.550194], [5.98337, 49.550163], [5.983694, 49.54973], [5.983782, 49.54961], [5.983923, 49.549435], [5.984106, 49.549225], [5.984117, 49.549213], [5.984152, 49.54918], [5.98448, 49.548855], [5.984625, 49.548714], [5.984697, 49.548645], [5.984755, 49.548588], [5.984781, 49.548565], [5.984892, 49.54846], [5.985029, 49.54832], [5.985132, 49.548203], [5.985224, 49.5481], [5.985273, 49.54805], [5.985331, 49.548004], [5.985407, 49.54795], [5.985487, 49.5479], [5.985678, 49.547787], [5.985727, 49.547752], [5.985758, 49.547726], [5.98591, 49.547565], [5.986036, 49.547436], [5.986307, 49.547142], [5.986574, 49.546886], [5.986788, 49.546955], [5.987013, 49.54673], [5.987074, 49.546665], [5.987112, 49.546627], [5.987192, 49.54654], [5.987253, 49.54647], [5.987295, 49.546425], [5.987329, 49.546375], [5.987387, 49.546284], [5.987455, 49.54619], [5.98749, 49.546146], [5.987509, 49.546124], [5.987535, 49.5461], [5.987558, 49.54609], [5.987585, 49.546074], [5.987608, 49.546062], [5.987692, 49.546047], [5.987738, 49.54604], [5.98778, 49.54603], [5.987825, 49.54602], [5.987879, 49.546005], [5.987921, 49.54599], [5.987974, 49.54597], [5.98802, 49.545956], [5.988085, 49.545933], [5.988127, 49.54592], [5.988157, 49.545914], [5.988218, 49.545914], [5.988249, 49.545918], [5.988283, 49.545925], [5.98834, 49.545944], [5.988371, 49.545895], [5.988382, 49.545883], [5.988466, 49.54588], [5.988535, 49.545887], [5.988592, 49.54591], [5.988615, 49.545937], [5.988634, 49.546], [5.988657, 49.546024], [5.98871, 49.546047], [5.98881, 49.54607], [5.988962, 49.546097], [5.98929, 49.546146], [5.989397, 49.54616], [5.989554, 49.546196], [5.989634, 49.54621], [5.989698, 49.54621], [5.989786, 49.546192], [5.989908, 49.546154], [5.990011, 49.54612], [5.990072, 49.546116], [5.990152, 49.546127], [5.990236, 49.546154], [5.990335, 49.54619], [5.990389, 49.5462], [5.990435, 49.54619], [5.990457, 49.54616], [5.990461, 49.54613], [5.990446, 49.546097], [5.990423, 49.546043], [5.990419, 49.546], [5.990427, 49.54597], [5.990469, 49.54594], [5.990545, 49.54591], [5.990755, 49.545845], [5.990923, 49.54581], [5.990999, 49.54579], [5.991137, 49.54575], [5.991198, 49.545746], [5.991243, 49.545742], [5.991278, 49.545734], [5.991297, 49.545723], [5.991312, 49.545696], [5.991324, 49.545647], [5.991342, 49.545593], [5.991381, 49.545563], [5.991487, 49.54553], [5.991552, 49.5455], [5.991613, 49.54546], [5.99172, 49.54537], [5.991797, 49.54532], [5.991865, 49.54528], [5.991907, 49.54524], [5.991911, 49.54519], [5.991926, 49.54516], [5.991976, 49.545128], [5.992029, 49.545113], [5.992239, 49.545097], [5.992338, 49.54508], [5.992464, 49.54504], [5.992678, 49.54496], [5.99275, 49.54493], [5.992968, 49.54475], [5.993067, 49.54467], [5.993174, 49.544575], [5.993277, 49.54448], [5.993517, 49.54424], [5.993589, 49.54414], [5.99362, 49.5441], [5.993727, 49.543972], [5.993891, 49.543762], [5.993978, 49.543644], [5.993998, 49.543617], [5.994017, 49.543594], [5.994162, 49.54363], [5.994444, 49.543697], [5.994867, 49.54384], [5.995119, 49.543926], [5.995142, 49.5439], [5.995295, 49.543682], [5.995333, 49.54363], [5.995813, 49.54376], [5.995855, 49.54377], [5.996061, 49.543816], [5.996241, 49.543858], [5.996527, 49.543907], [5.996645, 49.543926], [5.996771, 49.54394], [5.996855, 49.54395], [5.996962, 49.54396], [5.997038, 49.54397], [5.997126, 49.543972], [5.997148, 49.54385], [5.99716, 49.543797], [5.997187, 49.543686], [5.997206, 49.54359], [5.997248, 49.543396], [5.997267, 49.543316], [5.997282, 49.543262], [5.997293, 49.54321], [5.997366, 49.5429], [5.997534, 49.54293], [5.997652, 49.542953], [5.997767, 49.542973], [5.997915, 49.54299], [5.998167, 49.543015], [5.998285, 49.54302], [5.998445, 49.543026], [5.998587, 49.54303], [5.998716, 49.54303], [5.998766, 49.543026], [5.998892, 49.543022], [5.999086, 49.543015], [5.999174, 49.543007], [5.999227, 49.543003], [5.999346, 49.542984], [5.999403, 49.542973], [5.999502, 49.542953], [5.999617, 49.542927], [5.999777, 49.542896], [5.999937, 49.542862], [6.000021, 49.542847], [6.000094, 49.54283], [6.000147, 49.54282], [6.000292, 49.54279], [6.00033, 49.54278], [6.000498, 49.54275], [6.000589, 49.542732], [6.000605, 49.54273], [6.000841, 49.542686], [6.00094, 49.542667], [6.001017, 49.542656], [6.00104, 49.54265], [6.001074, 49.542645], [6.001127, 49.542633], [6.001158, 49.542625], [6.001181, 49.54262], [6.001238, 49.542606], [6.001314, 49.542583], [6.001421, 49.542545], [6.001432, 49.542538], [6.001444, 49.54253], [6.001486, 49.54248], [6.001501, 49.54246], [6.001539, 49.54242], [6.001555, 49.5424], [6.00157, 49.54239], [6.001581, 49.542374], [6.001658, 49.542313], [6.001711, 49.54231], [6.001764, 49.5423], [6.001955, 49.54217], [6.002184, 49.542015], [6.002497, 49.541817], [6.003218, 49.541363], [6.003252, 49.541344], [6.003664, 49.541092], [6.00382, 49.540974], [6.003851, 49.540947], [6.00392, 49.54089], [6.004003, 49.540817], [6.004103, 49.540745], [6.004244, 49.54065], [6.004595, 49.540417], [6.00461, 49.54041], [6.004633, 49.54039], [6.004839, 49.540253], [6.005297, 49.54042], [6.005526, 49.54051], [6.00585, 49.540623], [6.006262, 49.540768], [6.00635, 49.540577], [6.006353, 49.540565], [6.006403, 49.54046], [6.006407, 49.540447], [6.006472, 49.54031], [6.006475, 49.540295], [6.006494, 49.540253], [6.006506, 49.540234], [6.006514, 49.54022], [6.006529, 49.540176], [6.006556, 49.540123], [6.006617, 49.53998], [6.006651, 49.539913], [6.006662, 49.53988], [6.006693, 49.539814], [6.0067, 49.539803], [6.006704, 49.53979], [6.00672, 49.539757], [6.006826, 49.539516], [6.006853, 49.53946], [6.006929, 49.53929], [6.007086, 49.538937], [6.007116, 49.53886], [6.007139, 49.53881], [6.007147, 49.538788], [6.007155, 49.538776], [6.007174, 49.538727], [6.007494, 49.53878], [6.007509, 49.538784], [6.007601, 49.5388], [6.007673, 49.53862], [6.007818, 49.538277], [6.007887, 49.538105], [6.008017, 49.53811], [6.008131, 49.538105], [6.008249, 49.538105], [6.008406, 49.538097], [6.008482, 49.538094], [6.008593, 49.538082], [6.008703, 49.538074], [6.008829, 49.53806], [6.009008, 49.538036], [6.009138, 49.538017], [6.009233, 49.538002], [6.009317, 49.537987], [6.009417, 49.537964], [6.009523, 49.53793], [6.009661, 49.537876], [6.009962, 49.53775], [6.010344, 49.537598], [6.010466, 49.537544], [6.010313, 49.53739], [6.010225, 49.537304], [6.010084, 49.537167], [6.009989, 49.53707], [6.010015, 49.537056], [6.010286, 49.536907], [6.010546, 49.536766], [6.01092, 49.536568], [6.011335, 49.53635], [6.011671, 49.53618], [6.011816, 49.536102], [6.012034, 49.536114], [6.012316, 49.536125], [6.012423, 49.536133], [6.012472, 49.536133], [6.012533, 49.536144], [6.01288, 49.536186], [6.01293, 49.53619], [6.013098, 49.536213], [6.013121, 49.536114], [6.013174, 49.535873], [6.013182, 49.535847], [6.013185, 49.535816], [6.013189, 49.535763], [6.013185, 49.53575], [6.013586, 49.535812], [6.013876, 49.535866], [6.01425, 49.535934], [6.014765, 49.53604], [6.015032, 49.5361], [6.015219, 49.53614], [6.015261, 49.53615], [6.015287, 49.53616], [6.015581, 49.53623], [6.015684, 49.53625], [6.015818, 49.536285], [6.015886, 49.536304], [6.015951, 49.53632], [6.016119, 49.536358], [6.016138, 49.53636], [6.016745, 49.536503], [6.017096, 49.536583], [6.017176, 49.536396], [6.017195, 49.53635], [6.017641, 49.536327], [6.018095, 49.53631], [6.018499, 49.53629], [6.018946, 49.536266], [6.019194, 49.536255], [6.019396, 49.536255], [6.019548, 49.53626], [6.019754, 49.536263], [6.019999, 49.53627], [6.020185, 49.536278], [6.020205, 49.536205], [6.020453, 49.53625], [6.020597, 49.53628], [6.020773, 49.536324], [6.020804, 49.53633], [6.021017, 49.5364], [6.021166, 49.536453], [6.021322, 49.53651], [6.021647, 49.536648], [6.021891, 49.53676], [6.021902, 49.536766], [6.021913, 49.53677], [6.022024, 49.53668], [6.022112, 49.536613], [6.022348, 49.536457], [6.022451, 49.5364], [6.022539, 49.536354], [6.022596, 49.53633], [6.022669, 49.536312], [6.022711, 49.5363], [6.022825, 49.53627], [6.023157, 49.53674], [6.023252, 49.536873], [6.023416, 49.53711], [6.02353, 49.537271], [6.02355, 49.537291], [6.023638, 49.53734], [6.023745, 49.537405], [6.024202, 49.537664], [6.024366, 49.53776], [6.024378, 49.537764], [6.024455, 49.537809], [6.024485, 49.537827], [6.024576, 49.53788], [6.024876, 49.538049], [6.025263, 49.538265], [6.025484, 49.53839], [6.025702, 49.538517], [6.02627, 49.53884], [6.026564, 49.53901], [6.026949, 49.539227], [6.027075, 49.539303], [6.026957, 49.53942], [6.027227, 49.539597], [6.027582, 49.53983], [6.027857, 49.540005], [6.028048, 49.54013], [6.028479, 49.54041], [6.028635, 49.54051], [6.028799, 49.5406], [6.028956, 49.54069], [6.029265, 49.540863], [6.029219, 49.54091], [6.029177, 49.540947], [6.029135, 49.54099], [6.028956, 49.541225], [6.029333, 49.54134], [6.029638, 49.541435], [6.029962, 49.541534], [6.03087, 49.541813], [6.031218, 49.54191], [6.0319, 49.542095], [6.033377, 49.542484], [6.033949, 49.542633], [6.034201, 49.54268], [6.034239, 49.542686], [6.0343, 49.542698], [6.034239, 49.542805], [6.034456, 49.542854], [6.03441, 49.542934], [6.034872, 49.543], [6.034948, 49.54301], [6.034834, 49.54323], [6.035128, 49.543285], [6.035101, 49.54335], [6.035364, 49.54339], [6.035349, 49.543415], [6.035337, 49.543446], [6.035273, 49.543602], [6.035269, 49.543613], [6.035253, 49.543644], [6.035151, 49.543903], [6.035135, 49.543945], [6.035501, 49.54409], [6.035826, 49.54422], [6.036314, 49.544422], [6.036619, 49.544544], [6.036882, 49.54464], [6.03713, 49.544724], [6.037157, 49.54474], [6.037108, 49.544834], [6.037081, 49.544933], [6.037073, 49.545044], [6.037058, 49.545322], [6.037096, 49.545338], [6.037165, 49.545357], [6.037489, 49.54545], [6.037882, 49.545555], [6.038313, 49.545677], [6.038618, 49.545765], [6.038771, 49.545815], [6.038923, 49.54587], [6.03919, 49.545982], [6.03956, 49.54614], [6.039877, 49.546272], [6.040186, 49.546394], [6.040548, 49.546535], [6.040888, 49.546665], [6.041254, 49.546806], [6.041437, 49.546875], [6.041517, 49.546906], [6.041407, 49.547066], [6.041262, 49.54727], [6.04112, 49.54752], [6.040991, 49.547764], [6.041048, 49.547787], [6.041323, 49.547886], [6.041525, 49.547962], [6.041902, 49.54812], [6.042421, 49.54835], [6.042597, 49.54844], [6.042993, 49.548645], [6.043169, 49.548733], [6.043829, 49.549038], [6.044393, 49.54926], [6.044573, 49.549324], [6.046049, 49.549866], [6.046076, 49.549873], [6.046286, 49.549953], [6.046312, 49.550022], [6.046343, 49.55009], [6.046431, 49.550407], [6.04648, 49.55061], [6.046514, 49.550716], [6.046545, 49.550804], [6.046587, 49.55092], [6.046633, 49.55105], [6.046682, 49.55115], [6.046717, 49.55124], [6.046751, 49.551346], [6.046774, 49.551464], [6.046793, 49.55163], [6.046816, 49.55179], [6.046831, 49.551987], [6.046854, 49.552105], [6.047163, 49.55243], [6.047171, 49.55244], [6.047258, 49.552532], [6.047289, 49.552563], [6.047392, 49.55267], [6.04775, 49.552876], [6.04841, 49.552513], [6.048513, 49.552452], [6.048857, 49.552246], [6.049261, 49.552], [6.04928, 49.55197], [6.049322, 49.55188], [6.049391, 49.551727], [6.049437, 49.551617], [6.049494, 49.551495], [6.049555, 49.551357], [6.049601, 49.551285], [6.049643, 49.551235], [6.049662, 49.55121], [6.049696, 49.551178], [6.049719, 49.551155], [6.049791, 49.5511], [6.049913, 49.55101], [6.050055, 49.55091], [6.050207, 49.550777], [6.050264, 49.550728], [6.050474, 49.550545], [6.050753, 49.550278], [6.050905, 49.550125], [6.050989, 49.550026], [6.051054, 49.549953], [6.051104, 49.549892], [6.051229, 49.549736], [6.051279, 49.549664], [6.051321, 49.54961], [6.051485, 49.549374], [6.05166, 49.549107], [6.051825, 49.548855], [6.051836, 49.548832], [6.051886, 49.548847], [6.051966, 49.548862], [6.052057, 49.54887], [6.052195, 49.548885], [6.052294, 49.548897], [6.052366, 49.54891], [6.052473, 49.548935], [6.052545, 49.548954], [6.052729, 49.549], [6.052797, 49.54902], [6.052942, 49.54905], [6.05303, 49.54907], [6.053083, 49.549076], [6.053259, 49.549103], [6.053339, 49.549118], [6.053446, 49.549133], [6.053511, 49.549145], [6.053663, 49.549187], [6.053877, 49.549244], [6.05401, 49.549282], [6.054056, 49.549294], [6.054132, 49.54932], [6.054426, 49.549423], [6.05464, 49.549496], [6.054716, 49.54952], [6.054956, 49.5496], [6.055189, 49.54967], [6.055399, 49.54973], [6.055758, 49.54982], [6.055922, 49.549862], [6.056112, 49.549908], [6.056345, 49.549965], [6.056601, 49.550026], [6.056993, 49.550117], [6.057283, 49.550182], [6.057398, 49.550205], [6.057497, 49.55023], [6.057573, 49.550247], [6.057711, 49.550293], [6.057737, 49.550304], [6.057764, 49.550312], [6.057882, 49.550373], [6.05818, 49.550537], [6.058237, 49.55057], [6.058313, 49.550613], [6.058378, 49.550655], [6.058432, 49.550682], [6.058493, 49.55071], [6.058725, 49.550797], [6.058775, 49.550816], [6.058878, 49.550858], [6.05895, 49.550888], [6.059034, 49.55093], [6.059145, 49.55099], [6.059187, 49.55101], [6.059336, 49.55109], [6.059519, 49.551205], [6.059694, 49.551323], [6.059732, 49.551346], [6.05979, 49.551376], [6.059889, 49.551426], [6.060114, 49.551514], [6.060179, 49.55154], [6.060217, 49.551556], [6.060293, 49.55158], [6.06043, 49.55163], [6.060568, 49.551674], [6.060579, 49.551502], [6.060595, 49.551308], [6.060602, 49.551186], [6.060614, 49.551105], [6.060621, 49.55106], [6.060625, 49.55103], [6.060648, 49.55093], [6.060663, 49.55086], [6.060709, 49.55068], [6.060747, 49.550556], [6.060793, 49.55039], [6.06082, 49.550304], [6.060854, 49.550198], [6.060869, 49.550144], [6.060885, 49.550083], [6.060957, 49.549896], [6.060976, 49.54984], [6.061003, 49.549778], [6.061056, 49.54964], [6.061071, 49.549595], [6.061083, 49.549545], [6.061109, 49.549423], [6.061125, 49.549324], [6.061174, 49.54903], [6.061212, 49.548786], [6.061212, 49.54874], [6.061216, 49.548687], [6.061216, 49.548447], [6.061197, 49.54792], [6.061197, 49.54782], [6.061186, 49.547783], [6.061174, 49.547752], [6.061159, 49.547703], [6.061129, 49.547615], [6.061003, 49.547226], [6.060885, 49.546894], [6.060831, 49.546753], [6.060812, 49.5467], [6.060694, 49.546387], [6.060648, 49.546288], [6.060526, 49.546], [6.060423, 49.54576], [6.060354, 49.545616], [6.060354, 49.545544], [6.06035, 49.545273], [6.060312, 49.544804], [6.060286, 49.54439], [6.0599, 49.5443], [6.05987, 49.544292], [6.059881, 49.544262], [6.059458, 49.544147], [6.059488, 49.544125], [6.059843, 49.543842], [6.060083, 49.543644], [6.060114, 49.54362], [6.06032, 49.54345], [6.06077, 49.54307], [6.060869, 49.542973], [6.06101, 49.542843], [6.061064, 49.542675], [6.061106, 49.542564], [6.061155, 49.542435], [6.061255, 49.542164], [6.061087, 49.542034], [6.060736, 49.54171], [6.060591, 49.541584], [6.060442, 49.541466], [6.060076, 49.54118], [6.059965, 49.541084], [6.05961, 49.540745], [6.059446, 49.54059], [6.059412, 49.54056], [6.05937, 49.54054], [6.059309, 49.540512], [6.059076, 49.54041], [6.05905, 49.54039], [6.059015, 49.540367], [6.058977, 49.54033], [6.058939, 49.540283], [6.058874, 49.5402], [6.058798, 49.540085], [6.058756, 49.540035], [6.058668, 49.539963], [6.058622, 49.539925], [6.058699, 49.53973], [6.058809, 49.539455], [6.059008, 49.539036], [6.059176, 49.538776], [6.059282, 49.538635], [6.059294, 49.538597], [6.059298, 49.538567], [6.059458, 49.538338], [6.059835, 49.537785], [6.060137, 49.537395], [6.060438, 49.53703], [6.060598, 49.536827], [6.060675, 49.536663], [6.060743, 49.53649], [6.060762, 49.53631], [6.060774, 49.53595], [6.060808, 49.53574], [6.060934, 49.535248], [6.061117, 49.53473], [6.061228, 49.534374], [6.06135, 49.53405], [6.061556, 49.533627], [6.061842, 49.533226], [6.062059, 49.53297], [6.062242, 49.53273], [6.06238, 49.532455], [6.062445, 49.532272], [6.062483, 49.53208], [6.062502, 49.53183], [6.062491, 49.531643], [6.06241, 49.531357], [6.062361, 49.53112], [6.062311, 49.530773], [6.062235, 49.53012], [6.062182, 49.529797], [6.062143, 49.529526], [6.062033, 49.528923], [6.062014, 49.528915], [6.061678, 49.5288], [6.060743, 49.528473], [6.060018, 49.52822], [6.059588, 49.528076], [6.059065, 49.52789], [6.058851, 49.52781], [6.058428, 49.527657], [6.057939, 49.52747], [6.057917, 49.527462], [6.058271, 49.527164], [6.057222, 49.526688], [6.056745, 49.526455], [6.056097, 49.52609], [6.05604, 49.52606], [6.055933, 49.526], [6.055899, 49.525978], [6.055826, 49.52594], [6.055441, 49.525723], [6.055422, 49.52571], [6.055342, 49.525665], [6.055292, 49.52564], [6.055174, 49.525574], [6.055105, 49.52553], [6.055052, 49.525505], [6.054846, 49.52539], [6.054655, 49.52529], [6.054502, 49.525208], [6.05443, 49.525166], [6.054369, 49.52513], [6.054254, 49.52506], [6.054228, 49.525043], [6.05419, 49.52502], [6.054117, 49.52497], [6.054022, 49.524906], [6.053904, 49.524815], [6.053801, 49.524734], [6.053469, 49.52447], [6.05335, 49.52437], [6.053263, 49.524284], [6.053194, 49.52422], [6.053209, 49.524178], [6.053225, 49.524105], [6.053232, 49.524075], [6.05324, 49.52405], [6.05324, 49.524017], [6.053236, 49.523987], [6.053225, 49.52395], [6.053213, 49.523926], [6.053213, 49.523884], [6.053217, 49.523865], [6.05324, 49.523823], [6.053267, 49.5238], [6.053308, 49.523773], [6.053362, 49.52374], [6.053373, 49.523724], [6.053369, 49.52371], [6.053362, 49.523666], [6.053358, 49.523647], [6.053358, 49.523613], [6.053362, 49.52359], [6.053373, 49.523563], [6.053404, 49.52351], [6.053423, 49.523487], [6.053431, 49.523476], [6.053438, 49.523457], [6.053453, 49.52341], [6.053469, 49.52337], [6.053492, 49.523327], [6.053503, 49.523304], [6.053507, 49.52329], [6.053522, 49.52328], [6.053553, 49.523266], [6.053583, 49.52325], [6.053644, 49.523235], [6.053724, 49.52322], [6.053923, 49.52317], [6.05403, 49.523136], [6.054098, 49.52311], [6.054155, 49.523083], [6.054194, 49.523064], [6.054232, 49.52304], [6.054297, 49.52299], [6.054316, 49.522972], [6.054342, 49.522964], [6.054434, 49.522926], [6.054483, 49.522907], [6.054525, 49.52289], [6.05456, 49.522865], [6.054579, 49.522854], [6.054655, 49.5228], [6.054747, 49.52274], [6.054811, 49.522694], [6.05485, 49.522663], [6.054876, 49.522644], [6.05493, 49.522583], [6.055006, 49.52251], [6.055056, 49.52247], [6.055117, 49.522415], [6.055181, 49.52237], [6.055227, 49.522324], [6.055281, 49.522278], [6.055361, 49.5222], [6.055426, 49.522125], [6.055475, 49.522083], [6.055517, 49.522045], [6.055536, 49.522022], [6.055544, 49.522], [6.055555, 49.521954], [6.055567, 49.52193], [6.055605, 49.52189], [6.055632, 49.52185], [6.055647, 49.521812], [6.055662, 49.521782], [6.055662, 49.52175], [6.055651, 49.521725], [6.05562, 49.521687], [6.055586, 49.521664], [6.055525, 49.52163], [6.055475, 49.52161], [6.055452, 49.521603], [6.055429, 49.521626], [6.055326, 49.52161], [6.055189, 49.52159], [6.055025, 49.521576], [6.054861, 49.521564], [6.054743, 49.521557], [6.054602, 49.521553], [6.054541, 49.52155], [6.054342, 49.521805], [6.054266, 49.52191], [6.054186, 49.521908], [6.054037, 49.52221], [6.053793, 49.52219], [6.053675, 49.522182], [6.053648, 49.522152], [6.053553, 49.52215], [6.053373, 49.52214], [6.053267, 49.522137], [6.053202, 49.522133], [6.053049, 49.522125], [6.053003, 49.522125], [6.052854, 49.522118], [6.052813, 49.522114], [6.052729, 49.52211], [6.052378, 49.522087], [6.052309, 49.52208], [6.052218, 49.522064], [6.052103, 49.52205], [6.052042, 49.522038], [6.051977, 49.52203], [6.051882, 49.52202], [6.051813, 49.52201], [6.051638, 49.52201], [6.051321, 49.522015], [6.051325, 49.52161], [6.051325, 49.52135], [6.051317, 49.52114], [6.05131, 49.52112], [6.051306, 49.52109], [6.051275, 49.52096], [6.051249, 49.52087], [6.051214, 49.520786], [6.051172, 49.520706], [6.051142, 49.520645], [6.051092, 49.520573], [6.05171, 49.52042], [6.051886, 49.52038], [6.051672, 49.520123], [6.051666, 49.520086], [6.051664, 49.520073], [6.051653, 49.520027], [6.051557, 49.51992], [6.051462, 49.51982], [6.051294, 49.519634], [6.051153, 49.519485], [6.051043, 49.519524], [6.050882, 49.51938], [6.050634, 49.519146], [6.050509, 49.519024], [6.050779, 49.518883], [6.050882, 49.518826], [6.050955, 49.518795], [6.051195, 49.518906], [6.051233, 49.518867], [6.051531, 49.518547], [6.051783, 49.51829], [6.052084, 49.51797], [6.052298, 49.517776], [6.052378, 49.517708], [6.052454, 49.517647], [6.05263, 49.51752], [6.052771, 49.51742], [6.052916, 49.517323], [6.053091, 49.5172], [6.053392, 49.517002], [6.053545, 49.5169], [6.053556, 49.516895], [6.053663, 49.516823], [6.053366, 49.516685], [6.053091, 49.51656], [6.053057, 49.51655], [6.052957, 49.516502], [6.052877, 49.516464], [6.052626, 49.51635], [6.052427, 49.516262], [6.052332, 49.516216], [6.052195, 49.516155], [6.052107, 49.516117], [6.051786, 49.515972], [6.051512, 49.51585], [6.051447, 49.515816], [6.051878, 49.51542], [6.050917, 49.51497], [6.050936, 49.51494], [6.051043, 49.514763], [6.051065, 49.51472], [6.051073, 49.51471], [6.051104, 49.51466], [6.050817, 49.514606], [6.050737, 49.514587], [6.050608, 49.514557], [6.050463, 49.51451], [6.050245, 49.514435], [6.050146, 49.5144], [6.049986, 49.51434], [6.049917, 49.514317], [6.049807, 49.514286], [6.049768, 49.51428], [6.049417, 49.51419], [6.048899, 49.51405], [6.048929, 49.514], [6.048945, 49.51397], [6.048635, 49.5139], [6.048399, 49.513817], [6.048391, 49.51378], [6.048368, 49.51371], [6.048361, 49.513683], [6.048258, 49.513344], [6.048147, 49.512962], [6.047655, 49.512833], [6.047594, 49.512818], [6.047579, 49.512814], [6.047953, 49.512325], [6.048101, 49.51213], [6.048365, 49.511845], [6.048723, 49.51151], [6.048643, 49.511494], [6.047529, 49.511314], [6.046972, 49.511272], [6.046415, 49.51122], [6.04624, 49.51121], [6.045786, 49.511253], [6.045027, 49.511326], [6.045004, 49.511387], [6.043989, 49.51176], [6.043798, 49.51182], [6.043619, 49.511883], [6.043219, 49.51195], [6.042631, 49.51198], [6.041163, 49.51204], [6.040915, 49.512054], [6.040937, 49.51215], [6.039331, 49.512615], [6.039232, 49.512646], [6.039038, 49.512703], [6.038801, 49.51277], [6.038904, 49.51296], [6.039148, 49.513348], [6.038939, 49.513447], [6.038904, 49.51347], [6.03882, 49.513523], [6.038733, 49.5136], [6.03887, 49.513676], [6.038782, 49.514183], [6.038774, 49.514233], [6.038637, 49.51428], [6.038576, 49.514286], [6.038523, 49.514286], [6.038469, 49.514263], [6.038362, 49.514206], [6.038286, 49.514183], [6.038214, 49.51418], [6.038008, 49.514183], [6.038298, 49.514797], [6.038137, 49.514843], [6.038015, 49.514866], [6.037924, 49.514893], [6.03779, 49.51494], [6.037561, 49.515038], [6.037229, 49.51515], [6.036821, 49.515278], [6.036684, 49.51532], [6.036604, 49.51534], [6.036543, 49.515347], [6.036474, 49.515347], [6.036406, 49.515343], [6.036322, 49.51532], [6.036203, 49.515285], [6.036039, 49.515232], [6.035818, 49.515167], [6.035791, 49.515163], [6.035429, 49.51518], [6.035105, 49.515324], [6.035086, 49.51533], [6.03478, 49.515457], [6.034487, 49.51557], [6.033533, 49.5158], [6.03351, 49.515804], [6.033495, 49.515797], [6.033464, 49.515755], [6.033438, 49.515736], [6.033388, 49.51572], [6.033323, 49.51571], [6.033274, 49.515705], [6.033228, 49.515705], [6.033007, 49.51576], [6.032965, 49.51576], [6.032927, 49.51575], [6.0329, 49.515736], [6.032782, 49.515636], [6.032717, 49.515602], [6.032682, 49.51559], [6.032644, 49.515583], [6.032595, 49.515583], [6.032495, 49.515594], [6.032408, 49.515606], [6.032377, 49.515614], [6.032316, 49.51564], [6.032282, 49.515667], [6.032267, 49.515682], [6.032259, 49.515713], [6.032274, 49.51577], [6.032267, 49.515816], [6.032248, 49.515858], [6.032213, 49.515892], [6.032167, 49.515915], [6.032118, 49.51593], [6.031973, 49.515953], [6.031729, 49.51596], [6.03166, 49.516], [6.031568, 49.51607], [6.031523, 49.516132], [6.031504, 49.516148], [6.031477, 49.516163], [6.031454, 49.516163], [6.031359, 49.516132], [6.031134, 49.516098], [6.031088, 49.516098], [6.031034, 49.516106], [6.03097, 49.516125], [6.030703, 49.516224], [6.03079, 49.516388], [6.030851, 49.51647], [6.030966, 49.51668], [6.02984, 49.516865], [6.029554, 49.516922], [6.029066, 49.517017], [6.028887, 49.517048], [6.028147, 49.517128], [6.027514, 49.517197], [6.027433, 49.5172], [6.027239, 49.51716], [6.026834, 49.5172], [6.026579, 49.517246], [6.026289, 49.517323], [6.026171, 49.51737], [6.025854, 49.51754], [6.025488, 49.51774], [6.025101, 49.518201], [6.025099, 49.518204], [6.025518, 49.518419], [6.026114, 49.518726], [6.026251, 49.5188], [6.026247, 49.518803], [6.026209, 49.518833], [6.025286, 49.5194], [6.025053, 49.51955], [6.024893, 49.51965], [6.024786, 49.51972], [6.024729, 49.519753], [6.024618, 49.519833], [6.024565, 49.51987], [6.024343, 49.520027], [6.024294, 49.52006], [6.024214, 49.52012], [6.024187, 49.520138], [6.024088, 49.520206], [6.023611, 49.520535], [6.023554, 49.520576], [6.023424, 49.520664], [6.0231, 49.52089], [6.022764, 49.521126], [6.022627, 49.52122], [6.022577, 49.521255], [6.022543, 49.52128], [6.022486, 49.52132], [6.022467, 49.52133], [6.022379, 49.521393], [6.021959, 49.521683], [6.021929, 49.521706], [6.021723, 49.52186], [6.021555, 49.521988], [6.021322, 49.522175], [6.021162, 49.522316], [6.020876, 49.522175], [6.020723, 49.522274], [6.020559, 49.522385], [6.020365, 49.52251], [6.020082, 49.522705], [6.019892, 49.522865], [6.019705, 49.52304], [6.019628, 49.52311], [6.019548, 49.523182], [6.019361, 49.523438], [6.019323, 49.523518], [6.019258, 49.523699], [6.019243, 49.52374], [6.019178, 49.523712], [6.017996, 49.523216], [6.018011, 49.5232], [6.016825, 49.52274], [6.016798, 49.522728], [6.016695, 49.522686], [6.01668, 49.522682], [6.016661, 49.522675], [6.016645, 49.522667], [6.015772, 49.522327], [6.016405, 49.522022], [6.016176, 49.521843], [6.015997, 49.521935], [6.015715, 49.52207], [6.015234, 49.521576], [6.013952, 49.520264], [6.013918, 49.52023], [6.013895, 49.520203], [6.013884, 49.520134], [6.013876, 49.520073], [6.013868, 49.520054], [6.014139, 49.519985], [6.014776, 49.51982], [6.014849, 49.519802], [6.014658, 49.519722], [6.014643, 49.51972], [6.01462, 49.519707], [6.014593, 49.519695], [6.014578, 49.519684], [6.014555, 49.51967], [6.014532, 49.519653], [6.014326, 49.51951], [6.014051, 49.519318], [6.01401, 49.519337], [6.013876, 49.5194], [6.013845, 49.51942], [6.013773, 49.519474], [6.0137, 49.519558], [6.013662, 49.519577], [6.013651, 49.519585], [6.01346, 49.519646], [6.013338, 49.51974], [6.01325, 49.51975], [6.013189, 49.51975], [6.013151, 49.519753], [6.013098, 49.51975], [6.013044, 49.519745], [6.013029, 49.51974], [6.012976, 49.51973], [6.012876, 49.519676], [6.012854, 49.519672], [6.012835, 49.51967], [6.012819, 49.519665], [6.012796, 49.51967], [6.012754, 49.519672], [6.012697, 49.519688], [6.012621, 49.519703], [6.012537, 49.519714], [6.012465, 49.519714], [6.012426, 49.519707], [6.012411, 49.519703], [6.0124, 49.519695], [6.012396, 49.519684], [6.0124, 49.519672], [6.012445, 49.51963], [6.012461, 49.519615], [6.012465, 49.5196], [6.012457, 49.519573], [6.012442, 49.519554], [6.012419, 49.51954], [6.012251, 49.519474], [6.012236, 49.51947], [6.012224, 49.519466], [6.012194, 49.519463], [6.012163, 49.519466], [6.012129, 49.51947], [6.012034, 49.51951], [6.011946, 49.519535], [6.011934, 49.51954], [6.01174, 49.51959], [6.011652, 49.519608], [6.011614, 49.519615], [6.011583, 49.51961], [6.011557, 49.5196], [6.011541, 49.519592], [6.011534, 49.519577], [6.011541, 49.51951], [6.01156, 49.51941], [6.011549, 49.51937], [6.011538, 49.519356], [6.011515, 49.51935], [6.011469, 49.519356], [6.011194, 49.51941], [6.011175, 49.519405], [6.011175, 49.51939], [6.011179, 49.51937], [6.011167, 49.51933], [6.011133, 49.51929], [6.011072, 49.519268], [6.010973, 49.51924], [6.01092, 49.519234], [6.010878, 49.51923], [6.010805, 49.51926], [6.010733, 49.51925], [6.010679, 49.519268], [6.01066, 49.519276], [6.010466, 49.519398], [6.010355, 49.519463], [6.01029, 49.519497], [6.010218, 49.519505], [6.010065, 49.519493], [6.009951, 49.51948], [6.009878, 49.51945], [6.009859, 49.519436], [6.009783, 49.519386], [6.009722, 49.519344], [6.009703, 49.519333], [6.009649, 49.51933], [6.00944, 49.51933], [6.009397, 49.519325], [6.009386, 49.519325], [6.00931, 49.519306], [6.009298, 49.5193], [6.009203, 49.519264], [6.009153, 49.519268], [6.009043, 49.519306], [6.008875, 49.519367], [6.008825, 49.519386], [6.008707, 49.519424], [6.008539, 49.51948], [6.008474, 49.51951], [6.008413, 49.51954], [6.008349, 49.519577], [6.008306, 49.519604], [6.008268, 49.51963], [6.008219, 49.519665], [6.008146, 49.51971], [6.008123, 49.519722], [6.008101, 49.51973], [6.008017, 49.519737], [6.007917, 49.519753], [6.007849, 49.519753], [6.007822, 49.51975], [6.007807, 49.519745], [6.00778, 49.519726], [6.007757, 49.519722], [6.007738, 49.519722], [6.007639, 49.51975], [6.007616, 49.519756], [6.007593, 49.519768], [6.007555, 49.51981], [6.007444, 49.51992], [6.007276, 49.52006], [6.007235, 49.520084], [6.007212, 49.5201], [6.007155, 49.520164], [6.007135, 49.520184], [6.007097, 49.52022], [6.006994, 49.52026], [6.006716, 49.520298], [6.006632, 49.520287], [6.006609, 49.52028], [6.00659, 49.520264], [6.006578, 49.52025], [6.006575, 49.52023], [6.006552, 49.52021], [6.006533, 49.520203], [6.006514, 49.520203], [6.006491, 49.520206], [6.006418, 49.52023], [6.006125, 49.52034], [6.006102, 49.520348], [6.006071, 49.52035], [6.006044, 49.520348], [6.005941, 49.52033], [6.005907, 49.520317], [6.005865, 49.520313], [6.005823, 49.520313], [6.005789, 49.520317], [6.005758, 49.520332], [6.005735, 49.520344], [6.00569, 49.520382], [6.005659, 49.520424], [6.005655, 49.52044], [6.005667, 49.52045], [6.005682, 49.52046], [6.005693, 49.520462], [6.005724, 49.520462], [6.005739, 49.520473], [6.005747, 49.52049], [6.005743, 49.52051], [6.005735, 49.520527], [6.005724, 49.520546], [6.005712, 49.520557], [6.005693, 49.520573], [6.005625, 49.520607], [6.005606, 49.520626], [6.005575, 49.520653], [6.005556, 49.520657], [6.005518, 49.520668], [6.005083, 49.520782], [6.004816, 49.520847], [6.004568, 49.520912], [6.004431, 49.520947], [6.004351, 49.520966], [6.004202, 49.521008], [6.003935, 49.521076], [6.003901, 49.521088], [6.003202, 49.52121], [6.002825, 49.52087], [6.002012, 49.520134], [6.001699, 49.51989], [6.001371, 49.51962], [6.000776, 49.51927], [6.000444, 49.519073], [6.000154, 49.5189], [5.999666, 49.518616], [5.999517, 49.518543], [5.998789, 49.518177], [5.998369, 49.517956], [5.998316, 49.517925], [5.998144, 49.51783], [5.997671, 49.517532], [5.997515, 49.517433], [5.997496, 49.51742], [5.997423, 49.517376], [5.997408, 49.51737], [5.997309, 49.517303], [5.997057, 49.517143], [5.996614, 49.51683], [5.99642, 49.516693], [5.996069, 49.516457], [5.995897, 49.51635], [5.995588, 49.51617], [5.99489, 49.515797], [5.99476, 49.515724], [5.994722, 49.515705], [5.99407, 49.515354], [5.994047, 49.515343], [5.993948, 49.515293], [5.993833, 49.51524], [5.993647, 49.51516], [5.993471, 49.5151], [5.993208, 49.515045], [5.992708, 49.514946], [5.992601, 49.514923], [5.992472, 49.5149], [5.992228, 49.514828], [5.991877, 49.51473], [5.991808, 49.51471], [5.991735, 49.51469], [5.991732, 49.514645], [5.991732, 49.5146], [5.990877, 49.514484], [5.99045, 49.51443], [5.989401, 49.514286], [5.988672, 49.514187], [5.988154, 49.514114], [5.987867, 49.514072], [5.987726, 49.51405], [5.987471, 49.514004], [5.98696, 49.513897], [5.986555, 49.51381], [5.986528, 49.5138], [5.986505, 49.513798], [5.986452, 49.513786], [5.986437, 49.513943], [5.986433, 49.514126], [5.986475, 49.514645], [5.98641, 49.514633], [5.986273, 49.514606], [5.986227, 49.514595], [5.985849, 49.51452], [5.98583, 49.514515], [5.985437, 49.514427], [5.985083, 49.514336], [5.984987, 49.51431], [5.984919, 49.51429], [5.984793, 49.51424], [5.984655, 49.51418], [5.98456, 49.51413], [5.984545, 49.514114], [5.984533, 49.514103], [5.984495, 49.51405], [5.984465, 49.513996], [5.984453, 49.51397], [5.984442, 49.51395], [5.984381, 49.513817], [5.98435, 49.51374], [5.984343, 49.513714], [5.98432, 49.513657], [5.984312, 49.51364], [5.984281, 49.51359], [5.984243, 49.513535], [5.984148, 49.51342], [5.984125, 49.513393], [5.984117, 49.51339], [5.984072, 49.513344], [5.984034, 49.5133], [5.983942, 49.513226], [5.983755, 49.513096], [5.98345, 49.512894], [5.983202, 49.512714], [5.982984, 49.51254], [5.982893, 49.512466], [5.982817, 49.5124], [5.982447, 49.512104], [5.981886, 49.511627], [5.981646, 49.511673], [5.981611, 49.51168], [5.981569, 49.51169], [5.981497, 49.5117], [5.981131, 49.511745], [5.981043, 49.511757], [5.980707, 49.5118], [5.98065, 49.511806], [5.980413, 49.511837], [5.980024, 49.511883], [5.979994, 49.511887], [5.97983, 49.511906], [5.979696, 49.511925], [5.979597, 49.511936], [5.979555, 49.51194], [5.97938, 49.511963], [5.979311, 49.51197], [5.979166, 49.51199], [5.978777, 49.51204], [5.978537, 49.51207], [5.978468, 49.512077], [5.978365, 49.51209], [5.978277, 49.5121], [5.978041, 49.51213], [5.977812, 49.512157], [5.977755, 49.512165], [5.97769, 49.512173], [5.977499, 49.512196], [5.977243, 49.512226], [5.97714, 49.51224], [5.976564, 49.512314], [5.976362, 49.512337], [5.976343, 49.51234], [5.976278, 49.51235], [5.976206, 49.51236], [5.976118, 49.51237], [5.975828, 49.51241], [5.975817, 49.51241], [5.975573, 49.51244], [5.975485, 49.51245], [5.975412, 49.512463], [5.975344, 49.51247], [5.975126, 49.5125], [5.97492, 49.512527], [5.974901, 49.512527], [5.974733, 49.51255], [5.974543, 49.512577], [5.974489, 49.512585], [5.974428, 49.512592], [5.974188, 49.512623], [5.973787, 49.512657], [5.973623, 49.51267], [5.973581, 49.51267], [5.97328, 49.51269], [5.973112, 49.512703], [5.97294, 49.512714], [5.972624, 49.512733], [5.972475, 49.51274], [5.972322, 49.512753], [5.972158, 49.512764], [5.97201, 49.51277], [5.971933, 49.512775], [5.971868, 49.512783], [5.971777, 49.51279], [5.971712, 49.5128], [5.971651, 49.512806], [5.971567, 49.51282], [5.971529, 49.512825], [5.97117, 49.512905], [5.97109, 49.512924], [5.971041, 49.512936], [5.97069, 49.513027], [5.970606, 49.513054], [5.970392, 49.51311], [5.970346, 49.513126], [5.970266, 49.51315], [5.970186, 49.513172], [5.97014, 49.513187], [5.970007, 49.513226], [5.969748, 49.5133], [5.969667, 49.51333], [5.969557, 49.513363], [5.969454, 49.513393], [5.969313, 49.513435], [5.969171, 49.51348], [5.969126, 49.513496], [5.968809, 49.513603], [5.968767, 49.51362], [5.968756, 49.513622], [5.968519, 49.513706], [5.96847, 49.51372], [5.968344, 49.51377], [5.968279, 49.513794], [5.968168, 49.51384], [5.968092, 49.513866], [5.968042, 49.51389], [5.967913, 49.513947], [5.967859, 49.51397], [5.967566, 49.514103], [5.96747, 49.51415], [5.967276, 49.51424], [5.966875, 49.51443], [5.967005, 49.514656], [5.967089, 49.51481], [5.967104, 49.51483], [5.967115, 49.514854], [5.967161, 49.514935], [5.967169, 49.514954], [5.967264, 49.514973], [5.967356, 49.51499], [5.967646, 49.51505], [5.96771, 49.515064], [5.968046, 49.515133], [5.968092, 49.51514], [5.96821, 49.515163], [5.968252, 49.51517], [5.968275, 49.51518], [5.968634, 49.51525], [5.968653, 49.515255], [5.968687, 49.515263], [5.968817, 49.515285], [5.96884, 49.515293], [5.968851, 49.515293], [5.968893, 49.515305], [5.968924, 49.51531], [5.968977, 49.51532], [5.969034, 49.51533], [5.969057, 49.51534], [5.969114, 49.51535], [5.969191, 49.515366], [5.969397, 49.515408], [5.969591, 49.515453], [5.969626, 49.51546], [5.969664, 49.51547], [5.969725, 49.51548], [5.969915, 49.515526], [5.970087, 49.515564], [5.970148, 49.51558], [5.970198, 49.51559], [5.970339, 49.515625], [5.970472, 49.51566], [5.970724, 49.51572], [5.970758, 49.51573], [5.97098, 49.51578], [5.971193, 49.51584], [5.971251, 49.515854], [5.971338, 49.51588], [5.971376, 49.515892], [5.971445, 49.515915], [5.971514, 49.515934], [5.971533, 49.51594], [5.971544, 49.51595], [5.971624, 49.515976], [5.971689, 49.516003], [5.971705, 49.516006], [5.971777, 49.51603], [5.971865, 49.516056], [5.971937, 49.516083], [5.971964, 49.516094], [5.972086, 49.516136], [5.972193, 49.516174], [5.972296, 49.516212], [5.972444, 49.51627], [5.972502, 49.51629], [5.972544, 49.516304], [5.972635, 49.516342], [5.972738, 49.516373], [5.972807, 49.51639], [5.972818, 49.516396], [5.972864, 49.516407], [5.972971, 49.516438], [5.97299, 49.516445], [5.973246, 49.516506], [5.973333, 49.51653], [5.973627, 49.516605], [5.973711, 49.51663], [5.973776, 49.516644], [5.973787, 49.516644], [5.973806, 49.516647], [5.973883, 49.516666], [5.974127, 49.516716], [5.974306, 49.516758], [5.974333, 49.516766], [5.97439, 49.516777], [5.974436, 49.51679], [5.97447, 49.516796], [5.974554, 49.516815], [5.974695, 49.516846], [5.975069, 49.51693], [5.975111, 49.516937], [5.975164, 49.51695], [5.975195, 49.516956], [5.975306, 49.516987], [5.975557, 49.51706], [5.975668, 49.51709], [5.975885, 49.517147], [5.976252, 49.517246], [5.976133, 49.51776], [5.976084, 49.51796], [5.976053, 49.518097], [5.975988, 49.518322], [5.97595, 49.51845], [5.975897, 49.518593], [5.975832, 49.51876], [5.975725, 49.519028], [5.975679, 49.51913], [5.975657, 49.519184], [5.975466, 49.51952], [5.975367, 49.519707], [5.975237, 49.519928], [5.975157, 49.520054], [5.975134, 49.520084], [5.975073, 49.520172], [5.975031, 49.52024], [5.974871, 49.520496], [5.974813, 49.520596], [5.974764, 49.52067], [5.974733, 49.520714], [5.974714, 49.520744], [5.974676, 49.520794], [5.974649, 49.520836], [5.974573, 49.520943], [5.97455, 49.520977], [5.974524, 49.52101], [5.974493, 49.521046], [5.974405, 49.52116], [5.97439, 49.521156], [5.974363, 49.52115], [5.974337, 49.52114], [5.974272, 49.52112], [5.974241, 49.521107], [5.974192, 49.521088], [5.974093, 49.521053], [5.973929, 49.520996], [5.973894, 49.520985], [5.973871, 49.520977], [5.973829, 49.52107], [5.973734, 49.52127], [5.973711, 49.52132], [5.973681, 49.521393], [5.973665, 49.52142], [5.973604, 49.521564], [5.973638, 49.521576], [5.9737, 49.5216], [5.97386, 49.521652], [5.973959, 49.521683], [5.974173, 49.521755], [5.974295, 49.5218], [5.974005, 49.522343], [5.973967, 49.522408], [5.973707, 49.522884], [5.973661, 49.522957], [5.973642, 49.52299], [5.973635, 49.523006], [5.973555, 49.523132], [5.973574, 49.52315], [5.973612, 49.52319], [5.973623, 49.523197], [5.973688, 49.523262], [5.973711, 49.52328], [5.973753, 49.523323], [5.973791, 49.523357], [5.973822, 49.52338], [5.973833, 49.52339], [5.973909, 49.523453], [5.973932, 49.52347], [5.973944, 49.523483], [5.974012, 49.523537], [5.974058, 49.52357], [5.974173, 49.52365], [5.974218, 49.52368], [5.974306, 49.52374], [5.974337, 49.52376], [5.97452, 49.52387], [5.974535, 49.52388], [5.974585, 49.523907], [5.974627, 49.523933], [5.974722, 49.523987], [5.974791, 49.52403], [5.974817, 49.524044], [5.974859, 49.524067], [5.975069, 49.524174], [5.975138, 49.524208], [5.974943, 49.524384], [5.974928, 49.5244], [5.974913, 49.52441], [5.974894, 49.52443], [5.974817, 49.52449], [5.974806, 49.524498], [5.974722, 49.524567], [5.974634, 49.52463], [5.974596, 49.524662], [5.974524, 49.524715], [5.974478, 49.524757], [5.974462, 49.524776], [5.974432, 49.524807], [5.974428, 49.52482], [5.974478, 49.52483], [5.974505, 49.524837], [5.974581, 49.524853], [5.974611, 49.524857], [5.974627, 49.52486], [5.974638, 49.52486], [5.974657, 49.524868], [5.974676, 49.52488], [5.974703, 49.52489], [5.974726, 49.524906], [5.974771, 49.524925], [5.974787, 49.524933], [5.974817, 49.524944], [5.974848, 49.524956], [5.974909, 49.52497], [5.974947, 49.52498], [5.974966, 49.524982], [5.974985, 49.524986], [5.975077, 49.524986], [5.975088, 49.524982], [5.975142, 49.524982], [5.975161, 49.52498], [5.975183, 49.52498], [5.975203, 49.524982], [5.975222, 49.524986], [5.975244, 49.524994], [5.975256, 49.525005], [5.975267, 49.525036], [5.97526, 49.52506], [5.975256, 49.52509], [5.975256, 49.5251], [5.97526, 49.525112], [5.975275, 49.525127], [5.975283, 49.52513], [5.975313, 49.52514], [5.975344, 49.52514], [5.975355, 49.52513], [5.97537, 49.525127], [5.975424, 49.525093], [5.975435, 49.52509], [5.975447, 49.52508], [5.975462, 49.525074], [5.975473, 49.525074], [5.975496, 49.52507], [5.975515, 49.52507], [5.975531, 49.525066], [5.975557, 49.525078], [5.975569, 49.525085], [5.975592, 49.5251], [5.975599, 49.525112], [5.975614, 49.525124], [5.97563, 49.525143], [5.975836, 49.525173], [5.975901, 49.525173], [5.975927, 49.52517], [5.975958, 49.525173], [5.97603, 49.525173], [5.976065, 49.525177], [5.976088, 49.525177], [5.976099, 49.52518], [5.976133, 49.525185], [5.976156, 49.52519], [5.976187, 49.5252], [5.976202, 49.525208], [5.976233, 49.525215], [5.976255, 49.525234], [5.976278, 49.52525], [5.976301, 49.525265], [5.97632, 49.525284], [5.976332, 49.5253], [5.976347, 49.525314], [5.976404, 49.525364], [5.976439, 49.5254], [5.976496, 49.525455], [5.976519, 49.52548], [5.976526, 49.525497], [5.976534, 49.525517], [5.976534, 49.52553], [5.976538, 49.525547], [5.976538, 49.525574], [5.976534, 49.525585], [5.97653, 49.525604], [5.976522, 49.52562], [5.976522, 49.52563], [5.976519, 49.525646], [5.976519, 49.525677], [5.97653, 49.5257], [5.976541, 49.525715], [5.976561, 49.525734], [5.976572, 49.525738], [5.976591, 49.52575], [5.976629, 49.525757], [5.976652, 49.525764], [5.976534, 49.526028], [5.976522, 49.52605], [5.9765, 49.526104], [5.976442, 49.52609], [5.976435, 49.526106], [5.976423, 49.526134], [5.976355, 49.5263], [5.976347, 49.52632], [5.976313, 49.5264], [5.976294, 49.526447], [5.976267, 49.526505], [5.976221, 49.526608], [5.976175, 49.5267], [5.976152, 49.526752], [5.976133, 49.52679], [5.976099, 49.526855], [5.976069, 49.526917], [5.976004, 49.527046], [5.975775, 49.527466], [5.975752, 49.5275], [5.975733, 49.52753], [5.975634, 49.52749], [5.975534, 49.527447], [5.975462, 49.527412], [5.97542, 49.527393], [5.975393, 49.52738], [5.975382, 49.527374], [5.975347, 49.52736], [5.975321, 49.52735], [5.975222, 49.52731], [5.975203, 49.5273], [5.975183, 49.527294], [5.975161, 49.527283], [5.975142, 49.527275], [5.974947, 49.527195], [5.974825, 49.52715], [5.974668, 49.527405], [5.9746, 49.52752], [5.974535, 49.527542], [5.97447, 49.52757], [5.974459, 49.527573], [5.974405, 49.527596], [5.974325, 49.527626], [5.974272, 49.52765], [5.974245, 49.527657], [5.974207, 49.527664], [5.97418, 49.52767], [5.974112, 49.52769], [5.974024, 49.527714], [5.973925, 49.52774], [5.973875, 49.527752], [5.97365, 49.527813], [5.973345, 49.527893], [5.973231, 49.527922], [5.973139, 49.527946], [5.973063, 49.52797], [5.972998, 49.527985], [5.972956, 49.527996], [5.972906, 49.52801], [5.972895, 49.52801], [5.972868, 49.52802], [5.972856, 49.528023], [5.972662, 49.52808], [5.972712, 49.52813], [5.972761, 49.528175], [5.972753, 49.528187], [5.972738, 49.528202], [5.972704, 49.52821], [5.972628, 49.52823], [5.972589, 49.528236], [5.972521, 49.52825], [5.972384, 49.528286], [5.972372, 49.52829], [5.972212, 49.528324], [5.97201, 49.528374], [5.971655, 49.528458], [5.971674, 49.5285], [5.971746, 49.52864], [5.971815, 49.528786], [5.971914, 49.529003], [5.97201, 49.52922], [5.97204, 49.529285], [5.972052, 49.529316], [5.972124, 49.52948], [5.972158, 49.52957], [5.972197, 49.529667], [5.9722, 49.529682], [5.972216, 49.529762], [5.972273, 49.530113], [5.97225, 49.530148], [5.972227, 49.530178], [5.972204, 49.53018], [5.972055, 49.530197], [5.971884, 49.530212], [5.971853, 49.530216], [5.97183, 49.530216], [5.9718, 49.53022], [5.971781, 49.530224], [5.971746, 49.530228], [5.971693, 49.53023], [5.971598, 49.530243], [5.971559, 49.530243], [5.971483, 49.530247], [5.971357, 49.53025], [5.971247, 49.53025], [5.97122, 49.530254], [5.971144, 49.530254], [5.970869, 49.530262], [5.970865, 49.530247], [5.970865, 49.530148], [5.970861, 49.530033], [5.970461, 49.530033], [5.970301, 49.53003], [5.970137, 49.53003], [5.969767, 49.53002], [5.969603, 49.530018], [5.969225, 49.53], [5.969072, 49.529987], [5.969034, 49.529987], [5.969011, 49.529984], [5.969, 49.529984], [5.968859, 49.529972], [5.968771, 49.529964], [5.968741, 49.52996], [5.96866, 49.529953], [5.968649, 49.52995], [5.96863, 49.52995], [5.968531, 49.529938], [5.968454, 49.529926], [5.968424, 49.529922], [5.968409, 49.529922], [5.968042, 49.52987], [5.968061, 49.529797], [5.968073, 49.529755], [5.968081, 49.529724], [5.96805, 49.529716], [5.967886, 49.529682], [5.967726, 49.529648], [5.967558, 49.52961], [5.967386, 49.52957], [5.967302, 49.529552], [5.96718, 49.52953], [5.966974, 49.529484], [5.966898, 49.52947], [5.966875, 49.529465], [5.96686, 49.52946], [5.966818, 49.529453], [5.966761, 49.529438], [5.966715, 49.529427], [5.966539, 49.52939], [5.966265, 49.529324], [5.966257, 49.52934], [5.966253, 49.52935], [5.965673, 49.529198], [5.965681, 49.529186], [5.965788, 49.529057], [5.965815, 49.529022], [5.965483, 49.528988], [5.96512, 49.528954], [5.96504, 49.528946], [5.964964, 49.52894], [5.964933, 49.529087], [5.964903, 49.52924], [5.964868, 49.529408], [5.964663, 49.529377], [5.964605, 49.52937], [5.964457, 49.52935], [5.963884, 49.529266], [5.963732, 49.529488], [5.963701, 49.52953], [5.963686, 49.529556], [5.963636, 49.52955], [5.963152, 49.52948], [5.96311, 49.529476], [5.963045, 49.529465], [5.962992, 49.529457], [5.962648, 49.52941], [5.962629, 49.52947], [5.962606, 49.529526], [5.962019, 49.529438], [5.961638, 49.52938], [5.961466, 49.529358], [5.961359, 49.529343], [5.961061, 49.529297], [5.961027, 49.529343], [5.960993, 49.529385], [5.961081, 49.529408], [5.961123, 49.529415], [5.961248, 49.529453], [5.961214, 49.52949], [5.961172, 49.529537], [5.961157, 49.529556], [5.961111, 49.529602], [5.961081, 49.529636], [5.961065, 49.52965], [5.961042, 49.529675], [5.961023, 49.52969], [5.960966, 49.529747], [5.96092, 49.529785], [5.960909, 49.529797], [5.960897, 49.529808], [5.960875, 49.529827], [5.960863, 49.52984], [5.960852, 49.529846], [5.960833, 49.52986], [5.960787, 49.529896], [5.960707, 49.529953], [5.960627, 49.530006], [5.960562, 49.530045], [5.960501, 49.530083], [5.960428, 49.530125], [5.960417, 49.53013], [5.96039, 49.530148], [5.960379, 49.53015], [5.960352, 49.530167], [5.960337, 49.530174], [5.960291, 49.5302], [5.960257, 49.530216], [5.960211, 49.53024], [5.960104, 49.530273], [5.960085, 49.53028], [5.960047, 49.530296], [5.959929, 49.530323], [5.959845, 49.530346], [5.959822, 49.530354], [5.959803, 49.530354], [5.959784, 49.530357], [5.959707, 49.530373], [5.959608, 49.530388], [5.959558, 49.53039], [5.959505, 49.5304], [5.959459, 49.530407], [5.959333, 49.530415], [5.959265, 49.53042], [5.959158, 49.53042], [5.958975, 49.530422], [5.958887, 49.530426], [5.958685, 49.530426], [5.958628, 49.53042], [5.958494, 49.530407], [5.958468, 49.530403], [5.958456, 49.530403], [5.958376, 49.530396], [5.958323, 49.53039], [5.958292, 49.530388], [5.958189, 49.53038], [5.958147, 49.53038], [5.958132, 49.530376], [5.957991, 49.530365], [5.957979, 49.53036], [5.957956, 49.53036], [5.957918, 49.530354], [5.957884, 49.530346], [5.957842, 49.530342], [5.957815, 49.53033], [5.957789, 49.530323], [5.957766, 49.530308], [5.957731, 49.53029], [5.957705, 49.53027], [5.957674, 49.53025], [5.957655, 49.530235], [5.957647, 49.530228], [5.957594, 49.5302], [5.957464, 49.530174], [5.957422, 49.530167], [5.957357, 49.530155], [5.957285, 49.530148], [5.957209, 49.530136], [5.95714, 49.530136], [5.957071, 49.530132], [5.957018, 49.530136], [5.956968, 49.530136], [5.956957, 49.53014], [5.956945, 49.53014], [5.956793, 49.530155], [5.956778, 49.530155], [5.956743, 49.53016], [5.956709, 49.53016], [5.956648, 49.530163], [5.956613, 49.530163], [5.95653, 49.53017], [5.956495, 49.530167], [5.956465, 49.530167], [5.956434, 49.530163], [5.956407, 49.530155], [5.956381, 49.53015], [5.956358, 49.530148], [5.956324, 49.530148], [5.956285, 49.530144], [5.956007, 49.530144], [5.955957, 49.53014], [5.955751, 49.53014], [5.955435, 49.530144], [5.954912, 49.530148], [5.954725, 49.530148], [5.954668, 49.53015], [5.954611, 49.530155], [5.954435, 49.530167], [5.95439, 49.530167], [5.954374, 49.53017], [5.954275, 49.530174], [5.954168, 49.53018], [5.954004, 49.530407], [5.95392, 49.5305], [5.95402, 49.531227], [5.954031, 49.53131], [5.95405, 49.531437], [5.954058, 49.531517], [5.953913, 49.531902], [5.953779, 49.532253], [5.953772, 49.53227], [5.953768, 49.532284], [5.953657, 49.532574], [5.953558, 49.532825], [5.953543, 49.53287], [5.953459, 49.53309], [5.95331, 49.53344], [5.953264, 49.533546], [5.953245, 49.533596], [5.953009, 49.53416]]]]}}]}