{"type": "FeatureCollection", "features": [{"type": "Feature", "properties": {"name": "Grass"}, "geometry": {"type": "Polygon", "coordinates": [[[5.8867591, 49.6273332], [5.8860926, 49.6279613], [5.8860998, 49.6279965], [5.8858835, 49.6281981], [5.8858917, 49.6282984], [5.8854922, 49.6288903], [5.8858217, 49.6290247], [5.8851724, 49.6295132], [5.8847781, 49.6297807], [5.884388, 49.6299446], [5.8841375, 49.6300621], [5.8838351, 49.6302727], [5.8833738, 49.6306089], [5.8827061, 49.6309463], [5.883117, 49.6316548], [5.8838615, 49.6329796], [5.8842494, 49.6332218], [5.8845483, 49.6333643], [5.8848707, 49.6332979], [5.8852937, 49.633372], [5.8856221, 49.6334729], [5.8859254, 49.6336142], [5.8861914, 49.6337522], [5.8864488, 49.6339496], [5.8866528, 49.6342694], [5.8867435, 49.6346244], [5.8868243, 49.6347266], [5.8869074, 49.634955], [5.8877879, 49.6350672], [5.8878602, 49.6350764], [5.8878764, 49.6350785], [5.8884519, 49.6351833], [5.8891886, 49.6353069], [5.8896628, 49.6353937], [5.8899144, 49.6354599], [5.8903661, 49.6355974], [5.8907454, 49.6357281], [5.8912113, 49.635906], [5.8916543, 49.6360644], [5.8919596, 49.6361578], [5.8922839, 49.6362356], [5.8923682, 49.6362427], [5.8929742, 49.6362703], [5.8938402, 49.6362891], [5.8943494, 49.636294], [5.895315, 49.6362688], [5.8958398, 49.6361861], [5.8962763, 49.6361058], [5.8976222, 49.6358221], [5.8984153, 49.6350531], [5.8989252, 49.6344106], [5.898964, 49.6343789], [5.8992441, 49.6345238], [5.8994883, 49.6346275], [5.9010209, 49.6352501], [5.9027769, 49.6359217], [5.9030129, 49.6360423], [5.9031909, 49.6361632], [5.9032439, 49.6361141], [5.9033353, 49.6353943], [5.9033422, 49.6353397], [5.9036804, 49.6345988], [5.9038465, 49.634235], [5.9043751, 49.6337507], [5.904418, 49.633499], [5.904346, 49.6333272], [5.9042857, 49.6331841], [5.9042562, 49.633117], [5.9041044, 49.632771], [5.9041206, 49.6323215], [5.9041907, 49.6321598], [5.9056012, 49.632076], [5.9062671, 49.6321285], [5.9072622, 49.6324094], [5.9081527, 49.6324881], [5.9084274, 49.6320366], [5.9084407, 49.6320147], [5.9073033, 49.6318016], [5.9066782, 49.6316898], [5.9057779, 49.631521], [5.904803, 49.6313405], [5.9046806, 49.6313375], [5.9044516, 49.6313532], [5.9042668, 49.6313974], [5.9038762, 49.6315326], [5.9033842, 49.6317071], [5.9031984, 49.6317693], [5.9029728, 49.6318181], [5.9026953, 49.6318415], [5.9013907, 49.631778], [5.9012007, 49.6317366], [5.9010613, 49.6316759], [5.9009414, 49.6315778], [5.9008943, 49.6314558], [5.9008652, 49.6311495], [5.9008212, 49.6310167], [5.9007474, 49.6309187], [5.900633, 49.6308392], [5.9005001, 49.630778], [5.9002523, 49.6307173], [5.9000038, 49.6306801], [5.899349, 49.630583], [5.8986703, 49.6304858], [5.8983503, 49.6304012], [5.8982126, 49.630353], [5.8979642, 49.6302396], [5.8976853, 49.6300807], [5.8974375, 49.6299664], [5.8972344, 49.6299012], [5.8968384, 49.6298173], [5.8966098, 49.6297379], [5.8964006, 49.6296222], [5.896082, 49.6294215], [5.8957667, 49.6292294], [5.8953912, 49.6289899], [5.8951773, 49.6288875], [5.8949926, 49.628837], [5.894765, 49.6287933], [5.8940915, 49.6287087], [5.8934382, 49.6286245], [5.8929086, 49.6285678], [5.8928292, 49.6285598], [5.8927496, 49.6285518], [5.89261, 49.6285404], [5.8922666, 49.628477], [5.892127, 49.6284541], [5.8920826, 49.628456], [5.8920195, 49.628476], [5.8919726, 49.6285009], [5.8919117, 49.6285746], [5.8918892, 49.6286131], [5.8917811, 49.6288111], [5.8917058, 49.6289079], [5.8916564, 49.6289524], [5.8916176, 49.6289862], [5.8914381, 49.6291022], [5.8913093, 49.6291687], [5.8912257, 49.6292027], [5.8911411, 49.6292195], [5.8908021, 49.6291758], [5.8903672, 49.6291454], [5.8896375, 49.6290398], [5.8894801, 49.6290027], [5.889432, 49.6289908], [5.889394, 49.6289213], [5.8892466, 49.6286978], [5.8890907, 49.6285609], [5.8888133, 49.6284417], [5.888574, 49.6283406], [5.8882421, 49.628179], [5.8879703, 49.6280207], [5.8877835, 49.6279001], [5.8876411, 49.6278334], [5.8872883, 49.6277087], [5.8870793, 49.6276025], [5.8867591, 49.6273332]]]}}]}