{"type": "FeatureCollection", "features": [{"type": "Feature", "properties": {"name": "Hagen"}, "geometry": {"type": "Polygon", "coordinates": [[[5.9597724, 49.6422906], [5.9597769, 49.6422571], [5.9597843, 49.6422066], [5.959801, 49.6420924], [5.9598178, 49.6419777], [5.9598358, 49.6418544], [5.9598474, 49.6417749], [5.959851, 49.6417142], [5.9598734, 49.6416492], [5.9573532, 49.6413287], [5.9563543, 49.6410894], [5.9561192, 49.6410331], [5.9560704, 49.6410214], [5.9559616, 49.6409953], [5.9558319, 49.6409643], [5.955635, 49.6409171], [5.9555133, 49.6408879], [5.9550238, 49.6406787], [5.9532933, 49.6393543], [5.953217, 49.6393541], [5.9530455, 49.6391664], [5.9528238, 49.6389236], [5.9525961, 49.638786], [5.9525132, 49.638733], [5.9513179, 49.6379969], [5.9514564, 49.6377597], [5.951484, 49.6377236], [5.9506294, 49.6372927], [5.9507643, 49.6371802], [5.9510318, 49.6369178], [5.9507144, 49.6367733], [5.9506713, 49.6367537], [5.9504905, 49.6366966], [5.9503144, 49.636641], [5.9501664, 49.6365943], [5.9500239, 49.6365493], [5.9498402, 49.6364958], [5.9495956, 49.6364246], [5.9494553, 49.6363838], [5.9493642, 49.6363572], [5.9491767, 49.6363922], [5.9488257, 49.6364575], [5.9486654, 49.6364117], [5.9486011, 49.6363933], [5.9485745, 49.636385], [5.9483409, 49.6363124], [5.9482079, 49.6362561], [5.9479743, 49.6361421], [5.9479071, 49.6361093], [5.9478003, 49.6360434], [5.947672, 49.6359642], [5.9475668, 49.6359116], [5.9472848, 49.6358137], [5.9472483, 49.6358014], [5.9471947, 49.6357834], [5.9470949, 49.6357499], [5.9470122, 49.6357197], [5.9470034, 49.6357164], [5.9467323, 49.6356174], [5.9466154, 49.6355747], [5.9463162, 49.6354707], [5.9461848, 49.635425], [5.9460698, 49.6353829], [5.9459143, 49.635326], [5.9458072, 49.6352868], [5.9457682, 49.6352726], [5.9455819, 49.6351959], [5.9451504, 49.6350182], [5.9449793, 49.6348477], [5.9449555, 49.634824], [5.9447927, 49.6346402], [5.9445329, 49.6343092], [5.9445042, 49.6342757], [5.9443615, 49.6341096], [5.944227, 49.6339528], [5.9441468, 49.6338595], [5.9438815, 49.6335898], [5.9438428, 49.6335631], [5.9437135, 49.6334366], [5.9433334, 49.6330645], [5.9433028, 49.6330346], [5.9432612, 49.6329939], [5.9432348, 49.6329681], [5.9431641, 49.6328987], [5.9429732, 49.6327116], [5.9429232, 49.6326626], [5.942734, 49.6324567], [5.9426825, 49.6324005], [5.9425414, 49.632247], [5.9423447, 49.632033], [5.9422462, 49.6318809], [5.9421096, 49.6316702], [5.9421046, 49.6316611], [5.9420715, 49.6316014], [5.9420452, 49.6315538], [5.9420347, 49.6315245], [5.9419745, 49.6313572], [5.9419566, 49.6313075], [5.9418771, 49.6310864], [5.9418653, 49.6310537], [5.9417663, 49.6308129], [5.9417524, 49.6307789], [5.9416952, 49.6306398], [5.9416457, 49.6305608], [5.9415794, 49.6304695], [5.9415556, 49.6304366], [5.9415244, 49.6304052], [5.9414539, 49.6303697], [5.9412468, 49.630283], [5.9410567, 49.6302028], [5.9409937, 49.6301536], [5.9408924, 49.6300745], [5.9408779, 49.6300632], [5.9407086, 49.6299264], [5.9405679, 49.6298127], [5.9403139, 49.6296074], [5.9402871, 49.6295857], [5.9402003, 49.6295151], [5.9399065, 49.6292785], [5.9396311, 49.6290568], [5.9395707, 49.628882], [5.9395149, 49.6287009], [5.9394361, 49.6284446], [5.9394086, 49.628451], [5.9391926, 49.6286879], [5.9390521, 49.6288301], [5.9388426, 49.6290235], [5.9386035, 49.6292373], [5.9384201, 49.6294143], [5.9382041, 49.6296109], [5.9380051, 49.6297693], [5.9379279, 49.6298126], [5.9379007, 49.6298242], [5.9377715, 49.6298594], [5.9375577, 49.6299152], [5.9374992, 49.6299305], [5.9374655, 49.6299442], [5.9374099, 49.6299667], [5.9372683, 49.6300272], [5.9368839, 49.6302059], [5.9366411, 49.630314], [5.9366195, 49.6303249], [5.9366118, 49.6303339], [5.9365745, 49.6304192], [5.9365497, 49.6304815], [5.9364999, 49.6306003], [5.9364466, 49.6307334], [5.9364409, 49.6307478], [5.9364235, 49.630797], [5.9363848, 49.6309064], [5.9363428, 49.6310261], [5.9362723, 49.6312153], [5.9362666, 49.6312305], [5.9362153, 49.6313629], [5.9361779, 49.6314771], [5.9361498, 49.631565], [5.9361218, 49.6316485], [5.9360749, 49.6317672], [5.9360018, 49.6319524], [5.935983, 49.632], [5.9358049, 49.6324283], [5.9357822, 49.6324534], [5.9357599, 49.6324781], [5.9352556, 49.6333427], [5.9350653, 49.6336455], [5.9348711, 49.633824], [5.9345091, 49.6341568], [5.9346356, 49.6344057], [5.9350166, 49.6351558], [5.9344775, 49.6352871], [5.9341633, 49.6355003], [5.9340222, 49.635596], [5.9337962, 49.6357493], [5.9337589, 49.6357746], [5.9336711, 49.6358579], [5.9336549, 49.6358733], [5.9336233, 49.6359751], [5.9335995, 49.6360524], [5.9336006, 49.6361272], [5.9336014, 49.6361877], [5.9336033, 49.6363292], [5.9334193, 49.6372188], [5.9334221, 49.6373768], [5.9333859, 49.637497], [5.9332885, 49.6375415], [5.932962, 49.637692], [5.9329327, 49.6380214], [5.9329295, 49.638057], [5.9329236, 49.6381235], [5.9327717, 49.6380307], [5.9326035, 49.6379621], [5.9323982, 49.6379702], [5.9323432, 49.6379926], [5.9322214, 49.6380747], [5.9320891, 49.6382811], [5.9319923, 49.638363], [5.9318093, 49.6385008], [5.9317055, 49.6385596], [5.9316474, 49.6385656], [5.931554, 49.6385421], [5.9314864, 49.6384333], [5.931521, 49.6381818], [5.9314742, 49.6381494], [5.9313346, 49.6380979], [5.9312558, 49.638107], [5.9311976, 49.6381347], [5.9311322, 49.6382121], [5.9309738, 49.6383036], [5.9308815, 49.6383204], [5.9307744, 49.6382809], [5.9305368, 49.6380268], [5.9303379, 49.6378731], [5.9302022, 49.6378303], [5.9299952, 49.6378056], [5.9297782, 49.6378254], [5.9297423, 49.6378287], [5.9293984, 49.638241], [5.9293732, 49.6382712], [5.9293444, 49.6382643], [5.9285709, 49.6380793], [5.928041, 49.6379473], [5.9278533, 49.6378876], [5.9277207, 49.6378163], [5.9266569, 49.637097], [5.9265089, 49.6370106], [5.9261965, 49.6368938], [5.9255171, 49.6366596], [5.9254203, 49.6366638], [5.9249898, 49.6366636], [5.924577, 49.6366881], [5.9245546, 49.6367371], [5.9238717, 49.6382483], [5.9238187, 49.6383655], [5.9226437, 49.6409688], [5.9224683, 49.6413574], [5.9224475, 49.6413906], [5.9225817, 49.6414508], [5.9230068, 49.6416177], [5.9237083, 49.6418174], [5.9241485, 49.6419658], [5.9245214, 49.6421141], [5.9244947, 49.6421523], [5.9244515, 49.6422163], [5.9242577, 49.6425034], [5.9242171, 49.6425615], [5.9240523, 49.642846], [5.9238709, 49.6431854], [5.9238383, 49.6432463], [5.9237975, 49.6433372], [5.9237284, 49.6434896], [5.9236634, 49.6436333], [5.9236244, 49.6437194], [5.9236058, 49.6437604], [5.9235989, 49.6437757], [5.9235772, 49.6438237], [5.923453, 49.6443169], [5.9234455, 49.6443432], [5.923644, 49.644374], [5.9236672, 49.6443777], [5.923702, 49.6443831], [5.923774, 49.6443992], [5.9237922, 49.6444033], [5.9238961, 49.6444267], [5.9239122, 49.6444303], [5.9239946, 49.6444488], [5.9237564, 49.6454311], [5.9237381, 49.6454295], [5.9236578, 49.6454223], [5.9235553, 49.6454128], [5.9235302, 49.6454105], [5.9234965, 49.6454074], [5.9233867, 49.6453985], [5.9231998, 49.6453816], [5.9231534, 49.6454752], [5.9231314, 49.6455194], [5.9231221, 49.6455384], [5.9231058, 49.6455358], [5.9228691, 49.6454947], [5.9221141, 49.6453466], [5.9220017, 49.645328], [5.9219583, 49.6453206], [5.9218742, 49.6453067], [5.9218346, 49.6453005], [5.9217258, 49.6453152], [5.9217098, 49.645321], [5.9216046, 49.6453616], [5.9215591, 49.645379], [5.9215407, 49.645386], [5.921451, 49.6454324], [5.9214326, 49.645442], [5.9214228, 49.645447], [5.9213778, 49.6454703], [5.9212786, 49.6455217], [5.9211367, 49.6455723], [5.921099, 49.6455815], [5.921074, 49.6455877], [5.9209843, 49.6456096], [5.9209671, 49.6456139], [5.9208848, 49.645634], [5.9208258, 49.6456484], [5.9207867, 49.645658], [5.9207594, 49.6456647], [5.9206943, 49.6456807], [5.9206496, 49.6456916], [5.9206452, 49.6456921], [5.9206216, 49.645695], [5.9205618, 49.6457021], [5.9205309, 49.6457058], [5.9204108, 49.6457054], [5.9203956, 49.6457054], [5.9203752, 49.6457029], [5.9203379, 49.6456985], [5.9203354, 49.6457162], [5.9203327, 49.6457316], [5.9202907, 49.6458852], [5.9202848, 49.6459068], [5.9202628, 49.6460356], [5.9202206, 49.6461476], [5.9201662, 49.6464222], [5.9203023, 49.6464424], [5.9202679, 49.6465699], [5.9201782, 49.6467871], [5.9201722, 49.6468017], [5.9204678, 49.6468716], [5.9204182, 49.6469309], [5.9203728, 49.6471137], [5.9203662, 49.64714], [5.9203619, 49.6471574], [5.9203536, 49.6471909], [5.9203455, 49.6472236], [5.920335, 49.64726], [5.9203263, 49.6472905], [5.9203167, 49.6473243], [5.920292, 49.6474108], [5.9202801, 49.6474524], [5.9202715, 49.6474824], [5.9202643, 49.6475085], [5.9202591, 49.6475278], [5.9202448, 49.6475799], [5.9202415, 49.6475921], [5.9201867, 49.6477923], [5.9201762, 49.6478306], [5.9201574, 49.6478989], [5.9201466, 49.6479379], [5.920071, 49.6481771], [5.9200554, 49.6482263], [5.9200268, 49.6482966], [5.9200235, 49.6483127], [5.9194942, 49.6482902], [5.917925, 49.6481291], [5.9168667, 49.648023], [5.9161091, 49.6479493], [5.9161105, 49.6481848], [5.9161862, 49.6484142], [5.9162604, 49.6485559], [5.9164081, 49.6487213], [5.9164837, 49.6488819], [5.9165626, 49.6491493], [5.9165886, 49.6492831], [5.916634, 49.6494925], [5.916623, 49.6497445], [5.9165719, 49.6500491], [5.9165573, 49.650411], [5.9165254, 49.6506704], [5.9164566, 49.6508784], [5.9163421, 49.6510542], [5.9162479, 49.6511908], [5.9161387, 49.6512932], [5.9158575, 49.6515259], [5.9152778, 49.6520686], [5.9145808, 49.6528183], [5.914477, 49.6529122], [5.9146129, 49.6529542], [5.9146762, 49.6531104], [5.9149256, 49.6531957], [5.9152373, 49.6532836], [5.9160125, 49.6534552], [5.91585, 49.6538615], [5.9168787, 49.6539075], [5.9174942, 49.6539345], [5.9177802, 49.6539422], [5.9177812, 49.6539556], [5.917782, 49.6539664], [5.9177828, 49.653978], [5.9177831, 49.653982], [5.9177979, 49.6541936], [5.9178002, 49.6543958], [5.9177862, 49.6545842], [5.9177473, 49.6547712], [5.9176846, 49.6549441], [5.9176018, 49.655113], [5.917557, 49.6551937], [5.9175117, 49.6552751], [5.9174616, 49.6553559], [5.9174031, 49.6554502], [5.9173345, 49.6555526], [5.9172701, 49.6556476], [5.9174464, 49.6556923], [5.9175617, 49.6557215], [5.917767, 49.6557726], [5.9178396, 49.6557907], [5.91846, 49.6559209], [5.9187475, 49.6560008], [5.9188401, 49.6560309], [5.9191616, 49.65596], [5.9193824, 49.6558732], [5.9195424, 49.6557758], [5.9197067, 49.6557787], [5.919804, 49.6558323], [5.9198596, 49.655969], [5.9196248, 49.6561734], [5.9195, 49.6562862], [5.9193504, 49.6564709], [5.9192488, 49.6565901], [5.9191691, 49.6568253], [5.9190673, 49.656966], [5.9190233, 49.6570662], [5.9190287, 49.6571771], [5.9191191, 49.6573416], [5.9191341, 49.6573609], [5.9191188, 49.6573756], [5.9191841, 49.6574779], [5.9192025, 49.6575425], [5.9191834, 49.6576153], [5.9190717, 49.6576779], [5.9186768, 49.6579182], [5.9187037, 49.6579768], [5.9187543, 49.6580873], [5.9188612, 49.6582545], [5.9188744, 49.6582752], [5.9189199, 49.6582552], [5.9191726, 49.6581444], [5.9195027, 49.65794], [5.9199269, 49.657624], [5.9202275, 49.6574145], [5.92023, 49.6574128], [5.9202339, 49.65741], [5.9202383, 49.6574072], [5.9202831, 49.6573787], [5.9204256, 49.6572877], [5.9205802, 49.6573454], [5.920843, 49.6574077], [5.9211317, 49.657476], [5.9213826, 49.6575008], [5.9212863, 49.657645], [5.9213021, 49.6576469], [5.9214596, 49.6576654], [5.9216258, 49.657685], [5.9217189, 49.657696], [5.9217282, 49.6576971], [5.921905, 49.6577186], [5.9220188, 49.6577294], [5.9220743, 49.657732], [5.9219093, 49.6580242], [5.921708, 49.658396], [5.9215779, 49.6586532], [5.9214771, 49.6588473], [5.9214047, 49.659003], [5.9213594, 49.6591359], [5.9213531, 49.6591568], [5.9213064, 49.6593551], [5.9212411, 49.6596677], [5.9212904, 49.6597509], [5.9223029, 49.659719], [5.923352, 49.6596841], [5.9244255, 49.6596468], [5.9254239, 49.6596001], [5.9258815, 49.6595563], [5.9266894, 49.6594443], [5.9281113, 49.6592188], [5.9296859, 49.6589651], [5.9321928, 49.6585204], [5.9326969, 49.6583785], [5.9351966, 49.6576002], [5.9358724, 49.6573302], [5.9383168, 49.655942], [5.9398952, 49.6550555], [5.9405466, 49.6547136], [5.940954, 49.6544172], [5.9416757, 49.653831], [5.9422252, 49.6532762], [5.942673, 49.6527907], [5.9427897, 49.6526642], [5.9432456, 49.6521704], [5.9441398, 49.6512019], [5.9446837, 49.6507164], [5.9455425, 49.6499767], [5.947335, 49.6486282], [5.9472857, 49.6485734], [5.9477471, 49.6483982], [5.948268, 49.6482365], [5.9493364, 49.6479535], [5.950488, 49.6476249], [5.9512896, 49.6473831], [5.9514503, 49.6473347], [5.9527345, 49.6469234], [5.9527877, 49.6469064], [5.9533122, 49.6467137], [5.9536484, 49.6465896], [5.9540615, 49.6464423], [5.9542332, 49.6463728], [5.954624, 49.6461664], [5.9553004, 49.6457339], [5.9555473, 49.6455605], [5.9556667, 49.6454749], [5.9557623, 49.6454021], [5.9558833, 49.6453099], [5.9565828, 49.6447278], [5.9568329, 49.6444764], [5.9574226, 49.6439252], [5.9578947, 49.6434915], [5.9587019, 49.6427964], [5.9587383, 49.6427742], [5.9587952, 49.6427757], [5.9589598, 49.642639], [5.9590626, 49.6425762], [5.9592512, 49.6425003], [5.9593256, 49.6424704], [5.959496, 49.6424018], [5.9597724, 49.6422906]]]}}]}