{"type": "FeatureCollection", "features": [{"type": "Feature", "properties": {"name": "Steinfort"}, "geometry": {"type": "Polygon", "coordinates": [[[5.9161091, 49.6479493], [5.9152497, 49.6479175], [5.9147654, 49.6479008], [5.9145409, 49.6479302], [5.9145316, 49.6479831], [5.9144224, 49.6480067], [5.9141538, 49.6480647], [5.9132153, 49.6483243], [5.9124043, 49.6485896], [5.9122085, 49.6486357], [5.9119842, 49.6486647], [5.911736, 49.6486665], [5.9113335, 49.6486325], [5.9111043, 49.6486082], [5.9108311, 49.648529], [5.9106168, 49.6485282], [5.9098096, 49.6486098], [5.9095876, 49.6486411], [5.9093707, 49.6486842], [5.9091861, 49.6487346], [5.9090232, 49.648793], [5.9088565, 49.64887], [5.9087452, 49.6489278], [5.908639, 49.6489981], [5.9085518, 49.6490756], [5.9083203, 49.6493514], [5.9082091, 49.649456], [5.9077977, 49.6497994], [5.907652, 49.6499061], [5.9075897, 49.6499731], [5.9076236, 49.6502121], [5.9076173, 49.650445], [5.9076154, 49.6506227], [5.9076095, 49.6507122], [5.9076543, 49.6510071], [5.9076526, 49.6511364], [5.9076358, 49.6512811], [5.9075807, 49.6514175], [5.9074525, 49.6516842], [5.9074113, 49.6518294], [5.9073771, 49.6522439], [5.9073081, 49.652247], [5.9072394, 49.6522773], [5.9032983, 49.6514023], [5.9030762, 49.6513532], [5.9029967, 49.6513354], [5.9029385, 49.6513401], [5.902837, 49.6513483], [5.9017335, 49.6514412], [5.9018767, 49.6517864], [5.9018808, 49.6518118], [5.9022234, 49.6517928], [5.9023688, 49.6524603], [5.9024689, 49.6528143], [5.9026133, 49.6532384], [5.9025453, 49.6532494], [5.9029625, 49.6538302], [5.9031963, 49.6539694], [5.9045255, 49.6544934], [5.9053859, 49.6547474], [5.9054144, 49.6547605], [5.9050629, 49.655081], [5.9045764, 49.6554379], [5.904429, 49.6555909], [5.9042816, 49.6558592], [5.9041745, 49.6560181], [5.9039196, 49.6563664], [5.9037635, 49.6566247], [5.9036474, 49.6567658], [5.9034772, 49.6569295], [5.9030262, 49.6574937], [5.9029642, 49.6575868], [5.9034435, 49.6582713], [5.9035669, 49.65843], [5.9038691, 49.6587142], [5.9038726, 49.6587705], [5.903876, 49.6588268], [5.9043344, 49.6595401], [5.9044243, 49.6598059], [5.9045047, 49.659983], [5.90462, 49.6601821], [5.9047994, 49.6604583], [5.9049056, 49.660589], [5.905059, 49.660723], [5.905036, 49.6607787], [5.904872, 49.6610789], [5.9054514, 49.6612883], [5.9062563, 49.6616151], [5.9069159, 49.6618732], [5.9076051, 49.6620886], [5.9078598, 49.6621344], [5.908226, 49.6621537], [5.9087625, 49.6621634], [5.9090283, 49.6621917], [5.9096106, 49.6622994], [5.9106751, 49.6624741], [5.910283, 49.6629566], [5.9099813, 49.6633078], [5.9098195, 49.6637701], [5.9094961, 49.6642916], [5.9094644, 49.664562], [5.9093092, 49.6646364], [5.909234, 49.6646508], [5.9091842, 49.6647006], [5.9091375, 49.6648421], [5.9090803, 49.6649166], [5.9090359, 49.6649845], [5.9090117, 49.6650489], [5.9089582, 49.6650963], [5.9088772, 49.6651279], [5.9088178, 49.6652433], [5.9086499, 49.6654965], [5.9085469, 49.6655863], [5.9083887, 49.6656723], [5.9080266, 49.6657255], [5.9078016, 49.6657664], [5.9075927, 49.665744], [5.9072654, 49.6657433], [5.9069073, 49.665731], [5.9067141, 49.6657111], [5.906596, 49.665684], [5.9064779, 49.6656302], [5.9063164, 49.6656007], [5.9060096, 49.6655976], [5.9058481, 49.6655681], [5.905671, 49.6654995], [5.9054823, 49.6653872], [5.9053495, 49.665273], [5.9050161, 49.6649487], [5.9048628, 49.6648583], [5.9046501, 49.6648091], [5.9043002, 49.664777], [5.9041582, 49.6647743], [5.9040479, 49.6647521], [5.9039734, 49.6646838], [5.903484, 49.664197], [5.9034525, 49.6641824], [5.9031687, 49.6641598], [5.9030347, 49.6641352], [5.9028024, 49.664069], [5.9026016, 49.6640223], [5.9025109, 49.6640172], [5.9023925, 49.6640364], [5.9021362, 49.6641355], [5.9018673, 49.664259], [5.901753, 49.6643167], [5.9016657, 49.6644114], [5.9016376, 49.6645062], [5.9015963, 49.6648395], [5.9014965, 49.6650655], [5.9014922, 49.6651263], [5.9015114, 49.6652179], [5.9015266, 49.6653372], [5.9015222, 49.6654199], [5.9015298, 49.6654686], [5.9015649, 49.6655416], [5.9015606, 49.6655952], [5.9015328, 49.665634], [5.9014222, 49.6656727], [5.9013554, 49.6657151], [5.9013039, 49.6657685], [5.901284, 49.6658098], [5.901322, 49.6660629], [5.9013726, 49.666192], [5.9014587, 49.6663163], [5.9015333, 49.6663773], [5.9016198, 49.6664237], [5.9020087, 49.6665771], [5.902347, 49.6667361], [5.9026538, 49.6668925], [5.9030078, 49.667019], [5.9030667, 49.667058], [5.9030941, 49.6670995], [5.9031096, 49.6671579], [5.9030815, 49.6672454], [5.9030257, 49.6673687], [5.9029425, 49.6674366], [5.9028633, 49.6674876], [5.9026461, 49.6675552], [5.9026103, 49.6676013], [5.9025981, 49.6676767], [5.9025975, 49.6677838], [5.9025731, 49.6679103], [5.9025334, 49.6680184], [5.902458, 49.668096], [5.9023829, 49.6681445], [5.9022722, 49.6681784], [5.9021617, 49.6681903], [5.901803, 49.66817], [5.9017005, 49.6681503], [5.90161, 49.6681111], [5.9014338, 49.6679945], [5.9013238, 49.6679164], [5.9012886, 49.6678555], [5.9012381, 49.6677069], [5.9012069, 49.6676509], [5.9011283, 49.6675996], [5.9009907, 49.6675263], [5.9007709, 49.6674265], [5.900704, 49.6673874], [5.9006727, 49.6673557], [5.9006976, 49.6671198], [5.9007215, 49.6670833], [5.900869, 49.6669734], [5.9008809, 49.6669491], [5.9008419, 49.6668857], [5.900846, 49.6668517], [5.9008897, 49.6667909], [5.9008938, 49.6667642], [5.9008742, 49.6667349], [5.9008388, 49.6667129], [5.9007404, 49.6666811], [5.9006972, 49.6666591], [5.9006265, 49.6665932], [5.9005008, 49.6665029], [5.9004734, 49.6664664], [5.9004462, 49.6663957], [5.9003875, 49.6663153], [5.9002661, 49.6661767], [5.9001406, 49.6660475], [5.9000738, 49.6659962], [5.8999873, 49.6659522], [5.8998731, 49.66593], [5.899743, 49.66592], [5.89953, 49.6659146], [5.8993249, 49.6659288], [5.8991699, 49.6659599], [5.8990713, 49.6659719], [5.8989507, 49.6660081], [5.8987948, 49.6660726], [5.8983646, 49.6662621], [5.8982461, 49.6663077], [5.8980895, 49.6663511], [5.8979884, 49.6664198], [5.8978277, 49.6665788], [5.8975419, 49.6668209], [5.8974714, 49.6669031], [5.8974271, 49.6669881], [5.8973958, 49.6671037], [5.8973775, 49.6672509], [5.8973509, 49.6673049], [5.897309, 49.6673615], [5.896878, 49.6677826], [5.896744, 49.6678942], [5.8967066, 49.6679184], [5.8965355, 49.6679788], [5.8964937, 49.6680084], [5.8963261, 49.6682228], [5.896315, 49.6682579], [5.8963167, 49.6683431], [5.8963386, 49.6684489], [5.8963361, 49.668511], [5.896314, 49.668542], [5.8962855, 49.6685582], [5.8962219, 49.6685756], [5.8961582, 49.6685984], [5.8961077, 49.668628], [5.8959912, 49.6687101], [5.8959473, 49.6687249], [5.8958706, 49.6687396], [5.8958092, 49.6687462], [5.8957589, 49.668738], [5.8955388, 49.6686635], [5.8951305, 49.6684994], [5.8950563, 49.6684574], [5.8948119, 49.668292], [5.8946332, 49.6681416], [5.8945247, 49.6680419], [5.8941845, 49.6677995], [5.8941344, 49.6677508], [5.8941084, 49.6677021], [5.8940804, 49.667621], [5.8940852, 49.6675548], [5.894112, 49.6674602], [5.8940995, 49.6673666], [5.8940715, 49.6672855], [5.8939999, 49.6671664], [5.8939502, 49.6670609], [5.893931, 49.666965], [5.8939937, 49.6667364], [5.8939531, 49.6665512], [5.8938969, 49.6664173], [5.893836, 49.6663483], [5.8937378, 49.6662913], [5.8935378, 49.6662585], [5.8932446, 49.6662038], [5.8930958, 49.6661926], [5.8929293, 49.666203], [5.8927543, 49.6662369], [5.892653, 49.6662684], [5.8925328, 49.6663139], [5.8923526, 49.6664135], [5.8921534, 49.666533], [5.8920931, 49.6666101], [5.8919541, 49.6668057], [5.8919056, 49.6668818], [5.8918835, 49.666933], [5.891881, 49.666979], [5.8918938, 49.6670331], [5.8919325, 49.6671231], [5.8919715, 49.6671948], [5.8921764, 49.6673669], [5.8922046, 49.6674102], [5.8922087, 49.6674521], [5.8921866, 49.6674912], [5.8921162, 49.6675545], [5.8918044, 49.6677788], [5.8916042, 49.6679432], [5.891505, 49.6680578], [5.8914391, 49.6681592], [5.8914058, 49.6682429], [5.8913988, 49.6683212], [5.8914658, 49.66847], [5.8914721, 49.6685173], [5.8914566, 49.66856], [5.8914015, 49.6686315], [5.891296, 49.6687015], [5.8911734, 49.6687589], [5.8911206, 49.6687966], [5.8910547, 49.6688329], [5.8909648, 49.6688611], [5.8908594, 49.6689013], [5.8907583, 49.66897], [5.8906746, 49.6690441], [5.8905321, 49.6691581], [5.8903735, 49.6693131], [5.8902876, 49.6694042], [5.8901659, 49.6696336], [5.8901082, 49.6697618], [5.8900879, 49.6698591], [5.8900852, 49.6699469], [5.8901218, 49.6700591], [5.8901149, 49.6701177], [5.8901137, 49.6703344], [5.8901619, 49.6703338], [5.8905446, 49.6703224], [5.8906193, 49.6702976], [5.8907016, 49.67026], [5.8907593, 49.6702233], [5.8908144, 49.6701727], [5.8908541, 49.6701228], [5.8909249, 49.6700192], [5.8909435, 49.669992], [5.8910242, 49.6698636], [5.8910838, 49.6697568], [5.8911326, 49.6696693], [5.8912864, 49.6693975], [5.8913084, 49.6693705], [5.891402, 49.6692813], [5.8914131, 49.669271], [5.8915408, 49.6691532], [5.8918424, 49.6690749], [5.8923211, 49.6689513], [5.8924061, 49.6689962], [5.8926105, 49.669104], [5.8927493, 49.6691786], [5.8931961, 49.6694187], [5.8935147, 49.6695928], [5.8939085, 49.6695955], [5.8945492, 49.6696089], [5.894677, 49.6696092], [5.8947114, 49.6696093], [5.8948318, 49.6696258], [5.8951994, 49.6696861], [5.8955802, 49.6697559], [5.8958672, 49.6699046], [5.8961909, 49.6700711], [5.8962031, 49.6700773], [5.8962249, 49.6700922], [5.8963403, 49.6702161], [5.8964235, 49.6702291], [5.8965232, 49.6704273], [5.896575, 49.6705392], [5.8965803, 49.6705805], [5.8965721, 49.6706778], [5.8965641, 49.6707329], [5.896544, 49.6707923], [5.896513, 49.6708619], [5.8964831, 49.6709217], [5.8964322, 49.6710081], [5.8963803, 49.6710969], [5.8963876, 49.671165], [5.8963969, 49.6712597], [5.8964125, 49.6714189], [5.8964342, 49.6716497], [5.8964549, 49.6718664], [5.8964663, 49.6719689], [5.8964941, 49.672085], [5.8965461, 49.6721979], [5.8966381, 49.6723796], [5.8966803, 49.6724605], [5.8967139, 49.6725241], [5.8967507, 49.6726107], [5.8967745, 49.6726625], [5.8967809, 49.6726909], [5.8967862, 49.6727166], [5.8968107, 49.6728518], [5.8968328, 49.6730061], [5.8968635, 49.6731945], [5.8968931, 49.6733896], [5.8969169, 49.6736287], [5.8969325, 49.6737804], [5.8969472, 49.6738958], [5.8969627, 49.6740685], [5.8969742, 49.6741998], [5.896982, 49.6742879], [5.8969926, 49.6744075], [5.8969998, 49.6744789], [5.8970037, 49.6745746], [5.8970043, 49.6746631], [5.8970004, 49.6747736], [5.8969954, 49.6748769], [5.8969806, 49.6749786], [5.8969703, 49.6750603], [5.8969555, 49.6751603], [5.896917, 49.6753923], [5.8968868, 49.6756961], [5.897382, 49.6758214], [5.8976071, 49.6758745], [5.8977395, 49.6758951], [5.8979235, 49.6759171], [5.898101, 49.6759263], [5.8982571, 49.6759307], [5.898462, 49.6759339], [5.8986219, 49.6759396], [5.8987005, 49.6759445], [5.8989874, 49.6759702], [5.8994459, 49.6760117], [5.8996362, 49.6760284], [5.8997118, 49.6760346], [5.8997493, 49.6760351], [5.8999916, 49.676038], [5.9003532, 49.67603], [5.9006042, 49.6760218], [5.9007899, 49.6760108], [5.9010223, 49.675989], [5.9012328, 49.6759631], [5.9013809, 49.6759364], [5.9015009, 49.6759085], [5.902078, 49.6757807], [5.9023637, 49.6757255], [5.9025874, 49.6756915], [5.9028699, 49.6756537], [5.9030805, 49.6756325], [5.9032709, 49.6756174], [5.9033794, 49.6756123], [5.9035569, 49.6756248], [5.9035664, 49.6756631], [5.9035737, 49.6756924], [5.9035767, 49.6757041], [5.9036274, 49.6758493], [5.903723, 49.6761225], [5.9037419, 49.6761818], [5.9041057, 49.6761352], [5.9047526, 49.6760664], [5.9055254, 49.6760128], [5.9073661, 49.6759132], [5.9078695, 49.6758748], [5.9083057, 49.6758184], [5.9087035, 49.6757402], [5.9088452, 49.6757056], [5.9089859, 49.6756736], [5.9093615, 49.6755539], [5.9096635, 49.6754241], [5.9102698, 49.6750984], [5.9115084, 49.6744008], [5.9125757, 49.6738479], [5.9128491, 49.673724], [5.9135868, 49.6735248], [5.9139826, 49.6734644], [5.9145085, 49.6733955], [5.9152738, 49.6732983], [5.9157295, 49.6732327], [5.9158561, 49.673204], [5.9161053, 49.6731235], [5.9161969, 49.6730885], [5.9170029, 49.6727371], [5.9170701, 49.6727022], [5.9171484, 49.6726852], [5.9172946, 49.6726561], [5.9174554, 49.6726264], [5.9175514, 49.6726057], [5.9175663, 49.6725991], [5.9175804, 49.6725919], [5.9175935, 49.672584], [5.9176056, 49.6725754], [5.9176167, 49.6725664], [5.9176265, 49.6725567], [5.9176348, 49.6725466], [5.9176416, 49.6725359], [5.9176468, 49.672525], [5.9176596, 49.6724609], [5.9176681, 49.6723595], [5.9176689, 49.6723536], [5.9188797, 49.6719784], [5.9196321, 49.6717309], [5.9203543, 49.6714709], [5.9208302, 49.6713166], [5.9213195, 49.6711693], [5.9215502, 49.6710917], [5.9215704, 49.670933], [5.9215786, 49.6708759], [5.9217329, 49.6707164], [5.9217663, 49.6706284], [5.9218317, 49.6705027], [5.9219022, 49.6704007], [5.9219921, 49.6702902], [5.9221061, 49.6701636], [5.9222541, 49.6699766], [5.922737, 49.6693758], [5.9235823, 49.6683417], [5.924295, 49.6674997], [5.924575, 49.6671513], [5.9247749, 49.6668789], [5.9249884, 49.6666014], [5.9250584, 49.666472], [5.9251071, 49.6663475], [5.9251422, 49.6661362], [5.9251898, 49.6659127], [5.9252595, 49.6656619], [5.9253462, 49.6654116], [5.92543, 49.6651998], [5.9255134, 49.6650396], [5.9256117, 49.6648991], [5.9257055, 49.6647508], [5.925831, 49.6644902], [5.9260191, 49.6640979], [5.9262365, 49.6636781], [5.9264137, 49.66332], [5.9266063, 49.6630912], [5.9268172, 49.6628895], [5.9270556, 49.6626794], [5.927423, 49.6622745], [5.9275204, 49.6621498], [5.9276203, 49.6619836], [5.9276832, 49.6618447], [5.9277545, 49.6616825], [5.9278264, 49.6615702], [5.9279859, 49.6613722], [5.9282062, 49.6611326], [5.9283613, 49.6609424], [5.9284429, 49.6608318], [5.9285033, 49.6607052], [5.9285453, 49.6605586], [5.9285554, 49.6604478], [5.9285469, 49.6603683], [5.9285319, 49.6601646], [5.9283416, 49.6597829], [5.9281113, 49.6592188], [5.9266894, 49.6594443], [5.9258815, 49.6595563], [5.9254239, 49.6596001], [5.9244255, 49.6596468], [5.923352, 49.6596841], [5.9223029, 49.659719], [5.9212904, 49.6597509], [5.9212411, 49.6596677], [5.9213064, 49.6593551], [5.9213531, 49.6591568], [5.9213594, 49.6591359], [5.9214047, 49.659003], [5.9214771, 49.6588473], [5.9215779, 49.6586532], [5.921708, 49.658396], [5.9219093, 49.6580242], [5.9220743, 49.657732], [5.9220188, 49.6577294], [5.921905, 49.6577186], [5.9217282, 49.6576971], [5.9217189, 49.657696], [5.9216258, 49.657685], [5.9214596, 49.6576654], [5.9213021, 49.6576469], [5.9212863, 49.657645], [5.9213826, 49.6575008], [5.9211317, 49.657476], [5.920843, 49.6574077], [5.9205802, 49.6573454], [5.9204256, 49.6572877], [5.9202831, 49.6573787], [5.9202383, 49.6574072], [5.9202339, 49.65741], [5.92023, 49.6574128], [5.9202275, 49.6574145], [5.9199269, 49.657624], [5.9195027, 49.65794], [5.9191726, 49.6581444], [5.9189199, 49.6582552], [5.9188744, 49.6582752], [5.9188612, 49.6582545], [5.9187543, 49.6580873], [5.9187037, 49.6579768], [5.9186768, 49.6579182], [5.9190717, 49.6576779], [5.9191834, 49.6576153], [5.9192025, 49.6575425], [5.9191841, 49.6574779], [5.9191188, 49.6573756], [5.9191341, 49.6573609], [5.9191191, 49.6573416], [5.9190287, 49.6571771], [5.9190233, 49.6570662], [5.9190673, 49.656966], [5.9191691, 49.6568253], [5.9192488, 49.6565901], [5.9193504, 49.6564709], [5.9195, 49.6562862], [5.9196248, 49.6561734], [5.9198596, 49.655969], [5.919804, 49.6558323], [5.9197067, 49.6557787], [5.9195424, 49.6557758], [5.9193824, 49.6558732], [5.9191616, 49.65596], [5.9188401, 49.6560309], [5.9187475, 49.6560008], [5.91846, 49.6559209], [5.9178396, 49.6557907], [5.917767, 49.6557726], [5.9175617, 49.6557215], [5.9174464, 49.6556923], [5.9172701, 49.6556476], [5.9173345, 49.6555526], [5.9174031, 49.6554502], [5.9174616, 49.6553559], [5.9175117, 49.6552751], [5.917557, 49.6551937], [5.9176018, 49.655113], [5.9176846, 49.6549441], [5.9177473, 49.6547712], [5.9177862, 49.6545842], [5.9178002, 49.6543958], [5.9177979, 49.6541936], [5.9177831, 49.653982], [5.9177828, 49.653978], [5.917782, 49.6539664], [5.9177812, 49.6539556], [5.9177802, 49.6539422], [5.9174942, 49.6539345], [5.9168787, 49.6539075], [5.91585, 49.6538615], [5.9160125, 49.6534552], [5.9152373, 49.6532836], [5.9149256, 49.6531957], [5.9146762, 49.6531104], [5.9146129, 49.6529542], [5.914477, 49.6529122], [5.9145808, 49.6528183], [5.9152778, 49.6520686], [5.9158575, 49.6515259], [5.9161387, 49.6512932], [5.9162479, 49.6511908], [5.9163421, 49.6510542], [5.9164566, 49.6508784], [5.9165254, 49.6506704], [5.9165573, 49.650411], [5.9165719, 49.6500491], [5.916623, 49.6497445], [5.916634, 49.6494925], [5.9165886, 49.6492831], [5.9165626, 49.6491493], [5.9164837, 49.6488819], [5.9164081, 49.6487213], [5.9162604, 49.6485559], [5.9161862, 49.6484142], [5.9161105, 49.6481848], [5.9161091, 49.6479493]]]}}]}