{"type": "FeatureCollection", "features": [{"type": "Feature", "properties": {"name": "Greisch"}, "geometry": {"type": "Polygon", "coordinates": [[[5.9969234, 49.6975575], [5.9965956, 49.6973636], [5.9965563, 49.6973383], [5.9965035, 49.6973042], [5.9964349, 49.6972599], [5.9962974, 49.6971499], [5.9962626, 49.6971163], [5.996169, 49.6970262], [5.9961483, 49.6970047], [5.9960664, 49.6969197], [5.9960085, 49.6968596], [5.9958928, 49.6967212], [5.9957983, 49.6966082], [5.9957539, 49.696555], [5.9961113, 49.6964683], [5.9960814, 49.6964192], [5.9957953, 49.6959497], [5.9956852, 49.6959328], [5.9955725, 49.6959033], [5.9955007, 49.6958421], [5.9954671, 49.6958543], [5.9954206, 49.6958511], [5.9953598, 49.6958351], [5.9953187, 49.6958087], [5.9953099, 49.6957791], [5.9953274, 49.6956781], [5.9953318, 49.6956487], [5.9949512, 49.6954665], [5.9948675, 49.6953581], [5.9947979, 49.6953179], [5.994728, 49.695321], [5.9946403, 49.695343], [5.9942424, 49.6954945], [5.9941615, 49.6955841], [5.9940913, 49.6957123], [5.9941001, 49.6957472], [5.9941573, 49.6957716], [5.9942968, 49.6958045], [5.9943307, 49.6958383], [5.9943341, 49.6958837], [5.9941965, 49.6963371], [5.9941515, 49.6963856], [5.9940332, 49.696434], [5.9939455, 49.6964455], [5.9937719, 49.6964357], [5.9937362, 49.696404], [5.9937114, 49.6963448], [5.9936866, 49.696255], [5.9936189, 49.6961704], [5.9935369, 49.6960774], [5.9934404, 49.6960424], [5.9934081, 49.6960582], [5.9933615, 49.6960972], [5.9932628, 49.696154], [5.9932, 49.6961978], [5.9930477, 49.696244], [5.992951, 49.6962597], [5.9928918, 49.6963092], [5.9928127, 49.6963915], [5.9927482, 49.6964273], [5.9926641, 49.6964261], [5.9925908, 49.6963869], [5.9925355, 49.6963319], [5.992494, 49.6962384], [5.9924223, 49.6962005], [5.9923081, 49.6961686], [5.9919425, 49.6961034], [5.9916684, 49.6960255], [5.9912835, 49.6959057], [5.9911237, 49.695824], [5.9910163, 49.6957165], [5.9909221, 49.6955693], [5.9908574, 49.6954162], [5.990786, 49.695281], [5.9907405, 49.6952193], [5.9906851, 49.6951894], [5.9906166, 49.6951535], [5.9905058, 49.6950917], [5.9904341, 49.6950439], [5.9903559, 49.6949902], [5.9902973, 49.6949563], [5.9902222, 49.6949443], [5.9901372, 49.694958], [5.9900881, 49.6949878], [5.990052, 49.6950394], [5.9900092, 49.6951208], [5.9899666, 49.6951625], [5.9899241, 49.6951803], [5.9898783, 49.6951921], [5.9898129, 49.6952139], [5.9897377, 49.6952515], [5.9895739, 49.6953884], [5.9894626, 49.6954598], [5.9893874, 49.6954835], [5.9893188, 49.6954715], [5.9892341, 49.6954177], [5.9891332, 49.6953222], [5.9889671, 49.6951681], [5.9888939, 49.6950875], [5.9888205, 49.6950517], [5.9887176, 49.695056], [5.9884528, 49.6951137], [5.9883645, 49.6951627], [5.988276, 49.6952431], [5.9881804, 49.6952742], [5.9880849, 49.6952607], [5.9879087, 49.6952023], [5.9877253, 49.6951126], [5.9873287, 49.6950494], [5.9870023, 49.6950164], [5.9869688, 49.695013], [5.9867557, 49.6949993], [5.9865791, 49.6950616], [5.9864769, 49.6951319], [5.9864093, 49.6952068], [5.986361, 49.6952515], [5.9862213, 49.6953464], [5.9861221, 49.6953986], [5.9860264, 49.6954817], [5.9859644, 49.6955549], [5.9858094, 49.6956645], [5.985721, 49.6957691], [5.9855153, 49.6958567], [5.9853981, 49.6959153], [5.985246, 49.6959926], [5.9851625, 49.6960584], [5.9851109, 49.6961225], [5.9850703, 49.6961867], [5.9850324, 49.6962529], [5.9849895, 49.6963526], [5.9849677, 49.696504], [5.9849269, 49.6966752], [5.9848525, 49.6969346], [5.9847364, 49.6971174], [5.9846592, 49.6971938], [5.9846135, 49.6972661], [5.9846167, 49.6973512], [5.9846861, 49.6974928], [5.9847033, 49.6975736], [5.9847729, 49.6976631], [5.9849544, 49.6977336], [5.9851954, 49.6978148], [5.9853385, 49.6978916], [5.9854606, 49.6979727], [5.9855057, 49.6980451], [5.9855542, 49.6981898], [5.9856133, 49.6982846], [5.9858429, 49.6985934], [5.9861842, 49.6989598], [5.9862712, 49.6990866], [5.986264, 49.6991227], [5.9862254, 49.6991588], [5.9861694, 49.6991843], [5.9861064, 49.6992012], [5.9860328, 49.6992372], [5.9860152, 49.6992861], [5.9860219, 49.6993627], [5.9860915, 49.6994543], [5.9861925, 49.6995651], [5.9862585, 49.6996581], [5.9862966, 49.6997369], [5.9863171, 49.6998794], [5.9863481, 49.7000156], [5.9863687, 49.7000986], [5.9863511, 49.7001369], [5.986295, 49.7001666], [5.9862005, 49.7002069], [5.9861408, 49.7002706], [5.986123, 49.7004165], [5.9861261, 49.7005059], [5.9860874, 49.7005782], [5.9859857, 49.7006546], [5.985814, 49.7007479], [5.9857195, 49.7007861], [5.9855934, 49.7008284], [5.985317, 49.7008706], [5.9851036, 49.7008766], [5.9849253, 49.7008699], [5.9848133, 49.7008953], [5.9846873, 49.700944], [5.984596, 49.7010205], [5.9844978, 49.7010969], [5.9844278, 49.7011287], [5.9843193, 49.7011477], [5.9842108, 49.7011858], [5.9841231, 49.7012388], [5.984053, 49.7012855], [5.9839829, 49.7013429], [5.9839161, 49.7014364], [5.9838354, 49.7014894], [5.9837411, 49.7014744], [5.9836258, 49.701455], [5.9834229, 49.7014569], [5.9832478, 49.7014344], [5.9832465, 49.7014736], [5.9832162, 49.701958], [5.9831595, 49.7019965], [5.983161, 49.7020495], [5.9836938, 49.7021679], [5.9841146, 49.7022026], [5.9844286, 49.7022239], [5.984526, 49.7022331], [5.9845227, 49.7021968], [5.9844973, 49.7020611], [5.9847546, 49.7020274], [5.984801, 49.7021773], [5.9848353, 49.7022457], [5.9847844, 49.7022529], [5.9846534, 49.7022713], [5.9846418, 49.7022726], [5.9845685, 49.7022796], [5.985054, 49.7025233], [5.9853288, 49.7026715], [5.9853825, 49.7026999], [5.985529, 49.7027777], [5.9855861, 49.702808], [5.985668, 49.7028519], [5.9858569, 49.7029532], [5.98619, 49.7031319], [5.9864174, 49.7032179], [5.9864551, 49.7032322], [5.9865555, 49.7032697], [5.9871426, 49.7036601], [5.9872359, 49.7037125], [5.9872996, 49.7037408], [5.9873847, 49.703895], [5.9872795, 49.7041317], [5.9871022, 49.7043072], [5.9870376, 49.7042738], [5.9869174, 49.7043037], [5.9864515, 49.7045377], [5.986119, 49.7047072], [5.9856483, 49.7049442], [5.9854671, 49.7050532], [5.985237, 49.7051924], [5.9849854, 49.7053581], [5.9847542, 49.7054926], [5.9845527, 49.7056276], [5.984338, 49.705772], [5.9841985, 49.7058738], [5.9840791, 49.7059789], [5.9839837, 49.706067], [5.9837103, 49.7063281], [5.9832399, 49.7067933], [5.9830608, 49.7069699], [5.9829342, 49.7070912], [5.9827205, 49.7072996], [5.982594, 49.7074235], [5.9824363, 49.7075919], [5.9824124, 49.7076171], [5.9824314, 49.7076273], [5.9824563, 49.7076483], [5.9824729, 49.7076693], [5.9824776, 49.7076853], [5.9824692, 49.7077055], [5.9824465, 49.7077315], [5.982375, 49.707769], [5.982288, 49.7078047], [5.9822691, 49.7078151], [5.9822356, 49.7078335], [5.9821926, 49.7078682], [5.9821651, 49.7079072], [5.9821531, 49.7079318], [5.9821459, 49.7079651], [5.9821552, 49.7080118], [5.982167, 49.7080386], [5.9821835, 49.7080617], [5.982193, 49.7080733], [5.9822191, 49.7080922], [5.9822189, 49.7081356], [5.9822248, 49.7081653], [5.9822401, 49.7081928], [5.9822697, 49.7082261], [5.9822875, 49.7082421], [5.9822652, 49.7082921], [5.9822329, 49.7083279], [5.9821685, 49.7083733], [5.9821363, 49.708401], [5.9821174, 49.7084335], [5.9821146, 49.7084791], [5.9821198, 49.7085003], [5.9821248, 49.7085422], [5.9821222, 49.7085816], [5.982098, 49.7086288], [5.9820603, 49.7086792], [5.9820227, 49.7087085], [5.9819477, 49.708736], [5.9818943, 49.7087563], [5.9818648, 49.7087791], [5.981851, 49.7087986], [5.9818381, 49.708816], [5.9818088, 49.7088349], [5.9817868, 49.7088471], [5.9818298, 49.7089076], [5.9817956, 49.7089394], [5.981743, 49.7088684], [5.9816836, 49.7088814], [5.9816538, 49.7088863], [5.9816187, 49.7088977], [5.9815903, 49.7089141], [5.9815592, 49.7089428], [5.9815415, 49.7089715], [5.9815171, 49.70901], [5.9814724, 49.7090575], [5.9814263, 49.7091026], [5.981402, 49.7091215], [5.9813817, 49.7091346], [5.9813235, 49.7091554], [5.9813032, 49.7091718], [5.9812951, 49.7091882], [5.9812937, 49.7092054], [5.9812625, 49.7092489], [5.98126, 49.7092525], [5.981253, 49.7092628], [5.9812446, 49.7093416], [5.9812281, 49.7094039], [5.9812131, 49.7094601], [5.9811833, 49.7094864], [5.9811495, 49.7095019], [5.9811076, 49.7095117], [5.9810752, 49.7095124], [5.9810415, 49.7095066], [5.9810119, 49.7095017], [5.9809822, 49.7095033], [5.9809511, 49.7095065], [5.98092, 49.7095138], [5.980893, 49.7095261], [5.9808727, 49.7095285], [5.9808552, 49.7095334], [5.9808363, 49.7095441], [5.9807983, 49.7095768], [5.9807712, 49.7096039], [5.9807631, 49.7096269], [5.9807482, 49.7096408], [5.9807265, 49.7096514], [5.9807103, 49.709658], [5.9806847, 49.7096637], [5.9806576, 49.7096751], [5.9806373, 49.7096931], [5.9806224, 49.7097235], [5.980625, 49.709744], [5.980641, 49.7097855], [5.9806342, 49.709806], [5.9806166, 49.7098232], [5.9805936, 49.7098347], [5.9805679, 49.7098387], [5.9805504, 49.7098444], [5.9805436, 49.7098551], [5.9805408, 49.7098715], [5.98053, 49.7098863], [5.980507, 49.709901], [5.9804705, 49.7099132], [5.98043, 49.7099181], [5.980384, 49.7099336], [5.9803367, 49.7099565], [5.9803096, 49.7099852], [5.9802811, 49.7100344], [5.9802323, 49.7100889], [5.9801999, 49.7101053], [5.9801472, 49.7101224], [5.9801012, 49.7101363], [5.9800472, 49.7101403], [5.9800081, 49.7101452], [5.9799905, 49.710155], [5.9799526, 49.7101804], [5.9799147, 49.7102091], [5.9798957, 49.7102468], [5.9798821, 49.7102665], [5.9798564, 49.7102779], [5.9798469, 49.7102976], [5.9798293, 49.7103017], [5.9797902, 49.7103049], [5.9797524, 49.710318], [5.9796929, 49.7103335], [5.9796605, 49.7103507], [5.9796199, 49.7103613], [5.9795902, 49.7103887], [5.9795293, 49.7104305], [5.9794481, 49.7104804], [5.9794143, 49.7105017], [5.9793967, 49.7105247], [5.9793507, 49.7105402], [5.9793074, 49.7105664], [5.9793006, 49.7105778], [5.9792776, 49.7106172], [5.979241, 49.7106533], [5.9791964, 49.7106688], [5.9791625, 49.710695], [5.9791381, 49.7107311], [5.9791056, 49.7107598], [5.9790529, 49.7107802], [5.9789637, 49.7108268], [5.9789001, 49.7108513], [5.9787701, 49.7109242], [5.9787485, 49.7109367], [5.97871, 49.7109486], [5.9785889, 49.7110083], [5.9785763, 49.7110181], [5.9785467, 49.711036], [5.9785252, 49.7110491], [5.9785081, 49.7110637], [5.9784937, 49.7111048], [5.9784876, 49.7111097], [5.9784748, 49.71112], [5.9784354, 49.7111336], [5.978395, 49.7111542], [5.9783716, 49.7111907], [5.9783464, 49.7112075], [5.9783079, 49.7112238], [5.9782774, 49.7112286], [5.9782443, 49.7112318], [5.9782308, 49.7112367], [5.9782031, 49.7112448], [5.9781672, 49.7112606], [5.9781439, 49.7112703], [5.9781268, 49.7112779], [5.9781072, 49.7113043], [5.9780972, 49.7113179], [5.9780873, 49.7113217], [5.9780694, 49.7113255], [5.9780479, 49.7113298], [5.9780308, 49.7113352], [5.9780192, 49.7113461], [5.9780066, 49.7113618], [5.9779984, 49.7113852], [5.9779947, 49.7114059], [5.9779813, 49.7114201], [5.9779651, 49.7114249], [5.9779347, 49.7114287], [5.9779096, 49.7114341], [5.9778962, 49.711439], [5.9778845, 49.7114493], [5.9778701, 49.71147], [5.9778628, 49.7114885], [5.977852, 49.7115146], [5.9778242, 49.7115309], [5.9777982, 49.7115376], [5.9777436, 49.7115375], [5.9777293, 49.7115386], [5.9777104, 49.711544], [5.9777042, 49.7115495], [5.9777014, 49.711556], [5.9777023, 49.7115669], [5.977687, 49.711581], [5.9776977, 49.7115925], [5.9777031, 49.7116017], [5.9777012, 49.7116159], [5.9776842, 49.7116262], [5.9776626, 49.7116381], [5.9776295, 49.7116435], [5.9775955, 49.7116391], [5.9775696, 49.7116287], [5.9775597, 49.7116271], [5.9775373, 49.7116265], [5.9775221, 49.7116287], [5.9775283, 49.7116483], [5.9775211, 49.7116586], [5.9775077, 49.7116678], [5.977479, 49.7116814], [5.9774476, 49.7116922], [5.977435, 49.7116949], [5.9774207, 49.7116927], [5.97741, 49.7116884], [5.9774001, 49.7116883], [5.9773885, 49.7116916], [5.9773723, 49.7117008], [5.9773607, 49.7117111], [5.9773508, 49.7117204], [5.9773346, 49.7117473], [5.9773112, 49.7117712], [5.977304, 49.7117734], [5.9772682, 49.7117837], [5.9772368, 49.7117951], [5.9772233, 49.7118048], [5.9771856, 49.7118326], [5.9771659, 49.7118429], [5.9771363, 49.7118477], [5.977096, 49.7118553], [5.9770691, 49.7118623], [5.977053, 49.7118715], [5.9770386, 49.7118889], [5.9770215, 49.7119145], [5.9770053, 49.7119319], [5.9770035, 49.711948], [5.9769819, 49.711967], [5.9769335, 49.7119898], [5.9768868, 49.712012], [5.9768743, 49.7120245], [5.9768473, 49.7120408], [5.9768114, 49.7120609], [5.9767863, 49.7120772], [5.9767764, 49.7120919], [5.9767584, 49.7121207], [5.9766956, 49.7121639], [5.9766803, 49.7121737], [5.9766561, 49.7121774], [5.9766275, 49.712179], [5.9765935, 49.7121746], [5.9765693, 49.7121697], [5.9765532, 49.7121702], [5.9765433, 49.7121783], [5.9765468, 49.7122023], [5.9765513, 49.7122061], [5.9765655, 49.7122219], [5.9765726, 49.7122459], [5.976568, 49.7122731], [5.9765411, 49.7122878], [5.97649, 49.7123067], [5.9764353, 49.7123355], [5.9763734, 49.7123675], [5.9763437, 49.7123985], [5.9763346, 49.7124312], [5.9763166, 49.7124687], [5.9762816, 49.7124991], [5.9762316, 49.712524], [5.976219, 49.7125102], [5.9761717, 49.7124583], [5.9761142, 49.7125654], [5.9760725, 49.7126007], [5.9760091, 49.7126366], [5.97582, 49.7127031], [5.9756533, 49.7127541], [5.975692, 49.71281], [5.975709, 49.7128469], [5.9757166, 49.712881], [5.975718, 49.7129293], [5.9757132, 49.7129595], [5.9756959, 49.7129988], [5.975663, 49.7130612], [5.9755957, 49.7131633], [5.9755159, 49.7132588], [5.9755187, 49.713353], [5.9755105, 49.7134561], [5.9754962, 49.7135356], [5.9754616, 49.7136217], [5.9754036, 49.7137195], [5.974991, 49.7143484], [5.9744527, 49.7142579], [5.9740995, 49.7141793], [5.9741266, 49.714233], [5.9741767, 49.7143368], [5.9741891, 49.714388], [5.9741764, 49.7144187], [5.9741446, 49.7144609], [5.9740514, 49.7145574], [5.9737728, 49.7148461], [5.9736164, 49.7150058], [5.9732695, 49.7153849], [5.9732381, 49.7154192], [5.9732296, 49.7154358], [5.9732843, 49.7154436], [5.973503, 49.7154824], [5.9739005, 49.7155317], [5.9741445, 49.7155666], [5.9745334, 49.7156645], [5.9748845, 49.7157291], [5.9750801, 49.7157601], [5.9750643, 49.7157783], [5.9749834, 49.7158665], [5.9749215, 49.715934], [5.9747538, 49.7161169], [5.9747311, 49.7161396], [5.9746135, 49.7162575], [5.9745685, 49.7163025], [5.9745515, 49.7163197], [5.9744937, 49.7163775], [5.9744536, 49.7164177], [5.9743731, 49.716499], [5.9742745, 49.7165985], [5.9742149, 49.7166601], [5.974156, 49.7167208], [5.9741427, 49.7167391], [5.974082, 49.7168221], [5.9740736, 49.7168336], [5.9740113, 49.7169262], [5.9739685, 49.7170024], [5.9738696, 49.7171852], [5.9738291, 49.7172603], [5.9737894, 49.7173337], [5.9737212, 49.7174599], [5.973689, 49.7175194], [5.9733623, 49.7174128], [5.9733413, 49.7174323], [5.9733791, 49.7174587], [5.9733827, 49.7175966], [5.9733444, 49.7176899], [5.9732548, 49.7178383], [5.9730295, 49.7181731], [5.9728713, 49.718443], [5.972492, 49.7184523], [5.9724572, 49.7185114], [5.9714902, 49.7202126], [5.9716811, 49.7202229], [5.9721475, 49.7201773], [5.9721559, 49.7201764], [5.972619, 49.7201296], [5.9728649, 49.7201382], [5.9731469, 49.7201488], [5.9733792, 49.7201613], [5.973624, 49.7201798], [5.9738728, 49.7202024], [5.9740951, 49.7202219], [5.9743223, 49.7202395], [5.974438, 49.7202477], [5.9747549, 49.7202624], [5.9748772, 49.7202814], [5.9749904, 49.7202991], [5.9752441, 49.7203378], [5.9754647, 49.7203665], [5.9756623, 49.7203898], [5.9758564, 49.7204073], [5.9760471, 49.7204308], [5.9762461, 49.7204543], [5.9764418, 49.7204768], [5.9767786, 49.7205097], [5.977039, 49.7205323], [5.9773452, 49.720557], [5.9775824, 49.7205826], [5.9777698, 49.7206061], [5.978129, 49.720652], [5.9783512, 49.7206746], [5.9784673, 49.720705], [5.9787398, 49.7207939], [5.9787462, 49.720796], [5.9788674, 49.7208354], [5.9789238, 49.7208486], [5.9789968, 49.7208599], [5.9791311, 49.7208863], [5.9792238, 49.7209309], [5.9793249, 49.7209775], [5.9794209, 49.72102], [5.9795419, 49.7210686], [5.9796479, 49.7211061], [5.9798478, 49.7211666], [5.9800482, 49.7212446], [5.9802239, 49.7213115], [5.9803198, 49.7213453], [5.9804194, 49.7213804], [5.9805282, 49.7214437], [5.9807814, 49.7216197], [5.9811886, 49.7218797], [5.9813219, 49.7219397], [5.9817379, 49.7220716], [5.9818937, 49.7221172], [5.9820445, 49.7221659], [5.9823373, 49.7222507], [5.9826489, 49.722341], [5.9827956, 49.7223827], [5.9830659, 49.7224596], [5.98322, 49.7225042], [5.9835301, 49.7225753], [5.9838202, 49.7226373], [5.9842159, 49.7227155], [5.9851644, 49.7229037], [5.9850954, 49.7230293], [5.985067, 49.7230827], [5.9852076, 49.723115], [5.9854513, 49.723182], [5.9856386, 49.7232418], [5.9858159, 49.7233056], [5.9860563, 49.7233797], [5.9862624, 49.7234311], [5.9865128, 49.723486], [5.9868427, 49.7235692], [5.9871312, 49.7236353], [5.9873325, 49.7236806], [5.9874801, 49.7237091], [5.9876011, 49.7237244], [5.9877057, 49.7237286], [5.9878318, 49.7237197], [5.9879796, 49.7237028], [5.988119, 49.7236818], [5.9881209, 49.7236385], [5.9884878, 49.7235966], [5.9887189, 49.7235953], [5.9888808, 49.7236085], [5.9891171, 49.7236444], [5.9893081, 49.7236907], [5.9894183, 49.7237183], [5.9894578, 49.7237243], [5.9897441, 49.7233887], [5.9898351, 49.7232588], [5.9899919, 49.7230202], [5.9900786, 49.7228632], [5.9901737, 49.7226806], [5.9903116, 49.7223436], [5.990329, 49.7222941], [5.9903369, 49.7222449], [5.9903348, 49.7222225], [5.9903295, 49.7221653], [5.9902676, 49.7217108], [5.9902509, 49.7215514], [5.9902225, 49.7214343], [5.990152, 49.7212128], [5.990026, 49.720914], [5.9899155, 49.7207005], [5.9899079, 49.7206759], [5.9899118, 49.7206466], [5.9899566, 49.720498], [5.9902768, 49.7198069], [5.9903418, 49.7196514], [5.9903943, 49.7195039], [5.9904228, 49.7193452], [5.9904196, 49.7191672], [5.9904046, 49.7190443], [5.9903875, 49.7190015], [5.9906215, 49.7189505], [5.9910436, 49.7190112], [5.9918822, 49.7191525], [5.992425, 49.7192234], [5.9927923, 49.7192506], [5.9930726, 49.7193001], [5.9943249, 49.7195992], [5.9958421, 49.7199858], [5.9976758, 49.7204748], [5.9994956, 49.7208739], [5.9995144, 49.7208494], [5.9996213, 49.7207181], [5.999699, 49.7206226], [5.9998453, 49.7204428], [5.9999115, 49.7203615], [5.9999559, 49.7203088], [6.0000641, 49.7201785], [6.0001358, 49.7200925], [6.0002471, 49.719959], [6.0003597, 49.7198301], [6.0004868, 49.7196844], [6.0005384, 49.7196229], [6.0003294, 49.7195196], [6.0002633, 49.719487], [5.9999739, 49.719344], [5.9997806, 49.7192485], [5.9995971, 49.7191624], [5.9992752, 49.7190204], [5.998926, 49.7188738], [5.9987128, 49.7187928], [5.9985111, 49.718735], [5.9980856, 49.7186143], [5.9975499, 49.7184717], [5.9975802, 49.718371], [5.9976032, 49.7182942], [5.9976616, 49.7180996], [5.9976776, 49.7180462], [5.9976998, 49.7179869], [5.9977174, 49.7179396], [5.9977589, 49.7178542], [5.9977787, 49.7178188], [5.9978079, 49.7177757], [5.9978309, 49.7177418], [5.997873, 49.7176909], [5.998005, 49.7175315], [5.998029, 49.7175026], [5.9981115, 49.7174029], [5.9981294, 49.7173812], [5.9981492, 49.7173574], [5.9981848, 49.7173114], [5.9982409, 49.7172392], [5.9980192, 49.7171328], [5.9977044, 49.7169851], [5.9974867, 49.7169054], [5.9972468, 49.7168329], [5.9970822, 49.7167914], [5.9969337, 49.716759], [5.9967726, 49.716725], [5.99708, 49.7163812], [5.9972255, 49.7162552], [5.9973455, 49.716143], [5.9974574, 49.7160384], [5.9975255, 49.7159748], [5.9975867, 49.7159147], [5.9976423, 49.7158601], [5.9977074, 49.7157962], [5.9977968, 49.7157085], [5.9979297, 49.7155852], [5.9980034, 49.7155177], [5.998138, 49.7154118], [5.9982116, 49.7153602], [5.9982942, 49.7153022], [5.9983844, 49.7152419], [5.9985521, 49.7151298], [5.9987213, 49.7150167], [5.9988524, 49.7149278], [5.9989832, 49.7148391], [5.9991158, 49.7147492], [5.9991182, 49.7147476], [5.9989547, 49.7146741], [5.9988504, 49.7146272], [5.9993684, 49.7142916], [5.9996527, 49.7140983], [5.99957, 49.7139767], [5.999497, 49.7138478], [5.9994454, 49.7137505], [5.9993939, 49.7136333], [5.9993246, 49.7134843], [5.9992622, 49.7133965], [5.9992033, 49.713341], [5.9991265, 49.7132892], [5.9987849, 49.7130833], [5.9987137, 49.7131196], [5.9985239, 49.7129456], [5.9984903, 49.7129164], [5.9983959, 49.7128282], [5.9983379, 49.7127758], [5.9982905, 49.712733], [5.998137, 49.7126188], [5.9980262, 49.7125421], [5.9979262, 49.7124775], [5.9977315, 49.7123479], [5.9975243, 49.7122187], [5.997342, 49.7121203], [5.997137, 49.7120249], [5.9974889, 49.7115835], [5.9975034, 49.7115424], [5.9975142, 49.7115133], [5.9975288, 49.7113435], [5.997531, 49.711318], [5.9975331, 49.7113123], [5.9975509, 49.7112631], [5.9975761, 49.7112231], [5.9975941, 49.711202], [5.997675, 49.7111039], [5.9977647, 49.7110028], [5.9977814, 49.710984], [5.9978212, 49.7109391], [5.9978884, 49.7108635], [5.9979935, 49.7107451], [5.9981567, 49.7105613], [5.9982796, 49.7104128], [5.9982933, 49.7103963], [5.9985611, 49.7100852], [5.9986334, 49.7100041], [5.9986699, 49.7099632], [5.9987516, 49.7098716], [5.9988703, 49.7097378], [5.9989024, 49.7097016], [5.9989634, 49.7096328], [5.9991529, 49.709419], [5.9992729, 49.7092837], [5.9993158, 49.7092304], [5.9994195, 49.7091016], [5.9994814, 49.7090248], [5.9995124, 49.7089881], [5.9997151, 49.708749], [5.9999146, 49.708536], [5.9999428, 49.7085036], [6.0000044, 49.7084331], [6.0000664, 49.7083691], [6.0001248, 49.7083087], [6.000233, 49.708208], [6.0002789, 49.7081652], [6.0003804, 49.7080707], [6.0004931, 49.7079659], [6.0005439, 49.7079222], [6.0007081, 49.7077812], [6.000889, 49.7076259], [6.000991, 49.7075488], [6.0011103, 49.7074587], [6.0012994, 49.7073158], [6.0013305, 49.7072923], [6.0013793, 49.7072505], [6.0015567, 49.7070986], [6.0016833, 49.7069853], [6.0018467, 49.7068609], [6.0020802, 49.70671], [6.0020994, 49.7066994], [6.0021185, 49.706689], [6.0022476, 49.7066264], [6.0024627, 49.7065275], [6.002588, 49.7064772], [6.0026438, 49.7064549], [6.0028572, 49.7063612], [6.0030168, 49.7062775], [6.0030865, 49.7062389], [6.0031552, 49.706188], [6.0033158, 49.7060885], [6.0035117, 49.7059655], [6.0035647, 49.7059323], [6.0037109, 49.7058405], [6.0037974, 49.7057862], [6.0038567, 49.7057499], [6.0038995, 49.7057238], [6.0041583, 49.7055706], [6.0041775, 49.7055592], [6.0041777, 49.705535], [6.0041793, 49.7055102], [6.0041822, 49.7054698], [6.0041899, 49.705455], [6.004198, 49.7054381], [6.0042079, 49.705423], [6.0039638, 49.7052583], [6.0037528, 49.7051464], [6.003544, 49.7050367], [6.0033251, 49.7049198], [6.0031194, 49.7048022], [6.0029161, 49.7046936], [6.0027328, 49.7045956], [6.0026158, 49.7045331], [6.0025407, 49.704493], [6.0024566, 49.7044481], [6.0025189, 49.7043545], [6.0025903, 49.7042722], [6.0026676, 49.70419], [6.0027502, 49.7041162], [6.0030373, 49.7039033], [6.0038496, 49.7033739], [6.0034748, 49.703104], [6.0030413, 49.7028528], [6.0028601, 49.7029138], [6.0027431, 49.7029507], [6.0026352, 49.7029897], [6.0026021, 49.7030039], [6.0025806, 49.7030196], [6.0025635, 49.7030321], [6.0024399, 49.7031249], [6.0024046, 49.7031676], [6.0023699, 49.7032131], [6.0023046, 49.7032714], [6.0022766, 49.70329], [6.0022089, 49.7033349], [6.0021307, 49.7033744], [6.0020245, 49.7034092], [6.0018676, 49.7034471], [6.0017549, 49.7034612], [6.0016792, 49.7034808], [6.0016209, 49.7034976], [6.0012266, 49.7031999], [6.0008999, 49.7029404], [6.0008348, 49.7028887], [6.0007922, 49.7028612], [6.0007607, 49.7028361], [6.0004616, 49.7025978], [6.0004718, 49.7025918], [5.9999179, 49.7021789], [5.9995923, 49.7019383], [5.99924, 49.7016927], [5.9991941, 49.7016614], [5.9992166, 49.7016036], [5.9992337, 49.7015597], [5.9992403, 49.7015427], [5.9992569, 49.7015001], [5.9992644, 49.7014806], [5.99928, 49.7014406], [5.9993074, 49.7013936], [5.999372, 49.7012987], [5.9994755, 49.7011496], [5.999543, 49.7010738], [5.9996185, 49.700989], [5.999667, 49.7009347], [5.9997187, 49.7008755], [5.9997897, 49.7007941], [5.9998058, 49.7007758], [5.9998484, 49.7007269], [5.9999158, 49.7006498], [5.999959, 49.7006004], [5.9999917, 49.7005598], [6.000005, 49.700544], [6.0000635, 49.7004743], [5.9996316, 49.7003826], [5.9990819, 49.7002133], [5.9987294, 49.7001104], [5.9984369, 49.7000361], [5.9982108, 49.6999726], [5.9980838, 49.6999508], [5.9979318, 49.6999284], [5.9977779, 49.6999081], [5.9976422, 49.6998939], [5.9975936, 49.6998888], [5.9977418, 49.6995426], [5.997756, 49.6995095], [5.9978282, 49.6993406], [5.9978595, 49.6992562], [5.9978824, 49.6991944], [5.9978918, 49.6991668], [5.9979183, 49.6990889], [5.9979401, 49.6990247], [5.9979809, 49.6989048], [5.9980059, 49.6986698], [5.9979409, 49.6983276], [5.997841, 49.6982525], [5.9977425, 49.6981785], [5.9973642, 49.6978943], [5.9969234, 49.6975575]]]}}]}