{"type": "FeatureCollection", "features": [{"type": "Feature", "properties": {"name": "Roodt"}, "geometry": {"type": "Polygon", "coordinates": [[[5.9870023, 49.6950164], [5.9873287, 49.6950494], [5.9877253, 49.6951126], [5.9879087, 49.6952023], [5.9880849, 49.6952607], [5.9881804, 49.6952742], [5.988276, 49.6952431], [5.9883645, 49.6951627], [5.9884528, 49.6951137], [5.9887176, 49.695056], [5.9888205, 49.6950517], [5.9888939, 49.6950875], [5.9889671, 49.6951681], [5.9891332, 49.6953222], [5.9892341, 49.6954177], [5.9893188, 49.6954715], [5.9893874, 49.6954835], [5.9894626, 49.6954598], [5.9895739, 49.6953884], [5.9897377, 49.6952515], [5.9898129, 49.6952139], [5.9898783, 49.6951921], [5.9899241, 49.6951803], [5.9899666, 49.6951625], [5.9900092, 49.6951208], [5.990052, 49.6950394], [5.9900881, 49.6949878], [5.9901372, 49.694958], [5.9902222, 49.6949443], [5.9902973, 49.6949563], [5.9903559, 49.6949902], [5.9904341, 49.6950439], [5.9905058, 49.6950917], [5.9906166, 49.6951535], [5.9906851, 49.6951894], [5.9907405, 49.6952193], [5.990786, 49.695281], [5.9908574, 49.6954162], [5.9909221, 49.6955693], [5.9910163, 49.6957165], [5.9911237, 49.695824], [5.9912835, 49.6959057], [5.9916684, 49.6960255], [5.9919425, 49.6961034], [5.9923081, 49.6961686], [5.9924223, 49.6962005], [5.992494, 49.6962384], [5.9925355, 49.6963319], [5.9925908, 49.6963869], [5.9926641, 49.6964261], [5.9927482, 49.6964273], [5.9928127, 49.6963915], [5.9928918, 49.6963092], [5.992951, 49.6962597], [5.9930477, 49.696244], [5.9932, 49.6961978], [5.9932628, 49.696154], [5.9933615, 49.6960972], [5.9934081, 49.6960582], [5.9934404, 49.6960424], [5.9935369, 49.6960774], [5.9936189, 49.6961704], [5.9936866, 49.696255], [5.9937114, 49.6963448], [5.9937362, 49.696404], [5.9937719, 49.6964357], [5.9939455, 49.6964455], [5.9940332, 49.696434], [5.9941515, 49.6963856], [5.9941965, 49.6963371], [5.9943341, 49.6958837], [5.9943307, 49.6958383], [5.9942968, 49.6958045], [5.9941573, 49.6957716], [5.9941001, 49.6957472], [5.9940913, 49.6957123], [5.9941615, 49.6955841], [5.9942424, 49.6954945], [5.9946403, 49.695343], [5.994728, 49.695321], [5.9947979, 49.6953179], [5.9948675, 49.6953581], [5.9949512, 49.6954665], [5.9953318, 49.6956487], [5.9953274, 49.6956781], [5.9953099, 49.6957791], [5.9953187, 49.6958087], [5.9953598, 49.6958351], [5.9954206, 49.6958511], [5.9954671, 49.6958543], [5.9955007, 49.6958421], [5.9955725, 49.6959033], [5.9956852, 49.6959328], [5.9957953, 49.6959497], [5.9960814, 49.6964192], [5.9961113, 49.6964683], [5.9957539, 49.696555], [5.9957983, 49.6966082], [5.9958928, 49.6967212], [5.9960085, 49.6968596], [5.9960664, 49.6969197], [5.9961483, 49.6970047], [5.996169, 49.6970262], [5.9962626, 49.6971163], [5.9962974, 49.6971499], [5.9964349, 49.6972599], [5.9965035, 49.6973042], [5.9965563, 49.6973383], [5.9965956, 49.6973636], [5.9969234, 49.6975575], [5.9972856, 49.6973388], [5.9977609, 49.6970586], [5.9979582, 49.6969485], [5.9980657, 49.6969012], [5.9981804, 49.6968665], [5.9982503, 49.6968487], [5.998338, 49.6968361], [5.9985905, 49.6968122], [5.9987963, 49.6967998], [5.9990754, 49.6968156], [5.9992866, 49.6968312], [5.999505, 49.6968599], [5.9996751, 49.6968918], [5.9999233, 49.6969506], [5.9999012, 49.6970603], [5.9999796, 49.6970887], [6.0002858, 49.6972833], [6.0007055, 49.6974376], [6.0011158, 49.6975885], [6.0015199, 49.6977862], [6.0015631, 49.6978073], [6.0022008, 49.6981192], [6.0029037, 49.6982436], [6.003293, 49.6981697], [6.0036859, 49.6982231], [6.0043315, 49.6982637], [6.0046059, 49.6981132], [6.004975, 49.6979107], [6.005254, 49.6979217], [6.0060259, 49.6979141], [6.0060386, 49.6978575], [6.0060461, 49.6978236], [6.0060932, 49.6976135], [6.0061115, 49.6975211], [6.0061457, 49.6973484], [6.0061478, 49.6973377], [6.0061595, 49.6972788], [6.0061807, 49.6971719], [6.0061855, 49.6971476], [6.0061989, 49.6970801], [6.0062057, 49.6970456], [6.0062191, 49.6969775], [6.006234, 49.696902], [6.0062486, 49.6968467], [6.0062545, 49.6968243], [6.0062617, 49.696797], [6.0062773, 49.6967374], [6.0063038, 49.6966583], [6.0063142, 49.6966271], [6.0063602, 49.6964893], [6.0060891, 49.6964299], [6.0064472, 49.6958872], [6.0065236, 49.6957705], [6.0065373, 49.6957492], [6.0057497, 49.6954759], [6.005765, 49.6954554], [6.0060988, 49.695065], [6.0061397, 49.6950208], [6.0063597, 49.6950697], [6.0066064, 49.6951203], [6.0066637, 49.6951678], [6.0067127, 49.6953971], [6.0067526, 49.6954626], [6.0068195, 49.6955034], [6.0069209, 49.6955182], [6.0071966, 49.695487], [6.0073766, 49.6954601], [6.0077695, 49.6952907], [6.0079418, 49.6952706], [6.0080489, 49.6953013], [6.0081425, 49.6953533], [6.008242, 49.6953794], [6.0085597, 49.6953799], [6.0088391, 49.6953893], [6.0088698, 49.6953622], [6.0089423, 49.6952876], [6.0090062, 49.695222], [6.0090505, 49.6951764], [6.0091583, 49.6950655], [6.0093479, 49.6948706], [6.0095256, 49.6946818], [6.0095672, 49.6946376], [6.0104049, 49.6948719], [6.0106323, 49.694642], [6.0106847, 49.694589], [6.0107971, 49.694467], [6.0108457, 49.6944143], [6.0108744, 49.6943831], [6.011004, 49.6942425], [6.0113403, 49.6943507], [6.0116815, 49.6944606], [6.0120245, 49.694571], [6.0121182, 49.6946073], [6.0122813, 49.6946788], [6.0123333, 49.6947016], [6.0125005, 49.6947749], [6.0129304, 49.6949793], [6.0132263, 49.6952151], [6.0133242, 49.6952861], [6.0134555, 49.6953814], [6.0138622, 49.6956925], [6.0140894, 49.6958571], [6.014498, 49.6961693], [6.0147633, 49.696396], [6.0149848, 49.6965668], [6.0151052, 49.6966398], [6.0152695, 49.6967168], [6.0154301, 49.6967859], [6.0156929, 49.6969007], [6.0157538, 49.6969222], [6.0158373, 49.6969516], [6.0162281, 49.6970675], [6.0163016, 49.6970893], [6.0163638, 49.6970204], [6.0167007, 49.6971426], [6.0168589, 49.6971956], [6.0169689, 49.6972196], [6.0170773, 49.6972381], [6.0172047, 49.6972403], [6.0174146, 49.6972395], [6.0175774, 49.6972316], [6.0180171, 49.6972103], [6.0185214, 49.6971785], [6.0185477, 49.6972293], [6.0186079, 49.6973453], [6.0186463, 49.6974193], [6.0189356, 49.6973506], [6.0191802, 49.6972814], [6.0192939, 49.6972521], [6.0195162, 49.6971661], [6.0197233, 49.6970696], [6.0198101, 49.6970291], [6.019916, 49.6969797], [6.0200359, 49.6969271], [6.0203486, 49.6967899], [6.0206529, 49.6966565], [6.0208328, 49.6965753], [6.0210162, 49.6965063], [6.0211133, 49.6964737], [6.0211739, 49.6964534], [6.0212792, 49.6964214], [6.0213191, 49.6964093], [6.0213668, 49.6963947], [6.0215064, 49.696337], [6.021765, 49.6962043], [6.0219856, 49.6960934], [6.0221235, 49.6960296], [6.0222296, 49.6959888], [6.0225362, 49.695871], [6.0226164, 49.6956946], [6.0226866, 49.6955073], [6.0227114, 49.6954188], [6.0227228, 49.6953783], [6.0227677, 49.6952047], [6.022801, 49.6949603], [6.0228133, 49.6948203], [6.0228148, 49.6946838], [6.0228086, 49.6945717], [6.0228012, 49.6945108], [6.0227663, 49.6941827], [6.0227603, 49.6941164], [6.0227411, 49.6939057], [6.0227317, 49.6938031], [6.0227266, 49.6936907], [6.0226992, 49.6934106], [6.022685, 49.6930785], [6.0226355, 49.6929484], [6.022557, 49.6927291], [6.022486, 49.6925266], [6.0224472, 49.6924422], [6.0223966, 49.6923735], [6.0223403, 49.6923159], [6.0222658, 49.6922511], [6.0220113, 49.6920862], [6.0218296, 49.6919712], [6.0217095, 49.6918674], [6.0214986, 49.6916861], [6.0214295, 49.6916281], [6.0213039, 49.6915383], [6.0214574, 49.6912048], [6.0212353, 49.6911534], [6.0210661, 49.6911097], [6.0208687, 49.6910606], [6.0206871, 49.6910137], [6.0205361, 49.6909769], [6.020482, 49.6910492], [6.0200978, 49.6907953], [6.0198119, 49.6906094], [6.0194345, 49.690319], [6.0195131, 49.6902905], [6.01935, 49.6901672], [6.0190712, 49.689948], [6.0189134, 49.6898214], [6.0188468, 49.6897664], [6.0187942, 49.6897229], [6.0184884, 49.689774], [6.0181319, 49.6898405], [6.0178699, 49.6898957], [6.0177309, 49.6899264], [6.0175024, 49.6899821], [6.0173357, 49.6900256], [6.0171676, 49.6900723], [6.0170044, 49.6901214], [6.0168941, 49.6900908], [6.0166896, 49.6900491], [6.0163502, 49.6899825], [6.0160108, 49.6899139], [6.0155071, 49.68982], [6.0149536, 49.6897153], [6.0145519, 49.6896401], [6.0142817, 49.6895913], [6.0141463, 49.6895671], [6.0140239, 49.6895452], [6.0139051, 49.689521], [6.013737, 49.6894868], [6.013651, 49.6894693], [6.0135372, 49.6894456], [6.0132148, 49.6893787], [6.013081, 49.6893503], [6.0129031, 49.6893125], [6.0126927, 49.6892678], [6.0125571, 49.6892396], [6.0124789, 49.6892234], [6.0122543, 49.6891767], [6.0121498, 49.689155], [6.0120888, 49.6891429], [6.0120039, 49.6891261], [6.0117848, 49.6890827], [6.011692, 49.6890644], [6.0116148, 49.6890491], [6.0115564, 49.6890373], [6.0113591, 49.6889975], [6.0111633, 49.688958], [6.0110711, 49.6889394], [6.0109954, 49.6889239], [6.0108197, 49.688888], [6.0106123, 49.6888457], [6.0104469, 49.6888129], [6.0101051, 49.6887451], [6.009909, 49.6887061], [6.0097879, 49.6886819], [6.0097258, 49.6886695], [6.0093362, 49.6885919], [6.0092798, 49.6885844], [6.0092738, 49.6886687], [6.0092808, 49.6887515], [6.0092934, 49.6888637], [6.0093157, 49.6889835], [6.0093548, 49.6891596], [6.0093795, 49.6892744], [6.0094719, 49.6896946], [6.009561, 49.6901012], [6.0095871, 49.6902462], [6.0095974, 49.6903782], [6.0095887, 49.6905404], [6.0095656, 49.6906841], [6.0094781, 49.6910036], [6.0094421, 49.6909963], [6.0090638, 49.6908931], [6.0090348, 49.6908852], [6.0088339, 49.6908282], [6.0086263, 49.6907691], [6.0084207, 49.6907107], [6.0081169, 49.690624], [6.0080122, 49.6905941], [6.0076797, 49.6905019], [6.0072081, 49.6903753], [6.007181, 49.6904103], [6.007114, 49.6904875], [6.0070884, 49.6905197], [6.0070234, 49.6906014], [6.0069004, 49.6905438], [6.0067518, 49.6904802], [6.0066361, 49.6904308], [6.0065298, 49.6903895], [6.0064415, 49.6903588], [6.00631, 49.6903191], [6.0062064, 49.6902923], [6.0061251, 49.6902724], [6.006097, 49.690266], [6.0060566, 49.6902568], [6.0058584, 49.6902151], [6.0058087, 49.6902047], [6.0056618, 49.6901767], [6.0055239, 49.6901554], [6.0053522, 49.6901323], [6.0051999, 49.6901182], [6.0050673, 49.6901086], [6.0049835, 49.6901035], [6.0049096, 49.6901011], [6.0047659, 49.6900987], [6.0045656, 49.6901002], [6.0045519, 49.6901662], [6.0045272, 49.6902635], [6.0042195, 49.690288], [6.0040689, 49.6902983], [6.0039839, 49.6903005], [6.0038978, 49.6903014], [6.003814, 49.6902984], [6.0037115, 49.6902906], [6.0036282, 49.690279], [6.0034501, 49.6902597], [6.0033826, 49.69025], [6.0032366, 49.6902307], [6.0031421, 49.6902168], [6.0030658, 49.6902042], [6.0029609, 49.6901814], [6.0029057, 49.6901691], [6.0028313, 49.6901468], [6.0026867, 49.6900988], [6.0024522, 49.6900241], [6.0021526, 49.6899279], [6.0020792, 49.6899036], [6.0019375, 49.6898473], [6.0017958, 49.6897909], [6.0016936, 49.6897534], [6.0016816, 49.6897496], [6.0016451, 49.6897379], [6.0015635, 49.6897134], [6.0014747, 49.6896859], [6.0013849, 49.6896578], [6.0012878, 49.6896312], [6.0011873, 49.6896029], [6.0010638, 49.6895737], [6.0010486, 49.6895701], [6.0010412, 49.6895685], [6.0009398, 49.6895463], [6.000884, 49.6895341], [6.0008371, 49.6895255], [6.0007336, 49.6895066], [6.0006869, 49.6894991], [6.0006558, 49.6894941], [6.0005282, 49.6894738], [6.0003663, 49.6894479], [6.0002497, 49.6894317], [6.0001767, 49.6894223], [6.0001136, 49.6894142], [6.0001084, 49.6894135], [5.9999879, 49.6893981], [5.9996764, 49.6893563], [5.9994489, 49.6893205], [5.9993042, 49.6892888], [5.9991851, 49.6892589], [5.9991286, 49.689243], [5.9987923, 49.6891687], [5.9986653, 49.6891343], [5.9985714, 49.6891025], [5.9984871, 49.6890721], [5.9984714, 49.6890671], [5.9984149, 49.6890492], [5.9982474, 49.6889949], [5.9981785, 49.6889701], [5.9981348, 49.6889535], [5.9979033, 49.6888603], [5.997723, 49.6887764], [5.9976776, 49.6887568], [5.9975337, 49.6886829], [5.9973844, 49.6886036], [5.9972975, 49.6885545], [5.9972667, 49.6885361], [5.9971855, 49.6884884], [5.9969276, 49.6883188], [5.9967688, 49.6882105], [5.9965731, 49.6880699], [5.9964283, 49.6879591], [5.9963753, 49.6879191], [5.9962876, 49.6878528], [5.9961591, 49.687749], [5.9960484, 49.68765], [5.9959409, 49.68753], [5.9958729, 49.6874403], [5.9958179, 49.687357], [5.9957691, 49.6872687], [5.9957256, 49.6871731], [5.9957204, 49.6871494], [5.99571, 49.6870884], [5.9957038, 49.6870271], [5.9957029, 49.6869848], [5.9956969, 49.6868742], [5.99571, 49.6867781], [5.9957273, 49.6867241], [5.995751, 49.6866755], [5.9957603, 49.6866593], [5.9957818, 49.6866217], [5.995794, 49.6866005], [5.9958584, 49.6865163], [5.9959398, 49.6864368], [5.9959527, 49.6864242], [5.9959121, 49.6863833], [5.9956953, 49.6861645], [5.99554, 49.6860079], [5.9955205, 49.6859882], [5.9952714, 49.6857458], [5.9952136, 49.6857815], [5.9951739, 49.685813], [5.9951557, 49.6858282], [5.9951364, 49.6858387], [5.9951172, 49.6858466], [5.995099, 49.6858571], [5.995084, 49.6858663], [5.9950572, 49.6858722], [5.9950337, 49.6858748], [5.9950081, 49.6858728], [5.9949899, 49.6858714], [5.9949728, 49.685876], [5.9949525, 49.6858865], [5.9949289, 49.6859036], [5.9949129, 49.6859121], [5.9948744, 49.68592], [5.9948476, 49.6859272], [5.9948273, 49.685941], [5.9948159, 49.6859513], [5.9947983, 49.6859673], [5.994779, 49.6859831], [5.9947651, 49.6859923], [5.9947288, 49.6860002], [5.994702, 49.6860061], [5.9946774, 49.6860159], [5.9946635, 49.6860297], [5.9946476, 49.6860543], [5.9946348, 49.686074], [5.9946144, 49.6860865], [5.9945834, 49.686099], [5.9945491, 49.6861148], [5.9945245, 49.6861332], [5.9945041, 49.6861536], [5.9944848, 49.686168], [5.9944441, 49.6861976], [5.9944323, 49.6862174], [5.9944236, 49.6862549], [5.9944034, 49.6862941], [5.9943755, 49.6863204], [5.9943594, 49.6863527], [5.9943518, 49.6863843], [5.9943442, 49.6864179], [5.9943195, 49.6864561], [5.9942799, 49.6864952], [5.9942057, 49.6866061], [5.9942079, 49.6866207], [5.9942094, 49.6866307], [5.9942119, 49.6866469], [5.9941953, 49.6866685], [5.9941888, 49.6866769], [5.9941814, 49.6866996], [5.9941925, 49.6867407], [5.9942078, 49.6867703], [5.9942115, 49.6867863], [5.9942057, 49.6868078], [5.9941509, 49.6868721], [5.994133, 49.6869444], [5.9941199, 49.6869971], [5.994124, 49.6870735], [5.9941126, 49.6870875], [5.9940752, 49.6871337], [5.9940681, 49.6871762], [5.9940615, 49.6872163], [5.9940522, 49.6872563], [5.9940318, 49.6872852], [5.993991, 49.6873346], [5.9939814, 49.6873469], [5.9939143, 49.6874962], [5.9938927, 49.6875436], [5.9938723, 49.6876025], [5.9938389, 49.6876802], [5.9938378, 49.6876901], [5.9938537, 49.6877284], [5.9938749, 49.6877726], [5.993909, 49.6878082], [5.9939281, 49.6878313], [5.9939345, 49.6878511], [5.9939322, 49.6878794], [5.9939406, 49.6879192], [5.9939576, 49.6879594], [5.993967, 49.6880029], [5.9939702, 49.688028], [5.9939658, 49.6880484], [5.9939508, 49.6880688], [5.9939379, 49.6880793], [5.9939101, 49.6880839], [5.9938823, 49.6880865], [5.9938577, 49.6880924], [5.9938427, 49.6881036], [5.9938288, 49.6881187], [5.993594, 49.6881011], [5.9934636, 49.6880903], [5.9933248, 49.6880796], [5.9932438, 49.6885984], [5.9932231, 49.6887367], [5.9932112, 49.6887762], [5.9931908, 49.6888289], [5.9931628, 49.6888723], [5.9931467, 49.6888966], [5.9930473, 49.6890384], [5.9928861, 49.6892423], [5.9927585, 49.6894247], [5.992653, 49.6895903], [5.9926061, 49.6896649], [5.9925869, 49.6897126], [5.992578, 49.6897639], [5.9925851, 49.6898134], [5.9925995, 49.6898629], [5.992614, 49.6898959], [5.9926387, 49.689922], [5.9926546, 49.6899352], [5.9926911, 49.6899653], [5.9927884, 49.6900299], [5.9928715, 49.6900786], [5.9929043, 49.6900963], [5.9929792, 49.6901364], [5.9931676, 49.690224], [5.9932065, 49.690242], [5.993273, 49.6902811], [5.9933371, 49.6903271], [5.9933822, 49.6903649], [5.9934418, 49.6904226], [5.9934941, 49.6904812], [5.9935347, 49.6905387], [5.9935537, 49.6905745], [5.9935724, 49.6906099], [5.9936158, 49.6907032], [5.993652, 49.6907987], [5.9937142, 49.6909371], [5.993784, 49.6911034], [5.9937996, 49.6911406], [5.9938429, 49.6912263], [5.9938951, 49.6913227], [5.9939648, 49.6914235], [5.9940272, 49.691519], [5.9940463, 49.6915427], [5.9941013, 49.6916109], [5.9941706, 49.6916951], [5.9942622, 49.6917969], [5.9943014, 49.6918618], [5.9943231, 49.6919059], [5.9943303, 49.6919365], [5.9943308, 49.6919522], [5.9943316, 49.6919824], [5.9943182, 49.6920475], [5.9942931, 49.6921221], [5.9942564, 49.6921932], [5.9942183, 49.6922516], [5.9941699, 49.6923046], [5.9940762, 49.692399], [5.9940074, 49.6924737], [5.9939605, 49.6925312], [5.9939392, 49.6925593], [5.9938814, 49.6926355], [5.9937068, 49.6928728], [5.9936649, 49.6929292], [5.9936277, 49.6929793], [5.9935995, 49.6930201], [5.9935631, 49.6930728], [5.9934972, 49.693142], [5.9934037, 49.6932356], [5.9932953, 49.693338], [5.9931665, 49.6934494], [5.9931578, 49.6934548], [5.9929927, 49.6935578], [5.9929125, 49.6936052], [5.9927224, 49.693694], [5.992693, 49.6937082], [5.9924936, 49.6938048], [5.9923393, 49.693875], [5.9921925, 49.6939093], [5.9920536, 49.6939384], [5.9919451, 49.6939574], [5.9917892, 49.6939781], [5.9916791, 49.6939916], [5.9911315, 49.6939944], [5.9908017, 49.693848], [5.9903826, 49.6936579], [5.9902234, 49.6935856], [5.9901427, 49.693549], [5.9898711, 49.693422], [5.9898428, 49.6934088], [5.9893655, 49.6932268], [5.9889184, 49.6930955], [5.9886389, 49.6930135], [5.9883653, 49.6929544], [5.9880786, 49.6928925], [5.9880487, 49.6928762], [5.9877609, 49.692682], [5.9875344, 49.6924928], [5.9873469, 49.6923321], [5.9871492, 49.6921916], [5.987064, 49.6921319], [5.9869055, 49.6920248], [5.9866459, 49.6918511], [5.9866226, 49.6918356], [5.9864233, 49.6917111], [5.986194, 49.6915723], [5.9859769, 49.6914458], [5.9857598, 49.6913522], [5.9856543, 49.6918423], [5.9859025, 49.6926232], [5.9862581, 49.6925679], [5.9864774, 49.6928449], [5.9865702, 49.6929668], [5.986679, 49.6931289], [5.9867321, 49.693215], [5.9868239, 49.6933957], [5.9870059, 49.6938329], [5.9870327, 49.6938967], [5.9871297, 49.694128], [5.9869468, 49.6945893], [5.986966, 49.6946085], [5.9870021, 49.6946661], [5.9870135, 49.6946973], [5.9870187, 49.694714], [5.9870237, 49.6947488], [5.9870249, 49.6947837], [5.9870183, 49.6948137], [5.9870038, 49.6948612], [5.9869984, 49.6949111], [5.9870023, 49.6950164]]]}}]}