{"type": "FeatureCollection", "features": [{"type": "Feature", "properties": {"name": "Jardin de Wiltz", "kind": "park"}, "geometry": {"type": "Polygon", "coordinates": [[[5.9335071, 49.9612615], [5.9337135, 49.9611556], [5.9341131, 49.9611382], [5.9341624, 49.9612633], [5.9345852, 49.9609882], [5.9346191, 49.9609579], [5.9345829, 49.9609235], [5.9343098, 49.9606639], [5.9341832, 49.9605435], [5.9339332, 49.9602954], [5.933873, 49.9602356], [5.933788, 49.960161], [5.9337036, 49.9600868], [5.9332224, 49.9597028], [5.9330155, 49.9595377], [5.9329326, 49.9595114], [5.9327215, 49.9595565], [5.9326354, 49.9596228], [5.9323945, 49.9595787], [5.9319258, 49.959493], [5.931586, 49.9593759], [5.9311533, 49.959205], [5.9309474, 49.9591861], [5.9309222, 49.959249], [5.9307756, 49.9591783], [5.9306086, 49.9593042], [5.9313722, 49.9598149], [5.9318729, 49.9601272], [5.9318458, 49.9601891], [5.9324047, 49.9605469], [5.9328739, 49.9609162], [5.9335071, 49.9612615]]]}}]}