{"type": "FeatureCollection", "features": [{"type": "Feature", "properties": {"name": "Parc Public Simon", "kind": "park"}, "geometry": {"type": "Polygon", "coordinates": [[[5.9299611, 49.9663044], [5.9300626, 49.9663716], [5.9304956, 49.9666581], [5.9305982, 49.9667288], [5.9306562, 49.9667825], [5.9306786, 49.9667927], [5.9307105, 49.9667984], [5.9307021, 49.966853], [5.9307376, 49.9668617], [5.9307691, 49.9668796], [5.9307856, 49.9669011], [5.930795, 49.9669576], [5.9308261, 49.9670379], [5.930862, 49.967081], [5.9308369, 49.9670995], [5.9313486, 49.9672931], [5.9313596, 49.9672839], [5.9314417, 49.9673098], [5.9314933, 49.9672576], [5.9315208, 49.9672606], [5.9315631, 49.9672546], [5.9315872, 49.9672386], [5.9315973, 49.9672223], [5.9315775, 49.967208], [5.9315808, 49.967199], [5.9315641, 49.9671873], [5.9316124, 49.9671617], [5.9316596, 49.9671953], [5.9316764, 49.9671957], [5.9316851, 49.967189], [5.9317156, 49.9671558], [5.9317368, 49.9671472], [5.9317787, 49.9671414], [5.9318035, 49.9671269], [5.9318219, 49.9671019], [5.9318471, 49.9670909], [5.9318766, 49.967087], [5.9318984, 49.9670765], [5.9319111, 49.9670614], [5.9319124, 49.9670398], [5.9319, 49.9670195], [5.9318675, 49.9669984], [5.9318876, 49.9669695], [5.9319084, 49.9669709], [5.9319327, 49.9669652], [5.9319403, 49.9669582], [5.9319405, 49.9669511], [5.9319315, 49.9669359], [5.9319034, 49.9669225], [5.9312774, 49.9665481], [5.9317516, 49.9661288], [5.9314893, 49.9660736], [5.9312184, 49.9659882], [5.9306565, 49.9657864], [5.9299611, 49.9663044]]]}}]}