{"type": "FeatureCollection", "features": [{"type": "Feature", "properties": {"name": "Vianden"}, "geometry": {"type": "MultiPolygon", "coordinates": [[[[6.148954, 49.946777], [6.148954, 49.94681], [6.149412, 49.946915], [6.149893, 49.946953], [6.150946, 49.947033], [6.152471, 49.947163], [6.153074, 49.94722], [6.153891, 49.947304], [6.154722, 49.947376], [6.15518, 49.947414], [6.15663, 49.94754], [6.157858, 49.947613], [6.158369, 49.947636], [6.158712, 49.947628], [6.159189, 49.947598], [6.159517, 49.94757], [6.159929, 49.947536], [6.160368, 49.94748], [6.161013, 49.94735], [6.161383, 49.947296], [6.162542, 49.946968], [6.163, 49.946857], [6.163343, 49.94683], [6.163595, 49.946846], [6.164335, 49.9469], [6.164782, 49.94694], [6.165079, 49.946953], [6.16543, 49.946938], [6.165991, 49.946724], [6.166456, 49.946537], [6.166475, 49.94653], [6.166925, 49.94635], [6.167566, 49.945988], [6.167868, 49.946796], [6.168798, 49.94748], [6.169218, 49.947784], [6.169901, 49.948124], [6.170778, 49.948345], [6.172335, 49.94824], [6.172663, 49.948174], [6.172686, 49.948166], [6.172865, 49.94813], [6.172949, 49.948112], [6.173403, 49.948017], [6.173758, 49.947945], [6.173998, 49.947895], [6.17425, 49.94784], [6.174566, 49.947758], [6.174658, 49.947735], [6.174704, 49.94772], [6.176561, 49.947216], [6.17737, 49.946995], [6.178575, 49.946854], [6.178621, 49.946854], [6.178698, 49.946857], [6.178953, 49.946857], [6.17988, 49.94697], [6.180315, 49.947018], [6.181112, 49.947094], [6.181185, 49.947147], [6.181273, 49.947166], [6.182131, 49.94739], [6.182302, 49.947453], [6.182745, 49.947605], [6.183443, 49.94784], [6.184351, 49.948154], [6.185377, 49.94852], [6.186224, 49.948807], [6.1863, 49.948822], [6.186419, 49.948826], [6.186636, 49.94882], [6.187284, 49.948784], [6.187582, 49.94877], [6.187761, 49.948772], [6.187815, 49.948776], [6.187952, 49.948788], [6.188326, 49.948822], [6.18844, 49.94883], [6.188555, 49.948833], [6.188749, 49.94881], [6.189169, 49.94875], [6.189333, 49.948723], [6.189524, 49.948677], [6.189596, 49.94866], [6.189798, 49.948627], [6.190409, 49.948547], [6.190878, 49.948498], [6.191137, 49.94847], [6.191298, 49.948463], [6.191431, 49.94846], [6.191778, 49.948467], [6.192141, 49.94847], [6.193018, 49.94845], [6.193178, 49.94844], [6.194162, 49.94824], [6.194437, 49.948177], [6.194635, 49.94814], [6.1947, 49.948135], [6.194864, 49.94813], [6.195097, 49.94815], [6.195581, 49.94818], [6.196062, 49.948208], [6.196249, 49.94819], [6.196333, 49.94818], [6.196611, 49.94816], [6.196962, 49.948162], [6.19726, 49.948162], [6.19766, 49.948168], [6.198282, 49.948439], [6.198458, 49.94851], [6.198507, 49.9486], [6.198484, 49.948696], [6.198603, 49.948727], [6.198667, 49.94879], [6.198786, 49.948822], [6.198946, 49.949013], [6.199194, 49.94914], [6.199431, 49.94931], [6.199591, 49.949497], [6.199602, 49.94954], [6.199655, 49.94969], [6.199579, 49.950603], [6.19956, 49.950817], [6.199553, 49.950886], [6.199549, 49.950905], [6.199541, 49.95105], [6.199606, 49.951256], [6.199793, 49.95147], [6.200243, 49.951912], [6.200476, 49.952194], [6.20051, 49.9523], [6.200487, 49.952404], [6.200628, 49.952717], [6.200785, 49.95293], [6.2012, 49.953213], [6.201624, 49.95344], [6.201742, 49.953476], [6.201941, 49.953617], [6.201982, 49.95364], [6.202192, 49.95374], [6.202383, 49.95383], [6.202593, 49.95393], [6.203146, 49.954243], [6.203398, 49.954487], [6.204168, 49.954845], [6.204294, 49.954906], [6.204493, 49.955006], [6.204603, 49.955048], [6.204874, 49.955105], [6.205198, 49.95516], [6.205431, 49.955185], [6.205603, 49.955196], [6.205973, 49.955177], [6.206232, 49.955128], [6.206583, 49.95506], [6.206938, 49.95496], [6.20735, 49.954826], [6.207712, 49.954727], [6.208212, 49.95464], [6.208494, 49.95461], [6.208502, 49.954395], [6.208513, 49.953823], [6.208635, 49.95353], [6.208746, 49.95325], [6.208841, 49.95301], [6.209242, 49.952637], [6.209776, 49.95214], [6.209909, 49.952], [6.210306, 49.951553], [6.210848, 49.950974], [6.211115, 49.950684], [6.211741, 49.95023], [6.21306, 49.950214], [6.213152, 49.950214], [6.213213, 49.950214], [6.213839, 49.950207], [6.214487, 49.9502], [6.215159, 49.950195], [6.215795, 49.950188], [6.217096, 49.950172], [6.217955, 49.950165], [6.218306, 49.95016], [6.218626, 49.950157], [6.219171, 49.95015], [6.219507, 49.950146], [6.219641, 49.950146], [6.220072, 49.95014], [6.220457, 49.950138], [6.220552, 49.950138], [6.221407, 49.95013], [6.221979, 49.950123], [6.222719, 49.950108], [6.223307, 49.9501], [6.223913, 49.950085], [6.223646, 49.9493], [6.223631, 49.949245], [6.223551, 49.949013], [6.222994, 49.948673], [6.220171, 49.94717], [6.219358, 49.946587], [6.218859, 49.94614], [6.218626, 49.94599], [6.218508, 49.945496], [6.217642, 49.945408], [6.217428, 49.94536], [6.216894, 49.94539], [6.216684, 49.945168], [6.216543, 49.944508], [6.218233, 49.94382], [6.219723, 49.94341], [6.220003, 49.943333], [6.219988, 49.94325], [6.21985, 49.942932], [6.219801, 49.94282], [6.220781, 49.94243], [6.220938, 49.942253], [6.221151, 49.94166], [6.221334, 49.941547], [6.221437, 49.94155], [6.22151, 49.941555], [6.221979, 49.941406], [6.222876, 49.941006], [6.222856, 49.94092], [6.223146, 49.940712], [6.223139, 49.94043], [6.223883, 49.940044], [6.224215, 49.939774], [6.224565, 49.93937], [6.224558, 49.93911], [6.224554, 49.93907], [6.224409, 49.938774], [6.224619, 49.938652], [6.224863, 49.9387], [6.225035, 49.93873], [6.225306, 49.93876], [6.225553, 49.938534], [6.225851, 49.93815], [6.226431, 49.93747], [6.226748, 49.937225], [6.226782, 49.93719], [6.227011, 49.936928], [6.227076, 49.936867], [6.227102, 49.93684], [6.227331, 49.936623], [6.226374, 49.936016], [6.225241, 49.93546], [6.224749, 49.935135], [6.224173, 49.934692], [6.223688, 49.9343], [6.223604, 49.9343], [6.223524, 49.934002], [6.223535, 49.933987], [6.223589, 49.933914], [6.223787, 49.933628], [6.224825, 49.93349], [6.225225, 49.93336], [6.225168, 49.933144], [6.224909, 49.932735], [6.224455, 49.932804], [6.224413, 49.932636], [6.224268, 49.932407], [6.224226, 49.932335], [6.224028, 49.93207], [6.224058, 49.931946], [6.224619, 49.931965], [6.224703, 49.931583], [6.224859, 49.93157], [6.224913, 49.931416], [6.224932, 49.931362], [6.225027, 49.931366], [6.225183, 49.930912], [6.225428, 49.930614], [6.225622, 49.93037], [6.225847, 49.930122], [6.225958, 49.929635], [6.226183, 49.929371], [6.226187, 49.929314], [6.226084, 49.928932], [6.225828, 49.92867], [6.225733, 49.92859], [6.22563, 49.928497], [6.225275, 49.92821], [6.225157, 49.928135], [6.224955, 49.928], [6.224905, 49.927967], [6.224581, 49.927757], [6.22447, 49.92765], [6.224449, 49.927651], [6.224276, 49.92766], [6.223955, 49.927751], [6.223673, 49.927828], [6.223558, 49.927683], [6.223478, 49.927568], [6.223093, 49.927286], [6.222902, 49.927156], [6.222673, 49.927031], [6.222441, 49.92692], [6.222162, 49.926817], [6.222029, 49.926752], [6.221857, 49.926676], [6.221544, 49.926565], [6.221292, 49.926474], [6.221201, 49.926454], [6.221128, 49.926435], [6.220983, 49.926409], [6.220777, 49.926352], [6.22051, 49.926245], [6.220305, 49.926157], [6.220064, 49.926058], [6.219854, 49.925985], [6.219664, 49.925878], [6.21953, 49.92581], [6.219301, 49.925695], [6.219149, 49.925615], [6.219, 49.925535], [6.218836, 49.925425], [6.218645, 49.925306], [6.218634, 49.925299], [6.218557, 49.925253], [6.218485, 49.925139], [6.218397, 49.925051], [6.218328, 49.924955], [6.218218, 49.924788], [6.218039, 49.924322], [6.218, 49.924269], [6.21792, 49.923971], [6.217897, 49.92388], [6.217867, 49.923738], [6.217874, 49.923681], [6.217882, 49.923609], [6.217894, 49.923521], [6.217928, 49.92338], [6.217943, 49.923304], [6.217985, 49.92317], [6.218031, 49.923075], [6.217905, 49.923042], [6.217821, 49.923004], [6.217646, 49.922882], [6.217443, 49.92315], [6.217325, 49.923237], [6.217077, 49.923454], [6.216883, 49.923603], [6.216879, 49.923637], [6.216856, 49.92373], [6.216742, 49.92373], [6.216635, 49.92386], [6.216574, 49.92393], [6.216421, 49.924133], [6.216372, 49.924213], [6.216288, 49.92436], [6.216238, 49.924477], [6.216154, 49.92476], [6.216139, 49.92484], [6.216127, 49.924957], [6.216135, 49.924995], [6.216154, 49.925175], [6.21615, 49.925278], [6.216139, 49.92534], [6.216105, 49.925407], [6.216062, 49.92546], [6.21599, 49.92553], [6.215906, 49.925583], [6.216871, 49.926163], [6.216921, 49.92619], [6.216105, 49.926346], [6.215887, 49.926388], [6.215822, 49.92639], [6.215601, 49.9264], [6.215483, 49.926403], [6.21533, 49.926403], [6.215219, 49.926407], [6.214979, 49.926422], [6.214628, 49.92644], [6.214457, 49.926453], [6.214254, 49.92645], [6.214159, 49.92644], [6.214037, 49.926426], [6.213922, 49.926407], [6.213823, 49.92638], [6.213705, 49.92633], [6.213484, 49.926224], [6.213434, 49.926193], [6.213461, 49.926178], [6.213381, 49.926113], [6.213358, 49.926086], [6.213362, 49.926037], [6.213362, 49.925957], [6.21335, 49.92589], [6.213339, 49.925865], [6.213297, 49.925785], [6.213266, 49.925694], [6.213251, 49.92556], [6.213243, 49.92533], [6.213247, 49.925243], [6.21324, 49.925194], [6.213213, 49.92511], [6.213182, 49.925045], [6.21314, 49.924984], [6.213087, 49.924923], [6.213018, 49.92487], [6.212885, 49.924763], [6.212854, 49.924732], [6.212778, 49.924683], [6.21266, 49.92462], [6.212309, 49.92442], [6.212053, 49.92428], [6.211908, 49.92421], [6.211805, 49.924168], [6.211256, 49.923996], [6.211176, 49.923958], [6.211069, 49.923904], [6.210951, 49.92382], [6.210817, 49.92376], [6.210684, 49.923717], [6.210543, 49.92368], [6.210371, 49.923634], [6.210077, 49.92357], [6.209913, 49.923546], [6.209623, 49.923477], [6.209093, 49.92336], [6.208837, 49.923283], [6.208628, 49.923206], [6.208334, 49.923077], [6.208174, 49.922997], [6.20796, 49.922874], [6.207846, 49.922966], [6.207769, 49.923023], [6.207575, 49.923073], [6.207174, 49.923153], [6.207064, 49.923172], [6.206861, 49.923183], [6.206736, 49.923176], [6.206644, 49.92316], [6.206469, 49.923145], [6.206316, 49.92313], [6.206152, 49.923096], [6.205931, 49.923058], [6.205618, 49.923008], [6.205477, 49.92296], [6.205301, 49.922894], [6.205187, 49.92286], [6.205088, 49.922844], [6.204924, 49.922832], [6.204729, 49.92283], [6.204546, 49.922844], [6.204351, 49.92288], [6.204104, 49.922943], [6.203978, 49.922993], [6.203951, 49.923008], [6.203707, 49.923126], [6.203577, 49.923183], [6.203329, 49.923252], [6.203131, 49.92331], [6.202704, 49.92336], [6.202333, 49.9234], [6.202257, 49.92342], [6.202112, 49.92351], [6.202238, 49.92362], [6.202257, 49.92364], [6.202276, 49.92372], [6.202303, 49.92375], [6.202337, 49.92377], [6.202414, 49.923798], [6.202578, 49.92384], [6.202669, 49.92386], [6.202726, 49.92386], [6.202818, 49.923862], [6.203062, 49.92385], [6.203394, 49.92383], [6.204004, 49.92377], [6.204111, 49.923763], [6.204229, 49.923756], [6.204321, 49.923763], [6.204401, 49.923782], [6.204481, 49.923817], [6.204519, 49.92384], [6.204596, 49.923893], [6.204676, 49.923973], [6.204798, 49.9241], [6.204969, 49.92429], [6.20503, 49.924324], [6.205263, 49.92445], [6.205332, 49.924477], [6.205481, 49.924526], [6.205557, 49.924538], [6.205652, 49.92454], [6.205702, 49.924458], [6.20566, 49.924206], [6.207274, 49.924408], [6.206636, 49.925007], [6.206369, 49.925255], [6.205938, 49.92565], [6.205408, 49.926125], [6.205358, 49.92617], [6.204725, 49.925888], [6.204485, 49.925777], [6.204309, 49.925713], [6.20376, 49.92555], [6.203516, 49.92548], [6.203188, 49.925407], [6.20257, 49.925297], [6.20204, 49.925205], [6.201029, 49.925007], [6.200621, 49.92493], [6.200594, 49.924927], [6.200125, 49.924828], [6.199808, 49.92475], [6.199633, 49.924698], [6.199846, 49.92489], [6.199831, 49.924904], [6.199694, 49.925053], [6.199095, 49.924706], [6.198824, 49.924557], [6.198694, 49.924488], [6.198564, 49.924442], [6.198278, 49.924374], [6.198019, 49.92432], [6.197851, 49.924294], [6.19766, 49.92427], [6.197546, 49.924263], [6.197435, 49.924267], [6.196962, 49.92429], [6.196863, 49.924355], [6.196619, 49.92451], [6.196489, 49.92459], [6.196104, 49.92479], [6.195856, 49.92492], [6.195688, 49.92501], [6.195349, 49.92519], [6.195166, 49.925285], [6.194975, 49.925385], [6.195051, 49.925457], [6.195299, 49.925694], [6.195364, 49.925755], [6.195436, 49.925827], [6.195715, 49.92608], [6.196081, 49.925896], [6.196302, 49.9262], [6.196413, 49.926365], [6.196539, 49.926506], [6.196726, 49.926723], [6.196947, 49.92701], [6.19702, 49.9271], [6.197069, 49.927155], [6.197119, 49.927204], [6.197161, 49.92724], [6.197164, 49.927322], [6.197184, 49.927406], [6.197248, 49.9275], [6.197195, 49.927517], [6.196882, 49.927483], [6.196711, 49.927452], [6.196245, 49.92737], [6.195967, 49.92725], [6.195818, 49.9272], [6.195074, 49.926865], [6.195261, 49.926556], [6.19467, 49.926517], [6.194449, 49.926502], [6.1942, 49.926487], [6.19388, 49.92632], [6.193785, 49.92626], [6.193663, 49.92621], [6.19346, 49.926113], [6.193609, 49.925514], [6.193651, 49.925354], [6.193522, 49.92512], [6.193479, 49.92502], [6.193434, 49.9249], [6.193346, 49.924686], [6.193235, 49.924423], [6.193205, 49.924347], [6.193193, 49.92433], [6.193129, 49.924355], [6.192503, 49.924545], [6.192247, 49.92463], [6.191343, 49.924915], [6.190977, 49.925056], [6.190752, 49.92515], [6.190317, 49.925385], [6.190069, 49.925533], [6.189997, 49.9256], [6.189909, 49.92568], [6.189394, 49.92599], [6.189066, 49.926193], [6.188791, 49.926384], [6.188692, 49.92646], [6.188574, 49.926567], [6.18844, 49.926693], [6.188211, 49.926914], [6.188108, 49.927006], [6.188028, 49.927082], [6.187963, 49.92717], [6.187872, 49.927288], [6.187796, 49.927372], [6.187681, 49.927467], [6.187555, 49.927547], [6.187342, 49.927666], [6.186979, 49.927876], [6.186823, 49.927986], [6.186541, 49.92818], [6.186346, 49.92833], [6.186285, 49.92839], [6.186197, 49.928505], [6.186098, 49.92864], [6.186029, 49.92869], [6.185881, 49.928776], [6.185732, 49.928864], [6.18524, 49.929226], [6.184847, 49.929497], [6.184683, 49.929638], [6.184591, 49.92975], [6.18445, 49.929962], [6.184206, 49.93028], [6.184076, 49.930416], [6.183935, 49.930527], [6.183825, 49.930664], [6.183336, 49.931297], [6.183001, 49.931694], [6.182878, 49.931816], [6.18284, 49.93184], [6.182791, 49.931866], [6.182424, 49.931953], [6.181589, 49.932148], [6.181257, 49.932236], [6.180422, 49.93254], [6.180227, 49.93264], [6.180033, 49.93273], [6.179857, 49.9328], [6.179598, 49.932884], [6.179407, 49.93297], [6.179155, 49.933105], [6.178972, 49.93324], [6.178839, 49.933372], [6.178026, 49.934425], [6.177931, 49.934536], [6.17782, 49.934677], [6.177675, 49.934826], [6.177523, 49.934956], [6.177435, 49.93506], [6.177416, 49.935085], [6.177347, 49.935165], [6.176714, 49.935596], [6.176653, 49.93564], [6.176146, 49.935986], [6.175749, 49.936428], [6.17483, 49.938004], [6.174803, 49.939095], [6.174669, 49.939465], [6.174391, 49.9402], [6.173983, 49.94066], [6.173601, 49.94098], [6.173468, 49.94109], [6.173231, 49.941288], [6.173098, 49.941784], [6.173109, 49.941845], [6.173292, 49.94253], [6.173384, 49.94288], [6.173967, 49.944433], [6.173582, 49.944479], [6.173456, 49.944494], [6.172193, 49.944639], [6.170744, 49.943497], [6.170477, 49.943363], [6.17042, 49.943336], [6.169905, 49.943203], [6.169798, 49.94317], [6.169741, 49.94314], [6.169642, 49.943066], [6.169599, 49.94304], [6.169481, 49.942993], [6.168756, 49.942715], [6.168592, 49.94266], [6.168448, 49.942627], [6.168314, 49.94261], [6.168238, 49.942596], [6.16815, 49.942574], [6.168039, 49.942516], [6.167978, 49.942497], [6.167917, 49.942486], [6.167734, 49.942486], [6.167685, 49.94248], [6.167646, 49.942463], [6.167574, 49.942413], [6.167528, 49.942387], [6.167444, 49.942364], [6.167364, 49.94234], [6.167326, 49.942318], [6.167295, 49.942287], [6.167257, 49.94226], [6.167215, 49.94224], [6.167139, 49.942234], [6.167086, 49.94222], [6.167051, 49.9422], [6.166998, 49.942135], [6.166956, 49.942112], [6.166868, 49.942078], [6.166819, 49.94205], [6.166769, 49.94201], [6.166723, 49.94195], [6.166594, 49.941734], [6.166559, 49.9417], [6.166483, 49.941654], [6.166418, 49.94161], [6.166399, 49.94158], [6.166414, 49.941517], [6.16641, 49.9415], [6.166388, 49.941494], [6.166296, 49.941456], [6.166224, 49.94143], [6.166098, 49.94137], [6.166044, 49.94134], [6.165853, 49.94124], [6.16575, 49.9412], [6.165602, 49.94116], [6.16514, 49.941048], [6.165079, 49.94103], [6.165052, 49.941006], [6.165022, 49.94096], [6.165003, 49.940907], [6.164965, 49.940834], [6.164946, 49.940777], [6.164961, 49.94069], [6.165075, 49.94027], [6.165125, 49.94012], [6.165163, 49.94007], [6.1653, 49.93995], [6.165564, 49.939716], [6.165205, 49.939754], [6.164988, 49.93982], [6.164827, 49.93988], [6.164144, 49.94018], [6.163774, 49.940346], [6.163858, 49.94041], [6.163603, 49.94051], [6.163485, 49.940548], [6.163408, 49.940594], [6.163313, 49.940655], [6.163095, 49.940765], [6.163004, 49.940823], [6.163065, 49.940876], [6.163, 49.94098], [6.162935, 49.94108], [6.162813, 49.941254], [6.162748, 49.941322], [6.1626, 49.941463], [6.162367, 49.94167], [6.162268, 49.941776], [6.162142, 49.94192], [6.162039, 49.942036], [6.161917, 49.94215], [6.161791, 49.94226], [6.161627, 49.942425], [6.16155, 49.94252], [6.16147, 49.942646], [6.161394, 49.942783], [6.161158, 49.94268], [6.161306, 49.942448], [6.16139, 49.942303], [6.161463, 49.9422], [6.161539, 49.942123], [6.162085, 49.941696], [6.162126, 49.94166], [6.161543, 49.94158], [6.1616, 49.941742], [6.161245, 49.94217], [6.161013, 49.94216], [6.160883, 49.942337], [6.160749, 49.94257], [6.160681, 49.9427], [6.160646, 49.942764], [6.160761, 49.942802], [6.160765, 49.942917], [6.160757, 49.943073], [6.160746, 49.9431], [6.160669, 49.943207], [6.160559, 49.94333], [6.160376, 49.943245], [6.160242, 49.943356], [6.160158, 49.943417], [6.160109, 49.943447], [6.160059, 49.94347], [6.15991, 49.94353], [6.159697, 49.943596], [6.159376, 49.943676], [6.159277, 49.9437], [6.159067, 49.943752], [6.158693, 49.94383], [6.158587, 49.943848], [6.158396, 49.943848], [6.158316, 49.943844], [6.158266, 49.943832], [6.158178, 49.9438], [6.158121, 49.94377], [6.158079, 49.94373], [6.158049, 49.943733], [6.158022, 49.943787], [6.157995, 49.943817], [6.157965, 49.94384], [6.157919, 49.943863], [6.157858, 49.943897], [6.157789, 49.94394], [6.157736, 49.94396], [6.157602, 49.943996], [6.157377, 49.944054], [6.15729, 49.944073], [6.157152, 49.9441], [6.157217, 49.94425], [6.157244, 49.944332], [6.157057, 49.94437], [6.156931, 49.944405], [6.156889, 49.94441], [6.156698, 49.94443], [6.155939, 49.944527], [6.155642, 49.94456], [6.155477, 49.94458], [6.155172, 49.944622], [6.155058, 49.944637], [6.154966, 49.94466], [6.154802, 49.944714], [6.154635, 49.944763], [6.15449, 49.944813], [6.154387, 49.94485], [6.154303, 49.944897], [6.154211, 49.94494], [6.15415, 49.94496], [6.154074, 49.94499], [6.153921, 49.945026], [6.153605, 49.945095], [6.153315, 49.945152], [6.153093, 49.9452], [6.152811, 49.945255], [6.152624, 49.94529], [6.152445, 49.94532], [6.152368, 49.94534], [6.152285, 49.945374], [6.152212, 49.945408], [6.152101, 49.945465], [6.151987, 49.94552], [6.151907, 49.94555], [6.151854, 49.945564], [6.151747, 49.94558], [6.151583, 49.9456], [6.151525, 49.94561], [6.151503, 49.945618], [6.151392, 49.945667], [6.151266, 49.94573], [6.151148, 49.945797], [6.151003, 49.945866], [6.15098, 49.94588], [6.150858, 49.945972], [6.150694, 49.946106], [6.150541, 49.94625], [6.150236, 49.94659], [6.150118, 49.94661], [6.14926, 49.946728], [6.148954, 49.946777]]]]}}]}