{"type": "FeatureCollection", "features": [{"type": "Feature", "properties": {"name": "Elteschmuer", "kind": "nature_reserve"}, "geometry": {"type": "Polygon", "coordinates": [[[6.2577066, 49.8373616], [6.2569328, 49.837914], [6.2573662, 49.8380631], [6.2575158, 49.8381286], [6.2581962, 49.8384356], [6.2585264, 49.8386136], [6.2594495, 49.8391486], [6.2599098, 49.8394055], [6.2601384, 49.8395657], [6.2606586, 49.8399441], [6.2610699, 49.8402336], [6.2613584, 49.8404272], [6.2616469, 49.8406014], [6.2619046, 49.8407479], [6.2620825, 49.8408389], [6.2624445, 49.8409893], [6.2625979, 49.8410407], [6.2631488, 49.8406477], [6.2640425, 49.8399889], [6.2643567, 49.8397561], [6.2643166, 49.8396172], [6.2641986, 49.8394693], [6.2641762, 49.8394179], [6.2641087, 49.8393093], [6.263912, 49.8391128], [6.2638058, 49.8390996], [6.2636765, 49.8390636], [6.2626051, 49.8384598], [6.2621856, 49.837979], [6.261633, 49.8375699], [6.2611194, 49.8371227], [6.2610054, 49.8370751], [6.2605575, 49.8369583], [6.2603872, 49.8368459], [6.2603239, 49.8367252], [6.2602182, 49.8365572], [6.2599855, 49.8366874], [6.2598801, 49.8367145], [6.2592058, 49.8366864], [6.2589427, 49.8366824], [6.2586896, 49.836688], [6.2583782, 49.8368989], [6.2582755, 49.8369709], [6.2577066, 49.8373616]]]}}]}