{"type": "FeatureCollection", "features": [{"type": "Feature", "properties": {"name": "Grosbous"}, "geometry": {"type": "MultiPolygon", "coordinates": [[[[5.914995, 49.849854], [5.915064, 49.849873], [5.915964, 49.85009], [5.916635, 49.850327], [5.916685, 49.850388], [5.917399, 49.85083], [5.917986, 49.85119], [5.917517, 49.85146], [5.917547, 49.851475], [5.917971, 49.851696], [5.918287, 49.851856], [5.918539, 49.85199], [5.918943, 49.852184], [5.919088, 49.85226], [5.919329, 49.852367], [5.919413, 49.852406], [5.919573, 49.852474], [5.920252, 49.85277], [5.920504, 49.85306], [5.920649, 49.853184], [5.920816, 49.85331], [5.921011, 49.853462], [5.92116, 49.853577], [5.921255, 49.853577], [5.921339, 49.853565], [5.921438, 49.853546], [5.921598, 49.853493], [5.921579, 49.854084], [5.921572, 49.854492], [5.92132, 49.854492], [5.921309, 49.854507], [5.920851, 49.855362], [5.920702, 49.855625], [5.920683, 49.855663], [5.920664, 49.855698], [5.920694, 49.855705], [5.920645, 49.855755], [5.92061, 49.855785], [5.920256, 49.856125], [5.920111, 49.85627], [5.919695, 49.856667], [5.919886, 49.856926], [5.920023, 49.857132], [5.920046, 49.857162], [5.920118, 49.857277], [5.920202, 49.857407], [5.920256, 49.857494], [5.92032, 49.857597], [5.920366, 49.857666], [5.920439, 49.857784], [5.920454, 49.857815], [5.920496, 49.85786], [5.92071, 49.85811], [5.920832, 49.858242], [5.921003, 49.8584], [5.921186, 49.858547], [5.921385, 49.858685], [5.921488, 49.85874], [5.921614, 49.8588], [5.921793, 49.85885], [5.922003, 49.858906], [5.922274, 49.858994], [5.922335, 49.859013], [5.922487, 49.85906], [5.922598, 49.85909], [5.922674, 49.859104], [5.92277, 49.859123], [5.923014, 49.85917], [5.923174, 49.859188], [5.923468, 49.85911], [5.924124, 49.859108], [5.924532, 49.859123], [5.925013, 49.859158], [5.925184, 49.859047], [5.925699, 49.859333], [5.925959, 49.85948], [5.926104, 49.859577], [5.926195, 49.859646], [5.926355, 49.859756], [5.926519, 49.859905], [5.926626, 49.860043], [5.926741, 49.86022], [5.926828, 49.86041], [5.926867, 49.860523], [5.926908, 49.86076], [5.926954, 49.860912], [5.926985, 49.861126], [5.927027, 49.861225], [5.927122, 49.861393], [5.927156, 49.86149], [5.927187, 49.861603], [5.927202, 49.861637], [5.927229, 49.861713], [5.927301, 49.861843], [5.927458, 49.862022], [5.927549, 49.86216], [5.927652, 49.86234], [5.927736, 49.862522], [5.927897, 49.86299], [5.927969, 49.86316], [5.92808, 49.86338], [5.92816, 49.863506], [5.928225, 49.86358], [5.928389, 49.86372], [5.928553, 49.863865], [5.928785, 49.864075], [5.928667, 49.864147], [5.928839, 49.864353], [5.928927, 49.86444], [5.928999, 49.86449], [5.929808, 49.86496], [5.930162, 49.865173], [5.930185, 49.86529], [5.930204, 49.865356], [5.930258, 49.865467], [5.930422, 49.865673], [5.930517, 49.86576], [5.930593, 49.865932], [5.930922, 49.865833], [5.931021, 49.86597], [5.931036, 49.86606], [5.93112, 49.866257], [5.931326, 49.866684], [5.931368, 49.866764], [5.931482, 49.866886], [5.931723, 49.867035], [5.931929, 49.86716], [5.932467, 49.86689], [5.93265, 49.86705], [5.932879, 49.867214], [5.933126, 49.86728], [5.933306, 49.867294], [5.933367, 49.867332], [5.933394, 49.867367], [5.933439, 49.8674], [5.933622, 49.867493], [5.933893, 49.867683], [5.933924, 49.867702], [5.93395, 49.867737], [5.934305, 49.868], [5.934633, 49.86831], [5.934744, 49.868423], [5.934732, 49.868427], [5.934641, 49.868465], [5.935217, 49.869003], [5.935228, 49.86902], [5.93543, 49.869286], [5.935534, 49.869373], [5.935671, 49.869484], [5.93574, 49.869545], [5.935953, 49.869762], [5.936182, 49.870003], [5.936564, 49.870316], [5.936834, 49.870285], [5.93722, 49.870243], [5.93725, 49.87024], [5.93733, 49.870274], [5.937529, 49.870365], [5.938101, 49.870518], [5.938417, 49.870544], [5.938677, 49.870544], [5.939184, 49.87053], [5.939558, 49.870506], [5.939802, 49.87048], [5.940271, 49.870327], [5.940592, 49.87027], [5.941244, 49.870235], [5.941416, 49.87022], [5.941553, 49.870235], [5.941958, 49.870216], [5.942946, 49.870296], [5.943197, 49.87033], [5.943789, 49.87045], [5.94385, 49.87046], [5.943949, 49.870426], [5.944044, 49.870472], [5.944342, 49.870506], [5.944841, 49.870586], [5.945402, 49.870674], [5.945658, 49.87069], [5.945951, 49.870678], [5.946409, 49.870636], [5.946775, 49.870583], [5.947142, 49.87054], [5.947378, 49.87051], [5.947481, 49.870487], [5.947542, 49.870476], [5.947748, 49.870403], [5.947855, 49.870388], [5.948049, 49.870373], [5.94816, 49.870304], [5.948252, 49.870266], [5.9485, 49.870182], [5.94882, 49.870037], [5.949148, 49.869892], [5.949243, 49.869846], [5.949335, 49.8698], [5.949453, 49.869728], [5.949789, 49.86947], [5.94993, 49.869377], [5.950144, 49.869255], [5.950251, 49.869205], [5.950365, 49.869156], [5.950563, 49.869106], [5.951265, 49.869026], [5.951532, 49.86898], [5.952093, 49.868908], [5.952421, 49.868862], [5.952623, 49.868824], [5.952791, 49.868797], [5.953089, 49.868763], [5.953856, 49.868664], [5.954092, 49.86865], [5.954348, 49.86861], [5.954451, 49.868595], [5.954725, 49.868507], [5.954706, 49.868504], [5.955214, 49.868347], [5.95595, 49.867935], [5.955961, 49.86794], [5.956106, 49.86782], [5.956266, 49.867714], [5.956389, 49.867603], [5.956549, 49.867435], [5.95669, 49.867313], [5.956961, 49.86718], [5.956854, 49.86698], [5.956835, 49.866947], [5.956884, 49.86693], [5.956949, 49.866806], [5.957178, 49.86659], [5.957876, 49.866383], [5.958078, 49.866383], [5.958109, 49.86638], [5.95812, 49.86639], [5.958151, 49.86642], [5.958261, 49.86654], [5.958284, 49.866547], [5.958319, 49.86655], [5.958528, 49.8665], [5.958551, 49.866505], [5.958746, 49.866497], [5.95896, 49.866486], [5.959112, 49.866486], [5.959253, 49.866474], [5.959318, 49.866478], [5.959272, 49.86629], [5.959341, 49.86626], [5.959578, 49.866264], [5.960173, 49.866238], [5.960421, 49.86628], [5.960692, 49.866287], [5.960752, 49.866253], [5.960814, 49.86622], [5.961039, 49.866127], [5.961153, 49.865955], [5.961752, 49.865818], [5.96187, 49.86574], [5.962431, 49.86573], [5.962835, 49.865696], [5.962835, 49.86571], [5.962915, 49.866196], [5.963228, 49.866158], [5.963713, 49.866074], [5.963858, 49.866035], [5.963869, 49.86611], [5.963892, 49.866276], [5.964209, 49.86662], [5.964193, 49.86655], [5.964189, 49.86648], [5.964197, 49.86643], [5.96422, 49.866367], [5.964266, 49.86628], [5.964315, 49.86619], [5.964361, 49.866123], [5.964441, 49.866024], [5.964552, 49.865906], [5.964762, 49.865707], [5.964872, 49.865604], [5.965189, 49.865078], [5.965246, 49.865047], [5.965273, 49.865025], [5.965273, 49.864994], [5.96525, 49.864956], [5.965212, 49.864925], [5.965151, 49.86489], [5.965269, 49.86468], [5.965437, 49.864277], [5.965597, 49.86397], [5.965639, 49.8639], [5.965708, 49.863754], [5.965773, 49.86364], [5.966028, 49.863262], [5.966105, 49.86317], [5.966158, 49.862965], [5.966238, 49.862823], [5.966444, 49.862556], [5.966684, 49.8623], [5.966768, 49.86234], [5.96689, 49.86215], [5.966906, 49.862083], [5.967047, 49.86159], [5.967146, 49.861336], [5.967215, 49.86108], [5.967176, 49.86107], [5.967264, 49.86097], [5.967531, 49.86081], [5.967695, 49.860714], [5.968046, 49.860577], [5.9681, 49.86056], [5.968592, 49.860424], [5.968801, 49.860367], [5.969118, 49.86027], [5.969461, 49.860172], [5.969656, 49.86013], [5.970015, 49.860073], [5.970213, 49.860054], [5.970419, 49.860043], [5.970606, 49.860046], [5.970793, 49.860065], [5.970972, 49.860107], [5.971163, 49.86015], [5.97146, 49.86019], [5.971659, 49.860245], [5.971888, 49.860317], [5.972193, 49.8604], [5.972799, 49.860516], [5.973074, 49.86056], [5.973204, 49.86058], [5.973364, 49.860603], [5.973638, 49.86064], [5.974516, 49.860767], [5.974581, 49.860718], [5.975134, 49.86092], [5.975054, 49.860844], [5.974997, 49.860706], [5.975271, 49.86048], [5.975641, 49.860287], [5.975866, 49.860134], [5.976042, 49.859936], [5.976286, 49.859688], [5.976374, 49.859505], [5.976473, 49.85918], [5.976503, 49.859016], [5.976549, 49.85886], [5.976355, 49.858833], [5.976286, 49.858826], [5.975924, 49.85878], [5.975935, 49.85864], [5.975966, 49.858463], [5.975996, 49.858337], [5.976011, 49.858223], [5.976122, 49.858036], [5.976229, 49.857895], [5.976236, 49.85788], [5.976282, 49.857822], [5.976301, 49.857758], [5.976374, 49.85763], [5.976389, 49.85761], [5.976431, 49.857487], [5.976618, 49.857327], [5.976652, 49.8573], [5.976747, 49.85724], [5.976889, 49.857166], [5.977056, 49.85708], [5.977369, 49.85686], [5.977388, 49.856846], [5.977514, 49.856743], [5.977659, 49.856586], [5.977724, 49.856453], [5.977735, 49.856426], [5.977877, 49.85613], [5.977907, 49.85606], [5.977999, 49.855762], [5.978018, 49.855648], [5.97806, 49.855434], [5.977961, 49.855328], [5.977804, 49.855186], [5.977766, 49.85517], [5.977503, 49.85512], [5.977201, 49.85511], [5.977449, 49.855003], [5.977831, 49.854836], [5.977846, 49.85483], [5.978167, 49.854736], [5.978331, 49.854652], [5.978476, 49.85458], [5.978758, 49.854465], [5.978846, 49.85446], [5.978937, 49.854397], [5.979055, 49.85431], [5.979143, 49.854134], [5.979219, 49.85399], [5.979269, 49.853893], [5.979319, 49.8538], [5.979452, 49.85358], [5.979471, 49.85355], [5.979616, 49.853374], [5.979689, 49.853313], [5.979868, 49.85319], [5.980055, 49.853092], [5.980188, 49.852997], [5.980303, 49.852917], [5.980406, 49.852833], [5.980639, 49.852695], [5.980879, 49.852634], [5.980925, 49.85264], [5.980967, 49.852623], [5.981066, 49.852585], [5.981092, 49.852577], [5.981153, 49.85257], [5.981237, 49.852554], [5.98131, 49.852528], [5.981375, 49.852493], [5.981443, 49.852444], [5.981466, 49.852444], [5.981695, 49.852413], [5.982149, 49.85266], [5.982695, 49.852962], [5.982576, 49.85284], [5.982523, 49.852764], [5.982477, 49.852676], [5.982466, 49.85263], [5.98247, 49.852596], [5.982492, 49.85255], [5.982515, 49.852524], [5.982565, 49.85247], [5.982664, 49.8524], [5.982992, 49.852173], [5.983221, 49.85201], [5.983191, 49.85199], [5.983622, 49.851734], [5.984003, 49.851475], [5.984209, 49.85132], [5.984312, 49.851234], [5.984442, 49.85112], [5.984644, 49.850937], [5.984838, 49.850685], [5.984846, 49.850662], [5.985071, 49.850407], [5.985235, 49.850193], [5.985273, 49.850124], [5.985292, 49.85012], [5.985342, 49.850136], [5.985708, 49.849766], [5.985956, 49.849445], [5.986029, 49.849323], [5.986036, 49.849304], [5.986074, 49.84924], [5.986139, 49.849133], [5.986155, 49.849106], [5.986216, 49.849003], [5.986246, 49.848946], [5.986292, 49.848877], [5.986338, 49.848804], [5.986372, 49.848763], [5.986479, 49.848625], [5.986498, 49.84853], [5.986509, 49.848484], [5.986517, 49.848442], [5.986544, 49.848354], [5.986601, 49.84824], [5.98678, 49.847973], [5.986756, 49.847917], [5.986712, 49.847813], [5.986753, 49.847813], [5.986818, 49.847816], [5.986921, 49.847782], [5.986917, 49.84773], [5.987089, 49.84744], [5.98712, 49.84737], [5.987127, 49.84731], [5.98712, 49.847256], [5.98712, 49.8472], [5.987146, 49.84707], [5.987196, 49.847015], [5.987257, 49.84697], [5.987295, 49.84692], [5.987314, 49.84687], [5.987307, 49.846844], [5.987303, 49.846817], [5.987165, 49.846664], [5.987146, 49.846306], [5.987246, 49.84606], [5.987284, 49.84567], [5.986654, 49.845623], [5.986631, 49.845623], [5.986612, 49.84528], [5.986593, 49.84528], [5.98625, 49.84529], [5.986265, 49.845444], [5.986197, 49.84577], [5.986109, 49.84588], [5.986025, 49.84593], [5.985979, 49.845936], [5.985937, 49.84594], [5.985853, 49.846046], [5.985811, 49.846115], [5.985781, 49.84618], [5.985746, 49.846184], [5.985468, 49.84619], [5.985392, 49.846195], [5.98522, 49.8462], [5.985212, 49.846188], [5.984987, 49.84592], [5.984697, 49.845985], [5.98461, 49.845753], [5.984617, 49.845676], [5.984606, 49.84565], [5.984484, 49.845665], [5.984354, 49.845676], [5.98424, 49.845684], [5.984083, 49.845676], [5.983988, 49.845665], [5.983885, 49.84565], [5.98377, 49.845623], [5.983633, 49.845585], [5.983465, 49.845524], [5.983454, 49.84554], [5.983137, 49.84565], [5.982984, 49.8457], [5.982698, 49.845783], [5.982485, 49.845833], [5.982244, 49.84588], [5.982092, 49.845905], [5.982206, 49.846138], [5.982122, 49.84616], [5.981867, 49.846165], [5.981577, 49.846165], [5.98131, 49.846153], [5.981066, 49.84614], [5.980612, 49.846115], [5.979738, 49.8462], [5.979002, 49.846245], [5.97891, 49.846252], [5.978838, 49.846256], [5.978773, 49.846264], [5.978701, 49.846138], [5.978025, 49.846287], [5.977983, 49.846294], [5.977835, 49.846336], [5.977629, 49.84639], [5.977583, 49.84641], [5.977468, 49.846455], [5.977434, 49.84647], [5.977129, 49.84661], [5.977068, 49.846634], [5.976866, 49.84669], [5.976789, 49.846714], [5.976683, 49.84675], [5.976538, 49.846794], [5.976423, 49.846813], [5.976404, 49.846817], [5.976343, 49.846825], [5.976244, 49.846825], [5.976198, 49.84683], [5.976118, 49.846836], [5.975889, 49.846874], [5.975485, 49.84698], [5.975317, 49.847054], [5.975103, 49.84712], [5.975031, 49.84713], [5.974958, 49.847145], [5.97476, 49.847164], [5.974581, 49.847168], [5.974329, 49.847164], [5.974222, 49.846916], [5.974028, 49.84651], [5.973967, 49.846413], [5.973803, 49.846184], [5.973684, 49.845844], [5.973585, 49.845497], [5.973578, 49.845478], [5.973371, 49.8455], [5.973162, 49.845512], [5.972429, 49.84551], [5.972074, 49.845516], [5.971804, 49.84552], [5.971499, 49.845527], [5.971289, 49.845116], [5.971212, 49.844807], [5.971132, 49.844517], [5.970858, 49.84406], [5.970751, 49.843918], [5.970423, 49.84346], [5.97019, 49.843147], [5.970224, 49.843067], [5.970327, 49.842834], [5.970526, 49.842705], [5.970652, 49.84264], [5.970781, 49.84259], [5.970808, 49.842583], [5.970923, 49.84255], [5.971155, 49.842495], [5.971407, 49.84238], [5.972101, 49.842113], [5.972235, 49.842045], [5.972525, 49.84189], [5.972769, 49.84175], [5.973204, 49.841496], [5.973196, 49.841396], [5.973356, 49.84124], [5.973391, 49.841232], [5.97333, 49.841164], [5.972918, 49.840694], [5.972727, 49.84048], [5.973253, 49.84008], [5.973597, 49.839825], [5.973715, 49.83975], [5.973734, 49.83974], [5.973581, 49.839592], [5.973471, 49.839478], [5.973429, 49.83944], [5.973917, 49.839226], [5.973978, 49.8392], [5.974642, 49.83891], [5.974817, 49.83883], [5.97489, 49.8388], [5.97497, 49.83876], [5.975046, 49.838696], [5.975088, 49.83864], [5.975126, 49.8385], [5.975435, 49.83817], [5.975599, 49.8381], [5.975969, 49.83806], [5.976297, 49.838036], [5.976538, 49.838135], [5.976553, 49.838078], [5.976572, 49.838], [5.976595, 49.8379], [5.976629, 49.83777], [5.976686, 49.83733], [5.976702, 49.837242], [5.976721, 49.83715], [5.976728, 49.837116], [5.976854, 49.83666], [5.976889, 49.83652], [5.977232, 49.83642], [5.977354, 49.83638], [5.977568, 49.836315], [5.977381, 49.835857], [5.977362, 49.835796], [5.977346, 49.835682], [5.977365, 49.83555], [5.977388, 49.83544], [5.977415, 49.835365], [5.977434, 49.835266], [5.977461, 49.835052], [5.977472, 49.834908], [5.977465, 49.83479], [5.977442, 49.834606], [5.977404, 49.83442], [5.977392, 49.834385], [5.977365, 49.834328], [5.977293, 49.83424], [5.977217, 49.834152], [5.977179, 49.834118], [5.977099, 49.834045], [5.977121, 49.834038], [5.977179, 49.834026], [5.977198, 49.83401], [5.977224, 49.833992], [5.977251, 49.833984], [5.977308, 49.83397], [5.977346, 49.833946], [5.977385, 49.83393], [5.977419, 49.833923], [5.977491, 49.833904], [5.977533, 49.83389], [5.977571, 49.833866], [5.977602, 49.833843], [5.977625, 49.83383], [5.977682, 49.833817], [5.977709, 49.833805], [5.977735, 49.833782], [5.977766, 49.833763], [5.9778, 49.83375], [5.977858, 49.83374], [5.977907, 49.833717], [5.977938, 49.833702], [5.977987, 49.83365], [5.978045, 49.8336], [5.978075, 49.83357], [5.97817, 49.833458], [5.978582, 49.833324], [5.978415, 49.833122], [5.978201, 49.832867], [5.977549, 49.83213], [5.977533, 49.83211], [5.977511, 49.83209], [5.977022, 49.831703], [5.97743, 49.831455], [5.977942, 49.83114], [5.978067, 49.83091], [5.978193, 49.830658], [5.978228, 49.830585], [5.978338, 49.830315], [5.978388, 49.83019], [5.978417, 49.830136], [5.978426, 49.83012], [5.979021, 49.83017], [5.979361, 49.83018], [5.979471, 49.83012], [5.980265, 49.830055], [5.980825, 49.829998], [5.980932, 49.82978], [5.981024, 49.82961], [5.981119, 49.82942], [5.981321, 49.829063], [5.981398, 49.828934], [5.981508, 49.828735], [5.981615, 49.828537], [5.981649, 49.82847], [5.981768, 49.82823], [5.981798, 49.828167], [5.981989, 49.82778], [5.98171, 49.827694], [5.981234, 49.827545], [5.981001, 49.827473], [5.981314, 49.827007], [5.981401, 49.82688], [5.981527, 49.82672], [5.98171, 49.826492], [5.981661, 49.826477], [5.981802, 49.82633], [5.981821, 49.826305], [5.981863, 49.826263], [5.981974, 49.826138], [5.982538, 49.82552], [5.982576, 49.82553], [5.982977, 49.825657], [5.983385, 49.82578], [5.983492, 49.82581], [5.983664, 49.825855], [5.983877, 49.825905], [5.983889, 49.825905], [5.983767, 49.82564], [5.983625, 49.82529], [5.983641, 49.825264], [5.983786, 49.825077], [5.983835, 49.825016], [5.983934, 49.824883], [5.984037, 49.824757], [5.984198, 49.824543], [5.984335, 49.824368], [5.984602, 49.82403], [5.984621, 49.82401], [5.984201, 49.823772], [5.98411, 49.823723], [5.98403, 49.823685], [5.983957, 49.823654], [5.983847, 49.823612], [5.983538, 49.82349], [5.983305, 49.823387], [5.983114, 49.8233], [5.982943, 49.823204], [5.98282, 49.823128], [5.98271, 49.823048], [5.982611, 49.82297], [5.982409, 49.822796], [5.982122, 49.82249], [5.982073, 49.82244], [5.982019, 49.822388], [5.981806, 49.822205], [5.981585, 49.822033], [5.981375, 49.821873], [5.98189, 49.82162], [5.981726, 49.821438], [5.981699, 49.821404], [5.981638, 49.82134], [5.981585, 49.821274], [5.981401, 49.82108], [5.981226, 49.820873], [5.981047, 49.820663], [5.981001, 49.820633], [5.980921, 49.820587], [5.980822, 49.820538], [5.980612, 49.820446], [5.980429, 49.820374], [5.98012, 49.82028], [5.979734, 49.82016], [5.979715, 49.820145], [5.979277, 49.819813], [5.979948, 49.819412], [5.980269, 49.819214], [5.980631, 49.81901], [5.980967, 49.81882], [5.981253, 49.81865], [5.981665, 49.818398], [5.982206, 49.818047], [5.981947, 49.81792], [5.98179, 49.81785], [5.981684, 49.81779], [5.98163, 49.817757], [5.981592, 49.817734], [5.981646, 49.817696], [5.981687, 49.817665], [5.981893, 49.817505], [5.982199, 49.817295], [5.982569, 49.81702], [5.983255, 49.817368], [5.983431, 49.81726], [5.984152, 49.816807], [5.984186, 49.81678], [5.984255, 49.81682], [5.984617, 49.81702], [5.984667, 49.81704], [5.985033, 49.817245], [5.985323, 49.817146], [5.985468, 49.8171], [5.985708, 49.81702], [5.985785, 49.816994], [5.985952, 49.816944], [5.985945, 49.816925], [5.985937, 49.81688], [5.985933, 49.81684], [5.98593, 49.81682], [5.985922, 49.816807], [5.985903, 49.8168], [5.985849, 49.816772], [5.985842, 49.816765], [5.98583, 49.816727], [5.985815, 49.81668], [5.9858, 49.816658], [5.985788, 49.816643], [5.985746, 49.816628], [5.985708, 49.816605], [5.985697, 49.81659], [5.985678, 49.816566], [5.985663, 49.81656], [5.98564, 49.816544], [5.985632, 49.816532], [5.985624, 49.816513], [5.985613, 49.816505], [5.985594, 49.81649], [5.985582, 49.816475], [5.985582, 49.81646], [5.985578, 49.816406], [5.985575, 49.816376], [5.985571, 49.81637], [5.985525, 49.81631], [5.985502, 49.81629], [5.985483, 49.816284], [5.985426, 49.816257], [5.985399, 49.816246], [5.98538, 49.816223], [5.985373, 49.8162], [5.985365, 49.816162], [5.98535, 49.816147], [5.985327, 49.816128], [5.98527, 49.816086], [5.985041, 49.81599], [5.984976, 49.815964], [5.984953, 49.81595], [5.984941, 49.815907], [5.984926, 49.81588], [5.984907, 49.815865], [5.984842, 49.81585], [5.984819, 49.81582], [5.984789, 49.81575], [5.984751, 49.815674], [5.984739, 49.815643], [5.984728, 49.815567], [5.984701, 49.81553], [5.984552, 49.815422], [5.984522, 49.81539], [5.984514, 49.815346], [5.984545, 49.8153], [5.984552, 49.81527], [5.984549, 49.815224], [5.984549, 49.8152], [5.984533, 49.815155], [5.984537, 49.81512], [5.984579, 49.815056], [5.984636, 49.81498], [5.984667, 49.814934], [5.984693, 49.814884], [5.984713, 49.81482], [5.984716, 49.814774], [5.984693, 49.814728], [5.984659, 49.81469], [5.98464, 49.814644], [5.984625, 49.814594], [5.984625, 49.81456], [5.98464, 49.8145], [5.98464, 49.814453], [5.984617, 49.8144], [5.984606, 49.81436], [5.98461, 49.814323], [5.984625, 49.814285], [5.984625, 49.81424], [5.98461, 49.814194], [5.98461, 49.814163], [5.984621, 49.814125], [5.984644, 49.814102], [5.984655, 49.814068], [5.984655, 49.814034], [5.984659, 49.814003], [5.984671, 49.813957], [5.98469, 49.81391], [5.984678, 49.813896], [5.984655, 49.813873], [5.984644, 49.813858], [5.98464, 49.81383], [5.984632, 49.81375], [5.98461, 49.81373], [5.984564, 49.81368], [5.984518, 49.81357], [5.984491, 49.813515], [5.984461, 49.813416], [5.984434, 49.81336], [5.984366, 49.813255], [5.984354, 49.81311], [5.984331, 49.812958], [5.984316, 49.81289], [5.984293, 49.812843], [5.984247, 49.812786], [5.983828, 49.812836], [5.983137, 49.812916], [5.982874, 49.81295], [5.982, 49.81304], [5.981951, 49.81304], [5.981905, 49.81302], [5.981855, 49.813004], [5.981779, 49.812984], [5.981737, 49.81297], [5.981703, 49.812965], [5.98168, 49.812965], [5.981649, 49.81298], [5.981588, 49.81299], [5.981562, 49.812992], [5.981539, 49.81299], [5.981512, 49.812973], [5.981497, 49.812965], [5.981432, 49.81288], [5.981409, 49.812874], [5.981371, 49.812862], [5.981318, 49.81286], [5.981279, 49.81285], [5.981237, 49.812836], [5.981188, 49.812805], [5.98115, 49.81279], [5.981108, 49.81279], [5.98107, 49.812798], [5.980986, 49.81281], [5.98094, 49.81282], [5.980871, 49.812813], [5.980818, 49.812817], [5.98078, 49.812828], [5.980722, 49.812836], [5.980585, 49.81281], [5.98052, 49.812805], [5.980467, 49.81281], [5.980383, 49.81282], [5.980322, 49.81281], [5.980246, 49.812805], [5.980124, 49.812805], [5.980028, 49.812813], [5.979937, 49.812828], [5.979841, 49.812828], [5.979765, 49.812843], [5.979708, 49.81286], [5.979685, 49.812855], [5.97962, 49.812843], [5.979593, 49.812843], [5.979528, 49.81285], [5.979502, 49.81285], [5.979425, 49.812836], [5.979406, 49.81283], [5.979361, 49.812843], [5.979319, 49.812843], [5.979235, 49.812817], [5.979193, 49.812813], [5.979151, 49.812813], [5.979063, 49.81283], [5.978979, 49.81285], [5.978945, 49.812855], [5.978861, 49.81285], [5.978827, 49.812847], [5.978804, 49.812836], [5.978746, 49.812805], [5.978727, 49.812798], [5.978697, 49.812805], [5.978678, 49.81281], [5.978663, 49.812817], [5.97862, 49.81285], [5.978575, 49.81289], [5.978556, 49.812897], [5.978472, 49.812897], [5.978449, 49.812904], [5.978434, 49.812912], [5.978396, 49.812965], [5.97838, 49.81298], [5.978338, 49.812992], [5.978319, 49.813004], [5.978281, 49.81305], [5.978254, 49.81307], [5.978178, 49.813095], [5.978125, 49.813103], [5.978029, 49.81311], [5.977991, 49.813118], [5.977972, 49.813126], [5.977945, 49.813145], [5.977915, 49.813187], [5.977881, 49.81322], [5.977854, 49.813232], [5.977827, 49.813248], [5.977758, 49.813248], [5.977739, 49.81324], [5.977663, 49.81321], [5.977613, 49.813194], [5.977571, 49.813187], [5.977537, 49.813194], [5.977434, 49.813198], [5.976969, 49.81324], [5.976629, 49.813267], [5.976248, 49.813293], [5.976095, 49.81333], [5.975897, 49.81337], [5.975756, 49.8134], [5.975542, 49.81342], [5.975283, 49.813454], [5.975256, 49.81346], [5.974997, 49.813496], [5.974935, 49.813507], [5.974565, 49.813557], [5.974466, 49.813576], [5.973848, 49.813736], [5.973452, 49.81391], [5.973398, 49.813934], [5.97307, 49.81407], [5.972849, 49.814003], [5.972593, 49.813927], [5.972315, 49.813835], [5.972128, 49.813774], [5.971765, 49.81366], [5.971537, 49.813583], [5.971174, 49.813522], [5.970842, 49.81346], [5.970419, 49.81333], [5.970251, 49.81328], [5.969946, 49.81318], [5.969542, 49.81305], [5.968973, 49.812637], [5.969122, 49.812332], [5.969084, 49.81215], [5.969091, 49.812084], [5.969107, 49.81196], [5.969118, 49.811886], [5.969145, 49.81178], [5.968805, 49.811707], [5.968435, 49.81169], [5.968008, 49.81169], [5.967794, 49.811687], [5.967974, 49.811974], [5.967966, 49.81216], [5.967932, 49.812263], [5.96784, 49.81222], [5.967478, 49.812057], [5.967047, 49.81196], [5.966623, 49.811928], [5.965971, 49.81186], [5.96578, 49.811836], [5.965067, 49.811966], [5.964918, 49.812004], [5.964685, 49.812046], [5.964621, 49.812065], [5.964014, 49.811817], [5.963953, 49.811794], [5.963922, 49.81178], [5.963965, 49.811684], [5.964006, 49.811523], [5.964048, 49.81131], [5.964155, 49.81067], [5.964201, 49.810352], [5.964228, 49.810112], [5.964113, 49.810116], [5.964109, 49.810104], [5.964106, 49.809624], [5.963671, 49.809624], [5.963461, 49.80963], [5.963202, 49.809643], [5.963049, 49.809658], [5.962866, 49.80969], [5.962694, 49.80973], [5.962667, 49.809727], [5.962038, 49.810112], [5.961721, 49.81031], [5.961542, 49.810432], [5.961492, 49.810444], [5.961424, 49.810455], [5.961367, 49.810467], [5.961176, 49.810524], [5.960909, 49.810608], [5.960604, 49.81072], [5.960382, 49.8108], [5.960257, 49.810844], [5.960058, 49.810905], [5.959917, 49.81094], [5.959787, 49.810966], [5.959558, 49.81101], [5.958902, 49.811096], [5.9587, 49.811123], [5.95849, 49.811146], [5.958292, 49.811172], [5.958151, 49.811203], [5.958101, 49.811222], [5.957621, 49.811333], [5.956652, 49.81157], [5.956259, 49.81167], [5.956213, 49.8116], [5.956156, 49.8115], [5.95603, 49.811302], [5.955652, 49.81137], [5.955477, 49.811413], [5.955351, 49.81145], [5.955198, 49.8115], [5.95511, 49.811527], [5.954939, 49.811592], [5.954714, 49.81169], [5.954489, 49.811794], [5.954126, 49.811523], [5.954065, 49.81148], [5.953939, 49.811558], [5.953787, 49.811657], [5.953596, 49.8118], [5.953417, 49.811943], [5.953383, 49.811928], [5.953226, 49.811848], [5.95318, 49.81183], [5.953005, 49.811745], [5.952986, 49.811737], [5.952745, 49.81162], [5.952494, 49.8115], [5.952326, 49.81162], [5.952154, 49.811737], [5.952017, 49.811813], [5.951929, 49.81186], [5.951719, 49.811943], [5.951052, 49.81216], [5.950933, 49.8122], [5.950884, 49.812233], [5.950792, 49.812305], [5.950602, 49.812492], [5.950445, 49.812653], [5.950418, 49.812675], [5.950384, 49.812714], [5.950327, 49.81279], [5.95001, 49.813194], [5.949987, 49.81322], [5.949366, 49.813004], [5.949083, 49.812912], [5.948736, 49.81279], [5.947996, 49.812576], [5.947901, 49.812546], [5.947355, 49.812386], [5.946924, 49.81227], [5.947054, 49.812374], [5.947126, 49.812443], [5.947168, 49.812492], [5.947184, 49.81252], [5.947229, 49.81259], [5.947245, 49.812645], [5.947248, 49.812714], [5.947245, 49.812767], [5.947226, 49.81285], [5.947195, 49.812943], [5.947165, 49.812996], [5.947119, 49.81308], [5.947062, 49.81313], [5.94697, 49.8132], [5.946791, 49.81333], [5.946741, 49.81337], [5.946714, 49.813404], [5.946711, 49.81344], [5.946726, 49.813484], [5.946764, 49.81353], [5.946833, 49.8136], [5.946867, 49.81364], [5.946878, 49.813663], [5.946878, 49.813698], [5.946875, 49.813732], [5.946886, 49.813763], [5.946928, 49.813812], [5.946932, 49.813828], [5.946943, 49.81383], [5.946966, 49.81385], [5.946981, 49.81388], [5.946993, 49.813915], [5.946993, 49.81395], [5.946981, 49.81398], [5.946955, 49.814037], [5.94692, 49.814087], [5.946791, 49.814224], [5.946749, 49.814285], [5.946722, 49.81434], [5.946733, 49.814346], [5.946955, 49.814514], [5.947039, 49.814583], [5.947065, 49.814606], [5.947084, 49.814644], [5.947096, 49.81469], [5.947088, 49.814728], [5.947062, 49.814774], [5.947031, 49.81481], [5.946997, 49.814842], [5.946951, 49.814896], [5.946913, 49.814953], [5.946897, 49.814995], [5.946894, 49.815063], [5.946905, 49.81517], [5.94692, 49.815247], [5.946924, 49.815292], [5.94692, 49.81533], [5.946901, 49.815384], [5.946875, 49.81543], [5.946783, 49.81554], [5.946722, 49.815536], [5.946547, 49.816216], [5.946356, 49.816353], [5.946283, 49.81642], [5.946234, 49.81648], [5.946188, 49.816544], [5.946154, 49.816628], [5.946131, 49.816742], [5.946863, 49.81702], [5.947054, 49.8171], [5.947218, 49.817192], [5.947474, 49.81733], [5.947794, 49.817505], [5.947973, 49.817604], [5.947893, 49.817738], [5.94784, 49.817825], [5.947691, 49.818047], [5.947588, 49.818207], [5.947828, 49.818314], [5.947409, 49.818504], [5.94718, 49.81861], [5.947069, 49.818665], [5.947039, 49.818684], [5.9466, 49.818924], [5.947275, 49.819435], [5.94779, 49.81983], [5.948049, 49.82003], [5.949202, 49.82096], [5.949049, 49.821453], [5.948885, 49.82176], [5.948809, 49.821907], [5.948725, 49.82206], [5.948649, 49.82221], [5.94861, 49.822273], [5.948591, 49.82242], [5.948519, 49.82289], [5.948442, 49.823376], [5.948439, 49.823456], [5.948416, 49.82361], [5.94763, 49.823513], [5.94718, 49.823463], [5.946943, 49.82344], [5.946642, 49.82337], [5.946062, 49.82332], [5.944864, 49.82321], [5.94475, 49.823364], [5.944708, 49.823433], [5.94467, 49.823513], [5.944655, 49.823563], [5.944643, 49.82361], [5.944536, 49.823994], [5.944548, 49.824043], [5.944475, 49.82439], [5.944456, 49.82449], [5.944418, 49.82472], [5.944372, 49.825035], [5.94433, 49.825314], [5.944037, 49.825623], [5.943857, 49.8258], [5.943674, 49.825977], [5.943533, 49.826115], [5.943499, 49.82615], [5.943323, 49.82636], [5.943266, 49.82641], [5.943197, 49.826458], [5.943136, 49.82649], [5.943045, 49.826527], [5.942923, 49.826557], [5.942297, 49.82669], [5.94224, 49.82671], [5.94216, 49.826744], [5.942038, 49.826824], [5.941889, 49.82693], [5.941603, 49.827156], [5.941153, 49.82752], [5.940756, 49.82785], [5.940744, 49.827885], [5.94066, 49.827957], [5.9405, 49.828117], [5.94047, 49.828163], [5.940458, 49.82824], [5.940432, 49.82845], [5.940405, 49.82863], [5.940344, 49.82891], [5.940275, 49.829105], [5.940218, 49.82923], [5.940153, 49.82935], [5.94005, 49.829487], [5.939852, 49.829712], [5.939512, 49.83008], [5.939329, 49.83027], [5.939245, 49.830345], [5.939161, 49.830414], [5.939085, 49.83046], [5.938513, 49.830814], [5.938295, 49.83095], [5.938246, 49.83101], [5.938231, 49.831055], [5.938234, 49.83113], [5.938265, 49.83126], [5.93828, 49.831337], [5.938261, 49.831425], [5.93812, 49.831875], [5.938005, 49.83223], [5.937864, 49.832634], [5.937723, 49.833042], [5.937651, 49.833256], [5.937635, 49.833355], [5.937639, 49.833454], [5.937632, 49.833797], [5.937616, 49.833916], [5.937593, 49.83402], [5.937536, 49.8342], [5.937487, 49.83436], [5.937479, 49.834454], [5.937468, 49.834682], [5.937441, 49.8348], [5.937323, 49.83518], [5.937143, 49.835697], [5.937094, 49.83582], [5.937033, 49.835922], [5.936937, 49.83607], [5.936747, 49.83633], [5.936674, 49.83643], [5.936289, 49.836933], [5.936212, 49.837055], [5.936178, 49.83714], [5.936155, 49.837215], [5.936132, 49.837387], [5.936102, 49.837532], [5.936075, 49.837612], [5.936026, 49.83771], [5.935938, 49.837852], [5.935862, 49.837944], [5.935785, 49.838013], [5.935629, 49.83813], [5.935446, 49.838253], [5.935015, 49.838467], [5.934805, 49.838554], [5.934362, 49.8387], [5.934153, 49.838787], [5.933672, 49.839005], [5.933542, 49.83905], [5.93342, 49.83908], [5.933222, 49.83911], [5.932894, 49.83915], [5.932768, 49.839176], [5.932623, 49.83922], [5.932287, 49.839344], [5.932001, 49.839462], [5.931841, 49.83951], [5.931524, 49.839573], [5.931246, 49.839626], [5.931089, 49.839664], [5.930948, 49.839718], [5.930784, 49.839794], [5.930651, 49.839874], [5.93051, 49.839985], [5.93038, 49.840088], [5.930265, 49.84019], [5.929743, 49.8403], [5.929609, 49.840324], [5.929358, 49.84035], [5.929068, 49.840374], [5.928957, 49.840374], [5.928644, 49.840347], [5.928492, 49.840336], [5.928286, 49.840332], [5.928125, 49.840317], [5.927996, 49.840294], [5.927679, 49.840187], [5.927465, 49.840137], [5.927145, 49.84033], [5.926981, 49.840427], [5.92687, 49.84047], [5.926531, 49.840584], [5.926313, 49.840668], [5.925917, 49.840847], [5.925776, 49.840916], [5.925623, 49.840992], [5.925428, 49.841103], [5.925009, 49.84137], [5.924887, 49.841442], [5.92478, 49.841507], [5.924566, 49.841568], [5.924452, 49.841595], [5.924219, 49.84162], [5.923941, 49.841656], [5.923788, 49.841698], [5.92367, 49.841736], [5.923624, 49.841755], [5.923582, 49.841778], [5.923475, 49.841835], [5.923296, 49.841934], [5.923166, 49.842], [5.92304, 49.84206], [5.922846, 49.84215], [5.922674, 49.84222], [5.922529, 49.8423], [5.922354, 49.84244], [5.922281, 49.8425], [5.922171, 49.842583], [5.922056, 49.842674], [5.921999, 49.842712], [5.921881, 49.842793], [5.921804, 49.842846], [5.921747, 49.84288], [5.921602, 49.842968], [5.921366, 49.843105], [5.921232, 49.84319], [5.921164, 49.843246], [5.921148, 49.84326], [5.921064, 49.843346], [5.920969, 49.84344], [5.920908, 49.843502], [5.920805, 49.843597], [5.920595, 49.84377], [5.920374, 49.84395], [5.920305, 49.844], [5.92021, 49.844093], [5.920172, 49.84414], [5.920084, 49.844234], [5.92, 49.844326], [5.919962, 49.844364], [5.919912, 49.844425], [5.919825, 49.844536], [5.919581, 49.844833], [5.919287, 49.845158], [5.919233, 49.845207], [5.919222, 49.845222], [5.918875, 49.845562], [5.918383, 49.84606], [5.918203, 49.84628], [5.91815, 49.846367], [5.917959, 49.846695], [5.917856, 49.84685], [5.917734, 49.847008], [5.917608, 49.847157], [5.917585, 49.847183], [5.917479, 49.8473], [5.91741, 49.847378], [5.917341, 49.84745], [5.917028, 49.847794], [5.916853, 49.84799], [5.916529, 49.84835], [5.916235, 49.84868], [5.916185, 49.848774], [5.915682, 49.849102], [5.915472, 49.849262], [5.915331, 49.84941], [5.914995, 49.849854]]]]}}]}