{"type": "FeatureCollection", "features": [{"type": "Feature", "properties": {"name": "Beckerich"}, "geometry": {"type": "Polygon", "coordinates": [[[5.8596171, 49.7269234], [5.8587725, 49.7279615], [5.8587544, 49.7279844], [5.8590144, 49.7281434], [5.8589915, 49.7281753], [5.8587511, 49.7285983], [5.859237, 49.7287819], [5.8593879, 49.7288584], [5.8600579, 49.7292302], [5.8598815, 49.7293026], [5.8595766, 49.7294278], [5.8594139, 49.7294966], [5.8593883, 49.7295074], [5.8593558, 49.7295211], [5.8593222, 49.7295191], [5.8592957, 49.7296021], [5.8592521, 49.7297382], [5.8592387, 49.7298146], [5.8592299, 49.7298647], [5.8592275, 49.7299082], [5.8592443, 49.730135], [5.859264, 49.7302488], [5.8592989, 49.7304501], [5.859343, 49.7305873], [5.8591759, 49.7306159], [5.8591002, 49.7307475], [5.8589848, 49.730904], [5.8585571, 49.7314784], [5.8584601, 49.7314892], [5.8583616, 49.7315113], [5.8582608, 49.731548], [5.8582179, 49.731569], [5.8581686, 49.7315781], [5.8581066, 49.7315779], [5.8580723, 49.7315844], [5.8580165, 49.7316119], [5.8579479, 49.7316421], [5.8579189, 49.7316525], [5.8578718, 49.7316603], [5.8578162, 49.7316615], [5.8577498, 49.7316639], [5.8576726, 49.7316901], [5.8576126, 49.7317137], [5.8575441, 49.7317227], [5.8574456, 49.7317251], [5.8573857, 49.7317315], [5.8572986, 49.7317348], [5.8572041, 49.7318753], [5.8572949, 49.7318641], [5.8577896, 49.7318031], [5.8582745, 49.7317433], [5.8583591, 49.7317329], [5.8584466, 49.7317253], [5.8586701, 49.7317059], [5.8588838, 49.7316958], [5.8587438, 49.7319837], [5.8585762, 49.7321133], [5.8583635, 49.732559], [5.858607, 49.7326388], [5.85862, 49.7326431], [5.8590549, 49.7327855], [5.8591009, 49.7328006], [5.8595923, 49.7329615], [5.8597336, 49.7330078], [5.8601793, 49.7331551], [5.8603601, 49.7332149], [5.8604939, 49.7332586], [5.8605818, 49.7332874], [5.860831, 49.7333688], [5.8609772, 49.7334166], [5.8610816, 49.7334494], [5.8612118, 49.7334903], [5.8613475, 49.733533], [5.8616284, 49.7336212], [5.8618014, 49.7336756], [5.8617926, 49.7336895], [5.8621108, 49.7337813], [5.8635194, 49.7341895], [5.8635508, 49.7341628], [5.8645334, 49.7343804], [5.8647894, 49.7344296], [5.8650425, 49.7344798], [5.8656449, 49.7345992], [5.8655833, 49.7347171], [5.8655488, 49.7347825], [5.8655099, 49.7348564], [5.8654837, 49.7349011], [5.8654784, 49.7349102], [5.865375, 49.7350869], [5.8653413, 49.7351367], [5.865264, 49.7352509], [5.8652322, 49.7352979], [5.8651898, 49.7353584], [5.8650535, 49.7355528], [5.8650012, 49.7356273], [5.8649555, 49.7357016], [5.8649092, 49.735777], [5.8648414, 49.7358872], [5.8652584, 49.7359857], [5.8653498, 49.7360073], [5.8655405, 49.7360557], [5.8658008, 49.7361283], [5.8658213, 49.7361345], [5.866032, 49.7361986], [5.8665745, 49.7363928], [5.8664569, 49.7365819], [5.8664347, 49.7366176], [5.8663343, 49.7367789], [5.8669151, 49.7369285], [5.8675957, 49.7370926], [5.86759, 49.7371397], [5.8675809, 49.7372148], [5.8675787, 49.737233], [5.8675659, 49.7373387], [5.8685365, 49.7374904], [5.8685244, 49.7376385], [5.8685163, 49.7377376], [5.8685073, 49.7378478], [5.8685054, 49.7378716], [5.8684978, 49.7379642], [5.8684964, 49.7379816], [5.868493, 49.7380185], [5.8684884, 49.7380677], [5.8684801, 49.7381559], [5.8684705, 49.7382593], [5.8684587, 49.7383856], [5.8684491, 49.738488], [5.8684441, 49.7385413], [5.8684322, 49.7386689], [5.8684264, 49.7387309], [5.8691153, 49.7388459], [5.8690735, 49.7389284], [5.8690222, 49.7390298], [5.8688102, 49.7389944], [5.8686431, 49.7392913], [5.868569, 49.7394033], [5.8684906, 49.7395044], [5.8684034, 49.7395935], [5.8683074, 49.739676], [5.8682115, 49.7397466], [5.8680935, 49.7398193], [5.8678681, 49.7399549], [5.8680359, 49.740008], [5.8680797, 49.7400219], [5.8682101, 49.7400632], [5.8682528, 49.7400768], [5.8682344, 49.7400911], [5.8679659, 49.7403004], [5.8678806, 49.7403557], [5.8678008, 49.7403991], [5.8677015, 49.7404457], [5.867581, 49.7404944], [5.8674277, 49.7405463], [5.8669227, 49.7407094], [5.8669208, 49.7407727], [5.8669187, 49.7408444], [5.8669149, 49.7409698], [5.867158, 49.7410695], [5.8676084, 49.7412492], [5.8677517, 49.7413063], [5.8679189, 49.7413813], [5.8680436, 49.7414535], [5.8680874, 49.7414856], [5.8682042, 49.7415716], [5.8682674, 49.7416515], [5.8682936, 49.7417038], [5.8683022, 49.7417498], [5.86831, 49.7417914], [5.8683053, 49.7418711], [5.8682899, 49.7419587], [5.8682676, 49.742019], [5.8682532, 49.7420579], [5.8682156, 49.7421323], [5.8681462, 49.7422457], [5.868087, 49.7423425], [5.8680656, 49.7423685], [5.8680292, 49.7424194], [5.867978, 49.742469], [5.8679098, 49.7425198], [5.8678299, 49.7425718], [5.8677298, 49.7426265], [5.8674362, 49.7427874], [5.8673572, 49.7428307], [5.8672344, 49.7428989], [5.8666571, 49.7432196], [5.8665028, 49.7433053], [5.8664934, 49.7433088], [5.8666725, 49.7435289], [5.8666696, 49.7435374], [5.866478, 49.7441496], [5.8664976, 49.744235], [5.8661791, 49.7440803], [5.8660985, 49.7440411], [5.8659265, 49.7439566], [5.8656448, 49.7438182], [5.865613, 49.7438029], [5.8653722, 49.7436873], [5.8653304, 49.7436672], [5.8652501, 49.7436381], [5.8651686, 49.7436135], [5.86495, 49.7435476], [5.8642338, 49.7439826], [5.8639401, 49.7441785], [5.8637837, 49.7442938], [5.8636247, 49.744414], [5.8633509, 49.7446315], [5.8624515, 49.7453399], [5.8614537, 49.7461175], [5.8604222, 49.7469157], [5.8601248, 49.7471457], [5.8600767, 49.7471868], [5.8598837, 49.7473408], [5.8598537, 49.7473618], [5.8600058, 49.747595], [5.860045, 49.7476689], [5.8600597, 49.7477344], [5.860048, 49.748121], [5.8600675, 49.7483736], [5.8601051, 49.7485701], [5.8601454, 49.7487365], [5.8602001, 49.7488843], [5.8603391, 49.749186], [5.8604282, 49.7493827], [5.8605212, 49.749622], [5.8606165, 49.7498893], [5.860747, 49.7502035], [5.8608579, 49.7504179], [5.8609532, 49.7505522], [5.861192, 49.7508096], [5.8613385, 49.7510022], [5.8616086, 49.7513844], [5.8618361, 49.7514557], [5.8618349, 49.7514265], [5.8618134, 49.7509033], [5.8619688, 49.7504212], [5.8619887, 49.7503825], [5.8621298, 49.7504899], [5.8624278, 49.7506856], [5.8624334, 49.7506353], [5.8630949, 49.7498385], [5.8635468, 49.7493016], [5.864831, 49.7498646], [5.8643951, 49.7503207], [5.8659372, 49.7508955], [5.8659958, 49.7509173], [5.8666034, 49.7505396], [5.8666706, 49.7504914], [5.8669897, 49.7502624], [5.8670477, 49.7502841], [5.8687559, 49.7510118], [5.8689968, 49.7508255], [5.8690915, 49.7507494], [5.869125, 49.7507233], [5.8691734, 49.7506733], [5.8692163, 49.7506131], [5.8692397, 49.7505676], [5.8692625, 49.7504708], [5.8692765, 49.7502875], [5.8696936, 49.7502977], [5.8702483, 49.750315], [5.8706892, 49.7503401], [5.870762, 49.7503442], [5.8708778, 49.7503508], [5.8709693, 49.7503584], [5.8710627, 49.7503661], [5.8712179, 49.7503813], [5.8713935, 49.7504091], [5.871496, 49.7504333], [5.871616, 49.7504598], [5.8719621, 49.7505567], [5.8720222, 49.7505736], [5.8723416, 49.7506632], [5.8725277, 49.7500281], [5.8729545, 49.7500987], [5.873038, 49.7498938], [5.8730878, 49.7497557], [5.8730921, 49.7497436], [5.8731631, 49.7495468], [5.8732147, 49.7494216], [5.873301, 49.7492225], [5.8733955, 49.7490336], [5.8735113, 49.748846], [5.873781, 49.7484343], [5.8738731, 49.7482817], [5.8740015, 49.7480688], [5.8740747, 49.7479474], [5.8740985, 49.7479079], [5.8742039, 49.7478979], [5.8742835, 49.747891], [5.8743619, 49.7478904], [5.8747328, 49.7475045], [5.8747424, 49.7474964], [5.8748974, 49.7475761], [5.8750395, 49.7476406], [5.8751536, 49.747686], [5.8752715, 49.7477242], [5.8754164, 49.747761], [5.8755331, 49.7477874], [5.8759573, 49.7478806], [5.8763601, 49.7479587], [5.87722, 49.7480903], [5.8778551, 49.7481926], [5.8782973, 49.7482889], [5.8783038, 49.7482783], [5.8783346, 49.7482277], [5.8787639, 49.7483151], [5.878783, 49.7483178], [5.8789166, 49.7481534], [5.8790747, 49.7479786], [5.8791451, 49.7479212], [5.8792069, 49.7478926], [5.8792834, 49.747868], [5.8793556, 49.747859], [5.8794596, 49.7478645], [5.879608, 49.7478949], [5.879857, 49.7479675], [5.8804438, 49.7481611], [5.8813115, 49.7484427], [5.8814714, 49.7484909], [5.8815931, 49.74853], [5.881826, 49.7486076], [5.8819179, 49.7485129], [5.8820567, 49.7483699], [5.8824645, 49.7482532], [5.8829151, 49.7481274], [5.8829793, 49.7481044], [5.8832163, 49.7479672], [5.8834433, 49.7478192], [5.88363, 49.7476912], [5.8837474, 49.7476017], [5.8838902, 49.7474761], [5.8839141, 49.7474551], [5.8841261, 49.7472931], [5.884155, 49.7472755], [5.884236, 49.7472262], [5.8843871, 49.7471343], [5.8849746, 49.7467999], [5.8853521, 49.7465864], [5.8854952, 49.7465055], [5.8858411, 49.746658], [5.886114, 49.7464211], [5.8861624, 49.7463791], [5.8862682, 49.7462872], [5.8863763, 49.7461934], [5.886497, 49.7460885], [5.8866485, 49.745957], [5.8867199, 49.745895], [5.8868046, 49.7458215], [5.8868888, 49.7457074], [5.8869223, 49.745662], [5.8869325, 49.7456481], [5.8870609, 49.745474], [5.8871979, 49.7452883], [5.8872376, 49.7452344], [5.8872759, 49.7451778], [5.887337, 49.7450873], [5.8874593, 49.7449061], [5.887485, 49.7448681], [5.8876905, 49.7445636], [5.8877062, 49.7445404], [5.8877333, 49.7445002], [5.8877778, 49.7444342], [5.8878395, 49.7443428], [5.8880831, 49.7440688], [5.8882563, 49.7438741], [5.8885054, 49.7435939], [5.8885274, 49.7435691], [5.8885476, 49.7435505], [5.8890393, 49.7439108], [5.8893546, 49.744136], [5.8895399, 49.7442556], [5.8901298, 49.7445758], [5.890557, 49.7447935], [5.8907474, 49.7449039], [5.8910802, 49.7451461], [5.891104, 49.7451318], [5.8912256, 49.7450303], [5.8913844, 49.7448977], [5.892321, 49.7452327], [5.8931837, 49.745535], [5.8934069, 49.7456083], [5.89395, 49.7457674], [5.8941482, 49.745836], [5.8943563, 49.7459185], [5.8945749, 49.7460215], [5.8946447, 49.7460544], [5.8946996, 49.7460803], [5.8949596, 49.7458781], [5.8951442, 49.7458956], [5.8953878, 49.7459194], [5.8956038, 49.7459261], [5.89583, 49.7459173], [5.8961645, 49.7458825], [5.8962181, 49.7457325], [5.8962512, 49.7456521], [5.8962763, 49.7455832], [5.8962882, 49.7455506], [5.8963072, 49.7454986], [5.896315, 49.7454774], [5.8963545, 49.745366], [5.8964259, 49.7451851], [5.8963959, 49.7451525], [5.8963673, 49.7450967], [5.8963701, 49.7450472], [5.8963879, 49.7450117], [5.8964107, 49.7449885], [5.8965249, 49.7449095], [5.8966225, 49.744842], [5.8962254, 49.7447294], [5.8959728, 49.7446578], [5.8954197, 49.7444862], [5.8951814, 49.744399], [5.8948556, 49.7442605], [5.8944621, 49.7440754], [5.8944848, 49.7440615], [5.8944547, 49.744046], [5.8945753, 49.7437984], [5.8945921, 49.7437639], [5.8946462, 49.7436528], [5.8946944, 49.7435539], [5.8946349, 49.7435326], [5.8942573, 49.7433976], [5.8940747, 49.7433324], [5.8934965, 49.7431062], [5.8933414, 49.7430441], [5.8930513, 49.7429223], [5.8930054, 49.7429], [5.8931007, 49.742826], [5.8932338, 49.7427226], [5.8935091, 49.7425088], [5.8936649, 49.7423878], [5.893175, 49.7422449], [5.8929036, 49.7421657], [5.892815, 49.7421399], [5.8924209, 49.742025], [5.8921405, 49.7419432], [5.8919764, 49.7418955], [5.8918408, 49.7418562], [5.8917152, 49.7418197], [5.8914528, 49.7417435], [5.8913307, 49.7417081], [5.8909524, 49.7415982], [5.8907592, 49.7415459], [5.8908757, 49.741167], [5.8909278, 49.7409831], [5.8909588, 49.7408325], [5.8909777, 49.7406818], [5.89098, 49.740457], [5.8909616, 49.739979], [5.8908052, 49.7399774], [5.8915414, 49.7399137], [5.8927061, 49.7398114], [5.8927439, 49.7398078], [5.8925443, 49.739485], [5.8924282, 49.7392648], [5.8923827, 49.739156], [5.8922317, 49.7387431], [5.892138, 49.7384724], [5.8920632, 49.738224], [5.8920139, 49.737904], [5.891959, 49.7375049], [5.891971, 49.7369849], [5.8919546, 49.7368626], [5.8918895, 49.7366846], [5.891729, 49.7363334], [5.8925547, 49.7367492], [5.8925545, 49.7367189], [5.8925531, 49.7366118], [5.8925488, 49.736265], [5.892543, 49.7358018], [5.8925462, 49.7353275], [5.8925483, 49.7350261], [5.8925339, 49.7348658], [5.8925183, 49.7346741], [5.8928171, 49.7346636], [5.8928409, 49.7344748], [5.8928576, 49.7343427], [5.8928706, 49.7342401], [5.8928989, 49.7340228], [5.8933579, 49.7340651], [5.8934219, 49.734071], [5.8934333, 49.7339334], [5.8934357, 49.733924], [5.8943084, 49.7339879], [5.8948775, 49.7340361], [5.8948756, 49.7340248], [5.8946388, 49.7333538], [5.894625, 49.7332982], [5.8946244, 49.7332376], [5.8946492, 49.7331399], [5.8946633, 49.7330846], [5.895547, 49.7331645], [5.8955608, 49.7330945], [5.8955658, 49.7330691], [5.8956199, 49.7327953], [5.8956243, 49.7327731], [5.8970279, 49.7328764], [5.89705, 49.7328151], [5.897141, 49.7326436], [5.8971807, 49.7325292], [5.897249, 49.7323321], [5.8972881, 49.732219], [5.8973106, 49.7321542], [5.8973301, 49.7320978], [5.8972871, 49.7320853], [5.8974926, 49.7318919], [5.8977535, 49.7316645], [5.8977997, 49.7316242], [5.897959, 49.7314853], [5.8978833, 49.7314219], [5.8976517, 49.7312278], [5.8975798, 49.7311819], [5.8971201, 49.7307535], [5.8970345, 49.730652], [5.8969829, 49.7305605], [5.8969339, 49.7305258], [5.8964699, 49.730164], [5.8960169, 49.7298085], [5.8958891, 49.7297081], [5.8957504, 49.7295963], [5.8956331, 49.7295017], [5.8953187, 49.7292567], [5.8954664, 49.7291925], [5.8954852, 49.7291843], [5.8954973, 49.7291791], [5.8955329, 49.7291636], [5.895639, 49.7291176], [5.8958379, 49.7290313], [5.8958645, 49.7290189], [5.896012, 49.7289504], [5.8960175, 49.7289479], [5.8960176, 49.7289478], [5.8961494, 49.7288927], [5.8962783, 49.7288387], [5.8964179, 49.7287802], [5.8964314, 49.7287746], [5.8965115, 49.7287382], [5.8965551, 49.7287202], [5.8967796, 49.7286273], [5.8968101, 49.7286147], [5.8965601, 49.7284186], [5.8962755, 49.7282013], [5.896222, 49.7282339], [5.8961987, 49.728248], [5.8960794, 49.7280358], [5.895975, 49.7278695], [5.8958828, 49.7277257], [5.895748, 49.7275953], [5.8955171, 49.7273848], [5.8955408, 49.7273734], [5.8957018, 49.727287], [5.8962132, 49.7269576], [5.8962236, 49.7269504], [5.8963931, 49.7270159], [5.8965971, 49.7270491], [5.8968999, 49.7272253], [5.8969466, 49.7272794], [5.8970218, 49.72736], [5.8970409, 49.7273938], [5.8970362, 49.7274376], [5.8970249, 49.7275036], [5.8970479, 49.7275247], [5.8970974, 49.727534], [5.8971659, 49.727544], [5.8972022, 49.7275661], [5.897224, 49.7276171], [5.8972611, 49.72764], [5.8973227, 49.727658], [5.8973585, 49.7276697], [5.8973943, 49.7277095], [5.8974205, 49.7277336], [5.8974545, 49.7277425], [5.8975194, 49.7277482], [5.8975268, 49.7277381], [5.8975477, 49.727691], [5.8980952, 49.7273482], [5.8987103, 49.7277306], [5.8990178, 49.7279203], [5.8992246, 49.7278099], [5.8995273, 49.7276429], [5.89956, 49.7276251], [5.8994997, 49.7275795], [5.8988811, 49.7271486], [5.8986478, 49.7269873], [5.898436, 49.7268317], [5.8982959, 49.7267207], [5.8982179, 49.7266433], [5.8980573, 49.7264379], [5.8979589, 49.7262822], [5.8978579, 49.7261908], [5.8973507, 49.7258573], [5.8967034, 49.725324], [5.8964613, 49.7251123], [5.8966302, 49.7250002], [5.8968543, 49.7248334], [5.896984, 49.7247314], [5.8971299, 49.7246129], [5.8972653, 49.7245003], [5.897354, 49.7244225], [5.8974329, 49.7243516], [5.8975646, 49.7242212], [5.8976297, 49.7241496], [5.8976819, 49.7240831], [5.8977228, 49.7240226], [5.8977582, 49.7239564], [5.8978049, 49.7238548], [5.8978243, 49.7236432], [5.8978572, 49.72337], [5.8979196, 49.7228428], [5.8978803, 49.7228638], [5.8978285, 49.7228583], [5.896343, 49.7227647], [5.8958613, 49.7227292], [5.8954142, 49.7226904], [5.8944386, 49.7226063], [5.8943707, 49.7227793], [5.8924369, 49.722495], [5.8923595, 49.7223237], [5.8923295, 49.7222522], [5.8922685, 49.7221062], [5.8922436, 49.7219721], [5.8921838, 49.7215587], [5.8921792, 49.7215169], [5.8918968, 49.7211608], [5.8916187, 49.7208185], [5.8915611, 49.7207579], [5.8914989, 49.7207096], [5.8914477, 49.7206834], [5.8913498, 49.7206502], [5.8910958, 49.7205781], [5.890755, 49.7204962], [5.8905845, 49.7204593], [5.8903416, 49.7204216], [5.8901053, 49.7203922], [5.8899737, 49.7203781], [5.889851, 49.7203874], [5.8892561, 49.7204541], [5.8891971, 49.7204432], [5.8886956, 49.7197809], [5.8881593, 49.7191516], [5.8879106, 49.7189047], [5.8874331, 49.7184058], [5.8870301, 49.7179662], [5.886899, 49.7177923], [5.886784, 49.7174679], [5.8865714, 49.7172564], [5.8865112, 49.7171554], [5.8863837, 49.7167611], [5.8860671, 49.7165529], [5.8857959, 49.7163657], [5.8855701, 49.7161937], [5.8853084, 49.7159878], [5.8850557, 49.7158038], [5.8850277, 49.7157835], [5.8848499, 49.715654], [5.8848037, 49.7156219], [5.8845984, 49.7154791], [5.8845577, 49.7154509], [5.8843965, 49.7153413], [5.8842597, 49.7152485], [5.8840212, 49.7150989], [5.8840129, 49.7150937], [5.8838336, 49.714981], [5.8837376, 49.7149206], [5.8834505, 49.7147401], [5.8838554, 49.7144451], [5.8839312, 49.714391], [5.8843048, 49.7141243], [5.8839868, 49.7139873], [5.8839541, 49.7139732], [5.8838642, 49.7139345], [5.8831247, 49.7137714], [5.8823767, 49.7136144], [5.8819655, 49.7135079], [5.882162, 49.7132896], [5.8822243, 49.7132204], [5.8824592, 49.7129215], [5.8826035, 49.7127232], [5.8827599, 49.7125149], [5.8827686, 49.7125033], [5.8828828, 49.7125526], [5.8830442, 49.7126124], [5.8830618, 49.7125543], [5.8835084, 49.7122732], [5.8835465, 49.712251], [5.8839153, 49.7120358], [5.8841148, 49.7118381], [5.8841692, 49.7117843], [5.8844147, 49.7115509], [5.8841754, 49.7114557], [5.8838858, 49.711349], [5.8838102, 49.7113212], [5.8837081, 49.7114312], [5.8836182, 49.7115373], [5.8835674, 49.7115847], [5.8835024, 49.7116359], [5.883438, 49.7116767], [5.8830725, 49.7118651], [5.8829619, 49.7119037], [5.8827186, 49.7119666], [5.8826087, 49.7119907], [5.8825598, 49.7120465], [5.8823653, 49.7124246], [5.8822742, 49.7125302], [5.8821872, 49.7126221], [5.8819225, 49.7128766], [5.8818484, 49.7129348], [5.8816926, 49.7130131], [5.8813152, 49.7131887], [5.881093, 49.713283], [5.8807304, 49.7133991], [5.8803591, 49.7135053], [5.8802104, 49.7135604], [5.8799636, 49.7136889], [5.8795695, 49.7138838], [5.8783916, 49.7144517], [5.8777998, 49.7147113], [5.8774818, 49.7148307], [5.8773263, 49.7148804], [5.8770909, 49.7149416], [5.8765783, 49.7150631], [5.8760344, 49.7151848], [5.8758855, 49.7152222], [5.8755847, 49.7153752], [5.8752831, 49.7154966], [5.8750244, 49.7156068], [5.8749128, 49.715674], [5.874833, 49.7157469], [5.8747811, 49.7158194], [5.8747423, 49.7159064], [5.8747271, 49.7159887], [5.8747269, 49.716076], [5.8747365, 49.7161671], [5.8748021, 49.7165355], [5.8747943, 49.7166462], [5.8747402, 49.7167816], [5.8746116, 49.7169653], [5.8744823, 49.7171313], [5.8742032, 49.7174483], [5.8745613, 49.7175845], [5.8748262, 49.7176607], [5.8765969, 49.7181197], [5.875581, 49.7194107], [5.8754125, 49.7195107], [5.8753117, 49.7196331], [5.8751633, 49.7199732], [5.874919, 49.7204686], [5.8749059, 49.7205491], [5.8749276, 49.7206231], [5.8749661, 49.7206672], [5.8750081, 49.7206994], [5.8750426, 49.7207189], [5.875115, 49.7207429], [5.8752913, 49.7207894], [5.8754083, 49.7208302], [5.8754916, 49.7208703], [5.8755584, 49.7209207], [5.8756182, 49.7209764], [5.8755931, 49.7212462], [5.8754975, 49.7214376], [5.8754338, 49.7215842], [5.8753772, 49.7216714], [5.8753017, 49.7217558], [5.8751689, 49.7218793], [5.8735094, 49.7216004], [5.8725542, 49.7215971], [5.8720723, 49.7215835], [5.8719263, 49.7215847], [5.8714394, 49.7216514], [5.8712651, 49.7216571], [5.8710816, 49.7216506], [5.8706943, 49.7216156], [5.8705394, 49.7219077], [5.8703925, 49.7222625], [5.8702929, 49.7225518], [5.8702797, 49.722801], [5.8703257, 49.723041], [5.8704831, 49.7233825], [5.8700142, 49.7235495], [5.8700278, 49.7235621], [5.869597, 49.7237822], [5.8697686, 49.7239114], [5.869016, 49.7244216], [5.8678368, 49.7252995], [5.8672907, 49.725647], [5.8669934, 49.7259131], [5.8668152, 49.7262015], [5.8667236, 49.7262386], [5.8665717, 49.7262825], [5.8665522, 49.7262838], [5.8665325, 49.7262781], [5.8664924, 49.7262561], [5.8664822, 49.7262561], [5.8664282, 49.726288], [5.8663822, 49.7263008], [5.8663142, 49.7263042], [5.8662556, 49.7263321], [5.8661926, 49.7263446], [5.8661656, 49.7263719], [5.8660754, 49.7264147], [5.8660106, 49.7264934], [5.8659325, 49.7265242], [5.8659022, 49.7265626], [5.8658656, 49.7265876], [5.8658568, 49.7266114], [5.8657057, 49.7266758], [5.8656543, 49.7267054], [5.8654984, 49.7267191], [5.865457, 49.7267446], [5.8654219, 49.726787], [5.8653414, 49.7267985], [5.8652727, 49.7268171], [5.8652236, 49.7268259], [5.8651077, 49.7268894], [5.8649323, 49.7269331], [5.864786, 49.7269502], [5.8645909, 49.7269278], [5.8640471, 49.7268084], [5.8635977, 49.726757], [5.8629512, 49.7267132], [5.8627503, 49.7266746], [5.8626136, 49.7266136], [5.8623569, 49.726541], [5.8619917, 49.7264629], [5.8616254, 49.726273], [5.8615369, 49.7262975], [5.8614879, 49.7263201], [5.8614226, 49.7263853], [5.8613221, 49.7264476], [5.8611929, 49.7264903], [5.8611326, 49.726539], [5.8610393, 49.7265568], [5.8610188, 49.726609], [5.8609826, 49.7266245], [5.8609, 49.7266122], [5.8607601, 49.7266779], [5.8607203, 49.726753], [5.860679, 49.7267811], [5.8605053, 49.7268088], [5.8603787, 49.7268577], [5.86032, 49.7269655], [5.8602557, 49.7269818], [5.8601556, 49.7270335], [5.8600928, 49.7271217], [5.860081, 49.7271541], [5.8600557, 49.7271967], [5.8600205, 49.7272149], [5.8596171, 49.7269234]]]}}]}