{"type": "FeatureCollection", "features": [{"type": "Feature", "properties": {"name": "Elvange et Hovelange"}, "geometry": {"type": "Polygon", "coordinates": [[[5.93723, 49.7326434], [5.9372514, 49.7326088], [5.9373314, 49.732476], [5.937391, 49.7323754], [5.9375137, 49.7321882], [5.9376391, 49.7320096], [5.9377246, 49.7318974], [5.9378932, 49.7317061], [5.938036, 49.7315511], [5.9382157, 49.7313804], [5.9383331, 49.7312768], [5.9384239, 49.7312118], [5.9385809, 49.7311139], [5.9388796, 49.7309412], [5.9390109, 49.7308677], [5.9391103, 49.7308143], [5.939198, 49.7308459], [5.9394328, 49.7309255], [5.9394602, 49.730933], [5.9395244, 49.7309507], [5.9396206, 49.7309736], [5.9397556, 49.731003], [5.9398707, 49.7310294], [5.9399514, 49.7310578], [5.9402226, 49.7308487], [5.9402297, 49.7308392], [5.9401864, 49.730822], [5.9401094, 49.7307752], [5.9400434, 49.7307388], [5.9399787, 49.730715], [5.9399219, 49.7306976], [5.939844, 49.7306786], [5.9397786, 49.7306656], [5.9397036, 49.7306329], [5.9393355, 49.7304657], [5.9392161, 49.7304063], [5.9389404, 49.7302673], [5.938882, 49.7302431], [5.9388347, 49.7302371], [5.9387429, 49.7302266], [5.9386971, 49.7302093], [5.9386581, 49.730205], [5.9386163, 49.7302066], [5.9385968, 49.7302048], [5.9385816, 49.7301911], [5.9385707, 49.730149], [5.9385499, 49.7301344], [5.938522, 49.7301327], [5.9384913, 49.7301395], [5.9384433, 49.7301518], [5.9384182, 49.7301492], [5.9383946, 49.7301431], [5.938378, 49.7301276], [5.9383516, 49.7301044], [5.9383308, 49.7300941], [5.9383182, 49.7300966], [5.9383085, 49.7301009], [5.9383056, 49.7301155], [5.9383125, 49.7301327], [5.9383069, 49.7301455], [5.938279, 49.7301549], [5.9382205, 49.7301659], [5.9381843, 49.7301667], [5.9381621, 49.7301572], [5.938144, 49.7301426], [5.9381455, 49.7301237], [5.9381316, 49.7301134], [5.9381038, 49.7301117], [5.9380871, 49.7301159], [5.9380619, 49.7301364], [5.9380396, 49.7301476], [5.9380104, 49.7301475], [5.9379784, 49.7301406], [5.937938, 49.7301388], [5.9378907, 49.730131], [5.9378505, 49.7301086], [5.9378325, 49.7300794], [5.9378201, 49.7300451], [5.9378035, 49.7300244], [5.9377758, 49.7300089], [5.9377222, 49.7300007], [5.9376526, 49.7299928], [5.9376193, 49.7299842], [5.9375776, 49.7299678], [5.9375428, 49.7299609], [5.9374941, 49.7299599], [5.9374328, 49.729959], [5.937412, 49.7299546], [5.9373981, 49.7299392], [5.9373927, 49.7299143], [5.9373734, 49.7298774], [5.9373415, 49.7298516], [5.9372818, 49.7298214], [5.9372151, 49.7297827], [5.9371734, 49.7297689], [5.9371262, 49.7297619], [5.9370755, 49.7297418], [5.9370479, 49.7297188], [5.9370113, 49.7296518], [5.9369791, 49.7296168], [5.93691, 49.7295767], [5.9368577, 49.7295436], [5.9368132, 49.7295095], [5.9367749, 49.7294685], [5.9367405, 49.7294135], [5.9367084, 49.7293784], [5.9366592, 49.7293583], [5.9366068, 49.7293483], [5.9365575, 49.7293561], [5.9364727, 49.729369], [5.9364127, 49.7293738], [5.9363342, 49.7293567], [5.9362864, 49.7293536], [5.936251, 49.7293585], [5.936214, 49.7293715], [5.936177, 49.7293754], [5.9361247, 49.7293673], [5.9360785, 49.7293492], [5.9359971, 49.7292991], [5.9358445, 49.7291749], [5.9357785, 49.7291318], [5.9357354, 49.7291147], [5.9356892, 49.7291076], [5.9356292, 49.7291045], [5.9355831, 49.7290864], [5.9355601, 49.7290624], [5.9355279, 49.7290254], [5.9355003, 49.7290074], [5.9352461, 49.728846], [5.9350987, 49.7287508], [5.9349911, 49.7287016], [5.9349312, 49.7286745], [5.9348806, 49.7286284], [5.9348124, 49.7285644], [5.9347894, 49.7285323], [5.9347696, 49.7284903], [5.9347481, 49.7284723], [5.9347205, 49.7284543], [5.9346713, 49.7284332], [5.9346236, 49.7284241], [5.9346067, 49.7284181], [5.9345928, 49.7284101], [5.9345944, 49.7283991], [5.9346068, 49.7283861], [5.9346254, 49.7283742], [5.9346285, 49.7283662], [5.9346224, 49.7283562], [5.9346039, 49.7283421], [5.9345762, 49.7283391], [5.9345392, 49.728346], [5.9344976, 49.7283499], [5.9344715, 49.7283499], [5.934453, 49.7283359], [5.9344339, 49.7283038], [5.9344264, 49.7282708], [5.9343972, 49.7282528], [5.9341268, 49.7281244], [5.93399, 49.7280582], [5.9336481, 49.7278936], [5.9336159, 49.7278626], [5.9335976, 49.7278156], [5.9335978, 49.7277906], [5.9336056, 49.7277586], [5.9336088, 49.7277427], [5.9336011, 49.7277287], [5.9335827, 49.7277156], [5.9335473, 49.7277076], [5.9335181, 49.7277095], [5.9334872, 49.7277184], [5.933444, 49.7277423], [5.9333884, 49.7277722], [5.9333606, 49.7277821], [5.9333252, 49.7277861], [5.9332883, 49.727776], [5.9332345, 49.7277479], [5.9332145, 49.7277339], [5.9331931, 49.7277079], [5.9331894, 49.7276759], [5.9332065, 49.7276489], [5.9332436, 49.72762], [5.9332653, 49.7275961], [5.9333056, 49.7275272], [5.9333459, 49.7274814], [5.9333769, 49.7274465], [5.9334016, 49.7274315], [5.9334325, 49.7274186], [5.9334525, 49.7274126], [5.9334633, 49.7273997], [5.9334565, 49.7273797], [5.9334427, 49.7273707], [5.9334196, 49.7273656], [5.9334043, 49.7273546], [5.9333997, 49.7273416], [5.933409, 49.7273286], [5.9334183, 49.7273127], [5.9334169, 49.7272967], [5.9334, 49.7272797], [5.9333738, 49.7272746], [5.9333307, 49.7272715], [5.9332984, 49.7272645], [5.9332769, 49.7272584], [5.9332631, 49.7272504], [5.933257, 49.7272284], [5.9332402, 49.7272064], [5.9332002, 49.7271893], [5.9331156, 49.7271692], [5.9330772, 49.7271601], [5.9330479, 49.7271491], [5.9330219, 49.727127], [5.9330004, 49.727104], [5.9329896, 49.7271], [5.9329635, 49.7270959], [5.9329434, 49.7271029], [5.9329202, 49.7271228], [5.9328832, 49.7271337], [5.9328524, 49.7271377], [5.9328339, 49.7271286], [5.9328156, 49.7271086], [5.9328072, 49.7270846], [5.932798, 49.7270706], [5.9327811, 49.7270596], [5.9327581, 49.7270496], [5.9327304, 49.7270405], [5.9326812, 49.7270354], [5.9326334, 49.7270303], [5.9325888, 49.7270202], [5.9325535, 49.7270032], [5.9325074, 49.7269791], [5.9324428, 49.726965], [5.932315, 49.7269428], [5.9322396, 49.7269336], [5.9321703, 49.7269285], [5.9321241, 49.7269294], [5.9320856, 49.7269353], [5.9320624, 49.7269462], [5.9320439, 49.7269652], [5.9320198, 49.7269981], [5.9320013, 49.7270141], [5.9319534, 49.7270359], [5.9319272, 49.7270449], [5.9318208, 49.7270626], [5.9317268, 49.7270744], [5.9316513, 49.7270813], [5.9315327, 49.727085], [5.9314788, 49.7270859], [5.9313726, 49.7270807], [5.9311516, 49.7270733], [5.9310145, 49.727078], [5.9309175, 49.7270628], [5.9307913, 49.7270526], [5.9307374, 49.7270415], [5.9306282, 49.7270093], [5.9305805, 49.7270072], [5.9305251, 49.727007], [5.9304804, 49.727], [5.9304451, 49.7269859], [5.930389, 49.7269588], [5.9303583, 49.7269408], [5.9303029, 49.7269287], [5.9302444, 49.7269236], [5.9301843, 49.7269244], [5.9301273, 49.7269263], [5.9301012, 49.7269233], [5.9300581, 49.7269082], [5.9300059, 49.7268751], [5.9299537, 49.726843], [5.9299076, 49.72682], [5.9298506, 49.7268138], [5.9297584, 49.7267817], [5.9296845, 49.7267715], [5.9295961, 49.7267374], [5.9295685, 49.7267253], [5.9294961, 49.7267122], [5.9294669, 49.7267022], [5.9294024, 49.7266701], [5.9293747, 49.726657], [5.9293331, 49.7266569], [5.9292854, 49.7266598], [5.9292623, 49.7266628], [5.9292007, 49.7266557], [5.9291238, 49.7266425], [5.9290392, 49.7266154], [5.9289562, 49.7265862], [5.9288578, 49.72655], [5.9288162, 49.726542], [5.9287369, 49.7265418], [5.928718, 49.7265538], [5.928707, 49.7265547], [5.9286716, 49.7265537], [5.9286178, 49.7265386], [5.9285685, 49.7265255], [5.928527, 49.7265214], [5.9284823, 49.7265263], [5.9284268, 49.7265312], [5.9283929, 49.7265301], [5.9283545, 49.726516], [5.9283115, 49.726488], [5.9282977, 49.726477], [5.9282823, 49.7264549], [5.9282748, 49.7264439], [5.9282702, 49.7264289], [5.9282718, 49.72641], [5.9282842, 49.726402], [5.9282835, 49.726389], [5.9282774, 49.726377], [5.9282667, 49.726368], [5.9282482, 49.72636], [5.9282252, 49.7263459], [5.9282145, 49.7263269], [5.9282146, 49.7263069], [5.9282039, 49.7262839], [5.9281932, 49.7262679], [5.9281848, 49.7262269], [5.9281389, 49.7261659], [5.9280393, 49.7260468], [5.9279528, 49.7259577], [5.927913, 49.7259047], [5.9279208, 49.7258887], [5.9279301, 49.7258707], [5.9279302, 49.7258537], [5.9279164, 49.7258267], [5.9278873, 49.7257947], [5.9278597, 49.7257747], [5.9278167, 49.7257566], [5.9277536, 49.7257425], [5.927729, 49.7257354], [5.9277137, 49.7257214], [5.9276877, 49.7256834], [5.9276694, 49.7256414], [5.9276657, 49.7256084], [5.9276535, 49.7255864], [5.9276366, 49.7255664], [5.9276213, 49.7255594], [5.9275874, 49.7255553], [5.9275489, 49.7255512], [5.9275228, 49.7255422], [5.9274891, 49.7255061], [5.92746, 49.7254681], [5.9274509, 49.7254361], [5.9274525, 49.7254241], [5.9274604, 49.7254002], [5.9274682, 49.7253742], [5.9274606, 49.7253522], [5.9274453, 49.7253342], [5.9274246, 49.7253142], [5.9273877, 49.7252961], [5.927357, 49.7252841], [5.9273385, 49.725288], [5.9272644, 49.7253148], [5.9272428, 49.7253208], [5.9272274, 49.7253238], [5.927212, 49.7253217], [5.927192, 49.7253137], [5.9271337, 49.7252686], [5.9271283, 49.7252618], [5.9271049, 49.7252073], [5.9263578, 49.7250774], [5.9261598, 49.725043], [5.9261513, 49.7250415], [5.9260609, 49.725021], [5.9260213, 49.725015], [5.925991, 49.72501], [5.9259427, 49.7250018], [5.9259365, 49.7250008], [5.9257895, 49.7249747], [5.9253214, 49.7248932], [5.9250328, 49.7248416], [5.9246574, 49.7247709], [5.9244958, 49.7247406], [5.9243728, 49.7247114], [5.9243036, 49.7246832], [5.9241807, 49.724624], [5.924014, 49.7245418], [5.9239249, 49.7245066], [5.9237742, 49.7244513], [5.9236866, 49.7244302], [5.9236081, 49.72442], [5.9235095, 49.7244158], [5.9233324, 49.7244124], [5.9232162, 49.7244072], [5.9231161, 49.7244], [5.9230253, 49.7243848], [5.9228392, 49.7243425], [5.9227023, 49.7243102], [5.9226885, 49.7243032], [5.9226808, 49.7242892], [5.9226887, 49.7242632], [5.9226918, 49.7242462], [5.9226857, 49.7242372], [5.9226765, 49.7242282], [5.9226627, 49.7242242], [5.9226134, 49.7242151], [5.9225564, 49.724218], [5.9224948, 49.7242188], [5.9224202, 49.7242127], [5.9223632, 49.7242206], [5.9223385, 49.7242205], [5.9222877, 49.7242104], [5.9222139, 49.7241943], [5.9221846, 49.7241952], [5.92213, 49.724212], [5.9220895, 49.7242236], [5.9220503, 49.724229], [5.9220237, 49.7242227], [5.9220011, 49.724204], [5.9219949, 49.724179], [5.9220039, 49.7241502], [5.9220167, 49.7241175], [5.9220131, 49.7240863], [5.9219879, 49.7240574], [5.9219627, 49.7240434], [5.9219286, 49.7240425], [5.9219045, 49.7240526], [5.9218739, 49.7240938], [5.9218497, 49.7241288], [5.9218269, 49.7241405], [5.9217902, 49.724149], [5.9217269, 49.7241527], [5.9216713, 49.7241472], [5.9216139, 49.7241365], [5.9215823, 49.7241217], [5.9215647, 49.7241014], [5.9215713, 49.7240562], [5.9215701, 49.7240258], [5.9215513, 49.7240047], [5.9214983, 49.7239781], [5.9214478, 49.7239733], [5.921382, 49.7239763], [5.9213441, 49.7239708], [5.9212898, 49.7239519], [5.9212582, 49.7239418], [5.9212178, 49.7239386], [5.9211318, 49.7239352], [5.9210444, 49.7238971], [5.9210543, 49.7238876], [5.921059, 49.7238799], [5.9210752, 49.7238535], [5.9211223, 49.7237767], [5.9211744, 49.7236919], [5.9208597, 49.7235855], [5.9206873, 49.7235271], [5.9205117, 49.7234677], [5.9204921, 49.7234611], [5.920453, 49.7234537], [5.9201469, 49.7237564], [5.9198542, 49.7236469], [5.9196169, 49.7235599], [5.9194768, 49.723513], [5.9193297, 49.7234624], [5.9192396, 49.7234194], [5.9190409, 49.7233188], [5.9189132, 49.7232701], [5.918722, 49.7232093], [5.9185083, 49.7231644], [5.9182393, 49.7231059], [5.918098, 49.7230703], [5.9180111, 49.7230448], [5.9179716, 49.7230439], [5.9175241, 49.7228562], [5.9172168, 49.7227116], [5.9170683, 49.7227169], [5.9166859, 49.7227305], [5.9166203, 49.7225547], [5.9165592, 49.722391], [5.9164448, 49.7224941], [5.915304, 49.7223615], [5.9154426, 49.7221187], [5.9156271, 49.7221281], [5.9156308, 49.7221089], [5.9156845, 49.7218295], [5.9157269, 49.7216086], [5.9143734, 49.721359], [5.9142909, 49.7207948], [5.9142695, 49.7206486], [5.9142212, 49.7201546], [5.9141421, 49.7200465], [5.914028, 49.7195583], [5.9139662, 49.7191075], [5.9139323, 49.7188662], [5.9138947, 49.7187229], [5.9137861, 49.7183961], [5.913686, 49.7181198], [5.9135661, 49.7177856], [5.9135056, 49.7176155], [5.9134695, 49.7174245], [5.9134603, 49.7173224], [5.9134841, 49.7172456], [5.9136609, 49.7171956], [5.9136908, 49.7171871], [5.9139528, 49.717113], [5.9142166, 49.7170383], [5.9144954, 49.7169595], [5.9148211, 49.7168673], [5.9151414, 49.7167767], [5.9151015, 49.7166806], [5.9149065, 49.7162114], [5.9146813, 49.7158682], [5.9144162, 49.7151729], [5.9143948, 49.7149721], [5.9143392, 49.7143168], [5.9143468, 49.7142277], [5.913907, 49.7136555], [5.9137973, 49.7136077], [5.9136285, 49.7134805], [5.9135054, 49.7133878], [5.9131151, 49.7130878], [5.913045, 49.7130319], [5.9128303, 49.7128607], [5.9125105, 49.712575], [5.9123937, 49.7124707], [5.9117119, 49.7118583], [5.9116354, 49.7117336], [5.9114825, 49.7114845], [5.9114405, 49.7114159], [5.9112721, 49.7111912], [5.9110514, 49.7108967], [5.9109456, 49.7107991], [5.9105196, 49.7104061], [5.9104958, 49.7103906], [5.910395, 49.7103648], [5.9100631, 49.7106533], [5.9098209, 49.7108549], [5.9096954, 49.7109633], [5.9095234, 49.7110917], [5.9093365, 49.7112227], [5.9090357, 49.7114342], [5.9088642, 49.7115569], [5.9083469, 49.7119933], [5.907352, 49.7118483], [5.9066414, 49.7116302], [5.9060443, 49.7114386], [5.9049886, 49.7110411], [5.9040862, 49.7108393], [5.9031335, 49.7108849], [5.9026144, 49.7108981], [5.9021472, 49.7109099], [5.9017685, 49.7109062], [5.901517, 49.7109039], [5.9014022, 49.7109029], [5.9012003, 49.7109011], [5.9009794, 49.7108991], [5.9008509, 49.7108979], [5.9006371, 49.7108959], [5.9004494, 49.7108942], [5.9004335, 49.7108297], [5.9001902, 49.7108278], [5.8999724, 49.7108261], [5.8999462, 49.7108258], [5.8999908, 49.7109336], [5.9000535, 49.7111027], [5.9001229, 49.71128], [5.9002011, 49.7115134], [5.9002803, 49.7117404], [5.9003575, 49.7119473], [5.9003328, 49.7119704], [5.9001385, 49.7121521], [5.8998799, 49.7122964], [5.8995514, 49.7124804], [5.899297, 49.7126182], [5.898985, 49.7127672], [5.8986452, 49.7128827], [5.8982768, 49.7128225], [5.897971, 49.7127626], [5.8976241, 49.7126907], [5.8972389, 49.7125656], [5.8968976, 49.7124552], [5.8965323, 49.7123661], [5.8963563, 49.7123105], [5.8961328, 49.7122347], [5.8959271, 49.7121582], [5.8957773, 49.7120996], [5.8955703, 49.7119979], [5.8954202, 49.7119173], [5.8953044, 49.7118546], [5.8951705, 49.711774], [5.8950638, 49.7116927], [5.8948899, 49.7115564], [5.8946914, 49.7113996], [5.8945959, 49.711332], [5.8942686, 49.7111431], [5.8939229, 49.7109378], [5.8935203, 49.7107141], [5.8932146, 49.710557], [5.8927707, 49.7104417], [5.8924458, 49.710354], [5.8921298, 49.7103433], [5.891897, 49.7103369], [5.8917289, 49.7103426], [5.8916664, 49.7103447], [5.8914669, 49.7103517], [5.8912938, 49.7103647], [5.8910196, 49.7103891], [5.8907147, 49.7104268], [5.8904839, 49.7104488], [5.8903089, 49.7104593], [5.8900761, 49.7104679], [5.8898007, 49.7104706], [5.8895783, 49.7104508], [5.8893633, 49.7104267], [5.8890571, 49.7103449], [5.8887944, 49.7102699], [5.8886519, 49.7102234], [5.888529, 49.7101696], [5.8882854, 49.7100483], [5.8879172, 49.7098623], [5.8878703, 49.70983], [5.8876392, 49.7096927], [5.8875247, 49.7096247], [5.887419, 49.7095667], [5.8872875, 49.7094945], [5.8871518, 49.7094145], [5.886986, 49.709311], [5.8868907, 49.7093438], [5.8865889, 49.7094576], [5.8863058, 49.7095726], [5.8859763, 49.7097093], [5.8858533, 49.7097728], [5.8848495, 49.7103358], [5.8841647, 49.7108098], [5.8839293, 49.7109969], [5.883627, 49.7112593], [5.8838102, 49.7113212], [5.8838858, 49.711349], [5.8841754, 49.7114557], [5.8844147, 49.7115509], [5.8841692, 49.7117843], [5.8841148, 49.7118381], [5.8839153, 49.7120358], [5.8835465, 49.712251], [5.8835084, 49.7122732], [5.8830618, 49.7125543], [5.8830442, 49.7126124], [5.8828828, 49.7125526], [5.8827686, 49.7125033], [5.8827599, 49.7125149], [5.8826035, 49.7127232], [5.8824592, 49.7129215], [5.8822243, 49.7132204], [5.882162, 49.7132896], [5.8819655, 49.7135079], [5.8823767, 49.7136144], [5.8831247, 49.7137714], [5.8838642, 49.7139345], [5.8839541, 49.7139732], [5.8839868, 49.7139873], [5.8843048, 49.7141243], [5.8839312, 49.714391], [5.8838554, 49.7144451], [5.8834505, 49.7147401], [5.8837376, 49.7149206], [5.8838336, 49.714981], [5.8840129, 49.7150937], [5.8840212, 49.7150989], [5.8842597, 49.7152485], [5.8843965, 49.7153413], [5.8845577, 49.7154509], [5.8845984, 49.7154791], [5.8848037, 49.7156219], [5.8848499, 49.715654], [5.8850277, 49.7157835], [5.8850557, 49.7158038], [5.8853084, 49.7159878], [5.8855701, 49.7161937], [5.8857959, 49.7163657], [5.8860671, 49.7165529], [5.8863837, 49.7167611], [5.8865112, 49.7171554], [5.8865714, 49.7172564], [5.886784, 49.7174679], [5.886899, 49.7177923], [5.8870301, 49.7179662], [5.8874331, 49.7184058], [5.8879106, 49.7189047], [5.8881593, 49.7191516], [5.8886956, 49.7197809], [5.8891971, 49.7204432], [5.8892561, 49.7204541], [5.889851, 49.7203874], [5.8899737, 49.7203781], [5.8901053, 49.7203922], [5.8903416, 49.7204216], [5.8905845, 49.7204593], [5.890755, 49.7204962], [5.8910958, 49.7205781], [5.8913498, 49.7206502], [5.8914477, 49.7206834], [5.8914989, 49.7207096], [5.8915611, 49.7207579], [5.8916187, 49.7208185], [5.8918968, 49.7211608], [5.8921792, 49.7215169], [5.8921838, 49.7215587], [5.8922436, 49.7219721], [5.8922685, 49.7221062], [5.8923295, 49.7222522], [5.8923595, 49.7223237], [5.8924369, 49.722495], [5.8943707, 49.7227793], [5.8944386, 49.7226063], [5.8954142, 49.7226904], [5.8958613, 49.7227292], [5.896343, 49.7227647], [5.8978285, 49.7228583], [5.8978803, 49.7228638], [5.8979196, 49.7228428], [5.8978572, 49.72337], [5.8978243, 49.7236432], [5.8978049, 49.7238548], [5.8977582, 49.7239564], [5.8977228, 49.7240226], [5.8976819, 49.7240831], [5.8976297, 49.7241496], [5.8975646, 49.7242212], [5.8974329, 49.7243516], [5.897354, 49.7244225], [5.8972653, 49.7245003], [5.8971299, 49.7246129], [5.896984, 49.7247314], [5.8968543, 49.7248334], [5.8966302, 49.7250002], [5.8964613, 49.7251123], [5.8967034, 49.725324], [5.8973507, 49.7258573], [5.8978579, 49.7261908], [5.8979589, 49.7262822], [5.8980573, 49.7264379], [5.8982179, 49.7266433], [5.8982959, 49.7267207], [5.898436, 49.7268317], [5.8986478, 49.7269873], [5.8988811, 49.7271486], [5.8994997, 49.7275795], [5.89956, 49.7276251], [5.9004708, 49.7281574], [5.9005928, 49.7282014], [5.9008686, 49.728238], [5.9011009, 49.7284505], [5.901243, 49.7285491], [5.901404, 49.7286607], [5.9013693, 49.7286814], [5.9017569, 49.7289511], [5.9020199, 49.7291314], [5.9022194, 49.7292738], [5.902647, 49.7295784], [5.9030308, 49.7298517], [5.9033052, 49.7300375], [5.9036259, 49.7302652], [5.9036812, 49.7303054], [5.9029273, 49.73072], [5.9017316, 49.7313452], [5.9017483, 49.731356], [5.9025933, 49.7318861], [5.9029897, 49.7321265], [5.9030881, 49.7321855], [5.9032565, 49.7322752], [5.9033842, 49.7323462], [5.9034141, 49.7323628], [5.904417, 49.7327589], [5.9042103, 49.733218], [5.904192, 49.7332586], [5.9042873, 49.7332964], [5.9043052, 49.7333441], [5.9043084, 49.7333685], [5.9042979, 49.7334062], [5.904424, 49.7334885], [5.9047133, 49.7336725], [5.9050386, 49.7338316], [5.9050751, 49.7338459], [5.9053043, 49.7339359], [5.9053359, 49.7339487], [5.9053947, 49.7339725], [5.9056395, 49.7340716], [5.9059812, 49.7342512], [5.9062465, 49.7344846], [5.9062883, 49.7345719], [5.9063148, 49.734581], [5.9063303, 49.7345927], [5.9063697, 49.734608], [5.9064055, 49.7346159], [5.9064225, 49.7346174], [5.9064476, 49.7346132], [5.9064572, 49.7346085], [5.9064658, 49.7346064], [5.906466, 49.7346137], [5.9064665, 49.7346216], [5.9064584, 49.7346566], [5.9064722, 49.7347209], [5.9064663, 49.7347626], [5.9064846, 49.7348338], [5.9064605, 49.7348659], [5.9064482, 49.7348738], [5.9064448, 49.734888], [5.9064414, 49.7349114], [5.9064511, 49.7349337], [5.9064527, 49.73495], [5.9064295, 49.7349682], [5.9064228, 49.7349905], [5.9064309, 49.7350159], [5.9064407, 49.7350372], [5.9064538, 49.7350514], [5.9064504, 49.7350636], [5.9064356, 49.7350717], [5.9064289, 49.7350808], [5.9064321, 49.7350991], [5.906432, 49.7351123], [5.9064188, 49.7351173], [5.9064007, 49.7351213], [5.9063859, 49.7351284], [5.9063775, 49.7351426], [5.9063824, 49.7351568], [5.9063938, 49.735173], [5.9063987, 49.7351852], [5.9063921, 49.7351913], [5.9063674, 49.7351973], [5.9063443, 49.7351942], [5.9063196, 49.7351891], [5.9062999, 49.7351911], [5.9062784, 49.7352032], [5.9062618, 49.7352225], [5.9062502, 49.7352458], [5.9062517, 49.7352661], [5.9062623, 49.7352864], [5.9062869, 49.7353108], [5.9063049, 49.7353311], [5.9063097, 49.7353545], [5.9063162, 49.7353707], [5.9063392, 49.735384], [5.9063655, 49.7353881], [5.9063852, 49.7353973], [5.9064033, 49.7354166], [5.9064097, 49.7354501], [5.9064128, 49.7354836], [5.9064242, 49.7355039], [5.9064488, 49.7355202], [5.9064619, 49.7355324], [5.9064602, 49.7355405], [5.9064454, 49.7355395], [5.9064306, 49.7355364], [5.906424, 49.7355435], [5.9064288, 49.7355678], [5.9064517, 49.7355943], [5.9064788, 49.7356166], [5.9064852, 49.735637], [5.9064687, 49.7356511], [5.9064637, 49.7356684], [5.9064735, 49.7356785], [5.9065014, 49.7356877], [5.9065212, 49.7356949], [5.906531, 49.7357071], [5.9065276, 49.7357182], [5.9065111, 49.7357273], [5.9065012, 49.7357425], [5.906501, 49.7357618], [5.9065174, 49.7357831], [5.9065371, 49.7357954], [5.9065716, 49.7358046], [5.9065947, 49.7358097], [5.9066078, 49.7358178], [5.9066077, 49.735832], [5.9065879, 49.7358442], [5.9065615, 49.7358522], [5.9065499, 49.7358664], [5.9065498, 49.7358928], [5.9070195, 49.7359076], [5.9076836, 49.7359286], [5.9077009, 49.7358821], [5.9077073, 49.7358649], [5.9077923, 49.7358831], [5.9080515, 49.7359384], [5.9083694, 49.7360112], [5.908801, 49.7361062], [5.9093056, 49.7361934], [5.9094754, 49.7361932], [5.9100536, 49.7361685], [5.9100538, 49.7361595], [5.9100522, 49.7358617], [5.9100642, 49.7355907], [5.9100584, 49.7355036], [5.9100544, 49.7354422], [5.9100261, 49.7351278], [5.9102091, 49.7351271], [5.9102439, 49.7352074], [5.911041, 49.7351951], [5.9111503, 49.735488], [5.9116075, 49.73554], [5.9116289, 49.7354999], [5.9118468, 49.7355405], [5.9120013, 49.7356178], [5.9120345, 49.7356558], [5.9120659, 49.7356971], [5.9119439, 49.735864], [5.9120331, 49.7358828], [5.9121263, 49.7359005], [5.913182, 49.7361012], [5.9132202, 49.7360587], [5.9132778, 49.7359946], [5.9133283, 49.7359384], [5.9133624, 49.7359013], [5.9133926, 49.7358682], [5.9135031, 49.7357471], [5.9135639, 49.7356763], [5.9136775, 49.73555], [5.9138644, 49.735342], [5.9140793, 49.735103], [5.914164, 49.7350228], [5.914297, 49.7351104], [5.914603, 49.7353182], [5.9148202, 49.7354751], [5.9148729, 49.7355093], [5.9153438, 49.7357122], [5.9155064, 49.7357856], [5.9157535, 49.7358839], [5.9162963, 49.7360806], [5.9163725, 49.7359875], [5.9164961, 49.7358364], [5.9166191, 49.7356861], [5.9168637, 49.7353871], [5.9168778, 49.7353661], [5.9171839, 49.7355141], [5.9172576, 49.7355795], [5.9175697, 49.7358005], [5.9180442, 49.7361092], [5.9180582, 49.7360983], [5.9181478, 49.7360323], [5.9181941, 49.7359982], [5.9183117, 49.7359116], [5.9184515, 49.7358087], [5.9186773, 49.7356425], [5.9187474, 49.7355827], [5.9194256, 49.7357901], [5.9197637, 49.7359004], [5.9199221, 49.7359633], [5.9201585, 49.736085], [5.9203242, 49.7361174], [5.9206212, 49.7362425], [5.9211421, 49.7357481], [5.9219141, 49.7360395], [5.9221156, 49.7361162], [5.9221444, 49.7361875], [5.9223969, 49.7361088], [5.922477, 49.7360835], [5.9226957, 49.7360145], [5.9227895, 49.7359849], [5.9227842, 49.7358968], [5.9227724, 49.7357561], [5.9227653, 49.7356467], [5.9227565, 49.7354717], [5.9227894, 49.7352762], [5.9230433, 49.7354509], [5.9231377, 49.7355111], [5.9232291, 49.7355566], [5.9232978, 49.7354539], [5.9233786, 49.7353331], [5.9235079, 49.7351398], [5.9235294, 49.7351078], [5.9236993, 49.7348538], [5.9242521, 49.7349255], [5.9259907, 49.7351543], [5.9259979, 49.7351378], [5.9260085, 49.7351132], [5.926027, 49.7350704], [5.9260514, 49.7350141], [5.9260866, 49.7349328], [5.9266291, 49.7350061], [5.9272864, 49.7350948], [5.9274631, 49.7351157], [5.9277582, 49.7352566], [5.9279347, 49.735341], [5.9282201, 49.7354792], [5.9284506, 49.7355895], [5.9286382, 49.7356757], [5.928766, 49.735724], [5.9288723, 49.7357598], [5.9295047, 49.7359596], [5.9295312, 49.735967], [5.9297794, 49.7356107], [5.9299027, 49.7354385], [5.9307144, 49.7357232], [5.9307268, 49.7357447], [5.9310083, 49.7358478], [5.9312424, 49.7359286], [5.9313927, 49.7359805], [5.9316399, 49.7360658], [5.9317589, 49.7361069], [5.9318818, 49.7361493], [5.9318959, 49.7361543], [5.9320646, 49.7362144], [5.9321459, 49.7362434], [5.9323104, 49.7363043], [5.932434, 49.7363501], [5.9325663, 49.736399], [5.9326923, 49.7364452], [5.9329682, 49.7365463], [5.9332383, 49.7366453], [5.9337511, 49.7368278], [5.9339624, 49.736903], [5.9340562, 49.7369363], [5.9341906, 49.7367869], [5.9343455, 49.7366066], [5.9344508, 49.7364826], [5.9345263, 49.7363874], [5.9345789, 49.7363198], [5.9346175, 49.7362701], [5.9346824, 49.7361836], [5.9347001, 49.73616], [5.9346487, 49.7361291], [5.9347707, 49.7359362], [5.934894, 49.7357391], [5.9349473, 49.7356539], [5.9349936, 49.7355799], [5.9350071, 49.7355602], [5.9354769, 49.734874], [5.9355439, 49.7347609], [5.9357875, 49.7343237], [5.9359018, 49.7341077], [5.9360965, 49.7337638], [5.9363606, 49.7332881], [5.9365347, 49.7330106], [5.9368065, 49.7326362], [5.93723, 49.7326434]]]}}]}