{"type": "FeatureCollection", "features": [{"type": "Feature", "properties": {"name": "Huttange"}, "geometry": {"type": "Polygon", "coordinates": [[[5.89956, 49.7276251], [5.8995273, 49.7276429], [5.8992246, 49.7278099], [5.8990178, 49.7279203], [5.8987103, 49.7277306], [5.8980952, 49.7273482], [5.8975477, 49.727691], [5.8975268, 49.7277381], [5.8975194, 49.7277482], [5.8974545, 49.7277425], [5.8974205, 49.7277336], [5.8973943, 49.7277095], [5.8973585, 49.7276697], [5.8973227, 49.727658], [5.8972611, 49.72764], [5.897224, 49.7276171], [5.8972022, 49.7275661], [5.8971659, 49.727544], [5.8970974, 49.727534], [5.8970479, 49.7275247], [5.8970249, 49.7275036], [5.8970362, 49.7274376], [5.8970409, 49.7273938], [5.8970218, 49.72736], [5.8969466, 49.7272794], [5.8968999, 49.7272253], [5.8965971, 49.7270491], [5.8963931, 49.7270159], [5.8962236, 49.7269504], [5.8962132, 49.7269576], [5.8957018, 49.727287], [5.8955408, 49.7273734], [5.8955171, 49.7273848], [5.895748, 49.7275953], [5.8958828, 49.7277257], [5.895975, 49.7278695], [5.8960794, 49.7280358], [5.8961987, 49.728248], [5.896222, 49.7282339], [5.8962755, 49.7282013], [5.8965601, 49.7284186], [5.8968101, 49.7286147], [5.8967796, 49.7286273], [5.8965551, 49.7287202], [5.8965115, 49.7287382], [5.8964314, 49.7287746], [5.8964179, 49.7287802], [5.8962783, 49.7288387], [5.8961494, 49.7288927], [5.8960176, 49.7289478], [5.8960175, 49.7289479], [5.896012, 49.7289504], [5.8958645, 49.7290189], [5.8958379, 49.7290313], [5.895639, 49.7291176], [5.8955329, 49.7291636], [5.8954973, 49.7291791], [5.8954852, 49.7291843], [5.8954664, 49.7291925], [5.8953187, 49.7292567], [5.8956331, 49.7295017], [5.8957504, 49.7295963], [5.8958891, 49.7297081], [5.8960169, 49.7298085], [5.8964699, 49.730164], [5.8969339, 49.7305258], [5.8969829, 49.7305605], [5.8970345, 49.730652], [5.8971201, 49.7307535], [5.8975798, 49.7311819], [5.8976517, 49.7312278], [5.8978833, 49.7314219], [5.897959, 49.7314853], [5.8977997, 49.7316242], [5.8977535, 49.7316645], [5.8974926, 49.7318919], [5.8972871, 49.7320853], [5.8973301, 49.7320978], [5.8973106, 49.7321542], [5.8972881, 49.732219], [5.897249, 49.7323321], [5.8971807, 49.7325292], [5.897141, 49.7326436], [5.89705, 49.7328151], [5.8970279, 49.7328764], [5.8956243, 49.7327731], [5.8956199, 49.7327953], [5.8955658, 49.7330691], [5.8955608, 49.7330945], [5.895547, 49.7331645], [5.8946633, 49.7330846], [5.8946492, 49.7331399], [5.8946244, 49.7332376], [5.894625, 49.7332982], [5.8946388, 49.7333538], [5.8948756, 49.7340248], [5.8948775, 49.7340361], [5.8943084, 49.7339879], [5.8934357, 49.733924], [5.8934333, 49.7339334], [5.8934219, 49.734071], [5.8933579, 49.7340651], [5.8928989, 49.7340228], [5.8928706, 49.7342401], [5.8928576, 49.7343427], [5.8928409, 49.7344748], [5.8928171, 49.7346636], [5.8925183, 49.7346741], [5.8925339, 49.7348658], [5.8925483, 49.7350261], [5.8925462, 49.7353275], [5.892543, 49.7358018], [5.8925488, 49.736265], [5.8925531, 49.7366118], [5.8925545, 49.7367189], [5.8925547, 49.7367492], [5.891729, 49.7363334], [5.8918895, 49.7366846], [5.8919546, 49.7368626], [5.891971, 49.7369849], [5.891959, 49.7375049], [5.8920139, 49.737904], [5.8920632, 49.738224], [5.892138, 49.7384724], [5.8922317, 49.7387431], [5.8923827, 49.739156], [5.8924282, 49.7392648], [5.8925443, 49.739485], [5.8927439, 49.7398078], [5.8927061, 49.7398114], [5.8915414, 49.7399137], [5.8908052, 49.7399774], [5.8909616, 49.739979], [5.89098, 49.740457], [5.8909777, 49.7406818], [5.8909588, 49.7408325], [5.8909278, 49.7409831], [5.8908757, 49.741167], [5.8907592, 49.7415459], [5.8909524, 49.7415982], [5.8913307, 49.7417081], [5.8914528, 49.7417435], [5.8917152, 49.7418197], [5.8918408, 49.7418562], [5.8919764, 49.7418955], [5.8921405, 49.7419432], [5.8924209, 49.742025], [5.892815, 49.7421399], [5.8929036, 49.7421657], [5.893175, 49.7422449], [5.8936649, 49.7423878], [5.8935091, 49.7425088], [5.8932338, 49.7427226], [5.8931007, 49.742826], [5.8930054, 49.7429], [5.8930513, 49.7429223], [5.8933414, 49.7430441], [5.8934965, 49.7431062], [5.8940747, 49.7433324], [5.8942573, 49.7433976], [5.8946349, 49.7435326], [5.8946944, 49.7435539], [5.8946462, 49.7436528], [5.8945921, 49.7437639], [5.8945753, 49.7437984], [5.8944547, 49.744046], [5.8944848, 49.7440615], [5.8944621, 49.7440754], [5.8948556, 49.7442605], [5.8951814, 49.744399], [5.8954197, 49.7444862], [5.8959728, 49.7446578], [5.8962254, 49.7447294], [5.8966225, 49.744842], [5.8972415, 49.744995], [5.8973301, 49.7450139], [5.8975304, 49.7450499], [5.8980456, 49.7451425], [5.8980663, 49.7450388], [5.8980779, 49.7449922], [5.898117, 49.7448354], [5.8981588, 49.7446676], [5.8981723, 49.7446231], [5.8982024, 49.7445234], [5.898235, 49.7444153], [5.898242, 49.7443923], [5.8982864, 49.7442573], [5.898333, 49.7441156], [5.8983367, 49.7441042], [5.8983523, 49.744057], [5.89837, 49.7440032], [5.8983895, 49.7439437], [5.8989787, 49.7440291], [5.8996581, 49.7441163], [5.9002036, 49.7441836], [5.9013384, 49.7443092], [5.901418, 49.7443173], [5.9016112, 49.7443369], [5.9016609, 49.7440801], [5.9017341, 49.7437023], [5.9017942, 49.7433992], [5.9018194, 49.7432432], [5.9018842, 49.742719], [5.9019948, 49.7427042], [5.9020215, 49.7427001], [5.902108, 49.742687], [5.9020991, 49.7419528], [5.9021021, 49.7417919], [5.9021139, 49.7415623], [5.9021362, 49.7411856], [5.9023055, 49.7411931], [5.9024778, 49.7412008], [5.9030556, 49.7412267], [5.903352, 49.74124], [5.9035735, 49.74125], [5.9036569, 49.7412537], [5.9037999, 49.7412602], [5.9038116, 49.7412607], [5.9040552, 49.7412716], [5.9041889, 49.7412776], [5.9045491, 49.7412938], [5.9046273, 49.7412973], [5.9047087, 49.7408787], [5.9049634, 49.7400398], [5.9049824, 49.7399664], [5.9053494, 49.7399961], [5.9056533, 49.740013], [5.9058497, 49.7400239], [5.9062027, 49.7400436], [5.9062466, 49.7400464], [5.9065405, 49.7400653], [5.9066508, 49.7400763], [5.9070803, 49.7401191], [5.9071666, 49.739949], [5.9072484, 49.7397879], [5.9073259, 49.7396351], [5.9074311, 49.7394277], [5.9075334, 49.7392261], [5.9076593, 49.7389781], [5.9077665, 49.7387668], [5.9085719, 49.7388564], [5.9092961, 49.738949], [5.9093585, 49.7389582], [5.9100518, 49.7390624], [5.9101095, 49.7388597], [5.9101449, 49.7387353], [5.9095811, 49.7385638], [5.9095784, 49.7385015], [5.909405, 49.7384625], [5.9094073, 49.7383966], [5.9094879, 49.7382492], [5.9095898, 49.7380626], [5.9096696, 49.7379165], [5.9097949, 49.7376872], [5.9098837, 49.7374486], [5.9099469, 49.7372789], [5.9100526, 49.7369951], [5.9100967, 49.7368766], [5.9102532, 49.7368963], [5.9103101, 49.736636], [5.9103131, 49.7366079], [5.9102782, 49.736175], [5.9102762, 49.7361498], [5.9102503, 49.7361519], [5.910208, 49.7361658], [5.9101512, 49.7361697], [5.9100536, 49.7361685], [5.9094754, 49.7361932], [5.9093056, 49.7361934], [5.908801, 49.7361062], [5.9083694, 49.7360112], [5.9080515, 49.7359384], [5.9077923, 49.7358831], [5.9077073, 49.7358649], [5.9077009, 49.7358821], [5.9076836, 49.7359286], [5.9070195, 49.7359076], [5.9065498, 49.7358928], [5.9065499, 49.7358664], [5.9065615, 49.7358522], [5.9065879, 49.7358442], [5.9066077, 49.735832], [5.9066078, 49.7358178], [5.9065947, 49.7358097], [5.9065716, 49.7358046], [5.9065371, 49.7357954], [5.9065174, 49.7357831], [5.906501, 49.7357618], [5.9065012, 49.7357425], [5.9065111, 49.7357273], [5.9065276, 49.7357182], [5.906531, 49.7357071], [5.9065212, 49.7356949], [5.9065014, 49.7356877], [5.9064735, 49.7356785], [5.9064637, 49.7356684], [5.9064687, 49.7356511], [5.9064852, 49.735637], [5.9064788, 49.7356166], [5.9064517, 49.7355943], [5.9064288, 49.7355678], [5.906424, 49.7355435], [5.9064306, 49.7355364], [5.9064454, 49.7355395], [5.9064602, 49.7355405], [5.9064619, 49.7355324], [5.9064488, 49.7355202], [5.9064242, 49.7355039], [5.9064128, 49.7354836], [5.9064097, 49.7354501], [5.9064033, 49.7354166], [5.9063852, 49.7353973], [5.9063655, 49.7353881], [5.9063392, 49.735384], [5.9063162, 49.7353707], [5.9063097, 49.7353545], [5.9063049, 49.7353311], [5.9062869, 49.7353108], [5.9062623, 49.7352864], [5.9062517, 49.7352661], [5.9062502, 49.7352458], [5.9062618, 49.7352225], [5.9062784, 49.7352032], [5.9062999, 49.7351911], [5.9063196, 49.7351891], [5.9063443, 49.7351942], [5.9063674, 49.7351973], [5.9063921, 49.7351913], [5.9063987, 49.7351852], [5.9063938, 49.735173], [5.9063824, 49.7351568], [5.9063775, 49.7351426], [5.9063859, 49.7351284], [5.9064007, 49.7351213], [5.9064188, 49.7351173], [5.906432, 49.7351123], [5.9064321, 49.7350991], [5.9064289, 49.7350808], [5.9064356, 49.7350717], [5.9064504, 49.7350636], [5.9064538, 49.7350514], [5.9064407, 49.7350372], [5.9064309, 49.7350159], [5.9064228, 49.7349905], [5.9064295, 49.7349682], [5.9064527, 49.73495], [5.9064511, 49.7349337], [5.9064414, 49.7349114], [5.9064448, 49.734888], [5.9064482, 49.7348738], [5.9064605, 49.7348659], [5.9064846, 49.7348338], [5.9064663, 49.7347626], [5.9064722, 49.7347209], [5.9064584, 49.7346566], [5.9064665, 49.7346216], [5.906466, 49.7346137], [5.9064658, 49.7346064], [5.9064572, 49.7346085], [5.9064476, 49.7346132], [5.9064225, 49.7346174], [5.9064055, 49.7346159], [5.9063697, 49.734608], [5.9063303, 49.7345927], [5.9063148, 49.734581], [5.9062883, 49.7345719], [5.9062465, 49.7344846], [5.9059812, 49.7342512], [5.9056395, 49.7340716], [5.9053947, 49.7339725], [5.9053359, 49.7339487], [5.9053043, 49.7339359], [5.9050751, 49.7338459], [5.9050386, 49.7338316], [5.9047133, 49.7336725], [5.904424, 49.7334885], [5.9042979, 49.7334062], [5.9043084, 49.7333685], [5.9043052, 49.7333441], [5.9042873, 49.7332964], [5.904192, 49.7332586], [5.9042103, 49.733218], [5.904417, 49.7327589], [5.9034141, 49.7323628], [5.9033842, 49.7323462], [5.9032565, 49.7322752], [5.9030881, 49.7321855], [5.9029897, 49.7321265], [5.9025933, 49.7318861], [5.9017483, 49.731356], [5.9017316, 49.7313452], [5.9029273, 49.73072], [5.9036812, 49.7303054], [5.9036259, 49.7302652], [5.9033052, 49.7300375], [5.9030308, 49.7298517], [5.902647, 49.7295784], [5.9022194, 49.7292738], [5.9020199, 49.7291314], [5.9017569, 49.7289511], [5.9013693, 49.7286814], [5.901404, 49.7286607], [5.901243, 49.7285491], [5.9011009, 49.7284505], [5.9008686, 49.728238], [5.9005928, 49.7282014], [5.9004708, 49.7281574], [5.89956, 49.7276251]]]}}]}