{"type": "FeatureCollection", "features": [{"type": "Feature", "properties": {"name": "Schweich"}, "geometry": {"type": "Polygon", "coordinates": [[[5.9399787, 49.730715], [5.9399877, 49.7307084], [5.9402634, 49.7305061], [5.9404239, 49.7305861], [5.9407675, 49.7307936], [5.9408958, 49.7308732], [5.9412648, 49.7311071], [5.9415692, 49.7312913], [5.9416249, 49.731325], [5.9419347, 49.7315124], [5.9419424, 49.7315175], [5.9424023, 49.7311351], [5.9427369, 49.7305744], [5.9430047, 49.7303043], [5.943632, 49.72915], [5.9437786, 49.7292257], [5.9440801, 49.7293242], [5.9443801, 49.7294007], [5.9447563, 49.7294904], [5.9450532, 49.7295559], [5.9453441, 49.7296054], [5.9455858, 49.7296339], [5.946494, 49.7297296], [5.9468357, 49.7297622], [5.9471301, 49.7292093], [5.9471023, 49.7291921], [5.9468435, 49.7290458], [5.9467921, 49.7290178], [5.9462281, 49.7287109], [5.9459439, 49.7285645], [5.9457833, 49.7284852], [5.9455927, 49.7284039], [5.9453221, 49.7283005], [5.9451644, 49.7282483], [5.9448506, 49.7281547], [5.9445661, 49.7280793], [5.9443792, 49.728033], [5.9443649, 49.7280295], [5.94455, 49.7277125], [5.94465, 49.7277377], [5.9446821, 49.7277297], [5.9455026, 49.7266673], [5.9457745, 49.7263091], [5.9457305, 49.7262991], [5.9454294, 49.7262304], [5.9453527, 49.7262112], [5.9451471, 49.7261596], [5.9448482, 49.7260845], [5.9448232, 49.7260786], [5.944759, 49.7260634], [5.9448283, 49.7259177], [5.9449044, 49.7257579], [5.9450147, 49.7255374], [5.9450293, 49.7255064], [5.9451228, 49.7253078], [5.945129, 49.7252918], [5.9451779, 49.7252139], [5.9452267, 49.7251334], [5.9452577, 49.7250792], [5.9452766, 49.7250328], [5.94529, 49.7249723], [5.9452993, 49.72493], [5.9452996, 49.7248556], [5.9452993, 49.7248047], [5.9452918, 49.7247136], [5.945292, 49.7246836], [5.9452656, 49.7245507], [5.9452506, 49.7244817], [5.9452232, 49.7243997], [5.9451918, 49.7243326], [5.9451759, 49.7242987], [5.9451386, 49.7242199], [5.9451168, 49.7241737], [5.9450725, 49.7241027], [5.9449678, 49.7239267], [5.9449261, 49.7239506], [5.9444072, 49.7238997], [5.9441672, 49.7238762], [5.9439996, 49.7238486], [5.9439094, 49.7238337], [5.9437141, 49.7237854], [5.9433854, 49.7236597], [5.9435559, 49.7235133], [5.9437075, 49.7233827], [5.9437762, 49.7233238], [5.9438536, 49.7232576], [5.943875, 49.7232393], [5.9439881, 49.7231425], [5.9440804, 49.7230653], [5.9442289, 49.7229412], [5.9444014, 49.7227971], [5.9445809, 49.7226471], [5.9445409, 49.7226089], [5.9444391, 49.7225119], [5.9443578, 49.7224368], [5.9442458, 49.7223467], [5.9441683, 49.7222926], [5.9439303, 49.7221383], [5.9437315, 49.72201], [5.9435351, 49.7218804], [5.9433675, 49.7217698], [5.9432517, 49.7216934], [5.9431526, 49.7216295], [5.9428046, 49.7214051], [5.9427247, 49.7213536], [5.9428407, 49.7212273], [5.9431217, 49.7209218], [5.9432068, 49.7208296], [5.9432498, 49.7207829], [5.9433869, 49.7206345], [5.9435979, 49.7204058], [5.9435077, 49.720349], [5.9434217, 49.7202978], [5.9433849, 49.7202758], [5.9432589, 49.7202067], [5.9432031, 49.720178], [5.9431435, 49.7201474], [5.9431174, 49.7201314], [5.9430652, 49.7201083], [5.9429391, 49.7200571], [5.9429207, 49.7200511], [5.9429022, 49.7200391], [5.9428686, 49.7199901], [5.9428457, 49.719945], [5.9428135, 49.719918], [5.9426099, 49.7198097], [5.9425062, 49.7197566], [5.9422934, 49.7196622], [5.9420844, 49.7195709], [5.9417125, 49.7194093], [5.9415211, 49.719324], [5.9414967, 49.719272], [5.9414893, 49.719217], [5.941468, 49.719165], [5.9414284, 49.7190661], [5.9414018, 49.7189911], [5.9413577, 49.7188044], [5.9413497, 49.7187702], [5.9413035, 49.7187651], [5.9411988, 49.7187579], [5.9411126, 49.7187497], [5.9410049, 49.7187355], [5.9409448, 49.7187344], [5.9408185, 49.7187422], [5.9406838, 49.7187429], [5.9405806, 49.7187417], [5.9405129, 49.7187286], [5.9404667, 49.7187255], [5.9403975, 49.7187224], [5.9403528, 49.7187233], [5.9403158, 49.7187302], [5.9402326, 49.718735], [5.9401803, 49.7187349], [5.9401418, 49.7187239], [5.9400988, 49.7187088], [5.9400634, 49.7187017], [5.9399055, 49.7187104], [5.9398686, 49.7187063], [5.939847, 49.7187013], [5.9398224, 49.7186972], [5.939787, 49.7186972], [5.9397115, 49.718707], [5.9396252, 49.7187238], [5.9395976, 49.718739], [5.9395635, 49.7187527], [5.9395327, 49.7187526], [5.9394958, 49.7187406], [5.9394712, 49.7187355], [5.939448, 49.7187485], [5.9394248, 49.7187584], [5.9394018, 49.7187574], [5.9393987, 49.7187504], [5.9393911, 49.7187334], [5.9393819, 49.7187284], [5.9393711, 49.7187283], [5.939348, 49.7187343], [5.9392555, 49.7187411], [5.9391508, 49.7187419], [5.9390892, 49.7187398], [5.9390461, 49.7187387], [5.9390168, 49.7187456], [5.9389769, 49.7187556], [5.9389413, 49.7187644], [5.9388935, 49.7187703], [5.9388581, 49.7187703], [5.9387981, 49.7187602], [5.938715, 49.718748], [5.9386488, 49.7187419], [5.9386118, 49.7187428], [5.9384685, 49.7187735], [5.9384532, 49.7187605], [5.9384378, 49.7187495], [5.9384024, 49.7187394], [5.9383901, 49.7187404], [5.9383436, 49.7187562], [5.9383096, 49.7187702], [5.9382819, 49.7187781], [5.9382588, 49.7187771], [5.9382434, 49.718769], [5.9382174, 49.718741], [5.9381959, 49.718723], [5.938179, 49.718717], [5.9381575, 49.7187139], [5.9381051, 49.7187088], [5.9380759, 49.7186988], [5.9380407, 49.7186627], [5.9380192, 49.7186467], [5.9379884, 49.7186376], [5.9379423, 49.7186256], [5.9378992, 49.7186185], [5.9378454, 49.7186064], [5.9377915, 49.7185913], [5.9377531, 49.7185742], [5.9376955, 49.7185431], [5.9376679, 49.7185311], [5.937634, 49.718518], [5.9376002, 49.718516], [5.9375555, 49.7185119], [5.9374585, 49.7185127], [5.9374093, 49.7185076], [5.9373831, 49.7184956], [5.9373248, 49.7184665], [5.9372832, 49.7184604], [5.9372355, 49.7184533], [5.9371878, 49.7184542], [5.9371493, 49.7184442], [5.9370878, 49.718422], [5.937054, 49.718411], [5.9370217, 49.7184039], [5.9369678, 49.7184028], [5.9369355, 49.7184028], [5.9369109, 49.7183967], [5.9368502, 49.7183696], [5.9368179, 49.7183586], [5.9367932, 49.7183585], [5.9367563, 49.7183624], [5.9367116, 49.7183624], [5.9366747, 49.7183603], [5.9366501, 49.7183522], [5.9366071, 49.7183172], [5.9365672, 49.7182901], [5.9365042, 49.718268], [5.9364611, 49.7182599], [5.9364011, 49.7182518], [5.9363318, 49.7182437], [5.9362149, 49.7182135], [5.9361903, 49.7182074], [5.9361688, 49.7182044], [5.9361241, 49.7182033], [5.935994, 49.7182101], [5.9359448, 49.718201], [5.935854, 49.7181768], [5.9358171, 49.7181657], [5.9357909, 49.7181627], [5.9357648, 49.7181626], [5.9357324, 49.7181676], [5.9356646, 49.7181744], [5.9355969, 49.7181773], [5.9355322, 49.7181702], [5.9354861, 49.7181571], [5.9354139, 49.718123], [5.9353616, 49.7180969], [5.935334, 49.7180848], [5.9352909, 49.7180748], [5.9351716, 49.7180625], [5.9350808, 49.7180634], [5.9350222, 49.7180672], [5.9349392, 49.7180511], [5.9348038, 49.7180108], [5.9347147, 49.7179837], [5.9346208, 49.7179595], [5.9345609, 49.7179464], [5.9344885, 49.7179363], [5.9343139, 49.7179159], [5.9341538, 49.7178956], [5.9340399, 49.7178754], [5.9339046, 49.7178402], [5.9336618, 49.7177408], [5.9334059, 49.7176284], [5.9333568, 49.7176073], [5.9331186, 49.7175029], [5.933054, 49.7174778], [5.9330356, 49.7174748], [5.9330156, 49.7174717], [5.932994, 49.7174717], [5.9329154, 49.7174765], [5.9328123, 49.7174803], [5.9327661, 49.7174762], [5.9322483, 49.7173001], [5.9323905, 49.7171177], [5.9325239, 49.7169466], [5.9325481, 49.7169155], [5.9328645, 49.7165098], [5.9330277, 49.7163004], [5.9331932, 49.7160882], [5.9332608, 49.7160015], [5.9333387, 49.7159015], [5.9334033, 49.7158188], [5.9322242, 49.7154821], [5.9317702, 49.7154103], [5.931727, 49.7154035], [5.9315117, 49.7153427], [5.9313749, 49.7153041], [5.9307146, 49.7150374], [5.9305281, 49.7149622], [5.9304658, 49.7149369], [5.9301171, 49.7147955], [5.9300932, 49.7147865], [5.9296403, 49.7146162], [5.9290623, 49.7143987], [5.928544, 49.7142038], [5.9271751, 49.7136957], [5.9265391, 49.7135015], [5.9261531, 49.7133792], [5.9253733, 49.7131321], [5.925511, 49.712896], [5.9252814, 49.7128859], [5.9250483, 49.7128757], [5.9248175, 49.7128656], [5.92469, 49.712847], [5.9245072, 49.7128204], [5.9242645, 49.7127851], [5.9240955, 49.7127605], [5.9240643, 49.712753], [5.9238498, 49.7127017], [5.923653, 49.7126547], [5.9236035, 49.7126428], [5.9233824, 49.7125446], [5.9233676, 49.712538], [5.9232207, 49.7124519], [5.9230817, 49.71237], [5.9228121, 49.7122112], [5.9225845, 49.7120771], [5.9225508, 49.7120572], [5.9220072, 49.711641], [5.9214154, 49.7110976], [5.9213161, 49.7111387], [5.9212419, 49.7111593], [5.9211518, 49.7109991], [5.9211211, 49.7108764], [5.9211282, 49.7107965], [5.9211716, 49.710451], [5.9211989, 49.7103173], [5.921315, 49.7101476], [5.9214882, 49.7099882], [5.9217677, 49.7098232], [5.9219921, 49.7097104], [5.9221716, 49.7096352], [5.9222641, 49.7096066], [5.9223561, 49.7095748], [5.9225673, 49.7095263], [5.9229455, 49.7094751], [5.9232721, 49.7094418], [5.9235916, 49.7094205], [5.9237517, 49.7094328], [5.9239255, 49.7094612], [5.9240316, 49.7094904], [5.9244012, 49.7096231], [5.9246087, 49.7096964], [5.924804, 49.7097458], [5.9249701, 49.7097761], [5.9251617, 49.7097885], [5.9253473, 49.7097829], [5.9255391, 49.7097513], [5.9258058, 49.7096949], [5.9261195, 49.7096126], [5.9263537, 49.7095333], [5.9265406, 49.7094537], [5.9268102, 49.7093031], [5.9269948, 49.7091708], [5.9270963, 49.7090803], [5.9272235, 49.7089497], [5.9274187, 49.7087255], [5.9275383, 49.7085739], [5.9276531, 49.7084178], [5.9279, 49.7081043], [5.9280009, 49.7079575], [5.9280765, 49.7079343], [5.9281589, 49.7077917], [5.9281749, 49.7077642], [5.9281899, 49.7077382], [5.9282226, 49.7076817], [5.9280841, 49.7074861], [5.9277808, 49.7070576], [5.9277802, 49.7067552], [5.9277801, 49.7067252], [5.9277799, 49.7065918], [5.9277795, 49.7064091], [5.9277899, 49.706371], [5.9279408, 49.7058162], [5.9281222, 49.7051498], [5.9280688, 49.7050632], [5.9278365, 49.7046858], [5.9277566, 49.7043517], [5.927723, 49.7042113], [5.9276986, 49.7040526], [5.9277233, 49.7035994], [5.927495, 49.7035399], [5.9274557, 49.7035256], [5.9271991, 49.7034325], [5.9271654, 49.7034203], [5.9267362, 49.7032646], [5.9265713, 49.7032048], [5.9260532, 49.7030188], [5.9257787, 49.7029335], [5.9254754, 49.7028377], [5.9250326, 49.7027094], [5.9246205, 49.7026395], [5.9244854, 49.7026642], [5.9241321, 49.7027325], [5.9237207, 49.7028865], [5.9234431, 49.7030899], [5.9232971, 49.7031957], [5.9228616, 49.7034811], [5.9227615, 49.7035463], [5.9227556, 49.7035594], [5.9226585, 49.7037741], [5.9225762, 49.7039638], [5.9225928, 49.7040444], [5.9226489, 49.7043243], [5.9226522, 49.7043409], [5.9226524, 49.704346], [5.922664, 49.7046856], [5.9227888, 49.704847], [5.9228478, 49.7049183], [5.922815, 49.7050364], [5.9227605, 49.7051814], [5.922687, 49.7052367], [5.9226457, 49.7052677], [5.9225953, 49.7053056], [5.9225563, 49.7052846], [5.9224819, 49.7052405], [5.9224244, 49.7052048], [5.9221621, 49.7050504], [5.9220407, 49.7049545], [5.9218075, 49.704752], [5.9217349, 49.704686], [5.9216475, 49.7046352], [5.9211924, 49.7043507], [5.9206552, 49.7044207], [5.9201886, 49.704403], [5.9196423, 49.7043851], [5.9193942, 49.7043679], [5.9192646, 49.7043389], [5.9188433, 49.7042443], [5.9184446, 49.7042079], [5.9180572, 49.7041955], [5.9180046, 49.7041964], [5.9176462, 49.7042616], [5.9172305, 49.7043171], [5.9169283, 49.7043552], [5.9167212, 49.7043704], [5.916615, 49.7041299], [5.9165905, 49.7040946], [5.9164571, 49.7039761], [5.9163188, 49.7038652], [5.9161754, 49.7037551], [5.9159169, 49.7036274], [5.9154817, 49.7034444], [5.9152699, 49.7033781], [5.91513, 49.7033372], [5.9146487, 49.703218], [5.9145233, 49.7031821], [5.9139254, 49.7032917], [5.9137302, 49.7033308], [5.9134444, 49.7036102], [5.913151, 49.7038984], [5.9129816, 49.7040676], [5.9129235, 49.7041212], [5.9128359, 49.704202], [5.9126866, 49.7043467], [5.9126105, 49.7044203], [5.9124788, 49.7045437], [5.9123571, 49.7046487], [5.9123411, 49.7046625], [5.9122994, 49.7046985], [5.9122189, 49.7047602], [5.9121818, 49.7047887], [5.9120681, 49.7048705], [5.9119756, 49.7049416], [5.9117408, 49.7049359], [5.9112648, 49.7054204], [5.9109179, 49.7057455], [5.9101198, 49.7065915], [5.9099385, 49.7068077], [5.9098666, 49.7069392], [5.9097967, 49.7071479], [5.9097537, 49.7073988], [5.9097209, 49.7075634], [5.9097155, 49.7076512], [5.909736, 49.7079656], [5.9098091, 49.7082955], [5.9097512, 49.7083032], [5.9097485, 49.7083769], [5.9097513, 49.7084535], [5.9097584, 49.7085656], [5.9097742, 49.7086555], [5.9097903, 49.7087174], [5.9098204, 49.7087987], [5.909858, 49.7088734], [5.9099174, 49.7089743], [5.9099823, 49.7090805], [5.9100436, 49.7091762], [5.9100898, 49.7091686], [5.9102184, 49.7095692], [5.910373, 49.7100107], [5.910435, 49.7102084], [5.9103926, 49.7102164], [5.910395, 49.7103648], [5.9104958, 49.7103906], [5.9105196, 49.7104061], [5.9109456, 49.7107991], [5.9110514, 49.7108967], [5.9112721, 49.7111912], [5.9114405, 49.7114159], [5.9114825, 49.7114845], [5.9116354, 49.7117336], [5.9117119, 49.7118583], [5.9123937, 49.7124707], [5.9125105, 49.712575], [5.9128303, 49.7128607], [5.913045, 49.7130319], [5.9131151, 49.7130878], [5.9135054, 49.7133878], [5.9136285, 49.7134805], [5.9137973, 49.7136077], [5.913907, 49.7136555], [5.9143468, 49.7142277], [5.9143392, 49.7143168], [5.9143948, 49.7149721], [5.9144162, 49.7151729], [5.9146813, 49.7158682], [5.9149065, 49.7162114], [5.9151015, 49.7166806], [5.9151414, 49.7167767], [5.9148211, 49.7168673], [5.9144954, 49.7169595], [5.9142166, 49.7170383], [5.9139528, 49.717113], [5.9136908, 49.7171871], [5.9136609, 49.7171956], [5.9134841, 49.7172456], [5.9134603, 49.7173224], [5.9134695, 49.7174245], [5.9135056, 49.7176155], [5.9135661, 49.7177856], [5.913686, 49.7181198], [5.9137861, 49.7183961], [5.9138947, 49.7187229], [5.9139323, 49.7188662], [5.9139662, 49.7191075], [5.914028, 49.7195583], [5.9141421, 49.7200465], [5.9142212, 49.7201546], [5.9142695, 49.7206486], [5.9142909, 49.7207948], [5.9143734, 49.721359], [5.9157269, 49.7216086], [5.9156845, 49.7218295], [5.9156308, 49.7221089], [5.9156271, 49.7221281], [5.9154426, 49.7221187], [5.915304, 49.7223615], [5.9164448, 49.7224941], [5.9165592, 49.722391], [5.9166203, 49.7225547], [5.9166859, 49.7227305], [5.9170683, 49.7227169], [5.9172168, 49.7227116], [5.9175241, 49.7228562], [5.9179716, 49.7230439], [5.9180111, 49.7230448], [5.918098, 49.7230703], [5.9182393, 49.7231059], [5.9185083, 49.7231644], [5.918722, 49.7232093], [5.9189132, 49.7232701], [5.9190409, 49.7233188], [5.9192396, 49.7234194], [5.9193297, 49.7234624], [5.9194768, 49.723513], [5.9196169, 49.7235599], [5.9198542, 49.7236469], [5.9201469, 49.7237564], [5.920453, 49.7234537], [5.9204921, 49.7234611], [5.9205117, 49.7234677], [5.9206873, 49.7235271], [5.9208597, 49.7235855], [5.9211744, 49.7236919], [5.9211223, 49.7237767], [5.9210752, 49.7238535], [5.921059, 49.7238799], [5.9210543, 49.7238876], [5.9210444, 49.7238971], [5.9211318, 49.7239352], [5.9212178, 49.7239386], [5.9212582, 49.7239418], [5.9212898, 49.7239519], [5.9213441, 49.7239708], [5.921382, 49.7239763], [5.9214478, 49.7239733], [5.9214983, 49.7239781], [5.9215513, 49.7240047], [5.9215701, 49.7240258], [5.9215713, 49.7240562], [5.9215647, 49.7241014], [5.9215823, 49.7241217], [5.9216139, 49.7241365], [5.9216713, 49.7241472], [5.9217269, 49.7241527], [5.9217902, 49.724149], [5.9218269, 49.7241405], [5.9218497, 49.7241288], [5.9218739, 49.7240938], [5.9219045, 49.7240526], [5.9219286, 49.7240425], [5.9219627, 49.7240434], [5.9219879, 49.7240574], [5.9220131, 49.7240863], [5.9220167, 49.7241175], [5.9220039, 49.7241502], [5.9219949, 49.724179], [5.9220011, 49.724204], [5.9220237, 49.7242227], [5.9220503, 49.724229], [5.9220895, 49.7242236], [5.92213, 49.724212], [5.9221846, 49.7241952], [5.9222139, 49.7241943], [5.9222877, 49.7242104], [5.9223385, 49.7242205], [5.9223632, 49.7242206], [5.9224202, 49.7242127], [5.9224948, 49.7242188], [5.9225564, 49.724218], [5.9226134, 49.7242151], [5.9226627, 49.7242242], [5.9226765, 49.7242282], [5.9226857, 49.7242372], [5.9226918, 49.7242462], [5.9226887, 49.7242632], [5.9226808, 49.7242892], [5.9226885, 49.7243032], [5.9227023, 49.7243102], [5.9228392, 49.7243425], [5.9230253, 49.7243848], [5.9231161, 49.7244], [5.9232162, 49.7244072], [5.9233324, 49.7244124], [5.9235095, 49.7244158], [5.9236081, 49.72442], [5.9236866, 49.7244302], [5.9237742, 49.7244513], [5.9239249, 49.7245066], [5.924014, 49.7245418], [5.9241807, 49.724624], [5.9243036, 49.7246832], [5.9243728, 49.7247114], [5.9244958, 49.7247406], [5.9246574, 49.7247709], [5.9250328, 49.7248416], [5.9253214, 49.7248932], [5.9257895, 49.7249747], [5.9259365, 49.7250008], [5.9259427, 49.7250018], [5.925991, 49.72501], [5.9260213, 49.725015], [5.9260609, 49.725021], [5.9261513, 49.7250415], [5.9261598, 49.725043], [5.9263578, 49.7250774], [5.9271049, 49.7252073], [5.9271283, 49.7252618], [5.9271337, 49.7252686], [5.927192, 49.7253137], [5.927212, 49.7253217], [5.9272274, 49.7253238], [5.9272428, 49.7253208], [5.9272644, 49.7253148], [5.9273385, 49.725288], [5.927357, 49.7252841], [5.9273877, 49.7252961], [5.9274246, 49.7253142], [5.9274453, 49.7253342], [5.9274606, 49.7253522], [5.9274682, 49.7253742], [5.9274604, 49.7254002], [5.9274525, 49.7254241], [5.9274509, 49.7254361], [5.92746, 49.7254681], [5.9274891, 49.7255061], [5.9275228, 49.7255422], [5.9275489, 49.7255512], [5.9275874, 49.7255553], [5.9276213, 49.7255594], [5.9276366, 49.7255664], [5.9276535, 49.7255864], [5.9276657, 49.7256084], [5.9276694, 49.7256414], [5.9276877, 49.7256834], [5.9277137, 49.7257214], [5.927729, 49.7257354], [5.9277536, 49.7257425], [5.9278167, 49.7257566], [5.9278597, 49.7257747], [5.9278873, 49.7257947], [5.9279164, 49.7258267], [5.9279302, 49.7258537], [5.9279301, 49.7258707], [5.9279208, 49.7258887], [5.927913, 49.7259047], [5.9279528, 49.7259577], [5.9280393, 49.7260468], [5.9281389, 49.7261659], [5.9281848, 49.7262269], [5.9281932, 49.7262679], [5.9282039, 49.7262839], [5.9282146, 49.7263069], [5.9282145, 49.7263269], [5.9282252, 49.7263459], [5.9282482, 49.72636], [5.9282667, 49.726368], [5.9282774, 49.726377], [5.9282835, 49.726389], [5.9282842, 49.726402], [5.9282718, 49.72641], [5.9282702, 49.7264289], [5.9282748, 49.7264439], [5.9282823, 49.7264549], [5.9282977, 49.726477], [5.9283115, 49.726488], [5.9283545, 49.726516], [5.9283929, 49.7265301], [5.9284268, 49.7265312], [5.9284823, 49.7265263], [5.928527, 49.7265214], [5.9285685, 49.7265255], [5.9286178, 49.7265386], [5.9286716, 49.7265537], [5.928707, 49.7265547], [5.928718, 49.7265538], [5.9287369, 49.7265418], [5.9288162, 49.726542], [5.9288578, 49.72655], [5.9289562, 49.7265862], [5.9290392, 49.7266154], [5.9291238, 49.7266425], [5.9292007, 49.7266557], [5.9292623, 49.7266628], [5.9292854, 49.7266598], [5.9293331, 49.7266569], [5.9293747, 49.726657], [5.9294024, 49.7266701], [5.9294669, 49.7267022], [5.9294961, 49.7267122], [5.9295685, 49.7267253], [5.9295961, 49.7267374], [5.9296845, 49.7267715], [5.9297584, 49.7267817], [5.9298506, 49.7268138], [5.9299076, 49.72682], [5.9299537, 49.726843], [5.9300059, 49.7268751], [5.9300581, 49.7269082], [5.9301012, 49.7269233], [5.9301273, 49.7269263], [5.9301843, 49.7269244], [5.9302444, 49.7269236], [5.9303029, 49.7269287], [5.9303583, 49.7269408], [5.930389, 49.7269588], [5.9304451, 49.7269859], [5.9304804, 49.727], [5.9305251, 49.727007], [5.9305805, 49.7270072], [5.9306282, 49.7270093], [5.9307374, 49.7270415], [5.9307913, 49.7270526], [5.9309175, 49.7270628], [5.9310145, 49.727078], [5.9311516, 49.7270733], [5.9313726, 49.7270807], [5.9314788, 49.7270859], [5.9315327, 49.727085], [5.9316513, 49.7270813], [5.9317268, 49.7270744], [5.9318208, 49.7270626], [5.9319272, 49.7270449], [5.9319534, 49.7270359], [5.9320013, 49.7270141], [5.9320198, 49.7269981], [5.9320439, 49.7269652], [5.9320624, 49.7269462], [5.9320856, 49.7269353], [5.9321241, 49.7269294], [5.9321703, 49.7269285], [5.9322396, 49.7269336], [5.932315, 49.7269428], [5.9324428, 49.726965], [5.9325074, 49.7269791], [5.9325535, 49.7270032], [5.9325888, 49.7270202], [5.9326334, 49.7270303], [5.9326812, 49.7270354], [5.9327304, 49.7270405], [5.9327581, 49.7270496], [5.9327811, 49.7270596], [5.932798, 49.7270706], [5.9328072, 49.7270846], [5.9328156, 49.7271086], [5.9328339, 49.7271286], [5.9328524, 49.7271377], [5.9328832, 49.7271337], [5.9329202, 49.7271228], [5.9329434, 49.7271029], [5.9329635, 49.7270959], [5.9329896, 49.7271], [5.9330004, 49.727104], [5.9330219, 49.727127], [5.9330479, 49.7271491], [5.9330772, 49.7271601], [5.9331156, 49.7271692], [5.9332002, 49.7271893], [5.9332402, 49.7272064], [5.933257, 49.7272284], [5.9332631, 49.7272504], [5.9332769, 49.7272584], [5.9332984, 49.7272645], [5.9333307, 49.7272715], [5.9333738, 49.7272746], [5.9334, 49.7272797], [5.9334169, 49.7272967], [5.9334183, 49.7273127], [5.933409, 49.7273286], [5.9333997, 49.7273416], [5.9334043, 49.7273546], [5.9334196, 49.7273656], [5.9334427, 49.7273707], [5.9334565, 49.7273797], [5.9334633, 49.7273997], [5.9334525, 49.7274126], [5.9334325, 49.7274186], [5.9334016, 49.7274315], [5.9333769, 49.7274465], [5.9333459, 49.7274814], [5.9333056, 49.7275272], [5.9332653, 49.7275961], [5.9332436, 49.72762], [5.9332065, 49.7276489], [5.9331894, 49.7276759], [5.9331931, 49.7277079], [5.9332145, 49.7277339], [5.9332345, 49.7277479], [5.9332883, 49.727776], [5.9333252, 49.7277861], [5.9333606, 49.7277821], [5.9333884, 49.7277722], [5.933444, 49.7277423], [5.9334872, 49.7277184], [5.9335181, 49.7277095], [5.9335473, 49.7277076], [5.9335827, 49.7277156], [5.9336011, 49.7277287], [5.9336088, 49.7277427], [5.9336056, 49.7277586], [5.9335978, 49.7277906], [5.9335976, 49.7278156], [5.9336159, 49.7278626], [5.9336481, 49.7278936], [5.93399, 49.7280582], [5.9341268, 49.7281244], [5.9343972, 49.7282528], [5.9344264, 49.7282708], [5.9344339, 49.7283038], [5.934453, 49.7283359], [5.9344715, 49.7283499], [5.9344976, 49.7283499], [5.9345392, 49.728346], [5.9345762, 49.7283391], [5.9346039, 49.7283421], [5.9346224, 49.7283562], [5.9346285, 49.7283662], [5.9346254, 49.7283742], [5.9346068, 49.7283861], [5.9345944, 49.7283991], [5.9345928, 49.7284101], [5.9346067, 49.7284181], [5.9346236, 49.7284241], [5.9346713, 49.7284332], [5.9347205, 49.7284543], [5.9347481, 49.7284723], [5.9347696, 49.7284903], [5.9347894, 49.7285323], [5.9348124, 49.7285644], [5.9348806, 49.7286284], [5.9349312, 49.7286745], [5.9349911, 49.7287016], [5.9350987, 49.7287508], [5.9352461, 49.728846], [5.9355003, 49.7290074], [5.9355279, 49.7290254], [5.9355601, 49.7290624], [5.9355831, 49.7290864], [5.9356292, 49.7291045], [5.9356892, 49.7291076], [5.9357354, 49.7291147], [5.9357785, 49.7291318], [5.9358445, 49.7291749], [5.9359971, 49.7292991], [5.9360785, 49.7293492], [5.9361247, 49.7293673], [5.936177, 49.7293754], [5.936214, 49.7293715], [5.936251, 49.7293585], [5.9362864, 49.7293536], [5.9363342, 49.7293567], [5.9364127, 49.7293738], [5.9364727, 49.729369], [5.9365575, 49.7293561], [5.9366068, 49.7293483], [5.9366592, 49.7293583], [5.9367084, 49.7293784], [5.9367405, 49.7294135], [5.9367749, 49.7294685], [5.9368132, 49.7295095], [5.9368577, 49.7295436], [5.93691, 49.7295767], [5.9369791, 49.7296168], [5.9370113, 49.7296518], [5.9370479, 49.7297188], [5.9370755, 49.7297418], [5.9371262, 49.7297619], [5.9371734, 49.7297689], [5.9372151, 49.7297827], [5.9372818, 49.7298214], [5.9373415, 49.7298516], [5.9373734, 49.7298774], [5.9373927, 49.7299143], [5.9373981, 49.7299392], [5.937412, 49.7299546], [5.9374328, 49.729959], [5.9374941, 49.7299599], [5.9375428, 49.7299609], [5.9375776, 49.7299678], [5.9376193, 49.7299842], [5.9376526, 49.7299928], [5.9377222, 49.7300007], [5.9377758, 49.7300089], [5.9378035, 49.7300244], [5.9378201, 49.7300451], [5.9378325, 49.7300794], [5.9378505, 49.7301086], [5.9378907, 49.730131], [5.937938, 49.7301388], [5.9379784, 49.7301406], [5.9380104, 49.7301475], [5.9380396, 49.7301476], [5.9380619, 49.7301364], [5.9380871, 49.7301159], [5.9381038, 49.7301117], [5.9381316, 49.7301134], [5.9381455, 49.7301237], [5.938144, 49.7301426], [5.9381621, 49.7301572], [5.9381843, 49.7301667], [5.9382205, 49.7301659], [5.938279, 49.7301549], [5.9383069, 49.7301455], [5.9383125, 49.7301327], [5.9383056, 49.7301155], [5.9383085, 49.7301009], [5.9383182, 49.7300966], [5.9383308, 49.7300941], [5.9383516, 49.7301044], [5.938378, 49.7301276], [5.9383946, 49.7301431], [5.9384182, 49.7301492], [5.9384433, 49.7301518], [5.9384913, 49.7301395], [5.938522, 49.7301327], [5.9385499, 49.7301344], [5.9385707, 49.730149], [5.9385816, 49.7301911], [5.9385968, 49.7302048], [5.9386163, 49.7302066], [5.9386581, 49.730205], [5.9386971, 49.7302093], [5.9387429, 49.7302266], [5.9388347, 49.7302371], [5.938882, 49.7302431], [5.9389404, 49.7302673], [5.9392161, 49.7304063], [5.9393355, 49.7304657], [5.9397036, 49.7306329], [5.9397786, 49.7306656], [5.939844, 49.7306786], [5.9399219, 49.7306976], [5.9399787, 49.730715]]]}}]}