{"type": "FeatureCollection", "features": [{"type": "Feature", "properties": {"name": "Conzefenn", "kind": "nature_reserve"}, "geometry": {"type": "Polygon", "coordinates": [[[6.0321665, 50.1470947], [6.0322062, 50.1472003], [6.0326144, 50.1473833], [6.0335342, 50.1477957], [6.0343029, 50.1481403], [6.0345024, 50.1481503], [6.0351785, 50.1482792], [6.0360515, 50.1483907], [6.03674, 50.1484974], [6.0372277, 50.1485395], [6.037617, 50.1485767], [6.0378357, 50.1486023], [6.0384034, 50.1486815], [6.0386717, 50.1487042], [6.0393118, 50.1487832], [6.0405352, 50.1489807], [6.0405962, 50.148999], [6.0411321, 50.14916], [6.0414559, 50.1492964], [6.041731, 50.1494391], [6.0419547, 50.1495731], [6.0420981, 50.1496826], [6.042668, 50.1501178], [6.0427345, 50.1501616], [6.0427835, 50.1504669], [6.0429249, 50.1506577], [6.0429375, 50.1510172], [6.0428734, 50.151156], [6.0428223, 50.1512555], [6.0431125, 50.1520142], [6.0431541, 50.1520954], [6.0434016, 50.1525461], [6.0434421, 50.1526145], [6.0435212, 50.1527441], [6.0436714, 50.1531531], [6.0437706, 50.1536961], [6.0438108, 50.1538646], [6.0438336, 50.1540192], [6.0440029, 50.1542775], [6.0441501, 50.15443], [6.0443029, 50.1545871], [6.0444385, 50.1546706], [6.0445578, 50.1546852], [6.0447233, 50.1546868], [6.0447764, 50.154662], [6.0451219, 50.1546431], [6.0454589, 50.1545832], [6.045519, 50.154964], [6.0455112, 50.155098], [6.0455112, 50.155266], [6.045519, 50.155426], [6.045534, 50.15557], [6.0455875, 50.155766], [6.0456066, 50.155846], [6.04566, 50.155952], [6.0457363, 50.156048], [6.0458229, 50.1560305], [6.0470259, 50.1553926], [6.047302, 50.1555815], [6.0486067, 50.1546103], [6.0488475, 50.1546235], [6.0503501, 50.1537924], [6.0511775, 50.1535037], [6.0518051, 50.1532595], [6.0525352, 50.152837], [6.0530906, 50.1524157], [6.0531579, 50.1523647], [6.0534237, 50.1515046], [6.053534, 50.1512096], [6.0538531, 50.1506476], [6.0539214, 50.1505254], [6.0543561, 50.1501839], [6.0542285, 50.1500544], [6.0542933, 50.1499722], [6.053649, 50.1491572], [6.0546435, 50.1486285], [6.0547087, 50.1485178], [6.0547917, 50.1484684], [6.0548535, 50.1484372], [6.0549049, 50.1483975], [6.0549353, 50.1484175], [6.0549783, 50.1484021], [6.0550214, 50.1483523], [6.0551284, 50.1482982], [6.0555566, 50.1481015], [6.0556902, 50.1480489], [6.0561599, 50.1478378], [6.0566767, 50.147587], [6.0569571, 50.1474704], [6.057139, 50.1473795], [6.0573307, 50.1473156], [6.0575464, 50.1473469], [6.0581587, 50.1472018], [6.0582278, 50.1472231], [6.0582983, 50.1471271], [6.0583831, 50.1471062], [6.0592583, 50.1476847], [6.0594454, 50.1478084], [6.0597351, 50.1476614], [6.0599276, 50.1475637], [6.0604797, 50.147331], [6.0594916, 50.1467263], [6.0571512, 50.1453368], [6.0562424, 50.1448426], [6.0562031, 50.1448139], [6.056109, 50.1443719], [6.0561099, 50.1442555], [6.0560417, 50.1439543], [6.0561497, 50.1433943], [6.0562307, 50.1433721], [6.0564737, 50.1430488], [6.0568012, 50.1427346], [6.05713, 50.1425533], [6.0570852, 50.1425005], [6.0566352, 50.1423776], [6.0565323, 50.1423495], [6.0563101, 50.1423431], [6.0561825, 50.1423509], [6.0560485, 50.142359], [6.0558681, 50.1423731], [6.0552716, 50.1424201], [6.0548009, 50.1424442], [6.0542997, 50.1424355], [6.0539475, 50.142408], [6.0538047, 50.1423968], [6.0536928, 50.1423924], [6.052979, 50.1423938], [6.0527854, 50.1423772], [6.0527756, 50.1424039], [6.0526642, 50.1427071], [6.0525505, 50.142883], [6.0524315, 50.1430639], [6.0518575, 50.1435452], [6.0515124, 50.1437614], [6.051325, 50.143834], [6.0510471, 50.1438723], [6.0509542, 50.1438885], [6.0505407, 50.1442154], [6.0497711, 50.1439228], [6.0495708, 50.1438667], [6.0493797, 50.14386], [6.0491739, 50.1438881], [6.0488285, 50.1439904], [6.0477846, 50.1444623], [6.0464828, 50.1448899], [6.0459101, 50.1450436], [6.0417575, 50.1449567], [6.0413434, 50.144948], [6.0409525, 50.1449373], [6.0408216, 50.1449266], [6.0404807, 50.1448929], [6.0395918, 50.1447714], [6.0388271, 50.1446729], [6.0383042, 50.1445988], [6.0375826, 50.1445281], [6.036826, 50.1444745], [6.0365398, 50.1444506], [6.0355877, 50.1443685], [6.0341312, 50.1441316], [6.0341018, 50.1441432], [6.0340575, 50.1441608], [6.0339993, 50.1441451], [6.0336868, 50.1442903], [6.0324785, 50.144947], [6.0322975, 50.1450613], [6.0320668, 50.1453432], [6.031753, 50.1458588], [6.0317141, 50.1458708], [6.0316374, 50.1458978], [6.031867, 50.1466546], [6.0321351, 50.1470231], [6.0321665, 50.1470947]]]}}]}