{"type": "FeatureCollection", "features": [{"type": "Feature", "properties": {"name": "Cornelysmillen - Schucklai", "kind": "nature_reserve"}, "geometry": {"type": "Polygon", "coordinates": [[[5.9631464, 50.1396062], [5.963802, 50.1396079], [5.9641042, 50.1396131], [5.9648338, 50.1395409], [5.965029, 50.1395554], [5.9669125, 50.1398381], [5.9673715, 50.1397788], [5.9673217, 50.1396851], [5.9676098, 50.1396344], [5.9680275, 50.1394986], [5.9679696, 50.1392422], [5.968553, 50.1391381], [5.9690422, 50.1390341], [5.9703142, 50.1387251], [5.9705796, 50.1387562], [5.970534, 50.138673], [5.9705163, 50.1386707], [5.970441, 50.138661], [5.9703782, 50.1384925], [5.9703471, 50.1384368], [5.9702846, 50.1384458], [5.9699566, 50.1384939], [5.9697629, 50.1385223], [5.9696335, 50.1385412], [5.9695402, 50.1385568], [5.9694691, 50.1385602], [5.9693659, 50.1385536], [5.9693448, 50.138555], [5.9692982, 50.1385635], [5.9691815, 50.1385976], [5.9691365, 50.138606], [5.9690832, 50.1386124], [5.9689656, 50.13862], [5.968859, 50.1386313], [5.9687202, 50.1386524], [5.9686904, 50.1386464], [5.9686023, 50.1384046], [5.9685607, 50.1382902], [5.968422, 50.1383348], [5.9665766, 50.1388746], [5.9655889, 50.1391024], [5.9655561, 50.138958], [5.9649583, 50.1390285], [5.964944, 50.1388211], [5.9648909, 50.1388248], [5.9631737, 50.1388594], [5.9631781, 50.1391704], [5.9624677, 50.1391467], [5.9619191, 50.1391038], [5.9613573, 50.1391455], [5.9608095, 50.1391747], [5.9604122, 50.1391632], [5.9602627, 50.1391294], [5.9600599, 50.1391361], [5.9597376, 50.1390042], [5.9595005, 50.1389517], [5.9593026, 50.1389403], [5.9586051, 50.1388069], [5.958556, 50.138805], [5.9585396, 50.1388627], [5.9586299, 50.1389779], [5.9587997, 50.1391974], [5.9591687, 50.1396762], [5.9603687, 50.1394926], [5.960661, 50.1394909], [5.9614771, 50.1394468], [5.9616613, 50.1394492], [5.9619569, 50.1394848], [5.9619382, 50.1398287], [5.9619634, 50.1400381], [5.962043, 50.1402562], [5.9621086, 50.140379], [5.9621108, 50.1403843], [5.9625652, 50.1402553], [5.962492, 50.1401653], [5.9623284, 50.1398752], [5.9623119, 50.1397651], [5.9623582, 50.1396659], [5.9631464, 50.1396062]]]}}]}