{"type": "FeatureCollection", "features": [{"type": "Feature", "properties": {"name": "Parc communal de Mersch", "kind": "park"}, "geometry": {"type": "Polygon", "coordinates": [[[6.1095136, 49.7452735], [6.1087823, 49.7458363], [6.1087028, 49.7460076], [6.1087716, 49.7460932], [6.1089429, 49.7463065], [6.108385, 49.7465244], [6.1082281, 49.7468281], [6.1082409, 49.7468684], [6.1080873, 49.7470409], [6.1080422, 49.7471614], [6.1079856, 49.7473204], [6.1079805, 49.7474964], [6.1080149, 49.747625], [6.1081588, 49.7477426], [6.1083201, 49.7478172], [6.1085381, 49.7478726], [6.1087614, 49.7479124], [6.108911, 49.7480043], [6.1089378, 49.7480927], [6.1089136, 49.7481635], [6.1086857, 49.748266], [6.1083182, 49.74833], [6.10801, 49.7484278], [6.1078305, 49.7484369], [6.1076923, 49.7483711], [6.107579, 49.7483373], [6.107467, 49.7483312], [6.1073323, 49.7482909], [6.1072404, 49.7483277], [6.1071908, 49.7483373], [6.1070969, 49.7483048], [6.1069742, 49.7482016], [6.1069091, 49.7481206], [6.1067022, 49.748027], [6.1066602, 49.7479927], [6.1066454, 49.7479683], [6.1066529, 49.7479313], [6.106703, 49.7478952], [6.106846, 49.7478406], [6.1068845, 49.7478051], [6.1069186, 49.7477136], [6.1069098, 49.7476289], [6.1068558, 49.7475657], [6.1067903, 49.7475342], [6.1067566, 49.747528], [6.1064841, 49.7475371], [6.1064135, 49.7475263], [6.1063752, 49.7475143], [6.1063533, 49.7474963], [6.1062233, 49.7470342], [6.1061612, 49.7469772], [6.1060443, 49.7469468], [6.1058749, 49.7469183], [6.105782, 49.7468785], [6.1055278, 49.7468353], [6.1053151, 49.7467586], [6.1052739, 49.7467182], [6.1052605, 49.7466639], [6.1053014, 49.7465564], [6.1052974, 49.7465314], [6.1052678, 49.7464518], [6.1051919, 49.7463353], [6.1051583, 49.7462475], [6.1050463, 49.7461063], [6.105045, 49.7460621], [6.104929, 49.7459598], [6.1048123, 49.7458948], [6.1047419, 49.7458069], [6.1046226, 49.7456158], [6.1044905, 49.7453649], [6.1044623, 49.7452596], [6.1043926, 49.7451643], [6.104304, 49.7451002], [6.1042108, 49.7450837], [6.104125, 49.7450915], [6.1040003, 49.7451335], [6.1039178, 49.7451227], [6.1038561, 49.7450742], [6.1037951, 49.7448857], [6.1036851, 49.7447097], [6.1037113, 49.7446183], [6.1039587, 49.744455], [6.1040144, 49.7444459], [6.1042397, 49.7444519], [6.1043724, 49.744471], [6.1044395, 49.7444511], [6.1044717, 49.744419], [6.1044931, 49.7443713], [6.1044501, 49.7441688], [6.1042122, 49.7440295], [6.1041324, 49.7439203], [6.1041706, 49.7438345], [6.104129, 49.7437487], [6.1040744, 49.7436972], [6.103983, 49.7436432], [6.1038923, 49.7435714], [6.1036643, 49.7434471], [6.1035866, 49.7434349], [6.1035161, 49.7434046], [6.1033921, 49.7433933], [6.103254, 49.743428], [6.1031628, 49.7434627], [6.1030374, 49.7435506], [6.1028503, 49.7435532], [6.1026677, 49.7434847], [6.102621, 49.743456], [6.1026603, 49.7434284], [6.1031666, 49.7430746], [6.1032849, 49.7429919], [6.1033264, 49.7430078], [6.1033698, 49.7430244], [6.1039899, 49.7432529], [6.1040459, 49.7432768], [6.1040865, 49.7433005], [6.1043074, 49.743425], [6.1045045, 49.7435584], [6.1045555, 49.7436083], [6.104613, 49.7437026], [6.105723, 49.7438006], [6.1057827, 49.7437475], [6.1060315, 49.7437581], [6.1061516, 49.743786], [6.1063121, 49.7438346], [6.1066085, 49.7439557], [6.1068735, 49.7441343], [6.1076009, 49.7436809], [6.1078997, 49.7440823], [6.1079552, 49.7441568], [6.108613, 49.7440103], [6.1085008, 49.7444389], [6.1090739, 49.7447718], [6.1096818, 49.745055], [6.1095136, 49.7452735]]]}}]}