{"type": "FeatureCollection", "features": [{"type": "Feature", "properties": {"name": "Pëttenerbësch", "kind": "nature_reserve"}, "geometry": {"type": "Polygon", "coordinates": [[[6.0919366, 49.7717898], [6.0917868, 49.7716818], [6.0925064, 49.7717651], [6.0920439, 49.7709742], [6.0919511, 49.7709168], [6.0906531, 49.7701256], [6.0916593, 49.7695726], [6.091411, 49.7693556], [6.0916284, 49.7692422], [6.0904248, 49.7683259], [6.0894896, 49.7675961], [6.0885167, 49.7677646], [6.0884277, 49.7678243], [6.0883165, 49.7682633], [6.0881682, 49.7685694], [6.0880098, 49.7689316], [6.0874079, 49.7703015], [6.0866931, 49.7718224], [6.0866034, 49.7722222], [6.0862922, 49.7732675], [6.0862745, 49.7733273], [6.0862588, 49.7733799], [6.0912618, 49.7720216], [6.0920665, 49.771864], [6.0919366, 49.7717898]]]}}]}