{"type": "FeatureCollection", "features": [{"type": "Feature", "properties": {"name": "Pëttenerbësch", "kind": "nature_reserve"}, "geometry": {"type": "Polygon", "coordinates": [[[6.0935182, 49.7776711], [6.094608, 49.7779316], [6.0945145, 49.7780784], [6.0966995, 49.778636], [6.0973894, 49.7792364], [6.0976425, 49.7795469], [6.097826, 49.7796682], [6.0985073, 49.7802919], [6.0993307, 49.7807802], [6.0997348, 49.7802429], [6.0998838, 49.7800448], [6.1001158, 49.7787666], [6.0999978, 49.7778018], [6.0992158, 49.7762627], [6.0981513, 49.7757743], [6.0986443, 49.7753754], [6.099453, 49.774721], [6.0994977, 49.7746848], [6.0982071, 49.7740217], [6.0970799, 49.7748505], [6.0969007, 49.7749918], [6.0964684, 49.7753406], [6.0959217, 49.7751353], [6.0949805, 49.774782], [6.0948501, 49.774733], [6.0952543, 49.7743371], [6.0932939, 49.7734108], [6.0934706, 49.7729056], [6.0922119, 49.7719552], [6.0920048, 49.771987], [6.0895935, 49.772621], [6.0892491, 49.7727149], [6.0890919, 49.7727578], [6.0863358, 49.773486], [6.0863413, 49.7735188], [6.0862906, 49.7738013], [6.0862811, 49.7738903], [6.0862547, 49.7742819], [6.0862249, 49.7748023], [6.086227, 49.7752231], [6.0862396, 49.7756292], [6.0862675, 49.7757522], [6.0863183, 49.7758855], [6.0863637, 49.7759913], [6.0864727, 49.7761568], [6.0866593, 49.7764283], [6.0868689, 49.7766753], [6.0870587, 49.7768933], [6.0872759, 49.7771287], [6.0873693, 49.7772298], [6.0876184, 49.7774966], [6.0881936, 49.7780243], [6.0883091, 49.7781099], [6.0883729, 49.7781389], [6.0884764, 49.7781519], [6.0885481, 49.7781382], [6.0886088, 49.7781017], [6.0887302, 49.777963], [6.0887945, 49.7779014], [6.088848, 49.7778841], [6.0889249, 49.7778884], [6.0890361, 49.777915], [6.089175, 49.7777066], [6.0897644, 49.7768253], [6.092204, 49.7773569], [6.0927152, 49.7774515], [6.0930257, 49.7775473], [6.0935182, 49.7776711]]]}}]}