{"type": "FeatureCollection", "features": [{"type": "Feature", "properties": {"name": "Vallée de l'Ernz"}, "geometry": {"type": "MultiPolygon", "coordinates": [[[[6.142672, 49.835575], [6.142683, 49.835598], [6.142702, 49.835613], [6.142725, 49.835625], [6.14274, 49.83565], [6.142744, 49.835674], [6.142733, 49.835697], [6.142729, 49.835724], [6.142736, 49.835747], [6.142759, 49.83577], [6.142778, 49.835777], [6.142851, 49.83577], [6.142874, 49.835777], [6.142889, 49.835785], [6.1429, 49.83581], [6.142927, 49.83582], [6.142939, 49.83583], [6.142942, 49.835854], [6.142923, 49.835876], [6.142897, 49.83589], [6.142866, 49.835907], [6.142858, 49.83592], [6.142862, 49.835934], [6.142889, 49.835953], [6.142904, 49.83596], [6.142942, 49.83596], [6.142984, 49.835968], [6.143003, 49.835976], [6.143011, 49.83599], [6.143011, 49.836014], [6.143003, 49.836033], [6.143, 49.83605], [6.143007, 49.83607], [6.14303, 49.836082], [6.143049, 49.83609], [6.143148, 49.83609], [6.143164, 49.8361], [6.143171, 49.836113], [6.143164, 49.836147], [6.143175, 49.836163], [6.143198, 49.836163], [6.143225, 49.836155], [6.143244, 49.83616], [6.143255, 49.836178], [6.143259, 49.836235], [6.143244, 49.83625], [6.144449, 49.83611], [6.145517, 49.835964], [6.146742, 49.835793], [6.147585, 49.835674], [6.148649, 49.835526], [6.149626, 49.835396], [6.150694, 49.835247], [6.151751, 49.835102], [6.152361, 49.835014], [6.152445, 49.835003], [6.152746, 49.83496], [6.152853, 49.83531], [6.153002, 49.83581], [6.152895, 49.836624], [6.152769, 49.83687], [6.152521, 49.837326], [6.152506, 49.83736], [6.152491, 49.83744], [6.152418, 49.837708], [6.152323, 49.838043], [6.152262, 49.838272], [6.152239, 49.838364], [6.152903, 49.83851], [6.153536, 49.83865], [6.153902, 49.83885], [6.154196, 49.83898], [6.154421, 49.839077], [6.154757, 49.839195], [6.155493, 49.83945], [6.155523, 49.83946], [6.155817, 49.83905], [6.155848, 49.839066], [6.156141, 49.83915], [6.156359, 49.839222], [6.156607, 49.839314], [6.156809, 49.839394], [6.157007, 49.839478], [6.157389, 49.839653], [6.157755, 49.839836], [6.157923, 49.839916], [6.158209, 49.840004], [6.158247, 49.840023], [6.158319, 49.840076], [6.158403, 49.84015], [6.158514, 49.84025], [6.158613, 49.840305], [6.158655, 49.840343], [6.158716, 49.840374], [6.158758, 49.840405], [6.158789, 49.840446], [6.158861, 49.840492], [6.158892, 49.84052], [6.158911, 49.84054], [6.158949, 49.84056], [6.159018, 49.84059], [6.159033, 49.84061], [6.159059, 49.84065], [6.159166, 49.840706], [6.159189, 49.84072], [6.159208, 49.840736], [6.159353, 49.84079], [6.159369, 49.840847], [6.159418, 49.84089], [6.159464, 49.84092], [6.159544, 49.840958], [6.159624, 49.840992], [6.159662, 49.841015], [6.1597, 49.841034], [6.159738, 49.84106], [6.159777, 49.841076], [6.159803, 49.84109], [6.159834, 49.84111], [6.159887, 49.841152], [6.159933, 49.841167], [6.159994, 49.84119], [6.16007, 49.841232], [6.160162, 49.841255], [6.160185, 49.84127], [6.160234, 49.841312], [6.160341, 49.841366], [6.160566, 49.84147], [6.160658, 49.84151], [6.160726, 49.841553], [6.160845, 49.841625], [6.160871, 49.841637], [6.160906, 49.84163], [6.160933, 49.841618], [6.160948, 49.84162], [6.160971, 49.841644], [6.160986, 49.84167], [6.161013, 49.841682], [6.161074, 49.841686], [6.161104, 49.841686], [6.161116, 49.841694], [6.161135, 49.841705], [6.161154, 49.841736], [6.161203, 49.841763], [6.161261, 49.841793], [6.161287, 49.841812], [6.161306, 49.841835], [6.161318, 49.841846], [6.161337, 49.841854], [6.161375, 49.84185], [6.161386, 49.84185], [6.161398, 49.841854], [6.161448, 49.841904], [6.16149, 49.841934], [6.161539, 49.84196], [6.161734, 49.842045], [6.161829, 49.842102], [6.161867, 49.842113], [6.16192, 49.842133], [6.162008, 49.842144], [6.162058, 49.842175], [6.162088, 49.842186], [6.16218, 49.842186], [6.162199, 49.84219], [6.162249, 49.842213], [6.162298, 49.842224], [6.162355, 49.842236], [6.16239, 49.84224], [6.162439, 49.842262], [6.162485, 49.842274], [6.162554, 49.842278], [6.162653, 49.84229], [6.162676, 49.842297], [6.16271, 49.842316], [6.162798, 49.842342], [6.162847, 49.84235], [6.16287, 49.842358], [6.162893, 49.842373], [6.162924, 49.84239], [6.162966, 49.842396], [6.163008, 49.8424], [6.163042, 49.84242], [6.163095, 49.842434], [6.16316, 49.84245], [6.16321, 49.84248], [6.163271, 49.8425], [6.163305, 49.842503], [6.163362, 49.842506], [6.163424, 49.8425], [6.163492, 49.842506], [6.164209, 49.842377], [6.164423, 49.842342], [6.164492, 49.84233], [6.164694, 49.8423], [6.164854, 49.84228], [6.165022, 49.842243], [6.165171, 49.842213], [6.165228, 49.842205], [6.16527, 49.8422], [6.165323, 49.842205], [6.165361, 49.842216], [6.165457, 49.842247], [6.165548, 49.842278], [6.165644, 49.842297], [6.165754, 49.842308], [6.165869, 49.842308], [6.165892, 49.84231], [6.165968, 49.842323], [6.16606, 49.842335], [6.16612, 49.84234], [6.16625, 49.842323], [6.16633, 49.84232], [6.166445, 49.84231], [6.166487, 49.842308], [6.166529, 49.84229], [6.166575, 49.842274], [6.166605, 49.842266], [6.166624, 49.842262], [6.166719, 49.842274], [6.166918, 49.8423], [6.167021, 49.842304], [6.1672, 49.842304], [6.16728, 49.84231], [6.167417, 49.842323], [6.167467, 49.84233], [6.167505, 49.842346], [6.167543, 49.842365], [6.167559, 49.842392], [6.167574, 49.842415], [6.167593, 49.842434], [6.167627, 49.84245], [6.167639, 49.842445], [6.167658, 49.842434], [6.167685, 49.84242], [6.167704, 49.842426], [6.167742, 49.84242], [6.167746, 49.842403], [6.167757, 49.84239], [6.167772, 49.84238], [6.167807, 49.842384], [6.167852, 49.84238], [6.167925, 49.842396], [6.168055, 49.842415], [6.168169, 49.842426], [6.168406, 49.84243], [6.168478, 49.842438], [6.168699, 49.842438], [6.168787, 49.84245], [6.168886, 49.84244], [6.168924, 49.84245], [6.168978, 49.842457], [6.16905, 49.842457], [6.16921, 49.84245], [6.169306, 49.84245], [6.169374, 49.84246], [6.169451, 49.842476], [6.169561, 49.84251], [6.169725, 49.842556], [6.16979, 49.842567], [6.169908, 49.84257], [6.170015, 49.84257], [6.170141, 49.842575], [6.170237, 49.84259], [6.170389, 49.842636], [6.170507, 49.84267], [6.170527, 49.842678], [6.170652, 49.84271], [6.170691, 49.842712], [6.170813, 49.842728], [6.170893, 49.842735], [6.170919, 49.842735], [6.170942, 49.84272], [6.170954, 49.84271], [6.170977, 49.8427], [6.171015, 49.84271], [6.17103, 49.84273], [6.171026, 49.84275], [6.171038, 49.842762], [6.17108, 49.842762], [6.171167, 49.84277], [6.171228, 49.84279], [6.171309, 49.842815], [6.171415, 49.84284], [6.171499, 49.84285], [6.171827, 49.84294], [6.171877, 49.842964], [6.171911, 49.842983], [6.171957, 49.84302], [6.172018, 49.84306], [6.172083, 49.84309], [6.172216, 49.843132], [6.172308, 49.84315], [6.172354, 49.84317], [6.172399, 49.843197], [6.17251, 49.84327], [6.172564, 49.843285], [6.172617, 49.843296], [6.172659, 49.843296], [6.172712, 49.843292], [6.172762, 49.843292], [6.172834, 49.84331], [6.172903, 49.843334], [6.17301, 49.84337], [6.173098, 49.843323], [6.173197, 49.84333], [6.173266, 49.843323], [6.173368, 49.8433], [6.173426, 49.843292], [6.173517, 49.843296], [6.173586, 49.8433], [6.173651, 49.84331], [6.173716, 49.84335], [6.173811, 49.843403], [6.173849, 49.843422], [6.17391, 49.84348], [6.17396, 49.843563], [6.174013, 49.84365], [6.174048, 49.843697], [6.174097, 49.84374], [6.174185, 49.8438], [6.174318, 49.843884], [6.174448, 49.843945], [6.174589, 49.844006], [6.174784, 49.844074], [6.175039, 49.844166], [6.175131, 49.844208], [6.175344, 49.84433], [6.175436, 49.84437], [6.17552, 49.844406], [6.175547, 49.84442], [6.175615, 49.844475], [6.175684, 49.844536], [6.175749, 49.844566], [6.175825, 49.844593], [6.175913, 49.84463], [6.176001, 49.844646], [6.176031, 49.844658], [6.17613, 49.84471], [6.176184, 49.84473], [6.176252, 49.844746], [6.176298, 49.844753], [6.176344, 49.84478], [6.176428, 49.8448], [6.176523, 49.844845], [6.176565, 49.844852], [6.1766, 49.844852], [6.176626, 49.844856], [6.176641, 49.844868], [6.176668, 49.84489], [6.176714, 49.844936], [6.17676, 49.844963], [6.17692, 49.845028], [6.177038, 49.84507], [6.177065, 49.84508], [6.177111, 49.845123], [6.17713, 49.845135], [6.177172, 49.84515], [6.177183, 49.84516], [6.177218, 49.845196], [6.177244, 49.845207], [6.177282, 49.84522], [6.177389, 49.84525], [6.177507, 49.845287], [6.177671, 49.84535], [6.177813, 49.84542], [6.177896, 49.84544], [6.178015, 49.845467], [6.178072, 49.845505], [6.178217, 49.84554], [6.178568, 49.84563], [6.178896, 49.845703], [6.179045, 49.84574], [6.179197, 49.845783], [6.179293, 49.845814], [6.179384, 49.845837], [6.179468, 49.845848], [6.179525, 49.845867], [6.179701, 49.845917], [6.179789, 49.845936], [6.180128, 49.846012], [6.180418, 49.846123], [6.180807, 49.846287], [6.180899, 49.846344], [6.180963, 49.846355], [6.181093, 49.846363], [6.181135, 49.846375], [6.181166, 49.846382], [6.181196, 49.846382], [6.181238, 49.84638], [6.181269, 49.846382], [6.181288, 49.846386], [6.181421, 49.84642], [6.181566, 49.84644], [6.181768, 49.84644], [6.181917, 49.84643], [6.181932, 49.846436], [6.182013, 49.84645], [6.182219, 49.846493], [6.182405, 49.846535], [6.182463, 49.84655], [6.182501, 49.846558], [6.182581, 49.846558], [6.182646, 49.846546], [6.182722, 49.846554], [6.18281, 49.846565], [6.182825, 49.84657], [6.183054, 49.846558], [6.183817, 49.84654], [6.184786, 49.846508], [6.185225, 49.846493], [6.18643, 49.846176], [6.187307, 49.84602], [6.187506, 49.84612], [6.189051, 49.846893], [6.189485, 49.84711], [6.18957, 49.847153], [6.189646, 49.84719], [6.190535, 49.84764], [6.191282, 49.848072], [6.191549, 49.848225], [6.191976, 49.848488], [6.192701, 49.848946], [6.193399, 49.849403], [6.193937, 49.849777], [6.194693, 49.8503], [6.195231, 49.850666], [6.195864, 49.85108], [6.196692, 49.851635], [6.197096, 49.85194], [6.197344, 49.852196], [6.197668, 49.852562], [6.198065, 49.85296], [6.198152, 49.85305], [6.198286, 49.853264], [6.199923, 49.853928], [6.2003, 49.854065], [6.200586, 49.854145], [6.200815, 49.8542], [6.200911, 49.854233], [6.200964, 49.854256], [6.201044, 49.85434], [6.201086, 49.85437], [6.201166, 49.8544], [6.201262, 49.854446], [6.201296, 49.854465], [6.201345, 49.854477], [6.201384, 49.854473], [6.201422, 49.85446], [6.201471, 49.854435], [6.201532, 49.854416], [6.201601, 49.854412], [6.201662, 49.854404], [6.201738, 49.85441], [6.201769, 49.85441], [6.201803, 49.854416], [6.201818, 49.85442], [6.201849, 49.854435], [6.20186, 49.854465], [6.201883, 49.854492], [6.201963, 49.854515], [6.202055, 49.854538], [6.202108, 49.854538], [6.202158, 49.854527], [6.20223, 49.854504], [6.20228, 49.854485], [6.202299, 49.854473], [6.202307, 49.85446], [6.202314, 49.85445], [6.202341, 49.854443], [6.202372, 49.85444], [6.202406, 49.854443], [6.202425, 49.854435], [6.202429, 49.854424], [6.20244, 49.854412], [6.202471, 49.854404], [6.202501, 49.85441], [6.202536, 49.854424], [6.202597, 49.854435], [6.202631, 49.854427], [6.202654, 49.854416], [6.202646, 49.854404], [6.202646, 49.854393], [6.202658, 49.85438], [6.202681, 49.854374], [6.202745, 49.854366], [6.202791, 49.854362], [6.202822, 49.85435], [6.202848, 49.854332], [6.202898, 49.854294], [6.202913, 49.85428], [6.20294, 49.85427], [6.202993, 49.854267], [6.2031, 49.854267], [6.203127, 49.85426], [6.203157, 49.854244], [6.203169, 49.854233], [6.203169, 49.854218], [6.203207, 49.854206], [6.203226, 49.854218], [6.203245, 49.85422], [6.203268, 49.854214], [6.203306, 49.85419], [6.203333, 49.854187], [6.203394, 49.854187], [6.203424, 49.85418], [6.20344, 49.854164], [6.203459, 49.854137], [6.203474, 49.854126], [6.203493, 49.854122], [6.203535, 49.85412], [6.203554, 49.854107], [6.203562, 49.854088], [6.203577, 49.854073], [6.2036, 49.85406], [6.203627, 49.854053], [6.20363, 49.85404], [6.203642, 49.85403], [6.203642, 49.85402], [6.203615, 49.853992], [6.20363, 49.85397], [6.203646, 49.853954], [6.203684, 49.853947], [6.203749, 49.853943], [6.203753, 49.853924], [6.203775, 49.85391], [6.203802, 49.853905], [6.203833, 49.85391], [6.203871, 49.85391], [6.203909, 49.853893], [6.20392, 49.853878], [6.20392, 49.853867], [6.203905, 49.85384], [6.203886, 49.853813], [6.20389, 49.8538], [6.203909, 49.853786], [6.203932, 49.85378], [6.203974, 49.85378], [6.203989, 49.853775], [6.204016, 49.85375], [6.204012, 49.853725], [6.204016, 49.853714], [6.204027, 49.85371], [6.20405, 49.853706], [6.204073, 49.8537], [6.204084, 49.85369], [6.2041, 49.85367], [6.204123, 49.85366], [6.204138, 49.853664], [6.204149, 49.853672], [6.204168, 49.853695], [6.204168, 49.85371], [6.204184, 49.85372], [6.20421, 49.85373], [6.204222, 49.853733], [6.204241, 49.853745], [6.20426, 49.853752], [6.204275, 49.853752], [6.204302, 49.85375], [6.204328, 49.853745], [6.204363, 49.853745], [6.204382, 49.853764], [6.204397, 49.853767], [6.204409, 49.853767], [6.204432, 49.853764], [6.204458, 49.853764], [6.204481, 49.853767], [6.204504, 49.85378], [6.204527, 49.853775], [6.204554, 49.853767], [6.204592, 49.853752], [6.20463, 49.853745], [6.204676, 49.85375], [6.204725, 49.853764], [6.204779, 49.853775], [6.204924, 49.853775], [6.205004, 49.853786], [6.205107, 49.853806], [6.205255, 49.853832], [6.205358, 49.853832], [6.205416, 49.853825], [6.205461, 49.853817], [6.205477, 49.853806], [6.205481, 49.853794], [6.205473, 49.853783], [6.20545, 49.853775], [6.205412, 49.85376], [6.2054, 49.85375], [6.2054, 49.853737], [6.205419, 49.853725], [6.205461, 49.853725], [6.205522, 49.85374], [6.205561, 49.85375], [6.20558, 49.85375], [6.205622, 49.853737], [6.205637, 49.853737], [6.205679, 49.853752], [6.205706, 49.853756], [6.205729, 49.85375], [6.205767, 49.85373], [6.205797, 49.853725], [6.20582, 49.853737], [6.205824, 49.85375], [6.20582, 49.85376], [6.205801, 49.853783], [6.20579, 49.8538], [6.205786, 49.853836], [6.205797, 49.853848], [6.205843, 49.853855], [6.205858, 49.85387], [6.205885, 49.85389], [6.205908, 49.853897], [6.205942, 49.853893], [6.205977, 49.853874], [6.205999, 49.85387], [6.206034, 49.853863], [6.206037, 49.85385], [6.206026, 49.853836], [6.206003, 49.853813], [6.205999, 49.853798], [6.206015, 49.85379], [6.206037, 49.85379], [6.206053, 49.853786], [6.206072, 49.85378], [6.206087, 49.853764], [6.206121, 49.853756], [6.206141, 49.853767], [6.206152, 49.85379], [6.206152, 49.853817], [6.206163, 49.85383], [6.206186, 49.853832], [6.206209, 49.853836], [6.206259, 49.853825], [6.206305, 49.85383], [6.206347, 49.85384], [6.206396, 49.853848], [6.20643, 49.853848], [6.206472, 49.853836], [6.206488, 49.85383], [6.206507, 49.853817], [6.206503, 49.8538], [6.206499, 49.85376], [6.206507, 49.85374], [6.206537, 49.853714], [6.206583, 49.853703], [6.206617, 49.853703], [6.206659, 49.853706], [6.20669, 49.853703], [6.206724, 49.853695], [6.206736, 49.85368], [6.206751, 49.85367], [6.20677, 49.853664], [6.206808, 49.85367], [6.206854, 49.853683], [6.206869, 49.853683], [6.2069, 49.85368], [6.206926, 49.85367], [6.206949, 49.85367], [6.206995, 49.853672], [6.207037, 49.85368], [6.207094, 49.85367], [6.207144, 49.85366], [6.207235, 49.85367], [6.207319, 49.853664], [6.207361, 49.853653], [6.20738, 49.85365], [6.207464, 49.85364], [6.207499, 49.85364], [6.207537, 49.853634], [6.207583, 49.853626], [6.20764, 49.853622], [6.207705, 49.853626], [6.207746, 49.853626], [6.207766, 49.85362], [6.207827, 49.853603], [6.207865, 49.853603], [6.207903, 49.853607], [6.207952, 49.85362], [6.207994, 49.853622], [6.208044, 49.85362], [6.208113, 49.85361], [6.20817, 49.8536], [6.208315, 49.853546], [6.20838, 49.85353], [6.208437, 49.853523], [6.208574, 49.85353], [6.208647, 49.853527], [6.208693, 49.853523], [6.20875, 49.853516], [6.20888, 49.85352], [6.208944, 49.853516], [6.208975, 49.85351], [6.209028, 49.853504], [6.209082, 49.853485], [6.209127, 49.85347], [6.209166, 49.853474], [6.209173, 49.853485], [6.209158, 49.853497], [6.209173, 49.853508], [6.209204, 49.85351], [6.20923, 49.853504], [6.209215, 49.85349], [6.209204, 49.853466], [6.209207, 49.853455], [6.209223, 49.853443], [6.209242, 49.853443], [6.209261, 49.853462], [6.20931, 49.8535], [6.209345, 49.853504], [6.209368, 49.853497], [6.209398, 49.853462], [6.209429, 49.853424], [6.209452, 49.85341], [6.209475, 49.853394], [6.209494, 49.853367], [6.209517, 49.853344], [6.209539, 49.853333], [6.209574, 49.85333], [6.209612, 49.85334], [6.209658, 49.853355], [6.209677, 49.853348], [6.209684, 49.85333], [6.2097, 49.853306], [6.209722, 49.85329], [6.209742, 49.853283], [6.209768, 49.853283], [6.209784, 49.853287], [6.209787, 49.853302], [6.209784, 49.853313], [6.209814, 49.853317], [6.209848, 49.853306], [6.209875, 49.853302], [6.209898, 49.853306], [6.209917, 49.853313], [6.209932, 49.853313], [6.209955, 49.853306], [6.210001, 49.853287], [6.210035, 49.85327], [6.21007, 49.853275], [6.210066, 49.853294], [6.210035, 49.853317], [6.210039, 49.85333], [6.210058, 49.853333], [6.210112, 49.85334], [6.210142, 49.853333], [6.210146, 49.85332], [6.210161, 49.85331], [6.210211, 49.853302], [6.210234, 49.85329], [6.210234, 49.853275], [6.210218, 49.853256], [6.210226, 49.853245], [6.210253, 49.853233], [6.210268, 49.853214], [6.210276, 49.8532], [6.210295, 49.853195], [6.210314, 49.853203], [6.210333, 49.8532], [6.210371, 49.85318], [6.210394, 49.85318], [6.210432, 49.8532], [6.210451, 49.85322], [6.210474, 49.85325], [6.210489, 49.85329], [6.210504, 49.853306], [6.210527, 49.85331], [6.210546, 49.853306], [6.210558, 49.853294], [6.210577, 49.85328], [6.210676, 49.85328], [6.210711, 49.853275], [6.210737, 49.853264], [6.21073, 49.853245], [6.210711, 49.85323], [6.210722, 49.853214], [6.210737, 49.853188], [6.210726, 49.853172], [6.210707, 49.85316], [6.210669, 49.853146], [6.210665, 49.853123], [6.210676, 49.853096], [6.210695, 49.853077], [6.210752, 49.853054], [6.210794, 49.853054], [6.210817, 49.853065], [6.210833, 49.85308], [6.210859, 49.85309], [6.21089, 49.853096], [6.21092, 49.853096], [6.210958, 49.853085], [6.210985, 49.85307], [6.211054, 49.85302], [6.211111, 49.85298], [6.211149, 49.852966], [6.211191, 49.852962], [6.211245, 49.852966], [6.21126, 49.852974], [6.211267, 49.852985], [6.211283, 49.85303], [6.211294, 49.853046], [6.211313, 49.853058], [6.211332, 49.85306], [6.211355, 49.85306], [6.211371, 49.853058], [6.21139, 49.85304], [6.211393, 49.853012], [6.211405, 49.853004], [6.21142, 49.853], [6.211451, 49.853016], [6.211493, 49.85303], [6.211515, 49.853027], [6.211531, 49.853024], [6.211534, 49.853012], [6.211523, 49.852993], [6.211512, 49.85298], [6.211519, 49.852966], [6.21155, 49.852955], [6.211607, 49.852947], [6.211645, 49.85294], [6.21166, 49.85293], [6.211672, 49.8529], [6.211691, 49.85289], [6.211718, 49.852886], [6.211775, 49.852894], [6.211809, 49.852905], [6.211828, 49.852905], [6.211855, 49.852898], [6.21187, 49.852882], [6.211882, 49.852867], [6.211912, 49.8528], [6.211946, 49.852776], [6.211966, 49.85278], [6.211996, 49.8528], [6.212011, 49.852825], [6.21203, 49.852837], [6.212046, 49.852833], [6.212065, 49.85282], [6.212069, 49.852802], [6.212099, 49.852783], [6.212156, 49.85274], [6.212187, 49.85271], [6.212198, 49.85271], [6.212217, 49.852715], [6.212236, 49.85273], [6.212259, 49.852768], [6.212278, 49.852783], [6.212305, 49.8528], [6.212358, 49.852806], [6.212385, 49.8528], [6.212408, 49.852783], [6.212423, 49.852764], [6.212439, 49.852737], [6.212435, 49.85272], [6.2124, 49.852676], [6.212397, 49.85266], [6.212385, 49.852642], [6.212366, 49.852627], [6.212347, 49.852615], [6.212336, 49.852596], [6.212339, 49.85258], [6.212347, 49.852566], [6.212374, 49.852554], [6.212461, 49.852554], [6.212557, 49.85256], [6.21261, 49.852547], [6.212652, 49.852535], [6.212679, 49.852516], [6.212694, 49.8525], [6.212717, 49.85247], [6.212732, 49.852455], [6.212774, 49.852436], [6.212835, 49.85241], [6.212862, 49.852375], [6.212881, 49.852364], [6.212904, 49.852356], [6.212934, 49.85236], [6.212957, 49.852352], [6.212976, 49.852333], [6.212992, 49.852314], [6.213007, 49.85231], [6.213041, 49.852306], [6.213072, 49.8523], [6.213121, 49.85228], [6.213179, 49.852253], [6.213213, 49.852222], [6.213228, 49.852192], [6.213224, 49.85216], [6.213224, 49.852142], [6.213243, 49.85213], [6.213297, 49.852108], [6.213335, 49.852097], [6.213369, 49.852074], [6.213377, 49.852055], [6.213415, 49.852], [6.213438, 49.851974], [6.21348, 49.85196], [6.213522, 49.85196], [6.213552, 49.85197], [6.213606, 49.851997], [6.213621, 49.851994], [6.213652, 49.851986], [6.213682, 49.85196], [6.213697, 49.851936], [6.213709, 49.85192], [6.213751, 49.851883], [6.213777, 49.851868], [6.213846, 49.85185], [6.213903, 49.85184], [6.213938, 49.851826], [6.213976, 49.851803], [6.214003, 49.851788], [6.214052, 49.851772], [6.214106, 49.85177], [6.214216, 49.851734], [6.214258, 49.851715], [6.2143, 49.85168], [6.214338, 49.851658], [6.214449, 49.851612], [6.214563, 49.851574], [6.214685, 49.85154], [6.214811, 49.8515], [6.214868, 49.851475], [6.214922, 49.85144], [6.214937, 49.851406], [6.214975, 49.851376], [6.214991, 49.851353], [6.214991, 49.851322], [6.214983, 49.85131], [6.214994, 49.851295], [6.214983, 49.851254], [6.214983, 49.851234], [6.214991, 49.85122], [6.215021, 49.851185], [6.215044, 49.85117], [6.215074, 49.851166], [6.215113, 49.85117], [6.215139, 49.85117], [6.215166, 49.851162], [6.215181, 49.85115], [6.215204, 49.851147], [6.215235, 49.851154], [6.215262, 49.851154], [6.215288, 49.851147], [6.215311, 49.85113], [6.215334, 49.851124], [6.215361, 49.851124], [6.215422, 49.851128], [6.215452, 49.851124], [6.21554, 49.851097], [6.215582, 49.851078], [6.215654, 49.851063], [6.215689, 49.851055], [6.215712, 49.851044], [6.215731, 49.851025], [6.215742, 49.851], [6.21575, 49.85099], [6.215773, 49.85098], [6.215799, 49.85097], [6.215887, 49.85098], [6.215956, 49.85098], [6.215994, 49.85097], [6.216032, 49.850956], [6.216062, 49.850937], [6.21607, 49.850914], [6.216093, 49.850887], [6.216108, 49.850872], [6.216143, 49.85086], [6.216246, 49.85084], [6.216318, 49.85082], [6.216387, 49.850784], [6.216456, 49.850758], [6.216494, 49.85073], [6.216536, 49.85071], [6.216589, 49.850704], [6.216604, 49.8507], [6.216719, 49.85069], [6.216795, 49.85067], [6.216841, 49.85067], [6.216875, 49.850674], [6.216917, 49.850674], [6.216955, 49.850662], [6.216978, 49.85065], [6.217001, 49.85062], [6.217028, 49.850616], [6.217062, 49.85062], [6.217096, 49.850616], [6.217112, 49.850605], [6.217104, 49.850594], [6.217085, 49.85058], [6.217085, 49.850555], [6.2171, 49.85054], [6.217112, 49.850533], [6.217135, 49.850544], [6.21715, 49.85055], [6.217161, 49.850548], [6.217165, 49.850536], [6.217169, 49.850506], [6.217184, 49.850487], [6.217195, 49.850487], [6.217249, 49.850483], [6.217379, 49.850353], [6.217596, 49.850124], [6.217817, 49.8499], [6.217997, 49.84971], [6.218088, 49.849617], [6.218241, 49.84946], [6.218328, 49.849373], [6.218378, 49.84934], [6.218409, 49.849327], [6.21847, 49.849304], [6.218519, 49.849274], [6.218584, 49.849255], [6.218653, 49.84924], [6.218676, 49.84924], [6.218725, 49.849236], [6.218798, 49.849247], [6.218893, 49.849266], [6.218958, 49.84927], [6.21903, 49.84927], [6.219111, 49.849262], [6.219145, 49.84926], [6.219168, 49.84926], [6.219202, 49.849262], [6.219244, 49.849274], [6.219309, 49.849308], [6.219378, 49.84935], [6.219427, 49.849377], [6.219465, 49.84939], [6.219549, 49.849384], [6.219721, 49.84936], [6.219801, 49.849354], [6.2199, 49.849358], [6.219946, 49.849358], [6.220038, 49.849377], [6.220141, 49.849403], [6.220289, 49.849457], [6.220396, 49.849514], [6.220442, 49.849533], [6.220518, 49.84955], [6.220549, 49.84955], [6.220617, 49.84954], [6.220701, 49.84952], [6.220762, 49.84951], [6.220827, 49.849506], [6.22088, 49.849506], [6.220934, 49.849514], [6.220995, 49.84952], [6.221064, 49.84953], [6.221094, 49.84953], [6.221128, 49.849525], [6.221147, 49.849514], [6.221182, 49.84949], [6.221212, 49.849483], [6.221231, 49.84948], [6.221273, 49.849476], [6.221323, 49.849483], [6.221365, 49.8495], [6.221434, 49.84953], [6.221479, 49.849552], [6.221537, 49.849564], [6.221811, 49.849594], [6.221926, 49.849617], [6.221987, 49.849636], [6.222044, 49.849655], [6.22209, 49.849663], [6.222166, 49.849655], [6.222238, 49.849636], [6.222311, 49.84962], [6.222384, 49.849632], [6.222418, 49.849644], [6.222441, 49.849655], [6.222456, 49.849674], [6.22249, 49.849712], [6.222544, 49.84975], [6.22257, 49.849766], [6.222632, 49.84979], [6.222685, 49.849796], [6.22275, 49.849796], [6.222799, 49.849792], [6.222864, 49.84978], [6.222906, 49.849777], [6.222959, 49.849777], [6.222994, 49.84978], [6.223024, 49.84979], [6.223093, 49.84981], [6.223143, 49.849827], [6.223242, 49.849842], [6.223299, 49.84985], [6.223352, 49.84985], [6.223429, 49.849857], [6.223505, 49.849873], [6.223566, 49.849884], [6.223612, 49.849895], [6.223688, 49.849903], [6.223772, 49.84991], [6.223852, 49.849907], [6.223913, 49.84991], [6.224066, 49.84991], [6.224153, 49.849903], [6.224226, 49.849888], [6.224302, 49.849865], [6.224462, 49.84981], [6.224516, 49.849804], [6.224569, 49.849796], [6.224642, 49.8498], [6.224756, 49.8498], [6.224852, 49.849808], [6.224932, 49.84982], [6.225012, 49.849827], [6.225111, 49.849827], [6.225191, 49.849823], [6.225641, 49.849754], [6.225817, 49.849728], [6.225946, 49.849712], [6.22603, 49.849705], [6.226107, 49.8497], [6.226187, 49.8497], [6.226339, 49.849712], [6.226541, 49.849754], [6.226694, 49.849785], [6.226835, 49.849804], [6.226892, 49.849808], [6.226957, 49.8498], [6.227129, 49.849766], [6.227304, 49.849743], [6.227446, 49.84973], [6.227571, 49.849724], [6.227713, 49.849728], [6.227846, 49.849728], [6.2279, 49.84972], [6.228064, 49.849693], [6.228167, 49.849678], [6.228315, 49.849678], [6.228342, 49.849674], [6.228533, 49.84962], [6.228777, 49.84956], [6.22896, 49.84953], [6.229029, 49.849518], [6.229105, 49.849518], [6.229219, 49.84952], [6.229345, 49.849533], [6.229487, 49.84954], [6.229586, 49.849537], [6.229704, 49.849518], [6.229803, 49.84952], [6.229917, 49.8495], [6.230062, 49.849457], [6.230139, 49.84944], [6.230181, 49.84944], [6.23023, 49.84945], [6.230261, 49.84946], [6.230337, 49.8495], [6.230375, 49.84951], [6.230421, 49.849514], [6.230471, 49.849514], [6.230616, 49.84951], [6.230791, 49.849495], [6.230948, 49.849503], [6.231001, 49.849514], [6.231153, 49.84954], [6.231188, 49.849545], [6.231295, 49.849545], [6.231527, 49.849506], [6.231592, 49.849503], [6.231806, 49.8495], [6.232035, 49.849495], [6.232237, 49.849487], [6.232302, 49.849483], [6.232363, 49.849487], [6.232428, 49.849495], [6.232489, 49.849495], [6.232634, 49.84949], [6.232737, 49.84945], [6.232859, 49.84939], [6.232901, 49.849365], [6.232939, 49.849323], [6.232962, 49.84927], [6.232996, 49.849213], [6.233034, 49.8492], [6.233232, 49.849205], [6.233763, 49.84922], [6.234045, 49.849236], [6.234205, 49.84925], [6.234331, 49.84927], [6.234423, 49.849304], [6.234537, 49.849358], [6.234594, 49.84938], [6.234674, 49.849415], [6.234922, 49.84944], [6.234991, 49.849453], [6.235197, 49.84946], [6.235392, 49.84946], [6.235495, 49.84945], [6.235731, 49.849358], [6.235861, 49.84932], [6.235952, 49.849308], [6.236166, 49.8493], [6.236315, 49.849304], [6.236391, 49.84931], [6.236471, 49.84932], [6.236586, 49.84932], [6.236849, 49.849358], [6.236937, 49.849377], [6.236994, 49.849392], [6.237066, 49.849426], [6.237127, 49.849464], [6.23723, 49.84954], [6.237333, 49.849636], [6.237444, 49.84972], [6.237509, 49.849766], [6.237555, 49.849804], [6.237585, 49.84985], [6.237593, 49.8499], [6.237589, 49.84993], [6.237566, 49.850006], [6.237562, 49.85003], [6.237566, 49.850063], [6.237581, 49.8501], [6.237612, 49.85017], [6.237627, 49.850246], [6.237677, 49.850376], [6.237696, 49.85041], [6.237734, 49.850456], [6.237799, 49.85054], [6.237822, 49.850597], [6.237925, 49.850735], [6.238016, 49.850914], [6.238188, 49.85116], [6.23823, 49.85125], [6.238287, 49.85133], [6.238329, 49.851402], [6.238348, 49.851467], [6.238363, 49.85149], [6.23842, 49.851555], [6.238481, 49.851627], [6.238539, 49.851677], [6.238741, 49.85185], [6.238851, 49.85193], [6.238916, 49.85197], [6.239023, 49.852028], [6.239115, 49.85207], [6.239309, 49.85214], [6.239416, 49.852173], [6.239481, 49.852215], [6.239573, 49.852276], [6.239637, 49.852325], [6.239725, 49.85238], [6.239794, 49.852413], [6.239943, 49.85248], [6.240053, 49.85251], [6.240175, 49.85254], [6.240305, 49.852596], [6.240393, 49.85262], [6.240519, 49.85263], [6.240637, 49.85263], [6.240694, 49.852634], [6.240751, 49.852642], [6.240801, 49.852654], [6.240938, 49.85272], [6.241045, 49.85275], [6.241064, 49.852757], [6.241232, 49.852802], [6.241358, 49.852848], [6.241415, 49.85289], [6.24143, 49.852932], [6.241434, 49.85297], [6.241427, 49.85303], [6.241419, 49.8531], [6.241449, 49.853184], [6.241591, 49.85336], [6.24172, 49.853474], [6.241819, 49.85354], [6.241942, 49.853592], [6.242033, 49.853664], [6.242247, 49.85393], [6.242388, 49.854076], [6.242601, 49.854237], [6.242811, 49.85435], [6.243025, 49.854454], [6.243196, 49.85451], [6.243315, 49.85454], [6.243467, 49.854565], [6.243525, 49.854572], [6.243776, 49.854595], [6.24404, 49.854607], [6.24444, 49.854614], [6.244886, 49.85465], [6.24513, 49.854656], [6.245272, 49.854637], [6.245382, 49.854595], [6.245665, 49.854404], [6.245626, 49.854378], [6.245554, 49.85433], [6.245436, 49.85425], [6.244719, 49.85378], [6.244562, 49.853676], [6.244543, 49.853664], [6.245237, 49.85335], [6.245394, 49.85329], [6.245439, 49.853275], [6.245638, 49.853207], [6.245695, 49.853195], [6.245737, 49.853184], [6.245886, 49.853153], [6.245993, 49.85314], [6.246164, 49.85314], [6.246244, 49.85315], [6.246462, 49.853203], [6.246691, 49.853268], [6.246935, 49.85334], [6.24716, 49.853428], [6.247355, 49.85352], [6.247454, 49.85358], [6.247518, 49.85363], [6.247618, 49.85371], [6.247702, 49.853783], [6.247793, 49.853874], [6.24787, 49.85396], [6.247908, 49.854008], [6.24798, 49.854103], [6.248091, 49.854305], [6.248178, 49.8545], [6.248316, 49.854828], [6.248369, 49.85497], [6.248465, 49.855213], [6.248529, 49.8554], [6.248766, 49.85593], [6.24885, 49.856113], [6.248919, 49.856247], [6.248995, 49.85637], [6.249064, 49.856457], [6.249128, 49.85653], [6.249266, 49.85664], [6.249407, 49.856743], [6.249521, 49.85682], [6.249685, 49.856907], [6.249884, 49.857002], [6.25004, 49.85707], [6.250402, 49.85722], [6.250624, 49.8573], [6.251127, 49.856644], [6.251131, 49.8566], [6.251379, 49.856678], [6.251631, 49.856754], [6.251863, 49.856808], [6.252115, 49.856853], [6.252394, 49.856895], [6.252699, 49.856937], [6.253008, 49.85697], [6.252996, 49.85701], [6.25292, 49.857124], [6.253172, 49.8572], [6.253488, 49.85728], [6.253653, 49.85732], [6.253786, 49.857346], [6.253946, 49.857365], [6.254541, 49.857418], [6.254824, 49.85744], [6.255114, 49.857464], [6.255197, 49.857468], [6.25522, 49.857197], [6.255243, 49.8569], [6.255255, 49.856728], [6.255259, 49.85669], [6.255888, 49.856735], [6.256418, 49.85677], [6.256662, 49.856785], [6.256956, 49.856792], [6.257193, 49.856785], [6.257422, 49.856773], [6.257414, 49.856716], [6.257559, 49.856693], [6.257647, 49.856667], [6.257704, 49.856644], [6.25775, 49.856625], [6.257627, 49.85647], [6.257582, 49.856407], [6.257471, 49.856262], [6.25741, 49.85619], [6.257349, 49.856102], [6.25778, 49.855885], [6.257971, 49.855785], [6.258146, 49.85568], [6.258226, 49.855625], [6.258341, 49.855545], [6.258467, 49.855446], [6.258554, 49.855362], [6.258673, 49.855225], [6.258821, 49.85503], [6.259035, 49.855087], [6.259077, 49.8551], [6.259138, 49.855114], [6.259371, 49.854813], [6.259489, 49.854675], [6.259668, 49.854492], [6.259916, 49.854275], [6.26026, 49.854595], [6.260488, 49.854477], [6.260885, 49.854267], [6.261332, 49.854034], [6.261522, 49.85392], [6.261683, 49.853813], [6.261789, 49.85373], [6.2619, 49.853638], [6.262018, 49.85351], [6.262125, 49.853374], [6.262293, 49.853138], [6.262278, 49.853123], [6.262255, 49.85308], [6.262224, 49.853046], [6.262156, 49.853004], [6.261843, 49.852856], [6.261522, 49.852707], [6.261229, 49.852577], [6.260881, 49.852417], [6.260797, 49.85236], [6.260309, 49.852154], [6.260332, 49.852123], [6.260782, 49.85143], [6.260885, 49.85127], [6.2609, 49.851242], [6.261183, 49.850807], [6.261446, 49.850407], [6.261622, 49.85011], [6.26182, 49.85019], [6.262022, 49.850273], [6.262239, 49.85036], [6.262213, 49.850464], [6.262186, 49.85064], [6.262171, 49.850754], [6.262335, 49.85085], [6.262728, 49.851078], [6.262999, 49.851223], [6.263155, 49.8513], [6.263174, 49.851307], [6.263483, 49.851437], [6.263559, 49.851467], [6.263609, 49.851418], [6.263674, 49.851357], [6.263796, 49.85124], [6.263826, 49.85121], [6.263918, 49.851124], [6.265581, 49.85159], [6.266069, 49.85122], [6.266947, 49.85053], [6.267256, 49.850277], [6.267466, 49.850113], [6.267607, 49.85], [6.267729, 49.8499], [6.267988, 49.849617], [6.268198, 49.849373], [6.268278, 49.849247], [6.268324, 49.849182], [6.268446, 49.848984], [6.268537, 49.848827], [6.268675, 49.848537], [6.268358, 49.848373], [6.267786, 49.848087], [6.26745, 49.847916], [6.267061, 49.84765], [6.266806, 49.847477], [6.266821, 49.847466], [6.266901, 49.847404], [6.266966, 49.847355], [6.267019, 49.847313], [6.266844, 49.847218], [6.266123, 49.84683], [6.265619, 49.846558], [6.265576, 49.846536], [6.265486, 49.84649], [6.265459, 49.846472], [6.265417, 49.846443], [6.264502, 49.845943], [6.264055, 49.845703], [6.263422, 49.84537], [6.263323, 49.84532], [6.262987, 49.845146], [6.2628, 49.845047], [6.262781, 49.84503], [6.263239, 49.84464], [6.263704, 49.844223], [6.264509, 49.84349], [6.264624, 49.84337], [6.264898, 49.84309], [6.265291, 49.84272], [6.265886, 49.84215], [6.266024, 49.842026], [6.266046, 49.841988], [6.266073, 49.84195], [6.266169, 49.841896], [6.266321, 49.841824], [6.266531, 49.841747], [6.266973, 49.84162], [6.267885, 49.841366], [6.268423, 49.841232], [6.268736, 49.84119], [6.269041, 49.84116], [6.269308, 49.84115], [6.269636, 49.841152], [6.270418, 49.841194], [6.270643, 49.8412], [6.270792, 49.8412], [6.27096, 49.84118], [6.271143, 49.84115], [6.271456, 49.841087], [6.271429, 49.841072], [6.271223, 49.84094], [6.270666, 49.840576], [6.270086, 49.8402], [6.269262, 49.839664], [6.269197, 49.839615], [6.268984, 49.839478], [6.268877, 49.83941], [6.268412, 49.83911], [6.268328, 49.839058], [6.267939, 49.83881], [6.26782, 49.838734], [6.267729, 49.838673], [6.26755, 49.838562], [6.267408, 49.838474], [6.267149, 49.838306], [6.267111, 49.838284], [6.266962, 49.83819], [6.266604, 49.83796], [6.266302, 49.83777], [6.266024, 49.837593], [6.265989, 49.83757], [6.265478, 49.837254], [6.264875, 49.836864], [6.264113, 49.836372], [6.263857, 49.8362], [6.26367, 49.83608], [6.263334, 49.835854], [6.263224, 49.83578], [6.262838, 49.835533], [6.262087, 49.83504], [6.261023, 49.834347], [6.260958, 49.8343], [6.260511, 49.83401], [6.2605, 49.834003], [6.260088, 49.833725], [6.259661, 49.83344], [6.2595, 49.833332], [6.259348, 49.833233], [6.258799, 49.832863], [6.258375, 49.83258], [6.258223, 49.83248], [6.257936, 49.832302], [6.257666, 49.832123], [6.257467, 49.831993], [6.257105, 49.83175], [6.257009, 49.831688], [6.2568, 49.831547], [6.256022, 49.831028], [6.255991, 49.831005], [6.255446, 49.830643], [6.255171, 49.83046], [6.254892, 49.830276], [6.254675, 49.830135], [6.254694, 49.830013], [6.25469, 49.829967], [6.254808, 49.8291], [6.254824, 49.828964], [6.254877, 49.828568], [6.254961, 49.828064], [6.255003, 49.82778], [6.255045, 49.827534], [6.255125, 49.827026], [6.255205, 49.826485], [6.255293, 49.825977], [6.255373, 49.825447], [6.255449, 49.82503], [6.255529, 49.824486], [6.25559, 49.82412], [6.255602, 49.82406], [6.255617, 49.823956], [6.255655, 49.823727], [6.255659, 49.823692], [6.25569, 49.8235], [6.255693, 49.823486], [6.256052, 49.823395], [6.256601, 49.823227], [6.256926, 49.82312], [6.257254, 49.823025], [6.257662, 49.822937], [6.258459, 49.822773], [6.258856, 49.822662], [6.25963, 49.82244], [6.260191, 49.822304], [6.261667, 49.822033], [6.262087, 49.821926], [6.263243, 49.821644], [6.264254, 49.82141], [6.264696, 49.82132], [6.26549, 49.821182], [6.265779, 49.821136], [6.266657, 49.8211], [6.267858, 49.821068], [6.26882, 49.82106], [6.268911, 49.821087], [6.269754, 49.821053], [6.270159, 49.821297], [6.270193, 49.82132], [6.270285, 49.821312], [6.270346, 49.8213], [6.27043, 49.821274], [6.270334, 49.821266], [6.270205, 49.821182], [6.270147, 49.82113], [6.270033, 49.82096], [6.269953, 49.82083], [6.26988, 49.82077], [6.269793, 49.820744], [6.269739, 49.82072], [6.269739, 49.820675], [6.269796, 49.820557], [6.269819, 49.82047], [6.2698, 49.820385], [6.269735, 49.820274], [6.269693, 49.82021], [6.269682, 49.820152], [6.269712, 49.8201], [6.269789, 49.820045], [6.269815, 49.819996], [6.269815, 49.819923], [6.269766, 49.81984], [6.269628, 49.819675], [6.269507, 49.819603], [6.269335, 49.819534], [6.269262, 49.819473], [6.269251, 49.819405], [6.269239, 49.81919], [6.269213, 49.819115], [6.269178, 49.819077], [6.269113, 49.819016], [6.269033, 49.818985], [6.268953, 49.818947], [6.268923, 49.81892], [6.268896, 49.81883], [6.268854, 49.818703], [6.26882, 49.818657], [6.268724, 49.81858], [6.268614, 49.818512], [6.268591, 49.81848], [6.268579, 49.818436], [6.268583, 49.81838], [6.268614, 49.81831], [6.268698, 49.81816], [6.268713, 49.818115], [6.268721, 49.81804], [6.268755, 49.817955], [6.268705, 49.817856], [6.268682, 49.817825], [6.268675, 49.817795], [6.26885, 49.81742], [6.268862, 49.817314], [6.26885, 49.8172], [6.268778, 49.81703], [6.268766, 49.816936], [6.268759, 49.81684], [6.268774, 49.8168], [6.268816, 49.816788], [6.268976, 49.81681], [6.269014, 49.816807], [6.26903, 49.816788], [6.269018, 49.816757], [6.26882, 49.816635], [6.268759, 49.81658], [6.268736, 49.816544], [6.268751, 49.816498], [6.268747, 49.816467], [6.268713, 49.816452], [6.268675, 49.816452], [6.268618, 49.81645], [6.268579, 49.81643], [6.26856, 49.816406], [6.268553, 49.81634], [6.268545, 49.8163], [6.268499, 49.816257], [6.268412, 49.816208], [6.268213, 49.816154], [6.268022, 49.81611], [6.267977, 49.816093], [6.26795, 49.81607], [6.267954, 49.816017], [6.267954, 49.81597], [6.267904, 49.815937], [6.267813, 49.8159], [6.267668, 49.815865], [6.267588, 49.815826], [6.267523, 49.815773], [6.267496, 49.815727], [6.267485, 49.81565], [6.267492, 49.815548], [6.267492, 49.81553], [6.267488, 49.815514], [6.267466, 49.815506], [6.267427, 49.81552], [6.267405, 49.81552], [6.267374, 49.815514], [6.267336, 49.815483], [6.267294, 49.815453], [6.267267, 49.815422], [6.267157, 49.815357], [6.267145, 49.815346], [6.267134, 49.815327], [6.267115, 49.8153], [6.267092, 49.815277], [6.267061, 49.815254], [6.267038, 49.815247], [6.267, 49.815243], [6.266966, 49.81524], [6.266932, 49.815224], [6.266897, 49.81521], [6.266863, 49.8152], [6.266828, 49.815186], [6.266768, 49.81515], [6.266687, 49.815125], [6.266623, 49.81512], [6.266558, 49.815117], [6.26652, 49.815117], [6.26642, 49.815132], [6.266375, 49.81514], [6.266237, 49.81514], [6.266203, 49.815147], [6.266165, 49.81515], [6.266115, 49.81517], [6.266081, 49.815186], [6.266058, 49.815186], [6.266024, 49.815178], [6.265993, 49.815186], [6.265837, 49.81523], [6.265749, 49.815247], [6.265684, 49.815247], [6.265619, 49.81523], [6.265455, 49.81523], [6.265333, 49.815243], [6.265238, 49.81524], [6.265131, 49.815254], [6.2651, 49.815254], [6.26502, 49.81526], [6.264952, 49.815247], [6.264883, 49.815247], [6.264792, 49.815254], [6.264738, 49.81527], [6.264681, 49.815277], [6.264593, 49.815277], [6.264536, 49.815285], [6.264471, 49.81529], [6.264269, 49.815277], [6.264177, 49.81526], [6.264063, 49.81524], [6.263788, 49.815193], [6.263636, 49.81517], [6.263777, 49.81492], [6.264013, 49.814632], [6.264345, 49.814217], [6.264429, 49.814095], [6.264482, 49.813995], [6.264525, 49.813896], [6.264536, 49.81383], [6.264525, 49.813606], [6.264517, 49.813545], [6.264498, 49.8135], [6.264448, 49.8134], [6.264292, 49.81317], [6.263876, 49.81289], [6.263475, 49.812706], [6.263086, 49.812607], [6.26293, 49.81257], [6.262438, 49.81245], [6.262281, 49.812416], [6.262487, 49.812195], [6.262762, 49.811905], [6.262911, 49.811745], [6.262937, 49.811726], [6.262995, 49.811714], [6.263086, 49.81171], [6.263201, 49.811714], [6.263491, 49.811756], [6.263533, 49.811676], [6.263704, 49.81132], [6.261831, 49.811073], [6.260801, 49.810936], [6.260233, 49.810856], [6.259489, 49.81073], [6.258734, 49.8106], [6.257578, 49.810394], [6.257708, 49.81013], [6.257349, 49.810143], [6.257204, 49.81015], [6.257074, 49.810165], [6.256716, 49.81022], [6.256308, 49.810287], [6.255938, 49.810352], [6.255426, 49.810444], [6.255152, 49.81048], [6.254824, 49.810497], [6.25448, 49.810524], [6.254385, 49.810684], [6.25416, 49.810547], [6.253626, 49.81051], [6.253553, 49.810493], [6.253183, 49.81041], [6.253023, 49.81037], [6.252844, 49.810326], [6.252792, 49.810302], [6.252779, 49.810303], [6.253485, 49.80969], [6.253714, 49.809414], [6.253981, 49.80902], [6.254171, 49.80881], [6.25432, 49.80868], [6.254545, 49.80849], [6.254583, 49.80844], [6.255407, 49.80722], [6.256048, 49.806328], [6.256769, 49.805344], [6.257464, 49.804344], [6.258062, 49.803455], [6.258486, 49.802837], [6.257837, 49.80259], [6.257555, 49.802456], [6.256926, 49.80213], [6.256826, 49.80206], [6.256571, 49.801804], [6.256109, 49.801407], [6.255762, 49.80115], [6.254637, 49.800587], [6.254202, 49.800373], [6.254324, 49.800106], [6.254389, 49.79994], [6.252924, 49.799397], [6.251223, 49.798763], [6.24991, 49.79831], [6.248712, 49.797894], [6.244883, 49.796436], [6.244635, 49.795784], [6.24457, 49.795593], [6.244543, 49.79538], [6.244432, 49.79418], [6.24439, 49.79376], [6.244337, 49.793076], [6.244432, 49.79298], [6.244928, 49.792572], [6.245272, 49.792294], [6.245516, 49.792137], [6.246698, 49.79142], [6.247477, 49.79093], [6.248007, 49.790573], [6.248545, 49.790195], [6.249304, 49.789646], [6.250456, 49.788837], [6.251219, 49.78833], [6.251131, 49.788296], [6.251047, 49.788258], [6.250563, 49.78805], [6.251062, 49.787285], [6.25149, 49.786613], [6.251638, 49.78638], [6.251959, 49.78584], [6.251982, 49.7858], [6.251772, 49.785755], [6.251696, 49.78574], [6.251417, 49.786064], [6.250921, 49.78594], [6.250807, 49.785908], [6.250269, 49.78577], [6.249689, 49.785625], [6.249239, 49.785526], [6.248575, 49.785378], [6.24766, 49.78635], [6.246485, 49.787613], [6.246798, 49.787777], [6.246584, 49.787933], [6.246363, 49.78809], [6.246138, 49.788258], [6.245981, 49.788372], [6.245524, 49.788708], [6.245417, 49.788788], [6.245295, 49.788876], [6.245188, 49.78896], [6.245073, 49.78904], [6.244783, 49.78887], [6.244562, 49.78873], [6.243547, 49.787968], [6.243654, 49.787895], [6.243204, 49.787464], [6.242498, 49.786785], [6.242163, 49.786465], [6.242037, 49.786343], [6.24185, 49.786465], [6.241457, 49.786728], [6.241217, 49.78689], [6.241186, 49.786907], [6.24095, 49.787067], [6.23987, 49.786705], [6.239763, 49.78668], [6.239534, 49.786606], [6.239183, 49.786503], [6.238817, 49.786404], [6.238344, 49.786293], [6.237825, 49.786182], [6.237696, 49.78615], [6.23757, 49.786484], [6.237383, 49.78696], [6.237078, 49.78777], [6.236914, 49.7882], [6.236681, 49.78884], [6.236372, 49.78968], [6.23628, 49.789925], [6.236204, 49.790134], [6.236128, 49.790337], [6.236055, 49.790543], [6.235979, 49.790745], [6.235674, 49.79158], [6.235659, 49.791626], [6.235578, 49.79184], [6.234858, 49.79272], [6.23414, 49.793533], [6.233847, 49.793865], [6.233664, 49.7938], [6.23353, 49.79375], [6.233335, 49.793877], [6.233087, 49.79405], [6.232939, 49.794167], [6.232775, 49.794304], [6.23266, 49.794415], [6.232576, 49.794506], [6.232492, 49.79461], [6.23242, 49.794712], [6.232359, 49.79482], [6.232294, 49.79497], [6.232245, 49.795147], [6.232229, 49.795288], [6.232222, 49.79544], [6.232237, 49.79558], [6.232275, 49.795753], [6.232317, 49.795883], [6.232382, 49.796036], [6.232443, 49.796143], [6.232126, 49.7963], [6.231615, 49.79655], [6.231134, 49.796417], [6.230299, 49.79618], [6.23004, 49.796127], [6.229937, 49.7961], [6.22962, 49.795994], [6.228838, 49.795776], [6.228785, 49.795765], [6.228685, 49.79572], [6.228579, 49.795677], [6.228483, 49.795635], [6.228422, 49.795612], [6.228258, 49.79559], [6.228083, 49.79556], [6.227953, 49.795544], [6.227861, 49.795547], [6.227739, 49.79556], [6.227606, 49.795578], [6.227552, 49.795578], [6.227446, 49.795563], [6.227308, 49.79553], [6.227243, 49.795513], [6.227198, 49.795506], [6.227106, 49.795506], [6.226999, 49.795517], [6.226889, 49.795513], [6.226816, 49.795506], [6.226748, 49.795486], [6.226698, 49.79546], [6.226664, 49.795452], [6.22661, 49.79545], [6.226446, 49.795475], [6.226385, 49.79548], [6.226305, 49.79547], [6.226198, 49.795444], [6.226072, 49.795406], [6.226019, 49.795383], [6.225962, 49.79535], [6.225908, 49.795307], [6.225866, 49.79529], [6.225809, 49.79528], [6.225752, 49.79528], [6.225664, 49.795284], [6.225607, 49.795288], [6.225557, 49.79528], [6.225512, 49.79526], [6.22545, 49.795223], [6.225409, 49.795185], [6.225378, 49.79517], [6.225161, 49.795135], [6.224749, 49.79509], [6.224375, 49.795074], [6.224443, 49.794968], [6.22452, 49.794853], [6.223696, 49.79457], [6.223558, 49.794525], [6.222864, 49.794243], [6.222338, 49.79393], [6.222208, 49.793846], [6.221731, 49.793434], [6.221727, 49.793335], [6.221487, 49.792625], [6.221323, 49.79189], [6.221338, 49.791496], [6.221228, 49.791214], [6.2209, 49.791264], [6.220682, 49.791298], [6.220224, 49.791367], [6.220026, 49.791435], [6.219389, 49.791523], [6.219152, 49.791523], [6.219137, 49.79133], [6.219114, 49.79119], [6.219088, 49.791058], [6.219042, 49.790985], [6.218882, 49.7908], [6.218676, 49.790604], [6.218569, 49.79052], [6.218492, 49.7904], [6.21842, 49.790176], [6.21837, 49.790035], [6.218203, 49.7897], [6.218103, 49.789486], [6.218077, 49.789345], [6.218042, 49.789364], [6.217958, 49.789402], [6.217939, 49.78941], [6.217596, 49.789574], [6.217245, 49.78983], [6.21726, 49.789852], [6.217283, 49.789894], [6.217352, 49.79001], [6.217482, 49.790226], [6.217253, 49.790264], [6.216806, 49.790356], [6.216005, 49.79054], [6.215479, 49.790695], [6.215059, 49.790833], [6.214743, 49.790947], [6.214556, 49.791016], [6.214205, 49.791172], [6.213648, 49.79143], [6.213438, 49.791515], [6.212946, 49.791687], [6.212381, 49.791893], [6.211813, 49.792095], [6.211634, 49.792133], [6.211363, 49.792194], [6.21121, 49.79228], [6.211019, 49.792404], [6.210447, 49.792828], [6.209929, 49.7932], [6.209814, 49.793297], [6.209711, 49.793392], [6.209555, 49.793575], [6.209513, 49.79362], [6.209433, 49.793674], [6.209284, 49.793755], [6.209066, 49.793854], [6.208769, 49.79396], [6.208647, 49.794], [6.208494, 49.794033], [6.208338, 49.794056], [6.208227, 49.79407], [6.208178, 49.794075], [6.208128, 49.794067], [6.208082, 49.79405], [6.207827, 49.79425], [6.207579, 49.794567], [6.207632, 49.794956], [6.2078, 49.79494], [6.208029, 49.794926], [6.208128, 49.794914], [6.208227, 49.79509], [6.20825, 49.79515], [6.208273, 49.79527], [6.208281, 49.795403], [6.208261, 49.795517], [6.208231, 49.795647], [6.208158, 49.795887], [6.208151, 49.795937], [6.208151, 49.795982], [6.20817, 49.796055], [6.20817, 49.796124], [6.208124, 49.79619], [6.208067, 49.79624], [6.207979, 49.796295], [6.207853, 49.796368], [6.207727, 49.796444], [6.207628, 49.79652], [6.207502, 49.796623], [6.207338, 49.796776], [6.207212, 49.796898], [6.207171, 49.79693], [6.207083, 49.796986], [6.206976, 49.797047], [6.206816, 49.797123], [6.206617, 49.79722], [6.20648, 49.797283], [6.206343, 49.79736], [6.206167, 49.797478], [6.205954, 49.797623], [6.205805, 49.79771], [6.205637, 49.797836], [6.205446, 49.797985], [6.205336, 49.797863], [6.204992, 49.798023], [6.204763, 49.79812], [6.20455, 49.798176], [6.204435, 49.7982], [6.204218, 49.798233], [6.203764, 49.79829], [6.203268, 49.798367], [6.202898, 49.798435], [6.202501, 49.798523], [6.202509, 49.798534], [6.202612, 49.798725], [6.202513, 49.798737], [6.202475, 49.79875], [6.202337, 49.798805], [6.202204, 49.79886], [6.202009, 49.79893], [6.201521, 49.79911], [6.201487, 49.79913], [6.200758, 49.799236], [6.199331, 49.799477], [6.197973, 49.79971], [6.197901, 49.799725], [6.197962, 49.799877], [6.198133, 49.800293], [6.198214, 49.800495], [6.198248, 49.80065], [6.198256, 49.800804], [6.198244, 49.800972], [6.198194, 49.801147], [6.198133, 49.80137], [6.198034, 49.801662], [6.19795, 49.80167], [6.197435, 49.801723], [6.197119, 49.801754], [6.196779, 49.80179], [6.196733, 49.801796], [6.196676, 49.8018], [6.19602, 49.80198], [6.195906, 49.802017], [6.195528, 49.8022], [6.195265, 49.80224], [6.195295, 49.802315], [6.195067, 49.80242], [6.19504, 49.802437], [6.194727, 49.80259], [6.194304, 49.802822], [6.194284, 49.802834], [6.194193, 49.80291], [6.194151, 49.802948], [6.194101, 49.802986], [6.194086, 49.803], [6.193991, 49.803078], [6.19375, 49.803276], [6.193522, 49.803467], [6.193499, 49.80346], [6.193418, 49.803436], [6.193277, 49.803406], [6.193144, 49.803375], [6.193014, 49.803345], [6.192789, 49.80329], [6.192541, 49.803215], [6.19245, 49.803192], [6.192125, 49.803093], [6.191828, 49.802986], [6.19166, 49.802925], [6.191614, 49.80291], [6.191187, 49.802734], [6.19105, 49.802856], [6.190962, 49.80296], [6.190828, 49.80316], [6.190718, 49.80332], [6.190878, 49.80343], [6.190866, 49.803463], [6.191271, 49.803642], [6.191549, 49.803818], [6.191694, 49.80391], [6.191904, 49.804077], [6.192015, 49.804207], [6.192121, 49.80435], [6.192121, 49.804417], [6.192121, 49.804543], [6.192125, 49.80459], [6.192079, 49.804626], [6.191908, 49.804626], [6.191664, 49.80462], [6.191454, 49.80459], [6.191198, 49.804535], [6.191095, 49.804512], [6.190977, 49.804485], [6.190874, 49.80446], [6.190741, 49.80442], [6.190622, 49.80439], [6.190474, 49.804344], [6.190416, 49.804333], [6.190309, 49.804314], [6.189676, 49.80517], [6.189485, 49.80542], [6.189413, 49.80552], [6.189299, 49.805676], [6.188906, 49.806206], [6.188761, 49.806385], [6.188742, 49.806416], [6.188658, 49.806404], [6.188684, 49.806458], [6.188868, 49.806767], [6.189165, 49.80723], [6.189432, 49.80767], [6.189627, 49.808], [6.189909, 49.808456], [6.190016, 49.8086], [6.19, 49.808613], [6.190031, 49.80867], [6.19018, 49.808952], [6.190447, 49.808964], [6.190523, 49.808968], [6.190752, 49.808975], [6.190882, 49.808975], [6.190966, 49.808975], [6.191134, 49.8093], [6.191202, 49.80946], [6.191221, 49.809525], [6.191236, 49.80964], [6.191229, 49.80974], [6.191198, 49.809902], [6.191099, 49.810093], [6.190943, 49.810352], [6.191057, 49.810627], [6.191198, 49.81097], [6.191507, 49.81171], [6.191523, 49.811756], [6.191542, 49.811802], [6.191549, 49.811817], [6.191637, 49.812042], [6.191645, 49.812103], [6.191629, 49.81226], [6.191606, 49.812466], [6.191462, 49.812748], [6.191378, 49.812897], [6.191236, 49.81326], [6.191145, 49.81355], [6.191126, 49.81367], [6.191126, 49.813934], [6.191126, 49.8141], [6.19108, 49.814247], [6.190966, 49.814507], [6.190851, 49.814754], [6.190695, 49.81501], [6.190516, 49.81531], [6.190287, 49.8157], [6.190042, 49.81608], [6.189772, 49.816402], [6.189505, 49.816696], [6.189394, 49.816772], [6.189005, 49.817024], [6.18857, 49.81746], [6.188333, 49.817703], [6.188143, 49.817795], [6.187986, 49.81787], [6.187697, 49.818016], [6.187746, 49.818176], [6.187765, 49.81824], [6.187891, 49.81864], [6.188055, 49.81918], [6.188185, 49.819576], [6.188345, 49.820084], [6.188444, 49.82038], [6.188551, 49.820698], [6.1886, 49.82085], [6.18862, 49.82099], [6.188631, 49.82103], [6.188726, 49.821342], [6.188929, 49.8218], [6.189138, 49.822273], [6.188204, 49.822506], [6.187346, 49.82272], [6.185526, 49.823032], [6.18503, 49.822952], [6.184233, 49.82282], [6.183855, 49.822765], [6.183798, 49.822758], [6.183775, 49.822754], [6.182775, 49.82266], [6.181929, 49.8226], [6.181864, 49.822598], [6.180761, 49.82234], [6.179769, 49.822124], [6.178846, 49.82196], [6.178484, 49.821903], [6.178427, 49.82189], [6.177759, 49.821697], [6.176851, 49.82143], [6.175795, 49.821133], [6.175779, 49.82113], [6.175001, 49.820885], [6.172743, 49.82104], [6.170996, 49.82126], [6.168688, 49.821793], [6.167917, 49.822117], [6.167543, 49.82223], [6.166864, 49.82244], [6.165827, 49.822308], [6.164915, 49.82221], [6.164866, 49.8222], [6.164511, 49.822163], [6.164465, 49.82216], [6.164415, 49.82215], [6.164144, 49.82212], [6.162645, 49.822693], [6.16155, 49.821808], [6.160749, 49.821423], [6.160002, 49.82106], [6.159746, 49.82095], [6.158621, 49.820473], [6.157869, 49.820198], [6.156988, 49.819885], [6.156298, 49.81963], [6.155477, 49.81935], [6.154398, 49.819008], [6.154203, 49.81895], [6.153913, 49.818874], [6.153612, 49.818787], [6.152651, 49.818428], [6.152525, 49.818653], [6.152208, 49.81854], [6.152075, 49.818493], [6.151957, 49.81845], [6.151663, 49.818344], [6.151297, 49.818485], [6.151217, 49.818523], [6.151079, 49.81859], [6.150846, 49.818703], [6.150698, 49.818874], [6.150587, 49.81907], [6.150499, 49.819275], [6.150682, 49.819332], [6.150637, 49.81946], [6.150572, 49.819645], [6.150553, 49.81977], [6.150526, 49.82005], [6.150774, 49.82036], [6.150873, 49.820503], [6.150907, 49.820545], [6.150927, 49.820576], [6.150984, 49.820667], [6.150999, 49.820698], [6.151167, 49.821], [6.150705, 49.82144], [6.150679, 49.82147], [6.150446, 49.821697], [6.15048, 49.821888], [6.150522, 49.822136], [6.150568, 49.822277], [6.150614, 49.822433], [6.150629, 49.82247], [6.150732, 49.822758], [6.150755, 49.82283], [6.150774, 49.822876], [6.150553, 49.82325], [6.150103, 49.823994], [6.150091, 49.824017], [6.149763, 49.82463], [6.149477, 49.825157], [6.149134, 49.82566], [6.147913, 49.8264], [6.147814, 49.826366], [6.147581, 49.82629], [6.147459, 49.826252], [6.147032, 49.82612], [6.146715, 49.82604], [6.146414, 49.825962], [6.1462, 49.8262], [6.145981, 49.826443], [6.145959, 49.826466], [6.145716, 49.826736], [6.145777, 49.826763], [6.14649, 49.827045], [6.146448, 49.827698], [6.146643, 49.82842], [6.146772, 49.828854], [6.146837, 49.829117], [6.146955, 49.82951], [6.147097, 49.82994], [6.147139, 49.83029], [6.147154, 49.83063], [6.147177, 49.83102], [6.147207, 49.831413], [6.147203, 49.831573], [6.147192, 49.831657], [6.147119, 49.831833], [6.147036, 49.831963], [6.146971, 49.832047], [6.146925, 49.832108], [6.146803, 49.832275], [6.146601, 49.832535], [6.146402, 49.832726], [6.146028, 49.833042], [6.145929, 49.83309], [6.145441, 49.83332], [6.145212, 49.833416], [6.144865, 49.833584], [6.144552, 49.833755], [6.144457, 49.83381], [6.144224, 49.833927], [6.14403, 49.834034], [6.143854, 49.834137], [6.143698, 49.834232], [6.143515, 49.83437], [6.143305, 49.83453], [6.143107, 49.834698], [6.142958, 49.83484], [6.142752, 49.83505], [6.142778, 49.835068], [6.142786, 49.835094], [6.142775, 49.835117], [6.142755, 49.835136], [6.142752, 49.83515], [6.142763, 49.835186], [6.142771, 49.835205], [6.142771, 49.83522], [6.142755, 49.83524], [6.142736, 49.83525], [6.142721, 49.83526], [6.142725, 49.83528], [6.142736, 49.83531], [6.142759, 49.835327], [6.142798, 49.835342], [6.142813, 49.83536], [6.142809, 49.835377], [6.142786, 49.8354], [6.142767, 49.835415], [6.142759, 49.835426], [6.142767, 49.835472], [6.142755, 49.835495], [6.142736, 49.8355], [6.142729, 49.835487], [6.14271, 49.835487], [6.142691, 49.835495], [6.142691, 49.835514], [6.142702, 49.835537], [6.142706, 49.83555], [6.142683, 49.835564], [6.142672, 49.835575]]]]}}]}