{"type": "FeatureCollection", "features": [{"type": "Feature", "properties": {"name": "Heffingen"}, "geometry": {"type": "MultiPolygon", "coordinates": [[[[6.22035, 49.777035], [6.220358, 49.77706], [6.220377, 49.777084], [6.220392, 49.77711], [6.2204, 49.777126], [6.220583, 49.77724], [6.220675, 49.777298], [6.220808, 49.777378], [6.220983, 49.777477], [6.221174, 49.777603], [6.221395, 49.777752], [6.221605, 49.777897], [6.221823, 49.778057], [6.221972, 49.778187], [6.222437, 49.778564], [6.222529, 49.778637], [6.222628, 49.77875], [6.22267, 49.778824], [6.222723, 49.77891], [6.22275, 49.77897], [6.222979, 49.7794], [6.223024, 49.77946], [6.223429, 49.780148], [6.223711, 49.780544], [6.223856, 49.78076], [6.2241, 49.781143], [6.224134, 49.78174], [6.224058, 49.78175], [6.223932, 49.78177], [6.22394, 49.781803], [6.223948, 49.78184], [6.223963, 49.781902], [6.22397, 49.781956], [6.223978, 49.781986], [6.224001, 49.782097], [6.223997, 49.78217], [6.224001, 49.78223], [6.224005, 49.782337], [6.224012, 49.78244], [6.224012, 49.78246], [6.224016, 49.782543], [6.223909, 49.78272], [6.223803, 49.78289], [6.223776, 49.782936], [6.223681, 49.78313], [6.223635, 49.783226], [6.22357, 49.78347], [6.223535, 49.78359], [6.223581, 49.78392], [6.223581, 49.78394], [6.223585, 49.783962], [6.223658, 49.784252], [6.223696, 49.784416], [6.223837, 49.784985], [6.223886, 49.785194], [6.223898, 49.785233], [6.223902, 49.78525], [6.22405, 49.785748], [6.224062, 49.785805], [6.224203, 49.78631], [6.225176, 49.78619], [6.225714, 49.78612], [6.225733, 49.78612], [6.225901, 49.78645], [6.225935, 49.78652], [6.226168, 49.78697], [6.226667, 49.787235], [6.227362, 49.7876], [6.227838, 49.78785], [6.228197, 49.788036], [6.228293, 49.788086], [6.228704, 49.788292], [6.228823, 49.788353], [6.229502, 49.788696], [6.230001, 49.78895], [6.230257, 49.78909], [6.230623, 49.789284], [6.230749, 49.789352], [6.230906, 49.789433], [6.231447, 49.789722], [6.231539, 49.78977], [6.232107, 49.790054], [6.232157, 49.790077], [6.233969, 49.79101], [6.234747, 49.79141], [6.235578, 49.79184], [6.235659, 49.791626], [6.235674, 49.79158], [6.235979, 49.790745], [6.236055, 49.790543], [6.236128, 49.790337], [6.236204, 49.790134], [6.23628, 49.789925], [6.236372, 49.78968], [6.236681, 49.78884], [6.236914, 49.7882], [6.237078, 49.78777], [6.237383, 49.78696], [6.23757, 49.786484], [6.237696, 49.78615], [6.237825, 49.786182], [6.238344, 49.786293], [6.238817, 49.786404], [6.239183, 49.786503], [6.239534, 49.786606], [6.239763, 49.78668], [6.23987, 49.786705], [6.24095, 49.787067], [6.241186, 49.786907], [6.241217, 49.78689], [6.241457, 49.786728], [6.24185, 49.786465], [6.242037, 49.786343], [6.242163, 49.786465], [6.242498, 49.786785], [6.243204, 49.787464], [6.243654, 49.787895], [6.243547, 49.787968], [6.244562, 49.78873], [6.244783, 49.78887], [6.245073, 49.78904], [6.245188, 49.78896], [6.245295, 49.788876], [6.245417, 49.788788], [6.245524, 49.788708], [6.245981, 49.788372], [6.246138, 49.788258], [6.246363, 49.78809], [6.246584, 49.787933], [6.246798, 49.787777], [6.246485, 49.787613], [6.24766, 49.78635], [6.248575, 49.785378], [6.245157, 49.78405], [6.244238, 49.78387], [6.24365, 49.783764], [6.243513, 49.783726], [6.243338, 49.783672], [6.243246, 49.78363], [6.242468, 49.78359], [6.242449, 49.78362], [6.242388, 49.783726], [6.242353, 49.783752], [6.242292, 49.78376], [6.242209, 49.783752], [6.242178, 49.783737], [6.242163, 49.78373], [6.242128, 49.78371], [6.242086, 49.783695], [6.241919, 49.78367], [6.241804, 49.78365], [6.241747, 49.783638], [6.241713, 49.783638], [6.241674, 49.78364], [6.241617, 49.78365], [6.241526, 49.78366], [6.24148, 49.783657], [6.241266, 49.783615], [6.241213, 49.7836], [6.241171, 49.783573], [6.241129, 49.78355], [6.241083, 49.78353], [6.241018, 49.783504], [6.240965, 49.783478], [6.240889, 49.783455], [6.240805, 49.783455], [6.240736, 49.783463], [6.240683, 49.783463], [6.240622, 49.783455], [6.240427, 49.783424], [6.24021, 49.78339], [6.239878, 49.783348], [6.239588, 49.783318], [6.239424, 49.783295], [6.239344, 49.78329], [6.239313, 49.783283], [6.239309, 49.783264], [6.239306, 49.783253], [6.239294, 49.783245], [6.239271, 49.783245], [6.239248, 49.783257], [6.239214, 49.783264], [6.23918, 49.783264], [6.239149, 49.78326], [6.239092, 49.78324], [6.239039, 49.783226], [6.238985, 49.783222], [6.23892, 49.78322], [6.238874, 49.78321], [6.238836, 49.7832], [6.238771, 49.783176], [6.238676, 49.78316], [6.238592, 49.783157], [6.238523, 49.78315], [6.238512, 49.783146], [6.238432, 49.783134], [6.238321, 49.783108], [6.238207, 49.783077], [6.238092, 49.783047], [6.237993, 49.78302], [6.237795, 49.782997], [6.237715, 49.782993], [6.237669, 49.782993], [6.237577, 49.78301], [6.237474, 49.783016], [6.237417, 49.783016], [6.237349, 49.78301], [6.237303, 49.782986], [6.237246, 49.782948], [6.237211, 49.78293], [6.237158, 49.782913], [6.237055, 49.782894], [6.236944, 49.78288], [6.236845, 49.78287], [6.236765, 49.782864], [6.236654, 49.782864], [6.236708, 49.78272], [6.236723, 49.782677], [6.23683, 49.78242], [6.236849, 49.782368], [6.236891, 49.78227], [6.237432, 49.781082], [6.240007, 49.781414], [6.240099, 49.78135], [6.241156, 49.78162], [6.241762, 49.781773], [6.242575, 49.781982], [6.242651, 49.78185], [6.242731, 49.78171], [6.242773, 49.78164], [6.242842, 49.78152], [6.24296, 49.781322], [6.242983, 49.78129], [6.242804, 49.78123], [6.243029, 49.78101], [6.243093, 49.780945], [6.243158, 49.780884], [6.2432, 49.78084], [6.243299, 49.780743], [6.24336, 49.78068], [6.243395, 49.780647], [6.243429, 49.780617], [6.243483, 49.780563], [6.24357, 49.780476], [6.243589, 49.78046], [6.243631, 49.780422], [6.243761, 49.780308], [6.243788, 49.78029], [6.243937, 49.78016], [6.244013, 49.780094], [6.245935, 49.78086], [6.245954, 49.780838], [6.245989, 49.7808], [6.246061, 49.780716], [6.24613, 49.78064], [6.246161, 49.780598], [6.246286, 49.780457], [6.247942, 49.780865], [6.247969, 49.780834], [6.247988, 49.78084], [6.248079, 49.780727], [6.248175, 49.780613], [6.248266, 49.7805], [6.247732, 49.78037], [6.248053, 49.77999], [6.248812, 49.779224], [6.249281, 49.778755], [6.250204, 49.77786], [6.250464, 49.777607], [6.250513, 49.777557], [6.250944, 49.777134], [6.251223, 49.77685], [6.252092, 49.77722], [6.252714, 49.777504], [6.252897, 49.777615], [6.253096, 49.777763], [6.253389, 49.777977], [6.253572, 49.77812], [6.253653, 49.778202], [6.253725, 49.77835], [6.253916, 49.778763], [6.254454, 49.77869], [6.254728, 49.77865], [6.254969, 49.778625], [6.255098, 49.77861], [6.25522, 49.778553], [6.255289, 49.77851], [6.255335, 49.77847], [6.255465, 49.77825], [6.255499, 49.778206], [6.25569, 49.778023], [6.255838, 49.777893], [6.255938, 49.77781], [6.256151, 49.777634], [6.256311, 49.7775], [6.256388, 49.777435], [6.256445, 49.77739], [6.256475, 49.777367], [6.256681, 49.777203], [6.256693, 49.77719], [6.25675, 49.77714], [6.256773, 49.777122], [6.257147, 49.77729], [6.258482, 49.77788], [6.258841, 49.778027], [6.259363, 49.7782], [6.259993, 49.778282], [6.260603, 49.77837], [6.260931, 49.77842], [6.261175, 49.778458], [6.261431, 49.7785], [6.261526, 49.778515], [6.26169, 49.778545], [6.261908, 49.778572], [6.262159, 49.778614], [6.262316, 49.778645], [6.262468, 49.778683], [6.262819, 49.77879], [6.262869, 49.778687], [6.262926, 49.778576], [6.262968, 49.778496], [6.262999, 49.77844], [6.263056, 49.778316], [6.263124, 49.77816], [6.263197, 49.778008], [6.263239, 49.777927], [6.263277, 49.777847], [6.263323, 49.777756], [6.263365, 49.77766], [6.263388, 49.77761], [6.263403, 49.777573], [6.263441, 49.77749], [6.26346, 49.777447], [6.263479, 49.7774], [6.263536, 49.77727], [6.263586, 49.777164], [6.263594, 49.77715], [6.26367, 49.776974], [6.263269, 49.776936], [6.263357, 49.776665], [6.262186, 49.776516], [6.262094, 49.776505], [6.261923, 49.77648], [6.261721, 49.776455], [6.261686, 49.77645], [6.261579, 49.77644], [6.261332, 49.776405], [6.261496, 49.776104], [6.261671, 49.775776], [6.26177, 49.775597], [6.261789, 49.775555], [6.261904, 49.77538], [6.261972, 49.77527], [6.262026, 49.775177], [6.26206, 49.775124], [6.26211, 49.77505], [6.262247, 49.77483], [6.262339, 49.774685], [6.262468, 49.77449], [6.262575, 49.774326], [6.262625, 49.774254], [6.262766, 49.774025], [6.262934, 49.774063], [6.263121, 49.77377], [6.263216, 49.77361], [6.263273, 49.77352], [6.2633, 49.77352], [6.263422, 49.7732], [6.263502, 49.77301], [6.263659, 49.772694], [6.263803, 49.772366], [6.264086, 49.77174], [6.264215, 49.771446], [6.264292, 49.771282], [6.264326, 49.7712], [6.264372, 49.771114], [6.264467, 49.770924], [6.264509, 49.770844], [6.264589, 49.770657], [6.264669, 49.77049], [6.264517, 49.77044], [6.264528, 49.770393], [6.264616, 49.769962], [6.263937, 49.77002], [6.263197, 49.770073], [6.263185, 49.769875], [6.263174, 49.769722], [6.263166, 49.76961], [6.263163, 49.76958], [6.263151, 49.76944], [6.26314, 49.76929], [6.263132, 49.769154], [6.263128, 49.769123], [6.263121, 49.76902], [6.263121, 49.769005], [6.263102, 49.76871], [6.264749, 49.768417], [6.264868, 49.76874], [6.264887, 49.768795], [6.265177, 49.768837], [6.265406, 49.76889], [6.265509, 49.768925], [6.265749, 49.769016], [6.265982, 49.7691], [6.266458, 49.76926], [6.266741, 49.76937], [6.266951, 49.769466], [6.267111, 49.769554], [6.267267, 49.76965], [6.267313, 49.769608], [6.267447, 49.769463], [6.267469, 49.769432], [6.267054, 49.769287], [6.266508, 49.7691], [6.266569, 49.769016], [6.266604, 49.768982], [6.266645, 49.768997], [6.266684, 49.769], [6.26689, 49.76898], [6.266924, 49.76897], [6.266958, 49.768974], [6.266993, 49.768986], [6.267035, 49.769016], [6.267065, 49.769043], [6.267126, 49.76907], [6.267168, 49.769077], [6.267275, 49.769096], [6.267355, 49.769104], [6.267435, 49.7691], [6.267485, 49.76909], [6.267527, 49.76907], [6.267553, 49.769047], [6.267588, 49.76902], [6.267603, 49.769005], [6.267603, 49.76898], [6.267645, 49.768898], [6.268045, 49.768806], [6.26827, 49.768753], [6.268724, 49.768997], [6.269358, 49.76915], [6.2694, 49.769157], [6.270285, 49.769344], [6.270674, 49.76943], [6.270906, 49.76949], [6.271212, 49.769577], [6.271463, 49.769653], [6.271593, 49.769695], [6.271799, 49.769753], [6.271998, 49.76979], [6.272341, 49.769848], [6.272539, 49.76988], [6.272924, 49.769936], [6.272997, 49.769943], [6.273134, 49.769962], [6.273195, 49.769978], [6.27376, 49.770084], [6.273931, 49.770115], [6.274336, 49.77019], [6.274386, 49.770203], [6.274561, 49.77023], [6.274748, 49.770252], [6.274904, 49.77026], [6.275228, 49.770245], [6.275251, 49.770226], [6.275381, 49.769978], [6.275427, 49.769894], [6.27548, 49.769794], [6.275495, 49.769768], [6.275576, 49.76961], [6.27564, 49.76948], [6.275709, 49.769352], [6.275763, 49.76925], [6.275801, 49.76917], [6.276003, 49.76918], [6.276213, 49.769196], [6.276705, 49.769222], [6.276968, 49.76866], [6.276999, 49.768593], [6.277025, 49.76854], [6.277044, 49.768494], [6.27706, 49.768467], [6.277094, 49.768387], [6.277121, 49.768337], [6.277155, 49.76826], [6.277327, 49.76789], [6.278685, 49.76821], [6.279142, 49.767746], [6.279268, 49.767548], [6.279383, 49.76735], [6.279474, 49.767128], [6.279539, 49.766968], [6.279493, 49.766834], [6.279444, 49.766697], [6.278601, 49.766376], [6.277971, 49.76604], [6.277609, 49.765766], [6.27717, 49.76544], [6.276689, 49.765125], [6.275991, 49.76469], [6.275797, 49.764565], [6.275694, 49.76451], [6.275625, 49.764477], [6.275538, 49.76443], [6.275366, 49.76435], [6.275042, 49.764194], [6.275236, 49.763893], [6.275343, 49.763718], [6.275469, 49.763515], [6.275522, 49.763424], [6.275553, 49.763374], [6.275587, 49.76333], [6.275656, 49.763214], [6.276094, 49.763203], [6.276274, 49.763195], [6.276297, 49.76319], [6.276525, 49.763172], [6.276732, 49.76314], [6.276922, 49.763107], [6.27709, 49.763065], [6.277136, 49.763058], [6.277174, 49.76306], [6.277204, 49.763084], [6.277224, 49.763107], [6.277273, 49.76314], [6.277323, 49.76316], [6.277365, 49.763184], [6.277395, 49.76321], [6.277445, 49.763245], [6.277487, 49.76325], [6.277544, 49.763237], [6.277609, 49.763218], [6.277639, 49.763214], [6.277765, 49.763214], [6.277823, 49.763203], [6.277872, 49.763176], [6.277895, 49.76316], [6.277945, 49.763145], [6.277994, 49.76314], [6.278044, 49.763157], [6.278074, 49.763145], [6.278131, 49.763138], [6.278204, 49.76312], [6.278307, 49.763084], [6.278364, 49.76307], [6.278414, 49.763046], [6.278463, 49.763027], [6.278532, 49.763016], [6.278589, 49.763004], [6.278681, 49.76297], [6.278757, 49.76296], [6.27881, 49.762947], [6.278841, 49.762928], [6.278864, 49.762897], [6.278913, 49.76276], [6.278982, 49.762646], [6.278986, 49.76263], [6.27902, 49.762554], [6.279024, 49.76254], [6.278929, 49.76237], [6.278887, 49.762295], [6.278879, 49.76224], [6.278894, 49.762173], [6.278879, 49.762142], [6.278841, 49.762108], [6.278776, 49.762085], [6.278696, 49.762085], [6.278479, 49.762104], [6.278383, 49.7621], [6.278326, 49.762085], [6.278295, 49.76205], [6.278204, 49.761875], [6.278151, 49.76175], [6.278112, 49.76157], [6.278086, 49.76145], [6.278078, 49.761402], [6.277986, 49.76135], [6.277838, 49.76127], [6.277708, 49.76121], [6.277491, 49.761024], [6.277403, 49.76092], [6.277296, 49.760757], [6.277212, 49.7606], [6.277197, 49.76056], [6.277224, 49.760445], [6.277227, 49.7604], [6.277208, 49.76031], [6.277182, 49.76025], [6.277182, 49.760185], [6.277197, 49.760113], [6.277185, 49.76006], [6.277136, 49.760006], [6.277067, 49.75997], [6.276999, 49.75994], [6.27688, 49.75988], [6.27677, 49.75976], [6.276655, 49.759567], [6.27656, 49.75939], [6.276567, 49.75935], [6.276564, 49.759308], [6.276537, 49.75925], [6.276434, 49.759132], [6.276255, 49.758945], [6.276117, 49.75883], [6.275984, 49.758755], [6.275869, 49.758648], [6.27582, 49.75858], [6.275782, 49.758476], [6.275724, 49.758392], [6.275682, 49.758316], [6.275652, 49.758244], [6.275633, 49.758217], [6.27553, 49.758152], [6.275309, 49.758076], [6.275186, 49.75806], [6.274935, 49.75801], [6.27479, 49.757996], [6.274706, 49.757977], [6.274492, 49.757885], [6.274359, 49.757854], [6.27426, 49.757847], [6.274076, 49.757812], [6.273642, 49.757717], [6.273367, 49.75765], [6.273325, 49.757626], [6.273268, 49.75758], [6.273153, 49.75753], [6.272974, 49.757492], [6.272871, 49.757484], [6.272783, 49.7575], [6.272722, 49.75751], [6.272646, 49.7575], [6.272489, 49.75747], [6.272409, 49.757416], [6.272379, 49.757347], [6.272383, 49.75728], [6.272398, 49.7571], [6.272409, 49.756844], [6.272383, 49.756737], [6.272387, 49.756676], [6.272364, 49.75656], [6.272375, 49.75644], [6.272379, 49.756405], [6.272364, 49.7563], [6.272364, 49.75624], [6.272356, 49.7561], [6.27236, 49.75602], [6.272375, 49.755947], [6.272417, 49.755848], [6.27247, 49.755733], [6.272478, 49.755634], [6.272425, 49.75556], [6.27231, 49.75545], [6.272261, 49.755333], [6.272207, 49.755226], [6.272119, 49.755146], [6.271948, 49.75506], [6.271818, 49.754997], [6.271692, 49.75492], [6.27157, 49.75483], [6.27149, 49.754757], [6.271452, 49.75467], [6.27146, 49.754597], [6.271483, 49.754524], [6.27162, 49.75431], [6.271807, 49.754074], [6.271868, 49.753944], [6.271921, 49.75372], [6.271994, 49.753437], [6.272005, 49.753277], [6.27199, 49.753174], [6.271952, 49.753082], [6.271898, 49.752995], [6.271696, 49.752743], [6.271494, 49.752506], [6.271238, 49.75225], [6.270899, 49.75194], [6.270819, 49.751854], [6.270666, 49.75168], [6.270334, 49.751366], [6.270212, 49.75126], [6.270029, 49.751095], [6.269896, 49.75098], [6.269777, 49.750877], [6.269697, 49.750805], [6.269671, 49.750774], [6.269628, 49.75072], [6.269583, 49.750652], [6.269526, 49.75058], [6.269464, 49.750526], [6.269068, 49.75023], [6.268736, 49.749977], [6.268545, 49.749844], [6.268393, 49.749756], [6.26829, 49.74969], [6.268194, 49.749615], [6.268126, 49.749554], [6.268061, 49.749493], [6.267981, 49.749424], [6.267878, 49.749344], [6.267775, 49.74927], [6.267668, 49.74921], [6.267454, 49.749115], [6.267351, 49.749065], [6.267221, 49.749023], [6.267153, 49.749004], [6.267012, 49.748913], [6.266913, 49.74884], [6.266874, 49.748802], [6.266855, 49.74878], [6.266836, 49.748737], [6.266809, 49.748688], [6.266768, 49.748646], [6.266714, 49.748608], [6.26668, 49.74859], [6.266592, 49.74856], [6.266523, 49.748535], [6.266489, 49.74851], [6.266462, 49.74848], [6.266428, 49.74844], [6.26639, 49.7484], [6.266321, 49.748352], [6.266245, 49.748302], [6.266176, 49.748238], [6.266062, 49.748127], [6.266024, 49.74808], [6.266005, 49.748047], [6.265963, 49.747913], [6.265936, 49.74787], [6.265822, 49.74775], [6.265753, 49.747684], [6.26568, 49.747616], [6.265634, 49.74756], [6.265585, 49.747463], [6.265547, 49.747353], [6.265516, 49.74727], [6.265497, 49.747177], [6.26549, 49.74712], [6.265497, 49.747074], [6.265531, 49.747044], [6.265619, 49.74698], [6.265665, 49.74692], [6.265715, 49.746857], [6.265741, 49.7468], [6.265738, 49.746754], [6.265707, 49.746708], [6.265661, 49.746674], [6.2656, 49.74664], [6.265505, 49.74661], [6.265409, 49.7466], [6.265249, 49.746593], [6.265215, 49.746593], [6.26515, 49.74658], [6.26512, 49.746544], [6.2651, 49.746506], [6.265116, 49.746452], [6.265161, 49.746403], [6.2652, 49.746357], [6.2652, 49.746326], [6.265181, 49.746296], [6.265154, 49.746265], [6.265165, 49.74623], [6.265192, 49.74618], [6.265184, 49.746124], [6.265173, 49.746063], [6.265104, 49.745953], [6.26499, 49.74579], [6.264936, 49.745686], [6.264914, 49.74561], [6.264894, 49.74558], [6.264814, 49.745533], [6.264772, 49.745476], [6.264788, 49.745415], [6.264837, 49.745354], [6.264875, 49.745315], [6.264963, 49.745224], [6.2651, 49.74506], [6.265177, 49.74495], [6.265234, 49.744858], [6.265257, 49.744774], [6.265264, 49.744705], [6.265245, 49.744656], [6.265196, 49.74462], [6.265024, 49.744545], [6.264952, 49.7445], [6.264925, 49.744442], [6.264929, 49.74437], [6.264933, 49.74432], [6.26486, 49.744255], [6.26483, 49.74426], [6.26441, 49.74432], [6.264337, 49.74425], [6.264299, 49.744263], [6.263964, 49.744476], [6.263632, 49.74468], [6.263357, 49.74485], [6.263205, 49.744915], [6.262987, 49.744984], [6.262609, 49.7451], [6.262137, 49.745247], [6.262007, 49.74529], [6.26156, 49.745426], [6.261045, 49.74539], [6.260721, 49.745365], [6.260488, 49.74535], [6.260298, 49.74534], [6.260118, 49.745335], [6.25952, 49.74532], [6.259298, 49.745316], [6.259069, 49.745308], [6.258959, 49.7453], [6.258875, 49.745296], [6.258745, 49.745285], [6.258661, 49.745277], [6.258455, 49.745266], [6.258108, 49.745235], [6.258047, 49.745235], [6.257765, 49.74523], [6.257303, 49.745228], [6.257196, 49.745228], [6.257166, 49.745224], [6.257074, 49.745224], [6.256945, 49.74522], [6.256369, 49.745174], [6.256254, 49.745163], [6.255598, 49.745113], [6.255339, 49.74509], [6.255076, 49.745068], [6.255022, 49.745064], [6.255018, 49.74519], [6.254988, 49.74519], [6.254717, 49.745174], [6.254328, 49.745155], [6.253782, 49.745125], [6.253519, 49.745113], [6.25313, 49.745094], [6.252955, 49.74509], [6.252878, 49.745087], [6.252661, 49.745083], [6.252417, 49.745075], [6.251753, 49.745075], [6.251207, 49.745083], [6.250879, 49.745102], [6.250822, 49.745106], [6.250643, 49.74512], [6.25049, 49.74514], [6.250376, 49.74516], [6.250269, 49.74518], [6.250166, 49.7452], [6.249842, 49.745304], [6.249605, 49.745396], [6.249411, 49.745464], [6.249235, 49.745537], [6.249083, 49.745605], [6.248434, 49.745728], [6.247892, 49.7458], [6.247553, 49.74584], [6.247236, 49.745853], [6.247145, 49.745853], [6.247088, 49.745857], [6.246824, 49.745865], [6.246729, 49.745865], [6.246328, 49.745884], [6.245611, 49.745914], [6.245504, 49.745914], [6.245443, 49.74592], [6.245287, 49.745926], [6.245142, 49.74593], [6.244833, 49.745945], [6.244379, 49.745956], [6.243978, 49.74597], [6.243452, 49.74599], [6.243231, 49.746], [6.242975, 49.746006], [6.242666, 49.74602], [6.242521, 49.746033], [6.242132, 49.746063], [6.241621, 49.746105], [6.241365, 49.74613], [6.241243, 49.746147], [6.240934, 49.746197], [6.24032, 49.74631], [6.239477, 49.746464], [6.23921, 49.746517], [6.238989, 49.746563], [6.23889, 49.746586], [6.23868, 49.746643], [6.238569, 49.746677], [6.238317, 49.746746], [6.238119, 49.746803], [6.237753, 49.746914], [6.237623, 49.746952], [6.23749, 49.746986], [6.23736, 49.74702], [6.237249, 49.747044], [6.23712, 49.747066], [6.236864, 49.747105], [6.23641, 49.747166], [6.235838, 49.74725], [6.235365, 49.74732], [6.23506, 49.747337], [6.23472, 49.74736], [6.234388, 49.74738], [6.234259, 49.74739], [6.234091, 49.747402], [6.233793, 49.747417], [6.233007, 49.74746], [6.232386, 49.747498], [6.232115, 49.74752], [6.231363, 49.74759], [6.230932, 49.747627], [6.230741, 49.747536], [6.230681, 49.747543], [6.230284, 49.747765], [6.230146, 49.74784], [6.229864, 49.74799], [6.229498, 49.748188], [6.22938, 49.748253], [6.229219, 49.74835], [6.229067, 49.748447], [6.228487, 49.748894], [6.228231, 49.749073], [6.228193, 49.749332], [6.227869, 49.74955], [6.227587, 49.74972], [6.227594, 49.7498], [6.227629, 49.750084], [6.227671, 49.75049], [6.22772, 49.750893], [6.227739, 49.750965], [6.227789, 49.75112], [6.227827, 49.751255], [6.227869, 49.751385], [6.227911, 49.751526], [6.228037, 49.751938], [6.228075, 49.752064], [6.228113, 49.752193], [6.228151, 49.752316], [6.22819, 49.75245], [6.22827, 49.752705], [6.228293, 49.752785], [6.227266, 49.7527], [6.226755, 49.752666], [6.226538, 49.752666], [6.226393, 49.75267], [6.226267, 49.752678], [6.226126, 49.75268], [6.225859, 49.75287], [6.225431, 49.75317], [6.225287, 49.753445], [6.225145, 49.75372], [6.224981, 49.753975], [6.224585, 49.753998], [6.223833, 49.75404], [6.223364, 49.754063], [6.223124, 49.754074], [6.223024, 49.754177], [6.222956, 49.75425], [6.222929, 49.754272], [6.222784, 49.75442], [6.222567, 49.754646], [6.22262, 49.754856], [6.22267, 49.755154], [6.222742, 49.755516], [6.22323, 49.755707], [6.223787, 49.75592], [6.224871, 49.755856], [6.225168, 49.755814], [6.225275, 49.7558], [6.225462, 49.75577], [6.225779, 49.75573], [6.226126, 49.755753], [6.226316, 49.75577], [6.226614, 49.7558], [6.226973, 49.755848], [6.227247, 49.75589], [6.227861, 49.75599], [6.227846, 49.756287], [6.227827, 49.756588], [6.227816, 49.75666], [6.227778, 49.756924], [6.227743, 49.757133], [6.227735, 49.757225], [6.227732, 49.75743], [6.227667, 49.757774], [6.227655, 49.75784], [6.227594, 49.757977], [6.227484, 49.758217], [6.227411, 49.75838], [6.227228, 49.758625], [6.226996, 49.75893], [6.226599, 49.758957], [6.225992, 49.759003], [6.225485, 49.75904], [6.225287, 49.75906], [6.224608, 49.75907], [6.22405, 49.75901], [6.223417, 49.759155], [6.222998, 49.759254], [6.22249, 49.75948], [6.222044, 49.759686], [6.221956, 49.759727], [6.221933, 49.75973], [6.221945, 49.759766], [6.221941, 49.759815], [6.221922, 49.759872], [6.221891, 49.75993], [6.22183, 49.759968], [6.221777, 49.760017], [6.221766, 49.76008], [6.221781, 49.760147], [6.221846, 49.760204], [6.221949, 49.760242], [6.222044, 49.760265], [6.222128, 49.760296], [6.222513, 49.760647], [6.222582, 49.76069], [6.22265, 49.7607], [6.222788, 49.7607], [6.222952, 49.760723], [6.22307, 49.760788], [6.223173, 49.760864], [6.223223, 49.76094], [6.223234, 49.76101], [6.223257, 49.7611], [6.223291, 49.761143], [6.223349, 49.761173], [6.223433, 49.761173], [6.223558, 49.76119], [6.223642, 49.76121], [6.223776, 49.761284], [6.224066, 49.761463], [6.224222, 49.76156], [6.224382, 49.761635], [6.224485, 49.761654], [6.224596, 49.761677], [6.224695, 49.76173], [6.224832, 49.761864], [6.224962, 49.76197], [6.22502, 49.762035], [6.225016, 49.762077], [6.224985, 49.762146], [6.22497, 49.762215], [6.224981, 49.762287], [6.225008, 49.762356], [6.225103, 49.762463], [6.225412, 49.762676], [6.225573, 49.76278], [6.225672, 49.762848], [6.225706, 49.762897], [6.225729, 49.76302], [6.225779, 49.763115], [6.225893, 49.76321], [6.226026, 49.763325], [6.226206, 49.76345], [6.226259, 49.76351], [6.226286, 49.763603], [6.226294, 49.76369], [6.226305, 49.76378], [6.226336, 49.763866], [6.226397, 49.763973], [6.226458, 49.764004], [6.226545, 49.76401], [6.226606, 49.76403], [6.226671, 49.7641], [6.226709, 49.764187], [6.226683, 49.764286], [6.226713, 49.764362], [6.226778, 49.76442], [6.226889, 49.76449], [6.22698, 49.76452], [6.227121, 49.76454], [6.227289, 49.764553], [6.227438, 49.764576], [6.227514, 49.7646], [6.227705, 49.764694], [6.227789, 49.764744], [6.227823, 49.7648], [6.227854, 49.76488], [6.227888, 49.76498], [6.227995, 49.7651], [6.22809, 49.765186], [6.22822, 49.765263], [6.228353, 49.76531], [6.228453, 49.76536], [6.228472, 49.765434], [6.228472, 49.76546], [6.22862, 49.76548], [6.228701, 49.76551], [6.228765, 49.765545], [6.228754, 49.76557], [6.228754, 49.76563], [6.228769, 49.76568], [6.228811, 49.76573], [6.228849, 49.765774], [6.228857, 49.76582], [6.228849, 49.765923], [6.228868, 49.76601], [6.228937, 49.766132], [6.228998, 49.766254], [6.22912, 49.766453], [6.229185, 49.76652], [6.229338, 49.766582], [6.229444, 49.766655], [6.229517, 49.76674], [6.229547, 49.766785], [6.229551, 49.766834], [6.229555, 49.76691], [6.229567, 49.767002], [6.229578, 49.767082], [6.22959, 49.767124], [6.22959, 49.767204], [6.229559, 49.7673], [6.229498, 49.76744], [6.22946, 49.767536], [6.229441, 49.76753], [6.229364, 49.767498], [6.229219, 49.767452], [6.229162, 49.767456], [6.229116, 49.76748], [6.229094, 49.767506], [6.229032, 49.76769], [6.228956, 49.767868], [6.228853, 49.768017], [6.228792, 49.76807], [6.228685, 49.76817], [6.228586, 49.76824], [6.228418, 49.76841], [6.228392, 49.768448], [6.22838, 49.768494], [6.228388, 49.768597], [6.228376, 49.768635], [6.228086, 49.76884], [6.227495, 49.769283], [6.227312, 49.76941], [6.227263, 49.76945], [6.227243, 49.769505], [6.227243, 49.769543], [6.227293, 49.769596], [6.227346, 49.769657], [6.227358, 49.769703], [6.227362, 49.769775], [6.227339, 49.769825], [6.227285, 49.76988], [6.227182, 49.769936], [6.227175, 49.76996], [6.227194, 49.769993], [6.227228, 49.77007], [6.22687, 49.770252], [6.226587, 49.770344], [6.225897, 49.77056], [6.225649, 49.77063], [6.22521, 49.770714], [6.224775, 49.77078], [6.224218, 49.77081], [6.224035, 49.77085], [6.223638, 49.770958], [6.223322, 49.771088], [6.223036, 49.771263], [6.222834, 49.771442], [6.2227, 49.771603], [6.222612, 49.771828], [6.222559, 49.77209], [6.222529, 49.772385], [6.222506, 49.772564], [6.222555, 49.77272], [6.22262, 49.772873], [6.222506, 49.7729], [6.222601, 49.773098], [6.222708, 49.773167], [6.22275, 49.773212], [6.222761, 49.773254], [6.223043, 49.77359], [6.223211, 49.773804], [6.223368, 49.77399], [6.223482, 49.774006], [6.223524, 49.77431], [6.223494, 49.77453], [6.223448, 49.774723], [6.223375, 49.774895], [6.222998, 49.77527], [6.223021, 49.77531], [6.223047, 49.77535], [6.223051, 49.775383], [6.223036, 49.775402], [6.222998, 49.77542], [6.222864, 49.775436], [6.222811, 49.77544], [6.222727, 49.775505], [6.222662, 49.77555], [6.222677, 49.775597], [6.222517, 49.775887], [6.222467, 49.775894], [6.222506, 49.775978], [6.222185, 49.77583], [6.222071, 49.775826], [6.221838, 49.77583], [6.221682, 49.775826], [6.22151, 49.775852], [6.221254, 49.77589], [6.220915, 49.775944], [6.220777, 49.77607], [6.22048, 49.77634], [6.220491, 49.77644], [6.220438, 49.77653], [6.220415, 49.776596], [6.220404, 49.776665], [6.220404, 49.776768], [6.22043, 49.77684], [6.220446, 49.776894], [6.220446, 49.776913], [6.2204, 49.776955], [6.220365, 49.776985], [6.220354, 49.777008], [6.22035, 49.777035]]]]}}]}