{"type": "FeatureCollection", "features": [{"type": "Feature", "properties": {"name": "Parc Municipal", "kind": "park"}, "geometry": {"type": "Polygon", "coordinates": [[[6.1598838, 49.8660004], [6.159865, 49.8659701], [6.1598782, 49.8658655], [6.1598654, 49.8657854], [6.1598112, 49.8657158], [6.1597232, 49.8656571], [6.159622, 49.8656183], [6.1596256, 49.8655712], [6.159594, 49.8655288], [6.1594796, 49.8654462], [6.1590442, 49.8651986], [6.1585889, 49.8649206], [6.1583168, 49.8650273], [6.158143, 49.865075], [6.1580102, 49.8651038], [6.1579268, 49.8651114], [6.1578097, 49.8651221], [6.1578357, 49.865277], [6.1583395, 49.8654322], [6.1583819, 49.8654821], [6.1582742, 49.8656236], [6.158509, 49.865705], [6.1585274, 49.8656736], [6.1585832, 49.8656967], [6.1586399, 49.8656232], [6.1587579, 49.865661], [6.1587011, 49.8657345], [6.1586624, 49.8658138], [6.1588417, 49.8659045], [6.1589813, 49.8659796], [6.1591702, 49.8659352], [6.1593626, 49.8659287], [6.1595161, 49.8659406], [6.1596926, 49.8660114], [6.1600169, 49.8662005], [6.1603733, 49.8664166], [6.1604084, 49.8663842], [6.1605121, 49.8664584], [6.1605677, 49.8664264], [6.1606823, 49.8664401], [6.1605439, 49.8663647], [6.1604165, 49.8662316], [6.1603189, 49.8661747], [6.160096, 49.866079], [6.1598838, 49.8660004]]]}}]}