{"type": "FeatureCollection", "features": [{"type": "Feature", "properties": {"name": "Bereldange"}, "geometry": {"type": "Polygon", "coordinates": [[[6.133449, 49.6503104], [6.1333926, 49.6502835], [6.1330488, 49.6502171], [6.1321392, 49.6500229], [6.1313665, 49.6498514], [6.1306541, 49.6496982], [6.1306286, 49.6496917], [6.1306016, 49.6496848], [6.1305618, 49.6496747], [6.1303143, 49.6496118], [6.1295478, 49.649417], [6.1295156, 49.6494089], [6.1289035, 49.6492539], [6.1287793, 49.6492221], [6.1287771, 49.6492365], [6.1287515, 49.6494023], [6.1287232, 49.6493956], [6.1284601, 49.6493337], [6.1282721, 49.64929], [6.1282528, 49.6492868], [6.1282527, 49.6492865], [6.1282503, 49.6492863], [6.1281415, 49.6492749], [6.1280684, 49.6492672], [6.1279295, 49.6492546], [6.1278488, 49.6492473], [6.1278492, 49.6492451], [6.1278507, 49.649226], [6.127648, 49.6492039], [6.1276335, 49.6492022], [6.1274834, 49.6491866], [6.1273225, 49.6491697], [6.1273103, 49.6491685], [6.1273066, 49.6491681], [6.127277, 49.649165], [6.1272231, 49.649161], [6.12721, 49.6491601], [6.1270487, 49.6491483], [6.1268553, 49.6491341], [6.1267953, 49.6491297], [6.1267573, 49.649127], [6.1267207, 49.6491243], [6.1266717, 49.6491174], [6.1266151, 49.6491094], [6.1261984, 49.6490506], [6.1259172, 49.6490113], [6.1256519, 49.6489742], [6.1253173, 49.6489274], [6.1250704, 49.6488929], [6.1246418, 49.6488288], [6.1244904, 49.6488062], [6.1243616, 49.6487869], [6.1242329, 49.6487677], [6.124118, 49.6487505], [6.123923, 49.6487189], [6.1237876, 49.6486998], [6.123698, 49.6486871], [6.1236157, 49.6486753], [6.1235471, 49.6486656], [6.123524, 49.6486622], [6.1234794, 49.6486556], [6.1234139, 49.648646], [6.1232584, 49.6486231], [6.123127, 49.6486038], [6.1230372, 49.6485903], [6.1229661, 49.6485764], [6.1228725, 49.6485612], [6.1227526, 49.6485418], [6.1223986, 49.6484843], [6.1223731, 49.6484802], [6.1223489, 49.6484741], [6.1222633, 49.6484562], [6.122179, 49.6484376], [6.121974, 49.6483935], [6.121756, 49.6483453], [6.1217202, 49.6483377], [6.1217034, 49.6483339], [6.1215374, 49.6482977], [6.1214158, 49.6482795], [6.1210423, 49.6482236], [6.1206852, 49.6481702], [6.1205605, 49.6481515], [6.1205506, 49.64815], [6.1204718, 49.6481424], [6.120348, 49.6481342], [6.1201933, 49.6481264], [6.1201056, 49.6481267], [6.1198892, 49.6481284], [6.1198555, 49.6481263], [6.1196869, 49.6481124], [6.1195535, 49.6480982], [6.1194753, 49.6480921], [6.1194194, 49.6480885], [6.1193606, 49.6480903], [6.1193315, 49.6480923], [6.1192845, 49.6480956], [6.1191454, 49.6481097], [6.1191081, 49.6481229], [6.1190517, 49.6481595], [6.1190262, 49.648176], [6.1189171, 49.6482653], [6.1188769, 49.6482937], [6.1188403, 49.6483096], [6.1188177, 49.6483153], [6.1187672, 49.6483281], [6.1186581, 49.6483458], [6.1186266, 49.6483504], [6.118473, 49.6483732], [6.1182867, 49.6485279], [6.1181317, 49.648774], [6.1180619, 49.6488851], [6.1180203, 49.6489514], [6.1176764, 49.649448], [6.1175382, 49.6496487], [6.1175214, 49.6496731], [6.1168607, 49.6501636], [6.1155967, 49.6501093], [6.1155547, 49.6500695], [6.1140968, 49.6503105], [6.1134351, 49.6503229], [6.1131913, 49.6503302], [6.1129976, 49.6503], [6.1118977, 49.6500307], [6.1101355, 49.6494362], [6.1085692, 49.6491226], [6.1079503, 49.6489207], [6.107761, 49.6487997], [6.1074783, 49.6483936], [6.1073729, 49.6483086], [6.1067794, 49.6479333], [6.1068795, 49.6477515], [6.1067302, 49.6477123], [6.1067289, 49.6477131], [6.1063989, 49.6473043], [6.10589, 49.6468908], [6.1049386, 49.6467429], [6.1036222, 49.6466229], [6.1028712, 49.6465355], [6.1023962, 49.6464876], [6.1014558, 49.6463224], [6.1011644, 49.6462712], [6.1010993, 49.646319], [6.1008177, 49.6468147], [6.1001989, 49.6477523], [6.0994857, 49.6487557], [6.0987817, 49.6498229], [6.0981407, 49.6508027], [6.099191, 49.6515191], [6.0996698, 49.6518403], [6.0997443, 49.6519658], [6.0998518, 49.6521355], [6.1000193, 49.6523937], [6.100121, 49.6525431], [6.1003502, 49.652858], [6.100679, 49.653302], [6.1008538, 49.6535325], [6.1011591, 49.6539128], [6.1012967, 49.6540881], [6.1015357, 49.6543806], [6.1015859, 49.6544348], [6.1017496, 49.6546232], [6.1022593, 49.6551806], [6.1024184, 49.6553519], [6.102463, 49.6553968], [6.102638, 49.6555894], [6.1028426, 49.6558037], [6.1032177, 49.6560135], [6.1035668, 49.6562126], [6.1038675, 49.6563815], [6.1041849, 49.6565515], [6.1042058, 49.6564708], [6.1048329, 49.6566354], [6.1053934, 49.6567799], [6.1056005, 49.6569407], [6.105838, 49.657121], [6.1059903, 49.6572437], [6.106093, 49.6573199], [6.1063786, 49.6574771], [6.1067569, 49.6576813], [6.1074258, 49.6580575], [6.1077371, 49.6581461], [6.1078844, 49.6581853], [6.108783, 49.6583896], [6.1097885, 49.6586148], [6.1102172, 49.6587011], [6.1106722, 49.6587832], [6.11113, 49.6588592], [6.111691, 49.6589428], [6.1120073, 49.6589969], [6.1122524, 49.6590469], [6.1124252, 49.6590906], [6.1126125, 49.6591421], [6.1128702, 49.6592344], [6.1132144, 49.6593632], [6.1131801, 49.6591219], [6.1131182, 49.6587151], [6.1130459, 49.6581921], [6.114088, 49.6583783], [6.114928, 49.6585336], [6.1149604, 49.6590086], [6.114986, 49.6596042], [6.1152932, 49.659607], [6.1155056, 49.659612], [6.1156854, 49.6596197], [6.1159242, 49.6596334], [6.1161109, 49.6596482], [6.116236, 49.6596641], [6.1164353, 49.6596965], [6.1166422, 49.659742], [6.1171743, 49.659874], [6.117192, 49.6598288], [6.1172499, 49.6598441], [6.1182771, 49.6601341], [6.1190544, 49.6603484], [6.1195934, 49.6605024], [6.1193569, 49.6609558], [6.119292, 49.6610576], [6.1191624, 49.6611902], [6.1189029, 49.6614378], [6.1187238, 49.6615915], [6.1191271, 49.6617511], [6.1194817, 49.6615447], [6.1195968, 49.6614596], [6.1196828, 49.6613818], [6.1197691, 49.6614123], [6.1199309, 49.6611389], [6.1201707, 49.6607454], [6.1213927, 49.6608656], [6.1230354, 49.6610411], [6.1233899, 49.6610828], [6.1233868, 49.6611609], [6.1233269, 49.661167], [6.1232421, 49.6612212], [6.1231219, 49.6613758], [6.1229799, 49.661511], [6.1228611, 49.661669], [6.1226536, 49.6619576], [6.1224718, 49.6621816], [6.1222717, 49.6623508], [6.1244364, 49.6629968], [6.1250049, 49.6631692], [6.1249391, 49.6632277], [6.1250988, 49.6632725], [6.1254518, 49.6633675], [6.1256328, 49.6634191], [6.125796, 49.6634717], [6.127016, 49.663431], [6.1285296, 49.6613502], [6.1295743, 49.6612505], [6.1301034, 49.6605525], [6.1300105, 49.6590054], [6.1299512, 49.6576184], [6.1301376, 49.6571357], [6.1303512, 49.6563647], [6.1288833, 49.6555502], [6.1304114, 49.6542186], [6.1310276, 49.6528181], [6.1323105, 49.6517782], [6.133449, 49.6503104]]]}}]}