{"type": "FeatureCollection", "features": [{"type": "Feature", "properties": {"name": "Contern"}, "geometry": {"type": "MultiPolygon", "coordinates": [[[[6.195417, 49.582268], [6.195421, 49.582325], [6.195436, 49.582504], [6.195456, 49.582752], [6.195463, 49.582825], [6.19594, 49.58296], [6.196176, 49.582993], [6.196264, 49.583004], [6.196844, 49.583065], [6.197344, 49.583115], [6.197519, 49.58315], [6.197729, 49.58319], [6.197935, 49.58323], [6.198149, 49.58327], [6.198355, 49.58331], [6.198538, 49.583336], [6.198896, 49.583385], [6.199442, 49.583458], [6.200014, 49.583553], [6.200064, 49.58356], [6.200064, 49.583584], [6.20006, 49.58367], [6.200037, 49.584328], [6.200136, 49.58433], [6.200602, 49.58435], [6.201284, 49.584373], [6.201517, 49.58439], [6.201777, 49.584404], [6.201837, 49.584408], [6.20204, 49.584427], [6.20207, 49.584427], [6.202292, 49.584435], [6.202288, 49.584446], [6.202269, 49.58448], [6.202257, 49.584503], [6.202185, 49.58462], [6.202116, 49.58474], [6.202093, 49.58479], [6.202066, 49.58484], [6.202017, 49.58493], [6.201998, 49.584984], [6.201956, 49.585087], [6.201918, 49.58519], [6.201899, 49.585262], [6.201883, 49.585327], [6.201853, 49.585445], [6.201666, 49.58557], [6.201635, 49.585594], [6.201479, 49.585697], [6.201368, 49.585766], [6.201223, 49.585873], [6.201105, 49.585957], [6.200983, 49.586052], [6.200834, 49.586178], [6.200689, 49.586304], [6.200537, 49.58643], [6.200365, 49.586575], [6.200045, 49.58685], [6.200018, 49.586876], [6.199949, 49.586933], [6.199781, 49.587086], [6.199743, 49.58712], [6.199709, 49.58721], [6.199694, 49.587254], [6.199671, 49.58731], [6.199663, 49.587337], [6.199663, 49.587383], [6.199678, 49.587444], [6.199678, 49.58749], [6.199675, 49.58752], [6.199659, 49.58755], [6.199644, 49.587578], [6.199629, 49.587593], [6.199614, 49.587616], [6.199583, 49.587654], [6.199572, 49.58769], [6.199568, 49.58775], [6.199568, 49.58784], [6.199575, 49.588062], [6.199575, 49.588116], [6.199591, 49.588398], [6.199625, 49.588387], [6.199728, 49.588654], [6.199732, 49.58867], [6.199839, 49.58893], [6.199713, 49.588955], [6.199213, 49.58905], [6.198996, 49.589073], [6.198771, 49.58913], [6.198599, 49.589127], [6.197851, 49.589294], [6.19771, 49.58935], [6.197531, 49.589443], [6.197424, 49.589504], [6.197325, 49.58956], [6.197245, 49.58962], [6.19718, 49.589684], [6.197248, 49.589855], [6.197325, 49.589905], [6.197416, 49.589966], [6.197439, 49.58998], [6.197477, 49.590015], [6.197504, 49.590034], [6.197531, 49.590057], [6.197561, 49.59008], [6.197588, 49.590103], [6.197672, 49.59017], [6.197782, 49.59023], [6.19792, 49.590282], [6.198111, 49.59034], [6.198393, 49.590416], [6.19869, 49.590504], [6.198801, 49.590538], [6.199179, 49.590637], [6.199366, 49.5907], [6.199453, 49.590725], [6.19961, 49.59074], [6.199655, 49.590763], [6.19969, 49.590805], [6.19972, 49.59083], [6.199789, 49.59085], [6.200064, 49.590855], [6.20014, 49.59086], [6.200182, 49.590874], [6.200193, 49.59088], [6.200213, 49.59094], [6.200228, 49.59095], [6.20027, 49.590935], [6.200308, 49.590927], [6.200335, 49.590935], [6.200388, 49.590977], [6.200453, 49.590984], [6.200483, 49.590992], [6.200518, 49.59102], [6.200537, 49.591034], [6.200567, 49.59104], [6.200663, 49.591057], [6.200685, 49.5911], [6.200712, 49.591125], [6.200735, 49.591125], [6.200796, 49.59112], [6.200899, 49.59111], [6.201052, 49.59116], [6.201204, 49.59119], [6.201231, 49.591385], [6.201284, 49.591736], [6.201521, 49.592045], [6.20299, 49.592976], [6.20331, 49.593163], [6.203539, 49.593296], [6.203627, 49.593346], [6.204187, 49.593655], [6.204268, 49.5937], [6.204382, 49.593887], [6.20439, 49.5939], [6.204405, 49.59393], [6.20466, 49.594357], [6.205206, 49.59477], [6.205217, 49.594776], [6.205698, 49.595108], [6.206278, 49.595676], [6.206312, 49.5957], [6.206438, 49.595757], [6.206579, 49.595837], [6.20664, 49.59587], [6.206728, 49.595936], [6.206835, 49.596012], [6.207098, 49.596222], [6.207174, 49.596287], [6.207357, 49.59643], [6.207617, 49.596622], [6.207808, 49.59676], [6.208292, 49.597084], [6.208532, 49.59724], [6.20907, 49.597603], [6.20912, 49.59771], [6.209166, 49.597816], [6.209307, 49.59815], [6.209494, 49.59858], [6.209498, 49.59859], [6.20952, 49.59867], [6.209543, 49.598743], [6.209722, 49.59937], [6.209803, 49.599506], [6.209875, 49.599606], [6.209894, 49.599632], [6.210043, 49.599834], [6.21028, 49.599995], [6.210554, 49.600193], [6.210779, 49.600353], [6.210951, 49.60047], [6.211054, 49.600533], [6.211485, 49.600792], [6.211569, 49.600845], [6.211733, 49.600945], [6.212046, 49.60114], [6.212492, 49.601414], [6.212759, 49.601574], [6.213808, 49.602222], [6.214151, 49.602444], [6.21456, 49.602707], [6.214937, 49.60274], [6.215757, 49.60281], [6.216421, 49.602913], [6.217928, 49.60314], [6.218264, 49.6032], [6.218374, 49.603214], [6.218519, 49.603233], [6.218737, 49.603245], [6.219088, 49.603268], [6.219419, 49.603287], [6.219709, 49.603306], [6.220167, 49.603325], [6.220438, 49.603325], [6.220839, 49.60333], [6.221163, 49.60333], [6.221132, 49.60319], [6.22138, 49.603146], [6.221678, 49.603085], [6.221968, 49.603065], [6.221975, 49.60308], [6.222105, 49.603], [6.222139, 49.602985], [6.222185, 49.602978], [6.222254, 49.602978], [6.22233, 49.60298], [6.22238, 49.602978], [6.222414, 49.602955], [6.222471, 49.602905], [6.222509, 49.602882], [6.222574, 49.60286], [6.22265, 49.60283], [6.222712, 49.602795], [6.222788, 49.602737], [6.222887, 49.60266], [6.222956, 49.60261], [6.223001, 49.602585], [6.223158, 49.602505], [6.223242, 49.60246], [6.223288, 49.602417], [6.22333, 49.60237], [6.223379, 49.6023], [6.223421, 49.60222], [6.223467, 49.60211], [6.223501, 49.602024], [6.223562, 49.60205], [6.22373, 49.602127], [6.223997, 49.60224], [6.224043, 49.60226], [6.224001, 49.60243], [6.223986, 49.602486], [6.22399, 49.60252], [6.224001, 49.602562], [6.224016, 49.602608], [6.224031, 49.602665], [6.224089, 49.60279], [6.224153, 49.602917], [6.224207, 49.60301], [6.224279, 49.60311], [6.224329, 49.60318], [6.224863, 49.603046], [6.224993, 49.603012], [6.225134, 49.602978], [6.225374, 49.602917], [6.225542, 49.60287], [6.225729, 49.602814], [6.226118, 49.602688], [6.226206, 49.60246], [6.226343, 49.60211], [6.226725, 49.60223], [6.226904, 49.60229], [6.22719, 49.602398], [6.227385, 49.602474], [6.22748, 49.60248], [6.228506, 49.60284], [6.22896, 49.60301], [6.229231, 49.603104], [6.22946, 49.60342], [6.229559, 49.603546], [6.22967, 49.60362], [6.229738, 49.60365], [6.229864, 49.6037], [6.230135, 49.603794], [6.230253, 49.60384], [6.230459, 49.603916], [6.230566, 49.60395], [6.230669, 49.60398], [6.230784, 49.604004], [6.230928, 49.60403], [6.23115, 49.604065], [6.231203, 49.60359], [6.231241, 49.60321], [6.231276, 49.60323], [6.231432, 49.603283], [6.231657, 49.60336], [6.231955, 49.60346], [6.232103, 49.603436], [6.232378, 49.603394], [6.232614, 49.603355], [6.232855, 49.60342], [6.232897, 49.60343], [6.23316, 49.603664], [6.233526, 49.60381], [6.233774, 49.603912], [6.233896, 49.603737], [6.234026, 49.603554], [6.234327, 49.60317], [6.234491, 49.6031], [6.235407, 49.60336], [6.235529, 49.603397], [6.235636, 49.603424], [6.235647, 49.603428], [6.235647, 49.603477], [6.235624, 49.603504], [6.235514, 49.603504], [6.235487, 49.603527], [6.235491, 49.603554], [6.235525, 49.60361], [6.235594, 49.60365], [6.23562, 49.603672], [6.235598, 49.60374], [6.235594, 49.603775], [6.235628, 49.60382], [6.235682, 49.603886], [6.235685, 49.60392], [6.23562, 49.60397], [6.235575, 49.60403], [6.235586, 49.604115], [6.235598, 49.604187], [6.235601, 49.604298], [6.235582, 49.604332], [6.235491, 49.60439], [6.235472, 49.604412], [6.235483, 49.604446], [6.235498, 49.60448], [6.23551, 49.604534], [6.235529, 49.60456], [6.235559, 49.60458], [6.235601, 49.604584], [6.235651, 49.60458], [6.235758, 49.604557], [6.235815, 49.60455], [6.235899, 49.604557], [6.235945, 49.604572], [6.235987, 49.604607], [6.235979, 49.60465], [6.235895, 49.60473], [6.235846, 49.604794], [6.23583, 49.604843], [6.235846, 49.60488], [6.235884, 49.604916], [6.235945, 49.60493], [6.236177, 49.604973], [6.236265, 49.605], [6.236353, 49.60505], [6.236498, 49.60514], [6.236608, 49.605217], [6.23662, 49.605247], [6.236597, 49.605274], [6.236548, 49.60531], [6.236548, 49.605324], [6.236586, 49.605343], [6.236662, 49.605362], [6.236727, 49.60539], [6.236921, 49.605526], [6.236929, 49.60556], [6.236902, 49.605583], [6.236849, 49.605602], [6.236818, 49.60563], [6.236826, 49.605667], [6.236876, 49.60575], [6.236883, 49.605785], [6.236841, 49.605865], [6.236845, 49.60589], [6.236933, 49.60595], [6.236994, 49.60601], [6.237055, 49.606052], [6.237101, 49.60606], [6.237207, 49.606045], [6.237299, 49.60604], [6.237368, 49.60606], [6.237413, 49.606087], [6.237425, 49.60612], [6.237413, 49.606182], [6.23733, 49.606308], [6.237303, 49.606384], [6.237314, 49.60643], [6.237345, 49.60647], [6.237413, 49.60654], [6.237417, 49.60658], [6.237387, 49.606625], [6.23733, 49.606647], [6.237257, 49.606632], [6.237207, 49.60662], [6.237173, 49.60663], [6.237158, 49.60666], [6.237165, 49.60672], [6.237139, 49.60677], [6.237055, 49.606808], [6.236982, 49.60681], [6.236803, 49.6068], [6.236685, 49.606808], [6.236593, 49.606834], [6.236525, 49.606884], [6.236521, 49.60692], [6.236544, 49.606945], [6.236589, 49.60696], [6.236719, 49.606964], [6.236769, 49.606976], [6.236784, 49.60699], [6.236757, 49.60702], [6.236696, 49.607063], [6.236666, 49.6071], [6.236673, 49.607143], [6.236731, 49.60719], [6.236753, 49.607216], [6.236742, 49.60725], [6.236708, 49.607296], [6.236715, 49.607323], [6.236761, 49.607357], [6.236761, 49.60738], [6.236673, 49.60747], [6.236559, 49.60757], [6.236513, 49.607586], [6.236425, 49.607582], [6.236368, 49.607594], [6.236303, 49.607624], [6.236197, 49.60772], [6.236204, 49.60774], [6.23625, 49.6078], [6.236277, 49.60784], [6.236456, 49.608093], [6.236513, 49.60817], [6.236593, 49.608273], [6.236734, 49.608387], [6.23691, 49.608536], [6.237055, 49.608654], [6.237131, 49.608707], [6.237177, 49.608738], [6.237227, 49.608776], [6.237322, 49.608845], [6.23741, 49.608906], [6.237463, 49.608948], [6.237543, 49.609005], [6.237776, 49.609173], [6.237802, 49.609184], [6.238775, 49.609657], [6.239725, 49.610073], [6.239778, 49.61005], [6.239985, 49.609955], [6.240179, 49.609863], [6.240267, 49.60982], [6.240385, 49.609768], [6.24053, 49.609695], [6.24058, 49.609673], [6.240645, 49.609646], [6.240805, 49.609573], [6.240896, 49.609528], [6.240934, 49.609512], [6.241022, 49.60947], [6.241194, 49.60939], [6.241686, 49.609173], [6.241789, 49.609123], [6.241896, 49.609074], [6.241999, 49.60903], [6.242308, 49.608894], [6.242422, 49.608845], [6.242666, 49.608738], [6.242826, 49.60867], [6.243036, 49.608578], [6.243311, 49.608456], [6.243666, 49.6083], [6.244028, 49.608143], [6.244242, 49.60806], [6.244455, 49.60797], [6.244657, 49.60789], [6.24486, 49.607815], [6.245062, 49.607735], [6.245138, 49.607704], [6.245169, 49.607693], [6.245283, 49.607647], [6.245562, 49.607533], [6.245851, 49.607418], [6.246138, 49.60731], [6.246344, 49.60724], [6.246458, 49.6072], [6.246527, 49.607174], [6.246687, 49.60712], [6.24684, 49.60707], [6.246973, 49.60703], [6.247011, 49.607014], [6.247183, 49.60696], [6.247351, 49.606903], [6.247442, 49.606873], [6.247629, 49.60681], [6.247797, 49.606754], [6.247866, 49.60673], [6.247938, 49.60671], [6.248087, 49.60666], [6.248426, 49.606544], [6.2488, 49.606415], [6.249018, 49.606342], [6.249056, 49.606327], [6.249227, 49.60627], [6.249281, 49.60625], [6.249311, 49.606243], [6.249563, 49.606155], [6.249613, 49.60614], [6.249708, 49.606106], [6.249834, 49.606052], [6.250067, 49.60594], [6.250132, 49.605915], [6.250197, 49.605896], [6.250433, 49.605804], [6.250738, 49.605682], [6.251146, 49.605553], [6.251276, 49.605515], [6.251326, 49.6055], [6.251387, 49.605484], [6.251421, 49.605473], [6.25189, 49.605343], [6.252428, 49.605198], [6.253389, 49.604946], [6.254003, 49.604786], [6.254133, 49.60475], [6.254248, 49.60472], [6.254419, 49.60468], [6.254499, 49.60468], [6.254713, 49.604675], [6.254888, 49.60467], [6.255129, 49.60467], [6.255362, 49.604668], [6.25551, 49.604664], [6.256144, 49.604664], [6.256281, 49.60467], [6.256304, 49.60467], [6.256494, 49.604687], [6.256567, 49.604694], [6.256685, 49.60471], [6.256819, 49.60472], [6.256891, 49.604733], [6.257074, 49.60475], [6.257124, 49.60476], [6.257196, 49.604767], [6.257517, 49.604805], [6.257563, 49.60481], [6.257608, 49.604816], [6.257757, 49.60483], [6.257807, 49.60484], [6.257868, 49.604843], [6.25791, 49.60485], [6.257975, 49.60486], [6.258955, 49.60501], [6.258966, 49.60501], [6.259062, 49.605003], [6.259127, 49.605], [6.259169, 49.604996], [6.259203, 49.604992], [6.259287, 49.604984], [6.259432, 49.604973], [6.259699, 49.604946], [6.260023, 49.604916], [6.261251, 49.604813], [6.261743, 49.60477], [6.261896, 49.60476], [6.261976, 49.60475], [6.26214, 49.604736], [6.262381, 49.604717], [6.263411, 49.604668], [6.263693, 49.604656], [6.263727, 49.604656], [6.263819, 49.604595], [6.264113, 49.60459], [6.264151, 49.604584], [6.265097, 49.604527], [6.265284, 49.604515], [6.265463, 49.6045], [6.265593, 49.604485], [6.265608, 49.60446], [6.265516, 49.60442], [6.26531, 49.604313], [6.265272, 49.60429], [6.265295, 49.604267], [6.265394, 49.604176], [6.265512, 49.604065], [6.265585, 49.603992], [6.265642, 49.603962], [6.265863, 49.603848], [6.265966, 49.60379], [6.266016, 49.603764], [6.266359, 49.603592], [6.266703, 49.603424], [6.26771, 49.60292], [6.267954, 49.602802], [6.268179, 49.602848], [6.268351, 49.60288], [6.268709, 49.602932], [6.268919, 49.602962], [6.269045, 49.602985], [6.269163, 49.60301], [6.269319, 49.603046], [6.269464, 49.60308], [6.269587, 49.60311], [6.269831, 49.603172], [6.269926, 49.603207], [6.270033, 49.60325], [6.270117, 49.60328], [6.270231, 49.603325], [6.27035, 49.603374], [6.270548, 49.60345], [6.270723, 49.60352], [6.270948, 49.603603], [6.271341, 49.603745], [6.271433, 49.603638], [6.271475, 49.60365], [6.271891, 49.603794], [6.272074, 49.603863], [6.272505, 49.604053], [6.272718, 49.60414], [6.272829, 49.604183], [6.272875, 49.604202], [6.273081, 49.604275], [6.273371, 49.604362], [6.27355, 49.60442], [6.273848, 49.604507], [6.274118, 49.604588], [6.274305, 49.604645], [6.274744, 49.60477], [6.274893, 49.60472], [6.27492, 49.604713], [6.274973, 49.604694], [6.275076, 49.60466], [6.275213, 49.604614], [6.275259, 49.604603], [6.275312, 49.604584], [6.275339, 49.604576], [6.275538, 49.60451], [6.275618, 49.604485], [6.275721, 49.60445], [6.276026, 49.60435], [6.276064, 49.60434], [6.275934, 49.60418], [6.275736, 49.603916], [6.275499, 49.603592], [6.275488, 49.60355], [6.275476, 49.6035], [6.274939, 49.602913], [6.274771, 49.60272], [6.274672, 49.602592], [6.274653, 49.60255], [6.274633, 49.602474], [6.274607, 49.60239], [6.274534, 49.60229], [6.274439, 49.602173], [6.274267, 49.601948], [6.273958, 49.601513], [6.273786, 49.6013], [6.273821, 49.601288], [6.273912, 49.601254], [6.274168, 49.601154], [6.274427, 49.601055], [6.274595, 49.600994], [6.274893, 49.60088], [6.275175, 49.600777], [6.275412, 49.60069], [6.275488, 49.60077], [6.275583, 49.600853], [6.275679, 49.60094], [6.275763, 49.60101], [6.275923, 49.60113], [6.276079, 49.601242], [6.276163, 49.6013], [6.276289, 49.601364], [6.276426, 49.601433], [6.276495, 49.60146], [6.276689, 49.601524], [6.276758, 49.60154], [6.27696, 49.601578], [6.277109, 49.6016], [6.277449, 49.60164], [6.277475, 49.6018], [6.277491, 49.601883], [6.277502, 49.60195], [6.277514, 49.601997], [6.27754, 49.602116], [6.278109, 49.6021], [6.278349, 49.602097], [6.278662, 49.602097], [6.279089, 49.602108], [6.279432, 49.602135], [6.279833, 49.602165], [6.279974, 49.602306], [6.280649, 49.60247], [6.280729, 49.602493], [6.280935, 49.60253], [6.281412, 49.60262], [6.281965, 49.602715], [6.282087, 49.602734], [6.282137, 49.60274], [6.28219, 49.60275], [6.282331, 49.602737], [6.282721, 49.60271], [6.283033, 49.60269], [6.283297, 49.602676], [6.283483, 49.602665], [6.284391, 49.60263], [6.284937, 49.602608], [6.285311, 49.6024], [6.285795, 49.602123], [6.286337, 49.601818], [6.286852, 49.60183], [6.287199, 49.601833], [6.28763, 49.60183], [6.288107, 49.601826], [6.288515, 49.601818], [6.28861, 49.60168], [6.288774, 49.601448], [6.288973, 49.601173], [6.289125, 49.600952], [6.289183, 49.60081], [6.289308, 49.60045], [6.289339, 49.60035], [6.289431, 49.6001], [6.289553, 49.59976], [6.289763, 49.59962], [6.289823, 49.59958], [6.290011, 49.59945], [6.290129, 49.599354], [6.290319, 49.599216], [6.290369, 49.599155], [6.290556, 49.599113], [6.290846, 49.599045], [6.291044, 49.599], [6.291166, 49.598965], [6.291265, 49.59893], [6.291391, 49.598877], [6.291582, 49.5988], [6.29178, 49.598717], [6.291868, 49.598682], [6.291918, 49.598663], [6.291979, 49.59865], [6.292067, 49.598637], [6.29217, 49.59864], [6.292242, 49.598648], [6.292402, 49.598648], [6.292479, 49.59865], [6.292559, 49.59866], [6.29265, 49.59866], [6.292791, 49.59865], [6.292875, 49.59864], [6.293047, 49.598625], [6.293314, 49.59859], [6.293478, 49.598568], [6.293558, 49.598553], [6.293715, 49.598526], [6.294062, 49.598454], [6.294168, 49.59843], [6.294409, 49.598377], [6.294718, 49.598312], [6.295179, 49.598217], [6.295324, 49.597965], [6.295431, 49.597775], [6.2955, 49.59764], [6.295584, 49.597466], [6.295843, 49.596912], [6.295984, 49.596615], [6.296041, 49.596504], [6.296087, 49.596424], [6.296148, 49.59633], [6.296206, 49.596237], [6.296324, 49.59605], [6.296385, 49.59595], [6.296557, 49.595695], [6.296637, 49.595566], [6.296652, 49.595543], [6.296923, 49.595318], [6.296942, 49.595303], [6.297228, 49.595066], [6.297491, 49.5949], [6.297586, 49.594833], [6.297731, 49.594734], [6.297876, 49.594585], [6.298075, 49.594387], [6.298185, 49.594273], [6.298254, 49.594215], [6.298418, 49.59408], [6.298677, 49.593876], [6.298925, 49.593685], [6.299337, 49.59336], [6.299524, 49.593212], [6.299612, 49.593136], [6.299627, 49.59289], [6.299654, 49.592537], [6.299673, 49.592194], [6.299684, 49.59207], [6.2997, 49.59179], [6.29973, 49.591164], [6.299948, 49.591087], [6.300299, 49.59097], [6.300741, 49.59082], [6.301203, 49.590664], [6.301256, 49.59065], [6.301306, 49.59063], [6.301763, 49.590473], [6.301558, 49.590206], [6.301325, 49.589912], [6.301516, 49.589615], [6.301741, 49.589256], [6.302004, 49.588844], [6.302031, 49.5886], [6.302076, 49.58824], [6.302126, 49.587856], [6.302175, 49.587486], [6.302229, 49.587048], [6.302248, 49.586906], [6.302271, 49.586697], [6.302317, 49.586575], [6.302378, 49.58647], [6.302469, 49.58632], [6.302534, 49.586113], [6.302633, 49.585804], [6.302671, 49.58568], [6.302744, 49.585423], [6.302816, 49.58517], [6.302854, 49.585014], [6.302813, 49.584885], [6.302694, 49.58457], [6.30261, 49.584362], [6.302549, 49.584194], [6.302412, 49.58381], [6.302362, 49.583748], [6.302301, 49.58369], [6.302187, 49.583588], [6.30187, 49.583336], [6.301558, 49.58313], [6.301184, 49.582886], [6.301149, 49.582867], [6.301065, 49.582817], [6.300833, 49.582676], [6.300821, 49.58267], [6.300764, 49.58263], [6.300711, 49.582664], [6.299994, 49.58316], [6.299272, 49.583664], [6.298796, 49.58399], [6.298384, 49.58428], [6.297941, 49.584583], [6.297449, 49.584904], [6.297266, 49.585], [6.29706, 49.585075], [6.296866, 49.585136], [6.296297, 49.585297], [6.295336, 49.58557], [6.294275, 49.585876], [6.293188, 49.586193], [6.29191, 49.58656], [6.291769, 49.586437], [6.291658, 49.586376], [6.291575, 49.58634], [6.291456, 49.586315], [6.291315, 49.586296], [6.291182, 49.586292], [6.29072, 49.5863], [6.290331, 49.586308], [6.289946, 49.586323], [6.289144, 49.586376], [6.28834, 49.58643], [6.287813, 49.586456], [6.287153, 49.58648], [6.285646, 49.586533], [6.284857, 49.58656], [6.284609, 49.58656], [6.28443, 49.58654], [6.283468, 49.58632], [6.282762, 49.586174], [6.282049, 49.586033], [6.281446, 49.585926], [6.280676, 49.58579], [6.27976, 49.585636], [6.278978, 49.585503], [6.278009, 49.58533], [6.277349, 49.5852], [6.276651, 49.585064], [6.276049, 49.58494], [6.274813, 49.584732], [6.274172, 49.584698], [6.273165, 49.58468], [6.272062, 49.58464], [6.271055, 49.584595], [6.269876, 49.58436], [6.26948, 49.58423], [6.268679, 49.583954], [6.268648, 49.583786], [6.268644, 49.583645], [6.268778, 49.583256], [6.268755, 49.58314], [6.268629, 49.582916], [6.268229, 49.582363], [6.267946, 49.581924], [6.267733, 49.581493], [6.267557, 49.581097], [6.267248, 49.5805], [6.26745, 49.57996], [6.267412, 49.579956], [6.267225, 49.579712], [6.267145, 49.57961], [6.267126, 49.579582], [6.267069, 49.57951], [6.267019, 49.57945], [6.266958, 49.579365], [6.266672, 49.579136], [6.266611, 49.579086], [6.266451, 49.578957], [6.266233, 49.57885], [6.265974, 49.578728], [6.265772, 49.578648], [6.265829, 49.578903], [6.265833, 49.579086], [6.265818, 49.5792], [6.265745, 49.57941], [6.26568, 49.579605], [6.265642, 49.579693], [6.265596, 49.5798], [6.265551, 49.5799], [6.265417, 49.579838], [6.265524, 49.579567], [6.265654, 49.57912], [6.265661, 49.57902], [6.265528, 49.579014], [6.265512, 49.578655], [6.265524, 49.57855], [6.265589, 49.578457], [6.265688, 49.578354], [6.265806, 49.57825], [6.265665, 49.57825], [6.265501, 49.578255], [6.265406, 49.578255], [6.265314, 49.57825], [6.263922, 49.578487], [6.263815, 49.578506], [6.263189, 49.578583], [6.262548, 49.578636], [6.262449, 49.57864], [6.262007, 49.578655], [6.261931, 49.57866], [6.261786, 49.578667], [6.261675, 49.57867], [6.261267, 49.57869], [6.261232, 49.57869], [6.260694, 49.578716], [6.260588, 49.57872], [6.260405, 49.578728], [6.260134, 49.578743], [6.259455, 49.578777], [6.259355, 49.578674], [6.259287, 49.578617], [6.259131, 49.5785], [6.259024, 49.578415], [6.258932, 49.578346], [6.258692, 49.578175], [6.258577, 49.578102], [6.258383, 49.577976], [6.258211, 49.577877], [6.258108, 49.577766], [6.25783, 49.577473], [6.257791, 49.57743], [6.257738, 49.577362], [6.25762, 49.577217], [6.257585, 49.577168], [6.257505, 49.577072], [6.257429, 49.576977], [6.257353, 49.576874], [6.257132, 49.5766], [6.257059, 49.576504], [6.256975, 49.576397], [6.256929, 49.57634], [6.256876, 49.576256], [6.256864, 49.576225], [6.256834, 49.576157], [6.256807, 49.576084], [6.256796, 49.576046], [6.256727, 49.575756], [6.256704, 49.575695], [6.256689, 49.575645], [6.256678, 49.575634], [6.256647, 49.57559], [6.256628, 49.575558], [6.256559, 49.57548], [6.256529, 49.575447], [6.256487, 49.57541], [6.256411, 49.575336], [6.256327, 49.575283], [6.256296, 49.57526], [6.256052, 49.5751], [6.256025, 49.575077], [6.255938, 49.575012], [6.255842, 49.574936], [6.255812, 49.57491], [6.255739, 49.574844], [6.255606, 49.574726], [6.255568, 49.574677], [6.255487, 49.574566], [6.255442, 49.574486], [6.255446, 49.57446], [6.255484, 49.57425], [6.255533, 49.574062], [6.255636, 49.57364], [6.255659, 49.57355], [6.25567, 49.573467], [6.255667, 49.57344], [6.255655, 49.573406], [6.255568, 49.57322], [6.255446, 49.57293], [6.255381, 49.572784], [6.255373, 49.572674], [6.255388, 49.57257], [6.255419, 49.57246], [6.25551, 49.572224], [6.255526, 49.572193], [6.255541, 49.572155], [6.25572, 49.571877], [6.256033, 49.57144], [6.256166, 49.571255], [6.256384, 49.570984], [6.256895, 49.570576], [6.257189, 49.570347], [6.257486, 49.570126], [6.257505, 49.57011], [6.2572, 49.570004], [6.256258, 49.569695], [6.255793, 49.56954], [6.255732, 49.56954], [6.255526, 49.56951], [6.255083, 49.56939], [6.254805, 49.569317], [6.254644, 49.569225], [6.254213, 49.56899], [6.253969, 49.56881], [6.253839, 49.568707], [6.253775, 49.568645], [6.25345, 49.568596], [6.25297, 49.56842], [6.2525, 49.568363], [6.252081, 49.568214], [6.251707, 49.56814], [6.251111, 49.56798], [6.250673, 49.567863], [6.250269, 49.56789], [6.249365, 49.567646], [6.248819, 49.567566], [6.248041, 49.567677], [6.247458, 49.567623], [6.246908, 49.567627], [6.245954, 49.567654], [6.245592, 49.567608], [6.24468, 49.56769], [6.243681, 49.567707], [6.24299, 49.56758], [6.242502, 49.567665], [6.242311, 49.56766], [6.24188, 49.567657], [6.241777, 49.567654], [6.241625, 49.56766], [6.240965, 49.568027], [6.240385, 49.568546], [6.239901, 49.569252], [6.239576, 49.569576], [6.239481, 49.56965], [6.238653, 49.569843], [6.238039, 49.569996], [6.237852, 49.570034], [6.23752, 49.570087], [6.23694, 49.570164], [6.236567, 49.57021], [6.236353, 49.570213], [6.23612, 49.570206], [6.235346, 49.570168], [6.234545, 49.57013], [6.234087, 49.570103], [6.233744, 49.570072], [6.233572, 49.570053], [6.233442, 49.57004], [6.233198, 49.57001], [6.232969, 49.569992], [6.23276, 49.569984], [6.23234, 49.570007], [6.23197, 49.570004], [6.231802, 49.569996], [6.23171, 49.569996], [6.231554, 49.57], [6.231443, 49.57001], [6.231302, 49.57003], [6.231237, 49.57004], [6.23115, 49.570057], [6.230818, 49.569893], [6.230803, 49.56991], [6.230642, 49.570072], [6.230623, 49.570087], [6.230448, 49.570034], [6.230284, 49.569977], [6.230146, 49.569916], [6.230055, 49.569862], [6.229979, 49.569763], [6.22991, 49.569717], [6.229776, 49.56967], [6.229643, 49.569603], [6.22954, 49.569523], [6.229391, 49.56939], [6.229288, 49.569283], [6.229147, 49.569077], [6.228956, 49.568653], [6.228857, 49.568455], [6.228727, 49.568302], [6.228682, 49.568268], [6.228601, 49.568245], [6.228544, 49.568253], [6.228502, 49.568268], [6.228422, 49.568325], [6.228327, 49.568394], [6.228209, 49.568462], [6.22817, 49.568485], [6.228079, 49.56859], [6.227995, 49.568684], [6.228247, 49.568882], [6.228449, 49.569042], [6.228231, 49.56929], [6.228117, 49.569416], [6.228098, 49.56944], [6.228014, 49.569534], [6.228144, 49.569622], [6.228098, 49.569668], [6.22825, 49.56974], [6.228052, 49.569904], [6.227892, 49.569824], [6.227705, 49.56972], [6.227541, 49.569847], [6.227381, 49.569965], [6.227354, 49.56999], [6.227095, 49.570198], [6.226892, 49.570366], [6.226717, 49.57051], [6.226686, 49.570534], [6.226656, 49.570557], [6.226492, 49.570698], [6.226423, 49.57076], [6.226301, 49.570858], [6.226202, 49.570946], [6.226172, 49.57098], [6.22611, 49.571056], [6.226015, 49.57118], [6.225927, 49.57129], [6.225832, 49.571407], [6.225664, 49.57162], [6.225859, 49.57176], [6.225821, 49.571785], [6.22571, 49.57187], [6.225542, 49.571987], [6.225378, 49.572075], [6.225111, 49.57222], [6.224962, 49.572304], [6.224901, 49.57234], [6.224844, 49.57236], [6.224405, 49.572536], [6.224344, 49.57256], [6.224329, 49.572563], [6.223917, 49.572746], [6.224203, 49.573082], [6.224024, 49.573223], [6.22381, 49.5734], [6.223894, 49.57344], [6.223917, 49.573452], [6.224268, 49.573627], [6.224505, 49.573757], [6.224962, 49.574047], [6.22481, 49.574154], [6.22476, 49.57419], [6.224524, 49.574352], [6.22439, 49.574455], [6.22436, 49.57448], [6.224249, 49.574566], [6.224157, 49.574635], [6.223925, 49.574528], [6.223734, 49.57445], [6.223547, 49.57438], [6.223017, 49.5742], [6.222982, 49.574184], [6.22286, 49.574123], [6.222689, 49.574253], [6.222181, 49.573975], [6.22159, 49.573643], [6.221518, 49.573597], [6.220732, 49.573093], [6.220648, 49.573112], [6.220583, 49.573128], [6.220423, 49.57317], [6.220262, 49.573208], [6.22024, 49.57321], [6.220022, 49.573265], [6.219934, 49.573288], [6.219809, 49.57332], [6.219721, 49.57334], [6.219683, 49.57335], [6.219507, 49.573387], [6.219355, 49.57342], [6.219313, 49.573433], [6.219114, 49.573483], [6.218992, 49.573513], [6.218744, 49.573578], [6.218393, 49.573666], [6.21834, 49.57368], [6.218191, 49.57375], [6.218081, 49.5738], [6.21805, 49.57381], [6.218122, 49.57391], [6.218485, 49.574245], [6.218431, 49.574226], [6.217779, 49.573948], [6.217356, 49.573765], [6.21694, 49.573574], [6.21652, 49.573364], [6.216238, 49.573193], [6.216158, 49.573235], [6.216078, 49.573284], [6.215818, 49.57343], [6.215769, 49.573456], [6.215605, 49.57355], [6.215269, 49.573376], [6.215235, 49.57336], [6.214952, 49.573215], [6.214785, 49.573128], [6.214525, 49.57301], [6.214106, 49.572903], [6.214018, 49.572876], [6.213987, 49.57287], [6.21308, 49.57263], [6.2124, 49.572456], [6.211855, 49.57234], [6.211756, 49.57232], [6.211657, 49.572304], [6.211641, 49.5723], [6.211607, 49.572315], [6.211489, 49.572372], [6.211401, 49.57242], [6.211367, 49.57245], [6.211328, 49.572495], [6.211283, 49.572556], [6.211237, 49.57259], [6.211218, 49.572605], [6.211096, 49.57265], [6.211, 49.57269], [6.210974, 49.572712], [6.210958, 49.57274], [6.210958, 49.572765], [6.210951, 49.57284], [6.210916, 49.572887], [6.210867, 49.57292], [6.210756, 49.572975], [6.210733, 49.573017], [6.210733, 49.57304], [6.210741, 49.57307], [6.21076, 49.573116], [6.210829, 49.573196], [6.210897, 49.57328], [6.210405, 49.573513], [6.210066, 49.573677], [6.209791, 49.573837], [6.20965, 49.573933], [6.209368, 49.57414], [6.209223, 49.574253], [6.209536, 49.5744], [6.209318, 49.574642], [6.209196, 49.57478], [6.209051, 49.57494], [6.208731, 49.57529], [6.208632, 49.575405], [6.208567, 49.575504], [6.208479, 49.575634], [6.20838, 49.575783], [6.208269, 49.575947], [6.208235, 49.576], [6.207808, 49.57669], [6.207808, 49.57696], [6.207621, 49.577007], [6.207041, 49.577137], [6.207231, 49.57731], [6.207357, 49.577415], [6.20751, 49.577538], [6.207563, 49.577576], [6.207666, 49.577652], [6.207762, 49.57772], [6.207693, 49.57775], [6.207609, 49.577778], [6.207521, 49.57778], [6.207399, 49.57775], [6.207121, 49.577595], [6.206762, 49.577343], [6.206343, 49.577045], [6.20595, 49.57675], [6.205049, 49.576084], [6.205019, 49.57606], [6.204824, 49.576096], [6.20455, 49.576145], [6.204321, 49.576054], [6.204061, 49.575947], [6.203833, 49.57585], [6.203619, 49.575764], [6.203405, 49.575676], [6.202856, 49.575455], [6.202795, 49.57555], [6.202723, 49.575657], [6.202673, 49.575733], [6.20262, 49.575813], [6.202539, 49.575935], [6.202494, 49.576], [6.202356, 49.576206], [6.202249, 49.57637], [6.202143, 49.57653], [6.201769, 49.577095], [6.202352, 49.57724], [6.202185, 49.57743], [6.202108, 49.577515], [6.202032, 49.577606], [6.201956, 49.577694], [6.201738, 49.577637], [6.201525, 49.577583], [6.201166, 49.577496], [6.201025, 49.577457], [6.200651, 49.57773], [6.200369, 49.577927], [6.200075, 49.578106], [6.199709, 49.57831], [6.199293, 49.578514], [6.199373, 49.578625], [6.199553, 49.57887], [6.199663, 49.579002], [6.199793, 49.57916], [6.199976, 49.579357], [6.200174, 49.579544], [6.200815, 49.58006], [6.201288, 49.580387], [6.201105, 49.580406], [6.200899, 49.580437], [6.200365, 49.580822], [6.200163, 49.580685], [6.199472, 49.58021], [6.199053, 49.580486], [6.1989, 49.580585], [6.198744, 49.58069], [6.198576, 49.5808], [6.198404, 49.580914], [6.198297, 49.580986], [6.198362, 49.58103], [6.197729, 49.58121], [6.197592, 49.58128], [6.197321, 49.5814], [6.197161, 49.58148], [6.196875, 49.5816], [6.196814, 49.581623], [6.196733, 49.581657], [6.196173, 49.5819], [6.196119, 49.58193], [6.196024, 49.58197], [6.195803, 49.582077], [6.195417, 49.582268]]]]}}]}