{"type": "FeatureCollection", "features": [{"type": "Feature", "properties": {"name": "Biwer"}, "geometry": {"type": "MultiPolygon", "coordinates": [[[[6.307573, 49.703094], [6.307684, 49.7031], [6.307802, 49.703106], [6.307928, 49.703125], [6.308084, 49.70315], [6.308161, 49.703156], [6.308363, 49.70316], [6.308672, 49.70317], [6.308901, 49.703175], [6.309271, 49.703163], [6.309381, 49.703163], [6.309549, 49.703182], [6.309664, 49.70319], [6.31003, 49.703182], [6.310343, 49.70317], [6.310595, 49.70315], [6.310675, 49.70314], [6.310907, 49.703114], [6.31106, 49.70309], [6.311163, 49.70308], [6.311243, 49.70308], [6.311335, 49.70309], [6.311422, 49.70311], [6.311571, 49.703136], [6.311789, 49.70316], [6.31188, 49.703182], [6.311983, 49.70321], [6.312063, 49.703217], [6.312193, 49.70321], [6.312445, 49.703205], [6.312521, 49.703213], [6.312628, 49.70324], [6.312685, 49.703255], [6.312887, 49.703278], [6.313021, 49.7033], [6.313127, 49.703327], [6.313349, 49.703434], [6.313486, 49.70349], [6.313848, 49.703598], [6.314314, 49.703716], [6.31455, 49.703773], [6.314909, 49.703835], [6.315527, 49.703938], [6.315615, 49.703968], [6.315668, 49.704], [6.315771, 49.704086], [6.315859, 49.704147], [6.31592, 49.704178], [6.31613, 49.704254], [6.316511, 49.70438], [6.316889, 49.704536], [6.317438, 49.704765], [6.317774, 49.704887], [6.318335, 49.70508], [6.318552, 49.705147], [6.318685, 49.705208], [6.318815, 49.705326], [6.319059, 49.705578], [6.319189, 49.70578], [6.319342, 49.70583], [6.319509, 49.705853], [6.319716, 49.70584], [6.319841, 49.705845], [6.320002, 49.705875], [6.320227, 49.70597], [6.320387, 49.706066], [6.320944, 49.706303], [6.321272, 49.70648], [6.32144, 49.706604], [6.321531, 49.7067], [6.321619, 49.70681], [6.321684, 49.70692], [6.321657, 49.70697], [6.321596, 49.707054], [6.321459, 49.707493], [6.322283, 49.70768], [6.32255, 49.707756], [6.322939, 49.70787], [6.324408, 49.708366], [6.323755, 49.709053], [6.32353, 49.709286], [6.323439, 49.709377], [6.323385, 49.709435], [6.323011, 49.709824], [6.322885, 49.709957], [6.322756, 49.71009], [6.322569, 49.710285], [6.322496, 49.71035], [6.322413, 49.71043], [6.322222, 49.710598], [6.322187, 49.71063], [6.322065, 49.71073], [6.321993, 49.710793], [6.321947, 49.71083], [6.321833, 49.71093], [6.32173, 49.711018], [6.321631, 49.7111], [6.321588, 49.711136], [6.321493, 49.71122], [6.321261, 49.711414], [6.321241, 49.711433], [6.321073, 49.71157], [6.321058, 49.711586], [6.321012, 49.71162], [6.320917, 49.71172], [6.320585, 49.712063], [6.321508, 49.712254], [6.321569, 49.712265], [6.322027, 49.712353], [6.322428, 49.712425], [6.322496, 49.712444], [6.32284, 49.712532], [6.322908, 49.71257], [6.323084, 49.71266], [6.323172, 49.712727], [6.32332, 49.71289], [6.323267, 49.71309], [6.323229, 49.71366], [6.323225, 49.7137], [6.323088, 49.713726], [6.32271, 49.713825], [6.32255, 49.71393], [6.322378, 49.714054], [6.322157, 49.71428], [6.321928, 49.71453], [6.321341, 49.715282], [6.321039, 49.71555], [6.320841, 49.715805], [6.320696, 49.716057], [6.320288, 49.71661], [6.320238, 49.716774], [6.320185, 49.717327], [6.320135, 49.717964], [6.320036, 49.718353], [6.319998, 49.71847], [6.319952, 49.718555], [6.319704, 49.719], [6.319422, 49.719414], [6.319101, 49.719856], [6.318956, 49.72009], [6.318861, 49.72025], [6.318792, 49.720375], [6.318693, 49.720528], [6.318499, 49.72073], [6.318258, 49.720943], [6.318071, 49.720894], [6.31703, 49.720596], [6.316263, 49.720367], [6.316236, 49.7204], [6.316168, 49.72049], [6.315939, 49.720787], [6.315699, 49.721096], [6.315371, 49.721508], [6.315252, 49.72166], [6.315073, 49.72192], [6.31502, 49.722], [6.314676, 49.722504], [6.314638, 49.722565], [6.314505, 49.722767], [6.314802, 49.72276], [6.314936, 49.722755], [6.315001, 49.722755], [6.315214, 49.722748], [6.315268, 49.722744], [6.315352, 49.722744], [6.315588, 49.722736], [6.315615, 49.722736], [6.315653, 49.722733], [6.31568, 49.722733], [6.315947, 49.72271], [6.31603, 49.722702], [6.316065, 49.7227], [6.316206, 49.722683], [6.316267, 49.722675], [6.316416, 49.72266], [6.316469, 49.722652], [6.316576, 49.722633], [6.316603, 49.722626], [6.31666, 49.72261], [6.316763, 49.72258], [6.316813, 49.72261], [6.317183, 49.722843], [6.317388, 49.72297], [6.317499, 49.723053], [6.31756, 49.72309], [6.317869, 49.723274], [6.317934, 49.723316], [6.318132, 49.723434], [6.318235, 49.7235], [6.318327, 49.723553], [6.318579, 49.72371], [6.318529, 49.72374], [6.318506, 49.723835], [6.318495, 49.723873], [6.318468, 49.72393], [6.318327, 49.724148], [6.318304, 49.724186], [6.318174, 49.72439], [6.318075, 49.724545], [6.318323, 49.724773], [6.318579, 49.725014], [6.319159, 49.725563], [6.319372, 49.725773], [6.319597, 49.72599], [6.319819, 49.72621], [6.320108, 49.726494], [6.320158, 49.726547], [6.320478, 49.726852], [6.320536, 49.72691], [6.32089, 49.72717], [6.320936, 49.7272], [6.321123, 49.72732], [6.321184, 49.72736], [6.321752, 49.727684], [6.32152, 49.727924], [6.321367, 49.728085], [6.321333, 49.728123], [6.32128, 49.728184], [6.32123, 49.728252], [6.321203, 49.728302], [6.321157, 49.728405], [6.321142, 49.728447], [6.321131, 49.72848], [6.321112, 49.728622], [6.321104, 49.728664], [6.321108, 49.728863], [6.321108, 49.728912], [6.321112, 49.729084], [6.321112, 49.729164], [6.321115, 49.729214], [6.321108, 49.729523], [6.321104, 49.729565], [6.321115, 49.729843], [6.321131, 49.730183], [6.321039, 49.730396], [6.320894, 49.73082], [6.32081, 49.731056], [6.320806, 49.731075], [6.321115, 49.73112], [6.321447, 49.731167], [6.321581, 49.73118], [6.321894, 49.731205], [6.321951, 49.731205], [6.322123, 49.73121], [6.322512, 49.73121], [6.322603, 49.731205], [6.323015, 49.73117], [6.323217, 49.73115], [6.323343, 49.73114], [6.323477, 49.73114], [6.323538, 49.731148], [6.32361, 49.731163], [6.323709, 49.731194], [6.323809, 49.73123], [6.32395, 49.731262], [6.324011, 49.73127], [6.324091, 49.73127], [6.324217, 49.731262], [6.324289, 49.731266], [6.324346, 49.731274], [6.324537, 49.73133], [6.324644, 49.73136], [6.324858, 49.731415], [6.325037, 49.731457], [6.325075, 49.731464], [6.325529, 49.7315], [6.325743, 49.731518], [6.32593, 49.731537], [6.326441, 49.731598], [6.326502, 49.73161], [6.326548, 49.73163], [6.326624, 49.73168], [6.327234, 49.732132], [6.327269, 49.73215], [6.327314, 49.73216], [6.327772, 49.73221], [6.327993, 49.732227], [6.328535, 49.73227], [6.32889, 49.7323], [6.329199, 49.732296], [6.329573, 49.732327], [6.329912, 49.73232], [6.330225, 49.732346], [6.330625, 49.732323], [6.330927, 49.732338], [6.331316, 49.732365], [6.331408, 49.732376], [6.331556, 49.73242], [6.331678, 49.73234], [6.331896, 49.732224], [6.332007, 49.73218], [6.332121, 49.732162], [6.332315, 49.732174], [6.332453, 49.73217], [6.332666, 49.73216], [6.33272, 49.732445], [6.333265, 49.73231], [6.333712, 49.73221], [6.334104, 49.732117], [6.334326, 49.732075], [6.334692, 49.732014], [6.334864, 49.73199], [6.334925, 49.731983], [6.335329, 49.73195], [6.335592, 49.731922], [6.33573, 49.7319], [6.335905, 49.73186], [6.336172, 49.731792], [6.336264, 49.731777], [6.336485, 49.73177], [6.33708, 49.731747], [6.337374, 49.731754], [6.337625, 49.731762], [6.33795, 49.731766], [6.339079, 49.73175], [6.339388, 49.731747], [6.339426, 49.731735], [6.339453, 49.73172], [6.339464, 49.731697], [6.339518, 49.731506], [6.339537, 49.731503], [6.339659, 49.73149], [6.340292, 49.73141], [6.340902, 49.73133], [6.341433, 49.731266], [6.342119, 49.731182], [6.342123, 49.731194], [6.342108, 49.73122], [6.342009, 49.73128], [6.341776, 49.731426], [6.341589, 49.731514], [6.341494, 49.731556], [6.341372, 49.731583], [6.341185, 49.73161], [6.34165, 49.731625], [6.342073, 49.731632], [6.342806, 49.731636], [6.34305, 49.73171], [6.343145, 49.731747], [6.343172, 49.731766], [6.343954, 49.731937], [6.343985, 49.731903], [6.343996, 49.73188], [6.343977, 49.731792], [6.343943, 49.731667], [6.343958, 49.73164], [6.343985, 49.731583], [6.344034, 49.731495], [6.344042, 49.731457], [6.344068, 49.731373], [6.344118, 49.7312], [6.344122, 49.73119], [6.344145, 49.731113], [6.344164, 49.73108], [6.344187, 49.731045], [6.344252, 49.730976], [6.344385, 49.730843], [6.344797, 49.730415], [6.345636, 49.730705], [6.345663, 49.73067], [6.345846, 49.730755], [6.34601, 49.730843], [6.345976, 49.73087], [6.346354, 49.73112], [6.346502, 49.73123], [6.346628, 49.731335], [6.34667, 49.73139], [6.346682, 49.731434], [6.346678, 49.731476], [6.346666, 49.731514], [6.346712, 49.731537], [6.346857, 49.731438], [6.34691, 49.731388], [6.347494, 49.73164], [6.348238, 49.732014], [6.3482, 49.732044], [6.347967, 49.73225], [6.347628, 49.732544], [6.347444, 49.7327], [6.347078, 49.73302], [6.347052, 49.733044], [6.34701, 49.733078], [6.346994, 49.733093], [6.346937, 49.73314], [6.346827, 49.73324], [6.346556, 49.73347], [6.346445, 49.733578], [6.346125, 49.733875], [6.346083, 49.73392], [6.346006, 49.734005], [6.345915, 49.734104], [6.345686, 49.734386], [6.345659, 49.734417], [6.34561, 49.734486], [6.345556, 49.734554], [6.34553, 49.734585], [6.345411, 49.734734], [6.345221, 49.734978], [6.345186, 49.735016], [6.345156, 49.735058], [6.345114, 49.73511], [6.345114, 49.73514], [6.345038, 49.735237], [6.344995, 49.735306], [6.344965, 49.735382], [6.344984, 49.735394], [6.345312, 49.735573], [6.345404, 49.735622], [6.345606, 49.735733], [6.345839, 49.73585], [6.346186, 49.735996], [6.346346, 49.73605], [6.346624, 49.73613], [6.346857, 49.73619], [6.347002, 49.736225], [6.347567, 49.736324], [6.347559, 49.736343], [6.347513, 49.73649], [6.347498, 49.736534], [6.347467, 49.73662], [6.347921, 49.736668], [6.348154, 49.73669], [6.348188, 49.7367], [6.348448, 49.736732], [6.348696, 49.736774], [6.34905, 49.73685], [6.349249, 49.736904], [6.349451, 49.736973], [6.349695, 49.737076], [6.349882, 49.73718], [6.350088, 49.73732], [6.350355, 49.73753], [6.350401, 49.737568], [6.350565, 49.737522], [6.350759, 49.737675], [6.350828, 49.737736], [6.350847, 49.73775], [6.350885, 49.737785], [6.350943, 49.73784], [6.351065, 49.73795], [6.351129, 49.73803], [6.351187, 49.738094], [6.351198, 49.73811], [6.351244, 49.738167], [6.351469, 49.737766], [6.351641, 49.737484], [6.35177, 49.737293], [6.351782, 49.737278], [6.351931, 49.737053], [6.351988, 49.736965], [6.35222, 49.737183], [6.352251, 49.73721], [6.352366, 49.737316], [6.352491, 49.73743], [6.352613, 49.737545], [6.352961, 49.73762], [6.353285, 49.737694], [6.353979, 49.73714], [6.354059, 49.737057], [6.354196, 49.73691], [6.354219, 49.736885], [6.354299, 49.736794], [6.354372, 49.736706], [6.354437, 49.73661], [6.354471, 49.73651], [6.354559, 49.736256], [6.354624, 49.736095], [6.3547, 49.735893], [6.354715, 49.735863], [6.354826, 49.735577], [6.354841, 49.73554], [6.355001, 49.735085], [6.35504, 49.735065], [6.355234, 49.735123], [6.355375, 49.73509], [6.355604, 49.735012], [6.355806, 49.734947], [6.356008, 49.734905], [6.356649, 49.73482], [6.357031, 49.734783], [6.357191, 49.73478], [6.357889, 49.734825], [6.359312, 49.734955], [6.359522, 49.73498], [6.360098, 49.73491], [6.360258, 49.734898], [6.360426, 49.734917], [6.361162, 49.735058], [6.361483, 49.735096], [6.362234, 49.735157], [6.362474, 49.735153], [6.363855, 49.73507], [6.364153, 49.735073], [6.364397, 49.735058], [6.364565, 49.735046], [6.364809, 49.73502], [6.365511, 49.734932], [6.366529, 49.734795], [6.36669, 49.734753], [6.367044, 49.73465], [6.36767, 49.73442], [6.368124, 49.73426], [6.367651, 49.73424], [6.367674, 49.734222], [6.367868, 49.7339], [6.367884, 49.73387], [6.368032, 49.733654], [6.368063, 49.733612], [6.368257, 49.73336], [6.368452, 49.7331], [6.36846, 49.733067], [6.368624, 49.732426], [6.368692, 49.732178], [6.368715, 49.7321], [6.368757, 49.731937], [6.368841, 49.731644], [6.368933, 49.73132], [6.368982, 49.73114], [6.369043, 49.730957], [6.369074, 49.730858], [6.367865, 49.730625], [6.366823, 49.73043], [6.36669, 49.7304], [6.366598, 49.73038], [6.366461, 49.730354], [6.366274, 49.73031], [6.365797, 49.730183], [6.365522, 49.73008], [6.36532, 49.729984], [6.365011, 49.729794], [6.364534, 49.729355], [6.364355, 49.72921], [6.364183, 49.72907], [6.364073, 49.728996], [6.363874, 49.72889], [6.363741, 49.72877], [6.363531, 49.72851], [6.363462, 49.728424], [6.363413, 49.72833], [6.363237, 49.728012], [6.363165, 49.727905], [6.363077, 49.727768], [6.362989, 49.72751], [6.362963, 49.72742], [6.362925, 49.72731], [6.363092, 49.72678], [6.363237, 49.726475], [6.363257, 49.726433], [6.363329, 49.726303], [6.363726, 49.726215], [6.364065, 49.72613], [6.364767, 49.72598], [6.364958, 49.725933], [6.365065, 49.725895], [6.365179, 49.725853], [6.365385, 49.72527], [6.365442, 49.725117], [6.365572, 49.724762], [6.365675, 49.724453], [6.365748, 49.724144], [6.365789, 49.72402], [6.365419, 49.723763], [6.365091, 49.723434], [6.364744, 49.72306], [6.364698, 49.72298], [6.36463, 49.722862], [6.364466, 49.72259], [6.364408, 49.722504], [6.364325, 49.72237], [6.364138, 49.721985], [6.36408, 49.72187], [6.36392, 49.7216], [6.363825, 49.721066], [6.363821, 49.721024], [6.363787, 49.72083], [6.363745, 49.720573], [6.363588, 49.7203], [6.362989, 49.719933], [6.362539, 49.719654], [6.362108, 49.7194], [6.362127, 49.719357], [6.362242, 49.719154], [6.362341, 49.71908], [6.362719, 49.718918], [6.362959, 49.71887], [6.363176, 49.718903], [6.363504, 49.71903], [6.364084, 49.71924], [6.364126, 49.719257], [6.364309, 49.71904], [6.36484, 49.71938], [6.365084, 49.719486], [6.365599, 49.719807], [6.365862, 49.719868], [6.366175, 49.720127], [6.366682, 49.72048], [6.366842, 49.72059], [6.366922, 49.720573], [6.367376, 49.72048], [6.367598, 49.720383], [6.367773, 49.720303], [6.367899, 49.719826], [6.367907, 49.7198], [6.367971, 49.719627], [6.367826, 49.719257], [6.367765, 49.718918], [6.36767, 49.718643], [6.367643, 49.71837], [6.367735, 49.71815], [6.367804, 49.717693], [6.367914, 49.71742], [6.367945, 49.717373], [6.368093, 49.717163], [6.368475, 49.71677], [6.368631, 49.71656], [6.368723, 49.716457], [6.368582, 49.71639], [6.368555, 49.716274], [6.368586, 49.716244], [6.368883, 49.715927], [6.36912, 49.715717], [6.369425, 49.715504], [6.369844, 49.715603], [6.370218, 49.715714], [6.370462, 49.715805], [6.370619, 49.71589], [6.371046, 49.716118], [6.371317, 49.716267], [6.371424, 49.71636], [6.371565, 49.716503], [6.371626, 49.716515], [6.371775, 49.71669], [6.371897, 49.716698], [6.372458, 49.7167], [6.372767, 49.71674], [6.37351, 49.71679], [6.373751, 49.716793], [6.374037, 49.716793], [6.374086, 49.716812], [6.374479, 49.716854], [6.374853, 49.71691], [6.375696, 49.717045], [6.375917, 49.71708], [6.376566, 49.71712], [6.377642, 49.71711], [6.377516, 49.71687], [6.377897, 49.716755], [6.378042, 49.716713], [6.379168, 49.716354], [6.37995, 49.716084], [6.38027, 49.716488], [6.380362, 49.71645], [6.381014, 49.71621], [6.381662, 49.71605], [6.382063, 49.71601], [6.382441, 49.716503], [6.38249, 49.716698], [6.382593, 49.71708], [6.382765, 49.717567], [6.382948, 49.71758], [6.383009, 49.717842], [6.383173, 49.71785], [6.383265, 49.718296], [6.383234, 49.718433], [6.383024, 49.71861], [6.38339, 49.718975], [6.38368, 49.71898], [6.383761, 49.718964], [6.384001, 49.718903], [6.384058, 49.718918], [6.384165, 49.718876], [6.384417, 49.718758], [6.384577, 49.718716], [6.38468, 49.718727], [6.385035, 49.718777], [6.385096, 49.718784], [6.385267, 49.718704], [6.385336, 49.71865], [6.385515, 49.71823], [6.385504, 49.717667], [6.38553, 49.717495], [6.385592, 49.717083], [6.385725, 49.716965], [6.386072, 49.71686], [6.386503, 49.716885], [6.386572, 49.71609], [6.386461, 49.71605], [6.386404, 49.71596], [6.386423, 49.71506], [6.386568, 49.71501], [6.386621, 49.715004], [6.387037, 49.714977], [6.387915, 49.715202], [6.38796, 49.71519], [6.388769, 49.71538], [6.388994, 49.71537], [6.388956, 49.71467], [6.388926, 49.71418], [6.388914, 49.71378], [6.388933, 49.713715], [6.389036, 49.713566], [6.389185, 49.713356], [6.389227, 49.71328], [6.38925, 49.71322], [6.389254, 49.713154], [6.389219, 49.712967], [6.389067, 49.712353], [6.389013, 49.712223], [6.388948, 49.712135], [6.388834, 49.712036], [6.38862, 49.71188], [6.388571, 49.711803], [6.388464, 49.71159], [6.388357, 49.711372], [6.388208, 49.710926], [6.388155, 49.71072], [6.388083, 49.710243], [6.38796, 49.709507], [6.388392, 49.709435], [6.388727, 49.709396], [6.388998, 49.709206], [6.389257, 49.708958], [6.389566, 49.708744], [6.389822, 49.708637], [6.39015, 49.70865], [6.390448, 49.708687], [6.390524, 49.7087], [6.390818, 49.708736], [6.391027, 49.70833], [6.391085, 49.70819], [6.391211, 49.70806], [6.39155, 49.70786], [6.392202, 49.707607], [6.392466, 49.707375], [6.392981, 49.70696], [6.393564, 49.706608], [6.393705, 49.70657], [6.393854, 49.70655], [6.394133, 49.70656], [6.394552, 49.70658], [6.394949, 49.706642], [6.395204, 49.706757], [6.39543, 49.706852], [6.395536, 49.7069], [6.395784, 49.70699], [6.39612, 49.707184], [6.396765, 49.707592], [6.397493, 49.708035], [6.397837, 49.708168], [6.397924, 49.70806], [6.397886, 49.707905], [6.39789, 49.70783], [6.397886, 49.707554], [6.397737, 49.70744], [6.397619, 49.707344], [6.39744, 49.707214], [6.397325, 49.707146], [6.397043, 49.706985], [6.397222, 49.706158], [6.397242, 49.705807], [6.397249, 49.705624], [6.397261, 49.705364], [6.397127, 49.70471], [6.396891, 49.704044], [6.396894, 49.703854], [6.396898, 49.703777], [6.396898, 49.703728], [6.397009, 49.70372], [6.397017, 49.703815], [6.397219, 49.70381], [6.397261, 49.704144], [6.397627, 49.703957], [6.397707, 49.70393], [6.397638, 49.703568], [6.397634, 49.703533], [6.398756, 49.703365], [6.399282, 49.70328], [6.399645, 49.703213], [6.400297, 49.70308], [6.40064, 49.703026], [6.400946, 49.703003], [6.401293, 49.703003], [6.401678, 49.703014], [6.401999, 49.703045], [6.402353, 49.70311], [6.402578, 49.70318], [6.402784, 49.703285], [6.402891, 49.703384], [6.40307, 49.70361], [6.403299, 49.704086], [6.40346, 49.704365], [6.403738, 49.704792], [6.403986, 49.70512], [6.404261, 49.705463], [6.404474, 49.705666], [6.404673, 49.705814], [6.404936, 49.705948], [6.405237, 49.70606], [6.405325, 49.706062], [6.405558, 49.706028], [6.405535, 49.705925], [6.405207, 49.705853], [6.404879, 49.705723], [6.404646, 49.705555], [6.404444, 49.705322], [6.404303, 49.705086], [6.404203, 49.704815], [6.404089, 49.704033], [6.404047, 49.703907], [6.403711, 49.703495], [6.403326, 49.703114], [6.403162, 49.702995], [6.402922, 49.702847], [6.402597, 49.702766], [6.402071, 49.70265], [6.40177, 49.70259], [6.40148, 49.702484], [6.401304, 49.702446], [6.4009, 49.70241], [6.400923, 49.702343], [6.400957, 49.70217], [6.400991, 49.702007], [6.401228, 49.70182], [6.401407, 49.701878], [6.401796, 49.702007], [6.402052, 49.70206], [6.402521, 49.702057], [6.402632, 49.701885], [6.40283, 49.70159], [6.402914, 49.7015], [6.403025, 49.701385], [6.403074, 49.701366], [6.403189, 49.701317], [6.403956, 49.70111], [6.404367, 49.70089], [6.405088, 49.700516], [6.405603, 49.70022], [6.40576, 49.700127], [6.405886, 49.700058], [6.405924, 49.700035], [6.406259, 49.699764], [6.40629, 49.69974], [6.406397, 49.69967], [6.406458, 49.699627], [6.406599, 49.69953], [6.406801, 49.69942], [6.4069, 49.699368], [6.407354, 49.699127], [6.407793, 49.698906], [6.407995, 49.698803], [6.408339, 49.69857], [6.408705, 49.69831], [6.408751, 49.69827], [6.408953, 49.69807], [6.409052, 49.69792], [6.409113, 49.697704], [6.409132, 49.69764], [6.40914, 49.6976], [6.409128, 49.697353], [6.40914, 49.697186], [6.40914, 49.697136], [6.409155, 49.697052], [6.409166, 49.69698], [6.409189, 49.696865], [6.409216, 49.696743], [6.409246, 49.696625], [6.409269, 49.696507], [6.409273, 49.69648], [6.409208, 49.696342], [6.408815, 49.69604], [6.408716, 49.695965], [6.408552, 49.695724], [6.40835, 49.695457], [6.40832, 49.695423], [6.408216, 49.69532], [6.40806, 49.695183], [6.40735, 49.694614], [6.40613, 49.69362], [6.405729, 49.693295], [6.405523, 49.693123], [6.405157, 49.692795], [6.404535, 49.69212], [6.404062, 49.69155], [6.404066, 49.691517], [6.404161, 49.69152], [6.404474, 49.691467], [6.404646, 49.691402], [6.405436, 49.69106], [6.405798, 49.69091], [6.405912, 49.690865], [6.405886, 49.690838], [6.405443, 49.69038], [6.405207, 49.69013], [6.404921, 49.68984], [6.404676, 49.689632], [6.404066, 49.68917], [6.402948, 49.68832], [6.403406, 49.688145], [6.403173, 49.687847], [6.402552, 49.687065], [6.401823, 49.686203], [6.401529, 49.68588], [6.400957, 49.685326], [6.401075, 49.685276], [6.400125, 49.684345], [6.399805, 49.68404], [6.399553, 49.683777], [6.399286, 49.68351], [6.398848, 49.68375], [6.398474, 49.683945], [6.398333, 49.684013], [6.39789, 49.68339], [6.397627, 49.683067], [6.3976, 49.683037], [6.397501, 49.682915], [6.397219, 49.68257], [6.397032, 49.682297], [6.39694, 49.68213], [6.396864, 49.68199], [6.396837, 49.68195], [6.396818, 49.681915], [6.396448, 49.68186], [6.396219, 49.681847], [6.39591, 49.681854], [6.395598, 49.681767], [6.395174, 49.681637], [6.394976, 49.681572], [6.394587, 49.68145], [6.3943, 49.681362], [6.392836, 49.68092], [6.392035, 49.680676], [6.392019, 49.68067], [6.391859, 49.680622], [6.391828, 49.68061], [6.391775, 49.680595], [6.391535, 49.680523], [6.391188, 49.680416], [6.390253, 49.68013], [6.390108, 49.680084], [6.389204, 49.67981], [6.389013, 49.679756], [6.388964, 49.67974], [6.388407, 49.679573], [6.388353, 49.679535], [6.387777, 49.679424], [6.386793, 49.67903], [6.385664, 49.678864], [6.384695, 49.67873], [6.38217, 49.67842], [6.380648, 49.67803], [6.380346, 49.67795], [6.380205, 49.677917], [6.379007, 49.677715], [6.378675, 49.677513], [6.378626, 49.677486], [6.377626, 49.676876], [6.377169, 49.677715], [6.377012, 49.677998], [6.376993, 49.678017], [6.37694, 49.678055], [6.376928, 49.678062], [6.376898, 49.6781], [6.376875, 49.67812], [6.376818, 49.678173], [6.37678, 49.678215], [6.376738, 49.678265], [6.376722, 49.678288], [6.376707, 49.678307], [6.376688, 49.67832], [6.376677, 49.67833], [6.376665, 49.67835], [6.376654, 49.67836], [6.376623, 49.67839], [6.376615, 49.678402], [6.376615, 49.678413], [6.376619, 49.67843], [6.376623, 49.67844], [6.376619, 49.678455], [6.376608, 49.678474], [6.376589, 49.678493], [6.376554, 49.67851], [6.376532, 49.67852], [6.376516, 49.678528], [6.376509, 49.67854], [6.376486, 49.67859], [6.376474, 49.678604], [6.376451, 49.678623], [6.37644, 49.67864], [6.376432, 49.678654], [6.376425, 49.67867], [6.37641, 49.67868], [6.376387, 49.678696], [6.376356, 49.67871], [6.376341, 49.678722], [6.37631, 49.678753], [6.376295, 49.678772], [6.37628, 49.6788], [6.376265, 49.67884], [6.376253, 49.678856], [6.376234, 49.67887], [6.376211, 49.678883], [6.376162, 49.678905], [6.376139, 49.678917], [6.376123, 49.678932], [6.376108, 49.678963], [6.376085, 49.679005], [6.376055, 49.67904], [6.376028, 49.67907], [6.376009, 49.679096], [6.375986, 49.679115], [6.375936, 49.679146], [6.375837, 49.679188], [6.375715, 49.679245], [6.375669, 49.67927], [6.375647, 49.67929], [6.375635, 49.679306], [6.375631, 49.679317], [6.375635, 49.679333], [6.375643, 49.679356], [6.375635, 49.67938], [6.375624, 49.6794], [6.375608, 49.67942], [6.375612, 49.679436], [6.375608, 49.679455], [6.375593, 49.679478], [6.375578, 49.679493], [6.375566, 49.6795], [6.375532, 49.679504], [6.375509, 49.679504], [6.375479, 49.67951], [6.37546, 49.67951], [6.375437, 49.67952], [6.375418, 49.679535], [6.375406, 49.679554], [6.375395, 49.679565], [6.375387, 49.67958], [6.375368, 49.67959], [6.375345, 49.679592], [6.375307, 49.679607], [6.375269, 49.679623], [6.375189, 49.679676], [6.375158, 49.679695], [6.375132, 49.67971], [6.375109, 49.679718], [6.375055, 49.679726], [6.374964, 49.679737], [6.374891, 49.679752], [6.374834, 49.679775], [6.374807, 49.679787], [6.374784, 49.679794], [6.37472, 49.679806], [6.374685, 49.679813], [6.374624, 49.67984], [6.374601, 49.679844], [6.374582, 49.679848], [6.374556, 49.679844], [6.374498, 49.679832], [6.374479, 49.679832], [6.374422, 49.679844], [6.374357, 49.679863], [6.374331, 49.67987], [6.374308, 49.679874], [6.374266, 49.679874], [6.374205, 49.67989], [6.374167, 49.679893], [6.374136, 49.6799], [6.374086, 49.679913], [6.374033, 49.679935], [6.373949, 49.679955], [6.373869, 49.679966], [6.373827, 49.67997], [6.373804, 49.679974], [6.373762, 49.67998], [6.373701, 49.68001], [6.373667, 49.68004], [6.373682, 49.680058], [6.373682, 49.680073], [6.373671, 49.680107], [6.373674, 49.680157], [6.373693, 49.680202], [6.373697, 49.680225], [6.37369, 49.680244], [6.373674, 49.68026], [6.373648, 49.680286], [6.37364, 49.680325], [6.373671, 49.680363], [6.373739, 49.680454], [6.373751, 49.6805], [6.373766, 49.680546], [6.373789, 49.680573], [6.373842, 49.680603], [6.373857, 49.68063], [6.373846, 49.680656], [6.373808, 49.680706], [6.373797, 49.680737], [6.373808, 49.680775], [6.373842, 49.680836], [6.37385, 49.680878], [6.373827, 49.680904], [6.373793, 49.68094], [6.373789, 49.68098], [6.373812, 49.68104], [6.373842, 49.68106], [6.373869, 49.681065], [6.373884, 49.681057], [6.373919, 49.68103], [6.373945, 49.68102], [6.373976, 49.681026], [6.373995, 49.68105], [6.373991, 49.681076], [6.373972, 49.6811], [6.37393, 49.681118], [6.373869, 49.68113], [6.373831, 49.681152], [6.373819, 49.68118], [6.373823, 49.68121], [6.373846, 49.68124], [6.37398, 49.681293], [6.374075, 49.68135], [6.374144, 49.681366], [6.374182, 49.68138], [6.374182, 49.6814], [6.374155, 49.68141], [6.374128, 49.68144], [6.37414, 49.681473], [6.374163, 49.6815], [6.374266, 49.681553], [6.3743, 49.681576], [6.374296, 49.681606], [6.374266, 49.681625], [6.374224, 49.681625], [6.374167, 49.681606], [6.374121, 49.681595], [6.374098, 49.6816], [6.374083, 49.68161], [6.37409, 49.681652], [6.374094, 49.68168], [6.374056, 49.68175], [6.374056, 49.681778], [6.374083, 49.6818], [6.374189, 49.681866], [6.374212, 49.68186], [6.374243, 49.681828], [6.374273, 49.681812], [6.374315, 49.6818], [6.374357, 49.681805], [6.374399, 49.681828], [6.374426, 49.681854], [6.374437, 49.68189], [6.374414, 49.681942], [6.374384, 49.681976], [6.374319, 49.68199], [6.374235, 49.681973], [6.374159, 49.681965], [6.374124, 49.681973], [6.374105, 49.682], [6.374132, 49.682034], [6.374193, 49.682056], [6.374239, 49.68207], [6.374258, 49.6821], [6.374247, 49.68213], [6.374208, 49.682194], [6.374174, 49.68224], [6.374102, 49.682247], [6.374094, 49.682293], [6.374124, 49.682358], [6.374132, 49.682423], [6.374144, 49.68247], [6.374205, 49.682606], [6.374239, 49.68267], [6.374243, 49.682724], [6.374239, 49.68281], [6.37422, 49.682827], [6.374186, 49.682827], [6.374136, 49.68281], [6.374086, 49.68281], [6.37406, 49.68283], [6.374056, 49.682865], [6.374079, 49.68289], [6.374113, 49.682907], [6.374174, 49.68291], [6.374208, 49.682926], [6.374247, 49.68296], [6.374304, 49.683064], [6.374311, 49.683094], [6.374285, 49.683105], [6.374262, 49.6831], [6.374174, 49.683056], [6.374124, 49.68305], [6.374098, 49.683075], [6.374086, 49.6831], [6.374124, 49.683125], [6.374178, 49.683144], [6.374193, 49.683174], [6.374208, 49.68321], [6.374243, 49.683216], [6.374319, 49.683216], [6.374361, 49.683235], [6.374376, 49.683258], [6.374357, 49.683342], [6.374323, 49.68337], [6.374247, 49.68339], [6.374235, 49.68342], [6.374273, 49.683514], [6.374304, 49.683678], [6.374327, 49.683685], [6.374422, 49.683704], [6.374483, 49.68372], [6.37451, 49.68375], [6.374506, 49.683773], [6.374479, 49.68379], [6.374411, 49.683784], [6.37438, 49.683773], [6.374346, 49.683784], [6.374334, 49.683807], [6.374353, 49.683834], [6.374395, 49.683853], [6.374517, 49.683853], [6.374556, 49.683865], [6.374579, 49.683887], [6.374586, 49.683918], [6.374563, 49.683937], [6.374517, 49.683956], [6.374491, 49.68398], [6.374506, 49.68401], [6.37454, 49.684036], [6.374674, 49.684082], [6.374739, 49.68412], [6.374834, 49.684128], [6.374884, 49.684147], [6.37491, 49.684166], [6.374906, 49.68419], [6.374876, 49.68421], [6.374838, 49.68422], [6.374781, 49.68421], [6.374716, 49.6842], [6.374666, 49.6842], [6.374636, 49.684208], [6.374628, 49.68423], [6.374639, 49.684254], [6.37467, 49.684307], [6.374716, 49.684338], [6.374769, 49.684353], [6.37483, 49.68436], [6.374865, 49.68438], [6.374899, 49.68441], [6.374884, 49.684452], [6.374819, 49.68451], [6.374807, 49.68453], [6.37483, 49.684547], [6.374865, 49.684547], [6.374891, 49.68454], [6.374941, 49.68455], [6.375032, 49.684597], [6.375071, 49.68462], [6.375097, 49.68462], [6.375139, 49.684612], [6.375185, 49.684597], [6.375208, 49.6846], [6.375216, 49.68463], [6.375227, 49.68474], [6.375204, 49.684753], [6.375162, 49.68476], [6.375029, 49.684765], [6.374991, 49.68477], [6.374956, 49.684788], [6.37496, 49.6848], [6.374987, 49.68482], [6.375025, 49.684822], [6.375147, 49.68481], [6.37517, 49.684826], [6.375162, 49.684845], [6.375109, 49.684864], [6.375059, 49.68487], [6.375059, 49.6849], [6.375086, 49.68491], [6.375177, 49.684925], [6.375216, 49.68494], [6.375197, 49.684967], [6.375143, 49.684986], [6.375078, 49.684998], [6.375074, 49.685024], [6.375116, 49.68506], [6.375177, 49.685093], [6.375212, 49.685123], [6.3752, 49.685165], [6.375208, 49.685207], [6.375208, 49.68524], [6.375189, 49.685272], [6.375197, 49.68532], [6.375193, 49.685356], [6.375357, 49.685787], [6.375456, 49.68606], [6.375498, 49.68614], [6.375525, 49.68622], [6.375559, 49.686333], [6.375589, 49.686375], [6.375635, 49.68646], [6.375666, 49.686558], [6.375711, 49.686684], [6.375719, 49.686733], [6.375715, 49.686764], [6.375673, 49.686802], [6.375662, 49.686813], [6.375685, 49.68689], [6.375639, 49.68689], [6.375864, 49.686996], [6.375971, 49.687057], [6.376165, 49.687172], [6.37612, 49.68721], [6.376432, 49.687527], [6.376806, 49.687855], [6.376512, 49.688007], [6.376425, 49.688072], [6.376245, 49.688213], [6.376215, 49.688236], [6.375776, 49.687992], [6.375208, 49.688507], [6.374906, 49.688778], [6.374735, 49.68893], [6.374456, 49.689186], [6.374418, 49.68923], [6.374235, 49.689484], [6.373972, 49.689873], [6.37393, 49.689934], [6.373751, 49.69021], [6.37298, 49.68986], [6.372213, 49.689518], [6.371824, 49.689342], [6.371557, 49.689224], [6.370405, 49.688694], [6.36965, 49.688343], [6.369619, 49.688328], [6.369459, 49.688385], [6.369429, 49.68837], [6.368372, 49.6879], [6.367933, 49.687706], [6.367556, 49.68754], [6.366903, 49.687252], [6.366293, 49.68699], [6.366186, 49.686935], [6.365397, 49.68657], [6.364473, 49.68613], [6.363138, 49.685513], [6.36244, 49.68521], [6.362391, 49.685223], [6.362322, 49.685265], [6.362127, 49.685455], [6.361689, 49.685867], [6.361669, 49.685883], [6.361307, 49.686237], [6.361132, 49.68641], [6.361013, 49.68652], [6.360796, 49.68672], [6.360681, 49.686874], [6.360624, 49.68699], [6.360655, 49.687054], [6.361162, 49.68756], [6.361067, 49.68754], [6.36083, 49.687305], [6.360548, 49.687], [6.360617, 49.686874], [6.360506, 49.68698], [6.360418, 49.687065], [6.360361, 49.687122], [6.359861, 49.68761], [6.3598, 49.687668], [6.359652, 49.687817], [6.359587, 49.687878], [6.359564, 49.687904], [6.359457, 49.688007], [6.359426, 49.68804], [6.359194, 49.68827], [6.359159, 49.6883], [6.359495, 49.68846], [6.359396, 49.688503], [6.359098, 49.688606], [6.35887, 49.688713], [6.358717, 49.688805], [6.358648, 49.688854], [6.358568, 49.688934], [6.358519, 49.688957], [6.358366, 49.688995], [6.358267, 49.689037], [6.358202, 49.689075], [6.358156, 49.689137], [6.358122, 49.68916], [6.357931, 49.68909], [6.357889, 49.689075], [6.357737, 49.689022], [6.357344, 49.68892], [6.357183, 49.688873], [6.357103, 49.68882], [6.357084, 49.688805], [6.357061, 49.68877], [6.357027, 49.688698], [6.356943, 49.688694], [6.356932, 49.688698], [6.356878, 49.688705], [6.356825, 49.68871], [6.356802, 49.688713], [6.356737, 49.688705], [6.356604, 49.688656], [6.356459, 49.688595], [6.35642, 49.688564], [6.356375, 49.688522], [6.356344, 49.6885], [6.356085, 49.688385], [6.355825, 49.688313], [6.355738, 49.6883], [6.3557, 49.688293], [6.355658, 49.688274], [6.3556, 49.688213], [6.355593, 49.688225], [6.354841, 49.688816], [6.354319, 49.68926], [6.354204, 49.68936], [6.353929, 49.689625], [6.353884, 49.68967], [6.354616, 49.690063], [6.356081, 49.69068], [6.35605, 49.690704], [6.355341, 49.691288], [6.354708, 49.691814], [6.354624, 49.691883], [6.354452, 49.692024], [6.354353, 49.692104], [6.354258, 49.69219], [6.354208, 49.69223], [6.35404, 49.69248], [6.353945, 49.692616], [6.353811, 49.692802], [6.353651, 49.693027], [6.353544, 49.693176], [6.353487, 49.693474], [6.353422, 49.6938], [6.353353, 49.69417], [6.353155, 49.69455], [6.352953, 49.69493], [6.352945, 49.695034], [6.353052, 49.695213], [6.352873, 49.695255], [6.353067, 49.695507], [6.353167, 49.69576], [6.353205, 49.69591], [6.353239, 49.696037], [6.353209, 49.69632], [6.35317, 49.696354], [6.352774, 49.696808], [6.352907, 49.696857], [6.352987, 49.69729], [6.35306, 49.6978], [6.353025, 49.697926], [6.352957, 49.698162], [6.352903, 49.698265], [6.352735, 49.698727], [6.35253, 49.699512], [6.352358, 49.700058], [6.352255, 49.70038], [6.35224, 49.70043], [6.352118, 49.700844], [6.351866, 49.701054], [6.351412, 49.701412], [6.350706, 49.70171], [6.350622, 49.70179], [6.350603, 49.701805], [6.35026, 49.702118], [6.350073, 49.70225], [6.350008, 49.702293], [6.349817, 49.702415], [6.349512, 49.702587], [6.349176, 49.70275], [6.349333, 49.702835], [6.348867, 49.703186], [6.348703, 49.703327], [6.348524, 49.703423], [6.348112, 49.703655], [6.347708, 49.70388], [6.347406, 49.704075], [6.347223, 49.70416], [6.347181, 49.70416], [6.347094, 49.70415], [6.347025, 49.704147], [6.346987, 49.70415], [6.346949, 49.70416], [6.346914, 49.704155], [6.346857, 49.70415], [6.346796, 49.70415], [6.34672, 49.704163], [6.346678, 49.704166], [6.346582, 49.704155], [6.346544, 49.704155], [6.346506, 49.704163], [6.346487, 49.70417], [6.346441, 49.70418], [6.346399, 49.704185], [6.346296, 49.704155], [6.346258, 49.70416], [6.346232, 49.70416], [6.34622, 49.704155], [6.346197, 49.70414], [6.346155, 49.704132], [6.346083, 49.704136], [6.346018, 49.70415], [6.346014, 49.704166], [6.345999, 49.704174], [6.345976, 49.704178], [6.345961, 49.704174], [6.345949, 49.70416], [6.345938, 49.70415], [6.345907, 49.704147], [6.345854, 49.70415], [6.345793, 49.70415], [6.345774, 49.704144], [6.345766, 49.70413], [6.345751, 49.704117], [6.345739, 49.704113], [6.345724, 49.704117], [6.345716, 49.704144], [6.345705, 49.70415], [6.345678, 49.70415], [6.345655, 49.704155], [6.345644, 49.70417], [6.345629, 49.70418], [6.34561, 49.70418], [6.345602, 49.70417], [6.345591, 49.70416], [6.345583, 49.704147], [6.345568, 49.704147], [6.345549, 49.704155], [6.345533, 49.704178], [6.345495, 49.70419], [6.345461, 49.704163], [6.345434, 49.704155], [6.345423, 49.704147], [6.345419, 49.704136], [6.345408, 49.704124], [6.345392, 49.704117], [6.345381, 49.70412], [6.345369, 49.70413], [6.345343, 49.70413], [6.345316, 49.704124], [6.345301, 49.70413], [6.345282, 49.704132], [6.345255, 49.704136], [6.345232, 49.704144], [6.345221, 49.70415], [6.345213, 49.704163], [6.34519, 49.704174], [6.345179, 49.704166], [6.345175, 49.70415], [6.345167, 49.70413], [6.345152, 49.70412], [6.345129, 49.70412], [6.345129, 49.704132], [6.345137, 49.704144], [6.345133, 49.704155], [6.34511, 49.704155], [6.345095, 49.70414], [6.34506, 49.70412], [6.345026, 49.704117], [6.344999, 49.704113], [6.344969, 49.704086], [6.344934, 49.70407], [6.344904, 49.704063], [6.344881, 49.70408], [6.344877, 49.704098], [6.34485, 49.70411], [6.344816, 49.70411], [6.344793, 49.704105], [6.344755, 49.704098], [6.344744, 49.704094], [6.344725, 49.70408], [6.344698, 49.70407], [6.344645, 49.70407], [6.34458, 49.70408], [6.3445, 49.704075], [6.344473, 49.704063], [6.344419, 49.70404], [6.34437, 49.70403], [6.344297, 49.70402], [6.344122, 49.704014], [6.344019, 49.704018], [6.343969, 49.704025], [6.343927, 49.70404], [6.343901, 49.704037], [6.343885, 49.704044], [6.343805, 49.70404], [6.343775, 49.70404], [6.343725, 49.70403], [6.343706, 49.704033], [6.34366, 49.704033], [6.343573, 49.704018], [6.343512, 49.704018], [6.343416, 49.703995], [6.343389, 49.703987], [6.343359, 49.703987], [6.343332, 49.703995], [6.343279, 49.704014], [6.343256, 49.704018], [6.343237, 49.704018], [6.34318, 49.703987], [6.343164, 49.70398], [6.343138, 49.70398], [6.343119, 49.703987], [6.343092, 49.703987], [6.343069, 49.703976], [6.343061, 49.703964], [6.34305, 49.703957], [6.343023, 49.703953], [6.343008, 49.703957], [6.342985, 49.70396], [6.342909, 49.704014], [6.34289, 49.70402], [6.342863, 49.70402], [6.34284, 49.70403], [6.342794, 49.704033], [6.342741, 49.704044], [6.342722, 49.70405], [6.34271, 49.704052], [6.342695, 49.704056], [6.342684, 49.704056], [6.34263, 49.70404], [6.342558, 49.70401], [6.342531, 49.704002], [6.342505, 49.704002], [6.342482, 49.704006], [6.342447, 49.703995], [6.342428, 49.703995], [6.342363, 49.704014], [6.342299, 49.704025], [6.342276, 49.704025], [6.342238, 49.704006], [6.342218, 49.704], [6.342199, 49.70401], [6.342173, 49.70402], [6.342154, 49.704018], [6.342112, 49.704006], [6.342092, 49.704014], [6.342081, 49.704025], [6.342051, 49.704025], [6.342024, 49.704006], [6.342005, 49.704002], [6.341982, 49.704006], [6.341948, 49.704014], [6.341932, 49.70402], [6.341887, 49.704033], [6.341879, 49.70402], [6.341875, 49.704], [6.341837, 49.703983], [6.341772, 49.703953], [6.341742, 49.703945], [6.341707, 49.703945], [6.341692, 49.703953], [6.34165, 49.703957], [6.341639, 49.703964], [6.341612, 49.703964], [6.341585, 49.70394], [6.341562, 49.703938], [6.341551, 49.703934], [6.341524, 49.703945], [6.341513, 49.70394], [6.341505, 49.703926], [6.341494, 49.703915], [6.341478, 49.703907], [6.341463, 49.703907], [6.341448, 49.70391], [6.341433, 49.703907], [6.341406, 49.7039], [6.341375, 49.7039], [6.341364, 49.703903], [6.341341, 49.70391], [6.34133, 49.703915], [6.34131, 49.703915], [6.341284, 49.703903], [6.341265, 49.7039], [6.341249, 49.703884], [6.341227, 49.703876], [6.341211, 49.70387], [6.341192, 49.703865], [6.341181, 49.703857], [6.341158, 49.70382], [6.341143, 49.703808], [6.341124, 49.703808], [6.341112, 49.70381], [6.341097, 49.70382], [6.341078, 49.70383], [6.341043, 49.703842], [6.341013, 49.703846], [6.340952, 49.703865], [6.340929, 49.703873], [6.340918, 49.70388], [6.340898, 49.703884], [6.340876, 49.703884], [6.340849, 49.70388], [6.340822, 49.703873], [6.340795, 49.70388], [6.34078, 49.703888], [6.340769, 49.703888], [6.34075, 49.703884], [6.340734, 49.703876], [6.3407, 49.703876], [6.340689, 49.70388], [6.340643, 49.70388], [6.340609, 49.703876], [6.340578, 49.703876], [6.340563, 49.70388], [6.340467, 49.703888], [6.340113, 49.703808], [6.339334, 49.70363], [6.339067, 49.703644], [6.339014, 49.703648], [6.338957, 49.70365], [6.338919, 49.70365], [6.338034, 49.7037], [6.336451, 49.70381], [6.334223, 49.703243], [6.333651, 49.703205], [6.33243, 49.703106], [6.332003, 49.703182], [6.330645, 49.70265], [6.330217, 49.70213], [6.329561, 49.70131], [6.329596, 49.70072], [6.329641, 49.700012], [6.329546, 49.699497], [6.329466, 49.699093], [6.329157, 49.698875], [6.328653, 49.698727], [6.328634, 49.698692], [6.328619, 49.69869], [6.328596, 49.69868], [6.328573, 49.698666], [6.328558, 49.698658], [6.328489, 49.698658], [6.328474, 49.69866], [6.328436, 49.698677], [6.328417, 49.698677], [6.328398, 49.698673], [6.328367, 49.69867], [6.328356, 49.69867], [6.328337, 49.698673], [6.328322, 49.69868], [6.328306, 49.698692], [6.328295, 49.698704], [6.32826, 49.698723], [6.328226, 49.69873], [6.328211, 49.698734], [6.328165, 49.698734], [6.328138, 49.69874], [6.328089, 49.69875], [6.328058, 49.69876], [6.328035, 49.698765], [6.328016, 49.69877], [6.327986, 49.69877], [6.327948, 49.698776], [6.327932, 49.69878], [6.327913, 49.698795], [6.327887, 49.698814], [6.327875, 49.69882], [6.32786, 49.698822], [6.327848, 49.698822], [6.327833, 49.698814], [6.327807, 49.698803], [6.327784, 49.698795], [6.327757, 49.698788], [6.327681, 49.698788], [6.327623, 49.698784], [6.32757, 49.698795], [6.327539, 49.698807], [6.327513, 49.69882], [6.327494, 49.698837], [6.327463, 49.698868], [6.327448, 49.698875], [6.327433, 49.69888], [6.327402, 49.69887], [6.327379, 49.698864], [6.32736, 49.698856], [6.327341, 49.698853], [6.327311, 49.698853], [6.327299, 49.69886], [6.327284, 49.69887], [6.327253, 49.69888], [6.32723, 49.698875], [6.327196, 49.69887], [6.327166, 49.69887], [6.327154, 49.698875], [6.327131, 49.698895], [6.327116, 49.698902], [6.327066, 49.698902], [6.327063, 49.69889], [6.327089, 49.69887], [6.327101, 49.698856], [6.327105, 49.69884], [6.327097, 49.698822], [6.327093, 49.6988], [6.327085, 49.69878], [6.327074, 49.698772], [6.327036, 49.69876], [6.327025, 49.69876], [6.327013, 49.69877], [6.327017, 49.698784], [6.327032, 49.698803], [6.32704, 49.69882], [6.327036, 49.69883], [6.327025, 49.698845], [6.327013, 49.698853], [6.32699, 49.698853], [6.326979, 49.69884], [6.326967, 49.698833], [6.326963, 49.698822], [6.32696, 49.698803], [6.326952, 49.69879], [6.326941, 49.69878], [6.326925, 49.698776], [6.326906, 49.698772], [6.326895, 49.698776], [6.326883, 49.698784], [6.32686, 49.698807], [6.326834, 49.698837], [6.326818, 49.69885], [6.326803, 49.698856], [6.326765, 49.698864], [6.32675, 49.69886], [6.326723, 49.698856], [6.326715, 49.698845], [6.326693, 49.698837], [6.32667, 49.698833], [6.326654, 49.698837], [6.326593, 49.698856], [6.326574, 49.69886], [6.326563, 49.698864], [6.326555, 49.698853], [6.326563, 49.698837], [6.326567, 49.698826], [6.326536, 49.698814], [6.326525, 49.698814], [6.326513, 49.69882], [6.326502, 49.698822], [6.326487, 49.698822], [6.326475, 49.69882], [6.326464, 49.698814], [6.326445, 49.698807], [6.326426, 49.698807], [6.326414, 49.698814], [6.326395, 49.698822], [6.32638, 49.69883], [6.326353, 49.69883], [6.326345, 49.698822], [6.326349, 49.698807], [6.326349, 49.698795], [6.326342, 49.698788], [6.326292, 49.698788], [6.326269, 49.69879], [6.326235, 49.698788], [6.326197, 49.698784], [6.326159, 49.698776], [6.326143, 49.69877], [6.326128, 49.69876], [6.326113, 49.698757], [6.326097, 49.698753], [6.326082, 49.698757], [6.326063, 49.698765], [6.32604, 49.698772], [6.326006, 49.698784], [6.325979, 49.698788], [6.325952, 49.69879], [6.325857, 49.69879], [6.325846, 49.698795], [6.325834, 49.698803], [6.325831, 49.69882], [6.325823, 49.698833], [6.3258, 49.698845], [6.325781, 49.69885], [6.325769, 49.698856], [6.325758, 49.698868], [6.325747, 49.69887], [6.325712, 49.698883], [6.325697, 49.69889], [6.325682, 49.6989], [6.325643, 49.6989], [6.325628, 49.698902], [6.325609, 49.698906], [6.325598, 49.698906], [6.325586, 49.6989], [6.325579, 49.698883], [6.325586, 49.69887], [6.325594, 49.698853], [6.325586, 49.698837], [6.325571, 49.698833], [6.32556, 49.698837], [6.325552, 49.69885], [6.325537, 49.69886], [6.325525, 49.69887], [6.325483, 49.69887], [6.325472, 49.698868], [6.32546, 49.698868], [6.325449, 49.69886], [6.325415, 49.69886], [6.325365, 49.698868], [6.325277, 49.698875], [6.325258, 49.69888], [6.325243, 49.698875], [6.325228, 49.698875], [6.325209, 49.698887], [6.32519, 49.698895], [6.325174, 49.6989], [6.325151, 49.6989], [6.325136, 49.698895], [6.325121, 49.698895], [6.325098, 49.69889], [6.325083, 49.69889], [6.325064, 49.6989], [6.325029, 49.698906], [6.324991, 49.698917], [6.324976, 49.69892], [6.324965, 49.69892], [6.324953, 49.698914], [6.324923, 49.698906], [6.324892, 49.698906], [6.324877, 49.698914], [6.324861, 49.698936], [6.324846, 49.698948], [6.324835, 49.698956], [6.324823, 49.69896], [6.324812, 49.69896], [6.324793, 49.698956], [6.324774, 49.69895], [6.324758, 49.698948], [6.324739, 49.69895], [6.324728, 49.698956], [6.324717, 49.698967], [6.324709, 49.69898], [6.324694, 49.69898], [6.324675, 49.698975], [6.324667, 49.69896], [6.324667, 49.698948], [6.324652, 49.698936], [6.324629, 49.698936], [6.324583, 49.69894], [6.324526, 49.69895], [6.32445, 49.69897], [6.324411, 49.698982], [6.324385, 49.699], [6.324335, 49.699028], [6.32432, 49.69903], [6.324301, 49.699036], [6.324236, 49.699036], [6.324205, 49.699028], [6.324148, 49.69902], [6.324041, 49.69902], [6.324026, 49.699024], [6.324007, 49.699028], [6.323988, 49.69903], [6.323954, 49.69903], [6.323931, 49.699028], [6.323912, 49.699028], [6.323889, 49.699024], [6.323851, 49.69902], [6.323832, 49.69902], [6.32382, 49.699017], [6.32379, 49.699013], [6.323778, 49.699013], [6.323767, 49.699017], [6.323751, 49.69902], [6.323721, 49.699028], [6.323694, 49.699028], [6.323683, 49.699024], [6.323667, 49.699013], [6.323652, 49.699], [6.32361, 49.698994], [6.323549, 49.698994], [6.323492, 49.699], [6.323446, 49.699017], [6.323408, 49.699028], [6.323381, 49.69903], [6.323324, 49.699043], [6.323256, 49.69905], [6.323225, 49.69905], [6.323183, 49.699043], [6.323172, 49.69904], [6.32316, 49.69903], [6.323137, 49.699028], [6.323122, 49.699024], [6.323091, 49.69902], [6.323042, 49.699017], [6.322985, 49.69901], [6.322962, 49.699005], [6.322939, 49.698997], [6.322905, 49.698994], [6.322878, 49.698986], [6.322828, 49.698986], [6.322782, 49.698994], [6.322744, 49.699], [6.32271, 49.69901], [6.322695, 49.699013], [6.322672, 49.699013], [6.322649, 49.699005], [6.322611, 49.698986], [6.322577, 49.69898], [6.322565, 49.698975], [6.322401, 49.698975], [6.32229, 49.69897], [6.322153, 49.698975], [6.322115, 49.69897], [6.322065, 49.698967], [6.322046, 49.698967], [6.322031, 49.698963], [6.322012, 49.69896], [6.321993, 49.69895], [6.321974, 49.69895], [6.321951, 49.698948], [6.32194, 49.698944], [6.321924, 49.69894], [6.321913, 49.69894], [6.321898, 49.698933], [6.321878, 49.69893], [6.321859, 49.698925], [6.321848, 49.69892], [6.321833, 49.698917], [6.321814, 49.69891], [6.321798, 49.698906], [6.321783, 49.698895], [6.321768, 49.698883], [6.32176, 49.698875], [6.321741, 49.698864], [6.321726, 49.698856], [6.321707, 49.69885], [6.321688, 49.698837], [6.321669, 49.69883], [6.321653, 49.698822], [6.321638, 49.69882], [6.321619, 49.69881], [6.321596, 49.698807], [6.321573, 49.698803], [6.321539, 49.698795], [6.321501, 49.698795], [6.321478, 49.69879], [6.321436, 49.69879], [6.321402, 49.698795], [6.321356, 49.698803], [6.321318, 49.698807], [6.321283, 49.698807], [6.321238, 49.69881], [6.321215, 49.69881], [6.321192, 49.698807], [6.321135, 49.698807], [6.321112, 49.69881], [6.321089, 49.698814], [6.32107, 49.69882], [6.321054, 49.698826], [6.321035, 49.69883], [6.321012, 49.698833], [6.320982, 49.698833], [6.320951, 49.698837], [6.320913, 49.698837], [6.320875, 49.698833], [6.320833, 49.698833], [6.320818, 49.69883], [6.320806, 49.698822], [6.320791, 49.698822], [6.320772, 49.69882], [6.320757, 49.698814], [6.320723, 49.698814], [6.320673, 49.69881], [6.320639, 49.698814], [6.320612, 49.69882], [6.320593, 49.69882], [6.320539, 49.698814], [6.320475, 49.69882], [6.320394, 49.69882], [6.320375, 49.698814], [6.32036, 49.69881], [6.320334, 49.698795], [6.319731, 49.69844], [6.31912, 49.698082], [6.319105, 49.698074], [6.319094, 49.698063], [6.319086, 49.698044], [6.319101, 49.697983], [6.319178, 49.69762], [6.319315, 49.696983], [6.319422, 49.69648], [6.319548, 49.69591], [6.319685, 49.695274], [6.319815, 49.694717], [6.319937, 49.694164], [6.319983, 49.693954], [6.31999, 49.6939], [6.319937, 49.69387], [6.319506, 49.69382], [6.319239, 49.69379], [6.318785, 49.69378], [6.317064, 49.693703], [6.315672, 49.693634], [6.315298, 49.693626], [6.314978, 49.693592], [6.31465, 49.693535], [6.314413, 49.693497], [6.314173, 49.69348], [6.313883, 49.693497], [6.313646, 49.69354], [6.31344, 49.69361], [6.313139, 49.693745], [6.312921, 49.693836], [6.312899, 49.693886], [6.312868, 49.693897], [6.312845, 49.693928], [6.312799, 49.69398], [6.312735, 49.69409], [6.312689, 49.694126], [6.312601, 49.694164], [6.312509, 49.69419], [6.312284, 49.694237], [6.311979, 49.694298], [6.311789, 49.694687], [6.311624, 49.695038], [6.311525, 49.695248], [6.311502, 49.695293], [6.311262, 49.695824], [6.311079, 49.696224], [6.311022, 49.696598], [6.310945, 49.697124], [6.310911, 49.6974], [6.310831, 49.697636], [6.310732, 49.697937], [6.310675, 49.698093], [6.310617, 49.69826], [6.310606, 49.698284], [6.310568, 49.69834], [6.310484, 49.69847], [6.310232, 49.698853], [6.309851, 49.699364], [6.309687, 49.699593], [6.309408, 49.69989], [6.309034, 49.700287], [6.308905, 49.70043], [6.308706, 49.70064], [6.308641, 49.700706], [6.308088, 49.70121], [6.307844, 49.701435], [6.30784, 49.701527], [6.307825, 49.701614], [6.307806, 49.701748], [6.307795, 49.701805], [6.307787, 49.701866], [6.307764, 49.702], [6.307737, 49.702145], [6.30773, 49.702206], [6.307707, 49.70234], [6.307684, 49.70246], [6.307676, 49.702522], [6.307665, 49.702587], [6.307615, 49.702854], [6.3076, 49.70294], [6.307589, 49.703014], [6.307573, 49.703094]]]]}}]}