{"type": "FeatureCollection", "features": [{"type": "Feature", "properties": {"name": "Rosport"}, "geometry": {"type": "MultiPolygon", "coordinates": [[[[6.397165, 49.77377], [6.397211, 49.77377], [6.398172, 49.773838], [6.398924, 49.773907], [6.399595, 49.773964], [6.399633, 49.773952], [6.399794, 49.77397], [6.400148, 49.774], [6.400721, 49.774033], [6.401106, 49.77406], [6.401384, 49.774097], [6.401571, 49.774143], [6.40164, 49.774178], [6.401823, 49.7743], [6.402082, 49.77451], [6.402216, 49.774628], [6.402277, 49.77472], [6.4023, 49.774834], [6.402296, 49.774956], [6.40225, 49.775444], [6.402239, 49.775692], [6.402269, 49.775803], [6.402361, 49.776], [6.402544, 49.77631], [6.4027, 49.776527], [6.402891, 49.77672], [6.403074, 49.776955], [6.403093, 49.77702], [6.403192, 49.77726], [6.40336, 49.777607], [6.403463, 49.777813], [6.403543, 49.777905], [6.403639, 49.778046], [6.403765, 49.778183], [6.403936, 49.778324], [6.404146, 49.778446], [6.404249, 49.778515], [6.404543, 49.77869], [6.404535, 49.77873], [6.404428, 49.77925], [6.404409, 49.779324], [6.404367, 49.779507], [6.404318, 49.779716], [6.404497, 49.77979], [6.405378, 49.7801], [6.405439, 49.780125], [6.406111, 49.780388], [6.406656, 49.7806], [6.407408, 49.780914], [6.407652, 49.781338], [6.407808, 49.781578], [6.408075, 49.781948], [6.408186, 49.782104], [6.40835, 49.78233], [6.40851, 49.782524], [6.408598, 49.782635], [6.408792, 49.782837], [6.409052, 49.78309], [6.409193, 49.783253], [6.40941, 49.783512], [6.409792, 49.78392], [6.410158, 49.784317], [6.410479, 49.784637], [6.410894, 49.785046], [6.411486, 49.7855], [6.412199, 49.78607], [6.412355, 49.786194], [6.413015, 49.786022], [6.413629, 49.785843], [6.413855, 49.785786], [6.414072, 49.78574], [6.415312, 49.785446], [6.415342, 49.78544], [6.415838, 49.78532], [6.415949, 49.785297], [6.416109, 49.78526], [6.416224, 49.78523], [6.416265, 49.785217], [6.416426, 49.78517], [6.416838, 49.785046], [6.41712, 49.784958], [6.417158, 49.784943], [6.417269, 49.78495], [6.417387, 49.784954], [6.417501, 49.784943], [6.417597, 49.784912], [6.41765, 49.784866], [6.417692, 49.784813], [6.417719, 49.784733], [6.417753, 49.784744], [6.418448, 49.785], [6.418562, 49.785038], [6.418783, 49.78511], [6.418806, 49.78512], [6.419138, 49.78524], [6.419245, 49.785282], [6.419393, 49.785343], [6.419649, 49.785458], [6.420164, 49.785698], [6.420214, 49.78572], [6.420515, 49.78586], [6.420855, 49.786003], [6.421011, 49.786068], [6.421175, 49.786144], [6.421232, 49.786175], [6.42164, 49.78638], [6.421827, 49.786476], [6.422094, 49.786606], [6.422285, 49.786694], [6.422422, 49.786755], [6.422468, 49.78678], [6.422682, 49.786892], [6.422892, 49.787], [6.423063, 49.787083], [6.423163, 49.78713], [6.423361, 49.78722], [6.423422, 49.787247], [6.423582, 49.787315], [6.423937, 49.787464], [6.424238, 49.78758], [6.424364, 49.78763], [6.424517, 49.787678], [6.424559, 49.7877], [6.425341, 49.788063], [6.426641, 49.78871], [6.426744, 49.78876], [6.427168, 49.788963], [6.427973, 49.789333], [6.428289, 49.789474], [6.428904, 49.789757], [6.429102, 49.78985], [6.429197, 49.789898], [6.429701, 49.790176], [6.430864, 49.790825], [6.43091, 49.790848], [6.430109, 49.79104], [6.430147, 49.79106], [6.430121, 49.791306], [6.430109, 49.79146], [6.430143, 49.791508], [6.430353, 49.79177], [6.430483, 49.79192], [6.430716, 49.79214], [6.431002, 49.792404], [6.431158, 49.792534], [6.43123, 49.792587], [6.431601, 49.792843], [6.431826, 49.79299], [6.432184, 49.793205], [6.432478, 49.793365], [6.432276, 49.793514], [6.4322, 49.793568], [6.432169, 49.793583], [6.43252, 49.794098], [6.43268, 49.79428], [6.432802, 49.7944], [6.432951, 49.794563], [6.433176, 49.79491], [6.433268, 49.795048], [6.433371, 49.795162], [6.43371, 49.795433], [6.434031, 49.795643], [6.43429, 49.795784], [6.434492, 49.7959], [6.434588, 49.7959], [6.434778, 49.795902], [6.434942, 49.795902], [6.435228, 49.795906], [6.435274, 49.795906], [6.435404, 49.795914], [6.436148, 49.795956], [6.436285, 49.79595], [6.436579, 49.79595], [6.436617, 49.795948], [6.436686, 49.795925], [6.436697, 49.79592], [6.436892, 49.795853], [6.437094, 49.79585], [6.437303, 49.795784], [6.437323, 49.79578], [6.437449, 49.795742], [6.437666, 49.79567], [6.43778, 49.79564], [6.437952, 49.795612], [6.438101, 49.79559], [6.438173, 49.79557], [6.438265, 49.795513], [6.43833, 49.795475], [6.438433, 49.79544], [6.43857, 49.795387], [6.438677, 49.79536], [6.438818, 49.795326], [6.439115, 49.79519], [6.439234, 49.79512], [6.439348, 49.79504], [6.43944, 49.794987], [6.43952, 49.794945], [6.439596, 49.794926], [6.439684, 49.79492], [6.439814, 49.79492], [6.440035, 49.79491], [6.440096, 49.79491], [6.440462, 49.79489], [6.440619, 49.794876], [6.440771, 49.794857], [6.44087, 49.794838], [6.440996, 49.7948], [6.441111, 49.79476], [6.441198, 49.794735], [6.441248, 49.79472], [6.441336, 49.794712], [6.441484, 49.79471], [6.441637, 49.794704], [6.441702, 49.794704], [6.441786, 49.794697], [6.4419, 49.79468], [6.44208, 49.794643], [6.442247, 49.79461], [6.442514, 49.79454], [6.442587, 49.794518], [6.442671, 49.794514], [6.442728, 49.794514], [6.442934, 49.79452], [6.443083, 49.794537], [6.443468, 49.79457], [6.443556, 49.79457], [6.443838, 49.794563], [6.444193, 49.79455], [6.444273, 49.79455], [6.444574, 49.794567], [6.444933, 49.794586], [6.445097, 49.794594], [6.445242, 49.794594], [6.445379, 49.794586], [6.445498, 49.794575], [6.445684, 49.79454], [6.445768, 49.79453], [6.446043, 49.794533], [6.446276, 49.794533], [6.446405, 49.79453], [6.446581, 49.7945], [6.447161, 49.794395], [6.447493, 49.794327], [6.448015, 49.794205], [6.448168, 49.79419], [6.448263, 49.79421], [6.44834, 49.794235], [6.448442, 49.794285], [6.448572, 49.794373], [6.448748, 49.794476], [6.448923, 49.794563], [6.449286, 49.794544], [6.449537, 49.79467], [6.449648, 49.794632], [6.44985, 49.794567], [6.449942, 49.794537], [6.450022, 49.794514], [6.450205, 49.794456], [6.45046, 49.794373], [6.450739, 49.794285], [6.450998, 49.794197], [6.451105, 49.794155], [6.451376, 49.794052], [6.451696, 49.793934], [6.452021, 49.79381], [6.452139, 49.793766], [6.452253, 49.793724], [6.452387, 49.793674], [6.45265, 49.79358], [6.452749, 49.79354], [6.45302, 49.79344], [6.453173, 49.793385], [6.453272, 49.79335], [6.453405, 49.7933], [6.453539, 49.793255], [6.453691, 49.793198], [6.453817, 49.79315], [6.453981, 49.793095], [6.454432, 49.79293], [6.45479, 49.792805], [6.455152, 49.79267], [6.455519, 49.792545], [6.456099, 49.792336], [6.456228, 49.79229], [6.456297, 49.792267], [6.456503, 49.792194], [6.456633, 49.79215], [6.456785, 49.79209], [6.456873, 49.79206], [6.456953, 49.79203], [6.457136, 49.79197], [6.457281, 49.791916], [6.457396, 49.791874], [6.457521, 49.79183], [6.458017, 49.79165], [6.458105, 49.79162], [6.458239, 49.79157], [6.459532, 49.79199], [6.459627, 49.79202], [6.460047, 49.792183], [6.460577, 49.792393], [6.460669, 49.792427], [6.461359, 49.792698], [6.461534, 49.792763], [6.461729, 49.792843], [6.461946, 49.79293], [6.46221, 49.793053], [6.462664, 49.793304], [6.463003, 49.793507], [6.463263, 49.793663], [6.463484, 49.793797], [6.463549, 49.793823], [6.463617, 49.79384], [6.463862, 49.793858], [6.46443, 49.79387], [6.464743, 49.793873], [6.465239, 49.793877], [6.465715, 49.793865], [6.465986, 49.79386], [6.466375, 49.79385], [6.466505, 49.79385], [6.466612, 49.793835], [6.466776, 49.79381], [6.467161, 49.794094], [6.468298, 49.79492], [6.469255, 49.795635], [6.469503, 49.796043], [6.46969, 49.796333], [6.470102, 49.797028], [6.470362, 49.797432], [6.470476, 49.797596], [6.470533, 49.797714], [6.470797, 49.7984], [6.470671, 49.798435], [6.470472, 49.798485], [6.470186, 49.798573], [6.470106, 49.798603], [6.470038, 49.798645], [6.469995, 49.798702], [6.469976, 49.798744], [6.469965, 49.79884], [6.469961, 49.79889], [6.469961, 49.79897], [6.469953, 49.799118], [6.469957, 49.799274], [6.469953, 49.799408], [6.469957, 49.79948], [6.469976, 49.799557], [6.470015, 49.79966], [6.470156, 49.79994], [6.470491, 49.800575], [6.470675, 49.800934], [6.47082, 49.80121], [6.47085, 49.80128], [6.470854, 49.80135], [6.470846, 49.801434], [6.470812, 49.80152], [6.470758, 49.801617], [6.470652, 49.80175], [6.470526, 49.801888], [6.470343, 49.80205], [6.470247, 49.802128], [6.46998, 49.80231], [6.46974, 49.802464], [6.469702, 49.802486], [6.469637, 49.802525], [6.469419, 49.80265], [6.469309, 49.802715], [6.469217, 49.80277], [6.469141, 49.802814], [6.469126, 49.80282], [6.468851, 49.802917], [6.468798, 49.802937], [6.468187, 49.803135], [6.467958, 49.80322], [6.467928, 49.80323], [6.467871, 49.80325], [6.467764, 49.803288], [6.467569, 49.80336], [6.467447, 49.803406], [6.467287, 49.803463], [6.46715, 49.803513], [6.466845, 49.803627], [6.466734, 49.803665], [6.46668, 49.803684], [6.4666, 49.803715], [6.466467, 49.803764], [6.466345, 49.803806], [6.465929, 49.80396], [6.465761, 49.80402], [6.465628, 49.804066], [6.465307, 49.804184], [6.465185, 49.804226], [6.464708, 49.804398], [6.464605, 49.804436], [6.464327, 49.804535], [6.464045, 49.804634], [6.463984, 49.80466], [6.463751, 49.80474], [6.463579, 49.804802], [6.463388, 49.80487], [6.463224, 49.804733], [6.463034, 49.80457], [6.46176, 49.804844], [6.461397, 49.80492], [6.461203, 49.804962], [6.460974, 49.80501], [6.460909, 49.805027], [6.460703, 49.80507], [6.4606, 49.805088], [6.460501, 49.805107], [6.460081, 49.805183], [6.459925, 49.80521], [6.459745, 49.805244], [6.459589, 49.80527], [6.45933, 49.805317], [6.459238, 49.805332], [6.45896, 49.80538], [6.458914, 49.80539], [6.458673, 49.80543], [6.458639, 49.80544], [6.458532, 49.80546], [6.458376, 49.805492], [6.458322, 49.805504], [6.458254, 49.805515], [6.458143, 49.805523], [6.458036, 49.80552], [6.457796, 49.80552], [6.457418, 49.805622], [6.457136, 49.805714], [6.456926, 49.805813], [6.456804, 49.805885], [6.456663, 49.805992], [6.456461, 49.80616], [6.456278, 49.80633], [6.456198, 49.806423], [6.456106, 49.806538], [6.456064, 49.8066], [6.456011, 49.806675], [6.455877, 49.806683], [6.455751, 49.806694], [6.4555, 49.806717], [6.455385, 49.806725], [6.455164, 49.806744], [6.45442, 49.806786], [6.454077, 49.806667], [6.454065, 49.806664], [6.45381, 49.806576], [6.453623, 49.806515], [6.45352, 49.80672], [6.453413, 49.80693], [6.453245, 49.807262], [6.452993, 49.807755], [6.453268, 49.807854], [6.453176, 49.80791], [6.4531, 49.80797], [6.453066, 49.808002], [6.452967, 49.808067], [6.452944, 49.8081], [6.452925, 49.80817], [6.452898, 49.80822], [6.452871, 49.808235], [6.452803, 49.80828], [6.452776, 49.80832], [6.452764, 49.80835], [6.452768, 49.80838], [6.452799, 49.80841], [6.452833, 49.808437], [6.45286, 49.80846], [6.452867, 49.808483], [6.45286, 49.808506], [6.452825, 49.80854], [6.452719, 49.808617], [6.452688, 49.808662], [6.452665, 49.80872], [6.452639, 49.808838], [6.452623, 49.80889], [6.4526, 49.80892], [6.452566, 49.808945], [6.452528, 49.808968], [6.452456, 49.809], [6.452425, 49.809017], [6.452402, 49.809044], [6.452387, 49.80909], [6.452372, 49.809155], [6.452349, 49.80918], [6.452314, 49.8092], [6.452204, 49.809254], [6.452143, 49.809288], [6.452101, 49.80933], [6.452078, 49.80941], [6.452051, 49.80946], [6.45204, 49.8095], [6.45204, 49.809513], [6.452036, 49.809547], [6.452032, 49.80961], [6.452024, 49.80966], [6.452009, 49.809704], [6.451899, 49.809875], [6.451841, 49.809967], [6.451796, 49.810043], [6.451761, 49.810104], [6.451746, 49.81014], [6.451738, 49.81018], [6.451742, 49.810234], [6.451742, 49.81029], [6.451738, 49.810368], [6.451734, 49.810417], [6.451734, 49.810436], [6.451731, 49.8105], [6.451727, 49.81054], [6.451712, 49.81065], [6.451803, 49.810642], [6.451822, 49.81066], [6.451826, 49.810745], [6.451834, 49.81084], [6.451818, 49.810852], [6.451807, 49.81086], [6.451864, 49.81094], [6.451883, 49.81098], [6.45188, 49.81102], [6.451841, 49.81108], [6.451834, 49.81112], [6.451899, 49.811265], [6.451915, 49.811301], [6.451918, 49.811338], [6.452009, 49.811361], [6.452948, 49.8113], [6.453569, 49.811289], [6.45363, 49.811285], [6.454069, 49.811331], [6.454332, 49.811357], [6.454569, 49.811441], [6.454756, 49.811563], [6.455053, 49.811769], [6.455358, 49.811945], [6.455614, 49.81212], [6.455957, 49.812288], [6.456259, 49.812437], [6.456495, 49.812582], [6.456804, 49.812822], [6.45701, 49.812998], [6.45714, 49.813196], [6.457411, 49.813497], [6.457586, 49.813685], [6.457762, 49.813883], [6.457888, 49.814005], [6.458094, 49.814196], [6.4587, 49.814802], [6.459028, 49.815096], [6.459162, 49.815249], [6.459333, 49.815435], [6.459562, 49.815603], [6.459795, 49.815832], [6.460024, 49.816061], [6.460245, 49.816275], [6.460611, 49.816664], [6.46076, 49.816889], [6.460932, 49.817057], [6.461161, 49.817236], [6.461382, 49.817381], [6.461679, 49.817602], [6.461927, 49.817793], [6.462141, 49.817923], [6.462469, 49.818155], [6.46282, 49.818418], [6.463102, 49.818663], [6.463434, 49.818937], [6.463984, 49.819319], [6.464117, 49.819368], [6.464392, 49.819529], [6.464907, 49.819723], [6.465166, 49.819815], [6.465262, 49.819841], [6.465609, 49.819902], [6.46591, 49.820044], [6.466211, 49.820124], [6.466375, 49.820189], [6.466669, 49.820333], [6.466837, 49.820448], [6.467024, 49.820558], [6.467413, 49.820826], [6.467653, 49.820993], [6.468096, 49.821261], [6.468344, 49.821398], [6.468588, 49.821489], [6.468782, 49.821611], [6.46911, 49.821821], [6.469378, 49.821959], [6.469625, 49.822069], [6.470072, 49.822206], [6.470377, 49.822283], [6.470633, 49.822317], [6.470987, 49.822325], [6.471296, 49.82229], [6.47172, 49.822237], [6.471918, 49.822195], [6.472567, 49.821997], [6.473036, 49.821806], [6.473417, 49.821642], [6.473585, 49.821569], [6.473944, 49.821413], [6.474287, 49.821268], [6.474756, 49.821058], [6.475046, 49.820932], [6.475336, 49.820807], [6.475645, 49.820673], [6.475923, 49.820555], [6.476217, 49.820429], [6.476412, 49.820345], [6.47674, 49.820204], [6.477446, 49.819895], [6.47798, 49.819674], [6.478331, 49.819521], [6.478785, 49.819323], [6.479116, 49.819166], [6.479517, 49.818972], [6.479849, 49.8188], [6.480166, 49.818613], [6.480455, 49.818411], [6.480722, 49.818213], [6.48102, 49.817942], [6.481298, 49.817644], [6.481554, 49.817305], [6.481829, 49.816927], [6.481993, 49.816687], [6.482092, 49.816561], [6.482279, 49.816294], [6.482462, 49.816053], [6.48279, 49.815599], [6.483, 49.815317], [6.483232, 49.815], [6.483404, 49.81476], [6.483553, 49.81452], [6.483702, 49.814302], [6.483911, 49.814009], [6.484045, 49.813848], [6.484415, 49.813532], [6.48451, 49.813452], [6.4848, 49.813326], [6.484976, 49.813253], [6.485243, 49.813128], [6.485472, 49.813017], [6.485647, 49.812952], [6.4858, 49.812887], [6.486025, 49.812784], [6.486265, 49.81267], [6.48646, 49.812578], [6.486666, 49.812483], [6.486876, 49.812384], [6.487101, 49.812284], [6.487341, 49.812162], [6.487528, 49.812094], [6.487825, 49.811968], [6.488001, 49.81188], [6.488329, 49.811735], [6.488504, 49.811667], [6.488649, 49.811613], [6.488878, 49.811575], [6.489157, 49.81151], [6.489424, 49.811457], [6.489656, 49.811422], [6.489809, 49.811396], [6.49008, 49.811342], [6.490252, 49.811304], [6.490412, 49.811277], [6.49074, 49.811232], [6.490866, 49.811216], [6.490915, 49.811209], [6.491091, 49.811182], [6.491331, 49.811152], [6.491552, 49.811129], [6.491724, 49.811113], [6.491995, 49.811094], [6.492212, 49.811098], [6.492395, 49.811087], [6.492601, 49.811087], [6.492861, 49.811102], [6.493032, 49.811125], [6.493128, 49.811148], [6.493319, 49.81119], [6.493486, 49.811247], [6.493647, 49.811354], [6.493757, 49.811438], [6.493944, 49.811583], [6.49407, 49.811689], [6.494204, 49.811781], [6.494474, 49.811892], [6.49452, 49.811911], [6.494821, 49.812063], [6.495157, 49.812185], [6.495336, 49.81222], [6.495497, 49.812242], [6.495707, 49.812235], [6.495871, 49.8122], [6.49618, 49.812086], [6.496447, 49.811964], [6.49663, 49.811888], [6.496725, 49.811827], [6.496943, 49.81172], [6.497057, 49.811667], [6.497381, 49.811514], [6.497587, 49.811422], [6.497728, 49.811354], [6.497942, 49.811232], [6.49814, 49.811144], [6.498282, 49.811083], [6.498419, 49.810991], [6.498545, 49.810934], [6.498869, 49.810774], [6.499063, 49.810698], [6.499346, 49.810617], [6.49959, 49.810537], [6.500094, 49.810373], [6.500361, 49.810282], [6.500711, 49.810144], [6.501219, 49.809969], [6.501596, 49.80987], [6.502237, 49.809748], [6.502474, 49.809725], [6.502676, 49.809698], [6.502993, 49.809648], [6.503382, 49.809595], [6.503839, 49.809538], [6.504042, 49.809515], [6.50448, 49.809462], [6.50506, 49.809309], [6.505415, 49.809137], [6.505751, 49.808901], [6.505987, 49.808676], [6.506208, 49.808424], [6.506342, 49.808252], [6.506533, 49.807981], [6.506742, 49.807665], [6.506788, 49.807596], [6.506849, 49.807512], [6.507036, 49.807203], [6.507246, 49.806852], [6.507448, 49.806505], [6.507608, 49.806272], [6.507669, 49.806212], [6.507704, 49.806162], [6.50775, 49.806093], [6.507776, 49.805925], [6.507982, 49.805506], [6.508028, 49.805422], [6.50823, 49.805017], [6.508417, 49.804636], [6.508459, 49.804552], [6.508738, 49.803961], [6.50881, 49.803747], [6.508818, 49.803698], [6.508837, 49.803656], [6.508913, 49.803492], [6.508955, 49.803492], [6.509073, 49.803221], [6.509306, 49.802713], [6.509382, 49.802557], [6.509459, 49.802446], [6.509665, 49.80221], [6.509695, 49.802172], [6.509832, 49.802046], [6.509848, 49.802031], [6.50989, 49.801989], [6.51013, 49.801767], [6.510244, 49.801664], [6.510302, 49.801611], [6.510313, 49.801607], [6.510664, 49.801481], [6.510931, 49.80142], [6.511129, 49.801378], [6.511408, 49.801371], [6.511553, 49.801367], [6.511881, 49.801386], [6.512274, 49.801458], [6.512816, 49.801634], [6.513174, 49.801813], [6.51354, 49.802042], [6.513884, 49.802298], [6.514139, 49.802511], [6.514715, 49.803045], [6.514807, 49.803114], [6.514849, 49.803225], [6.514872, 49.803282], [6.514944, 49.803381], [6.515009, 49.803442], [6.515051, 49.80348], [6.515074, 49.803507], [6.515127, 49.803556], [6.515154, 49.803579], [6.515196, 49.803618], [6.515318, 49.803724], [6.515375, 49.803755], [6.515551, 49.803945], [6.515795, 49.80422], [6.515959, 49.804388], [6.516367, 49.804846], [6.516661, 49.805208], [6.516935, 49.805574], [6.517076, 49.805849], [6.517237, 49.806074], [6.517355, 49.806295], [6.517473, 49.806482], [6.517603, 49.806692], [6.517702, 49.806887], [6.517798, 49.8071], [6.517828, 49.807169], [6.517843, 49.807295], [6.517923, 49.807417], [6.517908, 49.807531], [6.518003, 49.807535], [6.518015, 49.807608], [6.518061, 49.807699], [6.518007, 49.80773], [6.518095, 49.807795], [6.51816, 49.807928], [6.518248, 49.807981], [6.51824, 49.808107], [6.518316, 49.80818], [6.518434, 49.808485], [6.51853, 49.80863], [6.51853, 49.808859], [6.51858, 49.808992], [6.518587, 49.809099], [6.518496, 49.809267], [6.518488, 49.80942], [6.518438, 49.80961], [6.518412, 49.809904], [6.518446, 49.810232], [6.518473, 49.810389], [6.518545, 49.810522], [6.518576, 49.81064], [6.518595, 49.810766], [6.518656, 49.811048], [6.51877, 49.811262], [6.518827, 49.811384], [6.518862, 49.811468], [6.518976, 49.811705], [6.519091, 49.811953], [6.519247, 49.81217], [6.519388, 49.812307], [6.519548, 49.812483], [6.519754, 49.812647], [6.519949, 49.81278], [6.520231, 49.812906], [6.52046, 49.812967], [6.520872, 49.813101], [6.521093, 49.813108], [6.521318, 49.813112], [6.521627, 49.81304], [6.521936, 49.81291], [6.522402, 49.812742], [6.522474, 49.812731], [6.522684, 49.812674], [6.522913, 49.812586], [6.523104, 49.812536], [6.523272, 49.812452], [6.523592, 49.81238], [6.523977, 49.812208], [6.524118, 49.812204], [6.524359, 49.812067], [6.524733, 49.811914], [6.52503, 49.811811], [6.525255, 49.811712], [6.525618, 49.811579], [6.526003, 49.811438], [6.526178, 49.811373], [6.526434, 49.811258], [6.52664, 49.811167], [6.526918, 49.811018], [6.527227, 49.810823], [6.527395, 49.81069], [6.527517, 49.810587], [6.527754, 49.810373], [6.527983, 49.810217], [6.528227, 49.810068], [6.528543, 49.809862], [6.528727, 49.809736], [6.529005, 49.809553], [6.529406, 49.809244], [6.529497, 49.809088], [6.529577, 49.808916], [6.529554, 49.808737], [6.52949, 49.808794], [6.529448, 49.808771], [6.529558, 49.808378], [6.529638, 49.808245], [6.529688, 49.808096], [6.529749, 49.80789], [6.529802, 49.807634], [6.530092, 49.80699], [6.53013, 49.806948], [6.530409, 49.806662], [6.530657, 49.806364], [6.530745, 49.806116], [6.530813, 49.805998], [6.530897, 49.806009], [6.530851, 49.80583], [6.53084, 49.805674], [6.530794, 49.805567], [6.530767, 49.805349], [6.530642, 49.805151], [6.530489, 49.804998], [6.530107, 49.804606], [6.529932, 49.804434], [6.529718, 49.804224], [6.529676, 49.804125], [6.529261, 49.803862], [6.528814, 49.803583], [6.528501, 49.8034], [6.528349, 49.803297], [6.528162, 49.803179], [6.527895, 49.803034], [6.527605, 49.802889], [6.527372, 49.802778], [6.527163, 49.802687], [6.527109, 49.802652], [6.526907, 49.802557], [6.526648, 49.802416], [6.526487, 49.80232], [6.526331, 49.802198], [6.526075, 49.802042], [6.525927, 49.801886], [6.525778, 49.801783], [6.525595, 49.801615], [6.525408, 49.801451], [6.525217, 49.801302], [6.525084, 49.801195], [6.524904, 49.801043], [6.524801, 49.800882], [6.524691, 49.800756], [6.524462, 49.800535], [6.52434, 49.800386], [6.524046, 49.800123], [6.523886, 49.799963], [6.52355, 49.799673], [6.523363, 49.799524], [6.523188, 49.799406], [6.523004, 49.799253], [6.522867, 49.799093], [6.522787, 49.798956], [6.522688, 49.798842], [6.522589, 49.798704], [6.522402, 49.798483], [6.522215, 49.798277], [6.522108, 49.798132], [6.521948, 49.797911], [6.521841, 49.797773], [6.521688, 49.797583], [6.521608, 49.79748], [6.521418, 49.797293], [6.521238, 49.797148], [6.521051, 49.797014], [6.520968, 49.796965], [6.520704, 49.796766], [6.520533, 49.796656], [6.52033, 49.796553], [6.520117, 49.796411], [6.519766, 49.79627], [6.519434, 49.796114], [6.519075, 49.795977], [6.518949, 49.795935], [6.518534, 49.79579], [6.518152, 49.795652], [6.517965, 49.795599], [6.517534, 49.795534], [6.517267, 49.795439], [6.517168, 49.795389], [6.516916, 49.795267], [6.516729, 49.795191], [6.516458, 49.79508], [6.516146, 49.794935], [6.515818, 49.794733], [6.515779, 49.794706], [6.515428, 49.794539], [6.515154, 49.794439], [6.514608, 49.794176], [6.51441, 49.7941], [6.514181, 49.794012], [6.513967, 49.79394], [6.513636, 49.79384], [6.513205, 49.793703], [6.512545, 49.793535], [6.512083, 49.793447], [6.511923, 49.793421], [6.511637, 49.793371], [6.511286, 49.793306], [6.510759, 49.793188], [6.510218, 49.79302], [6.509748, 49.792871], [6.509279, 49.792738], [6.509142, 49.792688], [6.509096, 49.79265], [6.508699, 49.792444], [6.508577, 49.792395], [6.508486, 49.792349], [6.508387, 49.792299], [6.508306, 49.792292], [6.507326, 49.791944], [6.507227, 49.791849], [6.507013, 49.791616], [6.506762, 49.791357], [6.506537, 49.791124], [6.506395, 49.790991], [6.506227, 49.790808], [6.506082, 49.790617], [6.505831, 49.790255], [6.505739, 49.79006], [6.505655, 49.789823], [6.50561, 49.789637], [6.505583, 49.789442], [6.505579, 49.789305], [6.505594, 49.789095], [6.505625, 49.788938], [6.505674, 49.788721], [6.505701, 49.788679], [6.505739, 49.788546], [6.505903, 49.788244], [6.506037, 49.788061], [6.506212, 49.787844], [6.506357, 49.787691], [6.506659, 49.787439], [6.506861, 49.787294], [6.507139, 49.787111], [6.507338, 49.786993], [6.507437, 49.786943], [6.507639, 49.78684], [6.50783, 49.786737], [6.507986, 49.786646], [6.508291, 49.786516], [6.508734, 49.786322], [6.50923, 49.786131], [6.509665, 49.785936], [6.510233, 49.785726], [6.510611, 49.785574], [6.510973, 49.785467], [6.511312, 49.785391], [6.511919, 49.785261], [6.512419, 49.785151], [6.512842, 49.785051], [6.513109, 49.784979], [6.513487, 49.784857], [6.513811, 49.78472], [6.513956, 49.784651], [6.514277, 49.784529], [6.514646, 49.784399], [6.514925, 49.784281], [6.515307, 49.784098], [6.51544, 49.784033], [6.515577, 49.783964], [6.515619, 49.78393], [6.515802, 49.783838], [6.51594, 49.783747], [6.515966, 49.783712], [6.516191, 49.783594], [6.516298, 49.783392], [6.516348, 49.783293], [6.516485, 49.783205], [6.516604, 49.783125], [6.516684, 49.782972], [6.516813, 49.78277], [6.516901, 49.782579], [6.516855, 49.78245], [6.516783, 49.782282], [6.516699, 49.782125], [6.516626, 49.781992], [6.516466, 49.781794], [6.516371, 49.781668], [6.516302, 49.781618], [6.516241, 49.781553], [6.516146, 49.781466], [6.516062, 49.781397], [6.51597, 49.781271], [6.515822, 49.781153], [6.515726, 49.781069], [6.515589, 49.780935], [6.515486, 49.780867], [6.515337, 49.780756], [6.515249, 49.780664], [6.515051, 49.780497], [6.514944, 49.780371], [6.514441, 49.779978], [6.51428, 49.779848], [6.514017, 49.77965], [6.513666, 49.779402], [6.51309, 49.778974], [6.512972, 49.778868], [6.512816, 49.778742], [6.512701, 49.77865], [6.512552, 49.778536], [6.512407, 49.778421], [6.51222, 49.778284], [6.51169, 49.777903], [6.511507, 49.777777], [6.511248, 49.777624], [6.511045, 49.777452], [6.510881, 49.777304], [6.510763, 49.777205], [6.510576, 49.777006], [6.510477, 49.776861], [6.510344, 49.776697], [6.510252, 49.776495], [6.510199, 49.776339], [6.510065, 49.776045], [6.50997, 49.775774], [6.509848, 49.775545], [6.509726, 49.775217], [6.509649, 49.774939], [6.509607, 49.774691], [6.509592, 49.774458], [6.509584, 49.774279], [6.509565, 49.774115], [6.509573, 49.773798], [6.509653, 49.773623], [6.509817, 49.773447], [6.510061, 49.773298], [6.51053, 49.773077], [6.510824, 49.77297], [6.510981, 49.772898], [6.511175, 49.772833], [6.511545, 49.772695], [6.511759, 49.772604], [6.511778, 49.772558], [6.511808, 49.772509], [6.511934, 49.772448], [6.512091, 49.772409], [6.512365, 49.772295], [6.512526, 49.772257], [6.512728, 49.772158], [6.512949, 49.772062], [6.513033, 49.771967], [6.513155, 49.771913], [6.513273, 49.771856], [6.513399, 49.771769], [6.513525, 49.7717], [6.513674, 49.771593], [6.513582, 49.771554], [6.513471, 49.771513], [6.513327, 49.77145], [6.513292, 49.77144], [6.513163, 49.771385], [6.513006, 49.771324], [6.512682, 49.771194], [6.51248, 49.77111], [6.511751, 49.770824], [6.51156, 49.771046], [6.511496, 49.771126], [6.511457, 49.771168], [6.511259, 49.771404], [6.511068, 49.771313], [6.511042, 49.771297], [6.511007, 49.771282], [6.510866, 49.77138], [6.510397, 49.7713], [6.509886, 49.7712], [6.508974, 49.771084], [6.508753, 49.771084], [6.508726, 49.77111], [6.508058, 49.77103], [6.507364, 49.77094], [6.506983, 49.77087], [6.506678, 49.770813], [6.506635, 49.770812], [6.50643, 49.770805], [6.506258, 49.770836], [6.506037, 49.770916], [6.505911, 49.770987], [6.505861, 49.771015], [6.505594, 49.771202], [6.505575, 49.77118], [6.50551, 49.7711], [6.505033, 49.77121], [6.504793, 49.77125], [6.504393, 49.77131], [6.504026, 49.77135], [6.503923, 49.771366], [6.503523, 49.77141], [6.502489, 49.77153], [6.502428, 49.771538], [6.502275, 49.771553], [6.50181, 49.771606], [6.501768, 49.771576], [6.501726, 49.771553], [6.501661, 49.771538], [6.501566, 49.77153], [6.501444, 49.771538], [6.501371, 49.771553], [6.501253, 49.77158], [6.501078, 49.771633], [6.501032, 49.77165], [6.500971, 49.771667], [6.500902, 49.77169], [6.500833, 49.77171], [6.500784, 49.77172], [6.500677, 49.77174], [6.500578, 49.77175], [6.500513, 49.77176], [6.500437, 49.771774], [6.500238, 49.771812], [6.50004, 49.77146], [6.499197, 49.77176], [6.498701, 49.771935], [6.49859, 49.771965], [6.498079, 49.772026], [6.497927, 49.772045], [6.497671, 49.772076], [6.497656, 49.772057], [6.497706, 49.772007], [6.49793, 49.771854], [6.497644, 49.77149], [6.497541, 49.771355], [6.497518, 49.771366], [6.497263, 49.771515], [6.497038, 49.771637], [6.496512, 49.77192], [6.496058, 49.772152], [6.495798, 49.772274], [6.495325, 49.772495], [6.495253, 49.772404], [6.495203, 49.772346], [6.495157, 49.77231], [6.495089, 49.772278], [6.494654, 49.772186], [6.494417, 49.772137], [6.493662, 49.771984], [6.49206, 49.77168], [6.490869, 49.77127], [6.490602, 49.771072], [6.490072, 49.770664], [6.489531, 49.770245], [6.488562, 49.769527], [6.487986, 49.76984], [6.487543, 49.770065], [6.486948, 49.770145], [6.486879, 49.770172], [6.486792, 49.770214], [6.486734, 49.770233], [6.486353, 49.770264], [6.486307, 49.770542], [6.486277, 49.770653], [6.486265, 49.7707], [6.486254, 49.770752], [6.486258, 49.770832], [6.486277, 49.77092], [6.486307, 49.771027], [6.486422, 49.771122], [6.486368, 49.771145], [6.486345, 49.771156], [6.48628, 49.77119], [6.486078, 49.771305], [6.485998, 49.77135], [6.485914, 49.7714], [6.48583, 49.771446], [6.485743, 49.7715], [6.485708, 49.77152], [6.485624, 49.771564], [6.484785, 49.771896], [6.48427, 49.772076], [6.484209, 49.7721], [6.484152, 49.772118], [6.48398, 49.772175], [6.483957, 49.772182], [6.483763, 49.77225], [6.483709, 49.772266], [6.483572, 49.772324], [6.483377, 49.772408], [6.483328, 49.772427], [6.482668, 49.772705], [6.482573, 49.772743], [6.482382, 49.772705], [6.482031, 49.77238], [6.481916, 49.77228], [6.481581, 49.77197], [6.481566, 49.771954], [6.481352, 49.77177], [6.48115, 49.771614], [6.480768, 49.771328], [6.480436, 49.771122], [6.48012, 49.770954], [6.479734, 49.770767], [6.479399, 49.770607], [6.47883, 49.770466], [6.478247, 49.770332], [6.477808, 49.77027], [6.477602, 49.770252], [6.476778, 49.77023], [6.476702, 49.77023], [6.475546, 49.769997], [6.474878, 49.769722], [6.47444, 49.769405], [6.474382, 49.769363], [6.474291, 49.769302], [6.474241, 49.768963], [6.474234, 49.768898], [6.474195, 49.768646], [6.474138, 49.768536], [6.47405, 49.7684], [6.473906, 49.768227], [6.4737, 49.76802], [6.473543, 49.767895], [6.473425, 49.767796], [6.473272, 49.767696], [6.473124, 49.767616], [6.472883, 49.767525], [6.472475, 49.76738], [6.472452, 49.767406], [6.472406, 49.76746], [6.472395, 49.767467], [6.472345, 49.76753], [6.47233, 49.767544], [6.472177, 49.767704], [6.472166, 49.76772], [6.472063, 49.767822], [6.472048, 49.767838], [6.472006, 49.767876], [6.471926, 49.767956], [6.471876, 49.768], [6.47183, 49.768044], [6.471712, 49.76815], [6.471628, 49.76822], [6.471586, 49.768257], [6.471468, 49.768345], [6.47138, 49.768406], [6.471189, 49.76854], [6.471151, 49.768566], [6.470865, 49.76878], [6.470644, 49.768986], [6.470537, 49.7691], [6.470438, 49.769234], [6.470408, 49.76927], [6.4704, 49.76931], [6.470453, 49.76944], [6.470507, 49.76959], [6.470545, 49.76973], [6.470556, 49.76983], [6.470552, 49.769955], [6.470526, 49.769966], [6.470228, 49.770237], [6.470201, 49.77026], [6.470079, 49.770374], [6.469973, 49.770466], [6.469934, 49.7705], [6.469862, 49.770557], [6.469526, 49.77074], [6.469416, 49.770786], [6.46892, 49.770985], [6.468561, 49.771156], [6.46818, 49.77134], [6.467977, 49.771267], [6.467817, 49.77121], [6.46773, 49.771175], [6.467634, 49.77114], [6.467508, 49.771095], [6.467451, 49.771072], [6.467359, 49.771038], [6.46707, 49.770935], [6.467035, 49.77092], [6.467016, 49.770916], [6.466974, 49.770897], [6.46689, 49.770866], [6.466669, 49.770786], [6.466501, 49.77073], [6.466303, 49.770668], [6.466223, 49.77064], [6.46612, 49.77061], [6.466017, 49.770576], [6.46591, 49.770542], [6.465815, 49.77051], [6.465712, 49.770477], [6.465612, 49.770447], [6.465483, 49.770405], [6.465155, 49.7703], [6.465086, 49.77028], [6.464819, 49.770195], [6.464468, 49.770084], [6.464445, 49.77008], [6.464235, 49.770023], [6.464083, 49.769985], [6.464025, 49.769966], [6.463705, 49.76987], [6.463575, 49.769833], [6.463385, 49.76978], [6.46319, 49.769722], [6.462851, 49.769623], [6.462557, 49.76954], [6.462473, 49.7695], [6.462317, 49.769436], [6.461969, 49.76929], [6.461939, 49.769276], [6.461538, 49.769108], [6.461344, 49.769024], [6.461286, 49.768997], [6.461241, 49.768974], [6.461203, 49.76895], [6.461149, 49.768925], [6.461069, 49.76888], [6.460909, 49.768787], [6.460829, 49.768738], [6.460684, 49.768658], [6.460665, 49.768646], [6.460589, 49.768604], [6.460459, 49.76853], [6.46036, 49.768475], [6.460344, 49.768467], [6.460253, 49.768414], [6.460196, 49.768383], [6.460142, 49.768353], [6.460077, 49.76831], [6.460054, 49.7683], [6.460039, 49.768288], [6.460028, 49.76828], [6.459856, 49.76814], [6.459639, 49.767956], [6.459196, 49.767567], [6.458822, 49.76726], [6.458571, 49.76706], [6.458521, 49.76702], [6.45796, 49.76658], [6.45785, 49.76649], [6.457609, 49.766308], [6.457045, 49.76628], [6.456602, 49.76625], [6.456007, 49.766167], [6.455862, 49.766087], [6.45582, 49.766068], [6.455725, 49.766018], [6.455416, 49.765926], [6.455221, 49.765873], [6.454828, 49.765778], [6.454794, 49.765774], [6.454531, 49.76556], [6.454126, 49.76524], [6.453951, 49.7651], [6.453726, 49.764923], [6.453596, 49.76482], [6.453505, 49.764744], [6.453279, 49.764553], [6.45307, 49.76437], [6.452974, 49.764233], [6.452948, 49.76421], [6.452639, 49.763973], [6.452612, 49.76395], [6.452272, 49.7637], [6.451857, 49.76339], [6.451647, 49.763237], [6.451521, 49.76317], [6.451479, 49.763145], [6.451407, 49.76312], [6.45138, 49.763172], [6.451353, 49.76323], [6.451288, 49.763336], [6.451185, 49.763474], [6.451075, 49.7636], [6.450956, 49.76372], [6.450831, 49.76383], [6.450739, 49.763897], [6.450552, 49.764023], [6.450289, 49.764183], [6.449858, 49.76444], [6.449427, 49.76468], [6.449049, 49.764988], [6.448965, 49.76506], [6.448885, 49.765125], [6.448797, 49.765198], [6.448679, 49.765293], [6.448496, 49.765446], [6.448248, 49.765648], [6.448183, 49.7657], [6.448015, 49.76584], [6.447683, 49.766014], [6.447386, 49.766174], [6.446806, 49.76648], [6.446718, 49.766525], [6.446642, 49.766563], [6.446585, 49.766594], [6.446386, 49.766697], [6.446222, 49.76678], [6.446089, 49.766846], [6.445959, 49.766914], [6.445845, 49.76697], [6.44573, 49.767033], [6.445421, 49.76718], [6.445215, 49.76728], [6.445116, 49.76733], [6.445005, 49.767384], [6.444891, 49.767433], [6.444784, 49.76748], [6.444681, 49.76752], [6.444582, 49.767567], [6.444277, 49.767696], [6.444181, 49.76774], [6.444132, 49.767723], [6.443865, 49.767956], [6.442865, 49.768806], [6.442427, 49.76919], [6.442285, 49.769596], [6.442156, 49.77036], [6.442148, 49.770393], [6.442144, 49.77042], [6.440958, 49.77217], [6.438696, 49.772472], [6.438093, 49.772552], [6.437841, 49.772583], [6.437815, 49.772587], [6.437624, 49.77261], [6.437429, 49.772636], [6.437132, 49.77267], [6.436647, 49.772728], [6.436274, 49.772774], [6.435988, 49.772808], [6.435823, 49.772827], [6.435701, 49.772842], [6.435515, 49.77288], [6.435011, 49.772873], [6.434893, 49.77287], [6.434732, 49.772858], [6.434469, 49.772827], [6.434164, 49.77278], [6.434111, 49.772774], [6.433966, 49.772755], [6.433767, 49.772728], [6.433584, 49.772705], [6.433317, 49.772663], [6.432898, 49.772594], [6.432833, 49.77254], [6.432791, 49.772503], [6.432749, 49.77247], [6.432669, 49.772404], [6.432619, 49.772358], [6.432554, 49.772305], [6.432497, 49.77226], [6.432329, 49.772118], [6.431997, 49.77183], [6.43157, 49.772053], [6.431421, 49.772137], [6.431272, 49.772224], [6.431177, 49.772293], [6.430845, 49.772583], [6.430674, 49.772717], [6.430494, 49.77285], [6.430178, 49.77307], [6.430014, 49.772995], [6.429892, 49.77294], [6.429781, 49.772873], [6.429659, 49.772785], [6.429583, 49.77269], [6.429483, 49.77254], [6.429453, 49.77246], [6.429445, 49.772335], [6.429461, 49.771984], [6.429174, 49.77198], [6.429052, 49.77198], [6.42901, 49.771976], [6.428934, 49.771976], [6.428675, 49.771973], [6.428507, 49.77197], [6.428328, 49.77197], [6.428286, 49.771988], [6.427321, 49.771954], [6.426813, 49.771935], [6.426741, 49.771797], [6.426683, 49.77174], [6.42658, 49.77169], [6.426439, 49.77167], [6.426287, 49.771664], [6.426153, 49.771675], [6.426104, 49.77169], [6.426039, 49.771744], [6.425993, 49.77174], [6.425871, 49.77174], [6.425646, 49.771732], [6.425531, 49.771725], [6.42539, 49.7717], [6.425234, 49.77167], [6.425081, 49.77164], [6.424585, 49.771538], [6.424154, 49.771446], [6.424074, 49.771427], [6.424017, 49.77141], [6.423567, 49.77125], [6.423342, 49.771152], [6.423101, 49.77104], [6.422861, 49.770905], [6.422579, 49.77073], [6.422205, 49.770462], [6.42169, 49.770042], [6.421839, 49.769928], [6.421965, 49.76983], [6.421423, 49.769222], [6.420935, 49.768604], [6.420305, 49.768154], [6.419741, 49.767628], [6.418455, 49.766388], [6.417231, 49.76578], [6.416243, 49.765293], [6.413324, 49.764584], [6.412554, 49.76448], [6.411852, 49.764397], [6.410265, 49.764313], [6.408815, 49.76407], [6.407858, 49.764378], [6.406481, 49.765], [6.404936, 49.76569], [6.402151, 49.766037], [6.402006, 49.766068], [6.401434, 49.766384], [6.400923, 49.766685], [6.400854, 49.766644], [6.400766, 49.76692], [6.400454, 49.767567], [6.399775, 49.769096], [6.399275, 49.77015], [6.398737, 49.770885], [6.39823, 49.77156], [6.397806, 49.772125], [6.397501, 49.772526], [6.397226, 49.77373], [6.397165, 49.77377]]]]}}]}