{"type": "FeatureCollection", "features": [{"type": "Feature", "properties": {"name": "Arboretum Kirchberg - Parc Réimerwee", "kind": "park"}, "geometry": {"type": "Polygon", "coordinates": [[[6.1654446, 49.6329717], [6.1645934, 49.6324142], [6.1644942, 49.6323916], [6.1644917, 49.6323898], [6.1630364, 49.6313409], [6.1629902, 49.6313717], [6.1626472, 49.6311349], [6.1626165, 49.6311137], [6.162255, 49.6308642], [6.1619106, 49.6306543], [6.1613556, 49.6302551], [6.1611849, 49.6301337], [6.1589925, 49.6285748], [6.1588596, 49.6285654], [6.1588058, 49.6285538], [6.1595071, 49.6278528], [6.1604641, 49.6285578], [6.1608692, 49.6285925], [6.1610717, 49.6287315], [6.1608343, 49.6289582], [6.1611186, 49.6291728], [6.1616235, 49.6294781], [6.1617013, 49.6294304], [6.1617362, 49.6294547], [6.1618099, 49.6294082], [6.1619125, 49.6294764], [6.1620678, 49.6293833], [6.1627887, 49.6289385], [6.16309, 49.6292536], [6.163466, 49.6297141], [6.1637331, 49.6300536], [6.1639282, 49.6302712], [6.1641225, 49.6304867], [6.1643371, 49.6306958], [6.1644774, 49.6307794], [6.1645665, 49.6309181], [6.1645738, 49.6310179], [6.1645434, 49.6310929], [6.1649209, 49.6313235], [6.1649995, 49.6312876], [6.1651627, 49.6312924], [6.1653169, 49.6313851], [6.1654233, 49.6315633], [6.1655664, 49.6317418], [6.1657045, 49.6319751], [6.1657799, 49.6320945], [6.1658306, 49.6321979], [6.1658581, 49.6322882], [6.1658701, 49.6323733], [6.1658827, 49.6325392], [6.1658788, 49.6326148], [6.1658563, 49.6327284], [6.1658327, 49.6327832], [6.1658213, 49.6328098], [6.1658086, 49.6328379], [6.165791, 49.6328767], [6.1657474, 49.6329427], [6.1657079, 49.6329788], [6.1654446, 49.6329717]]]}}]}