{"type": "FeatureCollection", "features": [{"type": "Feature", "properties": {"name": "Arboretum Kirchberg - Parc Klosegrënnchen", "kind": "park"}, "geometry": {"type": "Polygon", "coordinates": [[[6.1797106, 49.6303769], [6.1795727, 49.630307], [6.1790811, 49.6300696], [6.178666, 49.6298693], [6.1785879, 49.6298314], [6.1784044, 49.6297707], [6.1783559, 49.6297787], [6.1783311, 49.6298021], [6.1782127, 49.6299547], [6.1781168, 49.6300234], [6.1779432, 49.6300869], [6.1775695, 49.6301963], [6.1775249, 49.6302122], [6.1775159, 49.6302487], [6.1775316, 49.6302962], [6.1776038, 49.6304671], [6.1776444, 49.6306], [6.1777042, 49.6309126], [6.1777459, 49.631621], [6.1777887, 49.631621], [6.1777917, 49.6317598], [6.1777901, 49.6318057], [6.177793, 49.6318491], [6.1777644, 49.6318557], [6.1777623, 49.6318741], [6.1777631, 49.6318924], [6.1778703, 49.6335811], [6.1778997, 49.6336647], [6.1779114, 49.6337438], [6.1778905, 49.6338376], [6.1778483, 49.6339119], [6.1778103, 49.6339675], [6.1778148, 49.6340116], [6.1778344, 49.6340516], [6.1778965, 49.6341157], [6.1779588, 49.6342026], [6.1779977, 49.6342769], [6.1780004, 49.6343399], [6.177991, 49.6344597], [6.1779702, 49.6345488], [6.1779214, 49.6346789], [6.1778581, 49.6347879], [6.1777644, 49.6349023], [6.1777047, 49.6349606], [6.1777369, 49.6349739], [6.1779105, 49.6350527], [6.1779823, 49.6351042], [6.178044, 49.6351763], [6.1780909, 49.6352601], [6.1781259, 49.6353536], [6.1781388, 49.6354558], [6.1781648, 49.635526], [6.1782018, 49.6355949], [6.1782649, 49.6356517], [6.178345, 49.6357266], [6.1783928, 49.6357964], [6.1784054, 49.6359167], [6.1784205, 49.635969], [6.1785033, 49.6360687], [6.178683, 49.6361825], [6.1788641, 49.6362633], [6.1791162, 49.6363067], [6.1793321, 49.6363093], [6.1795527, 49.6362837], [6.179825, 49.6362083], [6.1800999, 49.6362138], [6.180232, 49.6362012], [6.1803614, 49.6361747], [6.1805626, 49.636107], [6.1806981, 49.6360479], [6.1807781, 49.6359846], [6.1808642, 49.6359073], [6.1809866, 49.6357416], [6.1810909, 49.6355354], [6.1812305, 49.6350525], [6.1811741, 49.634634], [6.1810825, 49.6336094], [6.1809294, 49.6332719], [6.1809012, 49.6325779], [6.1809388, 49.632121], [6.1807376, 49.6319039], [6.1801395, 49.6318795], [6.1802468, 49.631718], [6.1802897, 49.6314313], [6.179992, 49.63148], [6.1799061, 49.6316693], [6.1800858, 49.6317284], [6.1800805, 49.6318014], [6.1799785, 49.6318205], [6.1797693, 49.6317492], [6.1794206, 49.6313584], [6.1792517, 49.6310665], [6.179255, 49.6309379], [6.1792725, 49.6308915], [6.179503, 49.6305012], [6.1795568, 49.6304828], [6.1796111, 49.6304649], [6.1797106, 49.6303769]]]}}]}