{"type": "FeatureCollection", "features": [{"type": "Feature", "properties": {"name": "Jardin Anglais", "kind": "park"}, "geometry": {"type": "Polygon", "coordinates": [[[6.119874, 49.5951321], [6.1201532, 49.5951445], [6.1205823, 49.5950009], [6.1211957, 49.5949253], [6.1215828, 49.5948182], [6.121584, 49.5948002], [6.1215952, 49.5946355], [6.1215993, 49.594575], [6.121329, 49.5945064], [6.1212698, 49.594461], [6.1211779, 49.594416], [6.1212233, 49.5943752], [6.1213047, 49.5942667], [6.1211143, 49.594205], [6.1210356, 49.594263], [6.1209712, 49.5942234], [6.120825, 49.5941335], [6.1206829, 49.5940831], [6.1205434, 49.5940048], [6.1203617, 49.5938667], [6.1203249, 49.5938397], [6.1200906, 49.5939411], [6.1200275, 49.593977], [6.1201926, 49.5942914], [6.1196384, 49.5943688], [6.1189889, 49.594577], [6.1193165, 49.5947261], [6.1190439, 49.5948868], [6.1192612, 49.5950741], [6.1198302, 49.5950678], [6.119874, 49.5951321]]]}}]}