{"type": "FeatureCollection", "features": [{"type": "Feature", "properties": {"name": "Jardin éphémère", "kind": "park"}, "geometry": {"type": "Polygon", "coordinates": [[[6.1713656, 49.6301382], [6.1714074, 49.6301637], [6.1718636, 49.6304427], [6.1722625, 49.6306866], [6.1723655, 49.6307496], [6.1730498, 49.6311681], [6.1730799, 49.6311469], [6.173149, 49.6310995], [6.1734775, 49.6308745], [6.1735185, 49.6308466], [6.173562, 49.6308167], [6.1727743, 49.6303351], [6.1718778, 49.6297868], [6.1713656, 49.6301382]]]}}]}