{"type": "FeatureCollection", "features": [{"type": "Feature", "properties": {"name": "Odendahl", "kind": "park"}, "geometry": {"type": "Polygon", "coordinates": [[[6.1361141, 49.6131105], [6.1360658, 49.6130973], [6.1360145, 49.6130866], [6.1359701, 49.6130682], [6.1358341, 49.6130532], [6.1357395, 49.6130605], [6.1356021, 49.6130718], [6.1355538, 49.6131057], [6.1354267, 49.6131443], [6.1352279, 49.6131915], [6.1351488, 49.6131933], [6.1349479, 49.6132348], [6.1349091, 49.6132567], [6.1348095, 49.6132879], [6.1347055, 49.613322], [6.1345958, 49.6133636], [6.1345082, 49.6134059], [6.1344487, 49.6134612], [6.1343425, 49.6135398], [6.1341848, 49.6137025], [6.1339525, 49.6139143], [6.1336992, 49.6141299], [6.1337302, 49.6141442], [6.1338519, 49.6142015], [6.1341121, 49.6139955], [6.1341731, 49.6139955], [6.1343555, 49.614112], [6.1348048, 49.6138417], [6.1348162, 49.613821], [6.1348298, 49.6137962], [6.134888, 49.6137666], [6.1354551, 49.6135158], [6.1355141, 49.613554], [6.1360922, 49.6133968], [6.1360976, 49.613323], [6.136387, 49.6132835], [6.1365013, 49.6133169], [6.1365831, 49.6133569], [6.1365817, 49.6133725], [6.1370485, 49.6135163], [6.1370504, 49.6135415], [6.1372069, 49.6135555], [6.1372487, 49.6135387], [6.1373132, 49.6135315], [6.137204, 49.613499], [6.1372351, 49.6134174], [6.1371269, 49.6133847], [6.1370934, 49.6133538], [6.1369526, 49.6133317], [6.1368064, 49.6132826], [6.1367286, 49.6132747], [6.1366126, 49.6132261], [6.1362726, 49.613124], [6.1362378, 49.6131007], [6.1362099, 49.6131446], [6.1361811, 49.613157], [6.1361479, 49.613157], [6.1360381, 49.6131335], [6.1360255, 49.6131292], [6.1360185, 49.6131211], [6.1360193, 49.6131119], [6.1360276, 49.6131043], [6.1360408, 49.6131009], [6.1360548, 49.6131026], [6.136105, 49.6131125], [6.1361141, 49.6131105]]]}}]}