{"type": "FeatureCollection", "features": [{"type": "Feature", "properties": {"name": "Parc Edmond J. Klein", "kind": "park"}, "geometry": {"type": "Polygon", "coordinates": [[[6.121792, 49.609887], [6.121957, 49.6094125], [6.1220616, 49.609436], [6.1223553, 49.6091579], [6.1224783, 49.6089289], [6.1225183, 49.6087742], [6.122413, 49.6087529], [6.1224894, 49.6086043], [6.1224921, 49.6083253], [6.1225149, 49.608215], [6.1225511, 49.6080846], [6.122633, 49.6079391], [6.1248685, 49.6090386], [6.1249109, 49.609164], [6.1248769, 49.6092166], [6.1248417, 49.6092346], [6.1245628, 49.609704], [6.1243646, 49.6101578], [6.124208, 49.6102302], [6.1237867, 49.6101719], [6.1229179, 49.6100506], [6.1224485, 49.6099821], [6.1224029, 49.6099569], [6.1220254, 49.6099022], [6.1218859, 49.6099013], [6.121792, 49.609887]]]}}]}