{"type": "FeatureCollection", "features": [{"type": "Feature", "properties": {"name": "Parc municipal Edouard André", "kind": "park"}, "geometry": {"type": "Polygon", "coordinates": [[[6.1293123, 49.6149779], [6.1295823, 49.6150636], [6.1298353, 49.6151243], [6.1298638, 49.6151066], [6.1299503, 49.6151262], [6.1299221, 49.6151731], [6.1299167, 49.6151815], [6.1297927, 49.6153818], [6.1296701, 49.6155783], [6.1294754, 49.6158904], [6.1294391, 49.6158805], [6.1294067, 49.6158717], [6.1293881, 49.6158679], [6.1293664, 49.6158633], [6.1287536, 49.6157577], [6.1284113, 49.6157002], [6.1284063, 49.615713], [6.1284, 49.6157191], [6.1283894, 49.6157206], [6.1283549, 49.6157135], [6.1283427, 49.615711], [6.1283296, 49.6157083], [6.1282823, 49.6156985], [6.1282404, 49.6156899], [6.1282263, 49.615687], [6.1282119, 49.6156841], [6.1281833, 49.6156782], [6.1281778, 49.6156745], [6.1281731, 49.6156672], [6.1281749, 49.6156579], [6.1276654, 49.6154719], [6.1271643, 49.6152818], [6.1268992, 49.6152068], [6.1266567, 49.615676], [6.1266045, 49.6157245], [6.1264852, 49.61594], [6.1264595, 49.6159347], [6.1263918, 49.6160641], [6.1264333, 49.6160746], [6.1261846, 49.6165757], [6.1260246, 49.6165758], [6.1258791, 49.6166032], [6.1257684, 49.6163703], [6.1256705, 49.6162687], [6.125519, 49.6161183], [6.1253688, 49.6160462], [6.1251354, 49.6160314], [6.1251147, 49.6160245], [6.1249034, 49.6159541], [6.1247958, 49.61585], [6.1246472, 49.6157992], [6.1248069, 49.6156343], [6.1247036, 49.6154858], [6.1246345, 49.615418], [6.1245163, 49.6153461], [6.1243576, 49.6152846], [6.124263, 49.6152668], [6.1240411, 49.615232], [6.123622, 49.6151986], [6.1234101, 49.6151638], [6.1231231, 49.6151078], [6.1227167, 49.6149861], [6.122465, 49.6148654], [6.1223163, 49.6146998], [6.1221481, 49.6145478], [6.1223494, 49.6144132], [6.1221462, 49.6141273], [6.1222224, 49.6141057], [6.1221421, 49.6137513], [6.1219248, 49.6135011], [6.1216158, 49.6131875], [6.1215, 49.6130307], [6.1214281, 49.6128621], [6.121514, 49.6126397], [6.1213692, 49.6123907], [6.1213267, 49.6123009], [6.1212151, 49.612073], [6.121089, 49.611812], [6.1210154, 49.6116479], [6.1209384, 49.6113899], [6.1209302, 49.6112961], [6.1209307, 49.6112171], [6.1209723, 49.6111395], [6.1210061, 49.6110865], [6.1211053, 49.6109647], [6.1211672, 49.6109201], [6.1213634, 49.6107643], [6.1214626, 49.6106599], [6.1215397, 49.6105532], [6.1216272, 49.6103383], [6.121697, 49.6100683], [6.1231729, 49.6102703], [6.1240758, 49.6103938], [6.124143, 49.610403], [6.1242402, 49.6105183], [6.1241256, 49.6109142], [6.1240853, 49.6112426], [6.1240902, 49.6122139], [6.1241199, 49.6125139], [6.1241724, 49.6125383], [6.1242014, 49.6126177], [6.1242091, 49.6126385], [6.1242327, 49.6126996], [6.1243294, 49.612977], [6.1245559, 49.6133012], [6.1247288, 49.6134859], [6.1247685, 49.6135165], [6.1249651, 49.6136683], [6.1249691, 49.6136714], [6.1252373, 49.6138678], [6.1253691, 49.613947], [6.1253835, 49.6139553], [6.1254035, 49.6139669], [6.125578, 49.6140676], [6.125865, 49.6142084], [6.1261648, 49.614331], [6.1264725, 49.6144274], [6.1274886, 49.6146607], [6.127566, 49.6146326], [6.1276145, 49.6146415], [6.1276283, 49.6146636], [6.1283858, 49.6148059], [6.1284139, 49.6147979], [6.1286819, 49.6148487], [6.1287773, 49.6148665], [6.1290058, 49.614848], [6.1291406, 49.6149883], [6.1292929, 49.6149994], [6.1293123, 49.6149779]]]}}]}