{"type": "FeatureCollection", "features": [{"type": "Feature", "properties": {"name": "Parc Tony Neuman", "kind": "park"}, "geometry": {"type": "Polygon", "coordinates": [[[6.1112557, 49.6218964], [6.1113184, 49.6218617], [6.1115961, 49.6217032], [6.1117451, 49.6217076], [6.1114733, 49.6214869], [6.1118645, 49.6212988], [6.1120635, 49.6214587], [6.1122499, 49.6213649], [6.112367, 49.6214717], [6.1125395, 49.6214318], [6.112808, 49.6212579], [6.1127574, 49.6212271], [6.112296, 49.6209575], [6.1116991, 49.6204035], [6.1114809, 49.6198099], [6.1111169, 49.6194473], [6.1106239, 49.6194265], [6.1102845, 49.6195715], [6.1101768, 49.6196156], [6.11004, 49.6197054], [6.109818, 49.6198474], [6.1096798, 49.6197598], [6.1096162, 49.6197899], [6.1095405, 49.6198592], [6.1095924, 49.6199033], [6.1094334, 49.6200049], [6.1093913, 49.6200311], [6.1095185, 49.6201263], [6.1094279, 49.6202022], [6.1093556, 49.6202557], [6.1093354, 49.6202706], [6.1091765, 49.6203882], [6.1091513, 49.6203768], [6.1091364, 49.6203792], [6.1090996, 49.6203819], [6.1091109, 49.6204042], [6.1090197, 49.6205003], [6.1088962, 49.6205099], [6.1089059, 49.6205586], [6.1090517, 49.620785], [6.1090536, 49.6208191], [6.1091107, 49.6208423], [6.1091403, 49.6208615], [6.1093492, 49.6213127], [6.1095741, 49.6215948], [6.1097777, 49.6215447], [6.1101176, 49.6219855], [6.111039, 49.6217591], [6.1112557, 49.6218964]]]}}]}