{"type": "FeatureCollection", "features": [{"type": "Feature", "properties": {"name": "Parc Niedergrünewald", "kind": "park"}, "geometry": {"type": "Polygon", "coordinates": [[[6.136221, 49.6148897], [6.1361427, 49.614957], [6.1360535, 49.6150287], [6.1358763, 49.6151813], [6.1360654, 49.6151158], [6.1360926, 49.6151382], [6.1361673, 49.6151473], [6.1364583, 49.6150456], [6.1366192, 49.6150548], [6.1367512, 49.6151698], [6.1365383, 49.6153235], [6.1364178, 49.6154562], [6.1363774, 49.6155007], [6.1369067, 49.6156562], [6.1369068, 49.6156599], [6.1369089, 49.6156635], [6.1369125, 49.6156661], [6.1369171, 49.6156679], [6.1369224, 49.6156687], [6.1369278, 49.6156683], [6.1369327, 49.6156668], [6.1369366, 49.6156644], [6.1370749, 49.6157091], [6.13777, 49.6159193], [6.1383533, 49.6161409], [6.138529, 49.6162295], [6.1386967, 49.6163573], [6.1388703, 49.6165537], [6.1390246, 49.6167631], [6.1390896, 49.6168426], [6.1391506, 49.6169494], [6.1391667, 49.6170472], [6.1391667, 49.6171332], [6.1390953, 49.617356], [6.1390199, 49.6175911], [6.1396079, 49.6178351], [6.1396705, 49.6178611], [6.139899, 49.6176306], [6.1403067, 49.6176303], [6.1407433, 49.61763], [6.1407362, 49.6177301], [6.1407323, 49.6177777], [6.1405608, 49.6177588], [6.140483, 49.6179361], [6.1405206, 49.6179413], [6.1405242, 49.6179688], [6.1403538, 49.6184181], [6.1403475, 49.6185273], [6.140365, 49.6185634], [6.1404441, 49.6186077], [6.140311, 49.6186434], [6.1392362, 49.6182886], [6.1390169, 49.618119], [6.1389635, 49.6180725], [6.1387885, 49.6179752], [6.1386752, 49.6180386], [6.138238, 49.6180959], [6.138187, 49.6181359], [6.1379108, 49.6181707], [6.1378303, 49.6181194], [6.1375138, 49.6181116], [6.1372925, 49.618105], [6.1365623, 49.6181129], [6.1363122, 49.618115], [6.1361352, 49.6181585], [6.1355089, 49.6181298], [6.1352125, 49.6180264], [6.1351293, 49.6180707], [6.1349027, 49.6180064], [6.1347043, 49.617921], [6.1345151, 49.6180282], [6.1342254, 49.6179665], [6.1342112, 49.6180051], [6.1329118, 49.6178127], [6.1328337, 49.6178007], [6.1327818, 49.6177929], [6.1326987, 49.6177813], [6.1323857, 49.617735], [6.1323968, 49.6175212], [6.132427, 49.6173409], [6.1326771, 49.6169291], [6.1326876, 49.6169118], [6.1326968, 49.6168978], [6.1327457, 49.6168226], [6.1327502, 49.6164928], [6.1328705, 49.6165094], [6.1329179, 49.6165159], [6.1329587, 49.6164957], [6.1329977, 49.6164035], [6.1329899, 49.6163156], [6.1330753, 49.6162509], [6.133047, 49.616176], [6.1330872, 49.6161375], [6.1332008, 49.6161563], [6.1332082, 49.6161046], [6.133339, 49.6160831], [6.1334523, 49.6159341], [6.1335826, 49.6157397], [6.1340495, 49.615412], [6.1342804, 49.6155457], [6.1341091, 49.6157441], [6.1340221, 49.6158449], [6.1340672, 49.6158855], [6.1341108, 49.6158442], [6.1341885, 49.6158246], [6.1346506, 49.6158568], [6.1353119, 49.6158746], [6.1353218, 49.6159728], [6.1356836, 49.616015], [6.1356812, 49.6160771], [6.1358897, 49.616081], [6.1361425, 49.616054], [6.1362549, 49.6159391], [6.136043, 49.615865], [6.1360478, 49.6157102], [6.1356187, 49.6155866], [6.135567, 49.6155232], [6.1352922, 49.6154092], [6.1351568, 49.6152138], [6.1350127, 49.6151712], [6.1351344, 49.6150114], [6.1355064, 49.6148744], [6.1358656, 49.6147124], [6.1359467, 49.6146581], [6.1359561, 49.6146284], [6.1359635, 49.6145986], [6.1360574, 49.6145513], [6.1361888, 49.6145543], [6.1363792, 49.6146225], [6.1364416, 49.6147176], [6.1363725, 49.6147693], [6.1363424, 49.6147554], [6.136337, 49.6146429], [6.1361298, 49.6146459], [6.1360862, 49.614705], [6.1361969, 49.6147815], [6.136221, 49.6148897]]]}}]}