{"type": "FeatureCollection", "features": [{"type": "Feature", "properties": {"name": "Parc de Gasperich", "kind": "park"}, "geometry": {"type": "Polygon", "coordinates": [[[6.1265261, 49.5872105], [6.1271714, 49.5872389], [6.1277519, 49.5872453], [6.1279647, 49.5872972], [6.1281024, 49.5873485], [6.1282031, 49.5873878], [6.1288252, 49.5875653], [6.1292902, 49.5877209], [6.1293037, 49.5877787], [6.1294855, 49.5878437], [6.1295239, 49.5878583], [6.1296389, 49.5879019], [6.1302332, 49.5882406], [6.1304327, 49.5883779], [6.1305078, 49.5885206], [6.1305819, 49.5885807], [6.1310367, 49.5888347], [6.1309809, 49.5889221], [6.1310426, 49.5890474], [6.1311025, 49.5891654], [6.1311468, 49.5891952], [6.1314337, 49.5889207], [6.1319237, 49.5884573], [6.1319352, 49.5884461], [6.1326093, 49.5877869], [6.1327527, 49.5876786], [6.133451, 49.5871366], [6.1335019, 49.5870987], [6.1336898, 49.5871231], [6.1336398, 49.5870155], [6.1335752, 49.586911], [6.1334677, 49.5867725], [6.1333002, 49.5866025], [6.1331327, 49.5864564], [6.1329529, 49.5862666], [6.1328159, 49.5860439], [6.1327958, 49.5859944], [6.1327864, 49.5859118], [6.1327873, 49.5858301], [6.1325813, 49.5858283], [6.1323703, 49.5856476], [6.1306423, 49.5854555], [6.1306268, 49.5855179], [6.1304847, 49.5861424], [6.1304733, 49.5861795], [6.1304525, 49.5861939], [6.1304385, 49.5861935], [6.1295517, 49.5861017], [6.1292879, 49.5860744], [6.1292197, 49.5860217], [6.1292257, 49.5859954], [6.1292285, 49.5859831], [6.1285409, 49.5859166], [6.1286038, 49.5856704], [6.1285566, 49.5856602], [6.1285606, 49.5856521], [6.1285742, 49.5856079], [6.1282012, 49.5855642], [6.1282026, 49.5855516], [6.1282041, 49.5855459], [6.1282428, 49.5854063], [6.1282514, 49.5853753], [6.1282724, 49.5852996], [6.1282181, 49.5852924], [6.1282417, 49.5851872], [6.1268233, 49.5850309], [6.1267749, 49.5851539], [6.1261834, 49.5857252], [6.1258729, 49.5859528], [6.125667, 49.5860753], [6.1252809, 49.5862917], [6.1252614, 49.5862755], [6.125236, 49.5862545], [6.1251852, 49.5862097], [6.1251307, 49.5861781], [6.1250368, 49.5861452], [6.1250091, 49.5861383], [6.1249447, 49.5861362], [6.1248816, 49.5861423], [6.1248358, 49.5861586], [6.1247358, 49.586204], [6.1246714, 49.5862437], [6.1245679, 49.5863076], [6.1243411, 49.5863064], [6.1239642, 49.5863034], [6.1234236, 49.5862925], [6.1232593, 49.5862891], [6.1229935, 49.5862805], [6.1224354, 49.5862496], [6.1224774, 49.586553], [6.1225662, 49.5864848], [6.1246167, 49.5865478], [6.124702, 49.5864453], [6.1250271, 49.5864349], [6.1251084, 49.5864692], [6.1254093, 49.5864719], [6.1253158, 49.5865431], [6.1251725, 49.5865758], [6.1249249, 49.5866016], [6.124826, 49.5870172], [6.1250269, 49.5870473], [6.1252266, 49.5870775], [6.1255673, 49.5871203], [6.1260467, 49.5871654], [6.1265261, 49.5872105]]]}}]}