{"type": "FeatureCollection", "features": [{"type": "Feature", "properties": {"name": "Park Dräi Eechelen", "kind": "park"}, "geometry": {"type": "Polygon", "coordinates": [[[6.1382548, 49.6149482], [6.1382524, 49.6149447], [6.1382521, 49.614941], [6.1382538, 49.6149374], [6.1382571, 49.6149344], [6.138262, 49.6149323], [6.1380538, 49.6147574], [6.1380251, 49.6147334], [6.1379322, 49.6146557], [6.137824, 49.6146451], [6.1377438, 49.6146372], [6.1376153, 49.6146213], [6.1375506, 49.6146182], [6.1373077, 49.6146449], [6.1371731, 49.6146517], [6.1371137, 49.6146289], [6.1367711, 49.6146482], [6.1362759, 49.6149553], [6.1361427, 49.614957], [6.1360535, 49.6150287], [6.1358763, 49.6151813], [6.1360654, 49.6151158], [6.1360926, 49.6151382], [6.1361673, 49.6151473], [6.1364583, 49.6150456], [6.1366192, 49.6150548], [6.1367512, 49.6151698], [6.1365383, 49.6153235], [6.1364178, 49.6154562], [6.1363774, 49.6155007], [6.1369067, 49.6156562], [6.1369068, 49.6156599], [6.1369089, 49.6156635], [6.1369125, 49.6156661], [6.1369171, 49.6156679], [6.1369224, 49.6156687], [6.1369278, 49.6156683], [6.1369327, 49.6156668], [6.1369366, 49.6156644], [6.1370749, 49.6157091], [6.13777, 49.6159193], [6.1383533, 49.6161409], [6.138529, 49.6162295], [6.1386967, 49.6163573], [6.1388703, 49.6165537], [6.1390246, 49.6167631], [6.1390896, 49.6168426], [6.1391506, 49.6169494], [6.1391667, 49.6170472], [6.1391667, 49.6171332], [6.1390953, 49.617356], [6.1390199, 49.6175911], [6.1396079, 49.6178351], [6.1396705, 49.6178611], [6.139899, 49.6176306], [6.1403067, 49.6176303], [6.1407433, 49.61763], [6.1407362, 49.6177301], [6.1407323, 49.6177777], [6.140764, 49.6177833], [6.1407958, 49.617789], [6.1408101, 49.6177338], [6.1408387, 49.6176497], [6.1409972, 49.6176729], [6.1417395, 49.6177815], [6.141867, 49.6178014], [6.1419609, 49.6175333], [6.1419633, 49.6175264], [6.1414795, 49.6172668], [6.1415618, 49.6171278], [6.1416838, 49.6171292], [6.1421006, 49.6171339], [6.1421739, 49.6169244], [6.1417761, 49.6168579], [6.1417206, 49.6168369], [6.1416773, 49.6168016], [6.1416572, 49.6167581], [6.1416625, 49.6167158], [6.1417004, 49.6166692], [6.1417531, 49.6166417], [6.1417383, 49.6165754], [6.1413682, 49.616601], [6.1412644, 49.6165179], [6.1410751, 49.6163647], [6.1407573, 49.6163329], [6.1407546, 49.6163907], [6.1393847, 49.6160384], [6.1393753, 49.6159663], [6.1394611, 49.6158464], [6.1394276, 49.6157525], [6.1392138, 49.6156807], [6.1391191, 49.6157512], [6.1393195, 49.6158611], [6.1392991, 49.615902], [6.1392094, 49.6158979], [6.1390541, 49.6158007], [6.1389796, 49.6158125], [6.1388247, 49.6156965], [6.1386754, 49.6154448], [6.1385626, 49.6154553], [6.1384045, 49.6152947], [6.1383067, 49.6151969], [6.1382652, 49.615078], [6.1383265, 49.6150576], [6.1382343, 49.6149543], [6.1382548, 49.6149482]]]}}]}