{"type": "FeatureCollection", "features": [{"type": "Feature", "properties": {"name": "Place des Pays-Bas", "kind": "park"}, "geometry": {"type": "Polygon", "coordinates": [[[6.1068587, 49.6127212], [6.1068638, 49.6127006], [6.1068925, 49.6127036], [6.1069327, 49.6127102], [6.1069562, 49.6127271], [6.1069566, 49.6127483], [6.1069314, 49.6127446], [6.1069256, 49.6127667], [6.1069486, 49.6127701], [6.1069424, 49.6127896], [6.1069239, 49.6128114], [6.1068894, 49.6128378], [6.1067748, 49.6128724], [6.106742, 49.6128911], [6.1067248, 49.6128916], [6.106704, 49.6128816], [6.1066974, 49.6128736], [6.1067195, 49.6127108], [6.1067314, 49.612695], [6.1067553, 49.6126901], [6.1067988, 49.6126939], [6.1067953, 49.6127155], [6.1068587, 49.6127212]]]}}]}