{"type": "FeatureCollection", "features": [{"type": "Feature", "properties": {"name": "Rolling et Assel"}, "geometry": {"type": "Polygon", "coordinates": [[[6.2947276, 49.5506265], [6.2947254, 49.550697], [6.294821, 49.550716], [6.294985, 49.55075], [6.295141, 49.550793], [6.2952557, 49.550823], [6.2954082, 49.550884], [6.295557, 49.550953], [6.2957897, 49.551067], [6.2961864, 49.55129], [6.296526, 49.551468], [6.2970257, 49.551716], [6.297262, 49.551838], [6.297518, 49.55199], [6.297632, 49.55206], [6.297655, 49.55207], [6.297678, 49.552086], [6.2977085, 49.552105], [6.297804, 49.552162], [6.2979946, 49.552486], [6.2982388, 49.55288], [6.298395, 49.553135], [6.298517, 49.55333], [6.298586, 49.55341], [6.2986774, 49.5535], [6.298807, 49.553623], [6.2989407, 49.55374], [6.2990475, 49.55382], [6.299124, 49.553875], [6.2993298, 49.554005], [6.2994175, 49.554054], [6.2996044, 49.554146], [6.2998066, 49.55423], [6.3000355, 49.554302], [6.3002224, 49.55435], [6.3004055, 49.55439], [6.3006077, 49.554417], [6.300699, 49.554424], [6.300825, 49.554432], [6.3010273, 49.554443], [6.3012905, 49.55444], [6.3015423, 49.554436], [6.3017673, 49.554424], [6.302061, 49.554394], [6.3025227, 49.55433], [6.302702, 49.5543], [6.3027287, 49.55429], [6.3027782, 49.554283], [6.3028736, 49.554268], [6.3028927, 49.554264], [6.302908, 49.55426], [6.30303, 49.554337], [6.3031673, 49.554417], [6.303278, 49.55448], [6.303198, 49.554493], [6.302706, 49.554577], [6.3023357, 49.55463], [6.301771, 49.55471], [6.301775, 49.55474], [6.30179, 49.554813], [6.3018017, 49.554855], [6.301813, 49.554913], [6.301817, 49.554943], [6.301836, 49.55502], [6.302637, 49.55492], [6.3032894, 49.554806], [6.3038006, 49.554688], [6.3038807, 49.554775], [6.3039455, 49.554848], [6.303999, 49.55491], [6.3040257, 49.554935], [6.304064, 49.554977], [6.3041134, 49.555027], [6.3041744, 49.55509], [6.304205, 49.55512], [6.304228, 49.55515], [6.3042965, 49.555218], [6.304327, 49.55524], [6.304392, 49.5553], [6.304453, 49.55536], [6.304739, 49.555607], [6.304842, 49.555695], [6.304861, 49.55571], [6.3054943, 49.556194], [6.3055706, 49.55625], [6.3056927, 49.556343], [6.305746, 49.556385], [6.3058796, 49.556488], [6.30612, 49.556675], [6.306326, 49.55683], [6.306551, 49.55701], [6.306719, 49.557117], [6.306799, 49.557175], [6.3068905, 49.55724], [6.306822, 49.557297], [6.3068676, 49.55734], [6.306925, 49.55738], [6.3069706, 49.55741], [6.3070164, 49.557446], [6.307062, 49.55748], [6.307104, 49.557518], [6.307207, 49.5576], [6.30731, 49.55767], [6.307417, 49.557747], [6.307646, 49.557903], [6.307783, 49.557987], [6.3078213, 49.558014], [6.307905, 49.55807], [6.307955, 49.5581], [6.3079967, 49.558144], [6.308119, 49.55823], [6.3082256, 49.55831], [6.308317, 49.55838], [6.3084774, 49.5585], [6.308626, 49.55866], [6.3086452, 49.558674], [6.3086834, 49.558712], [6.3087215, 49.558758], [6.3087597, 49.558823], [6.3088017, 49.558887], [6.308836, 49.558945], [6.308916, 49.559055], [6.308977, 49.559135], [6.3090687, 49.55924], [6.309164, 49.55933], [6.3092327, 49.559387], [6.3093853, 49.5595], [6.309458, 49.559555], [6.309511, 49.559597], [6.3095455, 49.559643], [6.309561, 49.55966], [6.309576, 49.55968], [6.309622, 49.559715], [6.309675, 49.55975], [6.309782, 49.559814], [6.310011, 49.55996], [6.3101406, 49.56005], [6.310217, 49.560127], [6.310278, 49.560146], [6.3103237, 49.560196], [6.3103848, 49.5603], [6.3104267, 49.560387], [6.3104687, 49.56045], [6.3104877, 49.56048], [6.3105373, 49.560627], [6.310568, 49.560707], [6.3105793, 49.560856], [6.31056, 49.56096], [6.310526, 49.561035], [6.3104916, 49.56108], [6.310446, 49.561123], [6.3103924, 49.56117], [6.310362, 49.56116], [6.3103466, 49.561153], [6.3102856, 49.56119], [6.3102474, 49.56121], [6.3102093, 49.56125], [6.310171, 49.561268], [6.31011, 49.561314], [6.3100147, 49.56139], [6.3098965, 49.56148], [6.309843, 49.56152], [6.309828, 49.561535], [6.309805, 49.56157], [6.3097363, 49.56168], [6.3097134, 49.561714], [6.3096905, 49.56175], [6.309614, 49.561855], [6.3095837, 49.561905], [6.3095264, 49.562004], [6.3094845, 49.562088], [6.3094947, 49.5621129], [6.3094196, 49.562214], [6.309313, 49.562428], [6.3092327, 49.562607], [6.3091908, 49.562733], [6.3093166, 49.562862], [6.309492, 49.562893], [6.309557, 49.5629], [6.3095684, 49.5629], [6.309637, 49.56292], [6.3096523, 49.562923], [6.309702, 49.562943], [6.309721, 49.562946], [6.3097973, 49.562977], [6.3098164, 49.56298], [6.309923, 49.563023], [6.3099537, 49.563034], [6.309969, 49.563046], [6.3100224, 49.563072], [6.3100376, 49.56308], [6.3100834, 49.563114], [6.309412, 49.563473], [6.308489, 49.564003], [6.308527, 49.56405], [6.308752, 49.564316], [6.3090115, 49.56463], [6.3090305, 49.56465], [6.3093357, 49.564915], [6.3095036, 49.56508], [6.3095493, 49.56512], [6.3096066, 49.56519], [6.3096447, 49.565243], [6.309744, 49.565384], [6.309778, 49.565426], [6.3098507, 49.565536], [6.309862, 49.565556], [6.3098965, 49.565605], [6.309931, 49.56568], [6.3099422, 49.565712], [6.310026, 49.56581], [6.310068, 49.56586], [6.3101025, 49.565895], [6.3101788, 49.565987], [6.310198, 49.566006], [6.3103275, 49.566147], [6.310377, 49.5662], [6.3101444, 49.566387], [6.309889, 49.566578], [6.3097477, 49.56666], [6.3095417, 49.56676], [6.3094196, 49.56681], [6.3091564, 49.56693], [6.309019, 49.566998], [6.308901, 49.567078], [6.3088474, 49.567127], [6.3087254, 49.56723], [6.3085995, 49.56737], [6.3085194, 49.567493], [6.3084965, 49.567535], [6.308489, 49.567547], [6.3084774, 49.567646], [6.3085384, 49.56766], [6.308531, 49.567696], [6.3085194, 49.567703], [6.3085003, 49.56772], [6.3084774, 49.567757], [6.3084354, 49.56784], [6.3083744, 49.567863], [6.308363, 49.5679], [6.308382, 49.567944], [6.3083897, 49.567986], [6.308378, 49.568012], [6.308321, 49.568027], [6.3082676, 49.568043], [6.3082027, 49.568047], [6.3081684, 49.568058], [6.308157, 49.568073], [6.308134, 49.568096], [6.308134, 49.56822], [6.308115, 49.568237], [6.3080654, 49.56825], [6.3080616, 49.568295], [6.308069, 49.568344], [6.308054, 49.568436], [6.3080387, 49.568485], [6.3079815, 49.568607], [6.30797, 49.568687], [6.3079166, 49.5688], [6.307909, 49.568855], [6.307955, 49.56897], [6.307966, 49.569016], [6.3079395, 49.569065], [6.307928, 49.56912], [6.3079014, 49.56916], [6.3079014, 49.569187], [6.307909, 49.569263], [6.30789, 49.569317], [6.307867, 49.569332], [6.307787, 49.569363], [6.3077755, 49.56939], [6.3077984, 49.56941], [6.307947, 49.569508], [6.308016, 49.569588], [6.308031, 49.569607], [6.308157, 49.569805], [6.308176, 49.569843], [6.3082714, 49.57002], [6.308298, 49.570194], [6.308302, 49.57021], [6.308325, 49.57037], [6.3083477, 49.570637], [6.3083515, 49.570705], [6.308321, 49.5709], [6.308302, 49.571037], [6.308363, 49.571095], [6.3085117, 49.571243], [6.308626, 49.571346], [6.308771, 49.571472], [6.308813, 49.57151], [6.3087864, 49.571533], [6.3087254, 49.571556], [6.308695, 49.571587], [6.308687, 49.57162], [6.3086796, 49.57173], [6.308672, 49.571747], [6.3086567, 49.571774], [6.308584, 49.571857], [6.3085194, 49.571922], [6.3085003, 49.571957], [6.308504, 49.57204], [6.308489, 49.572094], [6.3084507, 49.572117], [6.30842, 49.572124], [6.3083897, 49.572147], [6.308363, 49.572212], [6.3083363, 49.572258], [6.308264, 49.57232], [6.308218, 49.572407], [6.308073, 49.572647], [6.3080006, 49.57276], [6.3079624, 49.572823], [6.307947, 49.572853], [6.307913, 49.57291], [6.307623, 49.573383], [6.30781, 49.573368], [6.307802, 49.573395], [6.3077717, 49.573463], [6.307726, 49.57357], [6.307829, 49.573925], [6.307886, 49.574116], [6.307955, 49.57424], [6.308073, 49.5744], [6.3081074, 49.574448], [6.3082066, 49.57455], [6.308405, 49.574715], [6.3085117, 49.574783], [6.3086567, 49.574852], [6.3087444, 49.574898], [6.3088207, 49.57501], [6.3089466, 49.575237], [6.309, 49.57537], [6.309023, 49.575424], [6.3088856, 49.575405], [6.3088703, 49.57566], [6.3088474, 49.57584], [6.3088055, 49.576042], [6.3087826, 49.57611], [6.3087635, 49.576164], [6.308729, 49.57621], [6.3086567, 49.576294], [6.308588, 49.576366], [6.3085346, 49.576443], [6.308504, 49.57651], [6.3084736, 49.5766], [6.308424, 49.576687], [6.3084087, 49.576748], [6.3084316, 49.576805], [6.3085003, 49.57688], [6.30871, 49.577106], [6.308855, 49.577293], [6.3088665, 49.57731], [6.3090305, 49.57745], [6.3092136, 49.577602], [6.3093166, 49.577667], [6.309351, 49.57769], [6.309576, 49.577824], [6.309702, 49.5779], [6.3097973, 49.577953], [6.309866, 49.577995], [6.309973, 49.57804], [6.3100567, 49.578102], [6.3102055, 49.578278], [6.3104496, 49.57852], [6.3107243, 49.578785], [6.310915, 49.578964], [6.3110485, 49.57913], [6.311098, 49.579185], [6.3112736, 49.579422], [6.311331, 49.579494], [6.311449, 49.579636], [6.311491, 49.579674], [6.311556, 49.57974], [6.311693, 49.57984], [6.3118, 49.579914], [6.3119755, 49.58003], [6.312128, 49.580143], [6.312151, 49.580162], [6.3121853, 49.580193], [6.312273, 49.580276], [6.31238, 49.580414], [6.3124943, 49.580563], [6.312605, 49.580727], [6.3125134, 49.580967], [6.3124523, 49.581142], [6.312422, 49.581226], [6.3122739, 49.5816218], [6.312266, 49.5816431], [6.312255, 49.5816613], [6.3125494, 49.5816391], [6.3127931, 49.5815963], [6.3130239, 49.5815308], [6.3135265, 49.5813799], [6.3145445, 49.5820888], [6.315151, 49.5825071], [6.3157116, 49.5828464], [6.3157227, 49.5828266], [6.3155799, 49.5826424], [6.3153977, 49.582262], [6.3152577, 49.5819476], [6.3150582, 49.581616], [6.3149844, 49.5814222], [6.3149617, 49.5813579], [6.3149819, 49.5813167], [6.3152663, 49.5806567], [6.315279, 49.5806197], [6.3155588, 49.5804775], [6.3166584, 49.5799032], [6.3168124, 49.5798335], [6.316946, 49.5798059], [6.3174405, 49.5797036], [6.3177976, 49.5796273], [6.3178921, 49.5796036], [6.3179609, 49.5795863], [6.3182972, 49.5794978], [6.3185902, 49.5794206], [6.3187759, 49.5793739], [6.3189521, 49.5793434], [6.3189823, 49.5793192], [6.3201601, 49.5787158], [6.320782, 49.5783971], [6.3208197, 49.5783778], [6.3211788, 49.5781938], [6.3212782, 49.5781428], [6.3212409, 49.5778394], [6.3212105, 49.5775924], [6.3211823, 49.5775672], [6.3210381, 49.577438], [6.3208944, 49.5773093], [6.3208447, 49.5772648], [6.3207303, 49.5771591], [6.3205572, 49.5769994], [6.3203736, 49.5768299], [6.3203416, 49.5768003], [6.3201721, 49.5766438], [6.3200185, 49.576502], [6.3199733, 49.5764603], [6.3198398, 49.576336], [6.3196652, 49.5761734], [6.3194972, 49.5760169], [6.3194393, 49.575963], [6.3194572, 49.5758578], [6.319461, 49.5757974], [6.3194548, 49.5757488], [6.3194687, 49.5757026], [6.3194946, 49.5756634], [6.3195146, 49.5756326], [6.3195105, 49.575603], [6.3195004, 49.5755817], [6.3195143, 49.5755556], [6.3195383, 49.5755437], [6.3195463, 49.5755283], [6.3195382, 49.5754911], [6.3195401, 49.5754721], [6.3195601, 49.5754555], [6.3196041, 49.5754329], [6.3196281, 49.5754186], [6.3196421, 49.5753949], [6.319652, 49.5753558], [6.3196699, 49.5753392], [6.319696, 49.5753285], [6.3197059, 49.5753048], [6.3197118, 49.5752823], [6.3197318, 49.575268], [6.3197518, 49.575249], [6.3197497, 49.5752218], [6.3197316, 49.5751815], [6.3197455, 49.5751507], [6.3197754, 49.5751174], [6.3197774, 49.575089], [6.3197693, 49.5750594], [6.3197451, 49.5750298], [6.319741, 49.5749985], [6.3197509, 49.5749713], [6.3197549, 49.5749523], [6.3197468, 49.5749274], [6.3197387, 49.5749002], [6.3197386, 49.5748753], [6.3197384, 49.5748101], [6.3197041, 49.5747438], [6.3196719, 49.5746929], [6.3196297, 49.5746479], [6.3195594, 49.5745816], [6.3195332, 49.5745568], [6.3195211, 49.5745189], [6.319533, 49.5744916], [6.3195431, 49.5744757], [6.319539, 49.5744627], [6.3194969, 49.5744462], [6.3194848, 49.5744355], [6.3194887, 49.5743964], [6.3194987, 49.5743751], [6.3195486, 49.5743323], [6.3195786, 49.5743086], [6.3195826, 49.574292], [6.3195725, 49.5742671], [6.3195444, 49.5742494], [6.3195103, 49.5742364], [6.3194461, 49.5742365], [6.3194181, 49.5742294], [6.319392, 49.5742081], [6.3193738, 49.5741702], [6.3193677, 49.5741311], [6.3193435, 49.5741051], [6.3193275, 49.5740873], [6.3193414, 49.5740529], [6.3193593, 49.5740209], [6.3193572, 49.5739972], [6.3193411, 49.5739795], [6.3193211, 49.5739653], [6.319313, 49.5739534], [6.3193009, 49.5739333], [6.3192869, 49.5739179], [6.3192608, 49.5739108], [6.3192527, 49.5738919], [6.3192667, 49.5738658], [6.3192827, 49.5738563], [6.3193207, 49.5738622], [6.3193408, 49.573861], [6.3193487, 49.5738455], [6.3193246, 49.5738243], [6.3192785, 49.5737947], [6.3192704, 49.5737674], [6.3192463, 49.5737067], [6.3192241, 49.5736664], [6.319226, 49.5736392], [6.31924, 49.5736166], [6.319256, 49.5736095], [6.319292, 49.5736071], [6.3193101, 49.5736023], [6.31934, 49.5735715], [6.3193479, 49.5735335], [6.3193458, 49.5735051], [6.3193658, 49.5734719], [6.3193837, 49.5734411], [6.3193575, 49.5733925], [6.3193473, 49.5733475], [6.3193472, 49.5733119], [6.3193851, 49.573255], [6.3193991, 49.5732265], [6.3193809, 49.5731898], [6.3193367, 49.5731591], [6.3192906, 49.5731283], [6.3192784, 49.5730798], [6.3193083, 49.5730366], [6.3193202, 49.5730105], [6.3193262, 49.5729891], [6.3193462, 49.5729713], [6.3193662, 49.5729666], [6.3193882, 49.572963], [6.3194042, 49.5729523], [6.3194082, 49.5729333], [6.3194181, 49.5729108], [6.3194241, 49.5728978], [6.3194601, 49.5728728], [6.31948, 49.5728562], [6.31949, 49.5728313], [6.3195139, 49.572785], [6.3195478, 49.572753], [6.3195758, 49.5727305], [6.3195898, 49.5727138], [6.3195918, 49.5726949], [6.3195757, 49.5726783], [6.3195476, 49.5726689], [6.3195215, 49.5726571], [6.3195114, 49.5726405], [6.3195334, 49.5726084], [6.3195534, 49.5725966], [6.3195914, 49.5725835], [6.3196194, 49.5725704], [6.319639, 49.5725544], [6.3196569, 49.5725306], [6.3196729, 49.5725235], [6.319699, 49.5725235], [6.319727, 49.5725258], [6.3197611, 49.572527], [6.3197831, 49.5725163], [6.319781, 49.5724973], [6.319775, 49.5724855], [6.319783, 49.5724724], [6.319797, 49.5724677], [6.319811, 49.5724617], [6.3198109, 49.5724416], [6.3197688, 49.5724238], [6.3197487, 49.5724037], [6.3197586, 49.5723658], [6.3197745, 49.5723326], [6.3197684, 49.572303], [6.3197363, 49.5722805], [6.3197462, 49.5722437], [6.3197682, 49.5722248], [6.3198002, 49.5722223], [6.3198142, 49.572214], [6.3198262, 49.572195], [6.3198361, 49.5721784], [6.3198621, 49.5721618], [6.3198681, 49.5721428], [6.3198781, 49.5721251], [6.3198961, 49.572125], [6.3199121, 49.5721333], [6.3199302, 49.5721333], [6.3199421, 49.5721167], [6.3199381, 49.5721013], [6.3199281, 49.5720966], [6.319904, 49.5720966], [6.319884, 49.5720931], [6.3198819, 49.5720848], [6.3198838, 49.5720745], [6.3198958, 49.5720674], [6.3199158, 49.5720674], [6.3199218, 49.5720626], [6.3199198, 49.5720555], [6.3199237, 49.5720472], [6.3199378, 49.5720448], [6.3199538, 49.5720507], [6.3199678, 49.572046], [6.3199778, 49.5720341], [6.3199757, 49.5720211], [6.3199637, 49.5720021], [6.3199396, 49.5719796], [6.3199335, 49.5719583], [6.3199474, 49.5719251], [6.3199654, 49.5719014], [6.3199934, 49.5718824], [6.3200073, 49.5718551], [6.3200072, 49.5718385], [6.3200332, 49.5718195], [6.3200412, 49.5717994], [6.3200652, 49.5717887], [6.3200832, 49.5717839], [6.3201012, 49.5717839], [6.3201233, 49.5717969], [6.3201454, 49.571804], [6.3201634, 49.5717957], [6.3201653, 49.5717791], [6.3201553, 49.5717601], [6.3201152, 49.5717566], [6.3201111, 49.5717471], [6.3201111, 49.5717282], [6.320091, 49.5717152], [6.3200738, 49.5716999], [6.3200753, 49.5716853], [6.3200969, 49.5716816], [6.3201155, 49.5716871], [6.3201356, 49.5716989], [6.3201649, 49.5716971], [6.3201927, 49.571676], [6.3202388, 49.5716166], [6.3202388, 49.5715983], [6.3202155, 49.5715792], [6.3202232, 49.5715536], [6.3202247, 49.5715399], [6.3202092, 49.571529], [6.3201752, 49.5715263], [6.3201304, 49.5715254], [6.320118, 49.5715199], [6.3201211, 49.5715081], [6.320138, 49.5714962], [6.3201596, 49.5714907], [6.3201828, 49.571487], [6.3201704, 49.5714633], [6.3201796, 49.5714468], [6.3202444, 49.5714303], [6.3202675, 49.5714156], [6.3202644, 49.5713855], [6.3202721, 49.5713709], [6.3203168, 49.5713617], [6.3203167, 49.5713361], [6.3202888, 49.5713078], [6.3202996, 49.5712822], [6.320267, 49.5712375], [6.3202607, 49.5711955], [6.3202776, 49.571169], [6.3203023, 49.571158], [6.3203487, 49.5711662], [6.3203749, 49.571157], [6.320381, 49.5711351], [6.3203454, 49.5711123], [6.3203376, 49.5710977], [6.3203653, 49.5710729], [6.3204346, 49.571028], [6.3204484, 49.5709905], [6.3204685, 49.5709814], [6.3204917, 49.570985], [6.3205086, 49.5709722], [6.3205039, 49.5709512], [6.3204745, 49.5709247], [6.3204636, 49.5709065], [6.3204974, 49.5708333], [6.3205049, 49.5707776], [6.3205279, 49.5707282], [6.3205062, 49.5706871], [6.3205246, 49.5706633], [6.3205555, 49.5706615], [6.3205648, 49.5706477], [6.3205708, 49.5706269], [6.3206958, 49.5695882], [6.3198318, 49.5684412], [6.3195722, 49.5681061], [6.3194585, 49.5679882], [6.3192299, 49.5677513], [6.3191263, 49.567644], [6.3191004, 49.5676171], [6.3191245, 49.5675307], [6.3191848, 49.5673148], [6.3190509, 49.5672172], [6.3188522, 49.5670677], [6.3186849, 49.5669136], [6.3185373, 49.5667492], [6.3182931, 49.5664214], [6.3182064, 49.5662881], [6.3180583, 49.5659542], [6.3179438, 49.5657549], [6.3179401, 49.5657484], [6.3178868, 49.5656649], [6.317869, 49.5656057], [6.3178707, 49.565536], [6.3178765, 49.565483], [6.3178817, 49.5654622], [6.3179107, 49.5654259], [6.318047, 49.56531], [6.3180357, 49.5653069], [6.3179656, 49.5652929], [6.3178977, 49.5652794], [6.3178282, 49.5652655], [6.31774, 49.5652479], [6.3175813, 49.5652162], [6.317524, 49.5652048], [6.3176804, 49.5649816], [6.3178519, 49.5647328], [6.3179237, 49.564619], [6.3180346, 49.5644284], [6.3181997, 49.5641564], [6.3181058, 49.5641498], [6.3181182, 49.5641174], [6.3182412, 49.5637965], [6.3183792, 49.5633752], [6.3184419, 49.563178], [6.3184763, 49.5630419], [6.3184962, 49.562963], [6.3183781, 49.5629477], [6.3182801, 49.562935], [6.3182052, 49.5629252], [6.3180236, 49.5629016], [6.3179865, 49.5628968], [6.3179144, 49.5628847], [6.3179169, 49.5628518], [6.3179417, 49.5625266], [6.3179666, 49.5621222], [6.3179662, 49.5619751], [6.3179549, 49.5618406], [6.3179016, 49.561562], [6.3177957, 49.5611825], [6.3177544, 49.561049], [6.3177415, 49.5610082], [6.3179769, 49.5609717], [6.3181053, 49.5609517], [6.3180933, 49.5609176], [6.3179481, 49.56094], [6.3177311, 49.5609735], [6.3173805, 49.5610277], [6.3173148, 49.5609955], [6.3173059, 49.5609707], [6.3172757, 49.5608863], [6.3172421, 49.5607926], [6.3174365, 49.5607652], [6.3174254, 49.560729], [6.3174113, 49.560664], [6.3173858, 49.5605471], [6.3172865, 49.5602473], [6.3174193, 49.5602368], [6.3176885, 49.5602155], [6.317565, 49.5598639], [6.3175211, 49.5597748], [6.317453, 49.5596611], [6.3173828, 49.5595681], [6.3172995, 49.5594765], [6.3171723, 49.5593435], [6.3172073, 49.5593191], [6.3172466, 49.5592792], [6.3172546, 49.5592708], [6.3172728, 49.5592519], [6.3172834, 49.5592376], [6.3172965, 49.5592198], [6.3173032, 49.559204], [6.3173414, 49.5591128], [6.3173479, 49.5591006], [6.3173569, 49.5590837], [6.3174045, 49.5590626], [6.3175197, 49.5590114], [6.3177016, 49.5589306], [6.3177441, 49.5589118], [6.3178217, 49.5588773], [6.3179512, 49.5588198], [6.3178087, 49.558657], [6.3178118, 49.5586206], [6.3179, 49.5585627], [6.3180014, 49.5584961], [6.3180704, 49.5584508], [6.3181368, 49.5584072], [6.3181132, 49.5583784], [6.3182066, 49.5583068], [6.3182818, 49.5582492], [6.3185067, 49.5580768], [6.3186033, 49.5579689], [6.3186351, 49.557921], [6.3187463, 49.5577532], [6.3187961, 49.5576325], [6.3193416, 49.5573427], [6.3192541, 49.5572808], [6.3191885, 49.5570249], [6.3191632, 49.5570245], [6.3191495, 49.5569534], [6.319127, 49.5569077], [6.3190717, 49.5568569], [6.318974, 49.5567862], [6.3189093, 49.556725], [6.3188007, 49.5565986], [6.3187524, 49.5565219], [6.3187231, 49.5564699], [6.3186825, 49.5563434], [6.3186451, 49.5562031], [6.3186206, 49.5560895], [6.318602, 49.5560159], [6.3185755, 49.5559618], [6.3185888, 49.5559575], [6.318707, 49.5559198], [6.3188632, 49.5558678], [6.3187885, 49.5558149], [6.3187357, 49.5557698], [6.318615, 49.5556651], [6.3185462, 49.5555997], [6.3184795, 49.5555365], [6.3184246, 49.5554813], [6.3183739, 49.5554197], [6.3183114, 49.5553387], [6.318298, 49.5553179], [6.318252, 49.5552466], [6.3182174, 49.5551774], [6.3181678, 49.5550502], [6.3181384, 49.5549726], [6.3184182, 49.5548869], [6.3185295, 49.5548559], [6.3185413, 49.5548526], [6.3185584, 49.5548497], [6.3187689, 49.5548148], [6.3187943, 49.5548097], [6.3188654, 49.5547955], [6.3188787, 49.5547928], [6.3189233, 49.5547812], [6.3189934, 49.5547585], [6.3190408, 49.5547433], [6.3190747, 49.5547324], [6.3191142, 49.5547196], [6.3191852, 49.5546967], [6.3191797, 49.5546932], [6.3190901, 49.5545522], [6.318982, 49.5543683], [6.3185827, 49.5541627], [6.3182739, 49.5540143], [6.3182831, 49.5539605], [6.3182938, 49.5538976], [6.3187449, 49.5540364], [6.3187542, 49.5540321], [6.31885, 49.5539871], [6.3189013, 49.553963], [6.3189383, 49.5539456], [6.3190149, 49.5539097], [6.3190477, 49.5538943], [6.319085, 49.5538768], [6.3191017, 49.5538649], [6.3191331, 49.5538426], [6.3191642, 49.5538202], [6.3192023, 49.5537928], [6.3192295, 49.5537732], [6.3192466, 49.5537592], [6.3192954, 49.5537192], [6.3193816, 49.5536486], [6.319418, 49.5536162], [6.3194749, 49.5535654], [6.3194993, 49.5535437], [6.3195389, 49.5535084], [6.319553, 49.5534958], [6.3195872, 49.5534583], [6.3195646, 49.5534444], [6.3195656, 49.5533883], [6.3195674, 49.553372], [6.3195738, 49.5533037], [6.3208565, 49.5534757], [6.3208813, 49.5534282], [6.3209043, 49.553394], [6.3209357, 49.5533455], [6.3210083, 49.5532206], [6.3212331, 49.5528919], [6.3213016, 49.55279], [6.3213555, 49.5527144], [6.3213641, 49.5526973], [6.3213816, 49.5527016], [6.3213887, 49.5526897], [6.3213842, 49.5526825], [6.3211392, 49.5526258], [6.3213337, 49.5523235], [6.3213764, 49.5523292], [6.3214251, 49.5523267], [6.3214872, 49.5523131], [6.321572, 49.5522799], [6.3216385, 49.5522488], [6.3216817, 49.5522237], [6.3217081, 49.5522123], [6.3217429, 49.5522077], [6.3217768, 49.5522119], [6.3218374, 49.5522171], [6.3218873, 49.5522117], [6.3219638, 49.5521853], [6.3220884, 49.5521284], [6.3221278, 49.5521627], [6.3223174, 49.5521062], [6.3223802, 49.5521165], [6.3224626, 49.552145], [6.3227406, 49.5522989], [6.3227618, 49.5523113], [6.3227782, 49.5523301], [6.3227811, 49.5523531], [6.3227756, 49.5523905], [6.3227803, 49.5524107], [6.3228038, 49.5524223], [6.3228328, 49.55242], [6.3228922, 49.5523997], [6.3229302, 49.552403], [6.3230103, 49.5524212], [6.3230482, 49.5524236], [6.3230754, 49.5524183], [6.3231675, 49.5523686], [6.3232202, 49.5523576], [6.3232445, 49.5523448], [6.3232907, 49.5523087], [6.3233165, 49.5523017], [6.3233418, 49.5523045], [6.3233928, 49.5523199], [6.3236134, 49.5523991], [6.323627, 49.5524176], [6.3236372, 49.5524063], [6.3237159, 49.5523229], [6.3238223, 49.5522097], [6.3239347, 49.552224], [6.3239663, 49.5522258], [6.3236836, 49.551969], [6.3230936, 49.5514039], [6.3230487, 49.5513585], [6.3231451, 49.551328], [6.3232119, 49.5512712], [6.323253, 49.5512363], [6.3233008, 49.5511957], [6.3233508, 49.5511532], [6.3233955, 49.5511152], [6.3234343, 49.5510822], [6.3235529, 49.5509815], [6.3236461, 49.5509022], [6.3236794, 49.550874], [6.3235736, 49.5507919], [6.3235021, 49.5507364], [6.3233457, 49.5506151], [6.3231983, 49.5505081], [6.3228614, 49.5502775], [6.3226956, 49.550172], [6.3225419, 49.5500833], [6.3223484, 49.5499822], [6.321661, 49.5496869], [6.3211209, 49.5494544], [6.3204169, 49.5491568], [6.3203572, 49.5491552], [6.3201698, 49.5490178], [6.3193557, 49.5485225], [6.3191107, 49.5483865], [6.3188881, 49.548263], [6.3184757, 49.5480517], [6.3176396, 49.5476851], [6.3172261, 49.5475069], [6.3164449, 49.5471489], [6.3162393, 49.5470675], [6.3157761, 49.5469319], [6.3155224, 49.5468414], [6.3150904, 49.546632], [6.3145294, 49.5463454], [6.3140802, 49.5460794], [6.3137043, 49.5458431], [6.3128893, 49.5454041], [6.3118497, 49.5448617], [6.3113185, 49.5445688], [6.3105501, 49.5441121], [6.3099049, 49.543346], [6.3091024, 49.5438619], [6.3088649, 49.544015], [6.3083052, 49.5443136], [6.3078491, 49.5445415], [6.307678, 49.5446031], [6.3075084, 49.5446208], [6.3071035, 49.5446121], [6.3067142, 49.5445972], [6.3064754, 49.5446159], [6.3061644, 49.544733], [6.3056357, 49.545004], [6.3051071, 49.5452934], [6.3046562, 49.5455581], [6.3037383, 49.5458448], [6.3037124, 49.5458855], [6.3040555, 49.5461097], [6.3039683, 49.5462158], [6.303901, 49.5462978], [6.3038512, 49.5463585], [6.3037479, 49.5464842], [6.3037098, 49.5465306], [6.3036407, 49.5466147], [6.3036199, 49.54664], [6.3027585, 49.5464079], [6.3025353, 49.5466958], [6.3024603, 49.5467875], [6.3023995, 49.5468552], [6.3023348, 49.5469273], [6.3023289, 49.5469339], [6.3022628, 49.5470074], [6.3021168, 49.5471701], [6.3019685, 49.5473182], [6.301842, 49.5474445], [6.3017253, 49.5475612], [6.3016097, 49.5476741], [6.3015305, 49.5477514], [6.3014429, 49.547835], [6.3013355, 49.5479375], [6.3012033, 49.5480443], [6.3011159, 49.5481061], [6.3010148, 49.5481688], [6.300959, 49.5482035], [6.3007911, 49.5483077], [6.300601, 49.5482296], [6.3004946, 49.5481887], [6.3004206, 49.5481742], [6.2994089, 49.5481234], [6.2991512, 49.5482456], [6.2984731, 49.5485671], [6.2977219, 49.548911], [6.297498, 49.5490488], [6.2973073, 49.5491661], [6.2969969, 49.5493568], [6.2967739, 49.5494938], [6.2964888, 49.5496594], [6.2961181, 49.5498748], [6.2959502, 49.5499635], [6.2954864, 49.5502086], [6.2947276, 49.5506265]]]}}]}