{"type": "FeatureCollection", "features": [{"type": "Feature", "properties": {"name": "Lannen"}, "geometry": {"type": "Polygon", "coordinates": [[[5.8500366, 49.7781626], [5.8499085, 49.7782114], [5.8498266, 49.778234], [5.8497001, 49.7782657], [5.8495438, 49.7782996], [5.8493596, 49.7783402], [5.8492219, 49.7783776], [5.848911, 49.7784734], [5.8487768, 49.7785348], [5.8486072, 49.7786143], [5.8484227, 49.7787065], [5.8482548, 49.7788009], [5.8480738, 49.7789199], [5.8477829, 49.7790872], [5.8476338, 49.779164], [5.8473654, 49.7792971], [5.8466387, 49.7796147], [5.8463872, 49.7797169], [5.846227, 49.7797702], [5.8460632, 49.7798201], [5.8453708, 49.7800108], [5.8447248, 49.7801943], [5.8442986, 49.780316], [5.8435931, 49.7805125], [5.8430905, 49.7806529], [5.8428875, 49.7807141], [5.8426676, 49.7808244], [5.8425556, 49.7808927], [5.8425278, 49.7808835], [5.8410907, 49.7805346], [5.8409454, 49.7808704], [5.8405558, 49.7807784], [5.8402961, 49.7807147], [5.8399307, 49.7806291], [5.8393092, 49.7804878], [5.8394377, 49.7801691], [5.8392132, 49.7801182], [5.839176, 49.7801083], [5.8389675, 49.7804502], [5.8388639, 49.7806569], [5.838779, 49.7808505], [5.8386564, 49.781116], [5.8385622, 49.7813182], [5.8385094, 49.7814273], [5.8384643, 49.781506], [5.8384099, 49.7815768], [5.8382338, 49.7817907], [5.8380708, 49.7819904], [5.8379584, 49.7821347], [5.8377616, 49.7823834], [5.8377091, 49.7824553], [5.8376473, 49.7825232], [5.8375893, 49.7825825], [5.8375239, 49.7826406], [5.8374155, 49.782725], [5.8373744, 49.7827649], [5.8372975, 49.7828727], [5.837228, 49.7829789], [5.8371527, 49.7831182], [5.8371057, 49.7832084], [5.8370546, 49.7833334], [5.836977, 49.7835528], [5.8368783, 49.7838504], [5.8368291, 49.7839892], [5.8367727, 49.7840874], [5.8367033, 49.7841798], [5.8366229, 49.7842585], [5.8364711, 49.7843628], [5.8362937, 49.784462], [5.8362935, 49.7844826], [5.8363027, 49.7845543], [5.8361544, 49.784549], [5.836064, 49.7845444], [5.835549, 49.7845454], [5.8349958, 49.7845416], [5.8344501, 49.7845342], [5.8341107, 49.7845292], [5.8338201, 49.7845226], [5.833325, 49.78452], [5.8329892, 49.7845277], [5.8324132, 49.7845601], [5.8321712, 49.7845755], [5.8315443, 49.7846441], [5.8305794, 49.7847804], [5.8298783, 49.7850063], [5.8298679, 49.785014], [5.8299588, 49.7850452], [5.8301071, 49.7850936], [5.830298, 49.7851594], [5.830411, 49.7852123], [5.8305591, 49.7852882], [5.8306905, 49.7853629], [5.8308109, 49.7854296], [5.830658, 49.7854915], [5.8304828, 49.7855699], [5.8303092, 49.785686], [5.8301336, 49.7858262], [5.8298831, 49.7860364], [5.8296905, 49.7862131], [5.8295428, 49.7863425], [5.8295537, 49.7863722], [5.8294427, 49.7865726], [5.8296672, 49.7866167], [5.8296132, 49.786907], [5.8295446, 49.7871521], [5.829501, 49.7872812], [5.8294988, 49.7873167], [5.8295048, 49.7873389], [5.8295097, 49.7873573], [5.8295436, 49.7875689], [5.8295649, 49.7877057], [5.829422, 49.7878686], [5.8293888, 49.7879064], [5.8294402, 49.7879826], [5.8294616, 49.7880296], [5.8294787, 49.7880673], [5.8295005, 49.7881337], [5.8295073, 49.788223], [5.829516, 49.7883053], [5.8295341, 49.788378], [5.8295888, 49.7885348], [5.829653, 49.7886597], [5.8296695, 49.7886917], [5.8297395, 49.7887783], [5.8297643, 49.7888039], [5.8298428, 49.7888849], [5.8299333, 49.7889698], [5.8301674, 49.7889739], [5.8304219, 49.7889792], [5.8306412, 49.7889764], [5.830509, 49.7890258], [5.8303432, 49.7890768], [5.8301961, 49.7891152], [5.830197, 49.7892605], [5.8302038, 49.7893428], [5.8302219, 49.7894246], [5.8302418, 49.7895002], [5.8302799, 49.7896307], [5.8303122, 49.7898006], [5.8303245, 49.789899], [5.8303294, 49.7900019], [5.8303333, 49.7902289], [5.8303268, 49.7903741], [5.8303276, 49.7905211], [5.8303335, 49.7906572], [5.830334, 49.7906686], [5.8305634, 49.7906397], [5.8308846, 49.7905993], [5.8309509, 49.7909488], [5.8306924, 49.7909813], [5.8307364, 49.7911721], [5.8307537, 49.7912496], [5.8308864, 49.791642], [5.8309388, 49.7917972], [5.8309795, 49.7919175], [5.831026, 49.7919699], [5.8311736, 49.7921365], [5.8312026, 49.7921692], [5.8313301, 49.7923163], [5.8314563, 49.7924607], [5.8314701, 49.7924778], [5.8316058, 49.7926344], [5.8316862, 49.7927223], [5.8313517, 49.7928882], [5.8311818, 49.7929677], [5.8306352, 49.7932049], [5.8298289, 49.7935528], [5.8299534, 49.7935971], [5.8301348, 49.7936983], [5.8299401, 49.793895], [5.8298278, 49.7940079], [5.8297828, 49.7940649], [5.8297669, 49.7940907], [5.8297396, 49.7941351], [5.8297282, 49.7941683], [5.8297224, 49.7942083], [5.8297198, 49.7942567], [5.8297181, 49.7942906], [5.8297212, 49.7944064], [5.829724, 49.7945085], [5.829719, 49.7946333], [5.829715, 49.7947326], [5.8297129, 49.7947657], [5.8297043, 49.7947928], [5.8296901, 49.7948371], [5.8295831, 49.7949935], [5.8293807, 49.7952348], [5.8292758, 49.7953545], [5.8291581, 49.7954434], [5.8289619, 49.7955823], [5.8288039, 49.7956812], [5.8284512, 49.7958798], [5.8284251, 49.7958928], [5.8284152, 49.795982], [5.8283866, 49.7960854], [5.8283466, 49.7962179], [5.8283012, 49.7963367], [5.8282013, 49.7965326], [5.8280319, 49.7968374], [5.8280466, 49.796862], [5.8280353, 49.7968837], [5.8279848, 49.7969293], [5.8279174, 49.7969874], [5.8278725, 49.7970273], [5.8278575, 49.7970559], [5.8278253, 49.7971456], [5.8277968, 49.7972209], [5.8277459, 49.797326], [5.8277065, 49.7973899], [5.8276859, 49.7974116], [5.8276446, 49.7974584], [5.8276183, 49.7975086], [5.8275956, 49.7975617], [5.8275786, 49.7975971], [5.8275635, 49.7976348], [5.8275277, 49.7976999], [5.8275201, 49.7977319], [5.8274991, 49.7978084], [5.8274764, 49.7978644], [5.8274143, 49.7979631], [5.8273619, 49.7980247], [5.8273393, 49.7980636], [5.8273204, 49.7981138], [5.8273089, 49.7981549], [5.8272938, 49.7981858], [5.8272299, 49.7982937], [5.8271927, 49.7983531], [5.8271772, 49.7983816], [5.8271752, 49.7983987], [5.8271788, 49.7984204], [5.8271879, 49.7984548], [5.8271877, 49.7984788], [5.8271764, 49.7985016], [5.8271557, 49.7985359], [5.8271294, 49.7985792], [5.8271123, 49.7986301], [5.8271269, 49.7986724], [5.8271396, 49.7987102], [5.8271412, 49.7987491], [5.8271353, 49.7987937], [5.827124, 49.7988211], [5.8271089, 49.7988485], [5.8271032, 49.7988645], [5.8271104, 49.7988977], [5.8271269, 49.7990201], [5.8271389, 49.7990813], [5.8271442, 49.7991191], [5.8271421, 49.7991556], [5.8271456, 49.7991785], [5.8271585, 49.7991957], [5.8271844, 49.7992175], [5.8272121, 49.7992393], [5.8272361, 49.7992623], [5.8272784, 49.7993299], [5.8273693, 49.7993604], [5.8274156, 49.7993869], [5.8274358, 49.7994109], [5.8274597, 49.799451], [5.8274688, 49.7994831], [5.8274909, 49.7995106], [5.8275464, 49.7995508], [5.8275611, 49.7995646], [5.8275814, 49.7995898], [5.8276332, 49.7996254], [5.8276607, 49.7996769], [5.8276754, 49.799701], [5.8277272, 49.7997417], [5.8277362, 49.7997795], [5.8277602, 49.799807], [5.8277824, 49.7998185], [5.8278455, 49.7998404], [5.8278732, 49.7998656], [5.8278673, 49.7999045], [5.827854, 49.7999514], [5.8278576, 49.7999697], [5.8278778, 49.7999949], [5.8279314, 49.8000419], [5.827957, 49.8000998], [5.8279657, 49.8001958], [5.827984, 49.8002348], [5.8280221, 49.8002775], [5.8280763, 49.8003174], [5.8280743, 49.8003391], [5.8280798, 49.8003563], [5.8281186, 49.8003907], [5.8281369, 49.8004228], [5.8281312, 49.8004456], [5.8280994, 49.8004667], [5.8280763, 49.8005038], [5.8280786, 49.8005272], [5.8281174, 49.8005514], [5.8282636, 49.8006433], [5.8283301, 49.8007041], [5.82843, 49.8007764], [5.828641, 49.8009085], [5.8287039, 49.8009476], [5.8289057, 49.8010312], [5.8289643, 49.8009559], [5.8294122, 49.8011434], [5.8297685, 49.8013362], [5.8301064, 49.8015252], [5.8303407, 49.8016716], [5.830666, 49.8019056], [5.8309048, 49.8018335], [5.8311958, 49.8017455], [5.8314641, 49.8022868], [5.8314749, 49.8023417], [5.8314554, 49.8024135], [5.8314343, 49.8024773], [5.8314215, 49.8025157], [5.831392, 49.8026036], [5.8313379, 49.8027831], [5.831325, 49.802878], [5.8313321, 49.8029386], [5.8313422, 49.8029746], [5.8313566, 49.8030021], [5.8313752, 49.8030329], [5.8313896, 49.803056], [5.8314125, 49.8030811], [5.8314354, 49.8031], [5.8314782, 49.8031336], [5.8315395, 49.8031879], [5.8315815, 49.8032337], [5.8316143, 49.8032695], [5.8316648, 49.8033186], [5.831786, 49.8034703], [5.8318252, 49.8035437], [5.8320248, 49.8038451], [5.832457, 49.8036584], [5.8329261, 49.8034473], [5.8331024, 49.8033492], [5.8332825, 49.8036213], [5.8333822, 49.803788], [5.8334757, 49.8039612], [5.8336105, 49.8043611], [5.8338305, 49.8043693], [5.8341695, 49.8043965], [5.8344565, 49.804435], [5.8347069, 49.8044752], [5.8346388, 49.8046968], [5.8345099, 49.8051167], [5.8341589, 49.8050536], [5.83414, 49.805106], [5.8340907, 49.8052425], [5.8340674, 49.805307], [5.8340004, 49.8054925], [5.8339907, 49.8055194], [5.8339069, 49.8056968], [5.8338296, 49.8058244], [5.8337122, 49.8060084], [5.8335716, 49.8064582], [5.8338831, 49.8065024], [5.8342311, 49.8065617], [5.8345881, 49.8066417], [5.8349574, 49.8067226], [5.8352198, 49.8067911], [5.8355613, 49.8069011], [5.8357177, 49.8068108], [5.835948, 49.8066732], [5.8361359, 49.8065435], [5.8362582, 49.806457], [5.8364056, 49.8063272], [5.8364833, 49.806244], [5.8378397, 49.8068842], [5.8378766, 49.8068992], [5.8380211, 49.8066677], [5.8382618, 49.8062936], [5.8383795, 49.8061077], [5.8384423, 49.8059548], [5.8386409, 49.8055451], [5.8388109, 49.8052654], [5.8389805, 49.8049768], [5.8391056, 49.8047406], [5.8392309, 49.8044713], [5.8393326, 49.8042934], [5.8394591, 49.8041121], [5.8395731, 49.8039524], [5.8396357, 49.8038349], [5.8398112, 49.8034355], [5.8398702, 49.8033226], [5.8399471, 49.8031697], [5.8400973, 49.8028742], [5.8402421, 49.8025969], [5.8404496, 49.8021679], [5.84063, 49.8018348], [5.8407711, 49.8015781], [5.8409351, 49.8013203], [5.8411089, 49.8010458], [5.8412444, 49.8008451], [5.8413352, 49.8007116], [5.8414794, 49.8005224], [5.8416321, 49.8003453], [5.8417528, 49.8002256], [5.8418751, 49.8001483], [5.8420166, 49.8000847], [5.842174, 49.8000303], [5.8422164, 49.8000178], [5.8423718, 49.8], [5.8424635, 49.7999934], [5.8425642, 49.7999731], [5.842635, 49.799947], [5.8427341, 49.7998959], [5.8429521, 49.7997377], [5.8432092, 49.799551], [5.8435548, 49.7992995], [5.8435921, 49.7992653], [5.843694, 49.7990611], [5.8437833, 49.7988956], [5.8438315, 49.7988158], [5.8439202, 49.7987315], [5.8444027, 49.7983387], [5.8449843, 49.7978707], [5.8454774, 49.7974653], [5.8457665, 49.7972284], [5.8458906, 49.7971442], [5.8461453, 49.7970364], [5.8466016, 49.7968571], [5.846939, 49.7967735], [5.8469613, 49.7965999], [5.8470158, 49.7963613], [5.8470842, 49.7961535], [5.847124, 49.7960074], [5.8471638, 49.7958601], [5.8471664, 49.7957355], [5.8471202, 49.7955103], [5.8470375, 49.7952073], [5.8469839, 49.7950563], [5.8469813, 49.7949044], [5.8469359, 49.794566], [5.8468879, 49.7938289], [5.8468702, 49.7935718], [5.8468647, 49.7933353], [5.8469145, 49.7927824], [5.8469645, 49.7924303], [5.8469884, 49.7923534], [5.8470638, 49.7922556], [5.8472144, 49.7920834], [5.8472941, 49.7920089], [5.8474179, 49.7919346], [5.8475155, 49.7918906], [5.8475462, 49.7918743], [5.8475597, 49.7918482], [5.8476149, 49.7917457], [5.8476929, 49.7916006], [5.8478199, 49.7913983], [5.8478922, 49.7912832], [5.8480173, 49.7910837], [5.8480605, 49.7910149], [5.8481272, 49.7909104], [5.8482892, 49.7906567], [5.8483929, 49.7904942], [5.8494178, 49.7906627], [5.8494355, 49.7905319], [5.8494704, 49.790351], [5.8494873, 49.7902633], [5.84953, 49.7900421], [5.8495645, 49.7898665], [5.8496226, 49.7895706], [5.8496295, 49.7895353], [5.8499907, 49.7890896], [5.850131, 49.7890486], [5.8502815, 49.7890046], [5.8504811, 49.7889463], [5.8504421, 49.7888378], [5.8504224, 49.7887833], [5.8503761, 49.7886548], [5.8503355, 49.7885599], [5.8503082, 49.7885258], [5.8502766, 49.7884873], [5.8502182, 49.7884223], [5.8501964, 49.7884008], [5.8501499, 49.7883549], [5.8500989, 49.7883142], [5.8499758, 49.788403], [5.8494172, 49.7882609], [5.8493036, 49.7882379], [5.8491874, 49.7882206], [5.8490799, 49.7882098], [5.8489237, 49.788198], [5.8486518, 49.7881847], [5.8484968, 49.788177], [5.8482356, 49.7881641], [5.8483756, 49.7880758], [5.8484188, 49.7872586], [5.8484277, 49.7870905], [5.8481436, 49.7871351], [5.8480385, 49.7871478], [5.8479059, 49.7871596], [5.8477708, 49.7871689], [5.8476939, 49.787174], [5.8476463, 49.7871746], [5.8475551, 49.7871776], [5.8475338, 49.7871784], [5.8474525, 49.7871838], [5.8473799, 49.7871909], [5.8474672, 49.7870116], [5.8472973, 49.7870334], [5.8472155, 49.7870183], [5.8467906, 49.7869919], [5.8464549, 49.7869627], [5.8464304, 49.786655], [5.8464264, 49.7866188], [5.8453398, 49.7867789], [5.8452049, 49.786793], [5.845045, 49.786809], [5.8449774, 49.7868158], [5.8447848, 49.7868326], [5.8447194, 49.7868376], [5.844611, 49.7868458], [5.8444524, 49.7868551], [5.8442873, 49.7868626], [5.8440506, 49.7868687], [5.8440207, 49.7867984], [5.8440282, 49.7866394], [5.8441133, 49.7866434], [5.844259, 49.7866476], [5.8444106, 49.7866473], [5.8445669, 49.7866439], [5.8447494, 49.786635], [5.8449233, 49.7866204], [5.8449498, 49.7866172], [5.8451088, 49.7865982], [5.8453382, 49.7865667], [5.8455028, 49.7865385], [5.8456884, 49.7865027], [5.8458927, 49.7864618], [5.8458534, 49.7863774], [5.8458176, 49.7863006], [5.8457462, 49.7861475], [5.8464763, 49.7861223], [5.8469011, 49.786105], [5.8470927, 49.7860972], [5.8475491, 49.7860779], [5.8478071, 49.786067], [5.8481386, 49.7860534], [5.8489659, 49.7860192], [5.8489806, 49.7858492], [5.8489855, 49.7857923], [5.848998, 49.7856405], [5.8490042, 49.7855658], [5.8490077, 49.7855245], [5.8490276, 49.7854109], [5.8490396, 49.7853359], [5.8490502, 49.7852691], [5.8490605, 49.7852044], [5.8490801, 49.7850816], [5.8490854, 49.785048], [5.8490988, 49.7849647], [5.8491194, 49.7848372], [5.8491298, 49.7847728], [5.8491353, 49.7847317], [5.8491463, 49.7846496], [5.8491506, 49.7846179], [5.8491596, 49.784465], [5.8491586, 49.7844429], [5.8490769, 49.7844472], [5.848786, 49.7844543], [5.8485481, 49.7844499], [5.8481162, 49.784434], [5.8478773, 49.784416], [5.8475418, 49.784372], [5.8472459, 49.7843213], [5.8471191, 49.7842771], [5.8471367, 49.7842605], [5.8471959, 49.7842083], [5.8472372, 49.7841717], [5.8472627, 49.7841492], [5.8472939, 49.7841216], [5.8473462, 49.7840771], [5.8473888, 49.7840498], [5.8474271, 49.7840251], [5.8474875, 49.7839868], [5.8475561, 49.7839433], [5.8476161, 49.7839061], [5.8476756, 49.7838693], [5.8477466, 49.7838253], [5.8478469, 49.7837645], [5.8478663, 49.7837527], [5.8478967, 49.7837343], [5.8480239, 49.7836667], [5.8481349, 49.783611], [5.8481574, 49.7835997], [5.8482547, 49.7835509], [5.8483164, 49.7835198], [5.8484229, 49.783466], [5.8484669, 49.7834438], [5.8484947, 49.7834287], [5.8487172, 49.783308], [5.8487456, 49.7832841], [5.8487779, 49.783257], [5.8488691, 49.7831811], [5.8489654, 49.7830965], [5.8495554, 49.7831193], [5.8501698, 49.7831428], [5.850165, 49.7831003], [5.8501451, 49.7830052], [5.8501236, 49.7829021], [5.8501031, 49.7828043], [5.8500985, 49.7827759], [5.8500853, 49.7826943], [5.85007, 49.7826002], [5.850325, 49.7825596], [5.8512676, 49.7824093], [5.8512535, 49.7822643], [5.8512432, 49.7821585], [5.8511338, 49.781874], [5.8511127, 49.7818192], [5.8509964, 49.7815165], [5.8502462, 49.7815922], [5.8502315, 49.7815302], [5.8497979, 49.7815845], [5.8496194, 49.7816044], [5.8497191, 49.7815206], [5.8498687, 49.7813949], [5.8499398, 49.7813352], [5.8500443, 49.7812512], [5.8504368, 49.7809357], [5.8505017, 49.7808787], [5.8506614, 49.7807383], [5.8512848, 49.7801536], [5.8511587, 49.7800515], [5.8510508, 49.779964], [5.8509783, 49.7799053], [5.8516937, 49.7794933], [5.8514694, 49.7793568], [5.8512672, 49.7792338], [5.8512577, 49.779228], [5.851102, 49.7791332], [5.8510607, 49.7791081], [5.8509498, 49.7790435], [5.8507638, 49.7789351], [5.8506133, 49.7788474], [5.8506926, 49.7787922], [5.8508108, 49.7787129], [5.8509253, 49.7786383], [5.8508216, 49.7785673], [5.8507105, 49.7784958], [5.8506252, 49.7784455], [5.8505398, 49.7784007], [5.8502897, 49.7782837], [5.8502496, 49.7782649], [5.8501166, 49.7782027], [5.850055, 49.7781739], [5.8500366, 49.7781626]]]}}]}