{"type": "FeatureCollection", "features": [{"type": "Feature", "properties": {"name": "Nagem"}, "geometry": {"type": "Polygon", "coordinates": [[[5.8761722, 49.7880396], [5.8759462, 49.7874917], [5.8757863, 49.7871005], [5.8758782, 49.7870688], [5.876129, 49.7870066], [5.8760016, 49.7867766], [5.8758534, 49.7864929], [5.8757855, 49.7863396], [5.8757144, 49.7861463], [5.8756415, 49.7859508], [5.8755203, 49.7855825], [5.8754609, 49.7854853], [5.8756383, 49.785023], [5.8758609, 49.7843677], [5.8759092, 49.7842444], [5.8759508, 49.7840777], [5.8759637, 49.7839806], [5.8759677, 49.7838949], [5.8759043, 49.7838879], [5.8756135, 49.7838655], [5.8752961, 49.7838544], [5.8750774, 49.7838573], [5.8748133, 49.78387], [5.8745397, 49.7839013], [5.8742802, 49.7839509], [5.8740241, 49.7840166], [5.8737873, 49.7840994], [5.8735486, 49.7842016], [5.8735459, 49.7840725], [5.87352, 49.783973], [5.8734767, 49.7838449], [5.8734261, 49.7838107], [5.8734035, 49.7837099], [5.8733166, 49.7834949], [5.8731664, 49.7832477], [5.8731373, 49.7831442], [5.8729714, 49.782837], [5.8731038, 49.7828134], [5.8730373, 49.782435], [5.8729795, 49.7820898], [5.8729228, 49.7818417], [5.8727722, 49.7813012], [5.8726179, 49.7813298], [5.8723044, 49.781388], [5.8721687, 49.7810832], [5.8720537, 49.7808549], [5.8719543, 49.7806604], [5.871846, 49.7805019], [5.8716833, 49.7802798], [5.8715023, 49.780031], [5.872327, 49.7796413], [5.8721166, 49.7794976], [5.8718508, 49.7793347], [5.8715686, 49.7791619], [5.8714834, 49.7791148], [5.8712172, 49.7789678], [5.8709736, 49.7788338], [5.8708954, 49.7787913], [5.8708269, 49.7787455], [5.8707497, 49.778687], [5.8706886, 49.7786107], [5.8705738, 49.7784674], [5.8705139, 49.7784063], [5.8704556, 49.7783468], [5.8704344, 49.7783252], [5.8703153, 49.7782037], [5.8701732, 49.7780834], [5.8700155, 49.7779464], [5.8699838, 49.777919], [5.8698804, 49.7778182], [5.8697713, 49.7777055], [5.8697506, 49.7776842], [5.8696246, 49.7775541], [5.8695397, 49.7775916], [5.8689352, 49.777207], [5.8688969, 49.7771826], [5.8692544, 49.7769667], [5.8692849, 49.7769476], [5.8693818, 49.7768871], [5.8694969, 49.7768039], [5.8696343, 49.7767135], [5.8697944, 49.7766082], [5.8698085, 49.7765974], [5.8697839, 49.7765802], [5.869777, 49.7765619], [5.8697807, 49.7765356], [5.8697843, 49.7765173], [5.8697703, 49.7765059], [5.8697404, 49.7764944], [5.8697087, 49.7764817], [5.8696929, 49.7764702], [5.8696789, 49.7764531], [5.8696719, 49.7764428], [5.8696667, 49.7764382], [5.8696455, 49.7764347], [5.8696138, 49.7764301], [5.8695927, 49.7764243], [5.8695788, 49.7763957], [5.8695629, 49.7764059], [5.8693646, 49.7765368], [5.8691975, 49.776503], [5.8691424, 49.7764929], [5.8690299, 49.7764713], [5.8686958, 49.7764071], [5.8684823, 49.776366], [5.8683167, 49.7763404], [5.8681899, 49.776319], [5.8674837, 49.7761755], [5.8672857, 49.7761357], [5.867092, 49.7760967], [5.8668761, 49.7760534], [5.8666653, 49.7760178], [5.8663812, 49.7759698], [5.8659443, 49.7759064], [5.8656906, 49.7758863], [5.865398, 49.775873], [5.8652428, 49.7758663], [5.8650313, 49.7758589], [5.8649856, 49.7758641], [5.864963, 49.7754937], [5.8649502, 49.7752891], [5.8649331, 49.7749183], [5.8645258, 49.7749218], [5.8645061, 49.774887], [5.8644833, 49.7748467], [5.86432, 49.7745585], [5.8642224, 49.774384], [5.8641563, 49.7742376], [5.8640832, 49.7740832], [5.8640432, 49.7739905], [5.8639065, 49.7736513], [5.8638956, 49.7736245], [5.8637258, 49.7734412], [5.8635331, 49.7732459], [5.8631872, 49.7728833], [5.8631775, 49.7728731], [5.86315, 49.7728437], [5.863055, 49.7727308], [5.863463, 49.7726016], [5.8639576, 49.7724555], [5.8644398, 49.7723156], [5.8647312, 49.7722319], [5.8647562, 49.7720869], [5.8647806, 49.7719458], [5.8639865, 49.7720658], [5.8639881, 49.7720495], [5.8636394, 49.7720794], [5.8634486, 49.7720958], [5.8632923, 49.7721083], [5.8629397, 49.7721386], [5.8628906, 49.7721428], [5.862209, 49.7722014], [5.8621665, 49.7722051], [5.8610692, 49.7722995], [5.8600114, 49.7723904], [5.85999, 49.7723923], [5.8599669, 49.7723942], [5.8596614, 49.7724217], [5.8596013, 49.7727175], [5.859549, 49.7729116], [5.8595183, 49.7730246], [5.8594681, 49.7731605], [5.8594072, 49.7733054], [5.8593465, 49.7734252], [5.8592465, 49.773618], [5.8592358, 49.7736386], [5.8591538, 49.7737789], [5.858997, 49.774047], [5.8589868, 49.7740642], [5.8589346, 49.7741531], [5.8590141, 49.7741923], [5.8592441, 49.7743056], [5.8592635, 49.7743137], [5.8589998, 49.7744592], [5.8586301, 49.7746582], [5.8584178, 49.7747662], [5.8580835, 49.774931], [5.85779, 49.7750707], [5.8576644, 49.7751229], [5.8572844, 49.7752727], [5.8569945, 49.7753851], [5.856664, 49.7755122], [5.8565101, 49.7755849], [5.8563686, 49.7756633], [5.8562694, 49.7757339], [5.8562392, 49.7757658], [5.8561363, 49.7758638], [5.8561026, 49.7759037], [5.8559002, 49.7761248], [5.8558062, 49.776208], [5.8556751, 49.7762956], [5.8555088, 49.77639], [5.8549254, 49.7766266], [5.8546354, 49.776764], [5.854501, 49.7768242], [5.8543366, 49.7768866], [5.8542553, 49.7769161], [5.8540715, 49.7769762], [5.8538171, 49.7770509], [5.8535081, 49.7771289], [5.8531902, 49.7772126], [5.8528051, 49.7773224], [5.852397, 49.7774389], [5.8518988, 49.7775896], [5.8516249, 49.7776745], [5.851254, 49.7777809], [5.8508883, 49.7778816], [5.8506463, 49.7779426], [5.8504114, 49.7780094], [5.8502028, 49.7780934], [5.8500366, 49.7781626], [5.850055, 49.7781739], [5.8501166, 49.7782027], [5.8502496, 49.7782649], [5.8502897, 49.7782837], [5.8505398, 49.7784007], [5.8506252, 49.7784455], [5.8507105, 49.7784958], [5.8508216, 49.7785673], [5.8509253, 49.7786383], [5.8508108, 49.7787129], [5.8506926, 49.7787922], [5.8506133, 49.7788474], [5.8507638, 49.7789351], [5.8509498, 49.7790435], [5.8510607, 49.7791081], [5.851102, 49.7791332], [5.8512577, 49.779228], [5.8512672, 49.7792338], [5.8514694, 49.7793568], [5.8516937, 49.7794933], [5.8509783, 49.7799053], [5.8510508, 49.779964], [5.8511587, 49.7800515], [5.8512848, 49.7801536], [5.8506614, 49.7807383], [5.8505017, 49.7808787], [5.8504368, 49.7809357], [5.8500443, 49.7812512], [5.8499398, 49.7813352], [5.8498687, 49.7813949], [5.8497191, 49.7815206], [5.8496194, 49.7816044], [5.8497979, 49.7815845], [5.8502315, 49.7815302], [5.8502462, 49.7815922], [5.8509964, 49.7815165], [5.8511127, 49.7818192], [5.8511338, 49.781874], [5.8512432, 49.7821585], [5.8512535, 49.7822643], [5.8512676, 49.7824093], [5.850325, 49.7825596], [5.85007, 49.7826002], [5.8500853, 49.7826943], [5.8500985, 49.7827759], [5.8501031, 49.7828043], [5.8501236, 49.7829021], [5.8501451, 49.7830052], [5.850165, 49.7831003], [5.8501698, 49.7831428], [5.8495554, 49.7831193], [5.8489654, 49.7830965], [5.8488691, 49.7831811], [5.8487779, 49.783257], [5.8487456, 49.7832841], [5.8487172, 49.783308], [5.8484947, 49.7834287], [5.8484669, 49.7834438], [5.8484229, 49.783466], [5.8483164, 49.7835198], [5.8482547, 49.7835509], [5.8481574, 49.7835997], [5.8481349, 49.783611], [5.8480239, 49.7836667], [5.8478967, 49.7837343], [5.8478663, 49.7837527], [5.8478469, 49.7837645], [5.8477466, 49.7838253], [5.8476756, 49.7838693], [5.8476161, 49.7839061], [5.8475561, 49.7839433], [5.8474875, 49.7839868], [5.8474271, 49.7840251], [5.8473888, 49.7840498], [5.8473462, 49.7840771], [5.8472939, 49.7841216], [5.8472627, 49.7841492], [5.8472372, 49.7841717], [5.8471959, 49.7842083], [5.8471367, 49.7842605], [5.8471191, 49.7842771], [5.8472459, 49.7843213], [5.8475418, 49.784372], [5.8478773, 49.784416], [5.8481162, 49.784434], [5.8485481, 49.7844499], [5.848786, 49.7844543], [5.8490769, 49.7844472], [5.8491586, 49.7844429], [5.8491596, 49.784465], [5.8491506, 49.7846179], [5.8491463, 49.7846496], [5.8491353, 49.7847317], [5.8491298, 49.7847728], [5.8491194, 49.7848372], [5.8490988, 49.7849647], [5.8490854, 49.785048], [5.8490801, 49.7850816], [5.8490605, 49.7852044], [5.8490502, 49.7852691], [5.8490396, 49.7853359], [5.8490276, 49.7854109], [5.8490077, 49.7855245], [5.8490042, 49.7855658], [5.848998, 49.7856405], [5.8489855, 49.7857923], [5.8489806, 49.7858492], [5.8489659, 49.7860192], [5.8481386, 49.7860534], [5.8478071, 49.786067], [5.8475491, 49.7860779], [5.8470927, 49.7860972], [5.8469011, 49.786105], [5.8464763, 49.7861223], [5.8457462, 49.7861475], [5.8458176, 49.7863006], [5.8458534, 49.7863774], [5.8458927, 49.7864618], [5.8456884, 49.7865027], [5.8455028, 49.7865385], [5.8453382, 49.7865667], [5.8451088, 49.7865982], [5.8449498, 49.7866172], [5.8449233, 49.7866204], [5.8447494, 49.786635], [5.8445669, 49.7866439], [5.8444106, 49.7866473], [5.844259, 49.7866476], [5.8441133, 49.7866434], [5.8440282, 49.7866394], [5.8440207, 49.7867984], [5.8440506, 49.7868687], [5.8442873, 49.7868626], [5.8444524, 49.7868551], [5.844611, 49.7868458], [5.8447194, 49.7868376], [5.8447848, 49.7868326], [5.8449774, 49.7868158], [5.845045, 49.786809], [5.8452049, 49.786793], [5.8453398, 49.7867789], [5.8464264, 49.7866188], [5.8464304, 49.786655], [5.8464549, 49.7869627], [5.8467906, 49.7869919], [5.8472155, 49.7870183], [5.8472973, 49.7870334], [5.8474672, 49.7870116], [5.8473799, 49.7871909], [5.8474525, 49.7871838], [5.8475338, 49.7871784], [5.8475551, 49.7871776], [5.8476463, 49.7871746], [5.8476939, 49.787174], [5.8477708, 49.7871689], [5.8479059, 49.7871596], [5.8480385, 49.7871478], [5.8481436, 49.7871351], [5.8484277, 49.7870905], [5.8484188, 49.7872586], [5.8483756, 49.7880758], [5.8482356, 49.7881641], [5.8484968, 49.788177], [5.8486518, 49.7881847], [5.8489237, 49.788198], [5.8490799, 49.7882098], [5.8491874, 49.7882206], [5.8493036, 49.7882379], [5.8494172, 49.7882609], [5.8499758, 49.788403], [5.8500989, 49.7883142], [5.8501499, 49.7883549], [5.8501964, 49.7884008], [5.8502182, 49.7884223], [5.8502766, 49.7884873], [5.8503082, 49.7885258], [5.8503355, 49.7885599], [5.8503761, 49.7886548], [5.8504224, 49.7887833], [5.8504421, 49.7888378], [5.8504811, 49.7889463], [5.8502815, 49.7890046], [5.850131, 49.7890486], [5.8499907, 49.7890896], [5.8496295, 49.7895353], [5.8496226, 49.7895706], [5.8495645, 49.7898665], [5.84953, 49.7900421], [5.8494873, 49.7902633], [5.8494704, 49.790351], [5.8494355, 49.7905319], [5.8494178, 49.7906627], [5.8483929, 49.7904942], [5.8482892, 49.7906567], [5.8481272, 49.7909104], [5.8480605, 49.7910149], [5.8480173, 49.7910837], [5.8478922, 49.7912832], [5.8478199, 49.7913983], [5.8476929, 49.7916006], [5.8476149, 49.7917457], [5.8475597, 49.7918482], [5.8475462, 49.7918743], [5.8475155, 49.7918906], [5.8474179, 49.7919346], [5.8472941, 49.7920089], [5.8472144, 49.7920834], [5.8470638, 49.7922556], [5.8469884, 49.7923534], [5.8469645, 49.7924303], [5.8469145, 49.7927824], [5.8468647, 49.7933353], [5.8468702, 49.7935718], [5.8468879, 49.7938289], [5.8469359, 49.794566], [5.8469813, 49.7949044], [5.8469839, 49.7950563], [5.8470375, 49.7952073], [5.8471202, 49.7955103], [5.8471664, 49.7957355], [5.8471638, 49.7958601], [5.847124, 49.7960074], [5.8470842, 49.7961535], [5.8470158, 49.7963613], [5.8469613, 49.7965999], [5.846939, 49.7967735], [5.8466016, 49.7968571], [5.8461453, 49.7970364], [5.8458906, 49.7971442], [5.8457665, 49.7972284], [5.8454774, 49.7974653], [5.8449843, 49.7978707], [5.8444027, 49.7983387], [5.8439202, 49.7987315], [5.8438315, 49.7988158], [5.8437833, 49.7988956], [5.843694, 49.7990611], [5.8435921, 49.7992653], [5.8435548, 49.7992995], [5.8432092, 49.799551], [5.8429521, 49.7997377], [5.8427341, 49.7998959], [5.842635, 49.799947], [5.8425642, 49.7999731], [5.8424635, 49.7999934], [5.8423718, 49.8], [5.8422164, 49.8000178], [5.842174, 49.8000303], [5.8420166, 49.8000847], [5.8418751, 49.8001483], [5.8417528, 49.8002256], [5.8416321, 49.8003453], [5.8414794, 49.8005224], [5.8413352, 49.8007116], [5.8412444, 49.8008451], [5.8411089, 49.8010458], [5.8409351, 49.8013203], [5.8407711, 49.8015781], [5.84063, 49.8018348], [5.8404496, 49.8021679], [5.8402421, 49.8025969], [5.8400973, 49.8028742], [5.8399471, 49.8031697], [5.8398702, 49.8033226], [5.8398112, 49.8034355], [5.8396357, 49.8038349], [5.8395731, 49.8039524], [5.8394591, 49.8041121], [5.8393326, 49.8042934], [5.8392309, 49.8044713], [5.8391056, 49.8047406], [5.8389805, 49.8049768], [5.8388109, 49.8052654], [5.8386409, 49.8055451], [5.8384423, 49.8059548], [5.8383795, 49.8061077], [5.8382618, 49.8062936], [5.8380211, 49.8066677], [5.8378766, 49.8068992], [5.8378397, 49.8068842], [5.8364833, 49.806244], [5.8364056, 49.8063272], [5.8362582, 49.806457], [5.8361359, 49.8065435], [5.835948, 49.8066732], [5.8357177, 49.8068108], [5.8355613, 49.8069011], [5.8353766, 49.8071027], [5.8351732, 49.8073427], [5.8350561, 49.8074853], [5.8349047, 49.8077217], [5.8348305, 49.8078494], [5.8347622, 49.8080005], [5.8347214, 49.8081583], [5.8347026, 49.8082241], [5.8346747, 49.8082842], [5.8346281, 49.8083968], [5.8345817, 49.8084738], [5.8344123, 49.8086604], [5.8340804, 49.8090356], [5.8340457, 49.8090748], [5.8337189, 49.8094828], [5.8336512, 49.8095597], [5.8335312, 49.8096684], [5.8329719, 49.8101746], [5.8329358, 49.8102035], [5.8328266, 49.8102912], [5.8325964, 49.810476], [5.8328332, 49.8107136], [5.8330274, 49.8109182], [5.8331397, 49.8110426], [5.8332486, 49.8112027], [5.8335326, 49.8116332], [5.8336931, 49.8119006], [5.8337958, 49.8120861], [5.833874, 49.8122668], [5.8339582, 49.8124682], [5.8340455, 49.8126687], [5.8341478, 49.812904], [5.8342436, 49.8131938], [5.8343574, 49.813541], [5.8344351, 49.8137988], [5.834685, 49.8137376], [5.8350576, 49.8136463], [5.8354604, 49.8135477], [5.8355681, 49.8127676], [5.8356369, 49.8119863], [5.8356615, 49.8117464], [5.8356853, 49.8116243], [5.8357006, 49.8115605], [5.8357416, 49.8113902], [5.8357605, 49.8112006], [5.8357702, 49.8110669], [5.8358334, 49.8106032], [5.8358936, 49.8103177], [5.8365264, 49.8102435], [5.8365784, 49.8102374], [5.837189, 49.8101657], [5.8374051, 49.8101404], [5.8378918, 49.8100831], [5.838209, 49.8100458], [5.8384858, 49.8100132], [5.839125, 49.8099334], [5.839729, 49.8098579], [5.8403302, 49.8097797], [5.840529, 49.8097539], [5.8409156, 49.8097219], [5.8410145, 49.8097119], [5.8414169, 49.8096936], [5.8416887, 49.8096772], [5.8419797, 49.8096878], [5.8423644, 49.8097019], [5.8430431, 49.8103163], [5.8430624, 49.8103339], [5.8431314, 49.8102987], [5.8435233, 49.8100119], [5.8437404, 49.8098563], [5.8439407, 49.8097106], [5.8440629, 49.8096516], [5.8443815, 49.8095005], [5.844709, 49.8093403], [5.8453391, 49.8090416], [5.8456772, 49.8088722], [5.8458173, 49.8087687], [5.8460017, 49.8086241], [5.8463122, 49.8083656], [5.8467663, 49.8079943], [5.8471583, 49.8076778], [5.847623, 49.8073169], [5.8478837, 49.8071051], [5.8480381, 49.8069707], [5.8483416, 49.806687], [5.8485493, 49.8065013], [5.8489131, 49.8061756], [5.8489822, 49.8061243], [5.8492901, 49.8059972], [5.8494263, 49.8059416], [5.8495183, 49.8059018], [5.8496636, 49.8057994], [5.849795, 49.8056695], [5.8499673, 49.8054895], [5.8501772, 49.8052514], [5.8502404, 49.8051364], [5.8503277, 49.804878], [5.8504359, 49.8046617], [5.8504825, 49.8045727], [5.8506794, 49.8044771], [5.8510064, 49.8043946], [5.8515728, 49.8042838], [5.8518293, 49.8041883], [5.8518996, 49.8041676], [5.8519681, 49.804141], [5.8520696, 49.8040774], [5.8521629, 49.8040083], [5.8521456, 49.8039803], [5.8521277, 49.8038911], [5.8521599, 49.8038184], [5.852243, 49.8036361], [5.8522665, 49.8035218], [5.8523093, 49.8034363], [5.8523381, 49.8033518], [5.8523755, 49.8033039], [5.852454, 49.8031647], [5.8525091, 49.8031054], [5.8525697, 49.8030039], [5.8525513, 49.8028485], [5.8525205, 49.8027022], [5.8524979, 49.8026518], [5.8524543, 49.802582], [5.8524195, 49.8025076], [5.8523968, 49.8024619], [5.8523582, 49.8024298], [5.8522774, 49.8023804], [5.8522248, 49.8023209], [5.8522365, 49.8021564], [5.8523285, 49.8021189], [5.8520753, 49.8019891], [5.8519356, 49.8017591], [5.8518834, 49.8016595], [5.8518856, 49.8015807], [5.8518699, 49.801559], [5.8518461, 49.8015286], [5.8518052, 49.8014765], [5.8517635, 49.8013802], [5.8517304, 49.8013024], [5.851699, 49.8012612], [5.8516605, 49.8012074], [5.8516589, 49.8011834], [5.8516593, 49.8011137], [5.8516068, 49.801053], [5.8516213, 49.8009959], [5.8516145, 49.8009639], [5.8515179, 49.8008928], [5.851446, 49.8008332], [5.8514093, 49.8007726], [5.8514079, 49.8007211], [5.8514222, 49.8006846], [5.8514223, 49.8006698], [5.8514083, 49.8006537], [5.8513678, 49.8006376], [5.8512939, 49.8006077], [5.8512817, 49.8005951], [5.8512765, 49.8005802], [5.8512818, 49.8005688], [5.8513173, 49.8005369], [5.8513316, 49.800513], [5.8513229, 49.800497], [5.8513018, 49.80049], [5.8512666, 49.800474], [5.851242, 49.8004545], [5.8512123, 49.8004087], [5.8511881, 49.8003366], [5.8511655, 49.8002794], [5.8511533, 49.8002611], [5.8510919, 49.8002141], [5.8510691, 49.8001878], [5.8510658, 49.8001615], [5.8510625, 49.8001226], [5.8510575, 49.8000746], [5.8510421, 49.8000049], [5.8515272, 49.799734], [5.8515492, 49.799723], [5.8518517, 49.7995706], [5.851913, 49.7995397], [5.8519611, 49.799514], [5.8520232, 49.7994807], [5.8520857, 49.7994473], [5.8521486, 49.7994136], [5.8522316, 49.7993692], [5.8524249, 49.7992373], [5.8525762, 49.7991342], [5.8528151, 49.7989712], [5.8529139, 49.7989038], [5.8531459, 49.7987455], [5.8531781, 49.798722], [5.8532363, 49.7986795], [5.8533884, 49.7986262], [5.8535147, 49.7985832], [5.8537543, 49.7985015], [5.8537984, 49.7984869], [5.8541362, 49.7983746], [5.8543302, 49.79833], [5.8545105, 49.7982885], [5.8545179, 49.7982868], [5.8545584, 49.7982775], [5.854842, 49.798223], [5.8550335, 49.7981862], [5.8551269, 49.7981722], [5.8553319, 49.7981413], [5.8553782, 49.7981384], [5.8554218, 49.7981357], [5.8555624, 49.7981269], [5.8558242, 49.7981106], [5.8562089, 49.7981014], [5.8563129, 49.7981039], [5.8565386, 49.7981263], [5.8567322, 49.7981453], [5.8570886, 49.7981803], [5.85739, 49.7982108], [5.8574815, 49.798245], [5.8575625, 49.7982753], [5.8577875, 49.798397], [5.8581141, 49.7986343], [5.8585112, 49.7988856], [5.8586202, 49.7989453], [5.8588549, 49.7989311], [5.8589626, 49.7989154], [5.8593175, 49.7988535], [5.8596671, 49.7987915], [5.8596919, 49.7987871], [5.8601029, 49.7987245], [5.8602817, 49.7986972], [5.8608784, 49.798612], [5.860972, 49.7985997], [5.861031, 49.7985859], [5.8614833, 49.7984728], [5.8616318, 49.7984263], [5.8618475, 49.7983401], [5.862173, 49.798197], [5.8622634, 49.7981562], [5.8624401, 49.7980766], [5.8625673, 49.7980207], [5.8626135, 49.7980005], [5.8626746, 49.7979634], [5.8627392, 49.7979242], [5.86286, 49.7978026], [5.8629196, 49.7977398], [5.86308, 49.7975707], [5.8632009, 49.7974433], [5.8633469, 49.7972186], [5.8634966, 49.7970159], [5.8635213, 49.7969825], [5.8635887, 49.7969096], [5.8636404, 49.7968263], [5.8637348, 49.7966792], [5.8638222, 49.7965649], [5.8640145, 49.7964366], [5.8640581, 49.7963971], [5.8641786, 49.7962897], [5.8642963, 49.7961849], [5.8646185, 49.7959006], [5.8649019, 49.7956505], [5.8651469, 49.7953952], [5.8654042, 49.7951559], [5.8654849, 49.7949333], [5.865587, 49.7946891], [5.8656405, 49.7945864], [5.8656725, 49.7945453], [5.8657766, 49.794477], [5.8661601, 49.794069], [5.8664717, 49.7938813], [5.8668884, 49.7938172], [5.8672132, 49.7937815], [5.8674637, 49.7937616], [5.8681346, 49.7939553], [5.8684619, 49.7940681], [5.8687012, 49.794167], [5.8688599, 49.7941856], [5.8695543, 49.794264], [5.8709727, 49.7942242], [5.8711624, 49.7944044], [5.8726639, 49.79405], [5.8735763, 49.793689], [5.8739616, 49.7935517], [5.8741331, 49.7934939], [5.8740123, 49.7933686], [5.8738415, 49.7931913], [5.8736285, 49.7929702], [5.8736101, 49.7929384], [5.8737353, 49.7928931], [5.874216, 49.7927254], [5.8741715, 49.7927035], [5.8740895, 49.7926612], [5.874018, 49.7926244], [5.8739005, 49.7925612], [5.8738356, 49.7925262], [5.8737433, 49.7924766], [5.8735708, 49.7923837], [5.8735234, 49.7923582], [5.8734425, 49.7923147], [5.8731136, 49.792137], [5.8730942, 49.7921251], [5.8730412, 49.7920927], [5.8729974, 49.7920618], [5.8729736, 49.7920335], [5.8729121, 49.7919607], [5.8728742, 49.7919299], [5.8727935, 49.7918954], [5.8728894, 49.7913995], [5.8729719, 49.7909862], [5.8730235, 49.7907329], [5.8730643, 49.7905902], [5.8730807, 49.7905545], [5.8731089, 49.7904931], [5.8731292, 49.7904538], [5.8731694, 49.7904059], [5.8732197, 49.7903617], [5.8732498, 49.7903372], [5.873302, 49.7903102], [5.8735006, 49.790216], [5.8738874, 49.7900366], [5.8740342, 49.7899393], [5.8742182, 49.7898658], [5.8745138, 49.789713], [5.8745616, 49.7896883], [5.8748744, 49.7895537], [5.8750596, 49.7894662], [5.8752966, 49.7893514], [5.8754434, 49.7892789], [5.8755101, 49.789246], [5.8757229, 49.789141], [5.8758438, 49.7890698], [5.8758928, 49.7890409], [5.8759542, 49.7890019], [5.8760574, 49.7889362], [5.8762912, 49.7887769], [5.8763532, 49.7887324], [5.8762776, 49.7884043], [5.8762274, 49.7882351], [5.8761722, 49.7880396]]]}}]}