{"type": "FeatureCollection", "features": [{"type": "Feature", "properties": {"name": "Niederpallen"}, "geometry": {"type": "Polygon", "coordinates": [[[5.902108, 49.742687], [5.9020215, 49.7427001], [5.9019948, 49.7427042], [5.9018842, 49.742719], [5.9018194, 49.7432432], [5.9017942, 49.7433992], [5.9017341, 49.7437023], [5.9016609, 49.7440801], [5.9016112, 49.7443369], [5.901418, 49.7443173], [5.9013384, 49.7443092], [5.9002036, 49.7441836], [5.8996581, 49.7441163], [5.8989787, 49.7440291], [5.8983895, 49.7439437], [5.89837, 49.7440032], [5.8983523, 49.744057], [5.8983367, 49.7441042], [5.898333, 49.7441156], [5.8982864, 49.7442573], [5.898242, 49.7443923], [5.898235, 49.7444153], [5.8982024, 49.7445234], [5.8981723, 49.7446231], [5.8981588, 49.7446676], [5.898117, 49.7448354], [5.8980779, 49.7449922], [5.8980663, 49.7450388], [5.8980456, 49.7451425], [5.8975304, 49.7450499], [5.8973301, 49.7450139], [5.8972415, 49.744995], [5.8966225, 49.744842], [5.8965249, 49.7449095], [5.8964107, 49.7449885], [5.8963879, 49.7450117], [5.8963701, 49.7450472], [5.8963673, 49.7450967], [5.8963959, 49.7451525], [5.8964259, 49.7451851], [5.8963545, 49.745366], [5.896315, 49.7454774], [5.8963072, 49.7454986], [5.8962882, 49.7455506], [5.8962763, 49.7455832], [5.8962512, 49.7456521], [5.8962181, 49.7457325], [5.8961645, 49.7458825], [5.8963177, 49.7458906], [5.8965345, 49.7459094], [5.8966876, 49.7459194], [5.8967914, 49.7459272], [5.8969298, 49.745949], [5.8972193, 49.7460012], [5.8973904, 49.7460413], [5.8976798, 49.7461151], [5.8981193, 49.7462299], [5.8982353, 49.7466222], [5.8982544, 49.7466868], [5.8982667, 49.7467652], [5.8982736, 49.7468351], [5.8982695, 49.746921], [5.8982459, 49.7470649], [5.898238, 49.7470908], [5.8982199, 49.7471497], [5.8981757, 49.7472419], [5.8981205, 49.7473439], [5.8980617, 49.7474178], [5.8979728, 49.7475132], [5.8979106, 49.7475636], [5.8978428, 49.747615], [5.8970649, 49.7479056], [5.8970462, 49.7479878], [5.8969096, 49.7485875], [5.8968898, 49.7486743], [5.8968789, 49.7487223], [5.8967878, 49.7490369], [5.8967509, 49.7491634], [5.8966865, 49.7493847], [5.8966422, 49.7494984], [5.8964879, 49.7498719], [5.8962985, 49.7503312], [5.896122, 49.7507722], [5.8959707, 49.7511524], [5.8960398, 49.7511646], [5.896663, 49.7512746], [5.897039, 49.751341], [5.8975739, 49.751438], [5.8977339, 49.7514694], [5.8983039, 49.7515965], [5.8977484, 49.7523047], [5.8977312, 49.7523167], [5.8977344, 49.7523461], [5.8977508, 49.7523696], [5.8977839, 49.7523863], [5.8978751, 49.7524032], [5.8980294, 49.7524241], [5.8980282, 49.7524375], [5.8978854, 49.7528093], [5.8983538, 49.7528245], [5.8985091, 49.7528347], [5.8987313, 49.752862], [5.8990033, 49.7529071], [5.8990849, 49.7529206], [5.8995755, 49.7530019], [5.9010516, 49.7532291], [5.9011529, 49.7532452], [5.9014689, 49.7532952], [5.9019972, 49.753369], [5.902212, 49.7533992], [5.9022022, 49.7534595], [5.9020498, 49.7543957], [5.902128, 49.7552322], [5.9021397, 49.7553619], [5.9023779, 49.755311], [5.9026283, 49.7555995], [5.9033915, 49.7555908], [5.9035682, 49.7555888], [5.9037905, 49.7558435], [5.9038177, 49.7558741], [5.904475, 49.7555545], [5.9045066, 49.755582], [5.9048664, 49.7558519], [5.9041754, 49.7562039], [5.904203, 49.7563264], [5.9042268, 49.7564321], [5.9042957, 49.7567384], [5.9043252, 49.756817], [5.9043412, 49.7568937], [5.9044046, 49.7571975], [5.9044811, 49.7575637], [5.9045845, 49.758059], [5.9046133, 49.7581982], [5.9046557, 49.7584039], [5.9044152, 49.7589509], [5.9043821, 49.759012], [5.9043585, 49.7590763], [5.9043177, 49.7591876], [5.9043167, 49.7591901], [5.9042605, 49.7593429], [5.9041893, 49.7596302], [5.9041383, 49.7599075], [5.9041256, 49.7599763], [5.9040573, 49.7600358], [5.9029142, 49.760408], [5.902574, 49.7605391], [5.9023561, 49.7606873], [5.9023885, 49.7607005], [5.9024746, 49.7607396], [5.9030741, 49.7609519], [5.9034, 49.7610673], [5.9037589, 49.7611944], [5.903927, 49.7612547], [5.9040918, 49.7613138], [5.9044626, 49.7614467], [5.9046031, 49.7614995], [5.9048759, 49.7616019], [5.9048917, 49.7616178], [5.904918, 49.7616443], [5.904995, 49.7617456], [5.9050299, 49.7618131], [5.905086, 49.7618795], [5.9051664, 49.7620031], [5.9052312, 49.7620843], [5.9053424, 49.7623711], [5.9053928, 49.7625072], [5.9054189, 49.7625838], [5.9054307, 49.762677], [5.9054252, 49.7627181], [5.9054126, 49.7627626], [5.9054, 49.7628094], [5.9053962, 49.7628563], [5.9054101, 49.7628929], [5.9054382, 49.7629215], [5.9054891, 49.7629662], [5.9055681, 49.7630172], [5.9056156, 49.7630424], [5.905649, 49.7630528], [5.9057318, 49.763069], [5.9057864, 49.7630782], [5.9058286, 49.7630898], [5.9058515, 49.7630978], [5.9058796, 49.7631139], [5.9059006, 49.7631345], [5.9059427, 49.7631814], [5.9059901, 49.7632227], [5.9060339, 49.7632616], [5.9061301, 49.7633972], [5.906195, 49.7634705], [5.9062844, 49.7635564], [5.9063089, 49.7635816], [5.9063633, 49.7636308], [5.9063925, 49.7636676], [5.9064124, 49.7636926], [5.906458, 49.763727], [5.9065123, 49.7637894], [5.9065719, 49.7638558], [5.906584, 49.7638901], [5.9066015, 49.7639176], [5.9066348, 49.7639519], [5.9066788, 49.763976], [5.9066663, 49.764], [5.9066592, 49.7640171], [5.9066696, 49.7640365], [5.9066836, 49.7640537], [5.9066824, 49.7640737], [5.9066798, 49.7641183], [5.9066831, 49.7641503], [5.9066739, 49.7641804], [5.9066706, 49.7641914], [5.9066633, 49.7642245], [5.9066808, 49.7642577], [5.9066876, 49.7642942], [5.9066769, 49.7643262], [5.9066502, 49.7643718], [5.9066394, 49.7644164], [5.906639, 49.7644895], [5.9066511, 49.7645364], [5.906663, 49.7646095], [5.9066553, 49.7647355], [5.9072419, 49.7648066], [5.907485, 49.764846], [5.9078583, 49.7649182], [5.9081013, 49.7649759], [5.9083741, 49.7650462], [5.9087507, 49.7651676], [5.9090586, 49.7652825], [5.9092222, 49.7653537], [5.9092608, 49.7653732], [5.9093153, 49.7654053], [5.9094715, 49.7655399], [5.9098224, 49.765844], [5.909961, 49.7659723], [5.9100584, 49.7660631], [5.9101663, 49.7661636], [5.9102034, 49.7661454], [5.9102807, 49.766185], [5.910439, 49.7662573], [5.9105427, 49.7663112], [5.9106095, 49.7663571], [5.9106639, 49.7664086], [5.9108512, 49.7666575], [5.91093, 49.7667537], [5.9110001, 49.766827], [5.9111686, 49.7669764], [5.9113073, 49.7670739], [5.9115076, 49.7672068], [5.9115242, 49.7672199], [5.911943, 49.7675489], [5.9122466, 49.7677992], [5.9122275, 49.76784], [5.9121424, 49.7680219], [5.912107, 49.7680978], [5.9120804, 49.7681547], [5.9120599, 49.7681828], [5.9122122, 49.7683207], [5.9123297, 49.7684329], [5.9124738, 49.7685258], [5.9125478, 49.7685326], [5.9128397, 49.7686669], [5.9130807, 49.7687725], [5.913283, 49.7688489], [5.9135171, 49.7689226], [5.9141617, 49.7690988], [5.9141913, 49.7691069], [5.9144132, 49.7691639], [5.9145481, 49.7690883], [5.9145823, 49.7690691], [5.9146077, 49.7690549], [5.9156102, 49.768493], [5.9154218, 49.7684325], [5.9157502, 49.7679985], [5.9158483, 49.7678496], [5.9159332, 49.7677207], [5.9159794, 49.7676511], [5.916133, 49.7672738], [5.9164782, 49.7673351], [5.9165151, 49.7673419], [5.9165552, 49.7673481], [5.916605, 49.7673582], [5.9166511, 49.7673137], [5.9168967, 49.7671955], [5.9170046, 49.7671191], [5.9170545, 49.7670164], [5.9170762, 49.7669188], [5.91711, 49.7668663], [5.917179, 49.7668173], [5.9171809, 49.7667911], [5.9172722, 49.7667275], [5.9173348, 49.766684], [5.9174002, 49.7666441], [5.917623, 49.7665035], [5.9178706, 49.7663475], [5.9179362, 49.7662825], [5.9179753, 49.7662289], [5.9180144, 49.7661593], [5.9180305, 49.7661142], [5.9180542, 49.7659703], [5.9180796, 49.7658593], [5.9180866, 49.7658287], [5.918124, 49.7657534], [5.9181047, 49.7657305], [5.9179908, 49.7655988], [5.9180191, 49.7655852], [5.9184398, 49.7653559], [5.9184752, 49.7653314], [5.918546, 49.7653302], [5.91869, 49.765336], [5.9189562, 49.7653467], [5.9193106, 49.7653609], [5.9197503, 49.7654309], [5.920267, 49.7655132], [5.9204854, 49.7655479], [5.9210383, 49.7656404], [5.92206, 49.7658111], [5.9230608, 49.7659423], [5.9238073, 49.7657566], [5.9243551, 49.7656196], [5.9248082, 49.7655006], [5.9250793, 49.765435], [5.9250881, 49.7654332], [5.925549, 49.76534], [5.9258962, 49.7652654], [5.9263697, 49.7651613], [5.9266224, 49.7654382], [5.9268511, 49.7656898], [5.9269894, 49.7658614], [5.9273008, 49.7662765], [5.9277374, 49.7668666], [5.92799, 49.7667986], [5.928108, 49.7669325], [5.9287095, 49.7671918], [5.9287428, 49.7672021], [5.9288735, 49.7670311], [5.9290713, 49.7667757], [5.9291946, 49.7665944], [5.9293816, 49.7662911], [5.9294657, 49.7661623], [5.9295403, 49.7660631], [5.9297341, 49.7658773], [5.9299297, 49.7657042], [5.9300415, 49.7655994], [5.9300694, 49.7655697], [5.9301443, 49.7654317], [5.9303931, 49.7650075], [5.9305501, 49.76476], [5.9306136, 49.7646677], [5.9309045, 49.7643269], [5.9310239, 49.7641809], [5.9310705, 49.7641331], [5.9311192, 49.764043], [5.9312053, 49.7638822], [5.9313103, 49.7636471], [5.9313423, 49.7635399], [5.9313652, 49.7634189], [5.9314433, 49.7629977], [5.9314472, 49.7629589], [5.931397, 49.7629474], [5.9310544, 49.7628428], [5.9306395, 49.762738], [5.9308173, 49.7624084], [5.9302226, 49.7622941], [5.928634, 49.7619992], [5.9294048, 49.7611518], [5.9294234, 49.7611404], [5.9296193, 49.7612653], [5.9296506, 49.7612501], [5.9308184, 49.7609579], [5.9320791, 49.7606476], [5.9324847, 49.7605497], [5.9326565, 49.7605083], [5.9324988, 49.7603275], [5.9323282, 49.760132], [5.9320665, 49.760192], [5.9318374, 49.7600004], [5.9316181, 49.759817], [5.9307921, 49.7591263], [5.9309295, 49.7590821], [5.9310822, 49.7589579], [5.9311465, 49.7589072], [5.9318547, 49.7583486], [5.9314454, 49.7582462], [5.9309971, 49.758135], [5.9305397, 49.7580217], [5.9295469, 49.7577844], [5.9295081, 49.7577661], [5.9296083, 49.7576791], [5.9296597, 49.7576345], [5.9298638, 49.7574574], [5.93032, 49.7570632], [5.930806, 49.7566463], [5.931115, 49.7563877], [5.931461, 49.7561772], [5.9318136, 49.7559522], [5.9314114, 49.7557374], [5.9308786, 49.7554555], [5.9304376, 49.7552174], [5.9300639, 49.7550056], [5.9299501, 49.7549299], [5.9296941, 49.7547223], [5.9295312, 49.754574], [5.9292682, 49.7543123], [5.9289172, 49.7538995], [5.9287449, 49.7536635], [5.9286335, 49.7535181], [5.9285902, 49.7534616], [5.9285228, 49.7533737], [5.9283381, 49.7531233], [5.9281895, 49.7528936], [5.9279915, 49.7525325], [5.9275203, 49.7522018], [5.9270663, 49.7519015], [5.926502, 49.7515388], [5.9263319, 49.7514279], [5.9263073, 49.7514234], [5.9262841, 49.75143], [5.9262538, 49.7514276], [5.9262102, 49.7514035], [5.9261852, 49.7514018], [5.9261593, 49.7514142], [5.9261445, 49.7514214], [5.9260861, 49.7514333], [5.9260275, 49.7514572], [5.9259891, 49.7514604], [5.9259287, 49.7514582], [5.9258517, 49.7514355], [5.9257276, 49.7514197], [5.9256737, 49.7514183], [5.9256358, 49.7514173], [5.9255117, 49.7514212], [5.9254689, 49.7514177], [5.925438, 49.7514058], [5.9254129, 49.7513871], [5.9253726, 49.7513808], [5.9252433, 49.7514205], [5.9251752, 49.7514189], [5.925069, 49.7513982], [5.9249434, 49.7513853], [5.9247006, 49.7513953], [5.9246074, 49.7513839], [5.9244417, 49.7513544], [5.9243436, 49.7513572], [5.9243102, 49.7513434], [5.9242927, 49.751329], [5.9242834, 49.7512925], [5.9242826, 49.7512893], [5.9242646, 49.751279], [5.9242639, 49.7512789], [5.9242423, 49.7512755], [5.9241893, 49.7513028], [5.9240862, 49.7512975], [5.9240529, 49.7512897], [5.9240113, 49.7512433], [5.9239812, 49.7512341], [5.9238552, 49.7512501], [5.923793, 49.7512443], [5.9237447, 49.7512396], [5.923708, 49.7512383], [5.9236757, 49.7512332], [5.92365, 49.751219], [5.9236278, 49.7512009], [5.9235986, 49.7511905], [5.9235527, 49.7511836], [5.9235207, 49.7511835], [5.9234733, 49.7511886], [5.9234399, 49.7511876], [5.9233898, 49.7511747], [5.9233398, 49.7511531], [5.9232731, 49.7511255], [5.9232411, 49.7511143], [5.9231966, 49.7511014], [5.9231312, 49.7510944], [5.9230964, 49.7510934], [5.9230268, 49.7510898], [5.9229739, 49.7510812], [5.9228993, 49.7510574], [5.922604, 49.7507909], [5.9223113, 49.7505304], [5.9219176, 49.7502148], [5.9218364, 49.7501506], [5.9212837, 49.7497137], [5.9212995, 49.7496719], [5.9212961, 49.7496633], [5.9212927, 49.7496419], [5.9212963, 49.7496226], [5.9213103, 49.7496033], [5.9213174, 49.7495883], [5.9213002, 49.7495411], [5.9212845, 49.7495216], [5.9212379, 49.7494638], [5.9212093, 49.7494425], [5.9211966, 49.7493779], [5.9211829, 49.749335], [5.9211447, 49.7493049], [5.9210232, 49.7492489], [5.921027, 49.7491739], [5.9210064, 49.7491267], [5.9210066, 49.7490838], [5.9210173, 49.7490345], [5.9210348, 49.7490152], [5.9210488, 49.7490024], [5.9210523, 49.7489852], [5.921042, 49.7489552], [5.9210317, 49.7489337], [5.921025, 49.7488951], [5.920966, 49.7488393], [5.9209141, 49.7487898], [5.920883, 49.748734], [5.9208562, 49.7486918], [5.9208537, 49.7486879], [5.9210119, 49.7485066], [5.9211583, 49.748339], [5.9213124, 49.7481506], [5.9214732, 49.7479402], [5.9215455, 49.7478456], [5.9218928, 49.748005], [5.9220677, 49.7478467], [5.9214963, 49.747612], [5.921345, 49.7475557], [5.9213138, 49.7475427], [5.9213176, 49.7475339], [5.9214781, 49.7474622], [5.9215284, 49.7474366], [5.9215507, 49.7474186], [5.9215419, 49.7474084], [5.9212881, 49.7473491], [5.9207949, 49.7472338], [5.92079, 49.7472326], [5.9200309, 49.7470563], [5.9194088, 49.7469012], [5.9186071, 49.7466906], [5.917907, 49.7464863], [5.9174837, 49.7463537], [5.9172259, 49.7462776], [5.9170673, 49.7462261], [5.9166996, 49.7461185], [5.9163137, 49.7459993], [5.9161047, 49.7459676], [5.9159088, 49.7459379], [5.9157294, 49.7459073], [5.9151565, 49.7458098], [5.9147473, 49.7457402], [5.9140148, 49.7456216], [5.9135084, 49.7455423], [5.9133973, 49.7455254], [5.913195, 49.7454946], [5.912998, 49.7454647], [5.9129458, 49.7454567], [5.9124818, 49.7453936], [5.9123583, 49.7453768], [5.9122217, 49.7453583], [5.9119586, 49.7453225], [5.9117615, 49.7452956], [5.911528, 49.7452639], [5.911663, 49.7446434], [5.9116863, 49.7445363], [5.911743, 49.7442754], [5.9117852, 49.7440815], [5.911862, 49.7437283], [5.9119124, 49.7434967], [5.9119347, 49.7433944], [5.9119743, 49.743212], [5.9119886, 49.7431464], [5.911992, 49.7431305], [5.9120312, 49.7429503], [5.9120407, 49.7429067], [5.9119726, 49.7428925], [5.9118771, 49.7428752], [5.9112041, 49.7427532], [5.9109477, 49.7427066], [5.9107107, 49.7426751], [5.9104233, 49.7426514], [5.9096137, 49.7426051], [5.909116, 49.7425805], [5.9088853, 49.742572], [5.9085879, 49.7426083], [5.9084993, 49.7426206], [5.9082717, 49.7426521], [5.9080457, 49.7426817], [5.907867, 49.7426983], [5.9076736, 49.7427109], [5.9073348, 49.7427216], [5.9071041, 49.7427241], [5.9070489, 49.7427229], [5.906932, 49.7427097], [5.906833, 49.7426914], [5.9066846, 49.7426586], [5.9065054, 49.7425967], [5.9064406, 49.7425655], [5.9063466, 49.7425192], [5.9062592, 49.742463], [5.9062139, 49.7424249], [5.9061573, 49.7423717], [5.9061089, 49.7423176], [5.9058602, 49.742344], [5.9056115, 49.7423685], [5.9055059, 49.7423783], [5.9053531, 49.7423879], [5.9050664, 49.7423968], [5.9048341, 49.7424043], [5.9046029, 49.7424073], [5.9045757, 49.7424077], [5.9042159, 49.7424224], [5.9041086, 49.7424271], [5.9038437, 49.7424435], [5.9036325, 49.7424571], [5.903406, 49.7424858], [5.9034057, 49.7424859], [5.9030415, 49.7425383], [5.9026611, 49.7425995], [5.9026333, 49.7426044], [5.9025234, 49.7426239], [5.9023348, 49.7426525], [5.9022722, 49.742662], [5.902108, 49.742687]]]}}]}