{"type": "FeatureCollection", "features": [{"type": "Feature", "properties": {"name": "Réiden-Atert"}, "geometry": {"type": "Polygon", "coordinates": [[[5.9124738, 49.7685258], [5.9123297, 49.7684329], [5.9122122, 49.7683207], [5.9120599, 49.7681828], [5.9120804, 49.7681547], [5.912107, 49.7680978], [5.9121424, 49.7680219], [5.9122275, 49.76784], [5.9122466, 49.7677992], [5.911943, 49.7675489], [5.9115242, 49.7672199], [5.9115076, 49.7672068], [5.9113073, 49.7670739], [5.9111686, 49.7669764], [5.9110001, 49.766827], [5.91093, 49.7667537], [5.9108512, 49.7666575], [5.9106639, 49.7664086], [5.9106095, 49.7663571], [5.9105427, 49.7663112], [5.910439, 49.7662573], [5.9102807, 49.766185], [5.9102034, 49.7661454], [5.9101663, 49.7661636], [5.9100584, 49.7660631], [5.909961, 49.7659723], [5.9098224, 49.765844], [5.9094715, 49.7655399], [5.9093153, 49.7654053], [5.9092608, 49.7653732], [5.9092222, 49.7653537], [5.9090586, 49.7652825], [5.9087507, 49.7651676], [5.9083741, 49.7650462], [5.9081013, 49.7649759], [5.9078583, 49.7649182], [5.907485, 49.764846], [5.9072419, 49.7648066], [5.9066553, 49.7647355], [5.906663, 49.7646095], [5.9066511, 49.7645364], [5.906639, 49.7644895], [5.9066394, 49.7644164], [5.9066502, 49.7643718], [5.9066769, 49.7643262], [5.9066876, 49.7642942], [5.9066808, 49.7642577], [5.9066633, 49.7642245], [5.9066706, 49.7641914], [5.9066739, 49.7641804], [5.9066831, 49.7641503], [5.9066798, 49.7641183], [5.9066824, 49.7640737], [5.9066836, 49.7640537], [5.9066696, 49.7640365], [5.9066592, 49.7640171], [5.9066663, 49.764], [5.9066788, 49.763976], [5.9066348, 49.7639519], [5.9066015, 49.7639176], [5.906584, 49.7638901], [5.9065719, 49.7638558], [5.9065123, 49.7637894], [5.906458, 49.763727], [5.9064124, 49.7636926], [5.9063925, 49.7636676], [5.9063633, 49.7636308], [5.9063089, 49.7635816], [5.9062844, 49.7635564], [5.906195, 49.7634705], [5.9061301, 49.7633972], [5.9060339, 49.7632616], [5.9059901, 49.7632227], [5.9059427, 49.7631814], [5.9059006, 49.7631345], [5.9058796, 49.7631139], [5.9058515, 49.7630978], [5.9058286, 49.7630898], [5.9057864, 49.7630782], [5.9057318, 49.763069], [5.905649, 49.7630528], [5.9056156, 49.7630424], [5.9055681, 49.7630172], [5.9054891, 49.7629662], [5.9054382, 49.7629215], [5.9054101, 49.7628929], [5.9053962, 49.7628563], [5.9054, 49.7628094], [5.9054126, 49.7627626], [5.9054252, 49.7627181], [5.9054307, 49.762677], [5.9054189, 49.7625838], [5.9053928, 49.7625072], [5.9053424, 49.7623711], [5.9052312, 49.7620843], [5.9051664, 49.7620031], [5.905086, 49.7618795], [5.9050299, 49.7618131], [5.904995, 49.7617456], [5.904918, 49.7616443], [5.9048917, 49.7616178], [5.9048759, 49.7616019], [5.9046031, 49.7614995], [5.9044626, 49.7614467], [5.9040918, 49.7613138], [5.903927, 49.7612547], [5.9037589, 49.7611944], [5.9034, 49.7610673], [5.9030741, 49.7609519], [5.9024746, 49.7607396], [5.9023885, 49.7607005], [5.9023561, 49.7606873], [5.902574, 49.7605391], [5.9029142, 49.760408], [5.9040573, 49.7600358], [5.9041256, 49.7599763], [5.9041383, 49.7599075], [5.9041893, 49.7596302], [5.9042605, 49.7593429], [5.9043167, 49.7591901], [5.9043177, 49.7591876], [5.9043585, 49.7590763], [5.9043821, 49.759012], [5.9044152, 49.7589509], [5.9046557, 49.7584039], [5.9046133, 49.7581982], [5.9045845, 49.758059], [5.9044811, 49.7575637], [5.9044046, 49.7571975], [5.9043412, 49.7568937], [5.9043252, 49.756817], [5.9042957, 49.7567384], [5.9042268, 49.7564321], [5.904203, 49.7563264], [5.9041754, 49.7562039], [5.9048664, 49.7558519], [5.9045066, 49.755582], [5.904475, 49.7555545], [5.9038177, 49.7558741], [5.9037905, 49.7558435], [5.9035682, 49.7555888], [5.9033915, 49.7555908], [5.9026283, 49.7555995], [5.9023779, 49.755311], [5.9021397, 49.7553619], [5.902128, 49.7552322], [5.9020498, 49.7543957], [5.9022022, 49.7534595], [5.902212, 49.7533992], [5.9019972, 49.753369], [5.9014689, 49.7532952], [5.9011529, 49.7532452], [5.9010516, 49.7532291], [5.8995755, 49.7530019], [5.8990849, 49.7529206], [5.8990033, 49.7529071], [5.8987313, 49.752862], [5.8985091, 49.7528347], [5.8983538, 49.7528245], [5.8978854, 49.7528093], [5.8980282, 49.7524375], [5.8980294, 49.7524241], [5.8978751, 49.7524032], [5.8977839, 49.7523863], [5.8977508, 49.7523696], [5.8977344, 49.7523461], [5.8977312, 49.7523167], [5.8977484, 49.7523047], [5.8983039, 49.7515965], [5.8977339, 49.7514694], [5.8975739, 49.751438], [5.897039, 49.751341], [5.896663, 49.7512746], [5.8960398, 49.7511646], [5.8959707, 49.7511524], [5.896122, 49.7507722], [5.8962985, 49.7503312], [5.8964879, 49.7498719], [5.8966422, 49.7494984], [5.8966865, 49.7493847], [5.8967509, 49.7491634], [5.8967878, 49.7490369], [5.8968789, 49.7487223], [5.8968898, 49.7486743], [5.8969096, 49.7485875], [5.8970462, 49.7479878], [5.8970649, 49.7479056], [5.8978428, 49.747615], [5.8979106, 49.7475636], [5.8979728, 49.7475132], [5.8980617, 49.7474178], [5.8981205, 49.7473439], [5.8981757, 49.7472419], [5.8982199, 49.7471497], [5.898238, 49.7470908], [5.8982459, 49.7470649], [5.8982695, 49.746921], [5.8982736, 49.7468351], [5.8982667, 49.7467652], [5.8982544, 49.7466868], [5.8982353, 49.7466222], [5.8981193, 49.7462299], [5.8976798, 49.7461151], [5.8973904, 49.7460413], [5.8972193, 49.7460012], [5.8969298, 49.745949], [5.8967914, 49.7459272], [5.8966876, 49.7459194], [5.8965345, 49.7459094], [5.8963177, 49.7458906], [5.8961645, 49.7458825], [5.89583, 49.7459173], [5.8956038, 49.7459261], [5.8953878, 49.7459194], [5.8951442, 49.7458956], [5.8949596, 49.7458781], [5.8946996, 49.7460803], [5.8946447, 49.7460544], [5.8945749, 49.7460215], [5.8943563, 49.7459185], [5.8941482, 49.745836], [5.89395, 49.7457674], [5.8934069, 49.7456083], [5.8931837, 49.745535], [5.892321, 49.7452327], [5.8913844, 49.7448977], [5.8912256, 49.7450303], [5.891104, 49.7451318], [5.8910802, 49.7451461], [5.8907474, 49.7449039], [5.890557, 49.7447935], [5.8901298, 49.7445758], [5.8895399, 49.7442556], [5.8893546, 49.744136], [5.8890393, 49.7439108], [5.8885476, 49.7435505], [5.8885274, 49.7435691], [5.8885054, 49.7435939], [5.8882563, 49.7438741], [5.8880831, 49.7440688], [5.8878395, 49.7443428], [5.8877778, 49.7444342], [5.8877333, 49.7445002], [5.8877062, 49.7445404], [5.8876905, 49.7445636], [5.887485, 49.7448681], [5.8874593, 49.7449061], [5.887337, 49.7450873], [5.8872759, 49.7451778], [5.8872376, 49.7452344], [5.8871979, 49.7452883], [5.8870609, 49.745474], [5.8869325, 49.7456481], [5.8869223, 49.745662], [5.8868888, 49.7457074], [5.8868046, 49.7458215], [5.8867199, 49.745895], [5.8866485, 49.745957], [5.886497, 49.7460885], [5.8863763, 49.7461934], [5.8862682, 49.7462872], [5.8861624, 49.7463791], [5.886114, 49.7464211], [5.8858411, 49.746658], [5.8854952, 49.7465055], [5.8853521, 49.7465864], [5.8849746, 49.7467999], [5.8843871, 49.7471343], [5.884236, 49.7472262], [5.884155, 49.7472755], [5.8841261, 49.7472931], [5.8839141, 49.7474551], [5.8838902, 49.7474761], [5.8837474, 49.7476017], [5.88363, 49.7476912], [5.8834433, 49.7478192], [5.8832163, 49.7479672], [5.8829793, 49.7481044], [5.8829151, 49.7481274], [5.8824645, 49.7482532], [5.8820567, 49.7483699], [5.8819179, 49.7485129], [5.881826, 49.7486076], [5.8815931, 49.74853], [5.8814714, 49.7484909], [5.8813115, 49.7484427], [5.8804438, 49.7481611], [5.879857, 49.7479675], [5.879608, 49.7478949], [5.8794596, 49.7478645], [5.8793556, 49.747859], [5.8792834, 49.747868], [5.8792069, 49.7478926], [5.8791451, 49.7479212], [5.8790747, 49.7479786], [5.8789166, 49.7481534], [5.878783, 49.7483178], [5.8787639, 49.7483151], [5.8783346, 49.7482277], [5.8783038, 49.7482783], [5.8782973, 49.7482889], [5.8778551, 49.7481926], [5.87722, 49.7480903], [5.8763601, 49.7479587], [5.8759573, 49.7478806], [5.8755331, 49.7477874], [5.8754164, 49.747761], [5.8752715, 49.7477242], [5.8751536, 49.747686], [5.8750395, 49.7476406], [5.8748974, 49.7475761], [5.8747424, 49.7474964], [5.8747328, 49.7475045], [5.8743619, 49.7478904], [5.8742835, 49.747891], [5.8742039, 49.7478979], [5.8740985, 49.7479079], [5.8740747, 49.7479474], [5.8740015, 49.7480688], [5.8738731, 49.7482817], [5.873781, 49.7484343], [5.8735113, 49.748846], [5.8733955, 49.7490336], [5.873301, 49.7492225], [5.8732147, 49.7494216], [5.8731631, 49.7495468], [5.8730921, 49.7497436], [5.8730878, 49.7497557], [5.873038, 49.7498938], [5.8729545, 49.7500987], [5.8725277, 49.7500281], [5.8723416, 49.7506632], [5.8720222, 49.7505736], [5.8719621, 49.7505567], [5.871616, 49.7504598], [5.871496, 49.7504333], [5.8713935, 49.7504091], [5.8712179, 49.7503813], [5.8710627, 49.7503661], [5.8709693, 49.7503584], [5.8708778, 49.7503508], [5.870762, 49.7503442], [5.8706892, 49.7503401], [5.8702483, 49.750315], [5.8696936, 49.7502977], [5.8692765, 49.7502875], [5.8692625, 49.7504708], [5.8692397, 49.7505676], [5.8692163, 49.7506131], [5.8691734, 49.7506733], [5.869125, 49.7507233], [5.8690915, 49.7507494], [5.8689968, 49.7508255], [5.8687559, 49.7510118], [5.8686917, 49.7510559], [5.868749, 49.7510938], [5.8701747, 49.75146], [5.8701711, 49.7514768], [5.8700466, 49.7520578], [5.8695733, 49.7526318], [5.8695053, 49.7527125], [5.869433, 49.7527984], [5.8693265, 49.752901], [5.8691883, 49.753031], [5.8688036, 49.7533977], [5.8684184, 49.7538279], [5.8681708, 49.7540988], [5.8681222, 49.7541364], [5.8671885, 49.7535664], [5.8671489, 49.7535999], [5.8670727, 49.7537838], [5.8669673, 49.7540168], [5.8668449, 49.7542846], [5.866713, 49.7545879], [5.8666657, 49.754733], [5.86659, 49.7549633], [5.8664989, 49.7552827], [5.866241, 49.7555536], [5.8660765, 49.7557327], [5.8660428, 49.7557721], [5.8659847, 49.7558463], [5.8655747, 49.756389], [5.8654605, 49.7565351], [5.8651836, 49.7568689], [5.8650631, 49.7571333], [5.8648709, 49.7575793], [5.8644251, 49.7579024], [5.864205, 49.7580614], [5.8636166, 49.7585956], [5.8632133, 49.7589496], [5.8632038, 49.7589586], [5.8627313, 49.7594102], [5.8628211, 49.7596129], [5.8628963, 49.7597635], [5.8629147, 49.7597887], [5.8629553, 49.7598323], [5.8632008, 49.7600702], [5.8633415, 49.760138], [5.8635174, 49.7602174], [5.8636897, 49.7602865], [5.8637464, 49.7603087], [5.8639028, 49.7603699], [5.8640509, 49.760425], [5.8641474, 49.7604609], [5.8639615, 49.7607904], [5.8638824, 49.7609663], [5.8643261, 49.760996], [5.8645061, 49.7610068], [5.8646418, 49.7610189], [5.8648106, 49.7610339], [5.8650646, 49.7610605], [5.8651409, 49.7610685], [5.865065, 49.7613279], [5.8649721, 49.7616301], [5.8649687, 49.7616513], [5.8649625, 49.7616896], [5.8655473, 49.7617208], [5.8655824, 49.7617233], [5.8658536, 49.7617422], [5.8663824, 49.7617694], [5.8664273, 49.7617717], [5.8667875, 49.7617898], [5.866912, 49.7617924], [5.8671576, 49.7617984], [5.8672555, 49.7618007], [5.8672557, 49.7620487], [5.8672557, 49.7620723], [5.8674636, 49.7620832], [5.8681561, 49.7621284], [5.8688579, 49.762168], [5.8689025, 49.7621698], [5.8696616, 49.7622015], [5.8697789, 49.7622064], [5.86974, 49.7622911], [5.8696669, 49.7623943], [5.8695059, 49.7626038], [5.8694948, 49.7626015], [5.8694651, 49.7626026], [5.8689804, 49.7625899], [5.8687929, 49.7625812], [5.8681756, 49.7625877], [5.8680369, 49.7625892], [5.8680249, 49.7627218], [5.8679505, 49.7630458], [5.8679201, 49.763159], [5.8678858, 49.763299], [5.8681568, 49.7633145], [5.8685116, 49.76332], [5.8686866, 49.7632427], [5.8690575, 49.763338], [5.8693783, 49.76342], [5.8695841, 49.76348], [5.8696323, 49.7634962], [5.8697991, 49.7635538], [5.8699492, 49.7636119], [5.870229, 49.7637247], [5.8702865, 49.7637631], [5.8703992, 49.7638384], [5.8699096, 49.764625], [5.869896, 49.7646759], [5.8698755, 49.7646918], [5.8698382, 49.764718], [5.869825, 49.7647477], [5.8698359, 49.7647912], [5.8698653, 49.7648508], [5.8699296, 49.7649579], [5.8700266, 49.7652011], [5.8700226, 49.765248], [5.8699759, 49.7652799], [5.8699183, 49.7652912], [5.8696767, 49.7653066], [5.8696782, 49.7653695], [5.8695928, 49.7656645], [5.8695788, 49.7657129], [5.8694898, 49.7656932], [5.8694174, 49.7656839], [5.8693728, 49.7656815], [5.8693022, 49.7656847], [5.8692111, 49.7656982], [5.8691361, 49.7657106], [5.8689639, 49.7657239], [5.8687818, 49.7657463], [5.8681693, 49.7656669], [5.8668322, 49.7653926], [5.8668636, 49.7654442], [5.8667927, 49.7655346], [5.8667471, 49.7655927], [5.8666472, 49.76572], [5.8666791, 49.765731], [5.8667981, 49.7657721], [5.867037, 49.7658475], [5.8672446, 49.7659156], [5.8670331, 49.7661855], [5.8669297, 49.7663178], [5.8668369, 49.7664367], [5.8667866, 49.7665012], [5.866653, 49.7666722], [5.8666354, 49.7666962], [5.8665437, 49.7668126], [5.8659347, 49.766779], [5.8655819, 49.7667592], [5.8652716, 49.7667361], [5.8652571, 49.7667086], [5.8646927, 49.7666688], [5.8646813, 49.7667174], [5.8646696, 49.7668089], [5.8638271, 49.7672795], [5.8633368, 49.7675527], [5.8632156, 49.767629], [5.863234, 49.7676565], [5.8637727, 49.7676465], [5.8640234, 49.7676529], [5.8647235, 49.7676913], [5.8653641, 49.7677278], [5.8658246, 49.7677508], [5.8661069, 49.7677652], [5.8656131, 49.7686011], [5.8659432, 49.7686911], [5.8660494, 49.7687209], [5.8665013, 49.7688475], [5.8663754, 49.7690965], [5.8662457, 49.769338], [5.8661292, 49.7695715], [5.8659508, 49.7699292], [5.8658462, 49.770139], [5.8652363, 49.7699571], [5.8652232, 49.7699532], [5.8647003, 49.7698129], [5.8642345, 49.7697294], [5.8637426, 49.7696749], [5.863698, 49.7699733], [5.863646, 49.7702768], [5.8635995, 49.7705848], [5.8635858, 49.7706946], [5.863673, 49.7707051], [5.8638568, 49.7707296], [5.8642817, 49.7708079], [5.8641036, 49.7713661], [5.8640561, 49.7715335], [5.8640235, 49.7716867], [5.8639881, 49.7720495], [5.8639865, 49.7720658], [5.8647806, 49.7719458], [5.8647562, 49.7720869], [5.8647312, 49.7722319], [5.8644398, 49.7723156], [5.8639576, 49.7724555], [5.863463, 49.7726016], [5.863055, 49.7727308], [5.86315, 49.7728437], [5.8631775, 49.7728731], [5.8631872, 49.7728833], [5.8635331, 49.7732459], [5.8637258, 49.7734412], [5.8638956, 49.7736245], [5.8639065, 49.7736513], [5.8640432, 49.7739905], [5.8640832, 49.7740832], [5.8641563, 49.7742376], [5.8642224, 49.774384], [5.86432, 49.7745585], [5.8644833, 49.7748467], [5.8645061, 49.774887], [5.8645258, 49.7749218], [5.8649331, 49.7749183], [5.8649502, 49.7752891], [5.864963, 49.7754937], [5.8649856, 49.7758641], [5.8650313, 49.7758589], [5.8652428, 49.7758663], [5.865398, 49.775873], [5.8656906, 49.7758863], [5.8659443, 49.7759064], [5.8663812, 49.7759698], [5.8666653, 49.7760178], [5.8668761, 49.7760534], [5.867092, 49.7760967], [5.8672857, 49.7761357], [5.8674837, 49.7761755], [5.8681899, 49.776319], [5.8683167, 49.7763404], [5.8684823, 49.776366], [5.8686958, 49.7764071], [5.8690299, 49.7764713], [5.8691424, 49.7764929], [5.8691975, 49.776503], [5.8693646, 49.7765368], [5.8695629, 49.7764059], [5.8695788, 49.7763957], [5.8695927, 49.7764243], [5.8696138, 49.7764301], [5.8696455, 49.7764347], [5.8696667, 49.7764382], [5.8696719, 49.7764428], [5.8696789, 49.7764531], [5.8696929, 49.7764702], [5.8697087, 49.7764817], [5.8697404, 49.7764944], [5.8697703, 49.7765059], [5.8697843, 49.7765173], [5.8697807, 49.7765356], [5.869777, 49.7765619], [5.8697839, 49.7765802], [5.8698085, 49.7765974], [5.8697944, 49.7766082], [5.8696343, 49.7767135], [5.8694969, 49.7768039], [5.8693818, 49.7768871], [5.8692849, 49.7769476], [5.8692544, 49.7769667], [5.8688969, 49.7771826], [5.8689352, 49.777207], [5.8695397, 49.7775916], [5.8696246, 49.7775541], [5.8697506, 49.7776842], [5.8697713, 49.7777055], [5.8698804, 49.7778182], [5.8699838, 49.777919], [5.8700155, 49.7779464], [5.8701732, 49.7780834], [5.8703153, 49.7782037], [5.8704344, 49.7783252], [5.8704556, 49.7783468], [5.8705139, 49.7784063], [5.8705738, 49.7784674], [5.8706886, 49.7786107], [5.8707497, 49.778687], [5.8708269, 49.7787455], [5.8708954, 49.7787913], [5.8709736, 49.7788338], [5.8712172, 49.7789678], [5.8714834, 49.7791148], [5.8715686, 49.7791619], [5.8718508, 49.7793347], [5.8721166, 49.7794976], [5.872327, 49.7796413], [5.8715023, 49.780031], [5.8716833, 49.7802798], [5.871846, 49.7805019], [5.8719543, 49.7806604], [5.8720537, 49.7808549], [5.8721687, 49.7810832], [5.8723044, 49.781388], [5.8726179, 49.7813298], [5.8727722, 49.7813012], [5.8729228, 49.7818417], [5.8729795, 49.7820898], [5.8730373, 49.782435], [5.8731038, 49.7828134], [5.8729714, 49.782837], [5.8731373, 49.7831442], [5.8731664, 49.7832477], [5.8733166, 49.7834949], [5.8734035, 49.7837099], [5.8734261, 49.7838107], [5.8734767, 49.7838449], [5.87352, 49.783973], [5.8735459, 49.7840725], [5.8735486, 49.7842016], [5.8737873, 49.7840994], [5.8740241, 49.7840166], [5.8742802, 49.7839509], [5.8745397, 49.7839013], [5.8748133, 49.78387], [5.8750774, 49.7838573], [5.8752961, 49.7838544], [5.8756135, 49.7838655], [5.8759043, 49.7838879], [5.8759677, 49.7838949], [5.8759637, 49.7839806], [5.8759508, 49.7840777], [5.8759092, 49.7842444], [5.8758609, 49.7843677], [5.8756383, 49.785023], [5.8754609, 49.7854853], [5.8755203, 49.7855825], [5.8756415, 49.7859508], [5.8757144, 49.7861463], [5.8757855, 49.7863396], [5.8758534, 49.7864929], [5.8760016, 49.7867766], [5.876129, 49.7870066], [5.8758782, 49.7870688], [5.8757863, 49.7871005], [5.8759462, 49.7874917], [5.8761722, 49.7880396], [5.8762656, 49.7880467], [5.8764544, 49.7878711], [5.876631, 49.787707], [5.8767143, 49.7876296], [5.8768147, 49.787685], [5.8769014, 49.7877329], [5.8771783, 49.7878858], [5.877846, 49.787419], [5.8783614, 49.7870593], [5.8785703, 49.7869124], [5.8788186, 49.7866822], [5.8791325, 49.7863905], [5.8792017, 49.7863198], [5.8789606, 49.7862679], [5.8789267, 49.7862607], [5.8787772, 49.7862285], [5.8789753, 49.7858268], [5.8790454, 49.7856167], [5.8791604, 49.7852525], [5.8792522, 49.7849386], [5.8793873, 49.7844579], [5.8795705, 49.7844892], [5.8799176, 49.7845438], [5.8801661, 49.7845741], [5.8802771, 49.7845869], [5.880411, 49.784609], [5.8806647, 49.7846541], [5.881045, 49.7847499], [5.881178, 49.7846303], [5.8806736, 49.78434], [5.8804522, 49.7842057], [5.8803011, 49.7841071], [5.8801308, 49.7839844], [5.880354, 49.7838406], [5.8805876, 49.7836995], [5.8807768, 49.7836109], [5.8809059, 49.7835586], [5.8811196, 49.7834918], [5.881275, 49.7834636], [5.8815362, 49.7834277], [5.8818115, 49.7833941], [5.88191, 49.783134], [5.881991, 49.7829232], [5.8819942, 49.7829149], [5.8820908, 49.7826763], [5.8822014, 49.7824572], [5.8823163, 49.7822686], [5.8824329, 49.7820773], [5.8828643, 49.78218], [5.8830026, 49.7820558], [5.8831303, 49.7819339], [5.8832598, 49.7817971], [5.8835525, 49.7814962], [5.8836785, 49.7813605], [5.8838508, 49.7811381], [5.8842629, 49.7806049], [5.8842818, 49.7805804], [5.8844181, 49.7804102], [5.8845046, 49.7803022], [5.884533, 49.780276], [5.8845889, 49.7802668], [5.8847116, 49.7802465], [5.8852558, 49.7801567], [5.8853378, 49.7801431], [5.8856419, 49.7800982], [5.8862007, 49.780039], [5.8863042, 49.7801284], [5.8864356, 49.7802864], [5.8866139, 49.780545], [5.8866858, 49.7806194], [5.8868771, 49.7807856], [5.8870348, 49.7809471], [5.8871154, 49.7810444], [5.8871907, 49.7811394], [5.8872591, 49.7811887], [5.8873629, 49.7812392], [5.8873526, 49.7811832], [5.8873388, 49.7811386], [5.8872656, 49.7809933], [5.8872186, 49.780887], [5.8871945, 49.7807875], [5.8872209, 49.7807921], [5.887448, 49.7808498], [5.8876999, 49.7809018], [5.887721, 49.7809065], [5.8877813, 49.780846], [5.8878383, 49.7807525], [5.888034, 49.7804502], [5.8880182, 49.7804284], [5.8883296, 49.779939], [5.8887099, 49.7793152], [5.8887346, 49.7792832], [5.8888142, 49.7793111], [5.8888899, 49.7792116], [5.8890709, 49.7789738], [5.8891501, 49.7788697], [5.8892652, 49.7787185], [5.8895842, 49.7783392], [5.8896963, 49.7782058], [5.8900237, 49.7783724], [5.8902434, 49.7784952], [5.8904209, 49.7785979], [5.8906159, 49.7787229], [5.890846, 49.7788834], [5.8908629, 49.7788966], [5.8910092, 49.7790111], [5.891104, 49.7790891], [5.8912374, 49.7792025], [5.8912479, 49.7792159], [5.891347, 49.779151], [5.8915926, 49.7790608], [5.8920184, 49.7789029], [5.8922252, 49.7788223], [5.8926407, 49.7786239], [5.8929659, 49.7784853], [5.8931794, 49.7784094], [5.8931834, 49.7784171], [5.8931889, 49.7784283], [5.8934342, 49.7783237], [5.8935399, 49.7783262], [5.8940255, 49.7781469], [5.8940605, 49.7780798], [5.8940783, 49.7780723], [5.8942451, 49.7780033], [5.894453, 49.7779194], [5.8944872, 49.7779052], [5.89471, 49.7778151], [5.8949592, 49.7777125], [5.8952896, 49.7775979], [5.8956252, 49.7774992], [5.8957894, 49.7774551], [5.8960472, 49.7773945], [5.8961885, 49.7773654], [5.8963984, 49.7773222], [5.896718, 49.7772567], [5.8970481, 49.7771849], [5.8971682, 49.7771521], [5.8972618, 49.7771157], [5.8974404, 49.7770305], [5.897642, 49.7769247], [5.8970954, 49.7762838], [5.8971014, 49.776157], [5.8974919, 49.7759841], [5.8975549, 49.7759562], [5.8979551, 49.7757791], [5.8981934, 49.7757271], [5.8986417, 49.7756475], [5.8989322, 49.7755943], [5.8993489, 49.7754936], [5.899676, 49.7754047], [5.899868, 49.7753525], [5.9000879, 49.7752974], [5.9002971, 49.775245], [5.9007685, 49.7751084], [5.9012392, 49.774972], [5.9014185, 49.7749201], [5.9016215, 49.7748612], [5.9016573, 49.7749011], [5.9023366, 49.7746395], [5.9024021, 49.7746143], [5.9023368, 49.7745807], [5.9023337, 49.774566], [5.9023514, 49.7745535], [5.9023831, 49.7745553], [5.9029278, 49.7742526], [5.9032903, 49.7740518], [5.9035945, 49.7738891], [5.9041143, 49.7736155], [5.9046056, 49.7733978], [5.9047336, 49.773344], [5.905187, 49.7731535], [5.9053144, 49.7731087], [5.905512, 49.7730394], [5.9055583, 49.7729549], [5.9056472, 49.7728237], [5.9058017, 49.7726178], [5.9061117, 49.7726255], [5.906304, 49.7726303], [5.9065225, 49.7726356], [5.9067183, 49.7726405], [5.9068453, 49.7726436], [5.9069281, 49.7726455], [5.9070533, 49.7726485], [5.9071502, 49.7726507], [5.9072243, 49.7726525], [5.9073794, 49.7726542], [5.9075997, 49.7726566], [5.9078291, 49.7726591], [5.9080476, 49.7726615], [5.9082152, 49.7726634], [5.9083049, 49.7726644], [5.9085394, 49.772667], [5.9087933, 49.7726697], [5.9089255, 49.7726712], [5.9090702, 49.7726728], [5.9094368, 49.7726768], [5.9096253, 49.7726787], [5.910618, 49.7726886], [5.9113673, 49.7726937], [5.911473, 49.77269], [5.9118169, 49.7726781], [5.9119995, 49.7726681], [5.9122869, 49.7719811], [5.9122968, 49.7719552], [5.9121899, 49.7719264], [5.9118767, 49.7718421], [5.9117422, 49.7718059], [5.9117408, 49.7718176], [5.9112153, 49.7716748], [5.9113527, 49.771473], [5.9114125, 49.7713892], [5.9115235, 49.7712308], [5.911578, 49.7711516], [5.9116239, 49.7710915], [5.911723, 49.7709614], [5.9117649, 49.7709115], [5.9117793, 49.7708944], [5.9122455, 49.7703857], [5.9124702, 49.7702276], [5.912599, 49.7700465], [5.9126069, 49.7700353], [5.9127599, 49.7697832], [5.9129392, 49.7694677], [5.9129825, 49.7693914], [5.9130089, 49.7693598], [5.9129983, 49.7693529], [5.9129562, 49.7693209], [5.9129179, 49.7692237], [5.9129573, 49.7691118], [5.9129719, 49.7690084], [5.9129234, 49.7688586], [5.9128376, 49.7687488], [5.9126724, 49.7686433], [5.9124738, 49.7685258]]]}}]}