{"type": "FeatureCollection", "features": [{"type": "Feature", "properties": {"name": "Rumelange"}, "geometry": {"type": "MultiPolygon", "coordinates": [[[[5.978754, 49.45399], [5.979299, 49.455242], [5.980841, 49.4562], [5.982359, 49.457035], [5.982546, 49.456947], [5.983023, 49.45678], [5.983999, 49.456333], [5.985723, 49.455738], [5.985777, 49.455887], [5.98596, 49.456425], [5.986181, 49.457005], [5.986292, 49.457306], [5.986574, 49.458122], [5.986734, 49.4587], [5.987261, 49.459373], [5.987783, 49.460278], [5.988069, 49.461292], [5.987692, 49.462337], [5.987318, 49.46264], [5.987925, 49.463108], [5.988436, 49.463478], [5.98847, 49.463505], [5.9886, 49.4636], [5.989626, 49.464344], [5.989717, 49.46453], [5.989828, 49.464764], [5.99, 49.464977], [5.98966, 49.4654], [5.989557, 49.465755], [5.989595, 49.465847], [5.98966, 49.466022], [5.989687, 49.466267], [5.989756, 49.466534], [5.989813, 49.466637], [5.989778, 49.467007], [5.990263, 49.46719], [5.990641, 49.467335], [5.990694, 49.46735], [5.991072, 49.467525], [5.991114, 49.46755], [5.991205, 49.4676], [5.991587, 49.467827], [5.991797, 49.46801], [5.991938, 49.468132], [5.992044, 49.468243], [5.992144, 49.468307], [5.992464, 49.468506], [5.992495, 49.46853], [5.992796, 49.468708], [5.992884, 49.468758], [5.992979, 49.46881], [5.993067, 49.46886], [5.993704, 49.468376], [5.994348, 49.467888], [5.994627, 49.468094], [5.994669, 49.46808], [5.995119, 49.46788], [5.995592, 49.467667], [5.995619, 49.46766], [5.995935, 49.467533], [5.996187, 49.467434], [5.996702, 49.46723], [5.996759, 49.46721], [5.997, 49.467426], [5.99753, 49.467815], [5.997934, 49.468132], [5.998606, 49.468662], [5.998674, 49.46863], [5.998758, 49.46871], [5.999006, 49.46895], [5.999182, 49.469166], [5.999308, 49.469337], [5.999468, 49.46976], [5.999487, 49.469757], [5.999529, 49.469753], [5.999548, 49.469765], [6.000151, 49.470203], [6.000254, 49.47027], [6.000399, 49.470356], [6.000795, 49.470596], [6.000948, 49.47067], [6.001196, 49.470795], [6.001486, 49.470924], [6.001982, 49.47113], [6.002188, 49.471214], [6.002428, 49.47132], [6.00271, 49.471462], [6.002745, 49.47148], [6.002943, 49.471607], [6.003202, 49.471775], [6.003317, 49.47188], [6.003435, 49.472023], [6.003321, 49.472183], [6.003195, 49.47232], [6.002985, 49.47249], [6.002783, 49.47263], [6.002489, 49.472736], [6.002356, 49.47279], [6.002092, 49.472874], [6.002062, 49.472885], [6.001841, 49.47297], [6.001364, 49.473145], [6.000635, 49.473404], [6.000669, 49.47346], [6.00091, 49.473694], [6.0011, 49.473854], [6.001234, 49.47398], [6.001394, 49.474136], [6.001589, 49.474346], [6.001993, 49.4748], [6.002073, 49.474873], [6.002214, 49.47498], [6.002256, 49.475006], [6.003023, 49.47524], [6.003046, 49.47524], [6.00326, 49.475304], [6.003488, 49.4754], [6.003721, 49.47549], [6.003775, 49.475517], [6.00392, 49.475582], [6.003984, 49.475613], [6.004297, 49.47574], [6.004354, 49.47576], [6.00437, 49.47577], [6.004553, 49.47585], [6.004709, 49.475937], [6.004888, 49.476013], [6.005014, 49.476063], [6.005293, 49.476154], [6.005304, 49.476227], [6.00532, 49.476307], [6.005407, 49.476288], [6.005487, 49.47627], [6.005495, 49.476254], [6.005499, 49.476242], [6.005518, 49.4762], [6.005606, 49.475975], [6.005701, 49.47582], [6.005812, 49.475662], [6.005991, 49.475487], [6.006136, 49.475376], [6.006418, 49.475197], [6.006586, 49.4751], [6.007479, 49.474724], [6.007883, 49.47456], [6.008589, 49.474293], [6.008837, 49.4744], [6.009272, 49.474304], [6.009993, 49.474144], [6.010309, 49.474087], [6.010469, 49.474052], [6.010412, 49.473667], [6.010435, 49.47342], [6.010492, 49.473213], [6.010603, 49.473034], [6.010721, 49.472908], [6.010633, 49.472855], [6.010546, 49.4728], [6.010737, 49.472614], [6.01092, 49.4725], [6.011114, 49.4724], [6.011492, 49.472244], [6.011698, 49.47215], [6.011854, 49.472057], [6.012102, 49.472088], [6.012289, 49.472095], [6.012594, 49.472095], [6.012648, 49.47178], [6.012655, 49.471596], [6.012636, 49.471275], [6.012606, 49.471138], [6.012537, 49.470924], [6.012884, 49.47092], [6.013029, 49.470917], [6.013266, 49.47065], [6.013479, 49.470425], [6.014074, 49.47044], [6.014429, 49.470398], [6.015066, 49.470276], [6.015326, 49.470154], [6.01626, 49.46965], [6.016558, 49.4695], [6.016752, 49.469444], [6.016947, 49.469406], [6.016985, 49.4694], [6.017302, 49.46934], [6.017431, 49.469322], [6.017504, 49.46931], [6.019876, 49.46931], [6.019972, 49.4694], [6.021215, 49.46932], [6.021868, 49.46926], [6.022379, 49.469193], [6.022734, 49.469135], [6.022882, 49.46909], [6.023043, 49.469], [6.023069, 49.469025], [6.023344, 49.468918], [6.023523, 49.468857], [6.023859, 49.468777], [6.024023, 49.468723], [6.02416, 49.468655], [6.02429, 49.46855], [6.02482, 49.468014], [6.025137, 49.4677], [6.025152, 49.46768], [6.025221, 49.467598], [6.025267, 49.467525], [6.025305, 49.46743], [6.02532, 49.46734], [6.025297, 49.46723], [6.02519, 49.467113], [6.025019, 49.466953], [6.024908, 49.466824], [6.02495, 49.46681], [6.025907, 49.467224], [6.026041, 49.467293], [6.02619, 49.46738], [6.026377, 49.46749], [6.02651, 49.467606], [6.026632, 49.467743], [6.026701, 49.46786], [6.026751, 49.467995], [6.026796, 49.46823], [6.027155, 49.467953], [6.027349, 49.467804], [6.027556, 49.46768], [6.027788, 49.467567], [6.028471, 49.467262], [6.028521, 49.46729], [6.028765, 49.46727], [6.028959, 49.467247], [6.02902, 49.467236], [6.029112, 49.467216], [6.029131, 49.467216], [6.029345, 49.467163], [6.029539, 49.467117], [6.029722, 49.467056], [6.02984, 49.467056], [6.030027, 49.46706], [6.030054, 49.46703], [6.030169, 49.467033], [6.030794, 49.46706], [6.030909, 49.467068], [6.03092, 49.46711], [6.031462, 49.467133], [6.0315, 49.467487], [6.03187, 49.46741], [6.032152, 49.467354], [6.032198, 49.467346], [6.032289, 49.467327], [6.032412, 49.46759], [6.032484, 49.46771], [6.032766, 49.467667], [6.032797, 49.467663], [6.032946, 49.467636], [6.033018, 49.467625], [6.033728, 49.467514], [6.033644, 49.46732], [6.035036, 49.467094], [6.035067, 49.467], [6.03517, 49.466896], [6.035151, 49.46667], [6.035952, 49.466442], [6.035986, 49.46644], [6.036074, 49.466423], [6.036676, 49.466354], [6.036848, 49.46634], [6.037161, 49.466328], [6.037176, 49.466114], [6.037142, 49.465904], [6.037062, 49.46547], [6.037058, 49.46518], [6.037065, 49.4649], [6.037039, 49.46462], [6.036985, 49.46444], [6.036901, 49.464222], [6.036795, 49.463932], [6.036688, 49.463715], [6.03668, 49.463696], [6.036669, 49.463673], [6.03681, 49.46357], [6.037081, 49.46349], [6.037523, 49.463364], [6.038088, 49.46322], [6.038569, 49.463028], [6.038836, 49.462757], [6.038916, 49.462673], [6.039308, 49.46223], [6.039427, 49.462093], [6.039682, 49.461884], [6.040102, 49.46137], [6.0403, 49.461174], [6.040045, 49.461], [6.039671, 49.46073], [6.039274, 49.460438], [6.039091, 49.460495], [6.038553, 49.459793], [6.038378, 49.45956], [6.037783, 49.458786], [6.039125, 49.4583], [6.039045, 49.458153], [6.039, 49.458073], [6.039084, 49.458046], [6.040213, 49.45769], [6.040342, 49.457653], [6.040361, 49.457645], [6.04141, 49.457314], [6.041906, 49.457153], [6.042459, 49.45698], [6.04241, 49.45686], [6.042639, 49.456776], [6.042829, 49.45671], [6.042993, 49.45666], [6.043631, 49.456543], [6.043585, 49.456314], [6.04336, 49.456303], [6.043066, 49.456272], [6.042803, 49.456253], [6.042326, 49.45622], [6.041964, 49.456196], [6.041559, 49.456192], [6.040995, 49.456264], [6.040552, 49.456276], [6.039984, 49.45631], [6.039385, 49.456287], [6.038832, 49.456272], [6.038572, 49.456287], [6.038259, 49.456326], [6.038172, 49.45589], [6.038061, 49.45546], [6.037878, 49.454952], [6.038118, 49.454678], [6.03895, 49.454514], [6.039007, 49.454502], [6.039476, 49.454422], [6.039492, 49.454292], [6.039503, 49.45421], [6.039511, 49.45414], [6.039545, 49.453983], [6.039904, 49.453766], [6.039862, 49.45372], [6.039644, 49.45367], [6.0394, 49.453598], [6.039183, 49.4535], [6.038992, 49.453373], [6.038843, 49.453205], [6.038759, 49.453037], [6.038683, 49.452744], [6.036829, 49.452675], [6.036821, 49.452557], [6.034517, 49.452625], [6.032846, 49.45273], [6.032805, 49.453182], [6.032324, 49.45314], [6.032007, 49.453083], [6.031752, 49.453003], [6.031511, 49.452885], [6.031259, 49.452747], [6.031019, 49.45289], [6.030714, 49.452686], [6.030539, 49.452538], [6.030386, 49.452374], [6.03026, 49.45221], [6.030165, 49.452038], [6.030069, 49.451817], [6.030016, 49.451733], [6.03071, 49.451496], [6.031229, 49.451344], [6.031714, 49.45121], [6.031946, 49.45113], [6.032194, 49.45103], [6.032412, 49.450924], [6.032503, 49.450768], [6.032503, 49.450096], [6.032572, 49.449627], [6.032572, 49.449608], [6.032576, 49.44957], [6.032583, 49.449535], [6.030832, 49.44944], [6.029322, 49.449337], [6.028704, 49.44916], [6.027792, 49.44866], [6.027254, 49.44826], [6.026842, 49.448593], [6.026758, 49.448967], [6.026629, 49.449562], [6.026606, 49.44962], [6.026499, 49.449852], [6.026358, 49.450172], [6.026316, 49.450233], [6.025976, 49.450714], [6.025881, 49.450726], [6.025885, 49.450966], [6.025923, 49.451588], [6.025923, 49.45185], [6.025972, 49.45204], [6.026041, 49.452175], [6.026255, 49.45248], [6.026842, 49.453293], [6.027105, 49.453636], [6.02725, 49.453773], [6.02738, 49.45388], [6.027559, 49.454002], [6.027723, 49.45411], [6.028021, 49.45428], [6.028234, 49.45441], [6.029081, 49.454887], [6.029283, 49.455048], [6.029215, 49.455086], [6.028856, 49.455296], [6.028273, 49.45563], [6.028158, 49.4557], [6.028097, 49.45573], [6.028074, 49.45575], [6.027899, 49.45549], [6.027754, 49.455257], [6.027678, 49.45514], [6.027479, 49.45491], [6.026697, 49.454193], [6.026678, 49.4542], [6.02664, 49.45422], [6.026247, 49.4544], [6.025824, 49.454514], [6.025213, 49.454674], [6.02466, 49.45482], [6.023714, 49.45502], [6.023657, 49.45503], [6.02326, 49.45507], [6.022585, 49.45505], [6.02175, 49.454975], [6.020895, 49.454678], [6.020365, 49.454464], [6.019777, 49.45426], [6.01914, 49.454136], [6.018026, 49.45395], [6.016848, 49.453957], [6.016787, 49.453957], [6.015593, 49.45395], [6.015524, 49.453632], [6.015268, 49.453465], [6.01494, 49.45327], [6.014635, 49.45308], [6.014467, 49.45298], [6.014368, 49.452923], [6.01404, 49.452686], [6.013819, 49.45253], [6.011499, 49.453518], [6.010889, 49.453167], [6.010775, 49.453102], [6.009516, 49.452454], [6.008654, 49.45203], [6.007849, 49.451637], [6.007383, 49.45202], [6.006952, 49.45234], [6.006533, 49.452686], [6.006109, 49.453037], [6.00567, 49.453377], [6.005209, 49.453705], [6.004618, 49.45414], [6.004557, 49.45418], [6.004446, 49.45426], [6.004297, 49.454372], [6.004175, 49.454468], [6.004118, 49.454506], [6.004011, 49.45459], [6.003954, 49.45463], [6.003389, 49.455013], [6.003279, 49.455086], [6.003069, 49.455227], [6.002523, 49.455578], [6.002428, 49.45564], [6.002108, 49.45585], [6.002035, 49.455894], [6.001814, 49.456062], [6.001638, 49.4562], [6.001505, 49.4563], [6.001352, 49.456413], [6.001234, 49.456505], [6.000982, 49.45651], [6.000464, 49.456516], [6.000273, 49.45652], [5.99996, 49.456524], [5.998358, 49.456493], [5.997934, 49.456497], [5.995909, 49.45579], [5.995188, 49.45553], [5.991899, 49.454407], [5.991102, 49.45414], [5.989695, 49.45366], [5.986891, 49.452705], [5.985838, 49.452343], [5.981974, 49.451065], [5.980314, 49.45187], [5.97909, 49.452682], [5.978983, 49.453133], [5.978754, 49.45399]]]]}}]}