{"type": "FeatureCollection", "features": [{"type": "Feature", "properties": {"name": "Naturbësch Laangmuer", "kind": "nature_reserve"}, "geometry": {"type": "Polygon", "coordinates": [[[6.21193, 49.6693421], [6.210044, 49.6683154], [6.2095472, 49.6682827], [6.2082285, 49.6684466], [6.2062279, 49.6688744], [6.204853, 49.669074], [6.2028525, 49.6665414], [6.1999089, 49.6640144], [6.1951359, 49.6598595], [6.1951303, 49.6596587], [6.1955251, 49.6594981], [6.1963543, 49.6592972], [6.1966899, 49.6588495], [6.1972737, 49.6586948], [6.1992704, 49.6584209], [6.1998908, 49.6585195], [6.2034903, 49.6598285], [6.2045329, 49.6599983], [6.2136478, 49.6612101], [6.214398, 49.6612616], [6.2145039, 49.6614117], [6.2161456, 49.6637364], [6.2159561, 49.66397], [6.2156764, 49.6640781], [6.2137, 49.6637481], [6.213163, 49.6646739], [6.2133931, 49.6650332], [6.2157305, 49.6654829], [6.2172782, 49.6660787], [6.2177159, 49.6663241], [6.2178558, 49.6666512], [6.217645, 49.6668649], [6.2161908, 49.666914], [6.2150853, 49.667098], [6.2143041, 49.6675905], [6.2138451, 49.667915], [6.2134505, 49.6681756], [6.2129453, 49.6685366], [6.2124726, 49.6689671], [6.2121567, 49.6692358], [6.21193, 49.6693421]]]}}]}