{"type": "FeatureCollection", "features": [{"type": "Feature", "properties": {"name": "Place Mathias Hellers", "kind": "park"}, "geometry": {"type": "Polygon", "coordinates": [[[6.2417618, 49.6577938], [6.2415936, 49.6577895], [6.2415575, 49.6577885], [6.2415209, 49.6577859], [6.2414853, 49.657779], [6.2414614, 49.6577661], [6.2414431, 49.6577454], [6.2414396, 49.6577257], [6.2414411, 49.6577119], [6.2414518, 49.657701], [6.2416036, 49.6576065], [6.2416641, 49.657569], [6.241685, 49.6575559], [6.2417633, 49.6576178], [6.2417618, 49.6577938]]]}}]}