{"type": "FeatureCollection", "features": [{"type": "Feature", "properties": {"name": "Réserve naturelle Aarnescht", "kind": "nature_reserve"}, "geometry": {"type": "Polygon", "coordinates": [[[6.2526717, 49.6623243], [6.2515131, 49.6620936], [6.2512998, 49.6619283], [6.2510592, 49.6617922], [6.250864, 49.6617243], [6.2505153, 49.66168], [6.2494643, 49.6617538], [6.2491413, 49.6618673], [6.249004, 49.6619729], [6.2486006, 49.6616396], [6.2482229, 49.6613784], [6.2479311, 49.6612118], [6.2475097, 49.6610755], [6.2469612, 49.6611307], [6.2468527, 49.6611418], [6.2466017, 49.6611672], [6.2465698, 49.6611704], [6.2465228, 49.6611756], [6.246561, 49.6609113], [6.2465972, 49.6607212], [6.246612, 49.6606426], [6.2465421, 49.6607204], [6.2464692, 49.6608015], [6.2463632, 49.6609603], [6.2463243, 49.6611331], [6.2463431, 49.661272], [6.2463994, 49.6614326], [6.2464485, 49.6615273], [6.2464933, 49.6616168], [6.2467736, 49.6620064], [6.2471799, 49.6625098], [6.2473839, 49.6627923], [6.2475128, 49.6630181], [6.2478485, 49.663678], [6.2478723, 49.6637247], [6.2479119, 49.6640821], [6.2479862, 49.6643382], [6.2481201, 49.6645186], [6.2483482, 49.6647274], [6.2485669, 49.6648573], [6.2489117, 49.6649908], [6.2488084, 49.6650912], [6.248751, 49.665153], [6.2486838, 49.6652253], [6.2481477, 49.6654758], [6.2478956, 49.6655982], [6.2475352, 49.6658198], [6.2472685, 49.6660324], [6.24707, 49.6660724], [6.2468487, 49.6662642], [6.2467512, 49.6664003], [6.2467012, 49.6665637], [6.2467012, 49.6666435], [6.2467012, 49.6667312], [6.2467374, 49.666877], [6.2468184, 49.6670538], [6.2465776, 49.6670501], [6.2464395, 49.6670479], [6.2470056, 49.6678934], [6.2472117, 49.6683564], [6.2473794, 49.6688201], [6.2474785, 49.669479], [6.2475987, 49.6700946], [6.2475689, 49.6701475], [6.2476423, 49.670155], [6.2477653, 49.6701677], [6.2479867, 49.6701937], [6.2481952, 49.6704175], [6.2481979, 49.6704284], [6.248253, 49.6706494], [6.2482783, 49.6707508], [6.2482971, 49.6709092], [6.2483664, 49.671549], [6.2482445, 49.6715595], [6.2482617, 49.6716149], [6.2482748, 49.671698], [6.2482756, 49.6719329], [6.2484466, 49.6720189], [6.2485278, 49.6724849], [6.2485489, 49.6725333], [6.2485725, 49.6725874], [6.2487086, 49.6728993], [6.2491377, 49.6734103], [6.2493217, 49.673226], [6.2493952, 49.6727326], [6.2494853, 49.6724658], [6.24952, 49.6724299], [6.2496597, 49.6722852], [6.2500191, 49.6721169], [6.2503071, 49.6720475], [6.2508955, 49.6719808], [6.2509646, 49.6723132], [6.2512757, 49.672356], [6.2522668, 49.6720422], [6.252948, 49.6720544], [6.253374, 49.6720262], [6.2539701, 49.672279], [6.2544437, 49.6727071], [6.2545128, 49.6730207], [6.2544555, 49.6732489], [6.2544499, 49.6732713], [6.2545907, 49.6731773], [6.2549476, 49.672852], [6.2550724, 49.6727886], [6.255236, 49.6727661], [6.2553969, 49.6727851], [6.2558368, 49.6729362], [6.2560607, 49.673023], [6.2564939, 49.6731471], [6.2568614, 49.6732885], [6.2574533, 49.6734908], [6.2571967, 49.6727973], [6.2573565, 49.6727335], [6.257193, 49.6725046], [6.256907, 49.6723616], [6.2566276, 49.6720517], [6.2562954, 49.6711509], [6.2567031, 49.6710875], [6.2567458, 49.6705889], [6.2565055, 49.6698098], [6.2555059, 49.6683629], [6.2551475, 49.6680236], [6.2547424, 49.6679273], [6.2552065, 49.6676018], [6.2586424, 49.6684852], [6.2586967, 49.6683561], [6.2585646, 49.6683153], [6.2588891, 49.6670124], [6.2587539, 49.6669157], [6.2584511, 49.666836], [6.258232, 49.6661731], [6.2579691, 49.6657095], [6.2575641, 49.66522], [6.2572423, 49.6648988], [6.2564081, 49.6652391], [6.2561284, 49.6649317], [6.256557, 49.6647385], [6.2565677, 49.6646469], [6.2565023, 49.6646011], [6.2563689, 49.6646124], [6.2561327, 49.6647005], [6.2560433, 49.6647148], [6.2556866, 49.6643137], [6.255004, 49.6637182], [6.2549905, 49.6635576], [6.2548594, 49.6634422], [6.2547703, 49.6633639], [6.2540424, 49.6627234], [6.2537192, 49.662522], [6.2535381, 49.6623797], [6.25351, 49.6625246], [6.2535985, 49.6626036], [6.2536252, 49.6626685], [6.2536333, 49.662688], [6.2531733, 49.6625533], [6.2528565, 49.6624087], [6.2526717, 49.6623243]]]}}]}