{"type": "FeatureCollection", "features": [{"type": "Feature", "properties": {"name": "Heisdorf"}, "geometry": {"type": "Polygon", "coordinates": [[[6.1325583, 49.686865], [6.132674, 49.6868417], [6.1331658, 49.6867422], [6.1332999, 49.6867169], [6.1337333, 49.6866351], [6.1341182, 49.6865637], [6.1341518, 49.6865575], [6.1345009, 49.6864927], [6.1350196, 49.6863973], [6.1349606, 49.6863187], [6.1348182, 49.6861192], [6.1347335, 49.6860007], [6.1345861, 49.6858022], [6.1345754, 49.6857877], [6.1344942, 49.6856785], [6.1343399, 49.6854689], [6.13461, 49.6854437], [6.1350959, 49.6853985], [6.1355149, 49.6853583], [6.1353768, 49.6852877], [6.1352081, 49.6852036], [6.1351362, 49.6851678], [6.1350631, 49.6851291], [6.13492, 49.6850533], [6.1348774, 49.6850305], [6.1346775, 49.6849234], [6.13463, 49.6848943], [6.1345685, 49.6848565], [6.134519, 49.684826], [6.134498, 49.6847923], [6.1344671, 49.6847427], [6.1344294, 49.6846739], [6.134401, 49.6845742], [6.1343433, 49.6843172], [6.1343246, 49.684234], [6.1342483, 49.683902], [6.1341979, 49.6836863], [6.1341677, 49.6835513], [6.134153, 49.6834857], [6.1341125, 49.6833044], [6.1340866, 49.6831918], [6.1340555, 49.683046], [6.1340744, 49.6829776], [6.1340952, 49.6829021], [6.1342172, 49.6829028], [6.1343798, 49.6829037], [6.134373, 49.6829287], [6.1348075, 49.6828778], [6.1348125, 49.6828473], [6.1348258, 49.6828107], [6.1353937, 49.682766], [6.1365594, 49.6826717], [6.136773, 49.6826541], [6.1368323, 49.6826492], [6.136845, 49.6826481], [6.136908, 49.6826429], [6.1369339, 49.6826408], [6.1372321, 49.682601], [6.1374526, 49.6825859], [6.1380339, 49.682546], [6.1380494, 49.6825449], [6.1381017, 49.6825402], [6.1382417, 49.6824998], [6.1382632, 49.682844], [6.1383261, 49.6830187], [6.1383867, 49.6832458], [6.138446, 49.6832125], [6.1384659, 49.68321], [6.1386626, 49.6831841], [6.1387706, 49.6831699], [6.1389648, 49.683142], [6.1391477, 49.6831158], [6.1391629, 49.6831136], [6.1394304, 49.6830704], [6.1394432, 49.6830683], [6.1395403, 49.6830526], [6.1395751, 49.683047], [6.1396226, 49.6830394], [6.1397384, 49.6830173], [6.1398513, 49.6829959], [6.1400803, 49.6829524], [6.14019, 49.6829315], [6.1402063, 49.6829284], [6.1403285, 49.6829052], [6.1403644, 49.6828985], [6.1405084, 49.6828715], [6.1405508, 49.6828636], [6.1406942, 49.6828367], [6.1407194, 49.682832], [6.1408121, 49.6828147], [6.1409256, 49.6827941], [6.1409635, 49.6827872], [6.1410353, 49.6827741], [6.1411665, 49.6827503], [6.1412434, 49.6827363], [6.1412541, 49.6827343], [6.1417712, 49.6826398], [6.1420889, 49.6827473], [6.1422553, 49.6828551], [6.1424593, 49.6829985], [6.1426734, 49.6831496], [6.1427222, 49.6830988], [6.142788, 49.6830177], [6.1428402, 49.6829683], [6.1428914, 49.6829328], [6.1429154, 49.6829161], [6.1429969, 49.682868], [6.1431436, 49.6827243], [6.1432401, 49.682631], [6.1432648, 49.682608], [6.1433323, 49.6825452], [6.1433582, 49.6825211], [6.1438273, 49.6822221], [6.1438644, 49.6821984], [6.1440993, 49.6819859], [6.1443243, 49.6817826], [6.1446167, 49.6817442], [6.1451281, 49.6816787], [6.1454828, 49.6816319], [6.1462215, 49.6815587], [6.1467895, 49.6814965], [6.1469515, 49.6814757], [6.1469784, 49.6814722], [6.1470115, 49.681468], [6.147181, 49.6814462], [6.1472876, 49.6814321], [6.1475055, 49.6814033], [6.1476078, 49.6813898], [6.1476789, 49.6813804], [6.1478438, 49.6813587], [6.1479628, 49.681343], [6.1480921, 49.6813804], [6.1482119, 49.6814073], [6.1482636, 49.6814189], [6.1483508, 49.6814329], [6.1484292, 49.6814454], [6.1485273, 49.6814589], [6.1486124, 49.6814707], [6.1486875, 49.6814781], [6.1488425, 49.6814934], [6.1489159, 49.6815007], [6.1491142, 49.6815219], [6.1492199, 49.6815332], [6.1492897, 49.6815407], [6.1494557, 49.6815588], [6.1495636, 49.6815705], [6.149728, 49.6815884], [6.1498132, 49.6815969], [6.1500642, 49.681622], [6.1502574, 49.6816413], [6.1503559, 49.6816522], [6.1504996, 49.6816681], [6.150632, 49.6816827], [6.1507591, 49.6816967], [6.1508673, 49.6817087], [6.1509923, 49.6817227], [6.1511408, 49.6817393], [6.1512115, 49.6817472], [6.1513477, 49.6817637], [6.1516007, 49.6817944], [6.1517208, 49.681809], [6.1518194, 49.6818209], [6.1520846, 49.6818531], [6.1521912, 49.681866], [6.1523521, 49.6818863], [6.1524129, 49.681894], [6.1528394, 49.6819478], [6.1533825, 49.6820162], [6.1535949, 49.6820378], [6.1537017, 49.6820459], [6.1537426, 49.682049], [6.1538171, 49.6820547], [6.154075, 49.6820679], [6.1542017, 49.6820727], [6.1544551, 49.6820704], [6.1546344, 49.6820668], [6.1547766, 49.6820632], [6.1550144, 49.6820488], [6.1556101, 49.6820117], [6.1556887, 49.6820069], [6.1559076, 49.6819936], [6.1559467, 49.6820826], [6.1559583, 49.6821091], [6.1560047, 49.6822365], [6.1560595, 49.682405], [6.1566903, 49.6823605], [6.1572138, 49.6823277], [6.1574191, 49.6823211], [6.1574712, 49.6823194], [6.1575345, 49.6823174], [6.1576693, 49.6823131], [6.1577075, 49.682313], [6.1582231, 49.6823126], [6.1585258, 49.6823123], [6.1589155, 49.6823054], [6.1591701, 49.6822985], [6.1592358, 49.6822955], [6.1594237, 49.6822869], [6.1598229, 49.6822648], [6.1600356, 49.682252], [6.1603414, 49.6822336], [6.1604117, 49.6822292], [6.1604873, 49.6823595], [6.1605509, 49.682417], [6.1607058, 49.6825361], [6.1611636, 49.6828772], [6.1615046, 49.6831121], [6.161931, 49.6833934], [6.1624694, 49.6837463], [6.1630373, 49.6841563], [6.1637134, 49.6846149], [6.1639858, 49.6847387], [6.1641589, 49.6848026], [6.1646656, 49.6849729], [6.1649024, 49.6850213], [6.1656836, 49.6851811], [6.1659988, 49.6852456], [6.1662925, 49.6853057], [6.1668326, 49.6854267], [6.167292, 49.6855295], [6.1678947, 49.6856692], [6.1683183, 49.685766], [6.1689371, 49.6859273], [6.1689835, 49.6859393], [6.169031, 49.6859515], [6.1690786, 49.6859637], [6.1692978, 49.68602], [6.1706244, 49.6858523], [6.1715123, 49.6857418], [6.1726732, 49.6855992], [6.1732181, 49.6855356], [6.1733663, 49.6856551], [6.1734914, 49.6857725], [6.1735626, 49.6858264], [6.1736624, 49.6858879], [6.1737672, 49.6859492], [6.1741043, 49.6861682], [6.1743864, 49.6863723], [6.1748559, 49.6866962], [6.1756879, 49.6866094], [6.1757421, 49.6866251], [6.1756843, 49.6866832], [6.1756247, 49.6867552], [6.1757193, 49.6867362], [6.1760727, 49.6867539], [6.1764, 49.6867764], [6.1766163, 49.6867657], [6.177026, 49.6867576], [6.1773334, 49.6867497], [6.1776933, 49.6867443], [6.1781132, 49.6867358], [6.1782343, 49.6867347], [6.1783866, 49.686723], [6.178551, 49.686707], [6.179168, 49.6866122], [6.1796002, 49.6865556], [6.1798656, 49.6865239], [6.179345, 49.6854877], [6.1791342, 49.6850752], [6.1789639, 49.6847234], [6.1789776, 49.68471], [6.179046, 49.6846564], [6.1791613, 49.6846094], [6.1793208, 49.6845551], [6.1794271, 49.6845337], [6.179615, 49.6845217], [6.179805, 49.6845167], [6.1798262, 49.6844764], [6.1798534, 49.6844505], [6.1798861, 49.6844318], [6.1799311, 49.6844109], [6.1799514, 49.684397], [6.1799637, 49.6843646], [6.1799592, 49.6843417], [6.1799435, 49.6843042], [6.1799143, 49.6842786], [6.1798681, 49.684255], [6.1798242, 49.6842453], [6.1797938, 49.684228], [6.1797769, 49.6842085], [6.1797634, 49.6841884], [6.1797532, 49.6841648], [6.1797544, 49.6841311], [6.1797487, 49.6840915], [6.179733, 49.6840575], [6.1797059, 49.6840255], [6.1796924, 49.6840006], [6.1796879, 49.68397], [6.1796935, 49.6839353], [6.1797115, 49.6838849], [6.1797025, 49.6836976], [6.1796855, 49.6836135], [6.1803314, 49.6836615], [6.1808175, 49.6841771], [6.1808939, 49.6842665], [6.1809833, 49.6842549], [6.1810496, 49.684376], [6.1814643, 49.6843928], [6.1819899, 49.6844012], [6.18252, 49.6843842], [6.182913, 49.6843869], [6.1839231, 49.6844178], [6.1850532, 49.6844653], [6.1861866, 49.6844735], [6.1877643, 49.6844874], [6.1877633, 49.6844607], [6.1880186, 49.684438], [6.1882517, 49.6844188], [6.1885341, 49.6843978], [6.1887433, 49.6843794], [6.1899969, 49.6842755], [6.1902272, 49.6842571], [6.1905653, 49.6842352], [6.1913536, 49.683867], [6.1919302, 49.6835999], [6.1924552, 49.6833607], [6.192539, 49.6833149], [6.1926195, 49.6832738], [6.1926942, 49.6832438], [6.1928089, 49.683193], [6.193001, 49.6830995], [6.1931564, 49.6830193], [6.1937201, 49.6827113], [6.1946589, 49.6831089], [6.1953737, 49.683403], [6.1963412, 49.6838103], [6.1976675, 49.6843589], [6.1986018, 49.6847525], [6.1980784, 49.6856732], [6.1970239, 49.6862006], [6.1966918, 49.6863737], [6.1962753, 49.6879082], [6.1977375, 49.6882641], [6.1981469, 49.6882751], [6.1999991, 49.6883077], [6.2001875, 49.6883046], [6.2012954, 49.6882633], [6.2031004, 49.6881748], [6.2035209, 49.6881556], [6.2040202, 49.6881285], [6.2043287, 49.6881133], [6.2043807, 49.6881173], [6.2058896, 49.688322], [6.2067492, 49.6884325], [6.2076008, 49.688534], [6.2092317, 49.6887318], [6.2103293, 49.6888667], [6.2110552, 49.6889527], [6.2117248, 49.6890276], [6.2120151, 49.6890626], [6.2123934, 49.6888371], [6.2128001, 49.6886038], [6.2129912, 49.6884977], [6.2130987, 49.688435], [6.2136583, 49.6876182], [6.2141463, 49.6870183], [6.214477, 49.6866237], [6.2144306, 49.6864924], [6.2142882, 49.6860142], [6.2141994, 49.6857241], [6.2147495, 49.6850241], [6.2147707, 49.6849972], [6.2148057, 49.6849577], [6.2144624, 49.6843226], [6.2143771, 49.6842007], [6.214302, 49.6841112], [6.2141872, 49.6840073], [6.2140194, 49.68387], [6.2138716, 49.6837636], [6.2136738, 49.6836633], [6.2134335, 49.6835291], [6.212811, 49.683245], [6.2126257, 49.6831401], [6.212493, 49.6830291], [6.2124504, 49.6829643], [6.2124102, 49.6828424], [6.2124076, 49.682688], [6.2125096, 49.6821166], [6.212492, 49.6820255], [6.2123948, 49.6818461], [6.2120792, 49.6814789], [6.2118513, 49.6812923], [6.2115394, 49.6810977], [6.2111639, 49.6809158], [6.2108385, 49.6808001], [6.210458, 49.6807293], [6.2101978, 49.6806954], [6.2091851, 49.6806666], [6.2090024, 49.6806436], [6.2082351, 49.6803712], [6.2081074, 49.6803018], [6.2079146, 49.6801645], [6.2071189, 49.679417], [6.2070072, 49.6793331], [6.206897, 49.6792637], [6.2067769, 49.6792097], [6.2065892, 49.6791635], [6.2056957, 49.6789755], [6.2056129, 49.6788871], [6.2054025, 49.678722], [6.2052574, 49.6786464], [6.2042287, 49.678389], [6.2039859, 49.6782888], [6.2037506, 49.67815], [6.2035407, 49.6779923], [6.2033554, 49.6778179], [6.2032051, 49.6775926], [6.2030848, 49.6773519], [6.2029198, 49.6769627], [6.202842, 49.6766], [6.2028392, 49.676134], [6.2028066, 49.6759781], [6.2026838, 49.6757621], [6.2023633, 49.6754257], [6.2020766, 49.675131], [6.2018488, 49.6749582], [6.2007358, 49.6743052], [6.2001325, 49.6738948], [6.1999147, 49.6737205], [6.1994797, 49.6733344], [6.1986997, 49.6724449], [6.1985074, 49.6722161], [6.1984098, 49.6720541], [6.1982621, 49.671763], [6.1981619, 49.6715254], [6.1981099, 49.6712521], [6.1978185, 49.6706892], [6.1975812, 49.6702975], [6.1973899, 49.6700301], [6.1972943, 49.6699167], [6.1971815, 49.6698276], [6.1970075, 49.6697218], [6.1968736, 49.6696608], [6.1956435, 49.6692213], [6.1954094, 49.6691134], [6.1948188, 49.6687931], [6.1944977, 49.6685847], [6.1942165, 49.6684057], [6.1935965, 49.6680159], [6.1932911, 49.6678295], [6.1930852, 49.6677071], [6.1928622, 49.6675787], [6.1927372, 49.6674911], [6.1925828, 49.6673566], [6.1924705, 49.6672514], [6.192223, 49.6670474], [6.1919173, 49.6668292], [6.1917727, 49.6667295], [6.1915228, 49.6665935], [6.1911699, 49.6664455], [6.1908157, 49.6663193], [6.1900194, 49.6660489], [6.1896706, 49.6659079], [6.1893374, 49.6657084], [6.1891879, 49.6656284], [6.1890286, 49.6655664], [6.1888547, 49.6655423], [6.1885264, 49.6655287], [6.1878208, 49.6654019], [6.187386, 49.6653056], [6.1870186, 49.6652105], [6.1866878, 49.6650896], [6.1863923, 49.6649649], [6.1860247, 49.6647942], [6.1858679, 49.6647323], [6.1857405, 49.6646839], [6.1855837, 49.6646341], [6.1854367, 49.6646069], [6.1850903, 49.6645665], [6.1838238, 49.6644654], [6.183039, 49.6643589], [6.182701, 49.664303], [6.1824241, 49.664232], [6.1820297, 49.664093], [6.1817244, 49.6639743], [6.1814892, 49.6638413], [6.1813128, 49.6637023], [6.1810777, 49.6634129], [6.1809674, 49.6632376], [6.180916, 49.6631091], [6.1809012, 49.6629656], [6.1809328, 49.6627401], [6.1810331, 49.6623728], [6.1810405, 49.6622806], [6.1810037, 49.6621658], [6.1808721, 49.6619825], [6.1806295, 49.6617408], [6.1804433, 49.6615912], [6.1802302, 49.6614385], [6.1800048, 49.6613041], [6.179837, 49.6612156], [6.1795339, 49.6610738], [6.1791525, 49.6609271], [6.1777763, 49.6604102], [6.1773641, 49.6602594], [6.1771273, 49.6601611], [6.1769064, 49.6600555], [6.1767073, 49.6599358], [6.1763721, 49.6597099], [6.1760795, 49.6595259], [6.1757125, 49.6593117], [6.1754604, 49.6591897], [6.1752695, 49.6591286], [6.1751105, 49.6590938], [6.1749733, 49.6590759], [6.1744762, 49.6589584], [6.1743057, 49.6588898], [6.1741197, 49.6588077], [6.1739856, 49.6587413], [6.1738258, 49.6586522], [6.1736476, 49.6585495], [6.1736172, 49.6585366], [6.1737594, 49.6583552], [6.1736292, 49.6580295], [6.1733765, 49.6572049], [6.1731084, 49.6563959], [6.1728301, 49.6554749], [6.1727999, 49.655363], [6.1726765, 49.6550038], [6.1725525, 49.6547594], [6.172371, 49.6545914], [6.1721026, 49.6543983], [6.1708364, 49.653586], [6.1693776, 49.6527122], [6.1685097, 49.6521991], [6.1678513, 49.6517487], [6.1666642, 49.6508899], [6.1659203, 49.6503226], [6.1656665, 49.6500551], [6.165283, 49.6492465], [6.1650623, 49.6489013], [6.1650472, 49.6487109], [6.1648448, 49.6483219], [6.1647088, 49.6479804], [6.1646332, 49.647653], [6.1646423, 49.6473414], [6.1646996, 49.6470085], [6.1647662, 49.6465718], [6.1648533, 49.6462968], [6.1650499, 49.645918], [6.165316, 49.6455579], [6.1653711, 49.6455295], [6.1654016, 49.6452845], [6.1652944, 49.6450863], [6.1651521, 49.6449584], [6.1648559, 49.6446973], [6.1635856, 49.6440029], [6.1635497, 49.6439358], [6.1629351, 49.6429575], [6.1625139, 49.6423133], [6.1619536, 49.642229], [6.1617871, 49.6422154], [6.1608578, 49.6421032], [6.1601821, 49.6420182], [6.15938, 49.6419109], [6.1585443, 49.6418224], [6.1575207, 49.6417165], [6.1573668, 49.6417025], [6.156789, 49.6416387], [6.1551845, 49.6414692], [6.1535232, 49.6412971], [6.15332, 49.6416224], [6.1532899, 49.6416516], [6.1530393, 49.641807], [6.1529599, 49.6418636], [6.152881, 49.6419249], [6.1528425, 49.6419767], [6.1528231, 49.6420124], [6.1527722, 49.6422354], [6.1526829, 49.6421352], [6.1525326, 49.6419065], [6.1524577, 49.6418926], [6.15224, 49.6418453], [6.1520233, 49.6417557], [6.1517117, 49.6417017], [6.1510494, 49.6415914], [6.150548, 49.6414749], [6.1502362, 49.6414207], [6.1499421, 49.641619], [6.1498436, 49.6416831], [6.1496023, 49.6416929], [6.149264, 49.6417042], [6.1491079, 49.641713], [6.1490228, 49.6417234], [6.148938, 49.6417403], [6.1488643, 49.6417616], [6.1488102, 49.6417841], [6.148765, 49.6418092], [6.1487198, 49.6418424], [6.1490358, 49.6418855], [6.1491836, 49.6419125], [6.1493267, 49.6419496], [6.1495633, 49.642023], [6.1497197, 49.6420782], [6.1498086, 49.6421124], [6.1502294, 49.6422932], [6.150406, 49.6423794], [6.1505006, 49.6424314], [6.1505884, 49.6424856], [6.1506922, 49.6425547], [6.1508212, 49.6426527], [6.1510241, 49.6428184], [6.151158, 49.6429382], [6.151229, 49.6430055], [6.1515937, 49.6434227], [6.1524265, 49.6437929], [6.1526478, 49.6438959], [6.1527425, 49.6439429], [6.1529237, 49.6440406], [6.1535416, 49.6444311], [6.1539256, 49.6446695], [6.1543828, 49.6449131], [6.1546724, 49.6450613], [6.1552118, 49.6453318], [6.1554441, 49.6454439], [6.1555341, 49.6454994], [6.1555633, 49.645532], [6.1557767, 49.64583], [6.156027, 49.6459276], [6.1565166, 49.6460952], [6.1569664, 49.6462264], [6.1573888, 49.6465017], [6.1576493, 49.6466748], [6.1574771, 49.6469237], [6.1578851, 49.6470657], [6.1588539, 49.6474116], [6.1585515, 49.6476078], [6.1585238, 49.6476316], [6.1585741, 49.6477772], [6.1587009, 49.6479269], [6.1595792, 49.6487368], [6.1597014, 49.6488578], [6.1596511, 49.6489495], [6.1594805, 49.6491695], [6.1593737, 49.6493536], [6.1596382, 49.6496114], [6.1602301, 49.6501517], [6.1604548, 49.6503682], [6.1605248, 49.6504586], [6.1605925, 49.6505962], [6.1607454, 49.6511056], [6.1608065, 49.651642], [6.1608523, 49.6518867], [6.1609484, 49.652212], [6.1609159, 49.652281], [6.1610047, 49.6526693], [6.161091, 49.6529429], [6.1608302, 49.6532817], [6.1602388, 49.6540224], [6.1598795, 49.6546325], [6.1597182, 49.6548682], [6.1600938, 49.6549797], [6.1601211, 49.6553171], [6.1601257, 49.6554056], [6.1602431, 49.6557442], [6.1604907, 49.6559013], [6.160617, 49.655987], [6.1606988, 49.6561696], [6.1610211, 49.6569276], [6.1610402, 49.6570097], [6.161005, 49.6570405], [6.1610885, 49.6571095], [6.1617152, 49.6573817], [6.1619214, 49.6576864], [6.1622447, 49.6581705], [6.1627667, 49.6585908], [6.1634195, 49.6591107], [6.163798, 49.6594089], [6.164078, 49.6597949], [6.1643682, 49.6602002], [6.1644584, 49.660213], [6.1647383, 49.6608172], [6.1647265, 49.660944], [6.1647219, 49.6610243], [6.1647335, 49.6611146], [6.1647614, 49.6612508], [6.1647984, 49.6613504], [6.164889, 49.6615469], [6.1649704, 49.6616817], [6.165025, 49.6617546], [6.1649821, 49.6618479], [6.1642634, 49.6616171], [6.1635562, 49.6613835], [6.1628855, 49.6611662], [6.1622169, 49.6609452], [6.1617438, 49.660794], [6.1616994, 49.6607826], [6.1610411, 49.6606476], [6.1602752, 49.6604862], [6.1601424, 49.6604654], [6.1595427, 49.6604308], [6.1595595, 49.6604692], [6.1595708, 49.6604952], [6.1595808, 49.6607101], [6.1595916, 49.6609792], [6.1596025, 49.6611867], [6.1596146, 49.6613276], [6.1596207, 49.661568], [6.1596352, 49.6619276], [6.1596522, 49.6622506], [6.1596619, 49.6624823], [6.1596691, 49.6626373], [6.1596715, 49.662782], [6.1596618, 49.6629759], [6.1596532, 49.66314], [6.1596435, 49.6632516], [6.1596301, 49.6633407], [6.1596083, 49.6634511], [6.1595743, 49.6635731], [6.1595185, 49.6637371], [6.159476, 49.663879], [6.15946, 49.6639255], [6.1594444, 49.6639711], [6.1594068, 49.6640943], [6.1593616, 49.6642136], [6.1593203, 49.6642923], [6.1593019, 49.6644163], [6.1592628, 49.6646801], [6.1592224, 49.6649561], [6.1591725, 49.6652961], [6.1590504, 49.6661682], [6.1590175, 49.6663997], [6.1589671, 49.6667543], [6.1589056, 49.6672456], [6.1588482, 49.6677776], [6.1587584, 49.6683308], [6.1587463, 49.6684981], [6.158729, 49.6687372], [6.1587119, 49.6688498], [6.1587273, 49.6688639], [6.158776, 49.668916], [6.1587308, 49.6690592], [6.1587059, 49.6693971], [6.1586289, 49.6693833], [6.1572523, 49.6691754], [6.1568502, 49.6691275], [6.1567968, 49.6691212], [6.1564376, 49.6690785], [6.1553891, 49.6689616], [6.1548459, 49.6688525], [6.1544312, 49.6687682], [6.1539871, 49.6686563], [6.1530749, 49.6684365], [6.1514723, 49.6680434], [6.1511043, 49.6679613], [6.1507688, 49.6678864], [6.1496369, 49.6676713], [6.1482652, 49.6674031], [6.1480415, 49.6673594], [6.1475622, 49.6672657], [6.1472573, 49.667208], [6.1472278, 49.667204], [6.1469412, 49.6671643], [6.146486, 49.6671034], [6.146089, 49.667055], [6.1456806, 49.6670074], [6.1453338, 49.6669693], [6.1452559, 49.6669657], [6.144516, 49.6669999], [6.1441666, 49.6670486], [6.1441367, 49.6668281], [6.1441212, 49.6667135], [6.1440949, 49.6664372], [6.1440789, 49.6662698], [6.1440689, 49.6661652], [6.144048, 49.6658932], [6.144037, 49.6657223], [6.1440295, 49.6656054], [6.1435663, 49.6656254], [6.1433357, 49.6656354], [6.1433167, 49.6655857], [6.1430385, 49.6656356], [6.1429853, 49.6656451], [6.1428146, 49.6656813], [6.1427126, 49.6656947], [6.1426623, 49.6657004], [6.1425937, 49.6657075], [6.1425283, 49.6657149], [6.1424643, 49.6657226], [6.1424315, 49.6657283], [6.1423001, 49.6657518], [6.1421862, 49.6657707], [6.1421189, 49.6657814], [6.1419211, 49.6658138], [6.1418775, 49.6658212], [6.1419273, 49.6660111], [6.1419701, 49.6661741], [6.1420276, 49.6663572], [6.1420398, 49.66641], [6.1420456, 49.666431], [6.1420725, 49.6664941], [6.1420803, 49.6665148], [6.142103, 49.6665753], [6.1421081, 49.6665902], [6.1421197, 49.6666236], [6.1421281, 49.6666478], [6.1418017, 49.6666933], [6.1416527, 49.6667141], [6.1414564, 49.6667415], [6.1413477, 49.6667564], [6.1412604, 49.6667686], [6.1411687, 49.6667815], [6.1410189, 49.6668025], [6.1406071, 49.6668595], [6.1404218, 49.6668856], [6.1402742, 49.6669063], [6.1401252, 49.6669271], [6.1401103, 49.666929], [6.1399888, 49.6669443], [6.139725, 49.6669776], [6.1396166, 49.6669909], [6.1396312, 49.6670713], [6.1396434, 49.6671126], [6.1396724, 49.66721], [6.1397089, 49.6673331], [6.139733, 49.6674143], [6.1399, 49.6679643], [6.1398407, 49.667972], [6.1397379, 49.6679854], [6.1395971, 49.6680107], [6.139491, 49.6680344], [6.1392042, 49.668074], [6.1391211, 49.6680843], [6.1388093, 49.6681099], [6.1387461, 49.668112], [6.1386119, 49.6681249], [6.1385657, 49.6681293], [6.1383778, 49.6681473], [6.1383461, 49.6681503], [6.1380668, 49.668177], [6.1373386, 49.6682625], [6.1372945, 49.6682676], [6.137236, 49.6682746], [6.1367377, 49.6683338], [6.136446, 49.6683685], [6.1363922, 49.6683749], [6.1363719, 49.6683774], [6.1360545, 49.6684176], [6.1355948, 49.668476], [6.1355774, 49.6684783], [6.1355026, 49.6684881], [6.1351918, 49.6685272], [6.1350674, 49.6685234], [6.1349958, 49.6685543], [6.1349829, 49.6685599], [6.1345433, 49.668624], [6.1345062, 49.6686294], [6.1343389, 49.6686538], [6.1334874, 49.6687817], [6.1331548, 49.6688317], [6.1329829, 49.6688578], [6.132739, 49.6688948], [6.1324018, 49.668946], [6.1322984, 49.6689619], [6.1321501, 49.6689847], [6.1320646, 49.6689978], [6.1320842, 49.6690532], [6.1311556, 49.6692225], [6.1309774, 49.6692546], [6.1308898, 49.6692702], [6.1308098, 49.6692853], [6.130566, 49.6693293], [6.1305393, 49.6693341], [6.13046, 49.6693486], [6.1304517, 49.669331], [6.1303144, 49.6690372], [6.1302574, 49.6689841], [6.1302175, 49.6689124], [6.1301506, 49.6687755], [6.130141, 49.6687524], [6.1298068, 49.6692819], [6.1284924, 49.669577], [6.1278524, 49.6701474], [6.128136, 49.6709832], [6.1292971, 49.6727861], [6.1294186, 49.6730226], [6.1297378, 49.6736442], [6.1297263, 49.6747675], [6.1298604, 49.6755636], [6.1301097, 49.6762353], [6.1303126, 49.6765431], [6.131765, 49.6776664], [6.1326272, 49.6785342], [6.1327115, 49.6794319], [6.1330372, 49.6804162], [6.132562, 49.680927], [6.1311365, 49.6825164], [6.1318071, 49.6838751], [6.1314316, 49.6844156], [6.1314431, 49.6848246], [6.1316117, 49.6856155], [6.1320715, 49.6863196], [6.1325583, 49.686865]]]}}]}