{"type": "FeatureCollection", "features": [{"type": "Feature", "properties": {"name": "Réserve naturelle Lalléngerbierg - Brucherbierg", "kind": "nature_reserve"}, "geometry": {"type": "Polygon", "coordinates": [[[6.0280698, 49.504478], [6.0275298, 49.5042032], [6.0276116, 49.5040612], [6.0278235, 49.5038252], [6.0280006, 49.503651], [6.0281682, 49.5035056], [6.0281977, 49.5034586], [6.0282393, 49.5034342], [6.0282909, 49.5034281], [6.028368, 49.5034307], [6.0284981, 49.5034176], [6.0289916, 49.5032809], [6.0293256, 49.5032356], [6.0297936, 49.5032347], [6.0301986, 49.503199], [6.0304628, 49.5031625], [6.0307887, 49.5030623], [6.031018, 49.5029761], [6.0312957, 49.5028507], [6.0308405, 49.5022874], [6.0318165, 49.50172], [6.032194, 49.501896], [6.0323544, 49.501957], [6.032966, 49.501477], [6.0331134, 49.5012192], [6.0329115, 49.5009123], [6.0328717, 49.5008746], [6.0328124, 49.5008092], [6.0326654, 49.5007455], [6.0314608, 49.5000237], [6.0314019, 49.4999863], [6.0313413, 49.5000388], [6.0312185, 49.5001617], [6.0295939, 49.4994398], [6.0295321, 49.4994827], [6.0298198, 49.4996325], [6.0297494, 49.4996878], [6.0294704, 49.4995541], [6.0290694, 49.4998154], [6.0289179, 49.4997875], [6.0279086, 49.4992454], [6.0280949, 49.499082], [6.0271656, 49.4983917], [6.0269303, 49.4983307], [6.0269035, 49.4979201], [6.027102, 49.4977633], [6.0274413, 49.4976945], [6.0277535, 49.4967487], [6.0277125, 49.4967003], [6.027562, 49.496786], [6.0274951, 49.4967365], [6.0275495, 49.4966444], [6.0277563, 49.4965297], [6.0271657, 49.4963029], [6.0261488, 49.4958895], [6.0260789, 49.4957953], [6.0259108, 49.4957546], [6.0257733, 49.4957214], [6.0252152, 49.4955863], [6.0240083, 49.4954365], [6.0238045, 49.4953019], [6.0237753, 49.4952413], [6.0213337, 49.4951257], [6.0208807, 49.4951558], [6.0200345, 49.4949815], [6.0197426, 49.4950317], [6.0186182, 49.4946917], [6.0183093, 49.494491], [6.0181376, 49.494307], [6.0180496, 49.4940875], [6.0179128, 49.4939377], [6.0176325, 49.4937965], [6.0176484, 49.493638], [6.01782, 49.4935767], [6.0180947, 49.4936882], [6.0188242, 49.4938889], [6.0194165, 49.4939446], [6.0202576, 49.4939558], [6.0208756, 49.4939223], [6.0214195, 49.4937933], [6.0217285, 49.4935815], [6.021677, 49.4931076], [6.0218596, 49.4930927], [6.020599, 49.4918627], [6.0195277, 49.4921593], [6.0180061, 49.4909283], [6.0178992, 49.4908528], [6.0176239, 49.4910366], [6.0166592, 49.4908072], [6.0164252, 49.4908156], [6.0153168, 49.4910876], [6.0151773, 49.4909198], [6.0147927, 49.4907728], [6.0147612, 49.4906718], [6.0148795, 49.4905877], [6.0141349, 49.4903034], [6.0147992, 49.489954], [6.0152842, 49.489785], [6.0155605, 49.4896604], [6.0155363, 49.489528], [6.0156557, 49.4894897], [6.0156369, 49.4894235], [6.0159549, 49.4893761], [6.0160017, 49.4892231], [6.016222, 49.4891882], [6.0162039, 49.4890398], [6.0153026, 49.4891252], [6.0147634, 49.4893061], [6.0140838, 49.4894598], [6.0136761, 49.4893646], [6.0124347, 49.4889064], [6.0118726, 49.4884425], [6.0117406, 49.4881885], [6.0117792, 49.4881308], [6.0116695, 49.4879411], [6.0115109, 49.4878904], [6.0115633, 49.487727], [6.0116908, 49.4878056], [6.0117615, 49.4877582], [6.0122642, 49.4867834], [6.012366, 49.486322], [6.0123904, 49.4862144], [6.0126851, 49.4863282], [6.0132363, 49.4869441], [6.0140035, 49.4870016], [6.0143682, 49.4870364], [6.014725, 49.4870451], [6.014788, 49.4870173], [6.0149847, 49.4864123], [6.0150307, 49.4863316], [6.0150196, 49.486327], [6.0134622, 49.4856772], [6.0132306, 49.4855856], [6.0132039, 49.4855764], [6.012942, 49.4854865], [6.0127665, 49.4854418], [6.0125779, 49.4854011], [6.0123096, 49.485355], [6.0107097, 49.4851825], [6.0102698, 49.4851093], [6.0098232, 49.4850065], [6.0093243, 49.4848645], [6.0091344, 49.4853531], [6.0090717, 49.4854387], [6.0081609, 49.485401], [6.0074131, 49.4853323], [6.0069195, 49.4853428], [6.006544, 49.4854264], [6.0062945, 49.4856985], [6.0056834, 49.4863651], [6.0047487, 49.4873166], [6.0045625, 49.4876779], [6.0044317, 49.4878164], [6.0044125, 49.4879032], [6.0043562, 49.4881252], [6.0042743, 49.488327], [6.0042228, 49.4885946], [6.0042486, 49.4887786], [6.0042743, 49.4889236], [6.0043716, 49.4890332], [6.0043824, 49.4891787], [6.0046863, 49.489509], [6.0049383, 49.4896984], [6.0049558, 49.4898188], [6.0048811, 49.4899324], [6.0045524, 49.4900705], [6.0040872, 49.4901763], [6.0035614, 49.4902425], [6.0030835, 49.4901808], [6.0005736, 49.4917041], [6.0001257, 49.4919411], [5.9998293, 49.4920064], [5.9996013, 49.4921066], [5.9993262, 49.4923322], [5.9980614, 49.4929686], [5.9979066, 49.493025], [5.9978118, 49.4930596], [5.9946717, 49.4942126], [5.9944093, 49.4944633], [5.9943216, 49.494547], [5.9942338, 49.494639], [5.9937569, 49.4948773], [5.9932944, 49.4950613], [5.9931748, 49.4950413], [5.9926752, 49.4955557], [5.9925847, 49.4956524], [5.992, 49.4962016], [5.9932766, 49.496876], [5.993269, 49.496975], [5.9932804, 49.49706], [5.9932957, 49.497116], [5.9933224, 49.49717], [5.9933567, 49.497227], [5.9935017, 49.497395], [5.993643, 49.49755], [5.993826, 49.497715], [5.994482, 49.498245], [5.994898, 49.498604], [5.995146, 49.49884], [5.9956417, 49.499268], [5.9958134, 49.49938], [5.99597, 49.499485], [5.996416, 49.499737], [5.9966717, 49.499866], [5.996935, 49.499973], [5.99716, 49.499653], [5.997568, 49.499767], [5.9973354, 49.500122], [5.9973392, 49.500153], [5.9975224, 49.50022], [5.9977474, 49.500305], [5.997919, 49.500366], [5.9980946, 49.500416], [5.998205, 49.500443], [5.998316, 49.50046], [5.9985485, 49.500507], [5.998602, 49.500515], [6.0001798, 49.5013208], [6.0011148, 49.5003959], [6.0018292, 49.500714], [6.002174, 49.5003897], [6.0032259, 49.5008639], [6.0052098, 49.4988503], [6.0053136, 49.4990062], [6.0055801, 49.4996205], [6.0058447, 49.5002431], [6.005901, 49.5005165], [6.0059412, 49.5011453], [6.0059922, 49.5013527], [6.0060026, 49.5015251], [6.0060054, 49.5015865], [6.0060282, 49.5016171], [6.0060383, 49.5016314], [6.0063327, 49.5020496], [6.006618, 49.502413], [6.0067481, 49.5025732], [6.006798, 49.5026347], [6.0070145, 49.5029007], [6.0070505, 49.5029526], [6.0083008, 49.5027701], [6.0082233, 49.5026746], [6.0071521, 49.5009216], [6.0070869, 49.5005803], [6.006909, 49.4999513], [6.0066838, 49.4993987], [6.0065894, 49.4991925], [6.0065207, 49.4990308], [6.0064435, 49.4988524], [6.0062653, 49.4985054], [6.0060936, 49.4982894], [6.0058951, 49.498096], [6.0056698, 49.4979218], [6.0054968, 49.4977511], [6.0053413, 49.4975743], [6.0052018, 49.4973339], [6.0051522, 49.4970264], [6.0050918, 49.4967494], [6.0050355, 49.4964411], [6.0050663, 49.4963427], [6.0051709, 49.4962521], [6.0053372, 49.4962338], [6.0054874, 49.4962773], [6.0070002, 49.4975734], [6.007601, 49.4975699], [6.0082787, 49.4973871], [6.0088713, 49.4967459], [6.0093964, 49.4961776], [6.0102088, 49.4945396], [6.0102571, 49.4944751], [6.0103483, 49.494422], [6.0104763, 49.4943845], [6.0106131, 49.4943958], [6.0107298, 49.4944455], [6.0108344, 49.4945396], [6.0110664, 49.494807], [6.0111965, 49.4949969], [6.0112354, 49.4951206], [6.0112502, 49.4952643], [6.0112475, 49.4956249], [6.011163, 49.496138], [6.0110181, 49.496617], [6.0103054, 49.4981953], [6.0100767, 49.4987423], [6.0100686, 49.4987625], [6.0101216, 49.498802], [6.0125738, 49.5007073], [6.0124417, 49.5008697], [6.0147079, 49.500292], [6.0149963, 49.4997481], [6.0151112, 49.4995741], [6.0151729, 49.4994949], [6.0152252, 49.4994609], [6.0153016, 49.4994383], [6.015417, 49.4994304], [6.0157134, 49.4994548], [6.0158649, 49.4994818], [6.0160004, 49.4995271], [6.0164799, 49.4997819], [6.0168432, 49.500031], [6.0169297, 49.5000741], [6.0170344, 49.5001185], [6.0172959, 49.5001934], [6.0177262, 49.5002917], [6.0179745, 49.5003284], [6.0181113, 49.500358], [6.0183769, 49.5004531], [6.0184797, 49.5004906], [6.0187858, 49.5003876], [6.0202265, 49.5006947], [6.0213209, 49.5011068], [6.0224135, 49.5014171], [6.0228601, 49.5014458], [6.0224245, 49.5015016], [6.0221911, 49.5016867], [6.0217531, 49.5020686], [6.0217711, 49.5023777], [6.0219374, 49.5027313], [6.0221627, 49.502983], [6.0224485, 49.5032161], [6.0226415, 49.5033554], [6.0229217, 49.5034857], [6.0228805, 49.5035527], [6.0227649, 49.5037407], [6.0231069, 49.5039889], [6.0236332, 49.5041114], [6.0235119, 49.5043138], [6.0234033, 49.5045498], [6.0234306, 49.5046012], [6.0236174, 49.5047023], [6.0233939, 49.5047101], [6.0234026, 49.504744], [6.0236721, 49.5047762], [6.0244158, 49.5049522], [6.0255168, 49.5050297], [6.0257998, 49.5049374], [6.0260975, 49.504899], [6.0271905, 49.5050706], [6.0279188, 49.5051168], [6.0282943, 49.5051163], [6.0284611, 49.5051645], [6.0283675, 49.5048907], [6.0280698, 49.504478]]]}}]}