{"type": "FeatureCollection", "features": [{"type": "Feature", "properties": {"name": "Parc Terrain AS", "kind": "park"}, "geometry": {"type": "Polygon", "coordinates": [[[5.9027494, 49.5225889], [5.9026898, 49.5226067], [5.9024625, 49.522608], [5.9024631, 49.5226498], [5.9022633, 49.5226319], [5.902264, 49.5225899], [5.9019881, 49.522589], [5.9018836, 49.5225879], [5.9017369, 49.5225836], [5.9017938, 49.5223071], [5.900847, 49.5224668], [5.9008623, 49.5225071], [5.9009438, 49.5228665], [5.9010016, 49.5230078], [5.9010133, 49.5230391], [5.9015452, 49.522994], [5.9018996, 49.5229642], [5.902517, 49.5229092], [5.9025121, 49.5227525], [5.9027555, 49.5227704], [5.9027608, 49.5227386], [5.9028044, 49.5227434], [5.9028159, 49.5226423], [5.9028218, 49.5226028], [5.9027742, 49.5226002], [5.9027494, 49.5225889]]]}}]}