{"type": "FeatureCollection", "features": [{"type": "Feature", "properties": {"name": "Parc de la Chiers", "kind": "park"}, "geometry": {"type": "Polygon", "coordinates": [[[5.8947283, 49.5201551], [5.8953526, 49.5206444], [5.8953962, 49.5206792], [5.8956114, 49.5208903], [5.8957294, 49.5209427], [5.8958125, 49.5210065], [5.8958333, 49.5210224], [5.8958541, 49.5210384], [5.895863, 49.521095], [5.8961445, 49.5211881], [5.896168, 49.5211872], [5.8962096, 49.521162], [5.8962163, 49.5211376], [5.8961646, 49.5210575], [5.8960155, 49.5206655], [5.8959983, 49.5206439], [5.8959695, 49.5206339], [5.8959588, 49.5206117], [5.8960587, 49.5205887], [5.8961512, 49.5205325], [5.8962706, 49.5204898], [5.8962669, 49.5204774], [5.896402, 49.5204539], [5.8964043, 49.5204602], [5.8964483, 49.5204557], [5.8964536, 49.5204644], [5.8964838, 49.520455], [5.8964487, 49.5202618], [5.8962157, 49.519997], [5.8960304, 49.5197424], [5.8958328, 49.5194691], [5.8958426, 49.5194482], [5.895461, 49.5191552], [5.8953226, 49.5190488], [5.8943367, 49.5180172], [5.8942549, 49.5181104], [5.8938504, 49.5176306], [5.8938204, 49.517595], [5.8935649, 49.5177047], [5.8931725, 49.5172331], [5.8924181, 49.5174106], [5.8923906, 49.5173613], [5.8923589, 49.5173676], [5.8921853, 49.5170125], [5.891998, 49.516622], [5.8918878, 49.5166588], [5.8917651, 49.5167152], [5.8916332, 49.5167887], [5.8916056, 49.5168484], [5.8915217, 49.5169211], [5.8914674, 49.5169933], [5.8914379, 49.5170848], [5.8914356, 49.5171572], [5.8914375, 49.5172058], [5.8914629, 49.5172977], [5.8914929, 49.5173859], [5.8915052, 49.5174414], [5.891509, 49.5174606], [5.8921292, 49.5174845], [5.8922131, 49.5174879], [5.8922779, 49.5177136], [5.8924337, 49.5180042], [5.892659, 49.5181539], [5.8929124, 49.5183516], [5.8936207, 49.5188139], [5.8939089, 49.5190333], [5.8942254, 49.5194869], [5.8944601, 49.519749], [5.894737, 49.5199749], [5.8947628, 49.520134], [5.8947283, 49.5201551]]]}}]}