{"type": "FeatureCollection", "features": [{"type": "Feature", "properties": {"name": "Parc de la Grève 1942", "kind": "park"}, "geometry": {"type": "Polygon", "coordinates": [[[5.8955016, 49.522887], [5.8954849, 49.5229503], [5.8954415, 49.5230013], [5.8954762, 49.52303], [5.8955446, 49.523084], [5.8955797, 49.5231257], [5.8956517, 49.5231313], [5.8955834, 49.5233316], [5.895309, 49.5233806], [5.8952474, 49.5233819], [5.8951778, 49.5233767], [5.8950983, 49.5233574], [5.8950267, 49.5233354], [5.8949432, 49.523307], [5.8948657, 49.5232851], [5.8948279, 49.5232645], [5.894804, 49.5232412], [5.8947861, 49.5232141], [5.8947762, 49.5231819], [5.8947643, 49.5231457], [5.8947702, 49.5231122], [5.8947881, 49.523067], [5.894808, 49.5230283], [5.8948238, 49.5229993], [5.8948363, 49.522981], [5.8948483, 49.5229743], [5.8948614, 49.5229715], [5.8948996, 49.5229679], [5.8949897, 49.5229641], [5.8951143, 49.5229548], [5.8953064, 49.5229262], [5.89538, 49.5229118], [5.8955016, 49.522887]]]}}]}