{"type": "FeatureCollection", "features": [{"type": "Feature", "properties": {"name": "Parc Gerlache", "kind": "park"}, "geometry": {"type": "Polygon", "coordinates": [[[5.8895635, 49.5239832], [5.8894958, 49.5240185], [5.8895721, 49.5240702], [5.889741, 49.5241846], [5.8897832, 49.524213], [5.8898534, 49.5241707], [5.8900603, 49.5242372], [5.8902077, 49.5242846], [5.8903456, 49.5243291], [5.890443, 49.5243603], [5.8905542, 49.5243974], [5.8906355, 49.5244231], [5.8907669, 49.5241373], [5.8908927, 49.5236501], [5.8903255, 49.5235613], [5.8895691, 49.5233846], [5.8895186, 49.5233952], [5.8894826, 49.5234202], [5.8895635, 49.5239832]]]}}]}