{"type": "FeatureCollection", "features": [{"type": "Feature", "properties": {"name": "Park Um Bierg", "kind": "park"}, "geometry": {"type": "Polygon", "coordinates": [[[5.8737843, 49.5084269], [5.8738755, 49.5085018], [5.8739626, 49.5086542], [5.8740297, 49.5089799], [5.8741142, 49.5091706], [5.8742295, 49.5093343], [5.8743124, 49.5094476], [5.8737775, 49.5102495], [5.8736944, 49.5102348], [5.8734316, 49.5101829], [5.8731627, 49.5100897], [5.8731941, 49.5100584], [5.8727487, 49.5098808], [5.8730069, 49.5095262], [5.8732997, 49.5091163], [5.8737843, 49.5084269]]]}}]}