{"type": "FeatureCollection", "features": [{"type": "Feature", "properties": {"name": "Réserve naturelle Prënzebierg", "kind": "nature_reserve"}, "geometry": {"type": "Polygon", "coordinates": [[[5.8752461, 49.5374921], [5.875238, 49.5375461], [5.8752085, 49.5375996], [5.8751835, 49.537625], [5.8750865, 49.5376736], [5.8749765, 49.5376849], [5.8747009, 49.5376923], [5.8745226, 49.5376675], [5.8741323, 49.5375243], [5.8736864, 49.5373585], [5.8734359, 49.5372831], [5.8732104, 49.5372353], [5.8729504, 49.5372085], [5.8726903, 49.5372372], [5.872588, 49.5372913], [5.871626, 49.537952], [5.8715534, 49.53794], [5.8715, 49.537933], [5.8714551, 49.5379309], [5.8714123, 49.537933], [5.8713436, 49.537945], [5.871271, 49.53796], [5.871168, 49.53799], [5.870867, 49.53811], [5.870344, 49.538372], [5.869646, 49.538692], [5.8679256, 49.53951], [5.8677024, 49.5395569], [5.8661576, 49.5396548], [5.8658819, 49.5396947], [5.8655579, 49.5398119], [5.8652522, 49.539979], [5.8650926, 49.5400826], [5.8639312, 49.5409698], [5.8637884, 49.5411097], [5.8637803, 49.5412831], [5.8637515, 49.5424209], [5.863722, 49.5425801], [5.863663, 49.5427098], [5.8633827, 49.5432406], [5.8632365, 49.5434477], [5.8631127, 49.5435851], [5.8637829, 49.5439027], [5.8641625, 49.5441043], [5.8643436, 49.5442035], [5.864768, 49.5444546], [5.8649273, 49.5445581], [5.8651266, 49.5446974], [5.8645058, 49.545249], [5.8642329, 49.5454467], [5.8651583, 49.545249], [5.8654267, 49.5452273], [5.8653648, 49.5452764], [5.8654547, 49.5453108], [5.8655195, 49.5453526], [5.8654011, 49.5454447], [5.8653822, 49.5454631], [5.8651128, 49.5456501], [5.8653823, 49.5457781], [5.8657217, 49.5456002], [5.8658049, 49.5456832], [5.8658203, 49.5458708], [5.8658449, 49.5461696], [5.8667354, 49.5465812], [5.8671382, 49.5467465], [5.867418, 49.5468736], [5.8675522, 49.5469537], [5.8675991, 49.5470007], [5.8676508, 49.5470491], [5.8676099, 49.5471516], [5.8677777, 49.547249], [5.8679519, 49.5472483], [5.8678755, 49.5473255], [5.8677962, 49.5474005], [5.8679036, 49.5474494], [5.8679404, 49.5474666], [5.8680165, 49.5473827], [5.8683729, 49.5478978], [5.8687044, 49.5486763], [5.8699043, 49.5487268], [5.8698884, 49.548767], [5.8698682, 49.549062], [5.8697591, 49.5491465], [5.8697516, 49.5491777], [5.8697786, 49.5492247], [5.8698804, 49.5492659], [5.8700225, 49.5492364], [5.8700775, 49.5492055], [5.869994, 49.5495118], [5.8699621, 49.5498738], [5.8699674, 49.5499903], [5.8699876, 49.5503393], [5.8700064, 49.5504245], [5.8700868, 49.5506577], [5.8701686, 49.5508089], [5.8706903, 49.551044], [5.8709747, 49.5510945], [5.8716582, 49.5510579], [5.8718149, 49.5510689], [5.872153, 49.5511226], [5.8723807, 49.5511499], [5.8725523, 49.5511554], [5.8725176, 49.551253], [5.8730145, 49.5512285], [5.8742831, 49.5511394], [5.8749295, 49.5510371], [5.8760983, 49.5508163], [5.8771037, 49.5508252], [5.8771216, 49.5507594], [5.877178, 49.5505525], [5.8771881, 49.5505104], [5.8773062, 49.550019], [5.8773349, 49.5499802], [5.8791797, 49.5502898], [5.8793224, 49.5503029], [5.8821917, 49.5505668], [5.8826253, 49.5504453], [5.8830869, 49.5504995], [5.883648, 49.5503836], [5.8845949, 49.5500856], [5.8845446, 49.5499973], [5.8845399, 49.5499195], [5.8843904, 49.5498346], [5.8844046, 49.5496226], [5.8846197, 49.5497782], [5.8847008, 49.5497605], [5.8848564, 49.5495605], [5.8851662, 49.5496728], [5.8853974, 49.5496279], [5.8853831, 49.549718], [5.8852594, 49.5498797], [5.8852883, 49.5499213], [5.8853214, 49.5499626], [5.8853365, 49.5499815], [5.8850556, 49.550234], [5.8851875, 49.5503401], [5.8853078, 49.5502806], [5.8854469, 49.550156], [5.8857098, 49.5496265], [5.885818, 49.5493255], [5.8857849, 49.5490999], [5.8858274, 49.5484118], [5.8854394, 49.5470064], [5.8850462, 49.5470881], [5.8850048, 49.5473035], [5.8846566, 49.5473613], [5.8835332, 49.5473233], [5.8828832, 49.5471121], [5.8834891, 49.54677], [5.8846434, 49.5448686], [5.88491, 49.5439563], [5.8855711, 49.5439962], [5.8855741, 49.5439709], [5.885577, 49.5439464], [5.8856613, 49.5432411], [5.8858709, 49.5425969], [5.8859489, 49.5422], [5.8860206, 49.5415361], [5.8858927, 49.5415438], [5.8848403, 49.5415924], [5.8846546, 49.5416939], [5.8845226, 49.5416912], [5.8844219, 49.5414776], [5.8843642, 49.5410746], [5.8844072, 49.5408501], [5.8845611, 49.5407533], [5.884957, 49.5405042], [5.8862112, 49.5403833], [5.8864912, 49.5402418], [5.8866128, 49.5405419], [5.8866368, 49.5406012], [5.8867051, 49.5407274], [5.8867085, 49.5407526], [5.8872982, 49.540735], [5.8879323, 49.5407161], [5.8891491, 49.540647], [5.8891438, 49.5405629], [5.8891299, 49.5403358], [5.8891287, 49.5403105], [5.8887926, 49.5402396], [5.8888006, 49.5400782], [5.8893827, 49.539892], [5.8896106, 49.5394499], [5.8896375, 49.5390922], [5.8895986, 49.5389251], [5.8894256, 49.538671], [5.8887547, 49.5385556], [5.8885489, 49.5385247], [5.8878114, 49.5384091], [5.8877747, 49.5383794], [5.8877431, 49.5383539], [5.8880941, 49.538232], [5.8884071, 49.5381033], [5.8884226, 49.5377629], [5.8863773, 49.5374819], [5.8861219, 49.5374109], [5.8857878, 49.5373812], [5.8856908, 49.5373562], [5.8857389, 49.5372715], [5.8865234, 49.5360348], [5.8866374, 49.5360496], [5.886687, 49.5360191], [5.8868828, 49.5354377], [5.8869016, 49.5352819], [5.8870545, 49.5350478], [5.8870123, 49.5348929], [5.8863289, 49.5344503], [5.8824773, 49.5339315], [5.8825273, 49.533767], [5.8822507, 49.5337362], [5.8819972, 49.533697], [5.88182, 49.5337013], [5.881741, 49.5336848], [5.881682, 49.5336544], [5.8816579, 49.5336074], [5.8800016, 49.533153], [5.8794246, 49.5330049], [5.8791684, 49.5329602], [5.8790546, 49.5329181], [5.8788854, 49.5328876], [5.8787329, 49.5328536], [5.8786331, 49.5328211], [5.8785452, 49.5327866], [5.8784577, 49.5327433], [5.8783846, 49.5326983], [5.8782154, 49.5325778], [5.87806, 49.5324605], [5.8778204, 49.532295], [5.877694, 49.5322124], [5.8775168, 49.5321043], [5.8774061, 49.5320454], [5.8772015, 49.5319471], [5.8770829, 49.5318871], [5.8769621, 49.5318241], [5.876855, 49.5317598], [5.8767835, 49.5317116], [5.8767145, 49.5316625], [5.8765895, 49.5315712], [5.8764764, 49.5314802], [5.8762451, 49.5312944], [5.8759984, 49.5311981], [5.8758415, 49.5311842], [5.8757249, 49.5312616], [5.8756337, 49.5313417], [5.8751482, 49.5317264], [5.8745514, 49.5321825], [5.8741544, 49.5325024], [5.8741023, 49.5325927], [5.8739862, 49.5327149], [5.8739394, 49.5327532], [5.87385, 49.5328136], [5.8736845, 49.5329775], [5.8738218, 49.533066], [5.8728683, 49.5340295], [5.8726805, 49.5342384], [5.8725887, 49.5344219], [5.8726156, 49.5344796], [5.8727394, 49.5347109], [5.8729018, 49.5349095], [5.873041, 49.5352019], [5.8730755, 49.5352745], [5.8731052, 49.5353373], [5.8731416, 49.5354224], [5.8732384, 49.5356484], [5.8733404, 49.5357693], [5.873516, 49.5358902], [5.8738886, 49.5360937], [5.87412, 49.536245], [5.8746422, 49.5367224], [5.874837, 49.536936], [5.8749502, 49.5371046], [5.8749962, 49.5371731], [5.8752461, 49.5374921]]]}}]}