{"type": "FeatureCollection", "features": [{"type": "Feature", "properties": {"name": "Steinsel"}, "geometry": {"type": "MultiPolygon", "coordinates": [[[[6.082193, 49.67469], [6.082228, 49.674873], [6.082251, 49.675007], [6.082266, 49.675064], [6.082274, 49.675095], [6.082277, 49.675117], [6.082338, 49.675167], [6.082418, 49.67524], [6.082464, 49.675304], [6.082495, 49.675392], [6.082514, 49.67549], [6.082533, 49.67557], [6.082583, 49.675625], [6.082655, 49.67568], [6.082693, 49.67571], [6.082743, 49.67579], [6.082739, 49.675858], [6.082674, 49.676006], [6.082651, 49.67609], [6.082663, 49.676178], [6.082727, 49.676296], [6.082735, 49.676346], [6.082697, 49.676468], [6.082686, 49.67655], [6.082716, 49.67663], [6.082804, 49.676697], [6.082949, 49.676743], [6.083078, 49.676765], [6.083166, 49.6768], [6.083281, 49.67696], [6.083372, 49.677017], [6.083487, 49.67707], [6.083635, 49.677124], [6.083731, 49.677135], [6.083952, 49.677143], [6.084063, 49.67718], [6.084116, 49.67723], [6.084154, 49.677296], [6.084158, 49.67736], [6.084139, 49.6774], [6.084093, 49.67742], [6.083979, 49.677456], [6.083948, 49.677475], [6.083952, 49.677498], [6.083967, 49.677525], [6.084261, 49.677696], [6.084513, 49.677814], [6.084635, 49.67786], [6.084684, 49.67786], [6.084784, 49.67782], [6.084867, 49.677788], [6.084959, 49.677784], [6.085051, 49.67781], [6.085115, 49.67787], [6.085165, 49.677994], [6.085218, 49.678143], [6.085276, 49.678192], [6.085371, 49.678223], [6.08592, 49.67833], [6.086172, 49.67842], [6.086466, 49.67859], [6.08663, 49.67866], [6.086828, 49.678715], [6.086954, 49.678776], [6.087103, 49.67896], [6.087553, 49.679256], [6.087782, 49.679474], [6.087973, 49.679714], [6.088194, 49.680058], [6.088259, 49.680294], [6.088327, 49.680695], [6.088297, 49.68086], [6.088137, 49.681244], [6.088114, 49.68138], [6.088167, 49.68153], [6.088293, 49.68165], [6.08853, 49.681828], [6.088659, 49.681957], [6.088762, 49.682133], [6.088922, 49.682495], [6.089167, 49.68295], [6.089464, 49.68351], [6.089632, 49.68383], [6.089727, 49.684116], [6.089788, 49.684364], [6.089968, 49.68458], [6.090063, 49.68478], [6.090139, 49.68507], [6.090147, 49.685333], [6.090219, 49.685318], [6.091001, 49.68517], [6.091456, 49.68509], [6.091509, 49.685078], [6.091604, 49.68506], [6.091661, 49.68505], [6.091723, 49.68504], [6.09178, 49.685028], [6.091898, 49.68501], [6.091944, 49.684998], [6.092337, 49.684925], [6.092882, 49.68483], [6.092962, 49.684814], [6.093409, 49.684742], [6.093741, 49.684834], [6.094328, 49.68499], [6.094465, 49.685024], [6.094843, 49.685127], [6.095255, 49.68524], [6.095659, 49.685364], [6.096079, 49.685482], [6.096701, 49.685665], [6.096979, 49.68575], [6.097341, 49.685856], [6.097986, 49.686043], [6.09823, 49.686115], [6.098467, 49.686188], [6.098612, 49.686245], [6.098883, 49.686363], [6.099157, 49.686478], [6.099382, 49.686573], [6.099546, 49.68664], [6.099722, 49.686714], [6.10013, 49.686893], [6.100718, 49.687172], [6.100819, 49.68722], [6.100973, 49.687294], [6.101084, 49.68736], [6.101141, 49.68735], [6.101439, 49.687515], [6.101725, 49.687675], [6.101988, 49.687817], [6.102282, 49.687946], [6.102755, 49.688145], [6.103361, 49.688393], [6.103819, 49.688576], [6.104361, 49.688778], [6.104727, 49.68892], [6.104933, 49.68899], [6.105066, 49.689064], [6.105066, 49.68916], [6.105074, 49.68929], [6.105074, 49.68941], [6.105284, 49.68939], [6.105421, 49.689373], [6.105493, 49.689365], [6.105555, 49.68936], [6.105646, 49.68935], [6.105669, 49.689346], [6.105795, 49.68933], [6.10581, 49.689327], [6.10589, 49.68932], [6.10597, 49.68931], [6.106051, 49.689297], [6.106306, 49.689823], [6.10644, 49.68979], [6.106577, 49.68975], [6.106687, 49.689724], [6.10679, 49.689697], [6.106978, 49.68965], [6.107019, 49.689644], [6.107206, 49.68999], [6.10734, 49.689987], [6.107767, 49.690086], [6.10811, 49.69016], [6.108473, 49.69024], [6.108854, 49.690308], [6.109175, 49.69036], [6.109465, 49.690403], [6.109919, 49.690456], [6.110197, 49.690487], [6.110308, 49.690495], [6.110388, 49.690502], [6.110628, 49.690517], [6.11093, 49.690533], [6.1112, 49.690556], [6.111227, 49.690556], [6.111296, 49.690563], [6.111475, 49.69058], [6.11162, 49.69059], [6.111712, 49.690598], [6.111753, 49.6906], [6.111788, 49.690605], [6.112028, 49.690624], [6.112162, 49.69063], [6.11223, 49.69064], [6.112326, 49.690655], [6.112459, 49.69069], [6.112589, 49.690712], [6.112894, 49.690746], [6.113577, 49.690826], [6.113768, 49.691338], [6.11389, 49.691307], [6.114065, 49.691265], [6.114233, 49.691223], [6.114344, 49.691196], [6.114397, 49.691185], [6.114481, 49.691162], [6.114504, 49.69116], [6.114649, 49.691124], [6.114714, 49.691105], [6.114752, 49.691097], [6.114821, 49.69108], [6.114916, 49.69105], [6.115042, 49.691017], [6.115126, 49.69099], [6.115259, 49.690952], [6.115419, 49.6909], [6.11556, 49.690857], [6.115725, 49.6909], [6.115744, 49.690903], [6.115873, 49.690937], [6.116354, 49.69107], [6.116797, 49.691196], [6.11698, 49.69132], [6.117609, 49.691765], [6.117777, 49.691883], [6.117994, 49.69205], [6.118086, 49.69198], [6.118166, 49.69195], [6.1182, 49.691944], [6.118231, 49.691936], [6.118269, 49.69194], [6.118296, 49.69194], [6.118502, 49.69196], [6.11857, 49.691963], [6.11862, 49.69196], [6.118685, 49.69195], [6.11878, 49.691933], [6.118799, 49.69195], [6.118837, 49.69199], [6.118875, 49.692024], [6.119001, 49.692116], [6.11941, 49.69144], [6.119505, 49.691284], [6.119551, 49.69119], [6.119604, 49.691074], [6.119619, 49.69101], [6.119635, 49.690937], [6.119631, 49.690887], [6.119619, 49.690823], [6.1196, 49.690765], [6.11949, 49.690502], [6.119684, 49.69045], [6.11976, 49.690426], [6.119982, 49.690353], [6.120119, 49.690304], [6.120184, 49.69028], [6.120249, 49.690254], [6.12034, 49.69022], [6.120413, 49.69019], [6.120478, 49.690166], [6.120565, 49.690132], [6.12068, 49.690083], [6.120806, 49.690033], [6.121023, 49.69026], [6.121126, 49.690395], [6.121191, 49.6905], [6.12126, 49.69064], [6.121328, 49.690845], [6.121386, 49.691067], [6.121466, 49.691055], [6.121485, 49.691055], [6.121664, 49.691036], [6.121695, 49.691032], [6.121836, 49.691017], [6.121881, 49.69101], [6.121984, 49.690998], [6.122, 49.690998], [6.122099, 49.690987], [6.122202, 49.690975], [6.122255, 49.690968], [6.122435, 49.69095], [6.122629, 49.690926], [6.122683, 49.690918], [6.122793, 49.690907], [6.122953, 49.690887], [6.123064, 49.690876], [6.123148, 49.69087], [6.123251, 49.690853], [6.123503, 49.690826], [6.123625, 49.69081], [6.124033, 49.69096], [6.124205, 49.69103], [6.124338, 49.691093], [6.12459, 49.69125], [6.12475, 49.69136], [6.124817, 49.691416], [6.125227, 49.691757], [6.125799, 49.69225], [6.125845, 49.692287], [6.125868, 49.692307], [6.125876, 49.692238], [6.12591, 49.691708], [6.12591, 49.691643], [6.127607, 49.69154], [6.127554, 49.69131], [6.127527, 49.6912], [6.127478, 49.690968], [6.127443, 49.69082], [6.127756, 49.690796], [6.127989, 49.69078], [6.128286, 49.690765], [6.128321, 49.69076], [6.128553, 49.690746], [6.128935, 49.69075], [6.129026, 49.690754], [6.129259, 49.690758], [6.129576, 49.690765], [6.129621, 49.69077], [6.129664, 49.690445], [6.129671, 49.690407], [6.129675, 49.690357], [6.13069, 49.690403], [6.130716, 49.69025], [6.130754, 49.69], [6.130979, 49.690014], [6.131151, 49.69002], [6.131491, 49.69004], [6.131597, 49.689987], [6.131746, 49.689972], [6.133066, 49.689857], [6.133078, 49.689854], [6.133036, 49.689766], [6.133608, 49.68971], [6.133978, 49.68967], [6.134527, 49.689613], [6.134504, 49.689526], [6.134638, 49.68952], [6.134729, 49.68952], [6.134737, 49.689613], [6.134989, 49.689613], [6.134996, 49.689762], [6.135286, 49.68961], [6.135405, 49.689564], [6.135523, 49.689514], [6.13571, 49.689484], [6.135725, 49.68943], [6.135725, 49.689384], [6.135706, 49.689304], [6.135675, 49.689236], [6.135637, 49.689186], [6.135584, 49.689144], [6.135523, 49.68911], [6.135462, 49.68907], [6.135389, 49.68901], [6.135313, 49.68896], [6.135248, 49.68891], [6.135141, 49.688854], [6.135046, 49.68881], [6.134955, 49.688778], [6.134844, 49.688732], [6.134752, 49.68868], [6.134691, 49.68865], [6.134646, 49.688625], [6.134603, 49.688618], [6.134451, 49.688618], [6.134367, 49.688614], [6.134275, 49.688606], [6.134066, 49.688583], [6.133886, 49.688557], [6.133764, 49.688457], [6.133696, 49.688374], [6.133669, 49.688263], [6.133661, 49.688164], [6.133665, 49.688114], [6.133772, 49.68807], [6.133844, 49.68802], [6.13394, 49.68795], [6.133982, 49.687912], [6.134005, 49.68788], [6.13402, 49.68784], [6.134016, 49.68778], [6.133993, 49.687717], [6.133944, 49.687664], [6.133871, 49.68759], [6.133799, 49.687534], [6.133741, 49.687504], [6.133665, 49.68747], [6.133558, 49.687435], [6.133455, 49.68741], [6.133184, 49.68737], [6.132559, 49.686863], [6.132677, 49.68684], [6.133165, 49.68674], [6.133303, 49.686714], [6.133734, 49.686634], [6.134119, 49.68656], [6.134153, 49.686558], [6.1345, 49.686493], [6.135019, 49.686398], [6.134962, 49.686317], [6.134821, 49.68612], [6.134497, 49.685677], [6.13434, 49.685467], [6.134611, 49.685444], [6.135096, 49.6854], [6.135515, 49.685356], [6.135378, 49.685287], [6.13521, 49.685204], [6.135138, 49.685165], [6.134878, 49.685028], [6.13468, 49.68492], [6.13463, 49.684895], [6.134569, 49.684856], [6.13452, 49.684826], [6.1345, 49.68479], [6.13447, 49.684742], [6.134432, 49.684673], [6.134401, 49.684574], [6.134344, 49.684315], [6.134325, 49.684235], [6.134249, 49.683903], [6.134153, 49.683483], [6.134115, 49.683304], [6.134088, 49.68319], [6.134058, 49.683044], [6.134077, 49.682976], [6.134096, 49.6829], [6.134218, 49.682903], [6.134382, 49.682903], [6.134375, 49.682926], [6.13481, 49.682877], [6.134813, 49.682846], [6.134829, 49.682808], [6.135393, 49.682766], [6.136126, 49.68271], [6.136843, 49.682644], [6.136904, 49.68264], [6.137209, 49.682613], [6.137533, 49.682583], [6.137812, 49.68256], [6.137987, 49.68254], [6.138083, 49.682533], [6.138205, 49.68252], [6.138266, 49.682842], [6.138304, 49.683], [6.138365, 49.683224], [6.138449, 49.683212], [6.138468, 49.68321], [6.138662, 49.68318], [6.138773, 49.68317], [6.138967, 49.68314], [6.139151, 49.683113], [6.139166, 49.683113], [6.139433, 49.68307], [6.139444, 49.683067], [6.13954, 49.683052], [6.139578, 49.683044], [6.139624, 49.683037], [6.139738, 49.683018], [6.139852, 49.682995], [6.140081, 49.682953], [6.140192, 49.68293], [6.140207, 49.682926], [6.140329, 49.682903], [6.140509, 49.68287], [6.140551, 49.68286], [6.140696, 49.682835], [6.140722, 49.68283], [6.140814, 49.682816], [6.140966, 49.682785], [6.141035, 49.682774], [6.141169, 49.68275], [6.141245, 49.682735], [6.141256, 49.68273], [6.141771, 49.68264], [6.142092, 49.682747], [6.142256, 49.682854], [6.142462, 49.683], [6.142675, 49.683147], [6.142725, 49.683098], [6.14279, 49.683018], [6.142843, 49.68297], [6.142893, 49.68293], [6.142916, 49.682915], [6.143, 49.68287], [6.143145, 49.682724], [6.14324, 49.68263], [6.143335, 49.682545], [6.143358, 49.68252], [6.143827, 49.68222], [6.143866, 49.682198], [6.144327, 49.68178], [6.145128, 49.68168], [6.145483, 49.68163], [6.146223, 49.681557], [6.146791, 49.681496], [6.146952, 49.681477], [6.146978, 49.681473], [6.147013, 49.681465], [6.147181, 49.681446], [6.147287, 49.68143], [6.147505, 49.681404], [6.14768, 49.68138], [6.147844, 49.68136], [6.147963, 49.681343], [6.148092, 49.68138], [6.148214, 49.681408], [6.148264, 49.68142], [6.148352, 49.68143], [6.148432, 49.681446], [6.148527, 49.681458], [6.148615, 49.68147], [6.148687, 49.681477], [6.148844, 49.68149], [6.148916, 49.6815], [6.149221, 49.681534], [6.14929, 49.68154], [6.149458, 49.681557], [6.149565, 49.68157], [6.149729, 49.681587], [6.150065, 49.68162], [6.150259, 49.68164], [6.150358, 49.681652], [6.150499, 49.681667], [6.150633, 49.681683], [6.150759, 49.681694], [6.150869, 49.68171], [6.150995, 49.68172], [6.15114, 49.68174], [6.151213, 49.681747], [6.151602, 49.681793], [6.151724, 49.68181], [6.151819, 49.68182], [6.152086, 49.68185], [6.152193, 49.681866], [6.152414, 49.681892], [6.153383, 49.682014], [6.153597, 49.682037], [6.153704, 49.682045], [6.153746, 49.68205], [6.153818, 49.682053], [6.154077, 49.682068], [6.154203, 49.68207], [6.154455, 49.682068], [6.154635, 49.682064], [6.154779, 49.682064], [6.155016, 49.68205], [6.155611, 49.68201], [6.155691, 49.682007], [6.155909, 49.68199], [6.155958, 49.682087], [6.15597, 49.682106], [6.156053, 49.682262], [6.156126, 49.6824], [6.156691, 49.682358], [6.157213, 49.682327], [6.157419, 49.68232], [6.157473, 49.68232], [6.157538, 49.682316], [6.157671, 49.682312], [6.158243, 49.682316], [6.158525, 49.682312], [6.158918, 49.682304], [6.15917, 49.682297], [6.159239, 49.682293], [6.159433, 49.682285], [6.159822, 49.682262], [6.160036, 49.68225], [6.160341, 49.68223], [6.160414, 49.682228], [6.16049, 49.682358], [6.160551, 49.682415], [6.160707, 49.682537], [6.161165, 49.682877], [6.161505, 49.683113], [6.161932, 49.68339], [6.16247, 49.683746], [6.163038, 49.684155], [6.163713, 49.684612], [6.164, 49.684822], [6.164106, 49.68485], [6.164667, 49.68497], [6.164904, 49.68502], [6.165686, 49.68518], [6.165998, 49.685246], [6.166292, 49.685307], [6.166834, 49.685425], [6.167292, 49.685528], [6.167894, 49.68567], [6.168318, 49.685764], [6.16894, 49.685925], [6.168985, 49.68594], [6.169031, 49.68595], [6.169081, 49.685963], [6.169298, 49.68602], [6.169664, 49.685974], [6.17013, 49.685913], [6.170626, 49.685852], [6.171514, 49.68574], [6.17227, 49.68565], [6.172674, 49.685596], [6.173017, 49.68556], [6.17322, 49.685535], [6.173368, 49.685654], [6.173414, 49.6857], [6.173494, 49.685772], [6.173563, 49.685825], [6.173605, 49.685852], [6.173662, 49.685886], [6.173769, 49.685947], [6.174036, 49.686123], [6.174105, 49.68617], [6.174433, 49.686375], [6.174734, 49.686565], [6.174932, 49.686687], [6.175253, 49.68669], [6.175684, 49.68669], [6.175634, 49.68678], [6.175592, 49.68685], [6.175673, 49.686844], [6.175863, 49.68682], [6.17605, 49.686802], [6.176222, 49.686787], [6.176401, 49.686775], [6.176619, 49.686764], [6.176718, 49.686764], [6.177027, 49.686756], [6.177336, 49.68675], [6.177694, 49.686745], [6.177992, 49.686737], [6.178114, 49.686733], [6.178236, 49.686733], [6.178389, 49.68672], [6.178476, 49.686714], [6.178553, 49.686707], [6.178652, 49.68669], [6.17877, 49.686672], [6.178835, 49.686665], [6.179068, 49.686626], [6.179171, 49.68661], [6.179281, 49.686596], [6.179399, 49.68658], [6.179483, 49.68657], [6.179602, 49.686554], [6.179674, 49.686546], [6.179827, 49.686528], [6.179869, 49.686523], [6.179831, 49.686447], [6.179754, 49.6863], [6.179602, 49.68599], [6.179136, 49.685074], [6.178987, 49.684765], [6.178965, 49.684723], [6.17898, 49.684708], [6.179049, 49.684654], [6.179163, 49.68461], [6.179323, 49.684555], [6.17943, 49.684532], [6.179617, 49.68452], [6.179808, 49.684517], [6.179827, 49.684475], [6.179853, 49.68445], [6.179888, 49.68443], [6.179933, 49.68441], [6.179953, 49.684395], [6.179964, 49.684364], [6.17996, 49.68434], [6.179945, 49.684303], [6.179914, 49.684277], [6.179869, 49.684254], [6.179827, 49.684246], [6.179796, 49.684227], [6.179777, 49.684208], [6.179766, 49.68419], [6.179754, 49.684162], [6.179754, 49.68413], [6.17975, 49.68409], [6.179735, 49.684055], [6.179709, 49.684025], [6.179693, 49.684], [6.179689, 49.683968], [6.179693, 49.683933], [6.179712, 49.683884], [6.179705, 49.683697], [6.179686, 49.683613], [6.179709, 49.683613], [6.180334, 49.683662], [6.180593, 49.683937], [6.180819, 49.684177], [6.180895, 49.684265], [6.180986, 49.684254], [6.181051, 49.684376], [6.181467, 49.68439], [6.18199, 49.6844], [6.18252, 49.684383], [6.182913, 49.684387], [6.183924, 49.684418], [6.185053, 49.684464], [6.18619, 49.68447], [6.187765, 49.684486], [6.187765, 49.68446], [6.188021, 49.684437], [6.188253, 49.684418], [6.188536, 49.6844], [6.188745, 49.68438], [6.189444, 49.684322], [6.189997, 49.684273], [6.190229, 49.684258], [6.190565, 49.684235], [6.190851, 49.6841], [6.191355, 49.683865], [6.191931, 49.683598], [6.192457, 49.68336], [6.192541, 49.683315], [6.192621, 49.683273], [6.192694, 49.683243], [6.192812, 49.683193], [6.193003, 49.683098], [6.193159, 49.683018], [6.193296, 49.682945], [6.193396, 49.682888], [6.19372, 49.68271], [6.194658, 49.68311], [6.195375, 49.683403], [6.196341, 49.68381], [6.19731, 49.68421], [6.197668, 49.684357], [6.198603, 49.684753], [6.19808, 49.685673], [6.197023, 49.6862], [6.196692, 49.68637], [6.196573, 49.68682], [6.196466, 49.687202], [6.196348, 49.68765], [6.196283, 49.68789], [6.196276, 49.68791], [6.197378, 49.688175], [6.197741, 49.688263], [6.198149, 49.688274], [6.199133, 49.688293], [6.199999, 49.688305], [6.20019, 49.688305], [6.20035, 49.688297], [6.200884, 49.68828], [6.201185, 49.688267], [6.201296, 49.688263], [6.202089, 49.688225], [6.2031, 49.688175], [6.203524, 49.688156], [6.204328, 49.688114], [6.204382, 49.688118], [6.20471, 49.68816], [6.205893, 49.68832], [6.206751, 49.68843], [6.207601, 49.688534], [6.207739, 49.68855], [6.209234, 49.688732], [6.210329, 49.688866], [6.210497, 49.688885], [6.211058, 49.688953], [6.211725, 49.689026], [6.212015, 49.68906], [6.212393, 49.688835], [6.212873, 49.688689], [6.212992, 49.688496], [6.213099, 49.688435], [6.213179, 49.688316], [6.213316, 49.688118], [6.213388, 49.688015], [6.213763, 49.687644], [6.214008, 49.687486], [6.214251, 49.687076], [6.214479, 49.686623], [6.214434, 49.686493], [6.214373, 49.6863], [6.214289, 49.686012], [6.214201, 49.685722], [6.214483, 49.685364], [6.21475, 49.685024], [6.214773, 49.684998], [6.214723, 49.684896], [6.214464, 49.684322], [6.21438, 49.6842], [6.214304, 49.68411], [6.214189, 49.684006], [6.214022, 49.68387], [6.213873, 49.68376], [6.213674, 49.683662], [6.213434, 49.68353], [6.212812, 49.683243], [6.212625, 49.68314], [6.212496, 49.68303], [6.21245, 49.682964], [6.212412, 49.682842], [6.212408, 49.682686], [6.212511, 49.682117], [6.212492, 49.682026], [6.212397, 49.681847], [6.21208, 49.681477], [6.211851, 49.68129], [6.211542, 49.681095], [6.211164, 49.680916], [6.21084, 49.680798], [6.210459, 49.68073], [6.210199, 49.680695], [6.209185, 49.680664], [6.209005, 49.68064], [6.208235, 49.68037], [6.208109, 49.6803], [6.207914, 49.680164], [6.207121, 49.679417], [6.20701, 49.679333], [6.2069, 49.679264], [6.206778, 49.67921], [6.206591, 49.67916], [6.205698, 49.678974], [6.205614, 49.678886], [6.205404, 49.678722], [6.205259, 49.678646], [6.204229, 49.678387], [6.203989, 49.678288], [6.203753, 49.67815], [6.203543, 49.67799], [6.203356, 49.67782], [6.203207, 49.677593], [6.203085, 49.677353], [6.202921, 49.67696], [6.202845, 49.676598], [6.202845, 49.67643], [6.202841, 49.676132], [6.202807, 49.675976], [6.202684, 49.675762], [6.202364, 49.675426], [6.202078, 49.67513], [6.201849, 49.674957], [6.201208, 49.67458], [6.200739, 49.674305], [6.200491, 49.674137], [6.200132, 49.673893], [6.199915, 49.67372], [6.19948, 49.673332], [6.19895, 49.67273], [6.198702, 49.672443], [6.198507, 49.672215], [6.198412, 49.672054], [6.198263, 49.67176], [6.198164, 49.671524], [6.198111, 49.67125], [6.19795, 49.670944], [6.197821, 49.67069], [6.197584, 49.670296], [6.19739, 49.67003], [6.197294, 49.669914], [6.197184, 49.669827], [6.197008, 49.66972], [6.196875, 49.66966], [6.196306, 49.669456], [6.195646, 49.66922], [6.19541, 49.669113], [6.194819, 49.668793], [6.194498, 49.668583], [6.19422, 49.668404], [6.193598, 49.668015], [6.193293, 49.667828], [6.193087, 49.667706], [6.192862, 49.66758], [6.19274, 49.667492], [6.192583, 49.667355], [6.192473, 49.66725], [6.192225, 49.667046], [6.191919, 49.66683], [6.191774, 49.66673], [6.191523, 49.66659], [6.191172, 49.666443], [6.190817, 49.666317], [6.19002, 49.666046], [6.189673, 49.66591], [6.189337, 49.665707], [6.189188, 49.665627], [6.189032, 49.665565], [6.188856, 49.665543], [6.188528, 49.665527], [6.187822, 49.6654], [6.187387, 49.665306], [6.187021, 49.66521], [6.186689, 49.66509], [6.186392, 49.664963], [6.186026, 49.664795], [6.185869, 49.66473], [6.185743, 49.664684], [6.185583, 49.664635], [6.185438, 49.664604], [6.185091, 49.664566], [6.183825, 49.664463], [6.183039, 49.664356], [6.182703, 49.664303], [6.182424, 49.66423], [6.182032, 49.664093], [6.181726, 49.663975], [6.18149, 49.66384], [6.181315, 49.6637], [6.181078, 49.66341], [6.180967, 49.66324], [6.180918, 49.66311], [6.180902, 49.662964], [6.180933, 49.66274], [6.181036, 49.662373], [6.181044, 49.66228], [6.181006, 49.662167], [6.180872, 49.661983], [6.180632, 49.66174], [6.180445, 49.66159], [6.180231, 49.661438], [6.180006, 49.661304], [6.179838, 49.661213], [6.17956, 49.661095], [6.179178, 49.660957], [6.17848, 49.66071], [6.177805, 49.66047], [6.177393, 49.660328], [6.177156, 49.660236], [6.176939, 49.660137], [6.176741, 49.660023], [6.176405, 49.659805], [6.176111, 49.659626], [6.175741, 49.65942], [6.175489, 49.659306], [6.175299, 49.65925], [6.175142, 49.659218], [6.175005, 49.659203], [6.174498, 49.6591], [6.174326, 49.659035], [6.174139, 49.658955], [6.173998, 49.65889], [6.173643, 49.6587], [6.173616, 49.658684], [6.173758, 49.65848], [6.173643, 49.65816], [6.173395, 49.65738], [6.173109, 49.656395], [6.172831, 49.655476], [6.1728, 49.65536], [6.172678, 49.655003], [6.172552, 49.65476], [6.172373, 49.65459], [6.172106, 49.654396], [6.170839, 49.653584], [6.169378, 49.65271], [6.168512, 49.6522], [6.167852, 49.65175], [6.166666, 49.65089], [6.165922, 49.650322], [6.165667, 49.650055], [6.165285, 49.649246], [6.165064, 49.6489], [6.165049, 49.64871], [6.164846, 49.64832], [6.164709, 49.64798], [6.164633, 49.64765], [6.164644, 49.64734], [6.164701, 49.647007], [6.164766, 49.646572], [6.164854, 49.646297], [6.165052, 49.645916], [6.165316, 49.645557], [6.165407, 49.6454], [6.165419, 49.6452], [6.165346, 49.64488], [6.165213, 49.644733], [6.164911, 49.644485], [6.163629, 49.643852], [6.163591, 49.643787], [6.162973, 49.642838], [6.162554, 49.642185], [6.161978, 49.642162], [6.16181, 49.64216], [6.161737, 49.64215], [6.161512, 49.642128], [6.161207, 49.6421], [6.16086, 49.642067], [6.160513, 49.64203], [6.160181, 49.641994], [6.15938, 49.64191], [6.159147, 49.641884], [6.158544, 49.641823], [6.158094, 49.641773], [6.157522, 49.641716], [6.15737, 49.6417], [6.15679, 49.641636], [6.156416, 49.641598], [6.156286, 49.641586], [6.156099, 49.641563], [6.154966, 49.641445], [6.1541, 49.641357], [6.153524, 49.641296], [6.153406, 49.64149], [6.153322, 49.64162], [6.153292, 49.64165], [6.153246, 49.641678], [6.153074, 49.641785], [6.15304, 49.641808], [6.152986, 49.64184], [6.152956, 49.641865], [6.152906, 49.641903], [6.152868, 49.641953], [6.152849, 49.64199], [6.152826, 49.642082], [6.152803, 49.64218], [6.152796, 49.642216], [6.152708, 49.642113], [6.152559, 49.641884], [6.152483, 49.64187], [6.152266, 49.641823], [6.152048, 49.64173], [6.151514, 49.64164], [6.151075, 49.641563], [6.150549, 49.641476], [6.150236, 49.64142], [6.150053, 49.64154], [6.149942, 49.641617], [6.149843, 49.64168], [6.149603, 49.641693], [6.149263, 49.641705], [6.149111, 49.641712], [6.149023, 49.641724], [6.148939, 49.64174], [6.148867, 49.64176], [6.148813, 49.641785], [6.148767, 49.641808], [6.148722, 49.64184], [6.149038, 49.641884], [6.149183, 49.64191], [6.149328, 49.64195], [6.149443, 49.641983], [6.149565, 49.64202], [6.149721, 49.64208], [6.149809, 49.642113], [6.150087, 49.64223], [6.150232, 49.642292], [6.150408, 49.64238], [6.150503, 49.64243], [6.150591, 49.642487], [6.150694, 49.642555], [6.150824, 49.64265], [6.150969, 49.642773], [6.151026, 49.64282], [6.151159, 49.642937], [6.151232, 49.643005], [6.151369, 49.64316], [6.151487, 49.6433], [6.151594, 49.64342], [6.15185, 49.643536], [6.15214, 49.643665], [6.15243, 49.64379], [6.152651, 49.643894], [6.152742, 49.643944], [6.152925, 49.64404], [6.153208, 49.64422], [6.153543, 49.644432], [6.153929, 49.64467], [6.154383, 49.644913], [6.154673, 49.64506], [6.155214, 49.645332], [6.155447, 49.645443], [6.155535, 49.6455], [6.155565, 49.64553], [6.155668, 49.645676], [6.155779, 49.64583], [6.155867, 49.645863], [6.156027, 49.645927], [6.156378, 49.646046], [6.156519, 49.646095], [6.156969, 49.646225], [6.157389, 49.6465], [6.157652, 49.646675], [6.15748, 49.646923], [6.157885, 49.647064], [6.158323, 49.64722], [6.158411, 49.64725], [6.158854, 49.64741], [6.158552, 49.647606], [6.158525, 49.64763], [6.158575, 49.647778], [6.158701, 49.647926], [6.159052, 49.648247], [6.159582, 49.648735], [6.159704, 49.648857], [6.159651, 49.64895], [6.159483, 49.64917], [6.159376, 49.649353], [6.159639, 49.64961], [6.160231, 49.65015], [6.160456, 49.650368], [6.160524, 49.65046], [6.160593, 49.650597], [6.160746, 49.651104], [6.160807, 49.65164], [6.160852, 49.651886], [6.160952, 49.65221], [6.160917, 49.65228], [6.160929, 49.65234], [6.160936, 49.65237], [6.160952, 49.652424], [6.160967, 49.6525], [6.160982, 49.65256], [6.161005, 49.652668], [6.161093, 49.652943], [6.160833, 49.653282], [6.160524, 49.653667], [6.160421, 49.653793], [6.160238, 49.654022], [6.160086, 49.654285], [6.15988, 49.654633], [6.159719, 49.65487], [6.160093, 49.65498], [6.160112, 49.655174], [6.160124, 49.655315], [6.160124, 49.655357], [6.160128, 49.655403], [6.160173, 49.655537], [6.160189, 49.655586], [6.160215, 49.655663], [6.160246, 49.655743], [6.160494, 49.6559], [6.16062, 49.655987], [6.1607, 49.65617], [6.16081, 49.656425], [6.160833, 49.656483], [6.16086, 49.656548], [6.160925, 49.6567], [6.160959, 49.656776], [6.160994, 49.65686], [6.161024, 49.656925], [6.161043, 49.65701], [6.161005, 49.65704], [6.161089, 49.65711], [6.161715, 49.65738], [6.161924, 49.657684], [6.162245, 49.65817], [6.162767, 49.65859], [6.16342, 49.65911], [6.163797, 49.65941], [6.16408, 49.659794], [6.16437, 49.6602], [6.164461, 49.660213], [6.16474, 49.660816], [6.164728, 49.660942], [6.164724, 49.661022], [6.164736, 49.661114], [6.164763, 49.66125], [6.164801, 49.66135], [6.164892, 49.661545], [6.164972, 49.661682], [6.165026, 49.661755], [6.164984, 49.661846], [6.164915, 49.661827], [6.164488, 49.661686], [6.164267, 49.661617], [6.163557, 49.66138], [6.162886, 49.661167], [6.162218, 49.660946], [6.161745, 49.660793], [6.161699, 49.66078], [6.161043, 49.66065], [6.160467, 49.660526], [6.160276, 49.660484], [6.160143, 49.660465], [6.159544, 49.66043], [6.159559, 49.66047], [6.159571, 49.660496], [6.159582, 49.66071], [6.159594, 49.66098], [6.159605, 49.661186], [6.159617, 49.661327], [6.15962, 49.661568], [6.159635, 49.661926], [6.159655, 49.66225], [6.159662, 49.662483], [6.15967, 49.662636], [6.159674, 49.66278], [6.159662, 49.662975], [6.159655, 49.66314], [6.159643, 49.66325], [6.159632, 49.66334], [6.159609, 49.66345], [6.159574, 49.66357], [6.159521, 49.663734], [6.159475, 49.66388], [6.159445, 49.66397], [6.159407, 49.664093], [6.159384, 49.66417], [6.159349, 49.664207], [6.159342, 49.664238], [6.1593, 49.66453], [6.159235, 49.664955], [6.159189, 49.665268], [6.159162, 49.665398], [6.159098, 49.66585], [6.159059, 49.666145], [6.159021, 49.6664], [6.158983, 49.66672], [6.158968, 49.666866], [6.158907, 49.6674], [6.158869, 49.667755], [6.158831, 49.668003], [6.158766, 49.668495], [6.158712, 49.66885], [6.158728, 49.66886], [6.158777, 49.668915], [6.158731, 49.66906], [6.158709, 49.669395], [6.158628, 49.669384], [6.157255, 49.669174], [6.156851, 49.66913], [6.156797, 49.66912], [6.156439, 49.66908], [6.15539, 49.66896], [6.154432, 49.668766], [6.15399, 49.668655], [6.153074, 49.668434], [6.151472, 49.66804], [6.151106, 49.66796], [6.15077, 49.667885], [6.149637, 49.66767], [6.148268, 49.6674], [6.148043, 49.66736], [6.147562, 49.667263], [6.147257, 49.667206], [6.14723, 49.667202], [6.146486, 49.667103], [6.14609, 49.667053], [6.145681, 49.667007], [6.145334, 49.66697], [6.145258, 49.666965], [6.144518, 49.667], [6.144167, 49.66705], [6.144136, 49.66683], [6.144121, 49.666714], [6.144079, 49.666267], [6.144072, 49.666164], [6.144037, 49.665913], [6.144011, 49.665745], [6.143995, 49.66563], [6.143534, 49.665646], [6.143301, 49.665653], [6.143278, 49.665607], [6.143003, 49.665653], [6.14295, 49.66566], [6.142782, 49.665695], [6.142679, 49.665707], [6.142633, 49.665714], [6.142569, 49.66572], [6.142504, 49.66573], [6.142443, 49.665737], [6.142408, 49.66574], [6.142275, 49.665764], [6.14216, 49.66578], [6.142096, 49.66579], [6.141909, 49.665817], [6.141867, 49.665825], [6.141924, 49.66601], [6.14197, 49.666172], [6.142027, 49.666355], [6.142046, 49.66643], [6.142092, 49.6666], [6.142107, 49.66665], [6.142118, 49.666683], [6.141611, 49.66675], [6.141314, 49.66679], [6.141226, 49.6668], [6.141134, 49.666813], [6.140982, 49.666832], [6.14057, 49.66689], [6.140387, 49.666912], [6.140234, 49.666935], [6.140089, 49.666954], [6.140066, 49.666958], [6.139952, 49.666973], [6.139528, 49.66703], [6.139551, 49.66712], [6.139563, 49.66716], [6.139589, 49.66726], [6.139803, 49.66801], [6.139746, 49.668015], [6.139646, 49.66803], [6.139543, 49.66804], [6.139467, 49.66805], [6.139162, 49.668083], [6.139078, 49.66809], [6.138773, 49.668125], [6.13854, 49.66814], [6.138361, 49.668156], [6.138048, 49.668182], [6.137297, 49.668266], [6.137236, 49.668274], [6.13674, 49.66833], [6.136446, 49.66837], [6.136393, 49.668373], [6.136374, 49.668377], [6.136057, 49.668415], [6.135595, 49.668476], [6.13558, 49.668476], [6.135504, 49.668488], [6.135195, 49.668526], [6.135069, 49.66852], [6.134996, 49.668552], [6.134985, 49.66856], [6.13479, 49.668587], [6.134546, 49.668625], [6.134363, 49.66865], [6.133158, 49.66883], [6.132742, 49.668896], [6.132635, 49.66891], [6.132391, 49.66895], [6.132067, 49.668995], [6.132086, 49.669052], [6.131208, 49.669212], [6.130812, 49.669285], [6.130568, 49.669327], [6.130461, 49.669346], [6.130453, 49.66933], [6.130304, 49.669067], [6.130259, 49.668983], [6.13022, 49.66891], [6.130152, 49.668774], [6.13014, 49.66875], [6.130134, 49.668735], [6.130026, 49.66847], [6.129931, 49.668266], [6.129774, 49.668114], [6.129572, 49.66801], [6.129324, 49.668003], [6.128752, 49.66819], [6.128694, 49.668224], [6.128595, 49.66825], [6.127375, 49.667706], [6.126928, 49.667446], [6.126524, 49.667194], [6.126295, 49.667164], [6.126127, 49.667206], [6.125986, 49.66723], [6.125799, 49.667152], [6.12557, 49.66692], [6.125513, 49.66668], [6.125685, 49.665943], [6.12565, 49.66524], [6.125704, 49.66487], [6.125673, 49.66473], [6.125463, 49.664604], [6.125074, 49.66441], [6.124987, 49.6643], [6.125048, 49.664177], [6.125547, 49.663807], [6.125799, 49.66347], [6.125635, 49.663418], [6.125452, 49.66337], [6.125101, 49.663273], [6.124941, 49.663227], [6.125006, 49.66317], [6.124922, 49.663143], [6.124437, 49.662994], [6.124052, 49.66288], [6.123632, 49.662758], [6.123392, 49.662685], [6.123159, 49.662617], [6.122881, 49.662533], [6.122328, 49.66237], [6.122274, 49.66235], [6.122473, 49.66218], [6.122656, 49.661957], [6.122862, 49.661667], [6.122992, 49.6615], [6.123121, 49.661377], [6.123335, 49.661224], [6.123453, 49.661175], [6.123529, 49.66117], [6.123533, 49.66109], [6.123472, 49.661087], [6.123037, 49.66104], [6.122629, 49.660995], [6.12229, 49.66096], [6.121393, 49.660866], [6.120886, 49.660816], [6.120791, 49.660805], [6.120611, 49.660786], [6.120474, 49.660774], [6.120172, 49.660744], [6.120146, 49.66079], [6.120108, 49.66085], [6.119997, 49.661034], [6.119963, 49.661087], [6.119932, 49.661137], [6.119909, 49.66118], [6.11986, 49.66126], [6.119814, 49.66134], [6.119772, 49.66141], [6.119684, 49.66138], [6.119597, 49.661457], [6.119482, 49.661545], [6.119326, 49.661636], [6.119127, 49.66175], [6.119066, 49.661724], [6.119047, 49.66172], [6.118727, 49.66159], [6.118822, 49.661507], [6.118906, 49.661438], [6.118952, 49.661392], [6.119055, 49.661293], [6.119165, 49.66119], [6.119295, 49.661057], [6.11936, 49.660954], [6.119452, 49.66078], [6.119597, 49.6605], [6.119055, 49.660347], [6.118277, 49.660133], [6.117712, 49.659973], [6.11725, 49.659843], [6.117193, 49.65983], [6.117174, 49.659874], [6.116644, 49.65974], [6.116438, 49.659695], [6.116236, 49.659664], [6.116114, 49.65965], [6.115927, 49.659634], [6.115507, 49.65961], [6.115293, 49.659607], [6.115141, 49.659603], [6.114988, 49.659603], [6.114984, 49.659565], [6.114981, 49.65943], [6.114977, 49.659363], [6.114973, 49.659336], [6.114973, 49.659252], [6.114962, 49.659046], [6.114962, 49.659008], [6.114958, 49.658978], [6.114954, 49.65892], [6.114954, 49.658875], [6.11495, 49.65883], [6.114943, 49.6587], [6.114939, 49.65865], [6.114935, 49.658623], [6.114935, 49.658596], [6.114931, 49.65853], [6.114832, 49.658516], [6.114679, 49.658485], [6.114634, 49.658478], [6.114447, 49.658443], [6.114378, 49.658432], [6.114203, 49.658398], [6.114138, 49.658386], [6.114088, 49.65838], [6.113901, 49.658344], [6.113752, 49.658318], [6.113688, 49.658306], [6.113577, 49.658287], [6.113047, 49.65819], [6.113119, 49.658714], [6.11318, 49.659122], [6.113203, 49.659267], [6.113214, 49.659363], [6.112871, 49.659233], [6.112616, 49.65914], [6.112425, 49.65909], [6.112253, 49.659046], [6.112009, 49.658997], [6.111692, 49.658943], [6.111132, 49.65886], [6.110674, 49.658783], [6.11022, 49.6587], [6.109789, 49.658615], [6.108786, 49.65839], [6.108206, 49.658257], [6.107885, 49.658184], [6.107794, 49.65816], [6.107737, 49.658146], [6.107428, 49.65806], [6.10676, 49.65768], [6.106379, 49.657475], [6.106092, 49.65732], [6.105993, 49.65724], [6.105841, 49.65712], [6.1056, 49.65694], [6.105394, 49.65678], [6.104834, 49.656635], [6.104208, 49.65647], [6.104185, 49.65655], [6.104021, 49.656734], [6.103972, 49.656796], [6.103941, 49.656857], [6.103853, 49.657024], [6.103769, 49.657196], [6.103647, 49.657444], [6.10356, 49.657642], [6.103472, 49.65782], [6.103312, 49.65815], [6.103189, 49.658398], [6.103125, 49.658554], [6.103102, 49.658607], [6.103067, 49.658695], [6.102697, 49.65957], [6.102633, 49.659725], [6.102587, 49.659813], [6.102545, 49.659874], [6.102465, 49.659977], [6.102411, 49.66004], [6.102327, 49.660114], [6.102217, 49.660206], [6.102083, 49.660316], [6.102056, 49.66034], [6.102022, 49.660366], [6.102007, 49.66038], [6.101824, 49.660538], [6.101736, 49.660603], [6.101664, 49.66066], [6.101595, 49.660717], [6.101332, 49.660927], [6.101179, 49.661045], [6.101049, 49.661148], [6.100916, 49.66125], [6.100733, 49.661396], [6.100424, 49.661636], [6.100378, 49.66167], [6.100344, 49.6617], [6.100233, 49.661793], [6.10018, 49.66184], [6.100096, 49.661903], [6.099794, 49.66214], [6.099619, 49.66229], [6.099482, 49.6624], [6.099291, 49.66255], [6.098913, 49.662895], [6.098814, 49.663], [6.098619, 49.6632], [6.098467, 49.66337], [6.098108, 49.663807], [6.098047, 49.66388], [6.09794, 49.664], [6.097685, 49.664295], [6.097284, 49.665207], [6.096888, 49.6655], [6.096849, 49.66553], [6.096643, 49.6657], [6.096384, 49.665916], [6.096147, 49.666115], [6.096064, 49.666172], [6.09593, 49.666264], [6.095724, 49.666386], [6.095583, 49.666477], [6.095251, 49.6668], [6.094988, 49.667034], [6.094759, 49.66724], [6.094721, 49.66727], [6.094454, 49.667515], [6.094404, 49.66756], [6.09392, 49.66801], [6.095232, 49.66819], [6.095934, 49.668293], [6.09646, 49.668365], [6.096907, 49.66843], [6.097166, 49.668472], [6.097315, 49.668495], [6.097521, 49.668526], [6.098043, 49.66859], [6.098452, 49.66896], [6.09794, 49.66906], [6.09775, 49.669094], [6.096945, 49.669254], [6.096506, 49.669346], [6.096365, 49.66938], [6.096075, 49.669518], [6.095896, 49.66961], [6.095766, 49.66967], [6.095495, 49.669815], [6.095369, 49.669884], [6.095194, 49.669975], [6.094892, 49.67014], [6.094732, 49.670227], [6.094652, 49.670277], [6.094618, 49.6703], [6.094572, 49.67033], [6.094511, 49.67039], [6.094461, 49.67044], [6.094397, 49.670513], [6.094336, 49.67059], [6.094305, 49.67063], [6.094263, 49.67069], [6.094233, 49.67074], [6.094217, 49.670757], [6.094038, 49.67081], [6.093668, 49.670933], [6.09342, 49.67101], [6.093271, 49.67106], [6.092989, 49.671146], [6.092665, 49.67125], [6.092283, 49.67137], [6.092058, 49.671444], [6.091772, 49.671535], [6.091692, 49.671562], [6.091604, 49.671627], [6.091459, 49.671738], [6.091276, 49.67188], [6.090998, 49.672092], [6.090883, 49.67218], [6.090612, 49.672386], [6.09012, 49.672768], [6.089724, 49.67308], [6.089415, 49.67332], [6.089277, 49.673435], [6.089098, 49.673532], [6.088711, 49.673719], [6.088263, 49.67372], [6.087637, 49.673725], [6.087183, 49.67373], [6.087004, 49.673737], [6.086824, 49.67375], [6.086508, 49.67377], [6.085978, 49.673805], [6.085764, 49.67383], [6.085539, 49.673862], [6.085302, 49.673904], [6.085218, 49.673916], [6.084959, 49.67398], [6.08473, 49.674038], [6.084498, 49.6741], [6.084059, 49.674213], [6.083891, 49.674255], [6.083715, 49.6743], [6.083468, 49.674362], [6.083422, 49.674374], [6.083242, 49.674423], [6.083136, 49.674446], [6.082872, 49.674515], [6.082601, 49.674583], [6.082193, 49.67469]]]]}}]}