{"type": "FeatureCollection", "features": [{"type": "Feature", "properties": {"name": "Calmus"}, "geometry": {"type": "Polygon", "coordinates": [[[5.9710631, 49.7332573], [5.9710986, 49.733238], [5.9712175, 49.733144], [5.9713585, 49.7330326], [5.9716124, 49.732832], [5.9716656, 49.7327899], [5.9722034, 49.7323643], [5.9723785, 49.7322241], [5.9723876, 49.732215], [5.9727427, 49.7319445], [5.9729361, 49.7317971], [5.9734953, 49.7313562], [5.9739203, 49.7308456], [5.9740139, 49.7307331], [5.9742688, 49.7304085], [5.9745453, 49.730026], [5.9746068, 49.7299265], [5.9746468, 49.729843], [5.9746993, 49.729713], [5.9747214, 49.729645], [5.9747845, 49.7293846], [5.9749819, 49.7289342], [5.9750079, 49.7288747], [5.9751259, 49.7286512], [5.9751768, 49.7285394], [5.9752195, 49.7284038], [5.9752992, 49.7280799], [5.9753132, 49.7280135], [5.9753211, 49.727976], [5.9753326, 49.7279212], [5.9753414, 49.7277689], [5.9753441, 49.7276446], [5.9753472, 49.7275004], [5.9753332, 49.7271821], [5.9753152, 49.7270089], [5.9752841, 49.7268522], [5.9752425, 49.7267136], [5.9751822, 49.7265677], [5.9751007, 49.7264376], [5.975039, 49.726343], [5.9747871, 49.7260611], [5.974639, 49.7258999], [5.9743545, 49.7255681], [5.974266, 49.7254648], [5.9741976, 49.725396], [5.9741803, 49.7253786], [5.9739609, 49.7251578], [5.9733261, 49.7244139], [5.9731944, 49.7242542], [5.9725636, 49.7235566], [5.971787, 49.7226878], [5.9714105, 49.7222563], [5.9711917, 49.721748], [5.9711064, 49.7215687], [5.9709404, 49.7211996], [5.9709207, 49.7211498], [5.9708622, 49.7209347], [5.970569, 49.7209431], [5.9702844, 49.7209513], [5.9701717, 49.7209511], [5.9702585, 49.7210772], [5.9701745, 49.7210558], [5.9699229, 49.720929], [5.9695315, 49.7207268], [5.9693965, 49.7206371], [5.9691337, 49.7203925], [5.9688034, 49.7200714], [5.9685108, 49.7198252], [5.9672946, 49.7194269], [5.9667725, 49.7190213], [5.9661655, 49.7185975], [5.965198, 49.7182613], [5.965168, 49.7182455], [5.9651444, 49.7182298], [5.965124, 49.7182094], [5.9649298, 49.7178525], [5.9647515, 49.7175316], [5.9647067, 49.7174591], [5.9646831, 49.717425], [5.9646371, 49.7173791], [5.9645677, 49.7173219], [5.9642837, 49.7170715], [5.9642104, 49.7169931], [5.9637547, 49.7168172], [5.963379, 49.7166452], [5.9629051, 49.7163936], [5.9625652, 49.7161919], [5.9624369, 49.7161936], [5.9618007, 49.7159223], [5.961458, 49.7156406], [5.9612785, 49.7155199], [5.9612891, 49.7154447], [5.9609695, 49.7152597], [5.9600489, 49.7147348], [5.9596142, 49.714503], [5.9582004, 49.7138624], [5.957641, 49.7136088], [5.9571731, 49.7134142], [5.956775, 49.7132677], [5.9561595, 49.7130643], [5.955576, 49.7128976], [5.9552788, 49.7128033], [5.9551555, 49.7128162], [5.9550629, 49.7129047], [5.9546382, 49.712954], [5.954329, 49.7129898], [5.9540743, 49.7130193], [5.9540259, 49.7130198], [5.9539839, 49.7130202], [5.9538427, 49.7130179], [5.9537081, 49.7130116], [5.9534601, 49.7129949], [5.9537106, 49.7131786], [5.9538304, 49.7132617], [5.9540127, 49.7133882], [5.9541535, 49.7134866], [5.9542533, 49.7135678], [5.9543163, 49.7136342], [5.9543979, 49.7137356], [5.9540655, 49.7140897], [5.9539133, 49.7142536], [5.9538023, 49.7143732], [5.9537811, 49.7143947], [5.9537022, 49.7144748], [5.9536719, 49.7145055], [5.9536381, 49.7145353], [5.9536187, 49.7145507], [5.9535393, 49.7146131], [5.9534322, 49.7146858], [5.9533689, 49.7147287], [5.9532245, 49.7148267], [5.9531843, 49.714854], [5.9530367, 49.7149542], [5.9530569, 49.7150292], [5.9529308, 49.7152872], [5.952881, 49.7153891], [5.9527828, 49.7155996], [5.9526245, 49.7159359], [5.9524595, 49.7162864], [5.9523509, 49.7165245], [5.9522271, 49.7168416], [5.9519273, 49.7177815], [5.9516507, 49.717746], [5.9514472, 49.7177031], [5.950873, 49.7175654], [5.9508678, 49.71759], [5.9508772, 49.7176299], [5.9508748, 49.7176559], [5.9508647, 49.7176828], [5.950851, 49.7177189], [5.9497585, 49.7175818], [5.9497506, 49.7179059], [5.9500445, 49.7179346], [5.9503571, 49.7179651], [5.9505373, 49.7179826], [5.9507445, 49.7180013], [5.9507566, 49.7180024], [5.95083, 49.718009], [5.9508247, 49.7180357], [5.9508053, 49.7181756], [5.9507657, 49.7183943], [5.9506743, 49.7189204], [5.9506608, 49.7189552], [5.9505605, 49.7192145], [5.950432, 49.7194653], [5.950243, 49.7197929], [5.9501701, 49.7199129], [5.9501493, 49.7199443], [5.9501151, 49.7199935], [5.9500794, 49.7200422], [5.9500423, 49.7200905], [5.9500038, 49.7201383], [5.9499638, 49.7201856], [5.9499225, 49.7202324], [5.9498797, 49.7202787], [5.9498322, 49.7203284], [5.9498135, 49.7203467], [5.9497825, 49.7203771], [5.9497389, 49.7204168], [5.9497262, 49.7204284], [5.9496925, 49.7204566], [5.9495608, 49.7205413], [5.9495424, 49.7205532], [5.9493481, 49.7206781], [5.9492397, 49.7207375], [5.9491476, 49.720788], [5.9485704, 49.7211523], [5.9483795, 49.721294], [5.9485166, 49.7214107], [5.9485653, 49.7214521], [5.9486287, 49.7215062], [5.9490034, 49.7218254], [5.9485597, 49.7220734], [5.9484596, 49.7221293], [5.9483553, 49.7221876], [5.9482139, 49.7222666], [5.9480666, 49.722349], [5.9480447, 49.7223596], [5.9479322, 49.722414], [5.9478792, 49.7224396], [5.9476895, 49.7225313], [5.94741, 49.7226664], [5.9472893, 49.7225724], [5.947233, 49.722602], [5.9465495, 49.7229617], [5.9465294, 49.7229711], [5.9465364, 49.722993], [5.9465337, 49.7230498], [5.9465169, 49.723111], [5.9463191, 49.7234298], [5.9461596, 49.723673], [5.9461513, 49.7236649], [5.9461302, 49.723611], [5.9460926, 49.7235569], [5.9460526, 49.7235219], [5.9460196, 49.7234941], [5.9457456, 49.7236068], [5.945714, 49.7236198], [5.9449678, 49.7239267], [5.9450725, 49.7241027], [5.9451168, 49.7241737], [5.9451386, 49.7242199], [5.9451759, 49.7242987], [5.9451918, 49.7243326], [5.9452232, 49.7243997], [5.9452506, 49.7244817], [5.9452656, 49.7245507], [5.945292, 49.7246836], [5.9452918, 49.7247136], [5.9452993, 49.7248047], [5.9452996, 49.7248556], [5.9452993, 49.72493], [5.94529, 49.7249723], [5.9452766, 49.7250328], [5.9452577, 49.7250792], [5.9452267, 49.7251334], [5.9451779, 49.7252139], [5.945129, 49.7252918], [5.9451228, 49.7253078], [5.9450293, 49.7255064], [5.9450147, 49.7255374], [5.9449044, 49.7257579], [5.9448283, 49.7259177], [5.944759, 49.7260634], [5.9448232, 49.7260786], [5.9448482, 49.7260845], [5.9451471, 49.7261596], [5.9453527, 49.7262112], [5.9454294, 49.7262304], [5.9457305, 49.7262991], [5.9457745, 49.7263091], [5.9455026, 49.7266673], [5.9446821, 49.7277297], [5.94465, 49.7277377], [5.94455, 49.7277125], [5.9443649, 49.7280295], [5.9443792, 49.728033], [5.9445661, 49.7280793], [5.9448506, 49.7281547], [5.9451644, 49.7282483], [5.9453221, 49.7283005], [5.9455927, 49.7284039], [5.9457833, 49.7284852], [5.9459439, 49.7285645], [5.9462281, 49.7287109], [5.9467921, 49.7290178], [5.9468435, 49.7290458], [5.9471023, 49.7291921], [5.9471301, 49.7292093], [5.94766, 49.7283653], [5.9477556, 49.7282684], [5.9480946, 49.7279562], [5.9482634, 49.7277719], [5.9483052, 49.7277445], [5.9483692, 49.727718], [5.9484541, 49.7276925], [5.9484777, 49.7277173], [5.9484821, 49.7277466], [5.9484655, 49.7277933], [5.9484429, 49.727873], [5.9484515, 49.7279381], [5.9484185, 49.728003], [5.9483781, 49.7280634], [5.9483658, 49.7281509], [5.9483403, 49.7281866], [5.9482866, 49.7282424], [5.948276, 49.7282817], [5.9482891, 49.7283266], [5.9483349, 49.7284042], [5.9483672, 49.7285022], [5.9484042, 49.7285389], [5.9484561, 49.728572], [5.9484782, 49.7286005], [5.9484826, 49.7286325], [5.9484645, 49.7286692], [5.9484243, 49.7287007], [5.9484108, 49.7287227], [5.9484255, 49.7287483], [5.9484745, 49.7287722], [5.9485398, 49.7287907], [5.9486006, 49.7288275], [5.9486496, 49.7288468], [5.9487328, 49.7288561], [5.9488235, 49.7288627], [5.9489215, 49.7288949], [5.9489913, 49.7289116], [5.9490701, 49.728909], [5.9491474, 49.7289151], [5.9492187, 49.7289326], [5.9493775, 49.7290007], [5.949474, 49.7290274], [5.949621, 49.7290625], [5.9496908, 49.7290819], [5.9497501, 49.7291223], [5.9498553, 49.7292146], [5.9499798, 49.7293019], [5.9501088, 49.7293855], [5.9502215, 49.7294526], [5.9503415, 49.7295449], [5.9504275, 49.7295972], [5.9505358, 49.7296515], [5.9506798, 49.7297113], [5.9507525, 49.7297481], [5.9508044, 49.7297793], [5.9508784, 49.7298569], [5.9509228, 49.7299055], [5.9509688, 49.7299313], [5.9510371, 49.7299442], [5.9511039, 49.7299663], [5.9511276, 49.7299874], [5.9511507, 49.7300287], [5.9511548, 49.7300477], [5.9511519, 49.7300648], [5.9511337, 49.7300838], [5.9511099, 49.7301045], [5.951096, 49.7301225], [5.9510861, 49.730146], [5.9510866, 49.7301961], [5.9511004, 49.7302286], [5.9511267, 49.730253], [5.9511753, 49.7302874], [5.9512405, 49.7303182], [5.9512641, 49.7303354], [5.9512835, 49.7303616], [5.9512959, 49.7303905], [5.9513013, 49.7304294], [5.9512984, 49.7304637], [5.9513052, 49.7304935], [5.9513148, 49.7305179], [5.951357, 49.7305735], [5.9513723, 49.7305942], [5.951375, 49.7306159], [5.9513804, 49.730652], [5.9513858, 49.7306755], [5.9514052, 49.7307026], [5.9514204, 49.7307216], [5.9514621, 49.7307334], [5.9515108, 49.7307371], [5.9515582, 49.7307372], [5.9515875, 49.7307264], [5.9516125, 49.730722], [5.9516891, 49.7307266], [5.9517142, 49.7307204], [5.9517462, 49.730706], [5.9517685, 49.7307051], [5.9517935, 49.7307187], [5.9518351, 49.7307558], [5.9518517, 49.7307775], [5.9518502, 49.7307946], [5.9518348, 49.7308172], [5.9518264, 49.7308298], [5.9518264, 49.7308424], [5.9518361, 49.7308542], [5.9518569, 49.7308605], [5.9518833, 49.7308633], [5.9519418, 49.7308562], [5.9519752, 49.730859], [5.9520072, 49.730869], [5.9520419, 49.7308862], [5.9520621, 49.7309002], [5.9520745, 49.7309192], [5.9520744, 49.7309426], [5.9520618, 49.7309616], [5.9520506, 49.7309832], [5.9520519, 49.7309977], [5.9520727, 49.7310094], [5.9521061, 49.7310158], [5.9521312, 49.7310132], [5.9521702, 49.7310015], [5.9522148, 49.7309935], [5.9522509, 49.7309953], [5.9522871, 49.7310026], [5.9523288, 49.7310189], [5.9524053, 49.7310353], [5.9524456, 49.7310517], [5.9524692, 49.7310688], [5.9524914, 49.7310897], [5.9525219, 49.7311132], [5.9525567, 49.7311169], [5.9525775, 49.7311214], [5.9525942, 49.7311296], [5.9526178, 49.7311432], [5.9526428, 49.7311459], [5.9526638, 49.7311396], [5.9526902, 49.7311325], [5.9527181, 49.7311352], [5.9527486, 49.7311497], [5.9527875, 49.7311787], [5.952818, 49.7312058], [5.952859, 49.731228], [5.9529049, 49.7312362], [5.9529564, 49.7312327], [5.9530107, 49.7312301], [5.9530468, 49.7312419], [5.9530774, 49.7312528], [5.9530927, 49.7312645], [5.9530926, 49.7312862], [5.9530925, 49.7313034], [5.9531036, 49.7313169], [5.9531272, 49.731326], [5.953155, 49.7313369], [5.953173, 49.7313468], [5.9531883, 49.7313604], [5.9532063, 49.7313839], [5.9532326, 49.7314128], [5.9532715, 49.7314355], [5.9533215, 49.7314482], [5.953341, 49.7314546], [5.9533688, 49.7314727], [5.9534256, 49.7315197], [5.9534548, 49.7315324], [5.953484, 49.7315406], [5.9535383, 49.7315452], [5.9535717, 49.7315525], [5.9535883, 49.7315625], [5.9536001, 49.7315801], [5.9536, 49.7315999], [5.9535985, 49.7316198], [5.9536123, 49.7316361], [5.9536735, 49.7316587], [5.953711, 49.7316769], [5.9537332, 49.7316968], [5.9537581, 49.7317221], [5.9537803, 49.7317582], [5.9538038, 49.7317827], [5.953858, 49.7318098], [5.9538844, 49.7318252], [5.9539024, 49.7318478], [5.95393, 49.7318822], [5.9539654, 49.7319197], [5.9539973, 49.7319351], [5.9540418, 49.7319451], [5.9540793, 49.7319624], [5.9540932, 49.7319795], [5.9540987, 49.7320003], [5.9540958, 49.7320202], [5.9540915, 49.7320409], [5.9540984, 49.7320599], [5.9541109, 49.7320771], [5.9541622, 49.7321169], [5.9542385, 49.7321685], [5.9543065, 49.7322164], [5.9543468, 49.7322364], [5.9543788, 49.7322464], [5.9544358, 49.7322501], [5.9545326, 49.7322516], [5.9546189, 49.7322482], [5.9547303, 49.7322438], [5.9548542, 49.7322378], [5.9549488, 49.7322488], [5.9550184, 49.7322597], [5.955074, 49.7322779], [5.9551393, 49.7323087], [5.9552129, 49.7323467], [5.9553149, 49.7324088], [5.9553871, 49.7324558], [5.9554357, 49.7324929], [5.9555536, 49.732587], [5.9556022, 49.7326241], [5.9557493, 49.732712], [5.9558347, 49.7327703], [5.9558527, 49.7327938], [5.9558763, 49.732811], [5.9558944, 49.7328183], [5.9559111, 49.7328201], [5.9559459, 49.7328202], [5.9559876, 49.7328176], [5.9560099, 49.732823], [5.9560571, 49.7328502], [5.9561529, 49.7329036], [5.9562918, 49.7329698], [5.956371, 49.7330132], [5.956446, 49.7330585], [5.9564946, 49.7330839], [5.9565293, 49.7330957], [5.9566413, 49.7331279], [5.9566969, 49.7331506], [5.9567885, 49.7332022], [5.9568468, 49.7332339], [5.9569094, 49.7332566], [5.9569969, 49.7332947], [5.9570789, 49.7333318], [5.9571706, 49.7333816], [5.9572178, 49.7334142], [5.9572901, 49.7334387], [5.957363, 49.7334565], [5.9573881, 49.7334646], [5.9574478, 49.7334864], [5.957559, 49.7335336], [5.9576258, 49.7335454], [5.9577342, 49.7335799], [5.9578468, 49.7336171], [5.9579956, 49.7336526], [5.958182, 49.7336954], [5.9582098, 49.7336963], [5.9582266, 49.7336891], [5.9582391, 49.7336765], [5.9582573, 49.7336522], [5.9582853, 49.7336351], [5.9583145, 49.7336207], [5.9583633, 49.7336117], [5.9584148, 49.7336082], [5.9584719, 49.7336192], [5.9585317, 49.7336337], [5.9585609, 49.7336356], [5.9586068, 49.7336357], [5.9586402, 49.7336456], [5.9586707, 49.7336647], [5.9587082, 49.7336927], [5.9587431, 49.7337163], [5.9587631, 49.7337223], [5.9587878, 49.7337264], [5.9588233, 49.7337164], [5.958851, 49.7337195], [5.9588817, 49.7337365], [5.9589048, 49.7337576], [5.9589262, 49.7337896], [5.9589538, 49.7338206], [5.9590184, 49.7338547], [5.9591, 49.7338789], [5.9592664, 49.7339142], [5.9594388, 49.7339515], [5.9596298, 49.7339938], [5.9597853, 49.7340401], [5.9599392, 49.7340953], [5.9600207, 49.7341375], [5.9600714, 49.7341735], [5.9601514, 49.7342157], [5.9603529, 49.734316], [5.9606744, 49.7344795], [5.9609128, 49.7346019], [5.9610589, 49.7346705], [5.9611035, 49.7347153], [5.9611849, 49.7347754], [5.9613125, 49.7348556], [5.9614186, 49.7349188], [5.9615601, 49.735], [5.96166, 49.7350731], [5.9617429, 49.7351433], [5.9618289, 49.7352244], [5.9618873, 49.7352805], [5.9619379, 49.7353316], [5.9620131, 49.7354137], [5.9620683, 49.7354728], [5.9621205, 49.7355358], [5.9621803, 49.7356069], [5.9622478, 49.735678], [5.962323, 49.7357522], [5.9624367, 49.7358533], [5.962515, 49.7359294], [5.962601, 49.7360066], [5.9626993, 49.7360857], [5.96279, 49.7361529], [5.9628597, 49.7362086], [5.9628874, 49.7362419], [5.9629097, 49.7362841], [5.962928, 49.7363231], [5.9629847, 49.7363942], [5.9630369, 49.7364432], [5.9631306, 49.7365214], [5.9631823, 49.7365733], [5.9632113, 49.7366186], [5.9632326, 49.7366304], [5.9633643, 49.7367522], [5.9633803, 49.736744], [5.9641384, 49.7363853], [5.9641897, 49.736361], [5.9643269, 49.7362961], [5.9644809, 49.7362232], [5.9647569, 49.7360946], [5.9647976, 49.7360756], [5.9648261, 49.7360616], [5.9649586, 49.7359965], [5.9650863, 49.7359337], [5.9650976, 49.7359268], [5.9653815, 49.735754], [5.9655653, 49.7356392], [5.9655813, 49.7356292], [5.9657951, 49.735497], [5.9659133, 49.7354221], [5.9660254, 49.7353509], [5.9662137, 49.7352352], [5.9664695, 49.7350784], [5.9665509, 49.7350325], [5.9666959, 49.7349619], [5.9667874, 49.7349185], [5.9668561, 49.7348898], [5.9669476, 49.7348545], [5.9670346, 49.7348235], [5.9675167, 49.7353616], [5.9675374, 49.7353671], [5.9675706, 49.7351642], [5.9676145, 49.7349723], [5.9676538, 49.7347854], [5.9676838, 49.7346235], [5.9676997, 49.7345146], [5.9677184, 49.7344526], [5.9677711, 49.7343777], [5.9678872, 49.734263], [5.9680186, 49.7341762], [5.9682349, 49.7348124], [5.9683013, 49.7347756], [5.9684667, 49.734675], [5.9686815, 49.7345443], [5.9689089, 49.734406], [5.9692861, 49.7341652], [5.9694268, 49.7340753], [5.9695267, 49.7340131], [5.9696289, 49.7339495], [5.9697212, 49.7338921], [5.9699031, 49.7337789], [5.9702194, 49.7335819], [5.9704351, 49.7334477], [5.9704595, 49.7334325], [5.97053, 49.7333886], [5.9705578, 49.7333713], [5.970746, 49.7332541], [5.9708853, 49.7331675], [5.9709129, 49.7331535], [5.9709969, 49.7332132], [5.9710631, 49.7332573]]]}}]}