{"type": "FeatureCollection", "features": [{"type": "Feature", "properties": {"name": "Ehner"}, "geometry": {"type": "Polygon", "coordinates": [[[5.9449678, 49.7239267], [5.945714, 49.7236198], [5.9457456, 49.7236068], [5.9460196, 49.7234941], [5.9460526, 49.7235219], [5.9460926, 49.7235569], [5.9461302, 49.723611], [5.9461513, 49.7236649], [5.9461596, 49.723673], [5.9463191, 49.7234298], [5.9465169, 49.723111], [5.9465337, 49.7230498], [5.9465364, 49.722993], [5.9465294, 49.7229711], [5.9465495, 49.7229617], [5.947233, 49.722602], [5.9472893, 49.7225724], [5.94741, 49.7226664], [5.9476895, 49.7225313], [5.9478792, 49.7224396], [5.9479322, 49.722414], [5.9480447, 49.7223596], [5.9480666, 49.722349], [5.9482139, 49.7222666], [5.9483553, 49.7221876], [5.9484596, 49.7221293], [5.9485597, 49.7220734], [5.9490034, 49.7218254], [5.9486287, 49.7215062], [5.9485653, 49.7214521], [5.9485166, 49.7214107], [5.9483795, 49.721294], [5.9485704, 49.7211523], [5.9491476, 49.720788], [5.9492397, 49.7207375], [5.9493481, 49.7206781], [5.9495424, 49.7205532], [5.9495608, 49.7205413], [5.9496925, 49.7204566], [5.9497262, 49.7204284], [5.9497389, 49.7204168], [5.9497825, 49.7203771], [5.9498135, 49.7203467], [5.9498322, 49.7203284], [5.9498797, 49.7202787], [5.9499225, 49.7202324], [5.9499638, 49.7201856], [5.9500038, 49.7201383], [5.9500423, 49.7200905], [5.9500794, 49.7200422], [5.9501151, 49.7199935], [5.9501493, 49.7199443], [5.9501701, 49.7199129], [5.950243, 49.7197929], [5.950432, 49.7194653], [5.9505605, 49.7192145], [5.9506608, 49.7189552], [5.9506743, 49.7189204], [5.9507657, 49.7183943], [5.9508053, 49.7181756], [5.9508247, 49.7180357], [5.95083, 49.718009], [5.9507566, 49.7180024], [5.9507445, 49.7180013], [5.9505373, 49.7179826], [5.9503571, 49.7179651], [5.9500445, 49.7179346], [5.9497506, 49.7179059], [5.9497585, 49.7175818], [5.950851, 49.7177189], [5.9508647, 49.7176828], [5.9508748, 49.7176559], [5.9508772, 49.7176299], [5.9508678, 49.71759], [5.950873, 49.7175654], [5.9514472, 49.7177031], [5.9516507, 49.717746], [5.9519273, 49.7177815], [5.9522271, 49.7168416], [5.9523509, 49.7165245], [5.9524595, 49.7162864], [5.9526245, 49.7159359], [5.9527828, 49.7155996], [5.952881, 49.7153891], [5.9529308, 49.7152872], [5.9530569, 49.7150292], [5.9530367, 49.7149542], [5.9531843, 49.714854], [5.9532245, 49.7148267], [5.9533689, 49.7147287], [5.9534322, 49.7146858], [5.9535393, 49.7146131], [5.9536187, 49.7145507], [5.9536381, 49.7145353], [5.9536719, 49.7145055], [5.9537022, 49.7144748], [5.9537811, 49.7143947], [5.9538023, 49.7143732], [5.9539133, 49.7142536], [5.9540655, 49.7140897], [5.9543979, 49.7137356], [5.9543163, 49.7136342], [5.9542533, 49.7135678], [5.9541535, 49.7134866], [5.9540127, 49.7133882], [5.9538304, 49.7132617], [5.9537106, 49.7131786], [5.9534601, 49.7129949], [5.9537081, 49.7130116], [5.9538427, 49.7130179], [5.9539839, 49.7130202], [5.9540259, 49.7130198], [5.9540743, 49.7130193], [5.954329, 49.7129898], [5.9546382, 49.712954], [5.9550629, 49.7129047], [5.9551555, 49.7128162], [5.9552788, 49.7128033], [5.954567, 49.7125878], [5.9544022, 49.7125298], [5.9543113, 49.7124869], [5.9542072, 49.7124244], [5.9535025, 49.7118802], [5.9527184, 49.7112899], [5.9521286, 49.7108809], [5.9515184, 49.7104676], [5.9513653, 49.7103196], [5.9512144, 49.7101439], [5.951039, 49.7099128], [5.9508527, 49.7096455], [5.9505432, 49.7092849], [5.9503142, 49.7090365], [5.9501969, 49.7088739], [5.9501948, 49.7088335], [5.9500884, 49.7087233], [5.9500299, 49.7086822], [5.949838, 49.7086263], [5.949634, 49.7085995], [5.9493486, 49.7085917], [5.9490374, 49.7086044], [5.948376, 49.7086284], [5.9479201, 49.7086529], [5.9473146, 49.7086915], [5.9468667, 49.7087015], [5.9465337, 49.7087033], [5.9462524, 49.7087151], [5.9451124, 49.708244], [5.9445013, 49.7079728], [5.943944, 49.7077225], [5.9432787, 49.7074146], [5.9428711, 49.7071841], [5.942167, 49.7067748], [5.9412837, 49.7062632], [5.940307, 49.7056896], [5.9396188, 49.705289], [5.9386791, 49.7047464], [5.9380461, 49.7043783], [5.9375891, 49.7041292], [5.9370217, 49.7038741], [5.9366593, 49.7037577], [5.936093, 49.7035949], [5.9356228, 49.7034623], [5.9345572, 49.7031619], [5.9340438, 49.7030171], [5.9330758, 49.7027403], [5.9326436, 49.7026175], [5.9324221, 49.702556], [5.9322016, 49.7024991], [5.9316164, 49.7023672], [5.9310771, 49.7022638], [5.9305417, 49.7021747], [5.9299788, 49.7021117], [5.9298994, 49.7020993], [5.9293012, 49.7019541], [5.9291509, 49.7019239], [5.9290427, 49.7020275], [5.9289594, 49.7021072], [5.9281747, 49.7028585], [5.9277233, 49.7035994], [5.9276986, 49.7040526], [5.927723, 49.7042113], [5.9277566, 49.7043517], [5.9278365, 49.7046858], [5.9280688, 49.7050632], [5.9281222, 49.7051498], [5.9279408, 49.7058162], [5.9277899, 49.706371], [5.9277795, 49.7064091], [5.9277799, 49.7065918], [5.9277801, 49.7067252], [5.9277802, 49.7067552], [5.9277808, 49.7070576], [5.9280841, 49.7074861], [5.9282226, 49.7076817], [5.9281899, 49.7077382], [5.9281749, 49.7077642], [5.9281589, 49.7077917], [5.9280765, 49.7079343], [5.9280009, 49.7079575], [5.9279, 49.7081043], [5.9276531, 49.7084178], [5.9275383, 49.7085739], [5.9274187, 49.7087255], [5.9272235, 49.7089497], [5.9270963, 49.7090803], [5.9269948, 49.7091708], [5.9268102, 49.7093031], [5.9265406, 49.7094537], [5.9263537, 49.7095333], [5.9261195, 49.7096126], [5.9258058, 49.7096949], [5.9255391, 49.7097513], [5.9253473, 49.7097829], [5.9251617, 49.7097885], [5.9249701, 49.7097761], [5.924804, 49.7097458], [5.9246087, 49.7096964], [5.9244012, 49.7096231], [5.9240316, 49.7094904], [5.9239255, 49.7094612], [5.9237517, 49.7094328], [5.9235916, 49.7094205], [5.9232721, 49.7094418], [5.9229455, 49.7094751], [5.9225673, 49.7095263], [5.9223561, 49.7095748], [5.9222641, 49.7096066], [5.9221716, 49.7096352], [5.9219921, 49.7097104], [5.9217677, 49.7098232], [5.9214882, 49.7099882], [5.921315, 49.7101476], [5.9211989, 49.7103173], [5.9211716, 49.710451], [5.9211282, 49.7107965], [5.9211211, 49.7108764], [5.9211518, 49.7109991], [5.9212419, 49.7111593], [5.9213161, 49.7111387], [5.9214154, 49.7110976], [5.9220072, 49.711641], [5.9225508, 49.7120572], [5.9225845, 49.7120771], [5.9228121, 49.7122112], [5.9230817, 49.71237], [5.9232207, 49.7124519], [5.9233676, 49.712538], [5.9233824, 49.7125446], [5.9236035, 49.7126428], [5.923653, 49.7126547], [5.9238498, 49.7127017], [5.9240643, 49.712753], [5.9240955, 49.7127605], [5.9242645, 49.7127851], [5.9245072, 49.7128204], [5.92469, 49.712847], [5.9248175, 49.7128656], [5.9250483, 49.7128757], [5.9252814, 49.7128859], [5.925511, 49.712896], [5.9253733, 49.7131321], [5.9261531, 49.7133792], [5.9265391, 49.7135015], [5.9271751, 49.7136957], [5.928544, 49.7142038], [5.9290623, 49.7143987], [5.9296403, 49.7146162], [5.9300932, 49.7147865], [5.9301171, 49.7147955], [5.9304658, 49.7149369], [5.9305281, 49.7149622], [5.9307146, 49.7150374], [5.9313749, 49.7153041], [5.9315117, 49.7153427], [5.931727, 49.7154035], [5.9317702, 49.7154103], [5.9322242, 49.7154821], [5.9334033, 49.7158188], [5.9333387, 49.7159015], [5.9332608, 49.7160015], [5.9331932, 49.7160882], [5.9330277, 49.7163004], [5.9328645, 49.7165098], [5.9325481, 49.7169155], [5.9325239, 49.7169466], [5.9323905, 49.7171177], [5.9322483, 49.7173001], [5.9327661, 49.7174762], [5.9328123, 49.7174803], [5.9329154, 49.7174765], [5.932994, 49.7174717], [5.9330156, 49.7174717], [5.9330356, 49.7174748], [5.933054, 49.7174778], [5.9331186, 49.7175029], [5.9333568, 49.7176073], [5.9334059, 49.7176284], [5.9336618, 49.7177408], [5.9339046, 49.7178402], [5.9340399, 49.7178754], [5.9341538, 49.7178956], [5.9343139, 49.7179159], [5.9344885, 49.7179363], [5.9345609, 49.7179464], [5.9346208, 49.7179595], [5.9347147, 49.7179837], [5.9348038, 49.7180108], [5.9349392, 49.7180511], [5.9350222, 49.7180672], [5.9350808, 49.7180634], [5.9351716, 49.7180625], [5.9352909, 49.7180748], [5.935334, 49.7180848], [5.9353616, 49.7180969], [5.9354139, 49.718123], [5.9354861, 49.7181571], [5.9355322, 49.7181702], [5.9355969, 49.7181773], [5.9356646, 49.7181744], [5.9357324, 49.7181676], [5.9357648, 49.7181626], [5.9357909, 49.7181627], [5.9358171, 49.7181657], [5.935854, 49.7181768], [5.9359448, 49.718201], [5.935994, 49.7182101], [5.9361241, 49.7182033], [5.9361688, 49.7182044], [5.9361903, 49.7182074], [5.9362149, 49.7182135], [5.9363318, 49.7182437], [5.9364011, 49.7182518], [5.9364611, 49.7182599], [5.9365042, 49.718268], [5.9365672, 49.7182901], [5.9366071, 49.7183172], [5.9366501, 49.7183522], [5.9366747, 49.7183603], [5.9367116, 49.7183624], [5.9367563, 49.7183624], [5.9367932, 49.7183585], [5.9368179, 49.7183586], [5.9368502, 49.7183696], [5.9369109, 49.7183967], [5.9369355, 49.7184028], [5.9369678, 49.7184028], [5.9370217, 49.7184039], [5.937054, 49.718411], [5.9370878, 49.718422], [5.9371493, 49.7184442], [5.9371878, 49.7184542], [5.9372355, 49.7184533], [5.9372832, 49.7184604], [5.9373248, 49.7184665], [5.9373831, 49.7184956], [5.9374093, 49.7185076], [5.9374585, 49.7185127], [5.9375555, 49.7185119], [5.9376002, 49.718516], [5.937634, 49.718518], [5.9376679, 49.7185311], [5.9376955, 49.7185431], [5.9377531, 49.7185742], [5.9377915, 49.7185913], [5.9378454, 49.7186064], [5.9378992, 49.7186185], [5.9379423, 49.7186256], [5.9379884, 49.7186376], [5.9380192, 49.7186467], [5.9380407, 49.7186627], [5.9380759, 49.7186988], [5.9381051, 49.7187088], [5.9381575, 49.7187139], [5.938179, 49.718717], [5.9381959, 49.718723], [5.9382174, 49.718741], [5.9382434, 49.718769], [5.9382588, 49.7187771], [5.9382819, 49.7187781], [5.9383096, 49.7187702], [5.9383436, 49.7187562], [5.9383901, 49.7187404], [5.9384024, 49.7187394], [5.9384378, 49.7187495], [5.9384532, 49.7187605], [5.9384685, 49.7187735], [5.9386118, 49.7187428], [5.9386488, 49.7187419], [5.938715, 49.718748], [5.9387981, 49.7187602], [5.9388581, 49.7187703], [5.9388935, 49.7187703], [5.9389413, 49.7187644], [5.9389769, 49.7187556], [5.9390168, 49.7187456], [5.9390461, 49.7187387], [5.9390892, 49.7187398], [5.9391508, 49.7187419], [5.9392555, 49.7187411], [5.939348, 49.7187343], [5.9393711, 49.7187283], [5.9393819, 49.7187284], [5.9393911, 49.7187334], [5.9393987, 49.7187504], [5.9394018, 49.7187574], [5.9394248, 49.7187584], [5.939448, 49.7187485], [5.9394712, 49.7187355], [5.9394958, 49.7187406], [5.9395327, 49.7187526], [5.9395635, 49.7187527], [5.9395976, 49.718739], [5.9396252, 49.7187238], [5.9397115, 49.718707], [5.939787, 49.7186972], [5.9398224, 49.7186972], [5.939847, 49.7187013], [5.9398686, 49.7187063], [5.9399055, 49.7187104], [5.9400634, 49.7187017], [5.9400988, 49.7187088], [5.9401418, 49.7187239], [5.9401803, 49.7187349], [5.9402326, 49.718735], [5.9403158, 49.7187302], [5.9403528, 49.7187233], [5.9403975, 49.7187224], [5.9404667, 49.7187255], [5.9405129, 49.7187286], [5.9405806, 49.7187417], [5.9406838, 49.7187429], [5.9408185, 49.7187422], [5.9409448, 49.7187344], [5.9410049, 49.7187355], [5.9411126, 49.7187497], [5.9411988, 49.7187579], [5.9413035, 49.7187651], [5.9413497, 49.7187702], [5.9413577, 49.7188044], [5.9414018, 49.7189911], [5.9414284, 49.7190661], [5.941468, 49.719165], [5.9414893, 49.719217], [5.9414967, 49.719272], [5.9415211, 49.719324], [5.9417125, 49.7194093], [5.9420844, 49.7195709], [5.9422934, 49.7196622], [5.9425062, 49.7197566], [5.9426099, 49.7198097], [5.9428135, 49.719918], [5.9428457, 49.719945], [5.9428686, 49.7199901], [5.9429022, 49.7200391], [5.9429207, 49.7200511], [5.9429391, 49.7200571], [5.9430652, 49.7201083], [5.9431174, 49.7201314], [5.9431435, 49.7201474], [5.9432031, 49.720178], [5.9432589, 49.7202067], [5.9433849, 49.7202758], [5.9434217, 49.7202978], [5.9435077, 49.720349], [5.9435979, 49.7204058], [5.9433869, 49.7206345], [5.9432498, 49.7207829], [5.9432068, 49.7208296], [5.9431217, 49.7209218], [5.9428407, 49.7212273], [5.9427247, 49.7213536], [5.9428046, 49.7214051], [5.9431526, 49.7216295], [5.9432517, 49.7216934], [5.9433675, 49.7217698], [5.9435351, 49.7218804], [5.9437315, 49.72201], [5.9439303, 49.7221383], [5.9441683, 49.7222926], [5.9442458, 49.7223467], [5.9443578, 49.7224368], [5.9444391, 49.7225119], [5.9445409, 49.7226089], [5.9445809, 49.7226471], [5.9444014, 49.7227971], [5.9442289, 49.7229412], [5.9440804, 49.7230653], [5.9439881, 49.7231425], [5.943875, 49.7232393], [5.9438536, 49.7232576], [5.9437762, 49.7233238], [5.9437075, 49.7233827], [5.9435559, 49.7235133], [5.9433854, 49.7236597], [5.9437141, 49.7237854], [5.9439094, 49.7238337], [5.9439996, 49.7238486], [5.9441672, 49.7238762], [5.9444072, 49.7238997], [5.9449261, 49.7239506], [5.9449678, 49.7239267]]]}}]}