{"type": "FeatureCollection", "features": [{"type": "Feature", "properties": {"name": "Saeul"}, "geometry": {"type": "Polygon", "coordinates": [[[5.9708622, 49.7209347], [5.9709207, 49.7211498], [5.9709404, 49.7211996], [5.9711064, 49.7215687], [5.9711917, 49.721748], [5.9714105, 49.7222563], [5.971787, 49.7226878], [5.9725636, 49.7235566], [5.9731944, 49.7242542], [5.9733261, 49.7244139], [5.9739609, 49.7251578], [5.9741803, 49.7253786], [5.9741976, 49.725396], [5.974266, 49.7254648], [5.9743545, 49.7255681], [5.974639, 49.7258999], [5.9747871, 49.7260611], [5.975039, 49.726343], [5.9751007, 49.7264376], [5.9751822, 49.7265677], [5.9752425, 49.7267136], [5.9752841, 49.7268522], [5.9753152, 49.7270089], [5.9753332, 49.7271821], [5.9753472, 49.7275004], [5.9753441, 49.7276446], [5.9753414, 49.7277689], [5.9753326, 49.7279212], [5.9753211, 49.727976], [5.9753132, 49.7280135], [5.9752992, 49.7280799], [5.9752195, 49.7284038], [5.9751768, 49.7285394], [5.9751259, 49.7286512], [5.9750079, 49.7288747], [5.9749819, 49.7289342], [5.9747845, 49.7293846], [5.9747214, 49.729645], [5.9746993, 49.729713], [5.9746468, 49.729843], [5.9746068, 49.7299265], [5.9745453, 49.730026], [5.9742688, 49.7304085], [5.9740139, 49.7307331], [5.9739203, 49.7308456], [5.9734953, 49.7313562], [5.9729361, 49.7317971], [5.9727427, 49.7319445], [5.9723876, 49.732215], [5.9723785, 49.7322241], [5.9722034, 49.7323643], [5.9716656, 49.7327899], [5.9716124, 49.732832], [5.9713585, 49.7330326], [5.9712175, 49.733144], [5.9710986, 49.733238], [5.9710631, 49.7332573], [5.9712155, 49.7333286], [5.9715005, 49.7334381], [5.9718641, 49.7335618], [5.9724072, 49.7337302], [5.9730396, 49.7339369], [5.9736005, 49.7341099], [5.9738816, 49.7341989], [5.974119, 49.7342673], [5.9743763, 49.7343317], [5.9746014, 49.7343701], [5.9747872, 49.7343909], [5.9754202, 49.7344625], [5.9774465, 49.7346699], [5.9776084, 49.7346852], [5.9776994, 49.7346833], [5.9778013, 49.7346725], [5.9778435, 49.734703], [5.9779306, 49.7347647], [5.9781139, 49.7348945], [5.9784402, 49.7351343], [5.9786638, 49.7352932], [5.9789735, 49.7355058], [5.9792707, 49.7356973], [5.9794561, 49.7358127], [5.979538, 49.7358612], [5.9795462, 49.735866], [5.9795739, 49.7358814], [5.9797024, 49.7359528], [5.9795496, 49.7360933], [5.9793802, 49.7362491], [5.9792615, 49.7363583], [5.98045, 49.7369924], [5.9809781, 49.7372114], [5.9812422, 49.7373204], [5.981406, 49.737376], [5.9815172, 49.7374049], [5.9816995, 49.737453], [5.981716, 49.7375192], [5.9817474, 49.737618], [5.9818268, 49.7378515], [5.9816761, 49.7379531], [5.9817792, 49.7382182], [5.9818291, 49.7383391], [5.9818544, 49.7383447], [5.9819372, 49.7383587], [5.9818874, 49.7384432], [5.9818787, 49.7384592], [5.9819204, 49.7385465], [5.9819633, 49.7386485], [5.9819983, 49.7387326], [5.9821045, 49.7387383], [5.9823962, 49.7387415], [5.9824659, 49.7387499], [5.9828037, 49.7387861], [5.9835529, 49.7388988], [5.9838955, 49.7389688], [5.9838619, 49.7390146], [5.9839503, 49.7390377], [5.9840965, 49.7390857], [5.9842809, 49.7391598], [5.9844633, 49.7392429], [5.9846457, 49.7393324], [5.9848457, 49.7394486], [5.9850486, 49.7395821], [5.9852425, 49.7397251], [5.9854051, 49.7398566], [5.9856607, 49.7400882], [5.9859307, 49.7398835], [5.9860098, 49.7399585], [5.9860988, 49.7400556], [5.9861434, 49.7400836], [5.9862141, 49.7401137], [5.9862526, 49.7401257], [5.9862895, 49.7401298], [5.9863065, 49.7401298], [5.9863542, 49.7401428], [5.9864319, 49.7401605], [5.9864935, 49.7401705], [5.9865566, 49.7401736], [5.9865982, 49.7401747], [5.9866229, 49.7401657], [5.9869714, 49.7400468], [5.9870131, 49.7400325], [5.9872891, 49.7401693], [5.9875736, 49.7403055], [5.9878289, 49.7404228], [5.987978, 49.7404899], [5.9885063, 49.7407269], [5.9889877, 49.7409334], [5.9888976, 49.7411568], [5.9890771, 49.7412364], [5.989575, 49.7414573], [5.9896096, 49.7414727], [5.9897207, 49.7415219], [5.990534, 49.7418828], [5.990541, 49.7418729], [5.9906344, 49.7417405], [5.9906603, 49.7417038], [5.99135, 49.7419792], [5.9916386, 49.7420735], [5.9919055, 49.7421451], [5.9922738, 49.7422216], [5.9926393, 49.742293], [5.9927979, 49.7423217], [5.9928145, 49.742305], [5.9928387, 49.7422807], [5.9929154, 49.7422035], [5.9929338, 49.742185], [5.9930026, 49.7421159], [5.9930943, 49.7420238], [5.9932267, 49.7420929], [5.9932585, 49.7421095], [5.9934621, 49.7422158], [5.9937058, 49.7423431], [5.993988, 49.7420762], [5.9944868, 49.7416086], [5.994868, 49.7412243], [5.9951629, 49.740927], [5.9954307, 49.7410114], [5.9954561, 49.7410194], [5.9955059, 49.7410356], [5.9956057, 49.7410685], [5.9957688, 49.7411223], [5.9959328, 49.7411763], [5.9961052, 49.7412332], [5.9962836, 49.7412921], [5.9964758, 49.7413555], [5.9966755, 49.7414213], [5.9968352, 49.741474], [5.9969891, 49.7415248], [5.9971028, 49.7415623], [5.9972041, 49.7415957], [5.9974162, 49.7416656], [5.9976359, 49.7417381], [5.9977464, 49.7417745], [5.9975071, 49.7421151], [5.9973636, 49.7422886], [5.9972571, 49.7423937], [5.9973717, 49.7424439], [5.9974507, 49.7424757], [5.9974646, 49.7424813], [5.9975753, 49.7425259], [5.9977369, 49.7425911], [5.9977567, 49.742576], [5.9981681, 49.7422235], [5.9983638, 49.7420436], [5.9985126, 49.7418952], [5.9985857, 49.7418099], [5.9987111, 49.7416504], [5.9989379, 49.7413831], [5.9991521, 49.7411178], [5.9994263, 49.7407878], [5.9995927, 49.7406215], [5.9998222, 49.7404227], [6.0000309, 49.7402633], [6.0000385, 49.7402582], [6.0001618, 49.7401761], [6.0002368, 49.7401261], [6.0006092, 49.739728], [6.0009042, 49.7394043], [6.0009538, 49.7393443], [6.0015648, 49.7385538], [6.0019907, 49.7379634], [6.0020048, 49.7379365], [6.0022184, 49.7379179], [6.0025504, 49.7378767], [6.0030088, 49.7378011], [6.0031881, 49.7377625], [6.0034252, 49.7377013], [6.0036686, 49.7376273], [6.0041131, 49.7374934], [6.0046606, 49.737326], [6.0047137, 49.7372948], [6.0047981, 49.7372097], [6.0048967, 49.7371047], [6.004992, 49.7370291], [6.0050341, 49.7370064], [6.0051433, 49.7369682], [6.0052603, 49.7369361], [6.0054614, 49.7368976], [6.0055955, 49.736876], [6.0057685, 49.7368592], [6.0059213, 49.7368485], [6.0063499, 49.7368292], [6.0068439, 49.7368157], [6.0068638, 49.7367824], [6.0069185, 49.7366265], [6.0069616, 49.7365037], [6.0069834, 49.7364416], [6.0069959, 49.7364057], [6.007042, 49.7362744], [6.0067978, 49.7363016], [6.0066387, 49.7358795], [6.0066142, 49.7358144], [6.0065736, 49.7357066], [6.0066146, 49.7355785], [6.0066034, 49.7355609], [6.0057852, 49.7354078], [6.0055506, 49.7353604], [6.0052087, 49.735284], [6.0049043, 49.7352], [6.004615, 49.735104], [6.0043356, 49.7349943], [6.004161, 49.7349303], [6.0040114, 49.7348724], [6.0036664, 49.7347619], [6.0031624, 49.7346216], [6.0021968, 49.7343591], [6.0016305, 49.7342064], [6.0010091, 49.7340244], [6.0010171, 49.7340093], [6.0010852, 49.7339162], [6.0011612, 49.7338123], [6.0011695, 49.733801], [6.0012241, 49.7337263], [6.0012303, 49.7337179], [6.001255, 49.7336841], [6.0012583, 49.7336796], [6.0015133, 49.7333309], [6.0017163, 49.7330514], [6.002007, 49.7331289], [6.0026875, 49.7325816], [6.0027965, 49.7324808], [6.0028601, 49.732414], [6.0030814, 49.7321207], [6.0031663, 49.7320071], [6.0032483, 49.7318439], [6.003294, 49.7317082], [6.0033158, 49.7315045], [6.0033266, 49.731404], [6.003332, 49.7313536], [6.0048747, 49.7311404], [6.0048584, 49.7310936], [6.0047929, 49.7309056], [6.0047543, 49.7307947], [6.0047535, 49.7307923], [6.0047345, 49.7307396], [6.0047048, 49.7306573], [6.0046902, 49.7306168], [6.0046534, 49.7305147], [6.0046435, 49.7304873], [6.0046011, 49.7303698], [6.0045938, 49.7303527], [6.0045208, 49.7301872], [6.0044456, 49.7300166], [6.0044448, 49.7300147], [6.0044232, 49.7299656], [6.0043482, 49.7297955], [6.0043445, 49.7297866], [6.0043288, 49.7297482], [6.0042718, 49.7296091], [6.0042592, 49.7295781], [6.0042148, 49.7294697], [6.0041893, 49.7294076], [6.0041225, 49.7292444], [6.0040139, 49.728979], [6.0039845, 49.7289128], [6.0039712, 49.728883], [6.0039447, 49.7288232], [6.003857, 49.7286254], [6.003808, 49.728515], [6.0038098, 49.7284465], [6.0038226, 49.7279551], [6.004398, 49.7277236], [6.0045351, 49.7276684], [6.004792, 49.7274903], [6.0049767, 49.7273785], [6.0052387, 49.72722], [6.0050092, 49.7270471], [6.0049804, 49.7270383], [6.0048846, 49.727009], [6.0047812, 49.7269774], [6.0046854, 49.726948], [6.0045855, 49.7269174], [6.0043439, 49.7268435], [6.0041574, 49.7267864], [6.0040977, 49.7267681], [6.0041297, 49.7267291], [6.0044636, 49.7263222], [6.0047145, 49.7259927], [6.0049326, 49.7256913], [6.005054, 49.725527], [6.0052127, 49.725291], [6.0048947, 49.7251959], [6.0047445, 49.7251509], [6.0045989, 49.7251074], [6.0044025, 49.7250486], [6.0041723, 49.7249797], [6.0039477, 49.7249125], [6.0038559, 49.7248845], [6.0034489, 49.7247601], [6.00338, 49.724739], [6.0034679, 49.7245747], [6.0026869, 49.7243291], [6.0025424, 49.7242841], [6.0020725, 49.7241336], [6.0020108, 49.7241148], [6.0018522, 49.7240625], [6.0021524, 49.7237466], [6.0025837, 49.7232748], [6.0030576, 49.7227385], [6.0029034, 49.7226894], [6.002906, 49.7226857], [6.0032784, 49.7221675], [6.0035674, 49.721759], [6.0035777, 49.7217367], [6.0034172, 49.7217213], [6.0030608, 49.7216943], [6.0028521, 49.7216656], [6.0024349, 49.7215722], [6.0015531, 49.721343], [6.0007521, 49.7211363], [6.0007253, 49.7211292], [5.9994956, 49.7208739], [5.9976758, 49.7204748], [5.9958421, 49.7199858], [5.9943249, 49.7195992], [5.9930726, 49.7193001], [5.9927923, 49.7192506], [5.992425, 49.7192234], [5.9918822, 49.7191525], [5.9910436, 49.7190112], [5.9906215, 49.7189505], [5.9903875, 49.7190015], [5.9904046, 49.7190443], [5.9904196, 49.7191672], [5.9904228, 49.7193452], [5.9903943, 49.7195039], [5.9903418, 49.7196514], [5.9902768, 49.7198069], [5.9899566, 49.720498], [5.9899118, 49.7206466], [5.9899079, 49.7206759], [5.9899155, 49.7207005], [5.990026, 49.720914], [5.990152, 49.7212128], [5.9902225, 49.7214343], [5.9902509, 49.7215514], [5.9902676, 49.7217108], [5.9903295, 49.7221653], [5.9903348, 49.7222225], [5.9903369, 49.7222449], [5.990329, 49.7222941], [5.9903116, 49.7223436], [5.9901737, 49.7226806], [5.9900786, 49.7228632], [5.9899919, 49.7230202], [5.9898351, 49.7232588], [5.9897441, 49.7233887], [5.9894578, 49.7237243], [5.9894183, 49.7237183], [5.9893081, 49.7236907], [5.9891171, 49.7236444], [5.9888808, 49.7236085], [5.9887189, 49.7235953], [5.9884878, 49.7235966], [5.9881209, 49.7236385], [5.988119, 49.7236818], [5.9879796, 49.7237028], [5.9878318, 49.7237197], [5.9877057, 49.7237286], [5.9876011, 49.7237244], [5.9874801, 49.7237091], [5.9873325, 49.7236806], [5.9871312, 49.7236353], [5.9868427, 49.7235692], [5.9865128, 49.723486], [5.9862624, 49.7234311], [5.9860563, 49.7233797], [5.9858159, 49.7233056], [5.9856386, 49.7232418], [5.9854513, 49.723182], [5.9852076, 49.723115], [5.985067, 49.7230827], [5.9850954, 49.7230293], [5.9851644, 49.7229037], [5.9842159, 49.7227155], [5.9838202, 49.7226373], [5.9835301, 49.7225753], [5.98322, 49.7225042], [5.9830659, 49.7224596], [5.9827956, 49.7223827], [5.9826489, 49.722341], [5.9823373, 49.7222507], [5.9820445, 49.7221659], [5.9818937, 49.7221172], [5.9817379, 49.7220716], [5.9813219, 49.7219397], [5.9811886, 49.7218797], [5.9807814, 49.7216197], [5.9805282, 49.7214437], [5.9804194, 49.7213804], [5.9803198, 49.7213453], [5.9802239, 49.7213115], [5.9800482, 49.7212446], [5.9798478, 49.7211666], [5.9796479, 49.7211061], [5.9795419, 49.7210686], [5.9794209, 49.72102], [5.9793249, 49.7209775], [5.9792238, 49.7209309], [5.9791311, 49.7208863], [5.9789968, 49.7208599], [5.9789238, 49.7208486], [5.9788674, 49.7208354], [5.9787462, 49.720796], [5.9787398, 49.7207939], [5.9784673, 49.720705], [5.9783512, 49.7206746], [5.978129, 49.720652], [5.9777698, 49.7206061], [5.9775824, 49.7205826], [5.9773452, 49.720557], [5.977039, 49.7205323], [5.9767786, 49.7205097], [5.9764418, 49.7204768], [5.9762461, 49.7204543], [5.9760471, 49.7204308], [5.9758564, 49.7204073], [5.9756623, 49.7203898], [5.9754647, 49.7203665], [5.9752441, 49.7203378], [5.9749904, 49.7202991], [5.9748772, 49.7202814], [5.9747549, 49.7202624], [5.974438, 49.7202477], [5.9743223, 49.7202395], [5.9740951, 49.7202219], [5.9738728, 49.7202024], [5.973624, 49.7201798], [5.9733792, 49.7201613], [5.9731469, 49.7201488], [5.9728649, 49.7201382], [5.972619, 49.7201296], [5.9721559, 49.7201764], [5.9721475, 49.7201773], [5.9716811, 49.7202229], [5.9714902, 49.7202126], [5.9713344, 49.7202042], [5.9711632, 49.7203151], [5.9710323, 49.7203999], [5.9708622, 49.7209347]]]}}]}