{"type": "FeatureCollection", "features": [{"type": "Feature", "properties": {"name": "An der Bléi", "kind": "park"}, "geometry": {"type": "Polygon", "coordinates": [[[6.0792528, 49.7874663], [6.07933, 49.7874475], [6.0793716, 49.7873167], [6.0794416, 49.7873225], [6.0796625, 49.7869778], [6.0801226, 49.7862275], [6.080366, 49.7862046], [6.0804449, 49.7860837], [6.0807777, 49.785701], [6.080995, 49.7852012], [6.0807091, 49.7851605], [6.0807341, 49.7851105], [6.0805786, 49.785043], [6.0806926, 49.7848481], [6.0809568, 49.7843537], [6.080641, 49.7843496], [6.0801553, 49.7844371], [6.0799915, 49.7844891], [6.0798798, 49.7845245], [6.0794907, 49.7847278], [6.0795235, 49.7848045], [6.0798939, 49.784946], [6.0799634, 49.7852711], [6.0798034, 49.7854724], [6.079224, 49.7858171], [6.0792848, 49.7858643], [6.0793126, 49.7859201], [6.0793089, 49.7860129], [6.0792963, 49.7861617], [6.0792844, 49.7863011], [6.0792401, 49.7865626], [6.0791357, 49.786695], [6.0790216, 49.7868397], [6.0788834, 49.7869583], [6.0787386, 49.7870544], [6.0787156, 49.7870941], [6.0786876, 49.7871424], [6.0785456, 49.7873871], [6.0792528, 49.7874663]]]}}]}