{"type": "FeatureCollection", "features": [{"type": "Feature", "properties": {"name": "Dellhéicht"}, "geometry": {"type": "Polygon", "coordinates": [[[5.9774031, 49.5001498], [5.9775219, 49.5005686], [5.9789781, 49.5012857], [5.9801406, 49.5017726], [5.9798734, 49.5021009], [5.9795266, 49.5025092], [5.9803428, 49.5028763], [5.9815446, 49.5034022], [5.9839821, 49.5045033], [5.9841837, 49.5045791], [5.9853015, 49.5051471], [5.9860582, 49.5052971], [5.9881698, 49.5053123], [5.9880359, 49.5049862], [5.9879337, 49.5047375], [5.9876573, 49.5040752], [5.9876199, 49.5039743], [5.9875937, 49.5039028], [5.9873338, 49.5032088], [5.9865822, 49.5023957], [5.9867326, 49.5002968], [5.986414, 49.4991826], [5.9866106, 49.4986715], [5.9858494, 49.498518], [5.9849896, 49.4987212], [5.9841381, 49.4987854], [5.9828355, 49.4984414], [5.9815135, 49.4979691], [5.9809998, 49.4975862], [5.9807154, 49.4972321], [5.9807347, 49.497097], [5.9806281, 49.4971797], [5.9805543, 49.4972381], [5.9795735, 49.4982954], [5.9790961, 49.4988109], [5.9790583, 49.4988528], [5.9784548, 49.4995105], [5.9783409, 49.4996168], [5.9782208, 49.499713], [5.9781007, 49.4997901], [5.9777412, 49.4999774], [5.9777104, 49.4999948], [5.9776221, 49.5000404], [5.9774031, 49.5001498]]]}}]}