{"type": "FeatureCollection", "features": [{"type": "Feature", "properties": {"name": "Lalleng"}, "geometry": {"type": "Polygon", "coordinates": [[[5.9996645, 49.5186183], [5.9997127, 49.5185676], [5.999774, 49.5185032], [5.9998551, 49.5184179], [5.9998643, 49.5184082], [5.9999575, 49.5183103], [6.0000163, 49.5182484], [6.0000796, 49.5181822], [6.0002411, 49.5180126], [6.0002581, 49.5179948], [6.0004116, 49.5178336], [6.0006406, 49.5175932], [6.0010921, 49.5171176], [6.0012209, 49.5169825], [6.0015351, 49.5166519], [6.0019319, 49.5166525], [6.001794, 49.5160371], [6.0010997, 49.5160593], [6.0010856, 49.5160587], [6.0010736, 49.5160582], [6.0008351, 49.5160484], [6.0007902, 49.5160318], [6.0007617, 49.5160275], [6.000624, 49.5160263], [6.0004277, 49.516022], [6.0003439, 49.5160194], [6.000256, 49.5160168], [5.9997258, 49.515972], [5.9990426, 49.5158933], [5.999153, 49.5156955], [5.9992931, 49.5154483], [5.9991591, 49.5154076], [5.9991256, 49.5154666], [5.9981652, 49.5150252], [5.9981875, 49.5149794], [5.9977901, 49.514879], [5.9985464, 49.5138066], [5.9986688, 49.5135917], [5.9988159, 49.5133332], [5.9988464, 49.513223], [5.9988957, 49.5130451], [5.9988971, 49.5130402], [5.9990823, 49.5125376], [5.9991312, 49.5124049], [5.9993538, 49.5118196], [5.9994029, 49.5116905], [5.9996478, 49.5107648], [6.0009556, 49.5106902], [6.0011088, 49.5102143], [6.0012569, 49.5097544], [6.0000185, 49.5087698], [5.9999278, 49.5086977], [5.9988258, 49.5092237], [5.996135, 49.508788], [5.9947985, 49.5085311], [5.9921031, 49.5068002], [5.9895578, 49.506012], [5.9890173, 49.5059589], [5.9884539, 49.5059922], [5.9885904, 49.5065876], [5.9884919, 49.506889], [5.988186, 49.5086213], [5.9880343, 49.5094984], [5.9880264, 49.5095269], [5.9880229, 49.5095521], [5.9880145, 49.5095974], [5.9878694, 49.510322], [5.9878041, 49.5108175], [5.9864684, 49.5138136], [5.9865202, 49.5138244], [5.9865451, 49.5138278], [5.9865737, 49.5138406], [5.9865837, 49.5138422], [5.9869552, 49.5139107], [5.9874793, 49.514007], [5.9877454, 49.5140428], [5.9878897, 49.5140621], [5.9881808, 49.5141008], [5.988687, 49.514162], [5.9893859, 49.5142507], [5.9904101, 49.5144029], [5.9904498, 49.5144097], [5.990511, 49.5144201], [5.990858, 49.5144788], [5.9917624, 49.5146351], [5.991759, 49.5146793], [5.9917573, 49.5147235], [5.9918325, 49.5147471], [5.9919073, 49.5147706], [5.9919089, 49.5147711], [5.9922459, 49.5148587], [5.9924845, 49.5149316], [5.9926078, 49.5149631], [5.9927143, 49.5149904], [5.9932104, 49.5150729], [5.9934701, 49.5151158], [5.9936481, 49.515165], [5.9938348, 49.5152336], [5.9939493, 49.5152814], [5.9940483, 49.5153242], [5.99407, 49.5153351], [5.9941287, 49.5153647], [5.9947198, 49.5157048], [5.994761, 49.515727], [5.9948892, 49.5157961], [5.9955883, 49.5161728], [5.9958965, 49.5163499], [5.9960663, 49.5164571], [5.9964173, 49.5166939], [5.9966112, 49.5168305], [5.9970542, 49.5171425], [5.9973062, 49.5173046], [5.9974068, 49.5173684], [5.9974224, 49.5173783], [5.9974941, 49.5174238], [5.9975119, 49.5174351], [5.9976697, 49.5175352], [5.9981441, 49.5178296], [5.9983134, 49.5179248], [5.998367, 49.517955], [5.9987875, 49.5181776], [5.9995171, 49.5185443], [5.9996645, 49.5186183]]]}}]}