{"type": "FeatureCollection", "features": [{"type": "Feature", "properties": {"name": "Lankelz"}, "geometry": {"type": "Polygon", "coordinates": [[[5.9762878, 49.5123577], [5.9763585, 49.5123483], [5.9764254, 49.5123397], [5.9764457, 49.5123371], [5.9766457, 49.5123112], [5.9771608, 49.5122385], [5.9772084, 49.5122327], [5.9772308, 49.51223], [5.977311, 49.5122202], [5.9774023, 49.5122094], [5.9774674, 49.5122018], [5.9775612, 49.5121907], [5.9777556, 49.5121656], [5.9778211, 49.5121571], [5.9778766, 49.5121499], [5.9779378, 49.512142], [5.9781001, 49.512121], [5.9783282, 49.5120916], [5.9783343, 49.5120908], [5.9784159, 49.5120798], [5.9785147, 49.5120665], [5.9785823, 49.5120575], [5.9788151, 49.5120262], [5.9790783, 49.5119908], [5.979191, 49.5119757], [5.9793021, 49.5119612], [5.9793323, 49.5119573], [5.9793993, 49.5119485], [5.9795693, 49.5119264], [5.9796196, 49.5119198], [5.9797321, 49.511905], [5.9798615, 49.5118877], [5.9800177, 49.5118672], [5.9800477, 49.5118633], [5.9802346, 49.5118388], [5.9804163, 49.5118155], [5.9806368, 49.511786], [5.9806884, 49.5117791], [5.9810482, 49.511732], [5.9811432, 49.5117192], [5.9814615, 49.5116783], [5.9816152, 49.5116816], [5.981652, 49.5116746], [5.9819024, 49.5116277], [5.9824361, 49.5121012], [5.98279, 49.5123963], [5.9828461, 49.5124431], [5.9828652, 49.512459], [5.9829519, 49.5125314], [5.9830303, 49.5125951], [5.9831713, 49.5127066], [5.9834228, 49.5128818], [5.9837335, 49.5130832], [5.9839239, 49.5132136], [5.9840166, 49.5132887], [5.9840556, 49.5133276], [5.984098, 49.5133697], [5.9841024, 49.5133742], [5.984108, 49.5133797], [5.9841284, 49.5134001], [5.9841365, 49.5134095], [5.9841837, 49.5134652], [5.9842001, 49.5134845], [5.984222, 49.5135103], [5.9842475, 49.5135358], [5.9842945, 49.5135921], [5.9843327, 49.513643], [5.9843433, 49.5136571], [5.9843536, 49.5136708], [5.9843643, 49.5137196], [5.9843746, 49.5137457], [5.9844042, 49.5138233], [5.984457, 49.5139693], [5.9844649, 49.5139986], [5.9844759, 49.5140191], [5.9844782, 49.5140317], [5.9844812, 49.5140475], [5.9844855, 49.5140706], [5.9845049, 49.5141153], [5.984516, 49.5141274], [5.9845282, 49.5141406], [5.9845719, 49.5141693], [5.9846116, 49.514195], [5.9847113, 49.5142456], [5.9847356, 49.5142579], [5.9847512, 49.5142651], [5.9848628, 49.5143082], [5.984907, 49.5143207], [5.9849337, 49.5143283], [5.9850298, 49.5143555], [5.9854026, 49.5144483], [5.9858483, 49.5145444], [5.9858674, 49.5145481], [5.9861332, 49.5146014], [5.9861733, 49.5146083], [5.9861928, 49.5146114], [5.9862686, 49.5146268], [5.9863109, 49.5146353], [5.9863194, 49.514637], [5.986381, 49.5146478], [5.9863878, 49.5146489], [5.9864369, 49.5146569], [5.9864748, 49.514663], [5.9865017, 49.514668], [5.9865071, 49.5145227], [5.9865068, 49.514507], [5.9864595, 49.5142758], [5.9864586, 49.514264], [5.9864502, 49.5141987], [5.986443, 49.5141433], [5.9864309, 49.513949], [5.9864684, 49.5138136], [5.9878041, 49.5108175], [5.9878694, 49.510322], [5.9880145, 49.5095974], [5.9880229, 49.5095521], [5.9880264, 49.5095269], [5.9880343, 49.5094984], [5.988186, 49.5086213], [5.9884919, 49.506889], [5.9853714, 49.5066292], [5.9838804, 49.506505], [5.9810537, 49.5059211], [5.9797394, 49.5056477], [5.9773408, 49.5097601], [5.9762878, 49.5123577]]]}}]}