{"type": "FeatureCollection", "features": [{"type": "Feature", "properties": {"name": "Neiduerf"}, "geometry": {"type": "Polygon", "coordinates": [[[6.0037393, 49.4861875], [6.0041617, 49.4857459], [6.0042886, 49.4855727], [6.0048523, 49.4846187], [6.0050252, 49.4841084], [6.0050021, 49.4840569], [6.0050956, 49.4839414], [6.0051419, 49.4836673], [6.004912, 49.4836079], [6.0048521, 49.4835924], [6.0049465, 49.4833182], [6.0048411, 49.4830384], [6.0046651, 49.482751], [6.0045233, 49.4824931], [6.0044884, 49.4823895], [6.0043855, 49.4822831], [6.0043568, 49.4822534], [6.0035785, 49.4817987], [6.0035311, 49.4817709], [6.0032594, 49.4815664], [6.0031515, 49.4814852], [6.0026537, 49.4811104], [6.0025942, 49.4810419], [6.0025882, 49.481035], [6.0025235, 49.4809605], [6.0022119, 49.4805923], [6.0020033, 49.480358], [6.0019407, 49.4802936], [6.0013664, 49.4797035], [6.0013493, 49.479686], [6.0011695, 49.4794888], [6.0010379, 49.4793242], [6.001029, 49.479313], [6.0009704, 49.4791359], [6.0009972, 49.4789545], [6.0010024, 49.4789195], [6.0010131, 49.4788889], [6.0010485, 49.4787873], [6.0010658, 49.4787378], [6.0011341, 49.4786332], [6.0011722, 49.4785749], [6.0012832, 49.4783737], [6.0013471, 49.4782256], [6.0013871, 49.4780643], [6.0013881, 49.4780435], [6.0013917, 49.4779694], [6.0013895, 49.477946], [6.0013737, 49.4777725], [6.0013682, 49.4777507], [6.0013471, 49.4776677], [6.0013276, 49.4775907], [6.0013138, 49.4775366], [6.0013105, 49.4775235], [6.0013025, 49.4774933], [6.0010726, 49.4766254], [6.0013012, 49.476643], [6.0012635, 49.4766015], [6.000614, 49.475927], [6.0003664, 49.4756993], [6.0001489, 49.4755133], [6.0000101, 49.4754022], [5.9998306, 49.4752796], [5.9996437, 49.4751683], [5.9994766, 49.4750901], [5.9992249, 49.4750072], [5.9988221, 49.4749028], [5.9984504, 49.4748126], [5.9979216, 49.474697], [5.996946, 49.4744922], [5.9961402, 49.4743241], [5.995873, 49.4742684], [5.9945231, 49.4760669], [5.9925911, 49.4795073], [5.9916228, 49.482064], [5.9907951, 49.483444], [5.992604, 49.4844407], [5.9944587, 49.4844853], [5.9942069, 49.4850952], [5.9935428, 49.4852439], [5.9936115, 49.486538], [5.9939092, 49.4864934], [5.9942069, 49.4878768], [5.9931078, 49.4876834], [5.9928788, 49.4884569], [5.9940695, 49.4887097], [5.9942526, 49.4893939], [5.9939779, 49.4904351], [5.9931765, 49.4915209], [5.9921919, 49.4924727], [5.9918026, 49.4932015], [5.9914363, 49.4935585], [5.9910928, 49.4932759], [5.990589, 49.4936031], [5.9897647, 49.4927405], [5.9891465, 49.4933205], [5.9886886, 49.4930825], [5.9886657, 49.4935733], [5.9883485, 49.4940126], [5.9883451, 49.4940195], [5.988368, 49.4944062], [5.9883451, 49.4950308], [5.9878184, 49.4946293], [5.9868568, 49.4953729], [5.9885512, 49.4964437], [5.9913971, 49.4989322], [5.9941698, 49.5010233], [5.9973881, 49.502782], [5.9973992, 49.5026306], [5.9976347, 49.502332], [5.9977033, 49.5021585], [5.9976654, 49.5021276], [5.9976108, 49.5019988], [5.9978917, 49.5013259], [5.9979637, 49.5011755], [5.9980209, 49.5010713], [5.9980677, 49.500998], [5.9981458, 49.5008957], [5.9982257, 49.5008098], [5.9983077, 49.5007317], [5.9984483, 49.5006218], [5.9985842, 49.5005159], [5.9985609, 49.5005117], [5.9985323, 49.5005065], [5.9982985, 49.5004639], [5.9981882, 49.5004428], [5.998076, 49.5004166], [5.9978997, 49.5003667], [5.9977294, 49.5003078], [5.997503, 49.5002226], [5.9973207, 49.5001545], [5.9973155, 49.5001234], [5.9975494, 49.4997688], [5.9971341, 49.4996499], [5.9969149, 49.4999741], [5.9966489, 49.4998628], [5.9963926, 49.4997276], [5.9961769, 49.499596], [5.9959545, 49.4994703], [5.995799, 49.4993673], [5.9956953, 49.4993008], [5.9956275, 49.4992539], [5.9955419, 49.4991835], [5.9951338, 49.4988279], [5.9948838, 49.498593], [5.9944797, 49.4982465], [5.9938633, 49.4977468], [5.9938255, 49.4977161], [5.9936399, 49.4975533], [5.9935017, 49.4973938], [5.9933553, 49.4972278], [5.9933201, 49.4971696], [5.993296, 49.4971177], [5.993279, 49.4970582], [5.9932681, 49.4969759], [5.9932765, 49.4968749], [5.9932862, 49.49682], [5.99329, 49.496799], [5.9933237, 49.496689], [5.9933534, 49.496598], [5.9933902, 49.4965128], [5.9934381, 49.4964225], [5.9935133, 49.4963337], [5.9935304, 49.4963109], [5.9935998, 49.4962183], [5.9937128, 49.4960897], [5.9937787, 49.4960194], [5.9938702, 49.4959238], [5.9939496, 49.4958486], [5.9941202, 49.4957075], [5.994123, 49.4957052], [5.9943037, 49.4956355], [5.99453, 49.4958382], [5.9945562, 49.4958617], [5.9947206, 49.4957946], [5.9947443, 49.4959597], [5.9948988, 49.4959132], [5.9951995, 49.4958367], [5.9954214, 49.4958005], [5.9956859, 49.4957709], [5.9962297, 49.4957264], [5.9965181, 49.4957086], [5.9967485, 49.4956881], [5.9968948, 49.49567], [5.9972955, 49.4956027], [5.997344, 49.4954945], [5.9973943, 49.4954032], [5.9974507, 49.4953159], [5.9975222, 49.4952189], [5.9976046, 49.4951173], [5.9977212, 49.4949922], [5.9978197, 49.4949036], [5.9979984, 49.4947551], [5.9981156, 49.4947528], [5.9987434, 49.4947405], [5.9988019, 49.494631], [5.9979728, 49.4946154], [5.9980783, 49.4941863], [5.9980351, 49.4941674], [5.9980157, 49.4941589], [5.9980107, 49.4941567], [5.9980095, 49.4941562], [5.9979991, 49.4941517], [5.9979935, 49.4941492], [5.9978562, 49.4940892], [5.9978509, 49.494087], [5.9973302, 49.4938595], [5.9970109, 49.4937201], [5.9964597, 49.4934793], [5.9967, 49.4933935], [5.9969907, 49.4932896], [5.9973034, 49.4931779], [5.9976124, 49.4930674], [5.9982137, 49.4928526], [5.9985171, 49.4927441], [5.9988394, 49.4926289], [5.9991955, 49.4925017], [5.9995279, 49.4925178], [6.0001945, 49.4925775], [6.0006169, 49.492612], [6.0012094, 49.4926768], [6.0016748, 49.4927251], [6.0019351, 49.4927385], [6.0022194, 49.4927494], [6.0031527, 49.492722], [6.0031273, 49.4920093], [6.0031019, 49.4912967], [6.0029898, 49.491277], [6.0028457, 49.4912493], [6.0026816, 49.4912152], [6.0025436, 49.4911798], [6.0024635, 49.4911588], [6.0023136, 49.491105], [6.0021296, 49.491033], [6.0019756, 49.4909715], [6.0020324, 49.4907615], [6.0016359, 49.4906701], [6.0004814, 49.4903879], [5.9996112, 49.4901609], [5.9994991, 49.4901334], [5.9993801, 49.490108], [5.9989438, 49.4900304], [5.9987578, 49.4899923], [5.9985997, 49.4899516], [5.9984017, 49.4898952], [5.9982117, 49.4898297], [5.9980657, 49.4897772], [5.9978677, 49.4896934], [5.9985094, 49.4894282], [5.9990889, 49.4891941], [5.9992392, 49.4891383], [5.9996801, 49.4889694], [6.0000618, 49.4888309], [6.0004787, 49.4886867], [6.00099, 49.4884969], [6.0012819, 49.4883883], [6.0016508, 49.4882322], [6.0018633, 49.4881451], [6.0020658, 49.4880671], [6.0022142, 49.4880125], [6.0024427, 49.4879345], [6.0027273, 49.4878449], [6.0029538, 49.4877786], [6.0031837, 49.4877278], [6.0031082, 49.4875542], [6.0030625, 49.4874641], [6.0030047, 49.4873739], [6.0029363, 49.4872902], [6.002899, 49.4872446], [6.002857, 49.4871995], [6.0027956, 49.4871337], [6.0027748, 49.4871114], [6.0027473, 49.4870819], [6.0027308, 49.4870642], [6.0026994, 49.4870305], [6.0026868, 49.487017], [6.0026838, 49.4870138], [6.002679, 49.4870086], [6.0026703, 49.4869993], [6.0026689, 49.4869977], [6.0026652, 49.4869938], [6.0026598, 49.486988], [6.0022871, 49.4869465], [6.0019225, 49.4868945], [6.0015965, 49.4868426], [6.0014284, 49.4868106], [6.0011074, 49.4867299], [6.0007592, 49.4866396], [6.0006931, 49.4866721], [6.0006241, 49.4867024], [6.0005914, 49.486713], [6.0005511, 49.486726], [6.0004213, 49.4867562], [5.9999548, 49.4868535], [5.9996036, 49.4869319], [5.9988939, 49.4870966], [5.998571, 49.4871789], [5.9981643, 49.4873142], [5.9978417, 49.4874474], [5.9975355, 49.4875807], [5.9974602, 49.487608], [5.9973035, 49.4873558], [5.9972075, 49.4871894], [5.9970814, 49.4869388], [5.9969024, 49.4865874], [5.9968071, 49.4864167], [5.996705, 49.4862009], [5.9966338, 49.4859487], [5.9965946, 49.4857912], [5.9965674, 49.4856297], [5.9965521, 49.4854769], [5.9965488, 49.4853697], [5.9965655, 49.4852837], [5.9965788, 49.4852004], [5.9966115, 49.485116], [5.9966543, 49.48505], [5.9966582, 49.4850455], [5.9966945, 49.4850032], [5.9967271, 49.4849742], [5.9967839, 49.4849333], [5.9968651, 49.4848912], [5.9969605, 49.4848557], [5.9972567, 49.4847584], [5.9975163, 49.4846624], [5.9977172, 49.4845808], [5.9979628, 49.4844728], [5.998188, 49.4843609], [5.9986163, 49.4841502], [5.9988399, 49.4840429], [5.9990124, 49.4839758], [5.9991378, 49.4839494], [5.9991867, 49.4839391], [5.9994705, 49.4838999], [5.9996327, 49.483883], [5.9999123, 49.4838675], [5.9998977, 49.4836066], [5.9998799, 49.483288], [6.0002564, 49.4833863], [6.0003616, 49.4840047], [6.0003696, 49.484052], [6.0004226, 49.4844646], [6.0004445, 49.4845848], [6.0004717, 49.4846816], [6.0004799, 49.4847111], [6.0004845, 49.4847275], [6.0005064, 49.4847825], [6.0005629, 49.4849243], [6.0006353, 49.4850631], [6.0007848, 49.4852761], [6.0008368, 49.4853366], [6.00091, 49.485417], [6.0009845, 49.4854958], [6.0010524, 49.4855582], [6.0011466, 49.485625], [6.001233, 49.485679], [6.0013455, 49.4857424], [6.0014799, 49.485814], [6.0015847, 49.4858637], [6.0016959, 49.4859092], [6.0018047, 49.4859478], [6.0019147, 49.4859813], [6.0020636, 49.4860206], [6.0022299, 49.4860602], [6.0024134, 49.4860989], [6.0027305, 49.4861549], [6.0029214, 49.4861789], [6.003059, 49.4861919], [6.0032059, 49.4861998], [6.0033615, 49.486202], [6.0035313, 49.4861995], [6.0035533, 49.4862014], [6.0036844, 49.4861829], [6.0037393, 49.4861875]]]}}]}