{"type": "FeatureCollection", "features": [{"type": "Feature", "properties": {"name": "Park"}, "geometry": {"type": "Polygon", "coordinates": [[[5.9873182, 49.4626404], [5.9860138, 49.4628828], [5.9848348, 49.4630433], [5.9836091, 49.4632916], [5.9825788, 49.4635187], [5.9819892, 49.4627807], [5.9818565, 49.462486], [5.98156, 49.4618197], [5.9814385, 49.4612191], [5.9808175, 49.4611715], [5.9804195, 49.4611407], [5.9803651, 49.461132], [5.9801461, 49.4610805], [5.9795715, 49.460944], [5.9794161, 49.4609072], [5.9793096, 49.4609063], [5.9787194, 49.4611845], [5.9783954, 49.4616427], [5.9782799, 49.4618009], [5.9781594, 49.4619644], [5.9780522, 49.4620965], [5.9779642, 49.4621936], [5.9778438, 49.4623235], [5.977774, 49.4623668], [5.9776407, 49.4624448], [5.9774785, 49.4625329], [5.9772957, 49.4626266], [5.9770839, 49.4626729], [5.9768615, 49.4627138], [5.9766951, 49.4627359], [5.9765227, 49.4627547], [5.9763665, 49.4627649], [5.9757782, 49.4627875], [5.9757239, 49.4630442], [5.9757567, 49.4634283], [5.975563, 49.4637184], [5.9754871, 49.4638018], [5.9754044, 49.4638918], [5.9751332, 49.4641878], [5.974698, 49.4645046], [5.9745269, 49.4646982], [5.9744347, 49.4648071], [5.9743445, 49.4649312], [5.9742809, 49.4650214], [5.9740052, 49.4654859], [5.9739666, 49.4665999], [5.9739557, 49.4667931], [5.9739372, 49.4669096], [5.9737345, 49.468002], [5.9736264, 49.4685917], [5.9728679, 49.4691442], [5.9722451, 49.4693548], [5.9719402, 49.4695669], [5.9719636, 49.4697632], [5.9719835, 49.4698309], [5.9719994, 49.4698776], [5.9720154, 49.4699177], [5.9720494, 49.4699822], [5.9720825, 49.4700302], [5.9721978, 49.4701645], [5.972343, 49.4703107], [5.9725207, 49.4704963], [5.9726471, 49.4706319], [5.9726843, 49.4706714], [5.9727154, 49.4707155], [5.9727504, 49.470778], [5.9727743, 49.4708404], [5.972785, 49.470905], [5.9727957, 49.4710155], [5.9727974, 49.4711029], [5.972788, 49.4711883], [5.9727613, 49.471298], [5.9727378, 49.4713735], [5.9726883, 49.471478], [5.9724833, 49.4718161], [5.9723493, 49.4720597], [5.9722803, 49.4722058], [5.9722528, 49.4722813], [5.9722323, 49.4723535], [5.9722221, 49.4723936], [5.9722159, 49.4724576], [5.9722157, 49.4725088], [5.9722245, 49.4725765], [5.9722324, 49.472618], [5.9722443, 49.4726732], [5.9722662, 49.4727416], [5.9723171, 49.4728751], [5.9723708, 49.4730093], [5.9724247, 49.4731409], [5.9724436, 49.4732086], [5.9724613, 49.4733131], [5.9724709, 49.4734347], [5.9724705, 49.4735558], [5.972468, 49.4736676], [5.9724605, 49.4737687], [5.9724398, 49.4739284], [5.9724152, 49.4740639], [5.9723906, 49.4741578], [5.972356, 49.474253], [5.9723101, 49.4743785], [5.9715943, 49.4746454], [5.9712146, 49.4745118], [5.9706766, 49.4747971], [5.9698335, 49.4752435], [5.969646, 49.475508], [5.9699566, 49.4754849], [5.9700362, 49.4754791], [5.970132, 49.4754754], [5.9702096, 49.4754761], [5.9703258, 49.4754818], [5.9705164, 49.4754911], [5.9710063, 49.4755163], [5.9713192, 49.4755285], [5.9713742, 49.4755307], [5.9715903, 49.475535], [5.9716871, 49.4755332], [5.9724135, 49.4755305], [5.9724096, 49.4755395], [5.9724031, 49.4755543], [5.9729086, 49.4759462], [5.9729639, 49.4759857], [5.9730208, 49.476019], [5.9731999, 49.4761133], [5.9734564, 49.4762602], [5.9736284, 49.476369], [5.9737918, 49.4764857], [5.9739687, 49.4766319], [5.9741002, 49.4767544], [5.9742866, 49.4769481], [5.9745363, 49.4772557], [5.9746693, 49.4774349], [5.9747934, 49.4776347], [5.9748885, 49.477841], [5.9749339, 49.4779481], [5.9749593, 49.478038], [5.9750043, 49.4781901], [5.976062, 49.4784734], [5.9779473, 49.4811786], [5.9790197, 49.4827172], [5.9792243, 49.4833178], [5.9794655, 49.4838811], [5.9793506, 49.4842375], [5.9793944, 49.4845327], [5.979563, 49.4848897], [5.9794847, 49.4853957], [5.9794438, 49.4858354], [5.9792516, 49.4859874], [5.9785482, 49.486016], [5.978387, 49.4875677], [5.9791491, 49.4888053], [5.9795594, 49.4891289], [5.981186, 49.4901475], [5.9805608, 49.4906328], [5.9809741, 49.4908463], [5.9821562, 49.491674], [5.9832595, 49.4925963], [5.9848148, 49.4938451], [5.9855974, 49.4944806], [5.9868568, 49.4953729], [5.9878184, 49.4946293], [5.9883451, 49.4950308], [5.988368, 49.4944062], [5.9883451, 49.4940195], [5.9883485, 49.4940126], [5.9886657, 49.4935733], [5.9886886, 49.4930825], [5.9891465, 49.4933205], [5.9897647, 49.4927405], [5.990589, 49.4936031], [5.9910928, 49.4932759], [5.9914363, 49.4935585], [5.9918026, 49.4932015], [5.9921919, 49.4924727], [5.9931765, 49.4915209], [5.9939779, 49.4904351], [5.9942526, 49.4893939], [5.9940695, 49.4887097], [5.9928788, 49.4884569], [5.9931078, 49.4876834], [5.9942069, 49.4878768], [5.9939092, 49.4864934], [5.9936115, 49.486538], [5.9935428, 49.4852439], [5.9942069, 49.4850952], [5.9944587, 49.4844853], [5.992604, 49.4844407], [5.9907951, 49.483444], [5.9916228, 49.482064], [5.9925911, 49.4795073], [5.9945231, 49.4760669], [5.995873, 49.4742684], [5.9959481, 49.474185], [5.995975, 49.4741512], [5.9963239, 49.4737588], [5.9961626, 49.4736684], [5.9959532, 49.4735574], [5.9959116, 49.4735383], [5.9958637, 49.4735247], [5.9957905, 49.4735128], [5.9955036, 49.473469], [5.9954702, 49.4734442], [5.9953978, 49.4733715], [5.995344, 49.4733232], [5.9952666, 49.4732609], [5.9952011, 49.4732153], [5.9951338, 49.4731758], [5.995052, 49.4731317], [5.9949625, 49.4730916], [5.9948722, 49.4730566], [5.9949074, 49.4729742], [5.9949808, 49.4728347], [5.9950787, 49.4726837], [5.9951593, 49.4725727], [5.9952398, 49.4724718], [5.9953275, 49.4723668], [5.9954077, 49.472286], [5.9954762, 49.4722223], [5.9955223, 49.472181], [5.9955984, 49.4721174], [5.9956747, 49.4720611], [5.9960061, 49.4718449], [5.9960854, 49.4717956], [5.9961465, 49.4717582], [5.9963809, 49.4716148], [5.9964289, 49.4715855], [5.9965576, 49.4715026], [5.9968269, 49.4713491], [5.9971093, 49.4711883], [5.9972899, 49.4710843], [5.9968073, 49.4709251], [5.996435, 49.4708023], [5.9963545, 49.4707625], [5.9961685, 49.4706914], [5.9959767, 49.4705935], [5.9958529, 49.4705119], [5.9956486, 49.4703771], [5.9956073, 49.4703498], [5.9953653, 49.4702418], [5.9949285, 49.4700481], [5.994834, 49.4700054], [5.994754, 49.4699578], [5.9944661, 49.4697862], [5.9939391, 49.4694205], [5.9935128, 49.4691413], [5.9932776, 49.4689917], [5.9930643, 49.4688628], [5.9929781, 49.4688128], [5.9928839, 49.4687587], [5.9927951, 49.4687076], [5.9924968, 49.46853], [5.992489, 49.468525], [5.9924626, 49.4685084], [5.9921433, 49.4683073], [5.9920449, 49.4682448], [5.9919374, 49.4681329], [5.9917966, 49.4680107], [5.9915839, 49.4678281], [5.9913165, 49.4676703], [5.9912048, 49.4676043], [5.9911488, 49.4675698], [5.9911128, 49.4675506], [5.9910703, 49.4675254], [5.9908991, 49.4674466], [5.9906924, 49.4673514], [5.9906381, 49.4673343], [5.9902607, 49.4671889], [5.9898473, 49.4670338], [5.9897763, 49.4670066], [5.9898132, 49.4666377], [5.9897537, 49.4665329], [5.9896861, 49.4662692], [5.9896592, 49.4660229], [5.9895923, 49.4658479], [5.9895576, 49.4657563], [5.9896585, 49.4654002], [5.9900001, 49.464979], [5.9898259, 49.4647656], [5.9897145, 49.4645316], [5.9896245, 49.4643441], [5.9885985, 49.4636001], [5.988469, 49.463506], [5.9884327, 49.4634796], [5.9879229, 49.4631094], [5.9873182, 49.4626404]]]}}]}