{"type": "FeatureCollection", "features": [{"type": "Feature", "properties": {"name": "Sommet"}, "geometry": {"type": "Polygon", "coordinates": [[[5.9586723, 49.5120327], [5.9587843, 49.5120338], [5.9590951, 49.5120347], [5.9596564, 49.5120164], [5.9606529, 49.5120045], [5.961176, 49.5120296], [5.961821, 49.5120761], [5.9618995, 49.5120818], [5.9629328, 49.5121893], [5.9630774, 49.5122081], [5.9639633, 49.5123826], [5.9654067, 49.5126303], [5.9663459, 49.5128141], [5.9666526, 49.5128742], [5.9667188, 49.5128871], [5.9664959, 49.5131007], [5.9663572, 49.5132337], [5.9658936, 49.513678], [5.9666017, 49.5142885], [5.9667267, 49.5143963], [5.9668518, 49.5144433], [5.9680441, 49.5097635], [5.9690823, 49.5065733], [5.9661482, 49.5064405], [5.9604316, 49.5079651], [5.9580133, 49.5080925], [5.9575135, 49.5081864], [5.9576178, 49.508386], [5.9575421, 49.5086463], [5.9572713, 49.5088198], [5.9572677, 49.5089839], [5.9586723, 49.5120327]]]}}]}