{"type": "FeatureCollection", "features": [{"type": "Feature", "properties": {"name": "Uecht"}, "geometry": {"type": "Polygon", "coordinates": [[[5.9681898, 49.497654], [5.9708481, 49.4987575], [5.9725151, 49.4993404], [5.9748972, 49.4999181], [5.9767832, 49.4999947], [5.9774031, 49.5001498], [5.9776221, 49.5000404], [5.9777104, 49.4999948], [5.9777412, 49.4999774], [5.9781007, 49.4997901], [5.9782208, 49.499713], [5.9783409, 49.4996168], [5.9784548, 49.4995105], [5.9790583, 49.4988528], [5.9790961, 49.4988109], [5.9795735, 49.4982954], [5.9805543, 49.4972381], [5.9806281, 49.4971797], [5.9807347, 49.497097], [5.9795067, 49.4960868], [5.9793693, 49.4953878], [5.977858, 49.4948821], [5.9768963, 49.4945103], [5.9755225, 49.4941385], [5.9731038, 49.4934277], [5.9723072, 49.4939114], [5.9721842, 49.493964], [5.9711881, 49.4943902], [5.9706634, 49.4946947], [5.9702961, 49.4948586], [5.9694735, 49.4951737], [5.9689201, 49.495529], [5.9687471, 49.4956627], [5.9685583, 49.4958149], [5.9684696, 49.4960316], [5.9683216, 49.4964774], [5.9682968, 49.4965777], [5.9682757, 49.4967165], [5.9682301, 49.4971441], [5.9681898, 49.497654]]]}}]}