{"type": "FeatureCollection", "features": [{"type": "Feature", "properties": {"name": "Wobrecken"}, "geometry": {"type": "Polygon", "coordinates": [[[5.9797394, 49.5056477], [5.9810537, 49.5059211], [5.9838804, 49.506505], [5.9853714, 49.5066292], [5.9884919, 49.506889], [5.9885904, 49.5065876], [5.9884539, 49.5059922], [5.9881698, 49.5053123], [5.9860582, 49.5052971], [5.9853015, 49.5051471], [5.9841837, 49.5045791], [5.9839821, 49.5045033], [5.9815446, 49.5034022], [5.9803428, 49.5028763], [5.9795266, 49.5025092], [5.9798734, 49.5021009], [5.9801406, 49.5017726], [5.9789781, 49.5012857], [5.9775219, 49.5005686], [5.9774031, 49.5001498], [5.9741271, 49.5017316], [5.9732295, 49.5019933], [5.9721783, 49.5024109], [5.9738105, 49.5034586], [5.9757183, 49.5044154], [5.9774213, 49.5049373], [5.9797394, 49.5056477]]]}}]}