{"type": "FeatureCollection", "features": [{"type": "Feature", "properties": {"name": "Zaepert"}, "geometry": {"type": "Polygon", "coordinates": [[[5.9668518, 49.5144433], [5.9672897, 49.5142548], [5.9675063, 49.5141615], [5.9675574, 49.5141396], [5.9675979, 49.5141228], [5.9678993, 49.5139919], [5.9679498, 49.5139683], [5.9680772, 49.5139087], [5.9681248, 49.5138865], [5.9681959, 49.5138553], [5.968299, 49.51381], [5.9683076, 49.5138065], [5.9683612, 49.5137849], [5.9683641, 49.5137837], [5.9683692, 49.5137816], [5.9684868, 49.5137341], [5.9685339, 49.5137151], [5.9686362, 49.513676], [5.9687617, 49.513628], [5.9687745, 49.5136231], [5.9688145, 49.5136079], [5.9688996, 49.5135756], [5.9691244, 49.513496], [5.9691719, 49.5134812], [5.9693122, 49.5134372], [5.9694663, 49.5134004], [5.9695682, 49.5133702], [5.9695758, 49.513368], [5.9696881, 49.5133363], [5.9697683, 49.5133136], [5.9699014, 49.513276], [5.9700411, 49.5132365], [5.9701771, 49.5131981], [5.9702242, 49.5131848], [5.9703073, 49.5131623], [5.9703937, 49.5131389], [5.9704417, 49.5131258], [5.9705881, 49.5130862], [5.9706609, 49.5130664], [5.9707499, 49.5130423], [5.9711156, 49.5129519], [5.9711611, 49.512938], [5.9712392, 49.5129168], [5.9713725, 49.5128807], [5.9714394, 49.5128625], [5.9715926, 49.5128259], [5.971629, 49.5128192], [5.9717112, 49.5128039], [5.9717698, 49.512795], [5.9718365, 49.512785], [5.9719235, 49.512773], [5.9719508, 49.5127693], [5.9719897, 49.512766], [5.9720646, 49.5127594], [5.9722089, 49.5127466], [5.9723699, 49.5127324], [5.9725203, 49.5127191], [5.9726662, 49.5127062], [5.9729768, 49.5126787], [5.9730361, 49.5126735], [5.9731461, 49.5126639], [5.9733253, 49.5126556], [5.9734504, 49.5126498], [5.9735486, 49.5126456], [5.9736099, 49.512643], [5.9736414, 49.5126417], [5.9736823, 49.5126388], [5.9738406, 49.5126263], [5.9740449, 49.5126082], [5.9741675, 49.5126001], [5.9742393, 49.5125954], [5.974287, 49.5125902], [5.9744217, 49.5125752], [5.9744855, 49.5125681], [5.9745448, 49.5125616], [5.9745991, 49.5125555], [5.9747945, 49.5125335], [5.9749634, 49.5125144], [5.974986, 49.5125118], [5.9751952, 49.5124882], [5.975417, 49.5124632], [5.9754854, 49.5124554], [5.9755577, 49.5124474], [5.9756486, 49.5124373], [5.9758956, 49.5124099], [5.9759073, 49.5124084], [5.9761999, 49.5123694], [5.9762878, 49.5123577], [5.9773408, 49.5097601], [5.9797394, 49.5056477], [5.9732165, 49.5057948], [5.9708467, 49.5059723], [5.9699809, 49.5064754], [5.9690823, 49.5065733], [5.9680441, 49.5097635], [5.9668518, 49.5144433]]]}}]}