{"type": "FeatureCollection", "features": [{"type": "Feature", "properties": {"name": "Bertrange"}, "geometry": {"type": "MultiPolygon", "coordinates": [[[[5.998434, 49.59451], [5.998503, 49.594696], [5.998522, 49.59475], [5.998686, 49.595238], [5.998671, 49.595387], [5.998655, 49.59551], [5.99864, 49.595737], [5.998629, 49.595833], [5.998625, 49.59589], [5.998621, 49.59602], [5.998609, 49.59622], [5.998606, 49.596325], [5.998609, 49.596424], [5.998613, 49.596455], [5.998613, 49.596478], [5.998625, 49.596577], [5.99864, 49.596733], [5.998701, 49.596767], [5.998755, 49.59681], [5.999136, 49.597088], [5.999334, 49.59762], [5.999563, 49.59822], [5.999754, 49.598785], [6.000166, 49.599068], [6.000952, 49.5996], [6.0016, 49.599957], [6.002302, 49.60034], [6.002596, 49.600502], [6.003622, 49.600998], [6.004782, 49.60162], [6.004808, 49.60164], [6.005579, 49.60225], [6.005705, 49.602352], [6.005777, 49.60243], [6.005796, 49.602448], [6.006308, 49.603172], [6.00633, 49.603203], [6.006384, 49.603283], [6.006823, 49.603672], [6.007093, 49.603905], [6.007147, 49.60393], [6.007616, 49.604134], [6.007986, 49.604267], [6.008299, 49.604286], [6.008554, 49.604305], [6.008593, 49.60431], [6.008795, 49.6053], [6.008825, 49.605354], [6.008863, 49.605457], [6.009008, 49.605835], [6.009111, 49.606125], [6.009287, 49.60661], [6.009462, 49.60704], [6.009512, 49.607204], [6.009573, 49.607246], [6.009813, 49.607403], [6.009993, 49.60753], [6.010363, 49.607628], [6.010801, 49.607735], [6.011118, 49.6078], [6.011519, 49.608124], [6.01182, 49.608356], [6.012121, 49.608597], [6.012674, 49.60907], [6.012587, 49.609573], [6.012697, 49.6101], [6.012808, 49.61036], [6.012941, 49.61061], [6.013037, 49.610825], [6.013075, 49.61091], [6.01309, 49.61094], [6.013174, 49.611084], [6.013357, 49.61136], [6.013647, 49.61121], [6.013887, 49.61105], [6.014105, 49.61088], [6.014139, 49.610855], [6.014753, 49.610676], [6.015322, 49.610493], [6.016375, 49.61009], [6.016806, 49.60994], [6.017244, 49.609802], [6.01742, 49.60978], [6.017996, 49.609753], [6.018621, 49.609745], [6.019239, 49.609753], [6.019556, 49.609768], [6.019735, 49.60977], [6.020159, 49.609707], [6.020788, 49.60961], [6.020853, 49.60962], [6.021006, 49.609604], [6.021391, 49.609562], [6.021566, 49.60955], [6.021757, 49.609547], [6.021906, 49.609543], [6.022119, 49.609554], [6.022383, 49.609573], [6.022696, 49.609604], [6.023058, 49.609642], [6.023356, 49.609665], [6.023394, 49.60964], [6.024263, 49.609737], [6.024897, 49.60984], [6.026457, 49.610058], [6.028124, 49.61034], [6.028631, 49.610424], [6.029223, 49.61044], [6.03026, 49.610447], [6.030806, 49.61045], [6.031126, 49.610416], [6.031347, 49.61035], [6.031389, 49.610405], [6.031626, 49.610752], [6.031931, 49.61109], [6.031988, 49.611088], [6.032064, 49.611153], [6.032305, 49.611362], [6.032469, 49.611523], [6.032572, 49.61164], [6.032701, 49.611774], [6.032865, 49.611923], [6.033129, 49.612133], [6.033415, 49.612316], [6.033525, 49.6124], [6.033621, 49.61249], [6.033537, 49.612534], [6.033457, 49.61257], [6.03343, 49.612583], [6.033327, 49.612606], [6.03306, 49.612667], [6.032808, 49.61272], [6.032927, 49.61298], [6.033003, 49.61316], [6.033136, 49.613132], [6.033281, 49.613106], [6.033403, 49.613083], [6.033453, 49.613235], [6.033483, 49.613354], [6.033522, 49.613533], [6.033544, 49.613636], [6.033552, 49.61371], [6.033579, 49.613922], [6.033587, 49.61408], [6.033575, 49.614243], [6.03356, 49.61439], [6.033525, 49.61453], [6.03351, 49.61458], [6.033468, 49.614727], [6.033682, 49.61476], [6.033888, 49.614796], [6.034231, 49.61481], [6.034555, 49.61486], [6.034433, 49.615047], [6.034262, 49.615383], [6.03414, 49.615665], [6.034102, 49.61577], [6.034056, 49.61589], [6.033991, 49.615887], [6.033983, 49.61603], [6.033983, 49.616226], [6.033987, 49.61652], [6.033991, 49.61669], [6.03401, 49.616917], [6.034048, 49.61715], [6.034086, 49.617332], [6.034296, 49.618065], [6.034422, 49.618492], [6.034487, 49.618694], [6.034643, 49.618713], [6.034697, 49.618717], [6.034742, 49.618942], [6.034765, 49.619026], [6.034834, 49.61926], [6.03488, 49.61939], [6.034903, 49.619442], [6.034925, 49.619488], [6.034975, 49.619583], [6.035048, 49.619698], [6.035116, 49.619793], [6.035196, 49.61988], [6.035326, 49.620003], [6.035299, 49.62004], [6.035273, 49.620075], [6.035242, 49.620125], [6.035501, 49.620438], [6.03554, 49.62052], [6.035708, 49.62074], [6.035753, 49.620792], [6.035883, 49.62099], [6.036005, 49.621197], [6.036062, 49.6213], [6.036078, 49.621338], [6.036089, 49.62141], [6.036104, 49.621613], [6.036097, 49.621693], [6.036085, 49.62177], [6.036074, 49.621838], [6.036047, 49.621956], [6.036028, 49.622154], [6.036032, 49.6223], [6.036055, 49.622414], [6.0361, 49.622555], [6.03615, 49.622643], [6.036219, 49.622738], [6.036264, 49.622787], [6.03636, 49.62285], [6.036512, 49.622917], [6.036589, 49.622963], [6.036669, 49.62303], [6.036703, 49.623066], [6.036764, 49.623127], [6.036829, 49.62319], [6.036886, 49.623253], [6.036928, 49.623287], [6.036985, 49.623325], [6.037058, 49.623361], [6.03708, 49.623372], [6.03718, 49.62343], [6.037286, 49.623487], [6.037329, 49.62351], [6.037358, 49.623536], [6.037392, 49.623573], [6.037408, 49.623593], [6.037454, 49.623654], [6.037533, 49.623745], [6.037691, 49.623873], [6.038153, 49.624002], [6.038137, 49.624026], [6.03842, 49.624252], [6.038824, 49.624393], [6.039122, 49.624485], [6.039362, 49.62454], [6.039568, 49.624584], [6.039648, 49.6246], [6.039732, 49.6246], [6.039804, 49.624584], [6.039892, 49.62455], [6.039965, 49.62447], [6.040075, 49.62444], [6.040205, 49.62442], [6.040361, 49.62442], [6.040655, 49.62451], [6.040907, 49.62465], [6.041094, 49.624798], [6.041254, 49.624992], [6.04141, 49.6252], [6.041517, 49.6254], [6.041494, 49.62543], [6.041391, 49.625538], [6.041338, 49.62557], [6.0413, 49.625587], [6.041273, 49.625618], [6.041265, 49.62565], [6.041307, 49.625706], [6.041445, 49.62585], [6.04151, 49.62593], [6.041532, 49.625973], [6.041552, 49.626038], [6.041578, 49.62611], [6.041616, 49.62617], [6.041681, 49.626225], [6.041754, 49.626266], [6.041826, 49.6263], [6.041883, 49.626324], [6.041975, 49.626347], [6.042055, 49.626324], [6.042208, 49.6264], [6.042284, 49.626465], [6.042314, 49.626526], [6.042334, 49.62658], [6.042391, 49.626667], [6.042429, 49.62673], [6.042429, 49.626778], [6.042406, 49.626873], [6.042414, 49.62692], [6.042452, 49.626984], [6.042536, 49.62709], [6.042627, 49.627182], [6.042677, 49.627213], [6.042784, 49.62722], [6.042868, 49.627243], [6.042917, 49.627285], [6.043089, 49.627457], [6.043222, 49.627537], [6.043383, 49.6276], [6.043585, 49.627632], [6.043676, 49.627655], [6.044397, 49.627945], [6.044493, 49.628036], [6.044558, 49.628204], [6.044752, 49.62832], [6.044985, 49.628426], [6.045351, 49.628517], [6.045542, 49.62855], [6.045893, 49.628532], [6.045893, 49.628506], [6.045862, 49.62835], [6.04587, 49.62824], [6.045916, 49.628117], [6.045977, 49.62802], [6.046091, 49.627903], [6.046251, 49.627777], [6.046541, 49.627617], [6.046831, 49.62746], [6.0473, 49.62719], [6.047602, 49.627018], [6.047911, 49.626835], [6.048182, 49.626713], [6.048544, 49.626553], [6.048822, 49.62645], [6.049048, 49.62638], [6.049559, 49.626263], [6.049738, 49.6262], [6.050211, 49.626007], [6.050695, 49.62582], [6.050543, 49.625603], [6.05047, 49.625496], [6.050455, 49.625477], [6.050413, 49.62541], [6.050341, 49.625298], [6.050257, 49.62517], [6.050188, 49.62507], [6.050066, 49.624886], [6.05065, 49.624664], [6.051001, 49.624535], [6.051119, 49.62448], [6.051245, 49.624428], [6.051348, 49.624382], [6.051569, 49.624294], [6.051832, 49.624203], [6.052034, 49.624138], [6.052061, 49.624126], [6.051996, 49.624], [6.051802, 49.623592], [6.051748, 49.62346], [6.051718, 49.62336], [6.051691, 49.623257], [6.051638, 49.62301], [6.051554, 49.622665], [6.0515, 49.62246], [6.051439, 49.62219], [6.051302, 49.622185], [6.051214, 49.622185], [6.051123, 49.62219], [6.05113, 49.622074], [6.05113, 49.62204], [6.051134, 49.621952], [6.052195, 49.622013], [6.052191, 49.62193], [6.052187, 49.62153], [6.052187, 49.62137], [6.052183, 49.620987], [6.052183, 49.62063], [6.052282, 49.6206], [6.052381, 49.620575], [6.052439, 49.62056], [6.05271, 49.620483], [6.052797, 49.62046], [6.052786, 49.6203], [6.052782, 49.620224], [6.052767, 49.62005], [6.052889, 49.620045], [6.053297, 49.620026], [6.05369, 49.620007], [6.053881, 49.62], [6.053995, 49.619995], [6.054228, 49.619984], [6.054468, 49.619972], [6.054445, 49.619785], [6.054411, 49.619526], [6.054384, 49.619354], [6.054369, 49.61925], [6.054357, 49.618984], [6.05435, 49.618904], [6.05435, 49.61888], [6.054331, 49.61815], [6.054327, 49.617733], [6.055101, 49.61782], [6.056307, 49.617977], [6.058683, 49.618263], [6.059145, 49.61833], [6.059488, 49.61837], [6.060362, 49.618412], [6.061613, 49.618465], [6.063051, 49.618553], [6.063051, 49.618507], [6.062967, 49.617928], [6.062964, 49.61791], [6.062937, 49.61769], [6.062933, 49.617664], [6.062929, 49.617645], [6.062914, 49.61752], [6.062849, 49.617043], [6.06283, 49.61692], [6.062796, 49.616653], [6.062765, 49.616398], [6.062876, 49.616394], [6.062799, 49.616104], [6.062757, 49.615967], [6.062727, 49.615845], [6.062704, 49.61574], [6.062689, 49.615704], [6.06259, 49.61532], [6.062582, 49.615284], [6.0627, 49.615273], [6.062613, 49.61508], [6.062594, 49.615044], [6.062509, 49.614857], [6.062433, 49.614697], [6.062365, 49.614536], [6.062319, 49.614433], [6.0623, 49.614395], [6.062262, 49.614304], [6.062098, 49.61393], [6.062056, 49.613842], [6.061995, 49.613705], [6.061811, 49.613308], [6.061949, 49.613346], [6.06217, 49.61339], [6.062353, 49.613422], [6.062483, 49.613438], [6.062616, 49.613445], [6.062769, 49.613445], [6.063005, 49.613422], [6.063219, 49.6134], [6.063288, 49.61356], [6.063456, 49.61351], [6.063574, 49.613472], [6.063646, 49.613453], [6.063788, 49.613396], [6.063917, 49.613342], [6.064005, 49.613304], [6.064188, 49.613304], [6.064249, 49.613297], [6.064287, 49.61329], [6.064436, 49.61325], [6.064508, 49.613235], [6.064775, 49.61317], [6.064966, 49.61314], [6.065062, 49.61313], [6.065226, 49.613102], [6.065302, 49.613083], [6.065397, 49.613064], [6.06542, 49.61306], [6.065676, 49.61301], [6.066065, 49.612923], [6.066446, 49.61284], [6.066919, 49.612732], [6.067434, 49.612606], [6.067652, 49.612568], [6.067717, 49.612556], [6.067755, 49.61255], [6.067923, 49.612526], [6.068212, 49.612488], [6.068388, 49.61246], [6.068468, 49.61245], [6.06864, 49.612427], [6.068685, 49.612415], [6.068888, 49.61238], [6.069056, 49.612347], [6.06914, 49.61246], [6.06922, 49.61258], [6.069368, 49.61279], [6.069849, 49.612556], [6.07044, 49.612267], [6.070711, 49.612137], [6.070913, 49.612064], [6.071016, 49.61203], [6.071116, 49.612], [6.071157, 49.611984], [6.071432, 49.611897], [6.071958, 49.611706], [6.072024, 49.611682], [6.072512, 49.611504], [6.072561, 49.611485], [6.072626, 49.611458], [6.073194, 49.611633], [6.073439, 49.611744], [6.073729, 49.611923], [6.073969, 49.612053], [6.074091, 49.612103], [6.074243, 49.612133], [6.074377, 49.612034], [6.074438, 49.611988], [6.074545, 49.611916], [6.074778, 49.61175], [6.074888, 49.61168], [6.074919, 49.611656], [6.075064, 49.611553], [6.075193, 49.611465], [6.075224, 49.61144], [6.075506, 49.611248], [6.07583, 49.61101], [6.075949, 49.610924], [6.07596, 49.610916], [6.07612, 49.610798], [6.076467, 49.61098], [6.076834, 49.610687], [6.07686, 49.610664], [6.076975, 49.61072], [6.076994, 49.610733], [6.077017, 49.610744], [6.077398, 49.610943], [6.077692, 49.6111], [6.078085, 49.6113], [6.07823, 49.611153], [6.07826, 49.611153], [6.078402, 49.61101], [6.078436, 49.61098], [6.078543, 49.610874], [6.078566, 49.610855], [6.078852, 49.61056], [6.078909, 49.6105], [6.078958, 49.610447], [6.079019, 49.61038], [6.079061, 49.610336], [6.079081, 49.610313], [6.079096, 49.6103], [6.079184, 49.610207], [6.079206, 49.610184], [6.079248, 49.610138], [6.079294, 49.61009], [6.079317, 49.61006], [6.079355, 49.610023], [6.079386, 49.60999], [6.079424, 49.60995], [6.079481, 49.60988], [6.079714, 49.609642], [6.079805, 49.60955], [6.079843, 49.609516], [6.080107, 49.60926], [6.080248, 49.609127], [6.079428, 49.608696], [6.078711, 49.60833], [6.078066, 49.60801], [6.078123, 49.60796], [6.078066, 49.60793], [6.078096, 49.60791], [6.078218, 49.607803], [6.078245, 49.607784], [6.078367, 49.607685], [6.078409, 49.60765], [6.078627, 49.60748], [6.078741, 49.60753], [6.079191, 49.60778], [6.079592, 49.6075], [6.080019, 49.607204], [6.080168, 49.607105], [6.080336, 49.606987], [6.080408, 49.606937], [6.080522, 49.606853], [6.080816, 49.606644], [6.080919, 49.60657], [6.080942, 49.606556], [6.081076, 49.60663], [6.081228, 49.6065], [6.081259, 49.606476], [6.081404, 49.60636], [6.081449, 49.60633], [6.0819, 49.605972], [6.082029, 49.605865], [6.082098, 49.60581], [6.082171, 49.60575], [6.082235, 49.6057], [6.082354, 49.605602], [6.082304, 49.605583], [6.082403, 49.605484], [6.082228, 49.60541], [6.082048, 49.605335], [6.081945, 49.605293], [6.081793, 49.605232], [6.081705, 49.605194], [6.081549, 49.605133], [6.081369, 49.60506], [6.081293, 49.60503], [6.081221, 49.605], [6.08124, 49.604885], [6.081247, 49.604847], [6.081266, 49.60477], [6.081293, 49.604702], [6.081354, 49.60456], [6.0814, 49.604446], [6.081457, 49.604332], [6.081602, 49.604256], [6.081099, 49.604393], [6.081015, 49.60431], [6.080999, 49.604263], [6.080984, 49.604225], [6.080954, 49.604107], [6.080946, 49.60406], [6.080942, 49.60401], [6.080942, 49.6039], [6.080957, 49.60384], [6.080973, 49.60373], [6.08098, 49.603645], [6.080996, 49.60352], [6.080958, 49.603234], [6.080957, 49.603226], [6.080954, 49.60319], [6.080679, 49.60327], [6.080427, 49.603344], [6.080378, 49.60333], [6.080271, 49.603306], [6.080084, 49.60326], [6.079985, 49.603237], [6.079531, 49.60313], [6.079321, 49.603085], [6.079294, 49.60308], [6.079283, 49.603085], [6.079058, 49.603157], [6.078951, 49.60318], [6.078829, 49.603207], [6.078756, 49.603218], [6.078642, 49.60323], [6.078291, 49.60322], [6.078279, 49.603027], [6.078279, 49.602882], [6.078276, 49.60278], [6.078283, 49.60266], [6.078299, 49.60248], [6.078325, 49.602295], [6.078352, 49.602135], [6.078375, 49.60202], [6.078383, 49.601994], [6.07839, 49.60195], [6.078436, 49.60181], [6.078512, 49.601585], [6.07823, 49.601562], [6.078062, 49.60155], [6.077799, 49.601532], [6.077661, 49.60152], [6.077116, 49.60148], [6.076982, 49.60189], [6.076662, 49.601776], [6.076628, 49.60176], [6.076391, 49.601677], [6.076342, 49.601658], [6.0762, 49.60161], [6.076078, 49.601562], [6.075998, 49.601536], [6.075838, 49.60148], [6.075804, 49.601467], [6.075361, 49.601307], [6.075033, 49.60119], [6.07498, 49.60117], [6.074656, 49.60105], [6.074789, 49.600945], [6.074854, 49.60089], [6.074953, 49.600796], [6.075056, 49.600697], [6.075136, 49.600613], [6.075254, 49.600483], [6.075361, 49.600357], [6.075464, 49.600227], [6.07554, 49.60012], [6.075586, 49.60005], [6.075594, 49.600014], [6.075609, 49.599792], [6.075609, 49.599663], [6.075598, 49.599564], [6.075567, 49.599407], [6.075533, 49.599247], [6.075514, 49.599136], [6.075499, 49.598984], [6.075491, 49.598827], [6.075499, 49.598675], [6.075495, 49.598564], [6.075483, 49.598495], [6.075457, 49.598396], [6.075437, 49.59832], [6.075426, 49.598244], [6.075426, 49.598156], [6.075453, 49.597973], [6.075468, 49.597908], [6.075495, 49.59784], [6.07554, 49.59772], [6.075571, 49.597652], [6.075632, 49.597523], [6.075663, 49.59746], [6.075766, 49.59742], [6.075682, 49.5972], [6.075605, 49.59699], [6.075811, 49.59697], [6.075937, 49.596962], [6.076063, 49.59696], [6.076204, 49.59696], [6.076365, 49.596962], [6.076521, 49.596966], [6.076601, 49.59696], [6.076654, 49.596943], [6.076712, 49.596916], [6.076761, 49.596886], [6.076818, 49.59684], [6.07686, 49.596798], [6.076922, 49.596714], [6.076979, 49.596634], [6.077116, 49.596436], [6.077249, 49.59625], [6.07733, 49.59614], [6.077394, 49.596058], [6.077505, 49.595913], [6.0776, 49.59579], [6.077837, 49.595505], [6.077692, 49.595383], [6.077421, 49.595146], [6.077249, 49.594994], [6.07715, 49.59491], [6.076998, 49.594788], [6.07683, 49.59466], [6.076696, 49.59457], [6.07657, 49.594482], [6.076456, 49.594418], [6.076281, 49.594315], [6.076159, 49.594242], [6.076029, 49.594154], [6.075758, 49.59396], [6.07567, 49.593895], [6.075567, 49.593822], [6.07543, 49.59375], [6.075243, 49.59367], [6.075003, 49.593563], [6.074892, 49.59351], [6.074858, 49.59349], [6.074789, 49.593445], [6.074724, 49.59339], [6.074652, 49.59332], [6.07461, 49.59327], [6.074495, 49.593113], [6.074408, 49.593002], [6.074335, 49.592922], [6.07427, 49.592854], [6.074179, 49.59277], [6.073923, 49.592545], [6.073652, 49.592297], [6.073355, 49.592037], [6.073149, 49.59186], [6.073053, 49.59178], [6.073004, 49.591747], [6.072851, 49.59165], [6.07263, 49.5915], [6.072363, 49.591324], [6.072172, 49.591194], [6.071955, 49.591038], [6.071772, 49.590904], [6.071566, 49.590763], [6.071428, 49.59067], [6.071253, 49.590572], [6.07097, 49.59042], [6.070806, 49.59034], [6.070669, 49.590275], [6.070564, 49.590219], [6.070051, 49.589996], [6.069889, 49.589954], [6.069776, 49.589928], [6.069357, 49.589825], [6.069277, 49.58981], [6.069166, 49.589787], [6.068224, 49.589542], [6.068117, 49.58951], [6.067896, 49.58945], [6.067533, 49.589355], [6.067205, 49.58927], [6.066301, 49.589027], [6.065199, 49.588737], [6.065054, 49.588696], [6.064505, 49.58856], [6.064257, 49.588493], [6.064115, 49.58847], [6.062716, 49.58823], [6.062277, 49.58816], [6.061899, 49.588074], [6.061029, 49.587902], [6.060621, 49.587814], [6.060293, 49.58775], [6.0599, 49.58767], [6.059854, 49.58766], [6.059797, 49.587658], [6.059763, 49.587654], [6.059309, 49.58763], [6.058866, 49.587627], [6.058588, 49.587616], [6.058294, 49.5876], [6.058268, 49.5876], [6.057901, 49.58758], [6.057424, 49.58755], [6.057226, 49.58752], [6.056784, 49.587456], [6.056765, 49.587456], [6.056574, 49.58743], [6.05615, 49.587368], [6.056101, 49.587364], [6.056036, 49.587353], [6.055929, 49.587337], [6.055681, 49.587284], [6.055479, 49.587242], [6.055437, 49.587234], [6.055265, 49.587196], [6.055181, 49.587173], [6.054922, 49.587097], [6.054651, 49.587044], [6.054552, 49.587032], [6.054491, 49.58703], [6.054277, 49.58703], [6.054167, 49.58702], [6.054106, 49.58701], [6.054037, 49.586994], [6.053858, 49.586956], [6.053701, 49.586914], [6.053564, 49.586876], [6.053236, 49.58677], [6.053137, 49.586754], [6.052874, 49.58672], [6.052755, 49.5867], [6.05275, 49.586699], [6.05261, 49.58667], [6.05237, 49.58663], [6.052175, 49.58661], [6.051996, 49.586582], [6.051855, 49.586555], [6.051699, 49.586514], [6.05147, 49.58644], [6.051428, 49.58643], [6.051313, 49.586414], [6.051188, 49.5864], [6.051058, 49.586372], [6.050981, 49.586353], [6.05094, 49.58634], [6.050806, 49.586296], [6.050554, 49.586193], [6.050367, 49.586113], [6.050264, 49.58608], [6.050173, 49.586052], [6.050028, 49.586018], [6.049784, 49.585968], [6.049486, 49.5859], [6.049383, 49.58587], [6.04883, 49.585712], [6.0487, 49.58565], [6.048307, 49.585476], [6.048147, 49.585415], [6.047422, 49.58516], [6.047068, 49.585022], [6.04661, 49.584843], [6.046339, 49.584816], [6.045809, 49.584843], [6.045649, 49.584873], [6.045408, 49.584923], [6.045023, 49.5849], [6.044737, 49.58489], [6.044397, 49.584858], [6.044149, 49.584827], [6.044054, 49.584816], [6.04384, 49.584766], [6.043779, 49.58475], [6.043585, 49.58471], [6.043467, 49.584682], [6.04339, 49.584663], [6.043024, 49.58457], [6.042826, 49.584522], [6.042574, 49.58446], [6.042242, 49.58438], [6.042215, 49.584373], [6.041983, 49.584316], [6.041883, 49.58429], [6.041842, 49.584282], [6.041803, 49.584274], [6.041681, 49.584267], [6.041578, 49.584263], [6.040979, 49.58423], [6.040873, 49.58422], [6.040705, 49.58421], [6.040487, 49.584198], [6.040255, 49.584213], [6.040091, 49.584225], [6.039896, 49.584236], [6.039995, 49.58444], [6.040239, 49.584618], [6.040556, 49.584812], [6.040701, 49.5849], [6.040896, 49.585167], [6.041067, 49.585354], [6.041082, 49.585445], [6.041075, 49.58566], [6.04093, 49.58592], [6.040834, 49.586285], [6.040556, 49.586433], [6.040304, 49.586613], [6.040075, 49.586647], [6.039865, 49.58668], [6.039465, 49.586655], [6.039095, 49.586613], [6.038973, 49.586594], [6.038752, 49.586548], [6.038614, 49.586517], [6.038534, 49.586494], [6.038279, 49.58641], [6.038168, 49.586376], [6.037821, 49.586266], [6.037306, 49.58612], [6.037489, 49.585915], [6.036467, 49.585915], [6.036074, 49.585907], [6.035948, 49.585907], [6.035891, 49.585903], [6.035467, 49.585903], [6.035368, 49.5859], [6.035234, 49.5859], [6.035013, 49.585896], [6.034941, 49.58589], [6.034738, 49.585884], [6.034677, 49.58588], [6.034628, 49.585876], [6.034502, 49.585873], [6.034357, 49.585865], [6.034193, 49.585857], [6.03388, 49.58584], [6.033686, 49.585827], [6.033506, 49.58581], [6.033266, 49.58579], [6.03311, 49.585773], [6.032762, 49.58573], [6.032366, 49.585655], [6.032377, 49.585594], [6.032385, 49.585564], [6.032469, 49.585205], [6.032495, 49.58507], [6.032507, 49.58503], [6.03256, 49.584774], [6.032591, 49.584637], [6.032614, 49.584526], [6.032663, 49.584293], [6.032705, 49.58411], [6.032713, 49.5841], [6.032732, 49.584064], [6.032801, 49.583942], [6.032831, 49.58389], [6.032839, 49.583878], [6.032858, 49.583836], [6.032965, 49.583645], [6.033228, 49.58325], [6.033594, 49.582695], [6.033716, 49.582504], [6.033216, 49.58243], [6.032709, 49.582363], [6.032484, 49.58236], [6.032198, 49.58234], [6.031958, 49.582302], [6.03171, 49.582256], [6.031565, 49.582226], [6.031401, 49.5822], [6.031111, 49.582153], [6.030664, 49.582073], [6.030222, 49.581997], [6.029715, 49.581905], [6.029516, 49.58187], [6.029432, 49.582138], [6.028349, 49.581825], [6.028288, 49.581806], [6.028219, 49.58179], [6.027842, 49.58263], [6.027823, 49.582767], [6.027773, 49.582825], [6.02767, 49.583107], [6.027597, 49.58331], [6.027376, 49.58379], [6.027338, 49.583874], [6.027315, 49.583908], [6.027311, 49.58392], [6.027197, 49.584076], [6.027144, 49.584145], [6.027094, 49.584213], [6.027021, 49.584328], [6.026918, 49.584496], [6.026823, 49.584663], [6.026732, 49.584652], [6.026609, 49.584625], [6.026381, 49.58456], [6.026297, 49.584534], [6.025976, 49.584423], [6.025538, 49.584263], [6.025003, 49.584686], [6.024965, 49.584713], [6.024843, 49.584812], [6.024553, 49.584553], [6.024313, 49.584305], [6.024187, 49.58419], [6.02413, 49.584145], [6.023909, 49.584026], [6.023516, 49.583836], [6.023256, 49.58369], [6.023058, 49.583588], [6.023016, 49.583572], [6.022886, 49.58352], [6.022825, 49.583496], [6.022776, 49.583473], [6.022745, 49.583447], [6.022707, 49.583397], [6.022673, 49.58334], [6.022631, 49.5833], [6.022581, 49.58326], [6.022554, 49.58323], [6.022467, 49.583122], [6.022142, 49.583317], [6.021673, 49.583595], [6.021536, 49.583588], [6.021429, 49.58358], [6.021334, 49.58357], [6.0212, 49.583557], [6.021059, 49.58355], [6.020998, 49.58355], [6.020933, 49.583546], [6.020876, 49.583538], [6.020815, 49.58352], [6.020742, 49.583496], [6.020658, 49.58349], [6.020578, 49.583485], [6.020521, 49.583477], [6.020437, 49.58345], [6.020388, 49.583435], [6.020353, 49.58343], [6.020323, 49.583427], [6.020269, 49.583416], [6.020235, 49.583405], [6.020197, 49.58339], [6.020132, 49.583366], [6.020067, 49.583355], [6.019964, 49.58334], [6.019911, 49.58333], [6.019876, 49.583313], [6.019815, 49.58329], [6.019758, 49.58327], [6.019659, 49.583252], [6.019541, 49.583214], [6.019449, 49.583183], [6.019209, 49.583096], [6.019121, 49.583065], [6.018919, 49.582996], [6.018541, 49.58286], [6.018305, 49.58278], [6.01816, 49.582714], [6.018087, 49.58268], [6.01803, 49.58266], [6.017893, 49.582623], [6.017759, 49.58258], [6.017488, 49.5825], [6.017096, 49.582386], [6.016725, 49.58227], [6.016268, 49.58213], [6.015974, 49.582043], [6.015745, 49.581997], [6.015547, 49.58196], [6.015257, 49.581905], [6.01499, 49.581844], [6.014883, 49.581818], [6.014772, 49.58179], [6.014441, 49.581654], [6.014456, 49.581814], [6.014498, 49.581924], [6.014593, 49.58215], [6.014574, 49.58243], [6.014574, 49.58246], [6.01457, 49.582485], [6.01457, 49.582523], [6.014563, 49.582664], [6.014559, 49.5828], [6.014128, 49.582733], [6.013403, 49.582638], [6.01272, 49.582554], [6.010557, 49.582264], [6.010172, 49.582794], [6.009531, 49.582775], [6.009028, 49.58275], [6.008402, 49.5827], [6.008276, 49.582687], [6.008291, 49.58277], [6.008341, 49.583054], [6.00831, 49.583122], [6.008272, 49.583214], [6.008238, 49.583298], [6.007795, 49.58322], [6.007753, 49.58334], [6.007708, 49.583416], [6.007563, 49.58351], [6.007288, 49.58369], [6.007254, 49.58371], [6.007029, 49.583828], [6.006975, 49.583855], [6.006906, 49.583916], [6.006849, 49.58397], [6.006742, 49.584076], [6.006689, 49.584133], [6.006636, 49.5842], [6.006567, 49.584293], [6.006529, 49.584343], [6.006949, 49.5847], [6.007318, 49.585014], [6.007586, 49.585255], [6.007605, 49.58527], [6.007769, 49.585392], [6.007921, 49.585472], [6.008104, 49.585533], [6.008371, 49.585606], [6.00878, 49.58572], [6.00881, 49.585728], [6.009237, 49.585835], [6.009062, 49.586334], [6.009012, 49.58647], [6.00815, 49.586246], [6.007765, 49.586155], [6.007425, 49.586094], [6.007235, 49.586052], [6.00704, 49.586002], [6.006872, 49.58598], [6.006708, 49.585957], [6.006632, 49.585938], [6.006506, 49.585884], [6.006338, 49.585815], [6.006193, 49.585766], [6.006067, 49.585743], [6.005831, 49.585716], [6.005659, 49.585686], [6.005491, 49.58566], [6.005373, 49.58562], [6.005262, 49.585564], [6.00514, 49.58549], [6.005026, 49.585438], [6.004911, 49.585392], [6.00469, 49.585323], [6.004423, 49.585243], [6.004183, 49.58518], [6.004114, 49.585243], [6.00379, 49.585552], [6.003607, 49.585728], [6.003523, 49.585808], [6.003481, 49.585846], [6.003416, 49.585907], [6.003687, 49.586143], [6.004087, 49.5865], [6.00403, 49.58665], [6.003893, 49.587032], [6.003874, 49.58715], [6.004015, 49.58718], [6.004816, 49.587387], [6.004839, 49.58739], [6.005571, 49.587517], [6.005831, 49.58757], [6.006067, 49.58762], [6.006369, 49.587696], [6.007097, 49.5879], [6.00765, 49.588036], [6.007662, 49.588142], [6.007692, 49.5884], [6.007757, 49.588936], [6.007795, 49.58924], [6.007803, 49.589382], [6.007776, 49.5895], [6.00775, 49.589592], [6.007719, 49.58966], [6.008135, 49.589874], [6.008223, 49.58992], [6.008528, 49.590073], [6.008722, 49.590183], [6.008905, 49.590305], [6.009031, 49.5904], [6.009401, 49.59057], [6.00976, 49.590725], [6.010088, 49.590904], [6.010675, 49.591263], [6.010721, 49.591293], [6.010756, 49.59134], [6.010832, 49.59145], [6.010908, 49.591522], [6.010988, 49.591602], [6.0109, 49.591938], [6.010309, 49.592113], [6.010111, 49.59217], [6.009851, 49.592247], [6.009832, 49.592255], [6.009741, 49.59229], [6.009771, 49.59231], [6.009955, 49.59246], [6.010176, 49.592583], [6.01045, 49.5927], [6.009813, 49.592636], [6.009016, 49.59254], [6.008738, 49.5926], [6.008516, 49.592636], [6.008322, 49.592663], [6.00812, 49.592686], [6.007902, 49.5927], [6.007639, 49.592716], [6.007235, 49.592743], [6.006983, 49.592762], [6.006781, 49.592785], [6.006399, 49.592827], [6.006113, 49.592865], [6.005747, 49.59291], [6.005377, 49.59295], [6.004976, 49.592983], [6.004812, 49.592995], [6.004763, 49.593], [6.004335, 49.59303], [6.003889, 49.59304], [6.003553, 49.593056], [6.003218, 49.593086], [6.003065, 49.59311], [6.002958, 49.593132], [6.002714, 49.593185], [6.002649, 49.59321], [6.002585, 49.593224], [6.00247, 49.593258], [6.002375, 49.593292], [6.002264, 49.593334], [6.00202, 49.59343], [6.001913, 49.593475], [6.001856, 49.593502], [6.001295, 49.593624], [6.001139, 49.59366], [6.000971, 49.593708], [6.000887, 49.59373], [6.000795, 49.59376], [6.000082, 49.59399], [5.999666, 49.594116], [5.999712, 49.59433], [5.998972, 49.594433], [5.998434, 49.59451]]]]}}]}