{"type": "FeatureCollection", "features": [{"type": "Feature", "properties": {"name": "Wahl"}, "geometry": {"type": "MultiPolygon", "coordinates": [[[[5.867815, 49.850031], [5.867819, 49.850058], [5.867941, 49.850386], [5.867983, 49.850443], [5.868036, 49.850504], [5.868128, 49.850576], [5.868391, 49.850691], [5.869719, 49.851198], [5.870172, 49.851377], [5.870516, 49.851522], [5.870726, 49.851614], [5.870909, 49.851679], [5.871096, 49.851736], [5.871324, 49.85179], [5.87166, 49.85185], [5.871885, 49.851889], [5.872175, 49.851934], [5.872362, 49.851957], [5.872709, 49.851992], [5.873178, 49.852034], [5.873529, 49.852072], [5.873953, 49.852125], [5.87422, 49.852152], [5.874582, 49.852186], [5.874315, 49.852694], [5.87451, 49.852736], [5.874361, 49.853098], [5.874273, 49.853151], [5.874189, 49.853209], [5.874079, 49.853308], [5.873957, 49.853449], [5.873815, 49.853647], [5.873632, 49.853926], [5.873774, 49.853998], [5.873644, 49.854109], [5.873598, 49.854162], [5.87348, 49.854357], [5.873411, 49.854467], [5.873327, 49.854601], [5.873274, 49.85478], [5.87319, 49.855066], [5.873129, 49.855257], [5.873335, 49.855337], [5.873728, 49.855516], [5.873617, 49.855699], [5.873529, 49.855741], [5.873396, 49.855829], [5.873236, 49.855913], [5.873068, 49.855978], [5.872923, 49.856028], [5.872751, 49.856066], [5.872656, 49.856077], [5.872427, 49.856051], [5.872278, 49.856028], [5.872114, 49.85597], [5.87195, 49.855917], [5.871847, 49.855894], [5.871729, 49.855875], [5.871576, 49.855864], [5.871469, 49.855864], [5.871328, 49.855867], [5.870993, 49.855886], [5.870657, 49.855913], [5.870687, 49.856028], [5.870718, 49.856089], [5.870779, 49.856188], [5.870733, 49.856195], [5.870749, 49.856249], [5.870848, 49.856535], [5.870928, 49.856783], [5.870993, 49.857065], [5.871019, 49.857218], [5.871065, 49.857439], [5.871115, 49.857607], [5.871199, 49.857866], [5.871229, 49.857954], [5.871294, 49.858061], [5.871485, 49.858336], [5.871706, 49.858656], [5.871859, 49.858835], [5.872, 49.858984], [5.872202, 49.859163], [5.872339, 49.85927], [5.872526, 49.859392], [5.873114, 49.859682], [5.873228, 49.859739], [5.872999, 49.859911], [5.873209, 49.860006], [5.873434, 49.860106], [5.873728, 49.860216], [5.87467, 49.860533], [5.875284, 49.860697], [5.876245, 49.860945], [5.876215, 49.860983], [5.876203, 49.861006], [5.876089, 49.861033], [5.875948, 49.861086], [5.875769, 49.861158], [5.87557, 49.861235], [5.875322, 49.861311], [5.875124, 49.861391], [5.874884, 49.86154], [5.87472, 49.861643], [5.874487, 49.861815], [5.874174, 49.862082], [5.873976, 49.862276], [5.874575, 49.86223], [5.875051, 49.862211], [5.875055, 49.862268], [5.875158, 49.862883], [5.875292, 49.863333], [5.875441, 49.863756], [5.875334, 49.863783], [5.874968, 49.863855], [5.874994, 49.863989], [5.874395, 49.864271], [5.874163, 49.864382], [5.874144, 49.864401], [5.873793, 49.86474], [5.873598, 49.864943], [5.873529, 49.865007], [5.873503, 49.865038], [5.873445, 49.865091], [5.873385, 49.865168], [5.873316, 49.865332], [5.873278, 49.865412], [5.87319, 49.865606], [5.87314, 49.865694], [5.873083, 49.865766], [5.873064, 49.865786], [5.873079, 49.865789], [5.873629, 49.866083], [5.874224, 49.866404], [5.874449, 49.866529], [5.874571, 49.86661], [5.874769, 49.86677], [5.874975, 49.866942], [5.874987, 49.866953], [5.875109, 49.867338], [5.875284, 49.867754], [5.875296, 49.867975], [5.875284, 49.868109], [5.875231, 49.868418], [5.8752, 49.868498], [5.875124, 49.868681], [5.875025, 49.868803], [5.874781, 49.869078], [5.874636, 49.869272], [5.874609, 49.869303], [5.875467, 49.86949], [5.875711, 49.869547], [5.876108, 49.869638], [5.876497, 49.869688], [5.87715, 49.869745], [5.877912, 49.869806], [5.877939, 49.86981], [5.877943, 49.869705], [5.877996, 49.86927], [5.878023, 49.86882], [5.878069, 49.868454], [5.878191, 49.867764], [5.878271, 49.867695], [5.878752, 49.867035], [5.878939, 49.866776], [5.878954, 49.866753], [5.879061, 49.8666], [5.879164, 49.866455], [5.879065, 49.86634], [5.878992, 49.866245], [5.878962, 49.86617], [5.878889, 49.865986], [5.878843, 49.86585], [5.878809, 49.865757], [5.878748, 49.865658], [5.878679, 49.865555], [5.878531, 49.86539], [5.878736, 49.86526], [5.879011, 49.865105], [5.878916, 49.865013], [5.878946, 49.86499], [5.879, 49.86497], [5.879087, 49.86495], [5.879175, 49.86492], [5.879217, 49.8649], [5.879251, 49.86487], [5.879271, 49.864838], [5.87929, 49.8648], [5.879305, 49.864758], [5.879313, 49.864708], [5.87932, 49.864693], [5.879351, 49.864674], [5.879385, 49.864655], [5.879419, 49.864643], [5.879492, 49.86461], [5.879652, 49.8645], [5.879744, 49.86442], [5.879854, 49.864353], [5.87995, 49.8643], [5.880072, 49.864235], [5.880171, 49.864185], [5.880228, 49.86416], [5.880468, 49.86406], [5.88077, 49.863945], [5.880865, 49.864014], [5.880911, 49.864048], [5.881189, 49.864017], [5.881323, 49.863995], [5.881414, 49.863983], [5.881537, 49.86398], [5.881681, 49.86397], [5.881792, 49.863964], [5.881849, 49.863976], [5.881899, 49.86399], [5.881949, 49.863995], [5.882025, 49.864014], [5.882109, 49.864048], [5.882151, 49.864063], [5.882227, 49.864098], [5.882326, 49.86414], [5.882414, 49.864178], [5.882467, 49.864197], [5.882536, 49.864212], [5.882601, 49.864235], [5.882635, 49.864258], [5.882677, 49.864277], [5.882731, 49.864296], [5.882776, 49.864326], [5.882834, 49.86437], [5.882898, 49.864388], [5.882956, 49.864403], [5.882998, 49.86442], [5.883009, 49.864437], [5.883024, 49.864464], [5.88307, 49.864487], [5.883108, 49.864502], [5.883158, 49.864532], [5.883242, 49.86457], [5.883387, 49.864666], [5.883436, 49.8647], [5.883478, 49.864735], [5.883524, 49.86478], [5.883547, 49.8648], [5.883562, 49.864807], [5.883894, 49.865], [5.884077, 49.86511], [5.884169, 49.86516], [5.88426, 49.86522], [5.884355, 49.86527], [5.884428, 49.865295], [5.884512, 49.865314], [5.884592, 49.865345], [5.884642, 49.865376], [5.884752, 49.865467], [5.88481, 49.865494], [5.884913, 49.86553], [5.885008, 49.865562], [5.885107, 49.86561], [5.885153, 49.86564], [5.885218, 49.86566], [5.885328, 49.865685], [5.885393, 49.865692], [5.885435, 49.865685], [5.885489, 49.86567], [5.885557, 49.865658], [5.885637, 49.86565], [5.885717, 49.86566], [5.885801, 49.865677], [5.885874, 49.86569], [5.885939, 49.86569], [5.886004, 49.8657], [5.886091, 49.865707], [5.886122, 49.865723], [5.886133, 49.865746], [5.88616, 49.865765], [5.886198, 49.865776], [5.886427, 49.86582], [5.88656, 49.865852], [5.886622, 49.86588], [5.886675, 49.86591], [5.886728, 49.86593], [5.8869, 49.865967], [5.886957, 49.865982], [5.887049, 49.866024], [5.887098, 49.866062], [5.887163, 49.866135], [5.887228, 49.866177], [5.887297, 49.866215], [5.887331, 49.866238], [5.887545, 49.866356], [5.887659, 49.86643], [5.887713, 49.86647], [5.887751, 49.866505], [5.887781, 49.866535], [5.887823, 49.866573], [5.887865, 49.866604], [5.888014, 49.866673], [5.888163, 49.866753], [5.888212, 49.866776], [5.888269, 49.866825], [5.888311, 49.86686], [5.88838, 49.866905], [5.888426, 49.86693], [5.888441, 49.866936], [5.888441, 49.866955], [5.888437, 49.86699], [5.888441, 49.867023], [5.888464, 49.86708], [5.888475, 49.867138], [5.888472, 49.867165], [5.888433, 49.867237], [5.888414, 49.867283], [5.888407, 49.867317], [5.888411, 49.867355], [5.888411, 49.867382], [5.888392, 49.86741], [5.888327, 49.86748], [5.888308, 49.867516], [5.888258, 49.86763], [5.88817, 49.867825], [5.888117, 49.867935], [5.888071, 49.868], [5.887995, 49.868153], [5.887918, 49.86829], [5.88788, 49.86837], [5.887854, 49.868454], [5.887838, 49.868526], [5.887835, 49.86862], [5.887842, 49.868717], [5.88788, 49.868866], [5.887915, 49.868954], [5.887953, 49.86903], [5.888021, 49.86914], [5.888121, 49.86927], [5.888189, 49.869366], [5.888334, 49.86955], [5.888441, 49.869682], [5.88859, 49.869843], [5.888693, 49.86993], [5.888792, 49.870007], [5.888952, 49.870148], [5.88901, 49.870186], [5.889097, 49.87023], [5.889234, 49.870304], [5.889246, 49.870296], [5.889334, 49.87025], [5.889383, 49.870216], [5.889414, 49.8702], [5.889521, 49.87016], [5.889559, 49.870136], [5.889608, 49.870106], [5.889631, 49.8701], [5.889658, 49.870087], [5.889719, 49.870075], [5.889757, 49.87006], [5.889917, 49.869976], [5.890009, 49.869995], [5.890093, 49.87001], [5.8902, 49.870026], [5.890463, 49.870026], [5.891157, 49.86999], [5.891226, 49.869984], [5.891436, 49.86997], [5.891756, 49.869946], [5.891951, 49.869934], [5.892176, 49.869923], [5.89245, 49.869904], [5.892443, 49.869946], [5.892443, 49.869976], [5.892447, 49.870014], [5.892469, 49.870056], [5.892511, 49.870102], [5.892584, 49.870148], [5.892683, 49.870197], [5.892988, 49.87032], [5.893728, 49.87059], [5.893595, 49.87068], [5.893904, 49.87086], [5.894125, 49.870995], [5.894293, 49.8711], [5.894644, 49.87134], [5.894789, 49.871445], [5.894674, 49.871525], [5.894579, 49.871597], [5.894461, 49.87169], [5.894388, 49.871758], [5.894678, 49.871956], [5.894892, 49.872093], [5.895151, 49.872265], [5.895506, 49.87245], [5.895712, 49.872555], [5.895872, 49.872627], [5.895968, 49.872665], [5.896311, 49.8728], [5.896608, 49.872906], [5.896784, 49.872982], [5.896952, 49.873066], [5.897184, 49.8732], [5.897375, 49.873314], [5.897558, 49.87343], [5.897707, 49.873554], [5.897673, 49.873554], [5.897665, 49.873615], [5.897654, 49.873676], [5.897627, 49.873745], [5.897593, 49.873787], [5.897543, 49.87384], [5.897436, 49.873917], [5.897303, 49.873997], [5.897207, 49.87406], [5.897116, 49.87413], [5.897024, 49.874218], [5.896963, 49.874283], [5.897017, 49.874336], [5.896963, 49.874474], [5.896902, 49.87461], [5.896864, 49.874683], [5.896822, 49.87475], [5.896746, 49.874832], [5.896631, 49.87493], [5.896463, 49.87503], [5.896326, 49.875084], [5.896177, 49.875122], [5.896059, 49.875145], [5.895914, 49.87516], [5.895842, 49.875187], [5.895178, 49.875153], [5.894922, 49.875126], [5.893503, 49.87497], [5.893789, 49.875328], [5.893915, 49.87545], [5.894247, 49.87575], [5.894491, 49.875973], [5.894831, 49.876305], [5.894922, 49.876404], [5.894716, 49.876484], [5.894693, 49.87649], [5.894537, 49.876564], [5.894514, 49.87657], [5.89435, 49.87666], [5.894255, 49.876717], [5.893946, 49.87689], [5.893957, 49.876896], [5.89406, 49.876987], [5.894396, 49.877296], [5.894628, 49.877514], [5.894819, 49.87769], [5.894995, 49.877823], [5.895269, 49.87803], [5.895502, 49.878216], [5.895342, 49.878323], [5.895071, 49.87848], [5.894808, 49.87861], [5.894716, 49.878654], [5.894545, 49.878716], [5.893744, 49.878983], [5.893324, 49.879124], [5.89237, 49.87945], [5.892355, 49.879456], [5.892595, 49.87968], [5.892675, 49.879757], [5.892897, 49.879967], [5.892919, 49.879993], [5.892939, 49.880047], [5.892969, 49.880157], [5.893003, 49.88027], [5.893053, 49.880383], [5.89308, 49.88047], [5.893095, 49.880596], [5.893095, 49.880676], [5.89308, 49.88075], [5.893045, 49.88084], [5.892962, 49.88101], [5.892935, 49.88105], [5.8929, 49.88108], [5.892862, 49.881104], [5.892824, 49.88116], [5.892786, 49.881214], [5.892752, 49.881268], [5.892748, 49.881313], [5.892759, 49.881443], [5.892775, 49.881577], [5.892798, 49.88167], [5.892832, 49.881763], [5.892889, 49.881863], [5.893019, 49.882042], [5.893122, 49.882202], [5.89316, 49.8823], [5.893187, 49.882362], [5.893232, 49.88242], [5.893286, 49.882496], [5.893415, 49.882828], [5.893496, 49.883026], [5.893568, 49.883186], [5.893629, 49.88331], [5.893671, 49.88337], [5.893728, 49.883423], [5.893908, 49.883575], [5.894041, 49.88371], [5.894094, 49.883766], [5.894167, 49.8839], [5.894247, 49.883984], [5.894304, 49.88405], [5.894312, 49.884087], [5.894289, 49.884132], [5.894281, 49.88417], [5.8943, 49.8842], [5.894369, 49.88425], [5.894449, 49.884304], [5.894495, 49.884384], [5.89456, 49.884453], [5.894701, 49.884563], [5.894716, 49.884556], [5.894911, 49.884483], [5.895002, 49.884453], [5.895201, 49.884377], [5.895361, 49.88432], [5.895845, 49.884144], [5.895918, 49.884212], [5.89617, 49.884434], [5.89649, 49.884693], [5.896765, 49.884926], [5.896959, 49.885094], [5.897383, 49.885445], [5.897482, 49.88552], [5.897894, 49.885845], [5.897329, 49.88629], [5.897207, 49.886387], [5.897161, 49.88642], [5.897104, 49.886467], [5.89707, 49.886494], [5.897055, 49.88651], [5.896955, 49.886585], [5.897043, 49.8867], [5.8971, 49.886738], [5.897249, 49.886856], [5.897337, 49.8869], [5.897558, 49.887024], [5.897696, 49.887096], [5.897741, 49.887135], [5.897787, 49.887177], [5.897871, 49.887226], [5.898054, 49.887318], [5.898127, 49.88736], [5.898199, 49.887413], [5.898268, 49.887455], [5.898321, 49.887478], [5.898409, 49.8875], [5.898447, 49.887512], [5.898497, 49.88754], [5.898592, 49.887608], [5.898714, 49.88769], [5.898806, 49.887794], [5.898848, 49.88783], [5.898954, 49.887886], [5.899069, 49.88795], [5.899141, 49.88801], [5.899198, 49.88807], [5.89926, 49.888145], [5.899317, 49.888237], [5.899374, 49.888336], [5.899412, 49.888382], [5.899443, 49.8884], [5.899477, 49.88841], [5.899519, 49.8884], [5.89958, 49.88838], [5.899744, 49.88828], [5.899786, 49.88825], [5.899881, 49.88817], [5.899973, 49.888042], [5.900156, 49.887836], [5.900221, 49.88778], [5.900377, 49.88764], [5.900515, 49.88755], [5.900686, 49.88746], [5.900877, 49.88738], [5.900984, 49.887325], [5.901068, 49.887276], [5.901194, 49.887238], [5.901346, 49.887196], [5.901457, 49.887184], [5.90156, 49.887177], [5.901743, 49.887173], [5.901922, 49.88718], [5.901987, 49.887177], [5.902033, 49.88716], [5.902079, 49.88714], [5.902098, 49.887115], [5.902121, 49.887077], [5.902163, 49.886986], [5.902224, 49.886806], [5.902311, 49.886574], [5.902403, 49.886307], [5.902475, 49.88619], [5.902555, 49.88607], [5.902632, 49.885983], [5.902731, 49.885883], [5.902823, 49.88581], [5.902952, 49.885723], [5.903009, 49.885666], [5.90304, 49.88561], [5.903074, 49.88555], [5.903116, 49.885525], [5.903185, 49.885494], [5.903227, 49.885456], [5.903265, 49.885395], [5.903295, 49.885357], [5.90333, 49.885323], [5.903398, 49.885296], [5.903456, 49.88527], [5.903475, 49.88523], [5.903459, 49.885117], [5.903467, 49.885063], [5.90349, 49.88504], [5.903536, 49.88502], [5.903597, 49.884995], [5.903627, 49.88497], [5.903654, 49.884945], [5.903696, 49.88492], [5.90373, 49.884876], [5.903753, 49.884876], [5.903799, 49.884872], [5.903853, 49.884846], [5.903913, 49.884804], [5.903948, 49.884777], [5.904009, 49.8847], [5.904032, 49.884647], [5.904043, 49.884583], [5.904036, 49.88453], [5.904028, 49.884422], [5.904043, 49.88429], [5.904108, 49.8841], [5.90415, 49.883953], [5.904165, 49.883858], [5.9042, 49.88354], [5.904207, 49.88349], [5.904242, 49.883186], [5.904257, 49.88308], [5.904299, 49.882824], [5.904306, 49.882607], [5.904242, 49.882576], [5.904223, 49.88257], [5.9042, 49.882557], [5.904249, 49.88251], [5.904371, 49.882416], [5.904448, 49.88236], [5.904501, 49.88232], [5.904551, 49.8823], [5.904623, 49.88228], [5.904776, 49.882256], [5.904909, 49.88224], [5.905043, 49.882225], [5.905157, 49.882187], [5.905462, 49.88206], [5.905684, 49.881973], [5.905771, 49.881924], [5.905943, 49.88182], [5.90613, 49.881695], [5.906351, 49.881554], [5.906508, 49.88147], [5.90663, 49.881386], [5.906687, 49.88133], [5.90671, 49.881294], [5.906725, 49.881237], [5.906702, 49.881176], [5.906714, 49.881157], [5.906813, 49.881096], [5.906897, 49.88103], [5.906939, 49.880985], [5.906979, 49.880874], [5.906984, 49.880825], [5.906958, 49.88081], [5.906935, 49.880802], [5.906889, 49.8808], [5.906843, 49.880806], [5.906725, 49.88086], [5.906519, 49.88097], [5.906328, 49.88087], [5.906321, 49.88086], [5.906351, 49.880844], [5.906385, 49.880817], [5.906408, 49.88076], [5.906416, 49.880722], [5.906443, 49.8807], [5.906481, 49.880676], [5.906496, 49.880653], [5.906508, 49.88063], [5.906511, 49.880615], [5.90653, 49.88055], [5.906534, 49.880463], [5.90653, 49.88038], [5.906511, 49.8803], [5.906485, 49.88023], [5.906439, 49.880165], [5.906397, 49.88012], [5.906382, 49.880108], [5.906385, 49.880013], [5.906385, 49.879917], [5.906401, 49.879852], [5.906431, 49.87979], [5.9065, 49.87968], [5.90658, 49.87956], [5.906622, 49.87948], [5.906652, 49.879395], [5.906668, 49.879402], [5.906691, 49.879417], [5.90674, 49.879448], [5.906988, 49.87959], [5.907412, 49.87984], [5.907572, 49.879772], [5.907671, 49.879757], [5.907805, 49.879745], [5.908106, 49.879738], [5.90851, 49.879723], [5.908613, 49.879513], [5.908686, 49.879353], [5.90875, 49.879246], [5.908972, 49.878925], [5.909048, 49.878803], [5.909105, 49.87872], [5.909166, 49.878616], [5.909197, 49.87855], [5.909243, 49.878426], [5.909246, 49.878395], [5.909262, 49.878326], [5.909285, 49.878166], [5.909323, 49.87801], [5.909365, 49.87787], [5.90938, 49.877815], [5.90943, 49.877655], [5.909525, 49.877296], [5.909552, 49.877205], [5.909578, 49.877148], [5.909609, 49.877113], [5.90967, 49.877064], [5.909788, 49.87698], [5.909983, 49.87687], [5.910013, 49.87685], [5.910296, 49.876705], [5.910456, 49.876625], [5.910559, 49.876587], [5.910944, 49.876476], [5.910849, 49.876347], [5.9107, 49.876144], [5.910967, 49.87594], [5.9111, 49.87583], [5.911238, 49.87572], [5.911406, 49.87559], [5.911505, 49.875523], [5.911707, 49.87538], [5.911962, 49.875214], [5.91247, 49.874813], [5.912275, 49.8747], [5.912325, 49.874664], [5.912687, 49.87441], [5.912775, 49.87436], [5.91284, 49.87432], [5.913103, 49.87422], [5.913259, 49.87418], [5.913526, 49.87411], [5.913752, 49.874054], [5.91387, 49.874035], [5.913942, 49.874035], [5.913954, 49.87385], [5.913706, 49.873863], [5.91361, 49.87388], [5.913561, 49.873886], [5.913458, 49.87391], [5.913355, 49.873936], [5.913092, 49.87401], [5.913103, 49.873775], [5.913107, 49.87371], [5.91313, 49.87353], [5.913134, 49.873486], [5.913141, 49.873413], [5.913176, 49.87329], [5.913199, 49.87322], [5.913225, 49.873142], [5.913271, 49.87304], [5.913385, 49.87292], [5.913496, 49.872818], [5.913576, 49.872738], [5.913672, 49.87263], [5.913729, 49.872555], [5.913797, 49.87245], [5.9139, 49.872288], [5.913927, 49.872242], [5.913992, 49.87212], [5.914091, 49.87193], [5.914167, 49.871742], [5.914335, 49.87132], [5.914564, 49.871296], [5.916002, 49.871155], [5.916143, 49.871143], [5.916433, 49.871128], [5.916651, 49.871143], [5.916967, 49.87106], [5.916964, 49.87103], [5.916956, 49.87099], [5.916933, 49.870953], [5.916902, 49.870914], [5.916864, 49.870888], [5.916796, 49.870865], [5.916662, 49.87083], [5.916517, 49.870796], [5.916395, 49.870754], [5.916117, 49.87082], [5.91596, 49.87085], [5.915728, 49.8709], [5.915937, 49.87069], [5.915823, 49.87054], [5.915739, 49.870403], [5.915697, 49.870316], [5.915659, 49.87021], [5.915701, 49.87004], [5.915712, 49.86999], [5.915728, 49.86991], [5.915766, 49.869747], [5.915766, 49.869736], [5.915796, 49.869637], [5.915853, 49.869484], [5.915949, 49.869236], [5.915983, 49.869087], [5.91601, 49.868958], [5.916017, 49.868927], [5.916021, 49.868896], [5.916021, 49.86888], [5.916037, 49.86876], [5.916063, 49.86862], [5.916117, 49.868416], [5.916189, 49.86813], [5.916201, 49.8681], [5.916334, 49.867874], [5.916376, 49.8678], [5.916342, 49.867218], [5.916342, 49.8672], [5.916323, 49.86709], [5.916536, 49.86707], [5.916712, 49.867035], [5.917013, 49.866978], [5.917055, 49.86696], [5.917238, 49.866985], [5.917437, 49.867023], [5.91754, 49.867054], [5.917654, 49.867115], [5.917738, 49.867134], [5.917997, 49.867184], [5.917997, 49.867134], [5.918493, 49.8672], [5.918947, 49.86727], [5.919165, 49.867294], [5.919275, 49.867302], [5.919352, 49.867294], [5.919424, 49.867287], [5.919497, 49.86726], [5.91955, 49.86721], [5.919588, 49.867157], [5.919699, 49.86703], [5.919767, 49.866943], [5.919809, 49.866848], [5.919828, 49.866768], [5.919855, 49.86673], [5.919893, 49.86669], [5.919954, 49.866646], [5.920034, 49.8666], [5.920221, 49.866505], [5.920389, 49.86641], [5.920672, 49.866234], [5.920767, 49.866165], [5.920805, 49.866123], [5.920824, 49.86608], [5.920813, 49.866028], [5.920786, 49.865936], [5.920763, 49.86585], [5.920732, 49.865776], [5.920698, 49.86571], [5.920633, 49.86562], [5.920568, 49.865547], [5.920496, 49.865475], [5.92045, 49.865414], [5.920443, 49.86538], [5.920435, 49.86532], [5.920446, 49.865257], [5.920477, 49.865158], [5.9205, 49.86506], [5.920523, 49.865], [5.920557, 49.86495], [5.920633, 49.864857], [5.920687, 49.864765], [5.920755, 49.864674], [5.9209, 49.864502], [5.920672, 49.864403], [5.920656, 49.864334], [5.920649, 49.864304], [5.92061, 49.86429], [5.920366, 49.864315], [5.919958, 49.86435], [5.919729, 49.86436], [5.919424, 49.86437], [5.919401, 49.864384], [5.919393, 49.86453], [5.918932, 49.86458], [5.918417, 49.864628], [5.917902, 49.864662], [5.917692, 49.86467], [5.917391, 49.864677], [5.917047, 49.86467], [5.916689, 49.864674], [5.916601, 49.864674], [5.916449, 49.864594], [5.916205, 49.86461], [5.916201, 49.86456], [5.916159, 49.86454], [5.915796, 49.86453], [5.915586, 49.864532], [5.9154, 49.864555], [5.915281, 49.86458], [5.915129, 49.864635], [5.914923, 49.864758], [5.914534, 49.86502], [5.914488, 49.864994], [5.914411, 49.864944], [5.914125, 49.86476], [5.913935, 49.864647], [5.913832, 49.864597], [5.913526, 49.864475], [5.913466, 49.86445], [5.91345, 49.864414], [5.913439, 49.864407], [5.913389, 49.864395], [5.913328, 49.864388], [5.913298, 49.864384], [5.913229, 49.864395], [5.913183, 49.864395], [5.913141, 49.864384], [5.913095, 49.864357], [5.913046, 49.86433], [5.913004, 49.864323], [5.91297, 49.864326], [5.912958, 49.864334], [5.912954, 49.864357], [5.912935, 49.86436], [5.912912, 49.86436], [5.91289, 49.864346], [5.912874, 49.864323], [5.912855, 49.86431], [5.912798, 49.864292], [5.912767, 49.864285], [5.912508, 49.864178], [5.912363, 49.8641], [5.912218, 49.864025], [5.912065, 49.863926], [5.911539, 49.86355], [5.911013, 49.863186], [5.91094, 49.86314], [5.910852, 49.86308], [5.910574, 49.862915], [5.910067, 49.86263], [5.909895, 49.86253], [5.909819, 49.862457], [5.909754, 49.862392], [5.9097, 49.862312], [5.909662, 49.86223], [5.909639, 49.86216], [5.909617, 49.8621], [5.909578, 49.861988], [5.909559, 49.861874], [5.909552, 49.8618], [5.909567, 49.86174], [5.909571, 49.861675], [5.909559, 49.86164], [5.909586, 49.86161], [5.909605, 49.861595], [5.909628, 49.86156], [5.909647, 49.861515], [5.909651, 49.86147], [5.909651, 49.861404], [5.909666, 49.86134], [5.909693, 49.861275], [5.90975, 49.861202], [5.909792, 49.861164], [5.909872, 49.861095], [5.909918, 49.86106], [5.910009, 49.860996], [5.910173, 49.860867], [5.910204, 49.860844], [5.910231, 49.86084], [5.910269, 49.860855], [5.910299, 49.86085], [5.910337, 49.86084], [5.910356, 49.86083], [5.910387, 49.860825], [5.910429, 49.860817], [5.910429, 49.860798], [5.91041, 49.860756], [5.91041, 49.86073], [5.910429, 49.86071], [5.910444, 49.86071], [5.910471, 49.86072], [5.910501, 49.860725], [5.910521, 49.860718], [5.910543, 49.8607], [5.910601, 49.860737], [5.910635, 49.86076], [5.910688, 49.860794], [5.91078, 49.86085], [5.910875, 49.860912], [5.911173, 49.860767], [5.911268, 49.860714], [5.911375, 49.860638], [5.911501, 49.86055], [5.911669, 49.860435], [5.911783, 49.86036], [5.911951, 49.86024], [5.912149, 49.86008], [5.912329, 49.85993], [5.912355, 49.859905], [5.912413, 49.859856], [5.912474, 49.859802], [5.912596, 49.85969], [5.912676, 49.859615], [5.912706, 49.859592], [5.912943, 49.859356], [5.913061, 49.859245], [5.913145, 49.85917], [5.913202, 49.85914], [5.913244, 49.8591], [5.913298, 49.859047], [5.913389, 49.858955], [5.913454, 49.858902], [5.91358, 49.85884], [5.913752, 49.858776], [5.913938, 49.858715], [5.915239, 49.859516], [5.915258, 49.859505], [5.917578, 49.860355], [5.917601, 49.860474], [5.917662, 49.860703], [5.917673, 49.86073], [5.91773, 49.86089], [5.917807, 49.86107], [5.917933, 49.861286], [5.917997, 49.86136], [5.918028, 49.861378], [5.918085, 49.861416], [5.91815, 49.861446], [5.918291, 49.86152], [5.918718, 49.861702], [5.919035, 49.861835], [5.919432, 49.862003], [5.91947, 49.862034], [5.920271, 49.861847], [5.921644, 49.861534], [5.921747, 49.861507], [5.921991, 49.861347], [5.922594, 49.86095], [5.923407, 49.8604], [5.924215, 49.85984], [5.92494, 49.85934], [5.925089, 49.859245], [5.924971, 49.859184], [5.925013, 49.859158], [5.924532, 49.859123], [5.924124, 49.859108], [5.923468, 49.85911], [5.923174, 49.859188], [5.923014, 49.85917], [5.92277, 49.859123], [5.922674, 49.859104], [5.922598, 49.85909], [5.922487, 49.85906], [5.922335, 49.859013], [5.922274, 49.858994], [5.922003, 49.858906], [5.921793, 49.85885], [5.921614, 49.8588], [5.921488, 49.85874], [5.921385, 49.858685], [5.921186, 49.858547], [5.921003, 49.8584], [5.920832, 49.858242], [5.92071, 49.85811], [5.920496, 49.85786], [5.920454, 49.857815], [5.920439, 49.857784], [5.920366, 49.857666], [5.92032, 49.857597], [5.920256, 49.857494], [5.920202, 49.857407], [5.920118, 49.857277], [5.920046, 49.857162], [5.920023, 49.857132], [5.919886, 49.856926], [5.919695, 49.856667], [5.920111, 49.85627], [5.920256, 49.856125], [5.92061, 49.855785], [5.920645, 49.855755], [5.920694, 49.855705], [5.920664, 49.855698], [5.920683, 49.855663], [5.920702, 49.855625], [5.920851, 49.855362], [5.921309, 49.854507], [5.92132, 49.854492], [5.921572, 49.854492], [5.921579, 49.854084], [5.921598, 49.853493], [5.921438, 49.853546], [5.921339, 49.853565], [5.921255, 49.853577], [5.92116, 49.853577], [5.921011, 49.853462], [5.920816, 49.85331], [5.920649, 49.853184], [5.920504, 49.85306], [5.920252, 49.85277], [5.919573, 49.852474], [5.919413, 49.852406], [5.919329, 49.852367], [5.919088, 49.85226], [5.918943, 49.852184], [5.918539, 49.85199], [5.918287, 49.851856], [5.917971, 49.851696], [5.917547, 49.851475], [5.917517, 49.85146], [5.917986, 49.85119], [5.917399, 49.85083], [5.916685, 49.850388], [5.916635, 49.850327], [5.915964, 49.85009], [5.915064, 49.849873], [5.914995, 49.849854], [5.915331, 49.84941], [5.915472, 49.849262], [5.915682, 49.849102], [5.916185, 49.848774], [5.916235, 49.84868], [5.916529, 49.84835], [5.916853, 49.84799], [5.917028, 49.847794], [5.917341, 49.84745], [5.91741, 49.847378], [5.917479, 49.8473], [5.917585, 49.847183], [5.917608, 49.847157], [5.917734, 49.847008], [5.917856, 49.84685], [5.917959, 49.846695], [5.91815, 49.846367], [5.918203, 49.84628], [5.918383, 49.84606], [5.918875, 49.845562], [5.919222, 49.845222], [5.919233, 49.845207], [5.919287, 49.845158], [5.919581, 49.844833], [5.919825, 49.844536], [5.919912, 49.844425], [5.919962, 49.844364], [5.92, 49.844326], [5.920084, 49.844234], [5.920172, 49.84414], [5.92021, 49.844093], [5.920305, 49.844], [5.920374, 49.84395], [5.920595, 49.84377], [5.920805, 49.843597], [5.920908, 49.843502], [5.920969, 49.84344], [5.921064, 49.843346], [5.921148, 49.84326], [5.921164, 49.843246], [5.921232, 49.84319], [5.921366, 49.843105], [5.921602, 49.842968], [5.921747, 49.84288], [5.921804, 49.842846], [5.921881, 49.842793], [5.921999, 49.842712], [5.922056, 49.842674], [5.922171, 49.842583], [5.922281, 49.8425], [5.922354, 49.84244], [5.922529, 49.8423], [5.922674, 49.84222], [5.922846, 49.84215], [5.92304, 49.84206], [5.923166, 49.842], [5.923296, 49.841934], [5.923475, 49.841835], [5.923582, 49.841778], [5.923624, 49.841755], [5.92367, 49.841736], [5.923788, 49.841698], [5.923941, 49.841656], [5.924219, 49.84162], [5.924452, 49.841595], [5.924566, 49.841568], [5.92478, 49.841507], [5.924887, 49.841442], [5.925009, 49.84137], [5.925428, 49.841103], [5.925623, 49.840992], [5.925776, 49.840916], [5.925917, 49.840847], [5.926313, 49.840668], [5.926531, 49.840584], [5.92687, 49.84047], [5.926981, 49.840427], [5.927145, 49.84033], [5.927465, 49.840137], [5.927679, 49.840187], [5.927996, 49.840294], [5.928125, 49.840317], [5.928286, 49.840332], [5.928492, 49.840336], [5.928644, 49.840347], [5.928957, 49.840374], [5.929068, 49.840374], [5.929358, 49.84035], [5.929609, 49.840324], [5.929743, 49.8403], [5.930265, 49.84019], [5.93038, 49.840088], [5.93051, 49.839985], [5.930651, 49.839874], [5.930784, 49.839794], [5.930948, 49.839718], [5.931089, 49.839664], [5.931246, 49.839626], [5.931524, 49.839573], [5.931841, 49.83951], [5.932001, 49.839462], [5.932287, 49.839344], [5.932623, 49.83922], [5.932768, 49.839176], [5.932894, 49.83915], [5.933222, 49.83911], [5.93342, 49.83908], [5.933542, 49.83905], [5.933672, 49.839005], [5.934153, 49.838787], [5.934362, 49.8387], [5.934805, 49.838554], [5.935015, 49.838467], [5.935446, 49.838253], [5.935629, 49.83813], [5.935785, 49.838013], [5.935862, 49.837944], [5.935938, 49.837852], [5.936026, 49.83771], [5.936075, 49.837612], [5.936102, 49.837532], [5.936132, 49.837387], [5.936155, 49.837215], [5.936178, 49.83714], [5.936212, 49.837055], [5.936289, 49.836933], [5.936674, 49.83643], [5.936747, 49.83633], [5.936937, 49.83607], [5.937033, 49.835922], [5.937094, 49.83582], [5.937143, 49.835697], [5.937323, 49.83518], [5.937441, 49.8348], [5.937468, 49.834682], [5.937479, 49.834454], [5.937487, 49.83436], [5.937536, 49.8342], [5.937593, 49.83402], [5.937616, 49.833916], [5.937632, 49.833797], [5.937639, 49.833454], [5.937635, 49.833355], [5.937651, 49.833256], [5.937723, 49.833042], [5.937864, 49.832634], [5.938005, 49.83223], [5.93812, 49.831875], [5.938261, 49.831425], [5.93828, 49.831337], [5.938265, 49.83126], [5.938234, 49.83113], [5.938231, 49.831055], [5.938246, 49.83101], [5.938295, 49.83095], [5.938513, 49.830814], [5.939085, 49.83046], [5.939161, 49.830414], [5.939245, 49.830345], [5.939329, 49.83027], [5.939512, 49.83008], [5.939852, 49.829712], [5.94005, 49.829487], [5.940153, 49.82935], [5.940218, 49.82923], [5.940275, 49.829105], [5.940344, 49.82891], [5.940405, 49.82863], [5.940432, 49.82845], [5.940458, 49.82824], [5.94047, 49.828163], [5.9405, 49.828117], [5.94066, 49.827957], [5.940744, 49.827885], [5.940756, 49.82785], [5.941153, 49.82752], [5.941603, 49.827156], [5.941889, 49.82693], [5.942038, 49.826824], [5.94216, 49.826744], [5.94224, 49.82671], [5.942297, 49.82669], [5.942923, 49.826557], [5.943045, 49.826527], [5.943136, 49.82649], [5.943197, 49.826458], [5.943266, 49.82641], [5.943323, 49.82636], [5.943499, 49.82615], [5.943533, 49.826115], [5.943674, 49.825977], [5.943857, 49.8258], [5.944037, 49.825623], [5.94433, 49.825314], [5.944372, 49.825035], [5.944418, 49.82472], [5.944456, 49.82449], [5.944475, 49.82439], [5.944548, 49.824043], [5.944536, 49.823994], [5.944643, 49.82361], [5.944655, 49.823563], [5.94467, 49.823513], [5.944708, 49.823433], [5.94475, 49.823364], [5.944864, 49.82321], [5.946062, 49.82332], [5.946642, 49.82337], [5.946943, 49.82344], [5.94718, 49.823463], [5.94763, 49.823513], [5.948416, 49.82361], [5.948439, 49.823456], [5.948442, 49.823376], [5.948519, 49.82289], [5.948591, 49.82242], [5.94861, 49.822273], [5.948649, 49.82221], [5.948725, 49.82206], [5.948809, 49.821907], [5.948885, 49.82176], [5.949049, 49.821453], [5.949202, 49.82096], [5.948049, 49.82003], [5.94779, 49.81983], [5.947275, 49.819435], [5.9466, 49.818924], [5.947039, 49.818684], [5.947069, 49.818665], [5.94718, 49.81861], [5.947409, 49.818504], [5.947828, 49.818314], [5.947588, 49.818207], [5.947691, 49.818047], [5.94784, 49.817825], [5.947893, 49.817738], [5.947973, 49.817604], [5.947794, 49.817505], [5.947474, 49.81733], [5.947218, 49.817192], [5.947054, 49.8171], [5.946863, 49.81702], [5.946131, 49.816742], [5.946154, 49.816628], [5.946188, 49.816544], [5.946234, 49.81648], [5.946283, 49.81642], [5.946356, 49.816353], [5.946547, 49.816216], [5.946722, 49.815536], [5.946749, 49.815453], [5.946188, 49.81537], [5.946173, 49.81537], [5.946165, 49.8154], [5.946146, 49.815437], [5.946081, 49.81552], [5.946016, 49.815567], [5.945955, 49.815613], [5.945921, 49.81564], [5.945868, 49.81566], [5.945806, 49.815674], [5.945761, 49.81568], [5.945723, 49.815704], [5.944712, 49.81572], [5.944498, 49.81563], [5.944147, 49.815598], [5.943869, 49.81558], [5.94367, 49.81556], [5.943499, 49.815548], [5.943438, 49.815548], [5.943148, 49.81553], [5.94274, 49.815506], [5.942541, 49.815502], [5.942228, 49.815495], [5.942041, 49.815483], [5.941999, 49.81555], [5.941969, 49.81565], [5.941935, 49.81575], [5.942011, 49.815964], [5.941874, 49.815964], [5.94174, 49.81597], [5.94108, 49.815983], [5.940958, 49.815983], [5.940706, 49.81597], [5.940271, 49.81595], [5.939207, 49.815872], [5.939165, 49.816284], [5.939165, 49.816322], [5.939119, 49.816513], [5.939104, 49.816574], [5.939005, 49.81666], [5.938868, 49.816788], [5.938707, 49.816837], [5.938532, 49.816883], [5.937861, 49.817074], [5.937681, 49.817116], [5.936926, 49.817253], [5.936163, 49.81738], [5.935072, 49.81756], [5.934629, 49.817627], [5.934462, 49.81766], [5.934408, 49.817673], [5.933794, 49.817947], [5.933039, 49.81828], [5.932638, 49.81845], [5.932272, 49.818604], [5.931902, 49.81875], [5.931025, 49.8191], [5.930189, 49.819435], [5.929899, 49.819546], [5.929518, 49.81986], [5.929487, 49.819912], [5.928808, 49.820515], [5.928129, 49.82112], [5.928003, 49.82123], [5.927797, 49.82142], [5.927175, 49.821964], [5.926695, 49.822395], [5.926607, 49.822475], [5.926233, 49.822834], [5.926176, 49.822887], [5.925901, 49.823154], [5.92555, 49.82351], [5.925131, 49.82394], [5.924173, 49.824154], [5.921183, 49.82484], [5.919592, 49.82521], [5.919558, 49.825222], [5.919344, 49.825195], [5.919214, 49.82519], [5.91897, 49.82521], [5.918634, 49.82524], [5.918299, 49.825253], [5.918161, 49.82525], [5.917829, 49.82522], [5.917707, 49.825207], [5.917585, 49.825207], [5.917307, 49.825222], [5.917154, 49.825226], [5.916899, 49.82518], [5.916769, 49.825165], [5.916281, 49.825115], [5.91604, 49.825092], [5.915934, 49.825092], [5.915697, 49.82512], [5.915407, 49.82514], [5.915243, 49.825153], [5.915098, 49.825157], [5.914991, 49.825153], [5.914873, 49.82514], [5.914717, 49.82511], [5.914518, 49.825077], [5.914339, 49.825054], [5.914133, 49.825043], [5.913973, 49.825024], [5.913839, 49.825], [5.913714, 49.824974], [5.91353, 49.82493], [5.913313, 49.82487], [5.913114, 49.824833], [5.912767, 49.82479], [5.912649, 49.82478], [5.912424, 49.824753], [5.912199, 49.824734], [5.91192, 49.824726], [5.911726, 49.824726], [5.911539, 49.824734], [5.911367, 49.824745], [5.911223, 49.824764], [5.911112, 49.82479], [5.910841, 49.824852], [5.910746, 49.82487], [5.910711, 49.82492], [5.910547, 49.82513], [5.910296, 49.825516], [5.910265, 49.825512], [5.909704, 49.825447], [5.909426, 49.825413], [5.909426, 49.8254], [5.909433, 49.82539], [5.909437, 49.82538], [5.909452, 49.82536], [5.909449, 49.825344], [5.909433, 49.825317], [5.909437, 49.825302], [5.909452, 49.825283], [5.909468, 49.82526], [5.909475, 49.825233], [5.909472, 49.82517], [5.909472, 49.825138], [5.909479, 49.825123], [5.909494, 49.82511], [5.909521, 49.825092], [5.909536, 49.825073], [5.909544, 49.825058], [5.909555, 49.825], [5.909567, 49.82498], [5.909571, 49.82497], [5.909563, 49.82495], [5.909552, 49.82493], [5.909552, 49.824917], [5.909567, 49.824898], [5.909567, 49.824883], [5.909559, 49.82487], [5.909548, 49.824844], [5.909544, 49.824825], [5.909559, 49.82479], [5.909571, 49.824757], [5.909571, 49.82473], [5.909567, 49.824715], [5.909552, 49.824684], [5.909548, 49.824657], [5.909544, 49.824635], [5.909517, 49.824585], [5.909521, 49.82457], [5.909536, 49.824547], [5.909536, 49.82452], [5.909521, 49.82448], [5.909525, 49.82446], [5.909536, 49.82444], [5.909536, 49.824425], [5.909525, 49.824413], [5.909517, 49.824398], [5.909529, 49.824387], [5.909544, 49.824375], [5.909544, 49.82436], [5.909521, 49.82435], [5.90951, 49.82434], [5.90951, 49.824326], [5.909525, 49.82431], [5.909525, 49.824295], [5.909517, 49.82428], [5.909525, 49.82427], [5.909536, 49.82424], [5.909533, 49.824223], [5.90951, 49.824184], [5.90951, 49.824158], [5.909525, 49.824146], [5.909544, 49.824127], [5.90954, 49.824112], [5.909525, 49.82409], [5.909517, 49.824074], [5.909521, 49.82405], [5.909514, 49.82403], [5.909487, 49.823997], [5.909483, 49.823975], [5.909491, 49.823956], [5.909506, 49.823933], [5.909506, 49.823917], [5.909479, 49.823883], [5.909464, 49.823853], [5.909464, 49.823833], [5.909472, 49.823822], [5.909483, 49.823814], [5.909506, 49.823807], [5.909521, 49.823795], [5.909529, 49.82378], [5.909517, 49.823746], [5.909517, 49.82371], [5.909506, 49.823704], [5.909487, 49.823696], [5.909468, 49.823677], [5.909472, 49.82366], [5.909472, 49.823643], [5.90946, 49.82363], [5.90943, 49.823612], [5.909403, 49.823593], [5.909376, 49.82354], [5.909376, 49.82352], [5.90938, 49.8235], [5.909391, 49.82347], [5.909384, 49.823444], [5.909338, 49.823383], [5.90933, 49.823357], [5.909327, 49.823326], [5.909311, 49.823296], [5.909311, 49.823284], [5.909323, 49.82327], [5.909334, 49.823254], [5.909327, 49.82323], [5.909307, 49.82321], [5.909304, 49.823196], [5.909319, 49.823177], [5.909323, 49.82316], [5.909319, 49.823135], [5.909304, 49.823097], [5.909296, 49.823063], [5.9093, 49.823036], [5.909311, 49.823025], [5.909315, 49.823006], [5.909304, 49.82298], [5.909288, 49.822903], [5.909296, 49.822876], [5.909307, 49.822853], [5.909304, 49.822826], [5.909292, 49.8228], [5.909269, 49.82278], [5.909254, 49.82276], [5.909254, 49.82274], [5.90925, 49.822716], [5.909235, 49.822697], [5.909212, 49.822678], [5.909208, 49.822662], [5.909216, 49.82265], [5.909216, 49.822636], [5.909205, 49.822617], [5.909185, 49.822594], [5.909178, 49.822563], [5.90917, 49.82252], [5.909147, 49.822487], [5.909121, 49.822464], [5.909098, 49.82245], [5.909059, 49.822437], [5.909025, 49.822426], [5.90901, 49.82241], [5.908983, 49.822376], [5.908964, 49.822357], [5.908941, 49.822353], [5.908915, 49.822342], [5.908892, 49.822327], [5.908876, 49.822304], [5.908869, 49.822273], [5.908865, 49.82225], [5.908853, 49.82223], [5.908823, 49.82221], [5.908804, 49.822186], [5.908777, 49.822136], [5.908781, 49.822113], [5.908796, 49.822083], [5.908796, 49.822067], [5.908773, 49.822014], [5.908777, 49.82199], [5.908773, 49.82196], [5.908758, 49.821915], [5.908735, 49.82189], [5.90872, 49.82187], [5.908701, 49.821827], [5.908693, 49.821785], [5.908701, 49.821762], [5.908739, 49.821724], [5.908743, 49.821705], [5.908735, 49.82168], [5.908678, 49.821606], [5.908674, 49.82158], [5.908659, 49.821564], [5.908686, 49.821484], [5.908693, 49.821434], [5.908709, 49.82132], [5.908773, 49.821022], [5.908792, 49.820923], [5.908796, 49.820885], [5.908789, 49.820816], [5.90877, 49.820763], [5.908716, 49.820602], [5.90869, 49.82051], [5.908686, 49.82048], [5.908682, 49.820374], [5.908674, 49.820297], [5.908602, 49.82013], [5.908587, 49.82007], [5.908567, 49.819977], [5.908518, 49.819805], [5.908483, 49.819702], [5.908441, 49.81964], [5.908346, 49.819546], [5.908117, 49.819336], [5.90803, 49.819263], [5.907915, 49.819294], [5.907717, 49.81936], [5.907583, 49.819412], [5.907511, 49.819437], [5.907404, 49.819487], [5.907335, 49.819521], [5.907267, 49.81957], [5.907228, 49.819593], [5.907175, 49.819601], [5.907122, 49.819605], [5.907068, 49.81962], [5.90703, 49.819639], [5.906927, 49.819689], [5.906832, 49.819738], [5.906755, 49.819761], [5.906694, 49.81978], [5.906568, 49.819838], [5.906465, 49.819857], [5.906382, 49.819868], [5.90629, 49.819914], [5.906214, 49.819944], [5.906126, 49.81999], [5.906053, 49.820047], [5.905989, 49.820108], [5.905939, 49.820139], [5.905901, 49.82015], [5.905867, 49.820154], [5.905809, 49.820127], [5.905714, 49.820097], [5.905653, 49.820089], [5.905615, 49.820085], [5.905531, 49.820093], [5.905451, 49.820108], [5.905374, 49.820116], [5.905325, 49.820112], [5.905264, 49.820108], [5.905207, 49.820101], [5.905127, 49.820097], [5.904959, 49.820101], [5.904875, 49.820097], [5.904783, 49.820082], [5.904715, 49.820074], [5.90465, 49.82007], [5.904554, 49.820078], [5.904459, 49.820082], [5.904371, 49.82007], [5.904295, 49.820067], [5.904165, 49.820055], [5.904097, 49.820044], [5.903921, 49.820013], [5.903841, 49.820005], [5.90381, 49.820002], [5.90378, 49.820005], [5.903746, 49.820017], [5.903696, 49.820036], [5.90362, 49.820067], [5.90357, 49.820082], [5.903498, 49.820093], [5.903391, 49.820101], [5.903307, 49.820108], [5.903227, 49.820105], [5.902929, 49.820078], [5.902819, 49.820063], [5.902735, 49.820059], [5.902613, 49.820055], [5.902506, 49.820063], [5.902384, 49.820074], [5.90225, 49.820097], [5.902056, 49.820131], [5.901907, 49.820154], [5.901789, 49.820166], [5.90167, 49.820166], [5.901503, 49.82015], [5.901335, 49.820166], [5.901262, 49.820169], [5.901152, 49.820173], [5.901125, 49.820177], [5.901106, 49.820181], [5.901094, 49.820185], [5.901014, 49.820238], [5.900927, 49.820295], [5.900831, 49.820391], [5.900721, 49.820505], [5.90069, 49.820551], [5.900671, 49.820558], [5.900499, 49.820612], [5.900198, 49.820707], [5.899515, 49.820932], [5.899122, 49.821077], [5.898657, 49.821264], [5.89847, 49.821356], [5.898283, 49.821451], [5.89818, 49.82152], [5.898138, 49.821554], [5.898069, 49.821615], [5.898027, 49.821657], [5.897982, 49.821711], [5.897913, 49.821806], [5.897829, 49.821951], [5.897642, 49.822283], [5.897547, 49.822428], [5.897497, 49.822584], [5.897421, 49.822783], [5.897345, 49.822958], [5.897264, 49.823114], [5.897093, 49.823389], [5.897112, 49.8234], [5.897047, 49.823473], [5.896955, 49.82361], [5.896799, 49.823935], [5.896723, 49.82408], [5.896582, 49.824289], [5.896509, 49.824392], [5.896483, 49.824446], [5.896448, 49.824617], [5.896433, 49.824762], [5.896437, 49.824949], [5.896444, 49.825098], [5.896444, 49.82519], [5.896425, 49.82527], [5.896399, 49.825319], [5.896295, 49.825464], [5.896196, 49.825625], [5.89609, 49.825834], [5.89604, 49.825899], [5.895945, 49.825979], [5.895811, 49.826063], [5.895449, 49.826258], [5.89517, 49.82641], [5.894949, 49.826529], [5.894613, 49.826727], [5.894404, 49.82686], [5.894144, 49.827021], [5.894079, 49.827074], [5.893984, 49.827188], [5.893889, 49.827295], [5.893816, 49.827356], [5.89366, 49.827452], [5.893461, 49.827551], [5.89295, 49.827791], [5.892664, 49.827932], [5.89237, 49.828096], [5.891905, 49.828333], [5.89142, 49.828554], [5.891081, 49.828718], [5.890871, 49.828829], [5.890711, 49.828928], [5.890551, 49.829042], [5.890287, 49.829233], [5.890059, 49.82942], [5.889959, 49.829477], [5.889868, 49.829515], [5.889639, 49.829599], [5.88946, 49.829699], [5.889357, 49.829752], [5.8892, 49.829836], [5.888941, 49.829779], [5.888674, 49.829725], [5.888376, 49.829679], [5.88825, 49.829744], [5.887987, 49.829886], [5.887957, 49.829905], [5.887869, 49.82995], [5.887575, 49.830122], [5.887289, 49.830286], [5.886896, 49.830515], [5.886686, 49.830317], [5.886641, 49.830282], [5.88661, 49.830286], [5.886209, 49.83032], [5.885767, 49.830355], [5.885538, 49.83037], [5.885237, 49.830378], [5.884729, 49.830366], [5.884523, 49.830359], [5.884363, 49.830259], [5.884104, 49.830355], [5.883761, 49.830465], [5.883268, 49.830603], [5.88339, 49.830759], [5.883501, 49.83087], [5.883799, 49.831064], [5.883852, 49.831106], [5.883451, 49.831465], [5.883356, 49.831533], [5.883261, 49.831579], [5.88315, 49.831629], [5.883066, 49.831671], [5.883017, 49.831701], [5.882936, 49.831774], [5.882856, 49.83185], [5.882776, 49.83193], [5.882681, 49.832029], [5.882635, 49.83209], [5.882582, 49.832182], [5.882544, 49.832254], [5.882441, 49.832476], [5.882387, 49.832594], [5.882292, 49.832735], [5.882223, 49.832834], [5.881697, 49.832937], [5.881418, 49.832926], [5.881407, 49.833082], [5.881403, 49.833338], [5.881407, 49.833471], [5.881395, 49.833528], [5.881369, 49.83375], [5.881369, 49.833864], [5.881376, 49.833944], [5.881391, 49.834021], [5.881414, 49.834078], [5.881449, 49.834196], [5.881487, 49.834284], [5.881498, 49.834333], [5.881514, 49.834452], [5.881517, 49.834551], [5.881556, 49.834658], [5.881594, 49.834734], [5.881594, 49.834799], [5.881586, 49.834879], [5.88159, 49.834951], [5.881601, 49.835024], [5.881624, 49.835188], [5.881472, 49.835192], [5.881514, 49.835363], [5.881544, 49.835466], [5.88159, 49.835554], [5.881651, 49.835646], [5.881659, 49.835829], [5.881666, 49.835886], [5.88172, 49.83605], [5.88175, 49.836199], [5.881777, 49.836336], [5.881804, 49.836534], [5.881815, 49.836653], [5.881842, 49.836744], [5.881876, 49.836882], [5.881899, 49.837027], [5.881914, 49.837187], [5.88196, 49.837187], [5.88199, 49.837305], [5.881998, 49.837408], [5.881998, 49.837503], [5.881994, 49.837641], [5.881983, 49.837801], [5.881983, 49.837843], [5.881998, 49.837904], [5.882017, 49.837988], [5.882025, 49.838045], [5.882021, 49.838087], [5.881956, 49.838266], [5.881922, 49.838366], [5.881914, 49.838381], [5.881903, 49.838491], [5.881872, 49.838579], [5.88183, 49.838678], [5.881716, 49.838812], [5.881643, 49.838877], [5.881159, 49.838797], [5.880926, 49.83901], [5.880777, 49.839201], [5.880621, 49.839369], [5.880461, 49.839537], [5.880262, 49.839739], [5.880117, 49.839895], [5.880053, 49.839968], [5.879938, 49.840067], [5.879847, 49.840128], [5.879564, 49.840319], [5.879545, 49.840296], [5.879518, 49.8403], [5.879499, 49.840261], [5.879476, 49.8402], [5.879458, 49.8402], [5.879297, 49.840086], [5.879175, 49.840017], [5.879057, 49.839968], [5.878893, 49.839922], [5.878744, 49.840002], [5.878611, 49.839956], [5.878385, 49.839857], [5.878389, 49.840029], [5.878389, 49.840071], [5.877867, 49.839975], [5.877611, 49.839914], [5.877466, 49.840628], [5.87742, 49.840624], [5.876005, 49.840471], [5.875647, 49.840628], [5.875452, 49.840719], [5.875208, 49.840849], [5.874914, 49.84104], [5.8748, 49.841127], [5.874758, 49.841166], [5.874697, 49.841219], [5.874613, 49.84131], [5.874483, 49.841261], [5.874418, 49.841242], [5.874361, 49.84123], [5.874273, 49.841223], [5.874182, 49.841219], [5.874113, 49.841211], [5.874006, 49.841162], [5.873884, 49.841116], [5.873774, 49.841085], [5.873693, 49.841066], [5.873613, 49.84104], [5.873556, 49.841005], [5.873461, 49.840921], [5.873388, 49.840868], [5.873289, 49.840799], [5.873209, 49.840769], [5.873022, 49.840723], [5.87293, 49.840712], [5.872763, 49.8407], [5.872652, 49.841097], [5.872603, 49.841242], [5.872591, 49.841272], [5.872152, 49.84123], [5.871771, 49.841181], [5.871393, 49.84107], [5.871191, 49.841009], [5.871015, 49.840941], [5.871058, 49.841021], [5.871092, 49.84115], [5.871107, 49.841242], [5.871107, 49.841318], [5.87108, 49.841391], [5.871073, 49.841421], [5.871023, 49.841528], [5.870977, 49.841597], [5.870966, 49.841612], [5.870939, 49.841639], [5.870859, 49.841707], [5.87068, 49.841803], [5.870462, 49.841917], [5.870192, 49.842058], [5.870104, 49.842085], [5.869749, 49.842161], [5.869234, 49.842264], [5.869116, 49.842283], [5.869001, 49.842302], [5.868914, 49.842325], [5.868853, 49.842352], [5.868811, 49.842386], [5.868795, 49.842409], [5.868738, 49.842546], [5.868723, 49.842592], [5.869001, 49.842638], [5.869963, 49.842764], [5.870817, 49.84289], [5.871256, 49.84297], [5.872324, 49.843187], [5.873381, 49.843416], [5.873953, 49.843534], [5.873999, 49.843519], [5.874296, 49.843561], [5.874525, 49.843603], [5.874697, 49.843641], [5.874903, 49.843695], [5.87512, 49.843737], [5.875361, 49.843767], [5.875563, 49.843782], [5.875891, 49.843801], [5.876272, 49.843824], [5.876745, 49.843847], [5.876928, 49.843874], [5.877172, 49.843924], [5.877722, 49.844042], [5.878138, 49.844137], [5.878477, 49.844233], [5.878893, 49.844385], [5.879229, 49.844526], [5.879938, 49.844812], [5.879969, 49.844828], [5.880415, 49.84503], [5.881403, 49.845488], [5.88164, 49.84561], [5.881823, 49.845724], [5.882059, 49.845888], [5.882319, 49.846075], [5.882463, 49.84617], [5.882635, 49.846258], [5.882685, 49.846277], [5.883879, 49.846865], [5.884298, 49.847078], [5.884459, 49.847162], [5.884493, 49.847181], [5.88521, 49.847536], [5.885401, 49.84762], [5.885691, 49.847731], [5.886107, 49.847872], [5.885923, 49.84812], [5.885698, 49.848761], [5.885446, 49.848806], [5.885229, 49.848841], [5.884989, 49.848871], [5.88468, 49.848902], [5.884481, 49.848917], [5.884424, 49.848921], [5.883837, 49.848928], [5.883802, 49.848928], [5.883516, 49.84894], [5.883257, 49.848959], [5.883051, 49.848986], [5.882872, 49.849012], [5.882692, 49.849043], [5.882513, 49.849077], [5.882372, 49.849085], [5.882223, 49.849077], [5.882055, 49.849058], [5.882025, 49.849054], [5.882036, 49.849035], [5.882006, 49.849031], [5.881075, 49.848944], [5.880648, 49.848925], [5.8799, 49.848879], [5.879515, 49.848856], [5.87879, 49.848803], [5.878412, 49.848768], [5.878332, 49.848761], [5.877935, 49.84868], [5.877615, 49.848589], [5.877329, 49.848509], [5.877153, 49.848463], [5.876951, 49.848417], [5.876818, 49.848391], [5.87644, 49.848337], [5.876299, 49.848318], [5.87612, 49.848329], [5.875883, 49.848364], [5.875696, 49.848406], [5.875444, 49.848459], [5.874937, 49.848562], [5.874929, 49.848757], [5.874914, 49.848883], [5.874884, 49.849005], [5.874807, 49.849203], [5.874803, 49.849215], [5.874678, 49.849493], [5.874262, 49.849455], [5.874064, 49.849428], [5.873655, 49.849432], [5.87332, 49.849432], [5.873068, 49.849424], [5.872587, 49.849417], [5.872156, 49.849405], [5.871767, 49.849394], [5.871527, 49.849386], [5.870485, 49.849218], [5.870134, 49.849161], [5.869791, 49.849043], [5.869493, 49.848944], [5.869173, 49.848833], [5.868982, 49.848776], [5.868845, 49.848886], [5.86857, 49.849089], [5.8683, 49.849295], [5.868288, 49.84931], [5.867968, 49.849764], [5.867903, 49.849859], [5.867834, 49.849966], [5.867815, 49.850031]]]]}}]}