{"type": "FeatureCollection", "features": [{"type": "Feature", "properties": {"name": "Rambrouch"}, "geometry": {"type": "MultiPolygon", "coordinates": [[[[5.739191, 49.833616], [5.739256, 49.833677], [5.73937, 49.833788], [5.739523, 49.833986], [5.739641, 49.834207], [5.739683, 49.834364], [5.739702, 49.834463], [5.73971, 49.834681], [5.739702, 49.834841], [5.739771, 49.835009], [5.739973, 49.83552], [5.740045, 49.835794], [5.740045, 49.835878], [5.739996, 49.835939], [5.739794, 49.836168], [5.739725, 49.836252], [5.739687, 49.836336], [5.739675, 49.836451], [5.739733, 49.836542], [5.739862, 49.836664], [5.740015, 49.836805], [5.740091, 49.836943], [5.740374, 49.837431], [5.740538, 49.837793], [5.740622, 49.837995], [5.740713, 49.838423], [5.740789, 49.838747], [5.740938, 49.838903], [5.741304, 49.839094], [5.741823, 49.839289], [5.742529, 49.839483], [5.74296, 49.839563], [5.743666, 49.839617], [5.743883, 49.839613], [5.744089, 49.839579], [5.744169, 49.839548], [5.74428, 49.839399], [5.744436, 49.839346], [5.744696, 49.839243], [5.7451, 49.839006], [5.745527, 49.838812], [5.745916, 49.838705], [5.746542, 49.838629], [5.747038, 49.838591], [5.747469, 49.838545], [5.74777, 49.838499], [5.74803, 49.838507], [5.748545, 49.838629], [5.749044, 49.838785], [5.749319, 49.838888], [5.749525, 49.839033], [5.750021, 49.839411], [5.750269, 49.839685], [5.750475, 49.84009], [5.750479, 49.840105], [5.750578, 49.840258], [5.750616, 49.840441], [5.750643, 49.840673], [5.750605, 49.840811], [5.75049, 49.841059], [5.750399, 49.841158], [5.750238, 49.841246], [5.749853, 49.841383], [5.749308, 49.841604], [5.749063, 49.84186], [5.748789, 49.842112], [5.748579, 49.842337], [5.748449, 49.842634], [5.748411, 49.842836], [5.74843, 49.843252], [5.748373, 49.843721], [5.748335, 49.843866], [5.748297, 49.84413], [5.748293, 49.844206], [5.748365, 49.844496], [5.748445, 49.844671], [5.748571, 49.844809], [5.748613, 49.844938], [5.748617, 49.845064], [5.748587, 49.84543], [5.748495, 49.845533], [5.748331, 49.845762], [5.748205, 49.845968], [5.748205, 49.846086], [5.748232, 49.846212], [5.748316, 49.846376], [5.748465, 49.846567], [5.748659, 49.846735], [5.748957, 49.84693], [5.74914, 49.847029], [5.749296, 49.847094], [5.74954, 49.847155], [5.749949, 49.847231], [5.750322, 49.84728], [5.750753, 49.847311], [5.750998, 49.847315], [5.751207, 49.847307], [5.751333, 49.847292], [5.751478, 49.847254], [5.751604, 49.847181], [5.751699, 49.847078], [5.751829, 49.846861], [5.751848, 49.846827], [5.751883, 49.846781], [5.751978, 49.846628], [5.752291, 49.846292], [5.752314, 49.846247], [5.752436, 49.845728], [5.752531, 49.845499], [5.752661, 49.845369], [5.752752, 49.845327], [5.752794, 49.845313], [5.752924, 49.845266], [5.753008, 49.84524], [5.753347, 49.845163], [5.753473, 49.845114], [5.753946, 49.844908], [5.754122, 49.844839], [5.754225, 49.844824], [5.754339, 49.84482], [5.754484, 49.844843], [5.754675, 49.844915], [5.754869, 49.844999], [5.755037, 49.845045], [5.755793, 49.845144], [5.756449, 49.84532], [5.756624, 49.845381], [5.756636, 49.845385], [5.756662, 49.845392], [5.756681, 49.845396], [5.756796, 49.845415], [5.757059, 49.845503], [5.75725, 49.845621], [5.757376, 49.845751], [5.757422, 49.845797], [5.75762, 49.845907], [5.757971, 49.846109], [5.758158, 49.846235], [5.758295, 49.84643], [5.758364, 49.846663], [5.758409, 49.847055], [5.758421, 49.847265], [5.758398, 49.847529], [5.75839, 49.847685], [5.758406, 49.847914], [5.758421, 49.848211], [5.758463, 49.848383], [5.758509, 49.84844], [5.758543, 49.848535], [5.758543, 49.848738], [5.758478, 49.848928], [5.758387, 49.849092], [5.758257, 49.849279], [5.758207, 49.849344], [5.758158, 49.84939], [5.757887, 49.8496], [5.757597, 49.849802], [5.757441, 49.849924], [5.757387, 49.849955], [5.756983, 49.850168], [5.756838, 49.850267], [5.756689, 49.850363], [5.756556, 49.850508], [5.756277, 49.850714], [5.755926, 49.850958], [5.755846, 49.851034], [5.755655, 49.851244], [5.755526, 49.85137], [5.755381, 49.851473], [5.755121, 49.851622], [5.754919, 49.851717], [5.75474, 49.851763], [5.754515, 49.851805], [5.754255, 49.851828], [5.75403, 49.851831], [5.753756, 49.85182], [5.753462, 49.851797], [5.75334, 49.851763], [5.753126, 49.851686], [5.75297, 49.851618], [5.752829, 49.851576], [5.752676, 49.851541], [5.752489, 49.851519], [5.752218, 49.851511], [5.752119, 49.851519], [5.75189, 49.851557], [5.751684, 49.851614], [5.751398, 49.851706], [5.751223, 49.851748], [5.751158, 49.851755], [5.751085, 49.851751], [5.750994, 49.851725], [5.75094, 49.851683], [5.75083, 49.851572], [5.750765, 49.851545], [5.750547, 49.851496], [5.750265, 49.851439], [5.750063, 49.851412], [5.749903, 49.8514], [5.749792, 49.851404], [5.749659, 49.851423], [5.749552, 49.851461], [5.749311, 49.85161], [5.749178, 49.851698], [5.748945, 49.851862], [5.74872, 49.851957], [5.748468, 49.852022], [5.748144, 49.852072], [5.747919, 49.852091], [5.747683, 49.852064], [5.747534, 49.851992], [5.747377, 49.851862], [5.747271, 49.851808], [5.747129, 49.851801], [5.746935, 49.85185], [5.746256, 49.852129], [5.745985, 49.852331], [5.745844, 49.852556], [5.745844, 49.852793], [5.745909, 49.853071], [5.745874, 49.85322], [5.745771, 49.853331], [5.745714, 49.853414], [5.745699, 49.853495], [5.745741, 49.853697], [5.745894, 49.85396], [5.746088, 49.854113], [5.746267, 49.854177], [5.746805, 49.854313], [5.747396, 49.854441], [5.747625, 49.854502], [5.747866, 49.85457], [5.748159, 49.854582], [5.748709, 49.854578], [5.74898, 49.854567], [5.749273, 49.854509], [5.749639, 49.854399], [5.74983, 49.854334], [5.749975, 49.854315], [5.750216, 49.854353], [5.750536, 49.854448], [5.750704, 49.854509], [5.75078, 49.854593], [5.750872, 49.854677], [5.751005, 49.854734], [5.75141, 49.854776], [5.751528, 49.854811], [5.751699, 49.854876], [5.752653, 49.855509], [5.753492, 49.855905], [5.753874, 49.856138], [5.754271, 49.856409], [5.754438, 49.856504], [5.754557, 49.85655], [5.754694, 49.856569], [5.755068, 49.856565], [5.755529, 49.856531], [5.756063, 49.856447], [5.756479, 49.856356], [5.756674, 49.856249], [5.757067, 49.855913], [5.75725, 49.85586], [5.757551, 49.855783], [5.75783, 49.855761], [5.758085, 49.855757], [5.758684, 49.855791], [5.75915, 49.855867], [5.760481, 49.856234], [5.760664, 49.856302], [5.760737, 49.856375], [5.760775, 49.856489], [5.760729, 49.856623], [5.760599, 49.856863], [5.760469, 49.857016], [5.760138, 49.857248], [5.759474, 49.857782], [5.759134, 49.858069], [5.758451, 49.858503], [5.75815, 49.858675], [5.757967, 49.858721], [5.75778, 49.85874], [5.75762, 49.858797], [5.757425, 49.858927], [5.757246, 49.85911], [5.757086, 49.859358], [5.756907, 49.859781], [5.756731, 49.859987], [5.756529, 49.860174], [5.756262, 49.860369], [5.756052, 49.860472], [5.755812, 49.860487], [5.755655, 49.860544], [5.755426, 49.860704], [5.755312, 49.860846], [5.755247, 49.860964], [5.75524, 49.861059], [5.75532, 49.861174], [5.755354, 49.861258], [5.755255, 49.861383], [5.755041, 49.861547], [5.75469, 49.861765], [5.754564, 49.861872], [5.754476, 49.862055], [5.754496, 49.862211], [5.754679, 49.862459], [5.755079, 49.862905], [5.755354, 49.863157], [5.756151, 49.864096], [5.756536, 49.86445], [5.756922, 49.864771], [5.757013, 49.864908], [5.756975, 49.86511], [5.756746, 49.86558], [5.756208, 49.866529], [5.756037, 49.8668], [5.755819, 49.866968], [5.755491, 49.867151], [5.754641, 49.867517], [5.754309, 49.867609], [5.753885, 49.867712], [5.753565, 49.867792], [5.753164, 49.868013], [5.753069, 49.86809], [5.752985, 49.868193], [5.752928, 49.868399], [5.752882, 49.868586], [5.752813, 49.868719], [5.752703, 49.868841], [5.752703, 49.86894], [5.752726, 49.869005], [5.752825, 49.869066], [5.752932, 49.869135], [5.753016, 49.86923], [5.753264, 49.869558], [5.753401, 49.869749], [5.753447, 49.869879], [5.753485, 49.870298], [5.753569, 49.87071], [5.753611, 49.870787], [5.75374, 49.870909], [5.753839, 49.871019], [5.753988, 49.871218], [5.754, 49.871328], [5.753996, 49.871382], [5.753927, 49.87192], [5.75403, 49.871981], [5.754976, 49.872545], [5.755343, 49.87274], [5.755903, 49.873033], [5.756151, 49.873175], [5.756449, 49.873251], [5.756674, 49.873262], [5.756964, 49.873217], [5.757635, 49.873072], [5.758547, 49.872854], [5.758715, 49.872805], [5.758734, 49.872801], [5.75894, 49.872694], [5.759256, 49.872416], [5.759398, 49.872271], [5.759542, 49.872168], [5.759893, 49.872026], [5.760084, 49.871897], [5.760313, 49.87166], [5.760637, 49.871382], [5.760908, 49.871203], [5.761171, 49.871069], [5.761274, 49.870993], [5.761354, 49.870821], [5.761377, 49.870607], [5.761423, 49.870523], [5.761648, 49.870337], [5.762178, 49.870008], [5.76235, 49.869894], [5.762438, 49.869722], [5.76251, 49.869619], [5.762659, 49.869524], [5.762926, 49.869463], [5.763685, 49.869402], [5.764658, 49.869322], [5.7651, 49.869318], [5.765558, 49.869364], [5.76623, 49.869547], [5.766912, 49.869741], [5.767157, 49.869863], [5.767649, 49.870283], [5.768118, 49.870657], [5.768454, 49.871111], [5.768732, 49.871618], [5.768816, 49.871855], [5.768854, 49.872126], [5.768908, 49.872274], [5.769052, 49.8724], [5.769316, 49.872541], [5.76948, 49.872568], [5.76972, 49.872541], [5.770197, 49.872461], [5.770483, 49.87237], [5.771139, 49.872118], [5.771566, 49.871878], [5.771837, 49.871656], [5.772066, 49.871397], [5.772303, 49.870974], [5.772638, 49.870237], [5.772947, 49.86968], [5.773622, 49.867922], [5.773767, 49.867598], [5.774004, 49.867418], [5.774225, 49.867319], [5.774427, 49.867285], [5.774534, 49.8673], [5.774641, 49.867342], [5.774744, 49.867449], [5.774782, 49.867468], [5.774916, 49.867598], [5.775072, 49.867781], [5.775141, 49.867968], [5.775164, 49.868147], [5.775297, 49.868479], [5.775454, 49.868799], [5.77556, 49.868963], [5.775721, 49.86915], [5.775896, 49.869341], [5.776068, 49.869604], [5.77622, 49.869852], [5.776381, 49.87005], [5.77643, 49.870203], [5.77643, 49.870516], [5.776392, 49.870733], [5.776407, 49.870855], [5.77648, 49.871004], [5.776575, 49.871077], [5.776724, 49.871115], [5.776812, 49.871122], [5.776907, 49.871134], [5.777037, 49.871195], [5.777216, 49.871325], [5.777277, 49.871424], [5.777384, 49.87158], [5.777433, 49.871744], [5.777449, 49.871912], [5.777468, 49.872038], [5.777533, 49.872099], [5.777616, 49.872141], [5.778082, 49.872244], [5.778494, 49.872286], [5.778711, 49.872286], [5.778891, 49.872263], [5.77902, 49.872232], [5.779093, 49.872229], [5.779158, 49.872229], [5.779234, 49.872255], [5.779329, 49.872274], [5.779451, 49.87229], [5.779566, 49.872301], [5.779764, 49.872297], [5.779993, 49.872274], [5.780367, 49.872198], [5.780725, 49.872141], [5.78113, 49.87208], [5.781553, 49.872061], [5.782019, 49.871988], [5.782602, 49.871908], [5.782896, 49.87187], [5.783003, 49.871866], [5.783094, 49.871874], [5.783224, 49.871912], [5.783354, 49.872], [5.783739, 49.872408], [5.783888, 49.872622], [5.783964, 49.872751], [5.784033, 49.872927], [5.784029, 49.873007], [5.783998, 49.873064], [5.783873, 49.873133], [5.783396, 49.8734], [5.783106, 49.87351], [5.781984, 49.873915], [5.781614, 49.874014], [5.781298, 49.874128], [5.780588, 49.874414], [5.779856, 49.874712], [5.779493, 49.874803], [5.7791, 49.874865], [5.778956, 49.874899], [5.778856, 49.874945], [5.77873, 49.875032], [5.778441, 49.875315], [5.778193, 49.875601], [5.778078, 49.875792], [5.77804, 49.875887], [5.778063, 49.876047], [5.778398, 49.87636], [5.778543, 49.876593], [5.778723, 49.876821], [5.779016, 49.877081], [5.779139, 49.877153], [5.779261, 49.87718], [5.779367, 49.877184], [5.779909, 49.877138], [5.780287, 49.87705], [5.780584, 49.876898], [5.780912, 49.876677], [5.781259, 49.876413], [5.781355, 49.876364], [5.781618, 49.876215], [5.782312, 49.875856], [5.782568, 49.875727], [5.782667, 49.875578], [5.78285, 49.875414], [5.783377, 49.875112], [5.78401, 49.8748], [5.784933, 49.874277], [5.786085, 49.873915], [5.787149, 49.873541], [5.7875, 49.873476], [5.787992, 49.873488], [5.788542, 49.873568], [5.788958, 49.873713], [5.789583, 49.873999], [5.790064, 49.874231], [5.790686, 49.874563], [5.791182, 49.874803], [5.791792, 49.875124], [5.792021, 49.875288], [5.792192, 49.875429], [5.792345, 49.875574], [5.792379, 49.875654], [5.792364, 49.875784], [5.79233, 49.875952], [5.792135, 49.876619], [5.792021, 49.87694], [5.791998, 49.877123], [5.792093, 49.877516], [5.792097, 49.877924], [5.792028, 49.87813], [5.791788, 49.878916], [5.791819, 49.87908], [5.791937, 49.879232], [5.792311, 49.879553], [5.792917, 49.880049], [5.793219, 49.880331], [5.793405, 49.880461], [5.793818, 49.880636], [5.79421, 49.880686], [5.794451, 49.880671], [5.794638, 49.880568], [5.795034, 49.880449], [5.795542, 49.880323], [5.795626, 49.880278], [5.795904, 49.880087], [5.795996, 49.879976], [5.796179, 49.87974], [5.796366, 49.87948], [5.796473, 49.879229], [5.796625, 49.879042], [5.796808, 49.878801], [5.796904, 49.878603], [5.797037, 49.878309], [5.797201, 49.877611], [5.79722, 49.877375], [5.797125, 49.876986], [5.796965, 49.876604], [5.796625, 49.876074], [5.79603, 49.875139], [5.795683, 49.874479], [5.795385, 49.873613], [5.795282, 49.87322], [5.795267, 49.872816], [5.795229, 49.87253], [5.795267, 49.872301], [5.795397, 49.872183], [5.795687, 49.872049], [5.796286, 49.871923], [5.797148, 49.871832], [5.798624, 49.871653], [5.799376, 49.871492], [5.799978, 49.871286], [5.800406, 49.871057], [5.800634, 49.870894], [5.800734, 49.870821], [5.800772, 49.870722], [5.800657, 49.870489], [5.80052, 49.870295], [5.800459, 49.870127], [5.800421, 49.869955], [5.800425, 49.869818], [5.800444, 49.869646], [5.800489, 49.8696], [5.800627, 49.869581], [5.800714, 49.869593], [5.800867, 49.869623], [5.801115, 49.869711], [5.801222, 49.869764], [5.801714, 49.870024], [5.801981, 49.870176], [5.80224, 49.870398], [5.802523, 49.870627], [5.802679, 49.870745], [5.802786, 49.870798], [5.802885, 49.870836], [5.803045, 49.870863], [5.80332, 49.870882], [5.804003, 49.870871], [5.804769, 49.87084], [5.80514, 49.870783], [5.805555, 49.870726], [5.805708, 49.870668], [5.805906, 49.870542], [5.806139, 49.870352], [5.80633, 49.870146], [5.806425, 49.869955], [5.806463, 49.869753], [5.806463, 49.869535], [5.806387, 49.869322], [5.806223, 49.869043], [5.80591, 49.868643], [5.805636, 49.868311], [5.805323, 49.867994], [5.804998, 49.86767], [5.804655, 49.867243], [5.804491, 49.867109], [5.804041, 49.866869], [5.803408, 49.866587], [5.803286, 49.866499], [5.803068, 49.86635], [5.803022, 49.866316], [5.802881, 49.866156], [5.802675, 49.865889], [5.802465, 49.865576], [5.802076, 49.864897], [5.801844, 49.864458], [5.801836, 49.864313], [5.801897, 49.864176], [5.802073, 49.863981], [5.802259, 49.86381], [5.802401, 49.863718], [5.802603, 49.863626], [5.802797, 49.863577], [5.803152, 49.863508], [5.80335, 49.863485], [5.80361, 49.86347], [5.80406, 49.863485], [5.804293, 49.863508], [5.80456, 49.863554], [5.804823, 49.86363], [5.805151, 49.863768], [5.805471, 49.863958], [5.806009, 49.864283], [5.806078, 49.864401], [5.806127, 49.864504], [5.806166, 49.864679], [5.806169, 49.864912], [5.806131, 49.865244], [5.806139, 49.865744], [5.806204, 49.865953], [5.806288, 49.866087], [5.806379, 49.86632], [5.806631, 49.86669], [5.80681, 49.866846], [5.807138, 49.866938], [5.807459, 49.867033], [5.807604, 49.867147], [5.807661, 49.867304], [5.807806, 49.867903], [5.807879, 49.868078], [5.808065, 49.868151], [5.808291, 49.868216], [5.808565, 49.868265], [5.809221, 49.868288], [5.809694, 49.868334], [5.81032, 49.86846], [5.810972, 49.868597], [5.811544, 49.868635], [5.812406, 49.868616], [5.812449, 49.868612], [5.812906, 49.868532], [5.814703, 49.868269], [5.817705, 49.867952], [5.818308, 49.867884], [5.818953, 49.867773], [5.819696, 49.867697], [5.820478, 49.867643], [5.821211, 49.867506], [5.821821, 49.867239], [5.822275, 49.867048], [5.822935, 49.866858], [5.823614, 49.866644], [5.82387, 49.866541], [5.824102, 49.8664], [5.824278, 49.866365], [5.824526, 49.866373], [5.824903, 49.866457], [5.825228, 49.86656], [5.825995, 49.866812], [5.827745, 49.867388], [5.828615, 49.867727], [5.829302, 49.868002], [5.829561, 49.868151], [5.829889, 49.868433], [5.830179, 49.868677], [5.830698, 49.869066], [5.831144, 49.869402], [5.831308, 49.869482], [5.831594, 49.8696], [5.831861, 49.869684], [5.832212, 49.869764], [5.832415, 49.869776], [5.832525, 49.869783], [5.833509, 49.869795], [5.833933, 49.869795], [5.834185, 49.869814], [5.834307, 49.869844], [5.834398, 49.869909], [5.834585, 49.870104], [5.834898, 49.870325], [5.835123, 49.870409], [5.835341, 49.870447], [5.835676, 49.87047], [5.835997, 49.870462], [5.836359, 49.87044], [5.836519, 49.870428], [5.836576, 49.870405], [5.83663, 49.870394], [5.836698, 49.870409], [5.836821, 49.870474], [5.837133, 49.870699], [5.83732, 49.870871], [5.837439, 49.870981], [5.837591, 49.871229], [5.837889, 49.871756], [5.838099, 49.872171], [5.838263, 49.872412], [5.838541, 49.872801], [5.838663, 49.873003], [5.838717, 49.873179], [5.838766, 49.873537], [5.838831, 49.873716], [5.838968, 49.873877], [5.839151, 49.874041], [5.839441, 49.874205], [5.839907, 49.874403], [5.840372, 49.874548], [5.840769, 49.874598], [5.841448, 49.874636], [5.841787, 49.874628], [5.841898, 49.874617], [5.842112, 49.874544], [5.842485, 49.874361], [5.842775, 49.874163], [5.843214, 49.873815], [5.843527, 49.873579], [5.843645, 49.873518], [5.843828, 49.873468], [5.843966, 49.873449], [5.844149, 49.873446], [5.844336, 49.873461], [5.844538, 49.873491], [5.844755, 49.873548], [5.844942, 49.873632], [5.845201, 49.873793], [5.845549, 49.87406], [5.845888, 49.874392], [5.84598, 49.874498], [5.846113, 49.874666], [5.846228, 49.87483], [5.84627, 49.87491], [5.846289, 49.875021], [5.846289, 49.875162], [5.846266, 49.87536], [5.846247, 49.875486], [5.846228, 49.875582], [5.846186, 49.875765], [5.846087, 49.875967], [5.845964, 49.876108], [5.845831, 49.87623], [5.845629, 49.876402], [5.845388, 49.876623], [5.845324, 49.876707], [5.845194, 49.876905], [5.845121, 49.877012], [5.845003, 49.877153], [5.8449, 49.877233], [5.844786, 49.877306], [5.844629, 49.877417], [5.844507, 49.877516], [5.844339, 49.877676], [5.844149, 49.877905], [5.843947, 49.878176], [5.843828, 49.878313], [5.843759, 49.878363], [5.843656, 49.878416], [5.843462, 49.878511], [5.843401, 49.878553], [5.843351, 49.878599], [5.843267, 49.878645], [5.843149, 49.878687], [5.842932, 49.878717], [5.842596, 49.878767], [5.842081, 49.878874], [5.841372, 49.879007], [5.84091, 49.879091], [5.84041, 49.879141], [5.840403, 49.879366], [5.840383, 49.879767], [5.840376, 49.880014], [5.840383, 49.880144], [5.840403, 49.880308], [5.840426, 49.880419], [5.840471, 49.880423], [5.840559, 49.880438], [5.840673, 49.880465], [5.840776, 49.880499], [5.840857, 49.880529], [5.840921, 49.880568], [5.840944, 49.880587], [5.840647, 49.881079], [5.840521, 49.881353], [5.84049, 49.881399], [5.840361, 49.881639], [5.840216, 49.881949], [5.840189, 49.88201], [5.840147, 49.882116], [5.840071, 49.882296], [5.840033, 49.882372], [5.839975, 49.882433], [5.839849, 49.88254], [5.839743, 49.882627], [5.83967, 49.882666], [5.839628, 49.882692], [5.839479, 49.882772], [5.839373, 49.882826], [5.839292, 49.882868], [5.83917, 49.882952], [5.839136, 49.882978], [5.839018, 49.883058], [5.839006, 49.88307], [5.838961, 49.883108], [5.839121, 49.883139], [5.838911, 49.883276], [5.839117, 49.883409], [5.839716, 49.883657], [5.840029, 49.883822], [5.840357, 49.884024], [5.840548, 49.884153], [5.84133, 49.884714], [5.841463, 49.884817], [5.842077, 49.884546], [5.842295, 49.884447], [5.842505, 49.884359], [5.84265, 49.884294], [5.842947, 49.884127], [5.843046, 49.884081], [5.843172, 49.884043], [5.843302, 49.88402], [5.843557, 49.883989], [5.843676, 49.883959], [5.843939, 49.883875], [5.844305, 49.883768], [5.844679, 49.883654], [5.844885, 49.883581], [5.845125, 49.883493], [5.845362, 49.883394], [5.845583, 49.883314], [5.845808, 49.883249], [5.84606, 49.883181], [5.846296, 49.883131], [5.84654, 49.883078], [5.846754, 49.883055], [5.847048, 49.883036], [5.84733, 49.883036], [5.847899, 49.883047], [5.848196, 49.883074], [5.848692, 49.88315], [5.848776, 49.882875], [5.848799, 49.882742], [5.848864, 49.882536], [5.848959, 49.882242], [5.849462, 49.882303], [5.849859, 49.882338], [5.850458, 49.88236], [5.850595, 49.882368], [5.851194, 49.882433], [5.851389, 49.882456], [5.851465, 49.882479], [5.851599, 49.882528], [5.851805, 49.882612], [5.851976, 49.882688], [5.852098, 49.882738], [5.852377, 49.882841], [5.852701, 49.882952], [5.8529, 49.883017], [5.853079, 49.883062], [5.85325, 49.883104], [5.85346, 49.883161], [5.853705, 49.883246], [5.85391, 49.883318], [5.854479, 49.88352], [5.854395, 49.883768], [5.854231, 49.884123], [5.854097, 49.884428], [5.853666, 49.884493], [5.85507, 49.884764], [5.854967, 49.885027], [5.854956, 49.88508], [5.85491, 49.885187], [5.854837, 49.885385], [5.854776, 49.885538], [5.854662, 49.885801], [5.854639, 49.885851], [5.854422, 49.88624], [5.854357, 49.886354], [5.854269, 49.886614], [5.854212, 49.886892], [5.85467, 49.88703], [5.855024, 49.887091], [5.85531, 49.887133], [5.855047, 49.887209], [5.854971, 49.887308], [5.854929, 49.887365], [5.854628, 49.887781], [5.855093, 49.888014], [5.855421, 49.88817], [5.855738, 49.888315], [5.855936, 49.888391], [5.856356, 49.888548], [5.856802, 49.888693], [5.857096, 49.888658], [5.857428, 49.888651], [5.857672, 49.888647], [5.857817, 49.888639], [5.857889, 49.88862], [5.857977, 49.888605], [5.85808, 49.888578], [5.858152, 49.888567], [5.858301, 49.888556], [5.858335, 49.888548], [5.858484, 49.888502], [5.858618, 49.888479], [5.858778, 49.88846], [5.858885, 49.888449], [5.858931, 49.888445], [5.859053, 49.888449], [5.859289, 49.888452], [5.859426, 49.888445], [5.859526, 49.888433], [5.859663, 49.888403], [5.859808, 49.888357], [5.859953, 49.888296], [5.860216, 49.888174], [5.860357, 49.888117], [5.860582, 49.888048], [5.861177, 49.887854], [5.861448, 49.887766], [5.861429, 49.887739], [5.861456, 49.887728], [5.861738, 49.887548], [5.861807, 49.887507], [5.86186, 49.887476], [5.862063, 49.887358], [5.862177, 49.887289], [5.862276, 49.887266], [5.862448, 49.887236], [5.862658, 49.887205], [5.862772, 49.887194], [5.8631, 49.887175], [5.863169, 49.887194], [5.863421, 49.88727], [5.863508, 49.887301], [5.863634, 49.887346], [5.863726, 49.887377], [5.864031, 49.887495], [5.86416, 49.887556], [5.864286, 49.88759], [5.864451, 49.887629], [5.864554, 49.887655], [5.864668, 49.887678], [5.864794, 49.887709], [5.865019, 49.887758], [5.865366, 49.887842], [5.865725, 49.887937], [5.866114, 49.888033], [5.866373, 49.888136], [5.866507, 49.888185], [5.866579, 49.888185], [5.866648, 49.888182], [5.866762, 49.88817], [5.866384, 49.88767], [5.866144, 49.887419], [5.865728, 49.887045], [5.865366, 49.886713], [5.864946, 49.886324], [5.864447, 49.886011], [5.864073, 49.885759], [5.863626, 49.885485], [5.863169, 49.885183], [5.863073, 49.885118], [5.863123, 49.885046], [5.863466, 49.8846], [5.863649, 49.884378], [5.863806, 49.884199], [5.863909, 49.884062], [5.864077, 49.883841], [5.864172, 49.883676], [5.86426, 49.883547], [5.864355, 49.883409], [5.864584, 49.883108], [5.864683, 49.882986], [5.864721, 49.882925], [5.864729, 49.882887], [5.864752, 49.882792], [5.864828, 49.882585], [5.86487, 49.882494], [5.86508, 49.88212], [5.86521, 49.881918], [5.865293, 49.881803], [5.865496, 49.88167], [5.865702, 49.88151], [5.865774, 49.881453], [5.866007, 49.881288], [5.866201, 49.88117], [5.866781, 49.880854], [5.866869, 49.880865], [5.866919, 49.880865], [5.866995, 49.880854], [5.867243, 49.880773], [5.867773, 49.880693], [5.868364, 49.880571], [5.868513, 49.880529], [5.868746, 49.880453], [5.869249, 49.880236], [5.869123, 49.880503], [5.869059, 49.880499], [5.868845, 49.880739], [5.868635, 49.881029], [5.868418, 49.881418], [5.868498, 49.881437], [5.868723, 49.881487], [5.868807, 49.881315], [5.868845, 49.881258], [5.868879, 49.881231], [5.868978, 49.881174], [5.869062, 49.881121], [5.869097, 49.88109], [5.869173, 49.880999], [5.869272, 49.880835], [5.869417, 49.88059], [5.869497, 49.880461], [5.869623, 49.880346], [5.869669, 49.880281], [5.869703, 49.880236], [5.870066, 49.880323], [5.870169, 49.880354], [5.87068, 49.880495], [5.871134, 49.880617], [5.871306, 49.880659], [5.871821, 49.880781], [5.872015, 49.880808], [5.872141, 49.880827], [5.872213, 49.880854], [5.872293, 49.880892], [5.872435, 49.880674], [5.872393, 49.880663], [5.872267, 49.880644], [5.872042, 49.880602], [5.871756, 49.880533], [5.871489, 49.880461], [5.871134, 49.880362], [5.870897, 49.880297], [5.8706, 49.880213], [5.870607, 49.880201], [5.870672, 49.880094], [5.870733, 49.879999], [5.870882, 49.879671], [5.870958, 49.879473], [5.871096, 49.879145], [5.871183, 49.878885], [5.871202, 49.878824], [5.87126, 49.878668], [5.871309, 49.878591], [5.87134, 49.878538], [5.871374, 49.878462], [5.871393, 49.878389], [5.87142, 49.87826], [5.871542, 49.87818], [5.871618, 49.878126], [5.871691, 49.878069], [5.871736, 49.878012], [5.871782, 49.877935], [5.871874, 49.877771], [5.871916, 49.877688], [5.871954, 49.877592], [5.872019, 49.877447], [5.872061, 49.877386], [5.87216, 49.877268], [5.872183, 49.877245], [5.872297, 49.877115], [5.871614, 49.876761], [5.871359, 49.876631], [5.87134, 49.876593], [5.87134, 49.876543], [5.871382, 49.876436], [5.871538, 49.875997], [5.871607, 49.87578], [5.871679, 49.875494], [5.87171, 49.875494], [5.87216, 49.875502], [5.872515, 49.875509], [5.872938, 49.875517], [5.873419, 49.875528], [5.873327, 49.875608], [5.873232, 49.875715], [5.873175, 49.87586], [5.873152, 49.875963], [5.873144, 49.876051], [5.873148, 49.876127], [5.873205, 49.876436], [5.873224, 49.876596], [5.87324, 49.876696], [5.8734, 49.876768], [5.873579, 49.876852], [5.873739, 49.876928], [5.873877, 49.877001], [5.874094, 49.877134], [5.874418, 49.87734], [5.874281, 49.877455], [5.874506, 49.877565], [5.874624, 49.877626], [5.874723, 49.877695], [5.874853, 49.877798], [5.875166, 49.878042], [5.875193, 49.878004], [5.875433, 49.877672], [5.875639, 49.877394], [5.875849, 49.877108], [5.875864, 49.877085], [5.875967, 49.876951], [5.876112, 49.876787], [5.876181, 49.876707], [5.876345, 49.876493], [5.876467, 49.876333], [5.876711, 49.87602], [5.876925, 49.875757], [5.876966, 49.875704], [5.877249, 49.87554], [5.877286, 49.875518], [5.877333, 49.87549], [5.877489, 49.875395], [5.877859, 49.875177], [5.878088, 49.875063], [5.878591, 49.8748], [5.878794, 49.87467], [5.879126, 49.874453], [5.879374, 49.874277], [5.87948, 49.874205], [5.879812, 49.873957], [5.880125, 49.873713], [5.880175, 49.873671], [5.880098, 49.873632], [5.878614, 49.872839], [5.878122, 49.87285], [5.878553, 49.872309], [5.878569, 49.872293], [5.878008, 49.87195], [5.877512, 49.871656], [5.87771, 49.871092], [5.87784, 49.870733], [5.877893, 49.870588], [5.877905, 49.870539], [5.877935, 49.870291], [5.877951, 49.87015], [5.877939, 49.86981], [5.877912, 49.869806], [5.87715, 49.869745], [5.876497, 49.869688], [5.876108, 49.869638], [5.875711, 49.869547], [5.875467, 49.86949], [5.874609, 49.869303], [5.874636, 49.869272], [5.874781, 49.869078], [5.875025, 49.868803], [5.875124, 49.868681], [5.8752, 49.868498], [5.875231, 49.868418], [5.875284, 49.868109], [5.875296, 49.867975], [5.875284, 49.867754], [5.875109, 49.867338], [5.874987, 49.866953], [5.874975, 49.866942], [5.874769, 49.86677], [5.874571, 49.86661], [5.874449, 49.866529], [5.874224, 49.866404], [5.873629, 49.866083], [5.873079, 49.865789], [5.873064, 49.865786], [5.873083, 49.865766], [5.87314, 49.865694], [5.87319, 49.865606], [5.873278, 49.865412], [5.873316, 49.865332], [5.873385, 49.865168], [5.873445, 49.865091], [5.873503, 49.865038], [5.873529, 49.865007], [5.873598, 49.864943], [5.873793, 49.86474], [5.874144, 49.864401], [5.874163, 49.864382], [5.874395, 49.864271], [5.874994, 49.863989], [5.874968, 49.863855], [5.875334, 49.863783], [5.875441, 49.863756], [5.875292, 49.863333], [5.875158, 49.862883], [5.875055, 49.862268], [5.875051, 49.862211], [5.874575, 49.86223], [5.873976, 49.862276], [5.874174, 49.862082], [5.874487, 49.861815], [5.87472, 49.861643], [5.874884, 49.86154], [5.875124, 49.861391], [5.875322, 49.861311], [5.87557, 49.861235], [5.875769, 49.861158], [5.875948, 49.861086], [5.876089, 49.861033], [5.876203, 49.861006], [5.876215, 49.860983], [5.876245, 49.860945], [5.875284, 49.860697], [5.87467, 49.860533], [5.873728, 49.860216], [5.873434, 49.860106], [5.873209, 49.860006], [5.872999, 49.859911], [5.873228, 49.859739], [5.873114, 49.859682], [5.872526, 49.859392], [5.872339, 49.85927], [5.872202, 49.859163], [5.872, 49.858984], [5.871859, 49.858835], [5.871706, 49.858656], [5.871485, 49.858336], [5.871294, 49.858061], [5.871229, 49.857954], [5.871199, 49.857866], [5.871115, 49.857607], [5.871065, 49.857439], [5.871019, 49.857218], [5.870993, 49.857065], [5.870928, 49.856783], [5.870848, 49.856535], [5.870749, 49.856249], [5.870733, 49.856195], [5.870779, 49.856188], [5.870718, 49.856089], [5.870687, 49.856028], [5.870657, 49.855913], [5.870993, 49.855886], [5.871328, 49.855867], [5.871469, 49.855864], [5.871576, 49.855864], [5.871729, 49.855875], [5.871847, 49.855894], [5.87195, 49.855917], [5.872114, 49.85597], [5.872278, 49.856028], [5.872427, 49.856051], [5.872656, 49.856077], [5.872751, 49.856066], [5.872923, 49.856028], [5.873068, 49.855978], [5.873236, 49.855913], [5.873396, 49.855829], [5.873529, 49.855741], [5.873617, 49.855699], [5.873728, 49.855516], [5.873335, 49.855337], [5.873129, 49.855257], [5.87319, 49.855066], [5.873274, 49.85478], [5.873327, 49.854601], [5.873411, 49.854467], [5.87348, 49.854357], [5.873598, 49.854162], [5.873644, 49.854109], [5.873774, 49.853998], [5.873632, 49.853926], [5.873815, 49.853647], [5.873957, 49.853449], [5.874079, 49.853308], [5.874189, 49.853209], [5.874273, 49.853151], [5.874361, 49.853098], [5.87451, 49.852736], [5.874315, 49.852694], [5.874582, 49.852186], [5.87422, 49.852152], [5.873953, 49.852125], [5.873529, 49.852072], [5.873178, 49.852034], [5.872709, 49.851992], [5.872362, 49.851957], [5.872175, 49.851934], [5.871885, 49.851889], [5.87166, 49.85185], [5.871324, 49.85179], [5.871096, 49.851736], [5.870909, 49.851679], [5.870726, 49.851614], [5.870516, 49.851522], [5.870172, 49.851377], [5.869719, 49.851198], [5.868391, 49.850691], [5.868128, 49.850576], [5.868036, 49.850504], [5.867983, 49.850443], [5.867941, 49.850386], [5.867819, 49.850058], [5.867815, 49.850031], [5.867834, 49.849966], [5.867903, 49.849859], [5.867968, 49.849764], [5.868288, 49.84931], [5.8683, 49.849295], [5.86857, 49.849089], [5.868845, 49.848886], [5.868982, 49.848776], [5.869173, 49.848833], [5.869493, 49.848944], [5.869791, 49.849043], [5.870134, 49.849161], [5.870485, 49.849218], [5.871527, 49.849386], [5.871767, 49.849394], [5.872156, 49.849405], [5.872587, 49.849417], [5.873068, 49.849424], [5.87332, 49.849432], [5.873655, 49.849432], [5.874064, 49.849428], [5.874262, 49.849455], [5.874678, 49.849493], [5.874803, 49.849215], [5.874807, 49.849203], [5.874884, 49.849005], [5.874914, 49.848883], [5.874929, 49.848757], [5.874937, 49.848562], [5.875444, 49.848459], [5.875696, 49.848406], [5.875883, 49.848364], [5.87612, 49.848329], [5.876299, 49.848318], [5.87644, 49.848337], [5.876818, 49.848391], [5.876951, 49.848417], [5.877153, 49.848463], [5.877329, 49.848509], [5.877615, 49.848589], [5.877935, 49.84868], [5.878332, 49.848761], [5.878412, 49.848768], [5.87879, 49.848803], [5.879515, 49.848856], [5.8799, 49.848879], [5.880648, 49.848925], [5.881075, 49.848944], [5.882006, 49.849031], [5.882036, 49.849035], [5.882025, 49.849054], [5.882055, 49.849058], [5.882223, 49.849077], [5.882372, 49.849085], [5.882513, 49.849077], [5.882692, 49.849043], [5.882872, 49.849012], [5.883051, 49.848986], [5.883257, 49.848959], [5.883516, 49.84894], [5.883802, 49.848928], [5.883837, 49.848928], [5.884424, 49.848921], [5.884481, 49.848917], [5.88468, 49.848902], [5.884989, 49.848871], [5.885229, 49.848841], [5.885446, 49.848806], [5.885698, 49.848761], [5.885923, 49.84812], [5.886107, 49.847872], [5.885691, 49.847731], [5.885401, 49.84762], [5.88521, 49.847536], [5.884493, 49.847181], [5.884459, 49.847162], [5.884298, 49.847078], [5.883879, 49.846865], [5.882685, 49.846277], [5.882635, 49.846258], [5.882463, 49.84617], [5.882319, 49.846075], [5.882059, 49.845888], [5.881823, 49.845724], [5.88164, 49.84561], [5.881403, 49.845488], [5.880415, 49.84503], [5.879969, 49.844828], [5.879938, 49.844812], [5.879229, 49.844526], [5.878893, 49.844385], [5.878477, 49.844233], [5.878138, 49.844137], [5.877722, 49.844042], [5.877172, 49.843924], [5.876928, 49.843874], [5.876745, 49.843847], [5.876272, 49.843824], [5.875891, 49.843801], [5.875563, 49.843782], [5.875361, 49.843767], [5.87512, 49.843737], [5.874903, 49.843695], [5.874697, 49.843641], [5.874525, 49.843603], [5.874296, 49.843561], [5.873999, 49.843519], [5.873953, 49.843534], [5.873381, 49.843416], [5.872324, 49.843187], [5.871256, 49.84297], [5.870817, 49.84289], [5.869963, 49.842764], [5.869001, 49.842638], [5.868723, 49.842592], [5.868738, 49.842546], [5.868795, 49.842409], [5.868811, 49.842386], [5.868853, 49.842352], [5.868914, 49.842325], [5.869001, 49.842302], [5.869116, 49.842283], [5.869234, 49.842264], [5.869749, 49.842161], [5.870104, 49.842085], [5.870192, 49.842058], [5.870462, 49.841917], [5.87068, 49.841803], [5.870859, 49.841707], [5.870939, 49.841639], [5.870966, 49.841612], [5.870977, 49.841597], [5.871023, 49.841528], [5.871073, 49.841421], [5.87108, 49.841391], [5.871107, 49.841318], [5.871107, 49.841242], [5.871092, 49.84115], [5.871058, 49.841021], [5.871015, 49.840941], [5.871191, 49.841009], [5.871393, 49.84107], [5.871771, 49.841181], [5.872152, 49.84123], [5.872591, 49.841272], [5.872603, 49.841242], [5.872652, 49.841097], [5.872763, 49.8407], [5.87293, 49.840712], [5.873022, 49.840723], [5.873209, 49.840769], [5.873289, 49.840799], [5.873388, 49.840868], [5.873461, 49.840921], [5.873556, 49.841005], [5.873613, 49.84104], [5.873693, 49.841066], [5.873774, 49.841085], [5.873884, 49.841116], [5.874006, 49.841162], [5.874113, 49.841211], [5.874182, 49.841219], [5.874273, 49.841223], [5.874361, 49.84123], [5.874418, 49.841242], [5.874483, 49.841261], [5.874613, 49.84131], [5.874697, 49.841219], [5.874758, 49.841166], [5.8748, 49.841127], [5.874914, 49.84104], [5.875208, 49.840849], [5.875452, 49.840719], [5.875647, 49.840628], [5.876005, 49.840471], [5.87742, 49.840624], [5.877466, 49.840628], [5.877611, 49.839914], [5.877867, 49.839975], [5.878389, 49.840071], [5.878389, 49.840029], [5.878385, 49.839857], [5.878611, 49.839956], [5.878744, 49.840002], [5.878893, 49.839922], [5.879057, 49.839968], [5.879175, 49.840017], [5.879297, 49.840086], [5.879458, 49.8402], [5.879476, 49.8402], [5.879499, 49.840261], [5.879518, 49.8403], [5.879545, 49.840296], [5.879564, 49.840319], [5.879847, 49.840128], [5.879938, 49.840067], [5.880053, 49.839968], [5.880117, 49.839895], [5.880262, 49.839739], [5.880461, 49.839537], [5.880621, 49.839369], [5.880777, 49.839201], [5.880926, 49.83901], [5.881159, 49.838797], [5.881643, 49.838877], [5.881716, 49.838812], [5.88183, 49.838678], [5.881872, 49.838579], [5.881903, 49.838491], [5.881914, 49.838381], [5.881922, 49.838366], [5.881956, 49.838266], [5.882021, 49.838087], [5.882025, 49.838045], [5.882017, 49.837988], [5.881998, 49.837904], [5.881983, 49.837843], [5.881983, 49.837801], [5.881994, 49.837641], [5.881998, 49.837503], [5.881998, 49.837408], [5.88199, 49.837305], [5.88196, 49.837187], [5.881914, 49.837187], [5.881899, 49.837027], [5.881876, 49.836882], [5.881842, 49.836744], [5.881815, 49.836653], [5.881804, 49.836534], [5.881777, 49.836336], [5.88175, 49.836199], [5.88172, 49.83605], [5.881666, 49.835886], [5.881659, 49.835829], [5.881651, 49.835646], [5.88159, 49.835554], [5.881544, 49.835466], [5.881514, 49.835363], [5.881472, 49.835192], [5.881624, 49.835188], [5.881601, 49.835024], [5.88159, 49.834951], [5.881586, 49.834879], [5.881594, 49.834799], [5.881594, 49.834734], [5.881556, 49.834658], [5.881517, 49.834551], [5.881514, 49.834452], [5.881498, 49.834333], [5.881487, 49.834284], [5.881449, 49.834196], [5.881414, 49.834078], [5.881391, 49.834021], [5.881376, 49.833944], [5.881369, 49.833864], [5.881369, 49.83375], [5.881395, 49.833528], [5.881407, 49.833471], [5.881403, 49.833338], [5.881407, 49.833082], [5.881418, 49.832926], [5.881697, 49.832937], [5.882223, 49.832834], [5.882292, 49.832735], [5.882387, 49.832594], [5.882441, 49.832476], [5.882544, 49.832254], [5.882582, 49.832182], [5.882635, 49.83209], [5.882681, 49.832029], [5.882776, 49.83193], [5.882856, 49.83185], [5.882936, 49.831774], [5.883017, 49.831701], [5.883066, 49.831671], [5.88315, 49.831629], [5.883261, 49.831579], [5.883356, 49.831533], [5.883451, 49.831465], [5.883852, 49.831106], [5.883799, 49.831064], [5.883501, 49.83087], [5.88339, 49.830759], [5.883268, 49.830603], [5.883761, 49.830465], [5.884104, 49.830355], [5.884363, 49.830259], [5.884523, 49.830359], [5.884729, 49.830366], [5.885237, 49.830378], [5.885538, 49.83037], [5.885767, 49.830355], [5.886209, 49.83032], [5.88661, 49.830286], [5.886641, 49.830282], [5.886686, 49.830317], [5.886896, 49.830515], [5.887289, 49.830286], [5.887575, 49.830122], [5.887869, 49.82995], [5.887957, 49.829905], [5.887987, 49.829886], [5.88825, 49.829744], [5.888376, 49.829679], [5.888674, 49.829725], [5.888941, 49.829779], [5.8892, 49.829836], [5.889357, 49.829752], [5.88946, 49.829699], [5.889639, 49.829599], [5.889868, 49.829515], [5.889959, 49.829477], [5.890059, 49.82942], [5.890287, 49.829233], [5.890551, 49.829042], [5.890711, 49.828928], [5.890871, 49.828829], [5.891081, 49.828718], [5.89142, 49.828554], [5.891905, 49.828333], [5.89237, 49.828096], [5.892664, 49.827932], [5.89295, 49.827791], [5.893461, 49.827551], [5.89366, 49.827452], [5.893816, 49.827356], [5.893889, 49.827295], [5.893984, 49.827188], [5.894079, 49.827074], [5.894144, 49.827021], [5.894404, 49.82686], [5.894613, 49.826727], [5.894949, 49.826529], [5.89517, 49.82641], [5.895449, 49.826258], [5.895811, 49.826063], [5.895945, 49.825979], [5.89604, 49.825899], [5.89609, 49.825834], [5.896196, 49.825625], [5.896295, 49.825464], [5.896399, 49.825319], [5.896425, 49.82527], [5.896444, 49.82519], [5.896444, 49.825098], [5.896437, 49.824949], [5.896433, 49.824762], [5.896448, 49.824617], [5.896483, 49.824446], [5.896509, 49.824392], [5.896582, 49.824289], [5.896723, 49.82408], [5.896799, 49.823935], [5.896955, 49.82361], [5.897047, 49.823473], [5.897112, 49.8234], [5.897093, 49.823389], [5.897264, 49.823114], [5.897345, 49.822958], [5.897421, 49.822783], [5.897497, 49.822584], [5.897547, 49.822428], [5.897642, 49.822283], [5.897829, 49.821951], [5.897913, 49.821806], [5.897982, 49.821711], [5.898027, 49.821657], [5.898069, 49.821615], [5.898138, 49.821554], [5.89818, 49.82152], [5.898283, 49.821451], [5.89847, 49.821356], [5.898657, 49.821264], [5.899122, 49.821077], [5.899515, 49.820932], [5.900198, 49.820707], [5.900499, 49.820612], [5.900671, 49.820558], [5.90069, 49.820551], [5.900721, 49.820505], [5.900831, 49.820391], [5.900927, 49.820295], [5.901014, 49.820238], [5.901094, 49.820185], [5.901106, 49.820181], [5.901125, 49.820177], [5.901152, 49.820173], [5.901262, 49.820169], [5.901335, 49.820166], [5.901503, 49.82015], [5.90167, 49.820166], [5.901789, 49.820166], [5.901907, 49.820154], [5.902056, 49.820131], [5.90225, 49.820097], [5.902384, 49.820074], [5.902506, 49.820063], [5.902613, 49.820055], [5.902735, 49.820059], [5.902819, 49.820063], [5.902929, 49.820078], [5.903227, 49.820105], [5.903307, 49.820108], [5.903391, 49.820101], [5.903498, 49.820093], [5.90357, 49.820082], [5.90362, 49.820067], [5.903696, 49.820036], [5.903746, 49.820017], [5.90378, 49.820005], [5.90381, 49.820002], [5.903841, 49.820005], [5.903921, 49.820013], [5.904097, 49.820044], [5.904165, 49.820055], [5.904295, 49.820067], [5.904371, 49.82007], [5.904459, 49.820082], [5.904554, 49.820078], [5.90465, 49.82007], [5.904715, 49.820074], [5.904783, 49.820082], [5.904875, 49.820097], [5.904959, 49.820101], [5.905127, 49.820097], [5.905207, 49.820101], [5.905264, 49.820108], [5.905325, 49.820112], [5.905374, 49.820116], [5.905451, 49.820108], [5.905531, 49.820093], [5.905615, 49.820085], [5.905653, 49.820089], [5.905714, 49.820097], [5.905809, 49.820127], [5.905867, 49.820154], [5.905901, 49.82015], [5.905939, 49.820139], [5.905989, 49.820108], [5.906053, 49.820047], [5.906126, 49.81999], [5.906214, 49.819944], [5.90629, 49.819914], [5.906382, 49.819868], [5.906465, 49.819857], [5.906568, 49.819838], [5.906694, 49.81978], [5.906755, 49.819761], [5.906832, 49.819738], [5.906927, 49.819689], [5.90703, 49.819639], [5.907068, 49.81962], [5.907122, 49.819605], [5.907175, 49.819601], [5.907228, 49.819593], [5.907267, 49.81957], [5.907335, 49.819521], [5.907404, 49.819487], [5.907511, 49.819437], [5.907415, 49.819338], [5.907064, 49.818972], [5.907019, 49.818922], [5.90666, 49.819075], [5.906061, 49.818373], [5.905489, 49.817713], [5.90584, 49.81724], [5.9055, 49.817068], [5.904413, 49.816504], [5.904184, 49.816389], [5.903906, 49.816244], [5.903738, 49.816149], [5.903692, 49.816114], [5.903669, 49.816088], [5.903543, 49.815962], [5.903338, 49.815764], [5.903021, 49.815455], [5.902815, 49.81526], [5.902792, 49.815237], [5.902967, 49.815012], [5.903395, 49.814486], [5.903677, 49.814177], [5.903654, 49.814158], [5.903345, 49.813864], [5.903135, 49.813662], [5.902819, 49.81336], [5.902639, 49.813189], [5.902594, 49.813147], [5.902525, 49.813078], [5.902433, 49.812967], [5.902365, 49.812872], [5.902292, 49.812742], [5.902208, 49.812586], [5.902552, 49.812555], [5.902601, 49.812544], [5.902712, 49.812498], [5.903143, 49.812323], [5.903395, 49.812223], [5.903509, 49.812174], [5.903833, 49.811979], [5.904432, 49.811632], [5.904314, 49.811636], [5.904161, 49.811636], [5.903708, 49.81164], [5.903002, 49.811647], [5.902891, 49.811651], [5.902052, 49.811506], [5.90185, 49.811045], [5.901751, 49.810816], [5.901747, 49.810804], [5.901918, 49.81082], [5.902075, 49.81082], [5.902224, 49.810804], [5.90233, 49.810781], [5.90243, 49.810747], [5.902536, 49.810701], [5.902597, 49.810682], [5.902651, 49.810671], [5.902754, 49.810671], [5.902853, 49.810667], [5.902922, 49.810656], [5.903025, 49.810633], [5.903086, 49.81061], [5.903112, 49.810591], [5.903128, 49.810575], [5.903128, 49.810541], [5.903131, 49.810522], [5.903147, 49.810507], [5.90328, 49.810438], [5.903372, 49.810385], [5.903421, 49.810366], [5.903486, 49.810366], [5.903517, 49.810358], [5.90357, 49.810347], [5.903597, 49.810347], [5.903608, 49.810362], [5.903616, 49.810423], [5.903631, 49.81045], [5.903669, 49.810465], [5.90373, 49.810469], [5.903776, 49.81045], [5.903826, 49.810419], [5.903879, 49.810412], [5.903956, 49.810431], [5.903994, 49.810434], [5.904058, 49.810431], [5.904142, 49.810408], [5.904238, 49.8104], [5.904287, 49.810389], [5.904337, 49.810354], [5.904364, 49.810324], [5.904402, 49.810297], [5.904417, 49.810278], [5.904409, 49.810251], [5.904406, 49.810228], [5.904421, 49.810209], [5.904478, 49.810179], [5.90449, 49.810163], [5.90449, 49.810137], [5.904474, 49.810095], [5.90449, 49.810083], [5.90452, 49.810083], [5.904596, 49.810106], [5.904631, 49.81011], [5.904661, 49.810099], [5.904676, 49.810087], [5.90468, 49.810045], [5.904688, 49.810022], [5.904711, 49.810007], [5.904859, 49.809942], [5.904932, 49.809919], [5.904974, 49.809916], [5.905012, 49.809923], [5.905069, 49.809965], [5.905104, 49.80998], [5.905203, 49.810011], [5.905226, 49.810018], [5.905252, 49.810018], [5.905314, 49.80998], [5.905344, 49.809965], [5.905397, 49.809965], [5.905436, 49.809954], [5.905451, 49.809942], [5.905481, 49.809893], [5.905508, 49.809881], [5.905539, 49.809874], [5.905603, 49.809877], [5.905649, 49.809881], [5.905684, 49.809874], [5.905718, 49.809858], [5.905737, 49.809843], [5.905741, 49.809816], [5.905729, 49.809793], [5.905706, 49.809786], [5.905649, 49.809782], [5.905619, 49.809778], [5.905596, 49.809763], [5.905581, 49.80974], [5.905592, 49.809706], [5.905615, 49.809679], [5.905649, 49.809656], [5.905703, 49.809637], [5.905909, 49.809568], [5.905912, 49.809523], [5.905905, 49.809488], [5.905897, 49.809446], [5.905893, 49.80942], [5.905905, 49.809393], [5.905928, 49.809351], [5.905977, 49.809278], [5.905996, 49.809233], [5.906008, 49.809176], [5.906, 49.809122], [5.905981, 49.809099], [5.905882, 49.809042], [5.905855, 49.809042], [5.905756, 49.809046], [5.905706, 49.809046], [5.90563, 49.809053], [5.905569, 49.809061], [5.905542, 49.809065], [5.905519, 49.809076], [5.9055, 49.809103], [5.905485, 49.809114], [5.905455, 49.809118], [5.905432, 49.809118], [5.905401, 49.809103], [5.905367, 49.809084], [5.905344, 49.809084], [5.905325, 49.809088], [5.905298, 49.809111], [5.905275, 49.809137], [5.905252, 49.809145], [5.905199, 49.809145], [5.905165, 49.80913], [5.90505, 49.809061], [5.905039, 49.809053], [5.904894, 49.809179], [5.904833, 49.809221], [5.904787, 49.80924], [5.904741, 49.809248], [5.904703, 49.809244], [5.904669, 49.809233], [5.904596, 49.809183], [5.904554, 49.80916], [5.904512, 49.809156], [5.904478, 49.809164], [5.90444, 49.809172], [5.904413, 49.809172], [5.90439, 49.80916], [5.904364, 49.809141], [5.904322, 49.809118], [5.904261, 49.809084], [5.904238, 49.809065], [5.904242, 49.809042], [5.904245, 49.809008], [5.904242, 49.808996], [5.904223, 49.808989], [5.904169, 49.808989], [5.904139, 49.808981], [5.904123, 49.808973], [5.904112, 49.808954], [5.904123, 49.808928], [5.904135, 49.808905], [5.904139, 49.808878], [5.904127, 49.808824], [5.904097, 49.808779], [5.904058, 49.80876], [5.903967, 49.80871], [5.903936, 49.808687], [5.903906, 49.808676], [5.903883, 49.808676], [5.903856, 49.808691], [5.903841, 49.808733], [5.903833, 49.808771], [5.903814, 49.808794], [5.903788, 49.808805], [5.903757, 49.808809], [5.90373, 49.808805], [5.903711, 49.808794], [5.903696, 49.808779], [5.9037, 49.808748], [5.903727, 49.808703], [5.903738, 49.808676], [5.903734, 49.808657], [5.903711, 49.808649], [5.903692, 49.808645], [5.903665, 49.808653], [5.903643, 49.808664], [5.903612, 49.808691], [5.903593, 49.808706], [5.903578, 49.80871], [5.903513, 49.80871], [5.903471, 49.808714], [5.903444, 49.808718], [5.90341, 49.80871], [5.903391, 49.808699], [5.903368, 49.808676], [5.90336, 49.808645], [5.903341, 49.808596], [5.903338, 49.808573], [5.903345, 49.808557], [5.903372, 49.808535], [5.903383, 49.808519], [5.903383, 49.8085], [5.903364, 49.808485], [5.90333, 49.808466], [5.903299, 49.808455], [5.903238, 49.808443], [5.903109, 49.808428], [5.903032, 49.808416], [5.902998, 49.808405], [5.902975, 49.80839], [5.902964, 49.808363], [5.902956, 49.808298], [5.902945, 49.808271], [5.902922, 49.80826], [5.902849, 49.808245], [5.902807, 49.808229], [5.902781, 49.80821], [5.902765, 49.808195], [5.902746, 49.808153], [5.902723, 49.808134], [5.902678, 49.808115], [5.902601, 49.808104], [5.902517, 49.808096], [5.902441, 49.808084], [5.902407, 49.808077], [5.902357, 49.808054], [5.902323, 49.808016], [5.902288, 49.807959], [5.902254, 49.807932], [5.90222, 49.807909], [5.902182, 49.807894], [5.902143, 49.807886], [5.902113, 49.807886], [5.902094, 49.80789], [5.902071, 49.807898], [5.902056, 49.807894], [5.902029, 49.80789], [5.90185, 49.807859], [5.901625, 49.807806], [5.901411, 49.807753], [5.901213, 49.80768], [5.900984, 49.807585], [5.900854, 49.807539], [5.900728, 49.807505], [5.900614, 49.807478], [5.900538, 49.80747], [5.90048, 49.807459], [5.900354, 49.807425], [5.900221, 49.807383], [5.900076, 49.807364], [5.899904, 49.807356], [5.899817, 49.807348], [5.899733, 49.807329], [5.899649, 49.807306], [5.89961, 49.807302], [5.899416, 49.807287], [5.899386, 49.807268], [5.899328, 49.807222], [5.899248, 49.807142], [5.899202, 49.807123], [5.899065, 49.807062], [5.898924, 49.807013], [5.898783, 49.806978], [5.898676, 49.806936], [5.898546, 49.806879], [5.898474, 49.806849], [5.898336, 49.806799], [5.898119, 49.806673], [5.898058, 49.806635], [5.897966, 49.806597], [5.897844, 49.806566], [5.897795, 49.806551], [5.897692, 49.806498], [5.897573, 49.806459], [5.897486, 49.80644], [5.897429, 49.806429], [5.897299, 49.806391], [5.897215, 49.80636], [5.897123, 49.806295], [5.897058, 49.806238], [5.896963, 49.806166], [5.896952, 49.806128], [5.896948, 49.806044], [5.896921, 49.805983], [5.896902, 49.805937], [5.896502, 49.80612], [5.896517, 49.80615], [5.89654, 49.806189], [5.896555, 49.806215], [5.89657, 49.80623], [5.896593, 49.806246], [5.896635, 49.806265], [5.896658, 49.806276], [5.896681, 49.806295], [5.896715, 49.806334], [5.896727, 49.806349], [5.896746, 49.806368], [5.896879, 49.80649], [5.897047, 49.806654], [5.896559, 49.806955], [5.896326, 49.806791], [5.896101, 49.806631], [5.895681, 49.806295], [5.895601, 49.80623], [5.895548, 49.806166], [5.895502, 49.806101], [5.895437, 49.805998], [5.895372, 49.805872], [5.895304, 49.805712], [5.895289, 49.805681], [5.89525, 49.805609], [5.895197, 49.805536], [5.895006, 49.805307], [5.89493, 49.805212], [5.894957, 49.805063], [5.895002, 49.804823], [5.895052, 49.804552], [5.895075, 49.804361], [5.895025, 49.804136], [5.894934, 49.803751], [5.894785, 49.803247], [5.894747, 49.803133], [5.894731, 49.803068], [5.894693, 49.802961], [5.894659, 49.802897], [5.894587, 49.802793], [5.894468, 49.802641], [5.894396, 49.802568], [5.894297, 49.802481], [5.894186, 49.802424], [5.893942, 49.802351], [5.893793, 49.80232], [5.893721, 49.802298], [5.893656, 49.802271], [5.893595, 49.802237], [5.893545, 49.802195], [5.893503, 49.802141], [5.893473, 49.802118], [5.893297, 49.802061], [5.893164, 49.802019], [5.893103, 49.801992], [5.893019, 49.801943], [5.892939, 49.801901], [5.892748, 49.801821], [5.89271, 49.801786], [5.892695, 49.801756], [5.89266, 49.801695], [5.892622, 49.801653], [5.89258, 49.801611], [5.892508, 49.801561], [5.892405, 49.801508], [5.892218, 49.801428], [5.892107, 49.801378], [5.892023, 49.801336], [5.891939, 49.801291], [5.89189, 49.801248], [5.891859, 49.801222], [5.891802, 49.801207], [5.891531, 49.801157], [5.891512, 49.801146], [5.891501, 49.80113], [5.891501, 49.801111], [5.891489, 49.801096], [5.891462, 49.801092], [5.891398, 49.801096], [5.891214, 49.801111], [5.891111, 49.801111], [5.891001, 49.801092], [5.890921, 49.801062], [5.890898, 49.801039], [5.890837, 49.800966], [5.890799, 49.800932], [5.890772, 49.800909], [5.890692, 49.800871], [5.890631, 49.800829], [5.890589, 49.800798], [5.890482, 49.800676], [5.890421, 49.800615], [5.890375, 49.800581], [5.890261, 49.800512], [5.890181, 49.800459], [5.890081, 49.800303], [5.890051, 49.800272], [5.890028, 49.800253], [5.890001, 49.800238], [5.889963, 49.800222], [5.889887, 49.800196], [5.889811, 49.800154], [5.889749, 49.800089], [5.889711, 49.800043], [5.889662, 49.800016], [5.889605, 49.800001], [5.889525, 49.799971], [5.889303, 49.799894], [5.889025, 49.799803], [5.888929, 49.799788], [5.888624, 49.799711], [5.888433, 49.799662], [5.888277, 49.79962], [5.888124, 49.79957], [5.887995, 49.799513], [5.888006, 49.799498], [5.888105, 49.799276], [5.888174, 49.799082], [5.888182, 49.799063], [5.888205, 49.798963], [5.888258, 49.79875], [5.888372, 49.798304], [5.888247, 49.7983], [5.887152, 49.798239], [5.887129, 49.798235], [5.88714, 49.798155], [5.88719, 49.797854], [5.887209, 49.797747], [5.887274, 49.797464], [5.887167, 49.797464], [5.886797, 49.797461], [5.886496, 49.797461], [5.886179, 49.797464], [5.886141, 49.797468], [5.886133, 49.797792], [5.886129, 49.797838], [5.88611, 49.798136], [5.885847, 49.79814], [5.88553, 49.79814], [5.885073, 49.798128], [5.884745, 49.798113], [5.88471, 49.798113], [5.884081, 49.798067], [5.883581, 49.798021], [5.883585, 49.797949], [5.883589, 49.797937], [5.883589, 49.797926], [5.883284, 49.797899], [5.882879, 49.797869], [5.881796, 49.797773], [5.881563, 49.797758], [5.881273, 49.797731], [5.880953, 49.79772], [5.880644, 49.797712], [5.880465, 49.797708], [5.880388, 49.797708], [5.879694, 49.797705], [5.878756, 49.797712], [5.877947, 49.797739], [5.87779, 49.797747], [5.87779, 49.79772], [5.877546, 49.797716], [5.877451, 49.797705], [5.876856, 49.797689], [5.876226, 49.797693], [5.876108, 49.797693], [5.875505, 49.797697], [5.875216, 49.797701], [5.874498, 49.797819], [5.874327, 49.797842], [5.87406, 49.79788], [5.874041, 49.797884], [5.873537, 49.797964], [5.873491, 49.797968], [5.873247, 49.798002], [5.873217, 49.797895], [5.873133, 49.79772], [5.873114, 49.797674], [5.873095, 49.797632], [5.873026, 49.797316], [5.872839, 49.797155], [5.87282, 49.79703], [5.872793, 49.796938], [5.872778, 49.796888], [5.872721, 49.796614], [5.872503, 49.796267], [5.872469, 49.79611], [5.872446, 49.795973], [5.872248, 49.795473], [5.871664, 49.794825], [5.871374, 49.794607], [5.871164, 49.794405], [5.870974, 49.794226], [5.869554, 49.794264], [5.86886, 49.794187], [5.868704, 49.794168], [5.868463, 49.794069], [5.868136, 49.793955], [5.867464, 49.793764], [5.867216, 49.793783], [5.866888, 49.793818], [5.866472, 49.793882], [5.866159, 49.794069], [5.865778, 49.794477], [5.865675, 49.794546], [5.865641, 49.794588], [5.865587, 49.794691], [5.865484, 49.794935], [5.865404, 49.795156], [5.865149, 49.795397], [5.864904, 49.795652], [5.864649, 49.795935], [5.864336, 49.796198], [5.864149, 49.796351], [5.864058, 49.796427], [5.864023, 49.79645], [5.863977, 49.796492], [5.863855, 49.796591], [5.863737, 49.796678], [5.863588, 49.796911], [5.863524, 49.796984], [5.863497, 49.797018], [5.863348, 49.79722], [5.863203, 49.797445], [5.863081, 49.797571], [5.862921, 49.797739], [5.86286, 49.797804], [5.862742, 49.797926], [5.862677, 49.797964], [5.862616, 49.798002], [5.86257, 49.798021], [5.86244, 49.798078], [5.862265, 49.798159], [5.862173, 49.798197], [5.861849, 49.798342], [5.861631, 49.798426], [5.861483, 49.798475], [5.860971, 49.798601], [5.86088, 49.798613], [5.860281, 49.798696], [5.860106, 49.798727], [5.859667, 49.798792], [5.85932, 49.798853], [5.858965, 49.798918], [5.858854, 49.798933], [5.858622, 49.798944], [5.858511, 49.798887], [5.858114, 49.798635], [5.85779, 49.798399], [5.857565, 49.798277], [5.857481, 49.798246], [5.857389, 49.798212], [5.857088, 49.798181], [5.856539, 49.798128], [5.856314, 49.798105], [5.856211, 49.798101], [5.855825, 49.798113], [5.855425, 49.798136], [5.855333, 49.798143], [5.855127, 49.798174], [5.855036, 49.798185], [5.854845, 49.798223], [5.854559, 49.798277], [5.854517, 49.798288], [5.85433, 49.79833], [5.854135, 49.798376], [5.853754, 49.798502], [5.853517, 49.798586], [5.853388, 49.798628], [5.853239, 49.798681], [5.853178, 49.798723], [5.853148, 49.798746], [5.852915, 49.798906], [5.852816, 49.798971], [5.852579, 49.799135], [5.852426, 49.799238], [5.852232, 49.799372], [5.852148, 49.799414], [5.852026, 49.799482], [5.851961, 49.799517], [5.851549, 49.799723], [5.85153, 49.799734], [5.851042, 49.800005], [5.851057, 49.800077], [5.851065, 49.800123], [5.851069, 49.800161], [5.851069, 49.800188], [5.851091, 49.800215], [5.851156, 49.800261], [5.851168, 49.80028], [5.851191, 49.800337], [5.851214, 49.800409], [5.851244, 49.800455], [5.851267, 49.800474], [5.851301, 49.800489], [5.851324, 49.800497], [5.851332, 49.800512], [5.85132, 49.800539], [5.851282, 49.80057], [5.851278, 49.800581], [5.851282, 49.800596], [5.851294, 49.800608], [5.851408, 49.800654], [5.851423, 49.800672], [5.851423, 49.800684], [5.851408, 49.800722], [5.851412, 49.800772], [5.851446, 49.800833], [5.851519, 49.800894], [5.851614, 49.800966], [5.851622, 49.800997], [5.851606, 49.801054], [5.85166, 49.801115], [5.85166, 49.801207], [5.851702, 49.801264], [5.851732, 49.801302], [5.851763, 49.801382], [5.851805, 49.801477], [5.851847, 49.801531], [5.85187, 49.801561], [5.851889, 49.80158], [5.851885, 49.80166], [5.851938, 49.80176], [5.852076, 49.801989], [5.852331, 49.802118], [5.852236, 49.802156], [5.852224, 49.80232], [5.852278, 49.802382], [5.852358, 49.802431], [5.8524, 49.802462], [5.852419, 49.802507], [5.852457, 49.802584], [5.852499, 49.802652], [5.852522, 49.802702], [5.852552, 49.802851], [5.852571, 49.803003], [5.85251, 49.803106], [5.852457, 49.803167], [5.852377, 49.803305], [5.852339, 49.803354], [5.852312, 49.803438], [5.852266, 49.803522], [5.85222, 49.803633], [5.85214, 49.803804], [5.852114, 49.803877], [5.852133, 49.803961], [5.852152, 49.803987], [5.85206, 49.804052], [5.851957, 49.804113], [5.851889, 49.80414], [5.85182, 49.804163], [5.851564, 49.804254], [5.850992, 49.804369], [5.850668, 49.804449], [5.85047, 49.804544], [5.850424, 49.804636], [5.850328, 49.80488], [5.850229, 49.805113], [5.850168, 49.805231], [5.84997, 49.80549], [5.849794, 49.80567], [5.849665, 49.805799], [5.84952, 49.805903], [5.849291, 49.805998], [5.848982, 49.806124], [5.848913, 49.806177], [5.848551, 49.806501], [5.848341, 49.806688], [5.84804, 49.806971], [5.847883, 49.807104], [5.847624, 49.807318], [5.847158, 49.80768], [5.846769, 49.807997], [5.846312, 49.808367], [5.846003, 49.808626], [5.84582, 49.808771], [5.845678, 49.808874], [5.845339, 49.809042], [5.844709, 49.809339], [5.844381, 49.8095], [5.844065, 49.809652], [5.843943, 49.809713], [5.843741, 49.809858], [5.843523, 49.810011], [5.843134, 49.810301], [5.843065, 49.810335], [5.843042, 49.810316], [5.842367, 49.809702], [5.841982, 49.80969], [5.841688, 49.809679], [5.841417, 49.809694], [5.841017, 49.809713], [5.840918, 49.809721], [5.840528, 49.809755], [5.84033, 49.809782], [5.839731, 49.809858], [5.838488, 49.810015], [5.838209, 49.810045], [5.837892, 49.810083], [5.837408, 49.810141], [5.837191, 49.810167], [5.83658, 49.81024], [5.836527, 49.810244], [5.835894, 49.81032], [5.835836, 49.810606], [5.835772, 49.811068], [5.83576, 49.811201], [5.835741, 49.811392], [5.835688, 49.811625], [5.835661, 49.811747], [5.835638, 49.811987], [5.835569, 49.812769], [5.835463, 49.813547], [5.834436, 49.813799], [5.834177, 49.81386], [5.83388, 49.813932], [5.833559, 49.814005], [5.833189, 49.814093], [5.832838, 49.814177], [5.833456, 49.815012], [5.833635, 49.815264], [5.833609, 49.815283], [5.833338, 49.815466], [5.833273, 49.815508], [5.833242, 49.815531], [5.833094, 49.815649], [5.832369, 49.815561], [5.831697, 49.815481], [5.831232, 49.815432], [5.830889, 49.815397], [5.83069, 49.815367], [5.83058, 49.815348], [5.830408, 49.815321], [5.830221, 49.815287], [5.830015, 49.815245], [5.830004, 49.815241], [5.829607, 49.815157], [5.828646, 49.81492], [5.828447, 49.814871], [5.828146, 49.814798], [5.82799, 49.81476], [5.827658, 49.814672], [5.827135, 49.814527], [5.826971, 49.814478], [5.826765, 49.814417], [5.826654, 49.814516], [5.827326, 49.814783], [5.828337, 49.815187], [5.82794, 49.815519], [5.827387, 49.815985], [5.82683, 49.816469], [5.826403, 49.816862], [5.826178, 49.817083], [5.826143, 49.817129], [5.826033, 49.817232], [5.825914, 49.817327], [5.825804, 49.817419], [5.825682, 49.817507], [5.825544, 49.817598], [5.825373, 49.817709], [5.825285, 49.817644], [5.825068, 49.817495], [5.824953, 49.817411], [5.82485, 49.817343], [5.824758, 49.817289], [5.824625, 49.817362], [5.824236, 49.817549], [5.824041, 49.817633], [5.823824, 49.81772], [5.823629, 49.8178], [5.823504, 49.817846], [5.823347, 49.817705], [5.823309, 49.817667], [5.822885, 49.81727], [5.82258, 49.816988], [5.822466, 49.816881], [5.822382, 49.816805], [5.82231, 49.816744], [5.822149, 49.816618], [5.821981, 49.816488], [5.820639, 49.817118], [5.820608, 49.817133], [5.820593, 49.817129], [5.820383, 49.816931], [5.820288, 49.816858], [5.820223, 49.816812], [5.820124, 49.816725], [5.819944, 49.816565], [5.819887, 49.816515], [5.819681, 49.816603], [5.819735, 49.816702], [5.819788, 49.816786], [5.819826, 49.816824], [5.819929, 49.816908], [5.820024, 49.816973], [5.82012, 49.817019], [5.820192, 49.817064], [5.820272, 49.817125], [5.820334, 49.817175], [5.82036, 49.817213], [5.820372, 49.817247], [5.820406, 49.817293], [5.820475, 49.817373], [5.82052, 49.817415], [5.820585, 49.817457], [5.820723, 49.817553], [5.82081, 49.817621], [5.820925, 49.817717], [5.821047, 49.817823], [5.821268, 49.817999], [5.821436, 49.818144], [5.821608, 49.8183], [5.821764, 49.81843], [5.821936, 49.81856], [5.822012, 49.818613], [5.822084, 49.81867], [5.822126, 49.818705], [5.822012, 49.818735], [5.821981, 49.818743], [5.821901, 49.818766], [5.820585, 49.819117], [5.819612, 49.81938], [5.819548, 49.819303], [5.819471, 49.819208], [5.819391, 49.819128], [5.819124, 49.818872], [5.818933, 49.818697], [5.818754, 49.818537], [5.818598, 49.818376], [5.818544, 49.818315], [5.818472, 49.818243], [5.818396, 49.818178], [5.818376, 49.818163], [5.818148, 49.817972], [5.817968, 49.817831], [5.8178, 49.817698], [5.817625, 49.817568], [5.817205, 49.817781], [5.817106, 49.817827], [5.817091, 49.817835], [5.817011, 49.817869], [5.816847, 49.817934], [5.816606, 49.818022], [5.816332, 49.818113], [5.816069, 49.818193], [5.816, 49.81806], [5.815927, 49.817961], [5.815851, 49.817854], [5.815695, 49.817633], [5.815588, 49.817495], [5.815538, 49.817446], [5.815462, 49.817358], [5.815393, 49.817293], [5.815302, 49.817209], [5.815233, 49.817148], [5.815073, 49.817011], [5.814867, 49.816835], [5.814543, 49.816568], [5.814348, 49.816431], [5.814138, 49.816294], [5.81394, 49.816156], [5.813845, 49.816084], [5.813658, 49.815908], [5.813505, 49.815767], [5.813376, 49.815653], [5.813261, 49.815565], [5.813147, 49.8155], [5.813013, 49.815447], [5.812864, 49.815393], [5.812708, 49.815355], [5.812605, 49.815336], [5.812387, 49.815309], [5.812132, 49.815287], [5.811838, 49.815279], [5.811609, 49.815294], [5.809595, 49.815523], [5.80958, 49.815523], [5.809568, 49.815447], [5.809545, 49.815252], [5.809523, 49.815069], [5.809511, 49.815027], [5.809481, 49.814966], [5.80942, 49.814894], [5.809389, 49.814852], [5.809381, 49.814817], [5.809374, 49.814711], [5.809362, 49.814596], [5.809366, 49.814512], [5.809362, 49.814425], [5.809374, 49.814421], [5.809381, 49.814261], [5.809374, 49.814203], [5.809481, 49.8141], [5.809549, 49.814039], [5.809664, 49.813944], [5.809797, 49.813845], [5.809927, 49.813749], [5.810183, 49.813559], [5.81037, 49.813372], [5.810389, 49.81336], [5.810629, 49.813173], [5.810743, 49.813086], [5.810888, 49.813002], [5.811212, 49.812818], [5.811098, 49.812635], [5.811167, 49.812609], [5.81151, 49.812445], [5.811583, 49.81241], [5.811754, 49.81233], [5.812109, 49.81217], [5.811907, 49.811914], [5.811262, 49.811121], [5.810312, 49.811037], [5.810206, 49.810717], [5.809938, 49.810339], [5.809774, 49.810133], [5.80958, 49.809885], [5.809443, 49.809664], [5.809313, 49.809462], [5.809282, 49.809423], [5.80921, 49.809324], [5.809172, 49.809282], [5.809099, 49.809221], [5.80905, 49.809198], [5.809015, 49.809176], [5.808969, 49.809164], [5.808901, 49.809149], [5.80884, 49.809145], [5.808523, 49.809145], [5.808672, 49.807882], [5.808447, 49.807901], [5.808435, 49.807825], [5.808916, 49.807669], [5.809229, 49.807569], [5.809313, 49.807539], [5.809153, 49.807154], [5.809031, 49.806852], [5.80887, 49.806459], [5.808748, 49.806177], [5.808813, 49.806135], [5.80887, 49.806101], [5.808931, 49.80604], [5.808989, 49.805971], [5.809019, 49.80588], [5.808493, 49.805941], [5.808329, 49.805838], [5.808138, 49.805708], [5.808035, 49.805639], [5.807997, 49.805613], [5.807863, 49.805529], [5.807753, 49.805452], [5.807699, 49.805422], [5.807615, 49.805365], [5.807493, 49.805296], [5.80739, 49.805239], [5.807344, 49.805216], [5.807276, 49.805185], [5.80723, 49.805159], [5.806925, 49.805002], [5.806833, 49.804941], [5.806822, 49.80493], [5.806787, 49.804907], [5.806555, 49.804743], [5.806418, 49.804651], [5.806135, 49.804472], [5.806021, 49.804411], [5.80596, 49.804388], [5.805746, 49.804285], [5.805464, 49.80414], [5.805388, 49.804106], [5.805513, 49.804068], [5.805613, 49.804041], [5.805963, 49.803953], [5.806215, 49.803865], [5.806372, 49.803808], [5.806627, 49.803682], [5.806757, 49.80361], [5.806799, 49.803591], [5.807001, 49.80348], [5.807089, 49.803434], [5.807112, 49.803423], [5.807573, 49.803205], [5.807875, 49.803064], [5.808077, 49.802969], [5.807585, 49.802916], [5.807566, 49.802912], [5.807177, 49.802866], [5.807161, 49.802862], [5.806959, 49.802839], [5.806845, 49.802797], [5.80683, 49.802793], [5.80625, 49.802584], [5.805605, 49.802343], [5.805677, 49.802229], [5.805693, 49.802202], [5.805731, 49.802122], [5.805738, 49.802111], [5.805754, 49.802069], [5.805784, 49.801989], [5.805784, 49.801905], [5.805765, 49.801847], [5.805723, 49.801752], [5.805681, 49.801691], [5.805647, 49.801657], [5.805632, 49.801638], [5.805571, 49.801615], [5.805319, 49.801619], [5.805162, 49.801622], [5.805063, 49.801622], [5.804815, 49.801626], [5.804701, 49.801134], [5.804666, 49.801001], [5.804647, 49.800909], [5.804602, 49.800718], [5.80459, 49.800688], [5.804785, 49.800665], [5.804865, 49.800657], [5.804964, 49.800493], [5.805029, 49.800409], [5.805098, 49.800345], [5.805174, 49.800264], [5.805323, 49.800123], [5.805365, 49.800085], [5.805605, 49.79981], [5.805651, 49.799757], [5.805506, 49.799704], [5.805307, 49.799635], [5.80538, 49.799509], [5.80541, 49.799448], [5.805433, 49.799383], [5.805452, 49.799322], [5.80546, 49.799181], [5.805792, 49.799162], [5.806242, 49.799135], [5.806223, 49.798967], [5.806189, 49.798872], [5.806166, 49.798826], [5.80615, 49.7988], [5.806089, 49.7987], [5.806067, 49.798666], [5.806055, 49.798647], [5.805994, 49.798582], [5.805883, 49.798498], [5.805738, 49.798391], [5.805647, 49.798315], [5.805586, 49.798265], [5.805529, 49.798189], [5.805471, 49.798094], [5.805388, 49.797918], [5.805368, 49.797872], [5.805357, 49.79785], [5.805342, 49.797789], [5.805345, 49.797529], [5.805368, 49.797426], [5.805433, 49.797289], [5.805418, 49.797277], [5.805471, 49.797152], [5.805502, 49.797075], [5.80551, 49.797022], [5.805506, 49.796942], [5.805502, 49.796888], [5.805494, 49.79685], [5.805479, 49.796801], [5.805418, 49.796709], [5.805357, 49.796629], [5.805277, 49.796541], [5.805273, 49.796511], [5.805033, 49.796305], [5.804995, 49.796274], [5.804873, 49.796186], [5.80475, 49.796106], [5.804689, 49.796068], [5.804552, 49.795996], [5.804041, 49.79574], [5.803873, 49.795649], [5.803824, 49.795614], [5.803739, 49.795553], [5.803671, 49.795492], [5.803629, 49.795443], [5.80361, 49.795401], [5.80361, 49.795351], [5.803617, 49.795298], [5.803637, 49.795252], [5.803724, 49.79513], [5.803774, 49.795073], [5.803942, 49.794882], [5.804182, 49.794619], [5.804205, 49.794561], [5.804193, 49.794474], [5.804155, 49.794344], [5.804121, 49.794252], [5.803911, 49.793791], [5.803862, 49.793669], [5.803816, 49.793547], [5.803801, 49.79344], [5.803801, 49.793367], [5.803812, 49.793287], [5.803827, 49.793222], [5.803881, 49.793096], [5.803896, 49.793078], [5.804045, 49.792921], [5.804182, 49.792795], [5.804419, 49.792616], [5.803675, 49.792223], [5.803442, 49.792101], [5.802992, 49.792452], [5.802786, 49.792364], [5.80263, 49.792307], [5.802477, 49.792265], [5.802286, 49.792212], [5.802206, 49.792196], [5.801943, 49.792128], [5.80129, 49.791971], [5.800661, 49.791811], [5.799768, 49.791574], [5.79973, 49.791567], [5.799696, 49.791597], [5.799597, 49.791571], [5.799326, 49.791472], [5.79912, 49.791384], [5.798952, 49.7913], [5.798716, 49.791605], [5.79867, 49.791662], [5.798533, 49.791822], [5.798395, 49.791979], [5.798384, 49.79199], [5.798281, 49.79209], [5.798159, 49.792196], [5.797869, 49.792429], [5.797762, 49.792521], [5.797579, 49.792669], [5.797392, 49.79283], [5.797174, 49.79278], [5.797037, 49.792753], [5.797022, 49.792749], [5.796843, 49.792711], [5.796564, 49.79265], [5.796541, 49.792646], [5.796408, 49.792616], [5.796183, 49.792555], [5.796122, 49.79254], [5.795496, 49.792192], [5.795088, 49.791964], [5.794428, 49.79159], [5.793901, 49.791288], [5.793802, 49.791235], [5.793299, 49.790575], [5.793276, 49.790613], [5.792879, 49.791326], [5.792265, 49.792406], [5.7917, 49.793425], [5.791475, 49.793829], [5.791365, 49.793802], [5.791159, 49.794252], [5.790976, 49.794447], [5.790739, 49.794947], [5.790506, 49.795446], [5.790411, 49.795656], [5.790365, 49.795755], [5.790041, 49.795816], [5.789801, 49.795931], [5.789122, 49.796286], [5.788668, 49.796549], [5.788576, 49.796598], [5.788485, 49.796621], [5.788439, 49.796625], [5.78842, 49.796621], [5.788389, 49.796652], [5.788061, 49.796568], [5.788023, 49.796587], [5.787977, 49.796595], [5.78795, 49.796595], [5.787821, 49.796572], [5.787409, 49.796495], [5.786905, 49.7964], [5.786795, 49.796488], [5.786474, 49.796446], [5.786138, 49.796404], [5.785887, 49.796373], [5.785711, 49.796343], [5.785479, 49.796289], [5.785311, 49.796228], [5.785192, 49.796171], [5.785105, 49.796095], [5.785055, 49.796022], [5.785036, 49.795973], [5.785032, 49.795931], [5.785025, 49.795771], [5.785002, 49.795557], [5.78499, 49.79542], [5.784967, 49.795336], [5.784918, 49.795263], [5.784884, 49.795233], [5.7848, 49.79516], [5.784716, 49.795057], [5.78462, 49.794943], [5.784487, 49.794802], [5.78433, 49.794645], [5.784281, 49.794607], [5.784224, 49.794542], [5.784182, 49.794504], [5.784117, 49.794451], [5.783728, 49.794142], [5.783575, 49.794031], [5.783419, 49.793924], [5.783049, 49.793692], [5.782888, 49.793611], [5.78277, 49.793539], [5.782694, 49.793486], [5.782625, 49.793413], [5.782545, 49.793325], [5.782499, 49.793272], [5.782453, 49.793242], [5.782415, 49.79323], [5.782209, 49.793238], [5.782122, 49.793211], [5.782045, 49.793154], [5.781984, 49.793089], [5.781946, 49.793024], [5.781939, 49.792963], [5.781935, 49.792852], [5.781923, 49.79283], [5.781897, 49.79281], [5.781763, 49.792749], [5.781645, 49.792681], [5.781534, 49.79262], [5.781488, 49.792582], [5.781469, 49.792563], [5.781477, 49.792536], [5.781504, 49.792467], [5.7815, 49.792417], [5.781439, 49.792334], [5.781393, 49.792299], [5.781347, 49.792269], [5.781301, 49.792296], [5.781122, 49.792376], [5.780928, 49.79249], [5.780684, 49.792646], [5.780592, 49.7927], [5.780371, 49.792795], [5.78013, 49.792894], [5.779768, 49.793036], [5.779676, 49.793078], [5.779604, 49.793116], [5.779577, 49.793116], [5.779276, 49.793257], [5.779009, 49.793379], [5.778902, 49.79339], [5.778749, 49.793493], [5.778627, 49.793562], [5.778517, 49.793608], [5.778322, 49.793684], [5.778223, 49.793718], [5.778147, 49.793753], [5.778036, 49.793814], [5.777914, 49.793909], [5.777861, 49.793955], [5.777765, 49.794062], [5.777674, 49.79418], [5.777586, 49.794298], [5.777533, 49.794352], [5.777464, 49.794405], [5.777414, 49.794439], [5.777311, 49.794481], [5.77717, 49.794535], [5.776991, 49.794588], [5.776896, 49.794603], [5.776751, 49.794615], [5.776575, 49.794626], [5.776377, 49.794626], [5.776186, 49.794592], [5.776052, 49.794584], [5.775793, 49.794573], [5.775785, 49.794588], [5.77577, 49.794607], [5.775076, 49.79455], [5.77479, 49.794527], [5.774679, 49.794516], [5.774523, 49.794489], [5.774374, 49.794455], [5.774137, 49.79439], [5.773703, 49.794268], [5.773443, 49.794119], [5.7731, 49.793928], [5.772863, 49.793772], [5.772692, 49.793661], [5.77244, 49.793497], [5.772177, 49.793322], [5.7717, 49.793188], [5.771246, 49.793669], [5.771139, 49.793776], [5.770968, 49.793844], [5.770796, 49.793852], [5.770578, 49.794035], [5.770258, 49.794237], [5.769838, 49.793856], [5.76927, 49.794272], [5.768507, 49.794043], [5.768278, 49.793982], [5.768057, 49.793943], [5.767878, 49.793924], [5.767652, 49.793905], [5.76742, 49.793871], [5.76718, 49.793825], [5.766973, 49.793772], [5.766768, 49.793703], [5.766455, 49.793581], [5.766046, 49.793417], [5.765184, 49.793821], [5.764967, 49.793688], [5.764818, 49.793585], [5.764601, 49.793425], [5.764429, 49.793303], [5.764318, 49.793249], [5.764093, 49.793158], [5.764082, 49.793146], [5.764032, 49.793196], [5.764006, 49.793264], [5.764006, 49.793284], [5.763975, 49.79328], [5.763613, 49.793249], [5.763533, 49.793184], [5.763228, 49.793219], [5.763002, 49.793234], [5.762899, 49.793238], [5.762651, 49.793226], [5.762419, 49.793215], [5.762262, 49.793203], [5.76193, 49.793165], [5.761358, 49.793051], [5.761412, 49.792875], [5.760088, 49.792623], [5.759558, 49.792547], [5.758696, 49.792322], [5.758463, 49.792265], [5.758291, 49.792219], [5.757986, 49.79215], [5.757715, 49.792086], [5.757464, 49.792009], [5.757216, 49.791918], [5.756956, 49.791826], [5.756575, 49.791746], [5.756384, 49.7917], [5.756193, 49.791662], [5.755823, 49.79159], [5.755465, 49.791517], [5.755156, 49.791456], [5.754931, 49.792086], [5.754888, 49.792234], [5.754858, 49.792421], [5.754839, 49.792616], [5.754736, 49.792635], [5.754476, 49.792662], [5.754408, 49.792665], [5.754339, 49.792662], [5.754122, 49.792643], [5.754145, 49.79278], [5.754202, 49.793364], [5.754209, 49.793417], [5.753092, 49.793398], [5.753122, 49.793539], [5.753157, 49.793684], [5.753187, 49.793943], [5.753222, 49.794283], [5.753248, 49.794474], [5.753283, 49.794668], [5.753317, 49.794771], [5.753367, 49.794878], [5.753393, 49.794924], [5.753443, 49.794996], [5.75355, 49.795118], [5.753454, 49.795534], [5.753332, 49.796091], [5.753313, 49.796118], [5.753298, 49.796129], [5.753279, 49.796141], [5.753248, 49.796152], [5.753187, 49.796164], [5.753164, 49.796175], [5.753153, 49.796198], [5.753157, 49.796225], [5.753179, 49.796259], [5.75329, 49.796354], [5.753332, 49.796408], [5.75342, 49.796511], [5.753469, 49.796595], [5.753531, 49.796709], [5.753515, 49.79672], [5.752897, 49.796953], [5.752893, 49.79714], [5.752882, 49.797197], [5.752859, 49.797258], [5.752844, 49.797331], [5.752733, 49.797812], [5.752588, 49.798429], [5.752558, 49.798563], [5.752413, 49.799238], [5.752359, 49.79949], [5.752329, 49.799643], [5.752294, 49.799776], [5.752256, 49.799971], [5.752195, 49.800241], [5.75215, 49.800463], [5.752039, 49.800981], [5.751978, 49.801264], [5.75194, 49.801451], [5.751905, 49.801615], [5.751776, 49.80221], [5.751734, 49.802385], [5.751711, 49.802492], [5.751547, 49.803278], [5.751467, 49.803614], [5.751451, 49.803698], [5.75144, 49.803766], [5.751348, 49.804171], [5.751276, 49.804483], [5.751188, 49.804892], [5.751116, 49.805216], [5.751028, 49.805613], [5.750994, 49.805761], [5.75094, 49.805803], [5.750353, 49.806257], [5.75049, 49.806429], [5.750605, 49.806574], [5.750673, 49.806673], [5.750719, 49.806753], [5.75083, 49.806971], [5.750895, 49.8071], [5.750773, 49.807119], [5.750704, 49.807131], [5.750368, 49.807188], [5.750479, 49.807421], [5.750513, 49.807527], [5.75054, 49.807699], [5.750532, 49.807886], [5.750517, 49.808046], [5.750452, 49.808226], [5.750151, 49.808847], [5.750032, 49.809072], [5.750517, 49.809263], [5.750467, 49.809393], [5.750444, 49.809507], [5.750441, 49.80958], [5.750353, 49.809931], [5.750227, 49.810423], [5.750109, 49.810911], [5.750055, 49.811125], [5.750051, 49.811144], [5.750456, 49.811266], [5.750444, 49.811285], [5.750006, 49.811895], [5.749952, 49.811972], [5.750185, 49.812036], [5.750387, 49.812094], [5.75054, 49.812128], [5.750807, 49.812178], [5.750685, 49.812269], [5.750608, 49.812479], [5.750589, 49.812506], [5.750494, 49.812593], [5.750574, 49.812777], [5.750635, 49.812929], [5.750738, 49.813124], [5.750845, 49.81333], [5.750914, 49.81341], [5.750795, 49.813578], [5.751055, 49.813833], [5.751154, 49.81394], [5.751253, 49.814043], [5.751192, 49.814455], [5.751184, 49.81452], [5.751181, 49.814619], [5.751181, 49.814867], [5.751169, 49.81489], [5.750917, 49.814875], [5.750685, 49.814867], [5.750307, 49.814878], [5.750036, 49.814901], [5.749819, 49.814932], [5.749559, 49.814974], [5.749323, 49.815027], [5.74898, 49.815134], [5.748705, 49.815241], [5.748514, 49.815298], [5.748335, 49.815306], [5.74803, 49.815306], [5.747511, 49.815275], [5.747355, 49.815268], [5.747251, 49.815268], [5.747194, 49.815275], [5.747099, 49.815298], [5.746756, 49.815413], [5.746614, 49.815466], [5.746347, 49.815653], [5.746267, 49.815733], [5.746241, 49.815767], [5.746172, 49.816095], [5.746115, 49.816153], [5.745962, 49.816282], [5.745894, 49.816359], [5.745848, 49.81645], [5.745817, 49.816545], [5.745783, 49.81669], [5.745771, 49.81682], [5.745768, 49.816881], [5.745752, 49.816942], [5.745707, 49.817041], [5.745649, 49.817137], [5.745577, 49.817232], [5.745436, 49.817392], [5.745176, 49.817667], [5.745016, 49.817865], [5.74489, 49.818041], [5.744688, 49.818308], [5.744566, 49.81851], [5.744478, 49.818651], [5.744268, 49.818949], [5.744051, 49.819273], [5.743815, 49.819735], [5.743654, 49.820082], [5.743536, 49.820402], [5.74349, 49.820547], [5.743463, 49.820696], [5.743441, 49.821024], [5.743475, 49.821112], [5.744299, 49.821501], [5.745275, 49.821955], [5.746695, 49.822664], [5.7474, 49.823008], [5.747843, 49.823263], [5.747969, 49.823358], [5.748041, 49.823439], [5.748098, 49.823568], [5.748182, 49.823969], [5.748232, 49.824324], [5.74822, 49.824457], [5.748125, 49.824591], [5.747934, 49.824743], [5.747522, 49.824976], [5.747297, 49.825109], [5.747049, 49.825308], [5.74687, 49.825487], [5.746626, 49.825758], [5.746477, 49.825937], [5.746321, 49.826139], [5.746241, 49.826284], [5.746183, 49.826456], [5.746141, 49.826654], [5.746096, 49.826918], [5.746031, 49.827353], [5.745954, 49.827742], [5.745874, 49.828012], [5.74584, 49.828093], [5.745646, 49.82836], [5.745359, 49.828737], [5.7451, 49.829107], [5.744783, 49.829523], [5.744597, 49.829817], [5.74441, 49.830225], [5.744162, 49.830896], [5.744142, 49.830969], [5.744024, 49.831182], [5.743933, 49.831297], [5.743738, 49.831469], [5.743544, 49.831621], [5.743139, 49.831846], [5.742826, 49.831991], [5.742174, 49.832281], [5.741484, 49.832579], [5.74061, 49.832964], [5.740171, 49.833197], [5.739511, 49.833483], [5.739191, 49.833616]]]]}}]}