{"type": "FeatureCollection", "features": [{"type": "Feature", "properties": {"name": "Vichten"}, "geometry": {"type": "Polygon", "coordinates": [[[6.0057346, 49.8218938], [6.0061989, 49.8216122], [6.0063887, 49.8214997], [6.0068454, 49.8212008], [6.0073211, 49.8208838], [6.007374, 49.8208534], [6.0076108, 49.8207303], [6.0077954, 49.8206351], [6.0084501, 49.8204171], [6.0087599, 49.8203147], [6.0095091, 49.8200595], [6.0094261, 49.8200014], [6.0089985, 49.8197019], [6.0084673, 49.8192617], [6.0076378, 49.8183446], [6.0075942, 49.8182964], [6.0082123, 49.8179864], [6.0082883, 49.8179484], [6.0088019, 49.8176908], [6.0092769, 49.8170599], [6.0094372, 49.816847], [6.009146, 49.8165474], [6.009032, 49.81643], [6.0089764, 49.8163729], [6.008793, 49.8162906], [6.0084896, 49.8161545], [6.0084676, 49.8161446], [6.0081888, 49.8160312], [6.0077051, 49.8158344], [6.0074711, 49.8157392], [6.007212, 49.8156338], [6.0071961, 49.8156269], [6.0067888, 49.815448], [6.006439, 49.8152943], [6.0066861, 49.8142744], [6.0066989, 49.8142289], [6.0067101, 49.8141891], [6.0067579, 49.8140678], [6.006789, 49.8140052], [6.0068697, 49.8138813], [6.0069824, 49.8137415], [6.0072234, 49.813472], [6.0072448, 49.8134472], [6.0068582, 49.8132987], [6.0068564, 49.8132664], [6.0068285, 49.812948], [6.0068177, 49.8127958], [6.0068128, 49.8127266], [6.0068049, 49.8126093], [6.0068124, 49.8125426], [6.006827, 49.812484], [6.0068477, 49.812444], [6.0069572, 49.8123135], [6.0058578, 49.81198], [6.0061918, 49.8112338], [6.0063402, 49.8111807], [6.0065361, 49.8110996], [6.0067464, 49.8109972], [6.0067628, 49.8110079], [6.0069661, 49.8108735], [6.0071168, 49.8107564], [6.007251, 49.8106313], [6.0073987, 49.8104861], [6.0074829, 49.8104218], [6.0075556, 49.8103664], [6.0076752, 49.8102905], [6.0080104, 49.810111], [6.0084852, 49.809749], [6.0085984, 49.8095826], [6.0086705, 49.8094768], [6.0100683, 49.8097976], [6.0104375, 49.8098823], [6.0109087, 49.8099936], [6.011126, 49.8093072], [6.0111485, 49.8092347], [6.0112069, 49.8090468], [6.0112337, 49.8089605], [6.0112549, 49.8088921], [6.0113, 49.8087467], [6.0113637, 49.8085415], [6.0113758, 49.8085085], [6.0112176, 49.8083483], [6.0110756, 49.8082137], [6.0108429, 49.8080412], [6.0108868, 49.8080511], [6.0119426, 49.8083048], [6.0124372, 49.8084244], [6.0124532, 49.8084283], [6.0136244, 49.8087137], [6.0136483, 49.8087195], [6.0148399, 49.8090087], [6.0148729, 49.8088854], [6.0149007, 49.8087665], [6.0149051, 49.8087421], [6.0149002, 49.808651], [6.0148833, 49.808581], [6.0148798, 49.8085409], [6.0148667, 49.8083909], [6.0148458, 49.8082165], [6.0148308, 49.8080953], [6.0148309, 49.8080576], [6.0148396, 49.8080076], [6.0148612, 49.8079587], [6.0148975, 49.8078921], [6.0149644, 49.8077915], [6.0150009, 49.8077367], [6.0151569, 49.8075147], [6.0152499, 49.8073937], [6.0152843, 49.8073648], [6.0153256, 49.8073382], [6.0153745, 49.807315], [6.0154467, 49.8072862], [6.0155355, 49.8072645], [6.0155462, 49.8072619], [6.0160569, 49.8071736], [6.0160922, 49.8069604], [6.0161129, 49.8068359], [6.016157, 49.8068353], [6.016282, 49.8068338], [6.0164335, 49.8068373], [6.0165169, 49.8068415], [6.0166002, 49.8068465], [6.0167403, 49.8068647], [6.0168325, 49.806882], [6.016883, 49.8068968], [6.0169379, 49.8069125], [6.0170283, 49.8069383], [6.0171952, 49.8069944], [6.0173189, 49.8070554], [6.0174875, 49.8071541], [6.0175644, 49.8071979], [6.0176675, 49.8072491], [6.0177377, 49.8072832], [6.017869, 49.8073345], [6.0179965, 49.8073748], [6.0180659, 49.8073919], [6.0182066, 49.80742], [6.0183285, 49.8074433], [6.0184067, 49.807457], [6.0186409, 49.8074984], [6.0191493, 49.8075963], [6.0195414, 49.8076673], [6.0196981, 49.8076918], [6.0199007, 49.8077322], [6.02002, 49.8077639], [6.0201164, 49.8077896], [6.0203414, 49.8078664], [6.0205457, 49.8079457], [6.020707, 49.808014], [6.0207792, 49.8080481], [6.0208297, 49.8080859], [6.0208802, 49.8081419], [6.0208967, 49.8081715], [6.0209418, 49.8082525], [6.0212425, 49.8081326], [6.021089, 49.808012], [6.0210721, 49.8080023], [6.0210477, 49.8079998], [6.0210271, 49.8080022], [6.0209971, 49.8079925], [6.0209858, 49.8079815], [6.0209915, 49.8079548], [6.0210029, 49.8079268], [6.0209935, 49.8079122], [6.0209729, 49.8079013], [6.0209542, 49.8078988], [6.0209129, 49.8079048], [6.0208809, 49.8079097], [6.0208584, 49.8079048], [6.0208472, 49.807895], [6.0208454, 49.8078792], [6.0208473, 49.8078586], [6.0208379, 49.8078452], [6.0208192, 49.807833], [6.0208023, 49.8078281], [6.0207761, 49.8078257], [6.0207179, 49.8078256], [6.0206972, 49.8078219], [6.0206785, 49.8078109], [6.0206345, 49.8077696], [6.0207117, 49.8076809], [6.0207813, 49.8075892], [6.0209596, 49.8073542], [6.0211639, 49.8071211], [6.0212298, 49.8070427], [6.0213841, 49.8068594], [6.0214898, 49.8067337], [6.0218309, 49.8069104], [6.0219786, 49.8070004], [6.022067, 49.8070542], [6.0222356, 49.8071705], [6.0222965, 49.8072125], [6.0224538, 49.8073354], [6.0225361, 49.8074134], [6.0225792, 49.8074572], [6.022627, 49.8074937], [6.0227525, 49.8075789], [6.0229117, 49.80768], [6.0229998, 49.8077288], [6.0230935, 49.8077775], [6.0231839, 49.8078153], [6.0234052, 49.8079079], [6.0237804, 49.8080648], [6.0239165, 49.808119], [6.0241736, 49.8082151], [6.0245624, 49.8083604], [6.0246263, 49.8083532], [6.0250316, 49.8085955], [6.0251032, 49.8086382], [6.0252014, 49.808693], [6.025229, 49.8087083], [6.0254158, 49.8088123], [6.0254817, 49.808849], [6.0257826, 49.8090062], [6.0257877, 49.809009], [6.0258279, 49.8090311], [6.0259839, 49.8091165], [6.0260856, 49.8091722], [6.0261224, 49.8091924], [6.0264707, 49.8093832], [6.0265645, 49.8094346], [6.0267543, 49.8095386], [6.0267907, 49.8095588], [6.027072, 49.8097153], [6.027309, 49.8095844], [6.0283451, 49.8090121], [6.0284777, 49.8089389], [6.0285846, 49.8088799], [6.0287671, 49.8087791], [6.0292095, 49.8085609], [6.0297862, 49.8082765], [6.0298502, 49.8082449], [6.0299442, 49.8081986], [6.0300062, 49.8081668], [6.0306022, 49.8076994], [6.0309939, 49.8075169], [6.031067, 49.8074829], [6.0314161, 49.8073196], [6.0314439, 49.8073014], [6.0315677, 49.8072418], [6.0316612, 49.8072006], [6.0320404, 49.8070212], [6.0324677, 49.806819], [6.0331228, 49.8065246], [6.0332475, 49.8064686], [6.033566, 49.8063254], [6.0341435, 49.8060559], [6.0344732, 49.805902], [6.0344835, 49.8058972], [6.0347299, 49.8057818], [6.0355806, 49.8053833], [6.0358364, 49.8052634], [6.0367399, 49.8048421], [6.0369009, 49.8047671], [6.0369172, 49.8047577], [6.0370598, 49.8046763], [6.0378934, 49.8041701], [6.037904, 49.8041637], [6.0385693, 49.80377], [6.0381667, 49.8037244], [6.037542, 49.8036537], [6.0373791, 49.8036352], [6.0370703, 49.8036091], [6.0368059, 49.8035868], [6.036521, 49.8035627], [6.035932, 49.803513], [6.0351019, 49.8034428], [6.0350642, 49.8034397], [6.0350576, 49.8034375], [6.0345924, 49.8032847], [6.0337136, 49.8029961], [6.0335292, 49.802899], [6.0334567, 49.8028646], [6.0333041, 49.8027922], [6.0330438, 49.8026871], [6.0327986, 49.8025961], [6.0325474, 49.8025189], [6.0324579, 49.8024914], [6.0319677, 49.8023407], [6.0318256, 49.8022945], [6.0317096, 49.8022567], [6.0312825, 49.8021056], [6.0311054, 49.8020429], [6.0309867, 49.8020014], [6.0306885, 49.8018973], [6.0303334, 49.8017734], [6.0301867, 49.8017221], [6.0298421, 49.8015826], [6.0291352, 49.801257], [6.0288424, 49.8008475], [6.0287964, 49.8007637], [6.0287569, 49.8007592], [6.0287278, 49.8007511], [6.0287034, 49.8007394], [6.0286521, 49.8007247], [6.0285945, 49.8007157], [6.0285466, 49.8007132], [6.0285072, 49.8007045], [6.028435, 49.800686], [6.0283447, 49.8006652], [6.0282708, 49.8006478], [6.0282066, 49.8006388], [6.0281289, 49.8006391], [6.0280858, 49.8006418], [6.0280495, 49.8006373], [6.0280143, 49.8006276], [6.0279502, 49.8006154], [6.0278515, 49.8005988], [6.0277461, 49.8005831], [6.0276688, 49.8005698], [6.0275733, 49.8005585], [6.0275204, 49.8005559], [6.0274742, 49.8005544], [6.0274412, 49.8005499], [6.0274151, 49.8005392], [6.0273906, 49.8005295], [6.0273628, 49.8005177], [6.0273366, 49.8005112], [6.0272921, 49.8005055], [6.0272603, 49.8005033], [6.0272146, 49.8004975], [6.027172, 49.8004856], [6.0270951, 49.8004587], [6.0269141, 49.8004999], [6.0268151, 49.8004566], [6.0267382, 49.8004465], [6.026727, 49.8004372], [6.0266781, 49.8003967], [6.0265009, 49.8004282], [6.0264605, 49.8004013], [6.0264456, 49.8003915], [6.0264015, 49.8003624], [6.0262811, 49.8002832], [6.0260348, 49.8001119], [6.0259802, 49.7999251], [6.0259743, 49.7998969], [6.0255689, 49.7999993], [6.0255391, 49.799991], [6.0250881, 49.7998654], [6.0247112, 49.7997677], [6.0244386, 49.7996981], [6.0242874, 49.7996595], [6.0239765, 49.7995904], [6.0235064, 49.7994766], [6.022966, 49.7993126], [6.0227767, 49.7992552], [6.0224411, 49.7991533], [6.0220146, 49.7990373], [6.0218531, 49.7990011], [6.0213935, 49.798888], [6.0213276, 49.7988718], [6.0211903, 49.7988428], [6.0210968, 49.7988169], [6.0204131, 49.7986742], [6.0199816, 49.7985762], [6.0195024, 49.7984674], [6.0197185, 49.7978966], [6.019942, 49.7976539], [6.0203602, 49.7972079], [6.0205769, 49.7969694], [6.0207001, 49.79682], [6.0206296, 49.7967902], [6.0205621, 49.7967652], [6.0205014, 49.7967474], [6.0204492, 49.7967349], [6.0203598, 49.796713], [6.0203227, 49.7967036], [6.0202841, 49.7966885], [6.0202369, 49.7966677], [6.0201341, 49.7966218], [6.0200195, 49.7965781], [6.0198711, 49.796538], [6.0197801, 49.7965134], [6.0197025, 49.7964853], [6.0196676, 49.7964689], [6.0196048, 49.7964395], [6.0193211, 49.7963588], [6.0191845, 49.7963151], [6.0190834, 49.7962879], [6.0189872, 49.796267], [6.0188422, 49.7962419], [6.018741, 49.79622], [6.018687, 49.7962127], [6.0186111, 49.7962074], [6.0185453, 49.7961948], [6.018445, 49.7961636], [6.0183978, 49.79615], [6.0183438, 49.7961406], [6.0182831, 49.7961311], [6.0182325, 49.7961134], [6.0181685, 49.7960926], [6.0180993, 49.7960821], [6.0180251, 49.7960706], [6.0178986, 49.7960351], [6.0178514, 49.7960268], [6.0177721, 49.7960152], [6.0176676, 49.795986], [6.017585, 49.7959672], [6.0175031, 49.7959567], [6.0173884, 49.795942], [6.0172788, 49.7959253], [6.0171102, 49.7958846], [6.0169787, 49.7958512], [6.0167661, 49.7958177], [6.0166851, 49.7958061], [6.0165443, 49.7957987], [6.0164178, 49.7957778], [6.0163149, 49.7957589], [6.0162525, 49.795735], [6.0161531, 49.7956829], [6.0160958, 49.79566], [6.0159862, 49.7956329], [6.0159154, 49.7955975], [6.0158851, 49.795586], [6.015789, 49.7955651], [6.0156777, 49.7955318], [6.0156305, 49.7955255], [6.0155006, 49.7955118], [6.015423, 49.7954972], [6.0153421, 49.7954773], [6.0152234, 49.7954399], [6.0152571, 49.7953303], [6.0152663, 49.7953007], [6.0153423, 49.7950535], [6.0153577, 49.7949928], [6.0154474, 49.7946383], [6.0155418, 49.7941337], [6.0155477, 49.794084], [6.0155877, 49.7937444], [6.0155898, 49.793624], [6.0155357, 49.7933653], [6.0154666, 49.7930787], [6.0153354, 49.7926631], [6.0152321, 49.7924799], [6.0151506, 49.7923505], [6.0150499, 49.7922017], [6.014862, 49.7919238], [6.0148082, 49.7918442], [6.0146877, 49.7916692], [6.0146647, 49.7916358], [6.0145321, 49.7914368], [6.0145337, 49.7913035], [6.0145352, 49.7911416], [6.014537, 49.7909512], [6.0139927, 49.7907536], [6.013237, 49.7904714], [6.0126066, 49.7902405], [6.0128861, 49.7899174], [6.0130263, 49.7897544], [6.013137, 49.7896273], [6.0133036, 49.78942], [6.0134421, 49.7891563], [6.0135015, 49.7889966], [6.013539, 49.7888674], [6.0135745, 49.7886957], [6.0135817, 49.78851], [6.0135811, 49.788335], [6.0135762, 49.7881586], [6.0135648, 49.7879823], [6.0134087, 49.7879823], [6.0132819, 49.7879824], [6.0132601, 49.787981], [6.0132657, 49.7879167], [6.0132616, 49.7878292], [6.0132564, 49.7877662], [6.0132489, 49.7877251], [6.0131988, 49.7876813], [6.0131541, 49.7876547], [6.0131247, 49.7876228], [6.0131161, 49.7875976], [6.0131227, 49.7875751], [6.0131381, 49.7875287], [6.0131513, 49.7875035], [6.0131558, 49.787475], [6.0131581, 49.7874452], [6.013155, 49.7873815], [6.0131518, 49.787361], [6.0131595, 49.7873331], [6.0131705, 49.7873093], [6.013199, 49.7872689], [6.0132812, 49.7871622], [6.0132977, 49.7871497], [6.0133086, 49.7871424], [6.0133348, 49.7871311], [6.0133764, 49.7871093], [6.0134037, 49.7870921], [6.0134333, 49.7870789], [6.0134606, 49.7870756], [6.0134835, 49.7870756], [6.0135173, 49.7870797], [6.0135381, 49.7870797], [6.0135632, 49.7870751], [6.0135862, 49.7870625], [6.0135972, 49.7870373], [6.0136027, 49.7870049], [6.0136028, 49.7869856], [6.0136096, 49.7869689], [6.0135944, 49.7869609], [6.0135337, 49.7869254], [6.0132606, 49.7869685], [6.0131423, 49.7869835], [6.0129675, 49.7869944], [6.0128326, 49.7869953], [6.0127378, 49.7869891], [6.0123043, 49.7869278], [6.0120547, 49.7869073], [6.0118217, 49.7868817], [6.0116835, 49.7868694], [6.0114788, 49.786858], [6.0111384, 49.7868373], [6.0110736, 49.7867948], [6.0109656, 49.786736], [6.0104809, 49.7868111], [6.0103694, 49.7867918], [6.0102763, 49.7867805], [6.0100782, 49.7867752], [6.0098759, 49.78678], [6.0096361, 49.7868049], [6.0092788, 49.7868499], [6.0091372, 49.786877], [6.0089523, 49.7869243], [6.0087107, 49.7869947], [6.0085857, 49.7870279], [6.0084425, 49.787048], [6.0081543, 49.787091], [6.0081044, 49.7871031], [6.0080257, 49.7871278], [6.008021, 49.7871293], [6.0079386, 49.7871633], [6.0077628, 49.7872527], [6.007731, 49.7872688], [6.0076769, 49.7872964], [6.0075626, 49.7873052], [6.0074452, 49.7873142], [6.0064433, 49.7873915], [6.0063949, 49.7873795], [6.006023, 49.7872877], [6.0059482, 49.7872692], [6.0056715, 49.7872009], [6.0056131, 49.7871865], [6.0053557, 49.7871229], [6.0052827, 49.7873506], [6.005249, 49.7874305], [6.0052064, 49.7875024], [6.0051586, 49.7875731], [6.0050746, 49.7876609], [6.0049721, 49.787751], [6.0048536, 49.787857], [6.0046636, 49.7880246], [6.0045328, 49.7881397], [6.0040812, 49.7885147], [6.0035873, 49.7888931], [6.0035128, 49.788861], [6.0033058, 49.7887717], [6.0029388, 49.7886103], [6.0028389, 49.7885664], [6.0025921, 49.7884578], [6.0024045, 49.7883739], [6.0023616, 49.7883547], [6.0022243, 49.788294], [6.0019296, 49.7881337], [6.0016728, 49.7879952], [6.001525, 49.7879248], [6.0014226, 49.787876], [6.0012954, 49.7878154], [6.0009709, 49.787664], [6.0006988, 49.7875371], [6.0006355, 49.787513], [6.0005327, 49.7876784], [6.0003699, 49.787878], [6.0000479, 49.7882327], [5.9996931, 49.7886204], [5.9991403, 49.7892236], [5.9989624, 49.7894266], [5.9984767, 49.7899831], [5.9980812, 49.7904244], [5.9979221, 49.7905635], [5.9977516, 49.7906785], [5.9965568, 49.7913976], [5.9966303, 49.7915564], [5.9966487, 49.7915953], [5.9966799, 49.7917324], [5.996695, 49.7919459], [5.9963594, 49.7921407], [5.9956343, 49.7925849], [5.9949903, 49.7930053], [5.9943817, 49.7933914], [5.9942607, 49.7934723], [5.9939798, 49.7936363], [5.9937166, 49.7937889], [5.9933271, 49.7940099], [5.9924131, 49.7945246], [5.9922491, 49.7946178], [5.9920529, 49.794734], [5.991664, 49.7949836], [5.9915154, 49.7950908], [5.9913651, 49.7952049], [5.9912307, 49.7952995], [5.9911139, 49.7953884], [5.9910504, 49.79541], [5.9909497, 49.7954373], [5.9908473, 49.7954703], [5.9906919, 49.795526], [5.9905046, 49.7956012], [5.9904145, 49.7956479], [5.9902802, 49.7957276], [5.9901157, 49.7958336], [5.9898805, 49.796007], [5.9896735, 49.7961769], [5.9894382, 49.7963708], [5.9892311, 49.7965544], [5.9889692, 49.7967939], [5.9881924, 49.7975367], [5.9881324, 49.7975959], [5.9879363, 49.7977894], [5.9878725, 49.7978524], [5.9877521, 49.7979722], [5.9871795, 49.7977839], [5.986443, 49.7975485], [5.9858487, 49.7973485], [5.9858053, 49.7973339], [5.9852414, 49.7971684], [5.9850171, 49.797283], [5.984637, 49.7974771], [5.9840432, 49.7977755], [5.9837072, 49.7980128], [5.9834786, 49.7981743], [5.9830067, 49.7985006], [5.982438, 49.7986962], [5.9819348, 49.798744], [5.9818253, 49.7987544], [5.9815151, 49.7987838], [5.981282, 49.7989602], [5.9812019, 49.7990207], [5.9809964, 49.7992683], [5.9807146, 49.7996061], [5.9806348, 49.7997065], [5.9805106, 49.7998948], [5.9802729, 49.8002269], [5.9798863, 49.8007782], [5.9798402, 49.8012946], [5.9798029, 49.8016295], [5.9793822, 49.8013729], [5.9792186, 49.8012823], [5.9787272, 49.80101], [5.9786024, 49.8009409], [5.9783587, 49.8010125], [5.9780602, 49.8011068], [5.9778181, 49.8011979], [5.9766979, 49.8016485], [5.9763922, 49.8017782], [5.9761342, 49.8018898], [5.9756271, 49.8021072], [5.9754819, 49.8021879], [5.9751373, 49.8023794], [5.9750683, 49.8024181], [5.9747979, 49.8025697], [5.9746512, 49.8026518], [5.9742303, 49.8028875], [5.9741419, 49.8029342], [5.9738554, 49.803104], [5.9736308, 49.8032487], [5.9735795, 49.8032818], [5.9737349, 49.8035288], [5.9741335, 49.8041625], [5.9742, 49.8046519], [5.9742123, 49.8047431], [5.9742542, 49.8049707], [5.9743105, 49.8052767], [5.9743557, 49.8055225], [5.9744343, 49.8059111], [5.9744595, 49.8060357], [5.9745443, 49.8064472], [5.9745885, 49.8064976], [5.9747463, 49.8066772], [5.9748292, 49.8067609], [5.9751188, 49.8070537], [5.9751698, 49.8071041], [5.9753684, 49.8073066], [5.9754018, 49.8073273], [5.9756466, 49.8074442], [5.9756924, 49.8074717], [5.9757891, 49.8075484], [5.976095, 49.8078174], [5.976171, 49.8078849], [5.9764026, 49.8080856], [5.9765094, 49.8081741], [5.9766679, 49.8083843], [5.9769044, 49.8087011], [5.9765729, 49.8087205], [5.9762701, 49.8087359], [5.9760061, 49.8087549], [5.976002, 49.8087552], [5.9755726, 49.8087813], [5.9755409, 49.8087838], [5.9755062, 49.8087847], [5.9745115, 49.8088477], [5.9735734, 49.8088935], [5.9732639, 49.808905], [5.9729118, 49.808918], [5.9726065, 49.8089285], [5.9724808, 49.808936], [5.9715813, 49.8089895], [5.9714787, 49.8089956], [5.9705047, 49.8090535], [5.969997, 49.8090837], [5.969513, 49.8091125], [5.9691073, 49.8091366], [5.9685895, 49.8091674], [5.9685422, 49.809171], [5.9677161, 49.8092345], [5.9675553, 49.8092468], [5.9662229, 49.8093491], [5.9661163, 49.8093573], [5.9660925, 49.8095626], [5.9660798, 49.809672], [5.9661087, 49.809689], [5.9661461, 49.8096961], [5.9661715, 49.8097142], [5.9661885, 49.8097342], [5.9662173, 49.8097493], [5.9662496, 49.8097524], [5.9662836, 49.8097624], [5.9663142, 49.8097845], [5.9663345, 49.8098106], [5.9663445, 49.8098417], [5.9663581, 49.8098567], [5.9663836, 49.8098678], [5.9664091, 49.8098698], [5.9664533, 49.8098649], [5.9664874, 49.8098619], [5.9665112, 49.809866], [5.9665757, 49.8098941], [5.9666097, 49.8099022], [5.9666777, 49.8099093], [5.9667526, 49.8099075], [5.9667832, 49.8099115], [5.9668801, 49.8099427], [5.9669463, 49.8099609], [5.9670109, 49.809971], [5.9670841, 49.8099761], [5.9671658, 49.8099723], [5.9672764, 49.8099655], [5.9673394, 49.8099546], [5.9673649, 49.8099546], [5.967404, 49.8099587], [5.9674465, 49.8099707], [5.9675077, 49.8099909], [5.9675434, 49.809997], [5.9675689, 49.809995], [5.9675979, 49.809983], [5.9676217, 49.8099701], [5.9676422, 49.8099571], [5.9676542, 49.8099491], [5.9676763, 49.8099461], [5.9677086, 49.8099492], [5.9677324, 49.8099572], [5.9677425, 49.8099823], [5.9677458, 49.8100063], [5.967756, 49.8100173], [5.9677968, 49.8100284], [5.9678597, 49.8100376], [5.9678987, 49.8100547], [5.9679276, 49.8100597], [5.967977, 49.8100578], [5.9680042, 49.8100488], [5.9680349, 49.8100298], [5.9680605, 49.8100249], [5.9681064, 49.810029], [5.968154, 49.8100361], [5.9681948, 49.8100431], [5.9682204, 49.8100422], [5.9682663, 49.8100292], [5.968297, 49.8100233], [5.9683344, 49.8100284], [5.968399, 49.8100475], [5.9684669, 49.8100797], [5.9684958, 49.8100847], [5.968535, 49.8100818], [5.9685791, 49.8100939], [5.9686233, 49.810108], [5.9686624, 49.810109], [5.9686931, 49.8101061], [5.9687067, 49.8100941], [5.9687238, 49.8100771], [5.9687545, 49.8100581], [5.968775, 49.8100502], [5.9688363, 49.8100392], [5.9688686, 49.8100363], [5.9689418, 49.8100354], [5.9690371, 49.8100256], [5.9690498, 49.8101243], [5.9690582, 49.8101897], [5.969113, 49.8106156], [5.9691151, 49.8106586], [5.9691167, 49.8106926], [5.9691318, 49.8110012], [5.9691291, 49.8112415], [5.9691336, 49.8113436], [5.9691462, 49.8116341], [5.969144, 49.8117783], [5.9691188, 49.8118879], [5.9691058, 49.8119576], [5.9690911, 49.8120848], [5.9690841, 49.8121451], [5.9691195, 49.8123326], [5.9689706, 49.8126372], [5.9695398, 49.8130488], [5.9699441, 49.8131788], [5.9702515, 49.8132783], [5.9704168, 49.8133318], [5.970842, 49.8134621], [5.9711719, 49.8135205], [5.971534, 49.8135843], [5.9717657, 49.8136588], [5.9721256, 49.8137744], [5.9723144, 49.8138352], [5.9725907, 49.8139241], [5.9728494, 49.8140056], [5.9730678, 49.8140743], [5.9733956, 49.8139329], [5.973452, 49.8139085], [5.9738474, 49.8137357], [5.9744639, 49.8135734], [5.9745628, 49.8135588], [5.9749535, 49.8134834], [5.975015, 49.8134742], [5.9752734, 49.8134356], [5.9753, 49.8134322], [5.9755606, 49.8133996], [5.9757533, 49.8133959], [5.975894, 49.8133698], [5.9761144, 49.8133046], [5.9766506, 49.8132608], [5.9769882, 49.8132258], [5.9771497, 49.8132104], [5.9774618, 49.8131841], [5.9775621, 49.8131756], [5.9775959, 49.8131732], [5.9776389, 49.8131824], [5.9776866, 49.8131968], [5.9777642, 49.8132257], [5.9777844, 49.813229], [5.9778534, 49.8132285], [5.9778795, 49.8132204], [5.9779041, 49.8132066], [5.9779379, 49.8131699], [5.9779667, 49.8131317], [5.9779898, 49.8131113], [5.9780083, 49.8131016], [5.9780457, 49.8130952], [5.9781397, 49.8130906], [5.9781934, 49.8130835], [5.9782257, 49.8130729], [5.978269, 49.8130568], [5.9782927, 49.813036], [5.9783301, 49.8129937], [5.9783498, 49.8129815], [5.9783881, 49.8129645], [5.9784039, 49.8129523], [5.9784385, 49.812901], [5.9784545, 49.812892], [5.9784781, 49.8128856], [5.9785196, 49.8128865], [5.9785584, 49.8128834], [5.9785769, 49.8128753], [5.9786233, 49.8128412], [5.9786635, 49.812807], [5.9786783, 49.8127981], [5.9786969, 49.8127916], [5.9787244, 49.8127884], [5.9787446, 49.8127918], [5.9788049, 49.8128271], [5.9788278, 49.8128362], [5.9788594, 49.812842], [5.9789423, 49.8128439], [5.9789774, 49.8128416], [5.9790602, 49.8128211], [5.9791449, 49.8128026], [5.9791863, 49.8128019], [5.9792279, 49.8128078], [5.9792889, 49.8128276], [5.9793129, 49.8128326], [5.9793543, 49.8128303], [5.9793992, 49.8128231], [5.9794206, 49.8128256], [5.9795004, 49.8128502], [5.9795258, 49.8128519], [5.9795917, 49.8128454], [5.9796196, 49.8128446], [5.9796854, 49.8128562], [5.979705, 49.8128583], [5.9797647, 49.8128436], [5.9798395, 49.8128249], [5.9798724, 49.8128233], [5.9799358, 49.8128275], [5.9800271, 49.8128137], [5.9801209, 49.8128073], [5.9802438, 49.8128042], [5.9803211, 49.8128101], [5.9803806, 49.81282], [5.9804661, 49.8128107], [5.9805181, 49.8128059], [5.980584, 49.8128085], [5.980722, 49.8128349], [5.9807803, 49.8128252], [5.9808184, 49.8128162], [5.9808703, 49.812813], [5.9809387, 49.8128197], [5.9809844, 49.8128091], [5.9810681, 49.8127969], [5.9811055, 49.81279], [5.9811473, 49.8127925], [5.9811852, 49.8128074], [5.9812358, 49.8128362], [5.9812788, 49.812851], [5.9813181, 49.8128585], [5.98137, 49.8128626], [5.9814093, 49.8128709], [5.981432, 49.8128824], [5.9814951, 49.8129629], [5.9815115, 49.8129753], [5.9815393, 49.8129885], [5.9815621, 49.8129918], [5.9815887, 49.8129902], [5.9816484, 49.8129763], [5.9816782, 49.8129669], [5.9817035, 49.8129678], [5.9817364, 49.8129719], [5.9817795, 49.8129843], [5.9818529, 49.8130041], [5.9819023, 49.8130198], [5.9819503, 49.8130445], [5.9819985, 49.8130395], [5.9828725, 49.8129496], [5.9831368, 49.8129167], [5.9838277, 49.8128366], [5.9842476, 49.8127856], [5.9842921, 49.8128407], [5.984315, 49.812892], [5.9843307, 49.812953], [5.9843546, 49.8131119], [5.9843658, 49.8132566], [5.9844325, 49.813358], [5.9844581, 49.8134113], [5.9844907, 49.8135149], [5.9845164, 49.8135683], [5.984563, 49.8136795], [5.9846099, 49.8137238], [5.9846309, 49.8137512], [5.98464, 49.8138335], [5.9846446, 49.8138563], [5.9846552, 49.8138708], [5.9846762, 49.8138922], [5.9846879, 49.8139105], [5.9846678, 49.8139569], [5.9846582, 49.8139995], [5.9846534, 49.8140346], [5.9846556, 49.8140681], [5.9846413, 49.8141031], [5.9846201, 49.8141274], [5.9846082, 49.8141609], [5.9846081, 49.8141944], [5.984622, 49.8142371], [5.9846242, 49.8142874], [5.9846099, 49.8143239], [5.9846051, 49.8143574], [5.9846144, 49.8143985], [5.9846377, 49.8144519], [5.9846399, 49.814496], [5.9846255, 49.8145554], [5.9846254, 49.8145935], [5.9846393, 49.8146453], [5.9846579, 49.8146895], [5.9846931, 49.8147292], [5.9847153, 49.8147741], [5.9847104, 49.8148198], [5.9846913, 49.8148868], [5.9846653, 49.814934], [5.9846369, 49.8149751], [5.9845778, 49.8150542], [5.9845352, 49.8151196], [5.9845327, 49.8151577], [5.984549, 49.8151973], [5.9845465, 49.8152262], [5.9845523, 49.8152651], [5.9845428, 49.815297], [5.984512, 49.8153472], [5.9845189, 49.8153869], [5.9845517, 49.8154204], [5.9846995, 49.8155303], [5.9847252, 49.8155654], [5.9847391, 49.81564], [5.9847484, 49.815672], [5.9847892, 49.8157521], [5.9848196, 49.8158206], [5.984843, 49.8158481], [5.9848735, 49.8158573], [5.9849064, 49.8158634], [5.9849252, 49.8158772], [5.9849392, 49.8159031], [5.9849508, 49.8159442], [5.9849743, 49.8159625], [5.98504, 49.815987], [5.9852698, 49.8160818], [5.985326, 49.8161248], [5.9853476, 49.8161423], [5.9853638, 49.8161645], [5.9853722, 49.8161964], [5.9853802, 49.8162203], [5.9853973, 49.8162414], [5.9854234, 49.8162578], [5.9854801, 49.816283], [5.9855017, 49.8162935], [5.9855233, 49.8163105], [5.9855485, 49.8163368], [5.9855691, 49.8163649], [5.9855754, 49.8163777], [5.9855775, 49.8164084], [5.9855818, 49.8164598], [5.9855827, 49.8164738], [5.9855944, 49.8164884], [5.9856117, 49.8165026], [5.9856223, 49.8165113], [5.9856312, 49.81653], [5.9856375, 49.8165405], [5.9856618, 49.8165563], [5.9856752, 49.8165668], [5.9856946, 49.8165917], [5.9857089, 49.8166069], [5.9857467, 49.8166244], [5.9857863, 49.8166455], [5.9857971, 49.8166561], [5.9858142, 49.8166783], [5.985828, 49.8167241], [5.9858414, 49.816761], [5.9858495, 49.8167744], [5.9858783, 49.8167896], [5.9859026, 49.8167984], [5.9859206, 49.8168049], [5.9859296, 49.816816], [5.9859331, 49.8168382], [5.9859361, 49.8168747], [5.9859432, 49.8169214], [5.9859512, 49.8169413], [5.9861916, 49.8171896], [5.9862838, 49.8172437], [5.9863918, 49.8172876], [5.9866005, 49.8173723], [5.9866044, 49.8173739], [5.9869704, 49.8175441], [5.9870083, 49.8175529], [5.9871399, 49.8175718], [5.9877183, 49.8176401], [5.9882506, 49.8177078], [5.9886007, 49.8178004], [5.9892878, 49.8179845], [5.9895157, 49.8180701], [5.9895659, 49.8180906], [5.9900183, 49.8182753], [5.9900223, 49.8182753], [5.9903765, 49.8182776], [5.9904204, 49.8182469], [5.9911317, 49.8182675], [5.9912722, 49.8182724], [5.9913512, 49.8182825], [5.9914803, 49.8183066], [5.9915932, 49.8183101], [5.9920296, 49.8183224], [5.9923629, 49.8183262], [5.9930061, 49.8183265], [5.9930133, 49.8183265], [5.9932666, 49.8183295], [5.9934907, 49.8183342], [5.9941549, 49.8183515], [5.9945918, 49.8183687], [5.994693, 49.8183738], [5.9949933, 49.8183889], [5.9952563, 49.8184016], [5.9956697, 49.8184215], [5.9957049, 49.8184237], [5.9959451, 49.8184388], [5.996, 49.8184421], [5.9960702, 49.8184463], [5.9962241, 49.8184585], [5.9965076, 49.8184858], [5.9966029, 49.8184948], [5.9966392, 49.8184983], [5.9967701, 49.8185107], [5.9970741, 49.8185461], [5.9971616, 49.818556], [5.9975166, 49.8185962], [5.9976205, 49.8186097], [5.9979626, 49.818654], [5.9980626, 49.8186642], [5.9981241, 49.8186705], [5.9982208, 49.8186799], [5.9983322, 49.8186907], [5.9984265, 49.8186968], [5.9985673, 49.8187059], [5.9986107, 49.8187087], [5.999065, 49.8187333], [5.9997696, 49.8187775], [5.9999666, 49.8187738], [6.0000774, 49.8187733], [6.0002553, 49.8187725], [6.0006687, 49.8187832], [6.0007436, 49.8187852], [6.0005638, 49.8189991], [6.0005092, 49.8190754], [6.00047, 49.8191371], [6.0004581, 49.81916], [6.0004519, 49.8191826], [6.0004518, 49.8192038], [6.0004589, 49.819241], [6.0004617, 49.8193095], [6.0004587, 49.8194499], [6.0004071, 49.8195402], [6.000897, 49.8196813], [6.0013131, 49.8198018], [6.0018655, 49.8199597], [6.0020745, 49.8200221], [6.0022077, 49.8200654], [6.0023071, 49.8201008], [6.0024198, 49.8201448], [6.0025058, 49.8201814], [6.0026789, 49.8202637], [6.0028172, 49.8203316], [6.0028684, 49.8203616], [6.0029267, 49.8204112], [6.0030494, 49.8205289], [6.0032171, 49.8206895], [6.0033038, 49.8207739], [6.0034349, 49.8209014], [6.0035944, 49.8210504], [6.0036885, 49.8211312], [6.0037499, 49.8211791], [6.0037693, 49.8211931], [6.0039003, 49.8212846], [6.0042799, 49.8214668], [6.0044851, 49.8215653], [6.0051288, 49.8217266], [6.0057346, 49.8218938]]]}}]}