{"type": "FeatureCollection", "features": [{"type": "Feature", "properties": {"name": "Akescht", "kind": "nature_reserve"}, "geometry": {"type": "Polygon", "coordinates": [[[6.159347, 49.9867384], [6.1593188, 49.9866806], [6.1591861, 49.9865806], [6.1587059, 49.986083], [6.1585504, 49.9859709], [6.158456, 49.9859251], [6.1582625, 49.9857158], [6.1581507, 49.9856967], [6.1579818, 49.9855984], [6.1576563, 49.9855145], [6.1575338, 49.9854829], [6.1571799, 49.9854711], [6.1568901, 49.985476], [6.1560908, 49.9854467], [6.1558011, 49.9855019], [6.1556375, 49.9855967], [6.1556156, 49.9855207], [6.1552674, 49.9851707], [6.1551627, 49.9850983], [6.1546421, 49.9846168], [6.1538377, 49.9832391], [6.1535749, 49.9829959], [6.1532181, 49.9828338], [6.1531789, 49.9827936], [6.153186, 49.982789], [6.1533281, 49.9827665], [6.1535051, 49.9827769], [6.1534941, 49.9826617], [6.153449, 49.9821882], [6.1533919, 49.9820798], [6.1532543, 49.9820016], [6.1532136, 49.9817682], [6.1531891, 49.9817281], [6.1530818, 49.9816308], [6.153016, 49.981563], [6.15289, 49.9814331], [6.1530061, 49.9812195], [6.1530005, 49.9810311], [6.1525475, 49.980761], [6.1520523, 49.9805961], [6.152205, 49.9803993], [6.1522768, 49.9801732], [6.1522697, 49.9800794], [6.1520374, 49.9798981], [6.1516916, 49.9798007], [6.1515793, 49.9783632], [6.1515578, 49.9782362], [6.1512923, 49.978201], [6.151122, 49.9781458], [6.150957, 49.9780924], [6.1507854, 49.9780423], [6.1507607, 49.9780866], [6.1507549, 49.9780977], [6.1506888, 49.978101], [6.1504716, 49.9780579], [6.149573, 49.9778543], [6.1493155, 49.9777578], [6.1484733, 49.9774421], [6.1483112, 49.9773926], [6.1480549, 49.9773144], [6.1475882, 49.9771247], [6.1475241, 49.9770727], [6.1474849, 49.977041], [6.1474581, 49.9769687], [6.1469133, 49.9767564], [6.1467741, 49.9767452], [6.1466709, 49.9767202], [6.1462109, 49.9765167], [6.1459507, 49.9764304], [6.1456624, 49.9762407], [6.1451863, 49.9760095], [6.1451353, 49.9759147], [6.1451421, 49.9758143], [6.1450723, 49.9757646], [6.1446941, 49.9754084], [6.1442918, 49.9751117], [6.1440393, 49.9749938], [6.143894, 49.9749729], [6.1437848, 49.9749375], [6.1437213, 49.9748953], [6.1436829, 49.9749012], [6.1433262, 49.9747149], [6.1432593, 49.974704], [6.1431572, 49.9746873], [6.1430606, 49.9746166], [6.1428726, 49.9745548], [6.1427244, 49.9745061], [6.1423364, 49.9743786], [6.1416256, 49.9740905], [6.1415023, 49.9740405], [6.1412811, 49.9739717], [6.1407647, 49.9737938], [6.1405152, 49.9737989], [6.1404128, 49.9737669], [6.1403167, 49.9737368], [6.1397454, 49.9736713], [6.1395737, 49.9736692], [6.139327, 49.9736661], [6.1386645, 49.9737644], [6.1386489, 49.9737718], [6.1385639, 49.9738122], [6.1385364, 49.9738253], [6.1382236, 49.9738563], [6.137251, 49.9739525], [6.1370605, 49.9740094], [6.1363766, 49.9740732], [6.1358508, 49.9740499], [6.1356953, 49.9740085], [6.1355907, 49.9740034], [6.1354847, 49.9740258], [6.1348155, 49.9742647], [6.1345151, 49.9742664], [6.1333752, 49.9743527], [6.1328226, 49.9744596], [6.1324042, 49.9744734], [6.1321199, 49.9745976], [6.132042, 49.9746172], [6.1321222, 49.9747522], [6.1321893, 49.9748857], [6.132143, 49.9751188], [6.132067, 49.9752954], [6.1325962, 49.9753839], [6.1331955, 49.9754855], [6.1338004, 49.9755541], [6.1341699, 49.9756151], [6.1347829, 49.9756414], [6.1354052, 49.9757373], [6.1355578, 49.9758278], [6.1357657, 49.9759792], [6.1358804, 49.9760956], [6.1359097, 49.9761527], [6.1358622, 49.9761749], [6.1358543, 49.9772147], [6.1356228, 49.9771426], [6.1354126, 49.9770337], [6.1353029, 49.9769369], [6.1352518, 49.9769637], [6.1352124, 49.9769477], [6.134928, 49.9771015], [6.1348987, 49.9771165], [6.1352657, 49.9774174], [6.1346599, 49.977925], [6.1340386, 49.9785025], [6.1343168, 49.9786467], [6.1345718, 49.9787436], [6.1348886, 49.9788653], [6.134989, 49.9789672], [6.1353175, 49.9791535], [6.135414, 49.9792405], [6.1355918, 49.9793597], [6.1359665, 49.9796256], [6.1362756, 49.9798765], [6.1363954, 49.9799982], [6.1364997, 49.9800529], [6.1365306, 49.980115], [6.1365306, 49.9801796], [6.1366427, 49.9802914], [6.1367277, 49.9805001], [6.1368127, 49.9807163], [6.1368281, 49.9807983], [6.1369054, 49.9808976], [6.136917, 49.9809498], [6.1369904, 49.9810989], [6.1370484, 49.9812629], [6.137114, 49.9813896], [6.1372222, 49.9815436], [6.1372647, 49.9816877], [6.1373806, 49.9817374], [6.1374502, 49.9818616], [6.1374905, 49.9819556], [6.13764, 49.9819715], [6.1378198, 49.9820728], [6.1379307, 49.9820871], [6.1379929, 49.9821684], [6.1381859, 49.9822241], [6.138379, 49.9822926], [6.1384766, 49.9823339], [6.138541, 49.982361], [6.1386319, 49.9823981], [6.1387673, 49.9824467], [6.1390114, 49.982558], [6.1391201, 49.9825865], [6.1393163, 49.9826725], [6.1394531, 49.9827148], [6.1396287, 49.9827415], [6.1400324, 49.9828718], [6.1405353, 49.9829149], [6.1407778, 49.9829803], [6.1409242, 49.983016], [6.141084, 49.9830502], [6.1411844, 49.9830515], [6.1413747, 49.9830945], [6.1416011, 49.9831173], [6.1416943, 49.9831501], [6.1420227, 49.9831886], [6.1422934, 49.9832857], [6.1424953, 49.9833228], [6.1427705, 49.983367], [6.1428246, 49.9833823], [6.1429791, 49.9834286], [6.1429936, 49.9834615], [6.1430506, 49.9835908], [6.1429292, 49.9835901], [6.1429279, 49.9836846], [6.1427669, 49.9836254], [6.1423807, 49.9836634], [6.1421742, 49.9837375], [6.1419784, 49.983716], [6.1419019, 49.9837738], [6.1417463, 49.9837858], [6.1416954, 49.9838221], [6.1416015, 49.9838169], [6.1412394, 49.9839342], [6.141175, 49.9839928], [6.1410543, 49.9839756], [6.1409972, 49.9840059], [6.1409943, 49.9840066], [6.1409041, 49.9840532], [6.1408773, 49.9841101], [6.1408719, 49.9843101], [6.1409363, 49.9846068], [6.140998, 49.9847603], [6.1410221, 49.9850362], [6.1410785, 49.9851638], [6.1409846, 49.9852708], [6.1409283, 49.9855105], [6.1408518, 49.9856381], [6.1408376, 49.985758], [6.1408076, 49.9860106], [6.1406627, 49.9862434], [6.1413735, 49.9861538], [6.1417866, 49.9860606], [6.1420575, 49.9859347], [6.142146, 49.9858951], [6.1422425, 49.985883], [6.1429185, 49.9858209], [6.1438626, 49.9859709], [6.144163, 49.9860175], [6.1444795, 49.98624], [6.1449516, 49.9864211], [6.1452166, 49.9864859], [6.1457401, 49.9869143], [6.1457617, 49.9876465], [6.1457229, 49.9879351], [6.1457722, 49.9880126], [6.146155, 49.9882134], [6.1463187, 49.9883691], [6.1463267, 49.9884137], [6.1463559, 49.9884644], [6.1464335, 49.9884923], [6.1475446, 49.9887889], [6.1475522, 49.9887911], [6.1477897, 49.9888839], [6.1479986, 49.988963], [6.1484693, 49.9891838], [6.1485592, 49.989232], [6.1486115, 49.9893071], [6.1486584, 49.9894674], [6.1486651, 49.9895675], [6.1486971, 49.9896855], [6.1486419, 49.9897294], [6.148694, 49.9898243], [6.1484829, 49.9900526], [6.1486074, 49.9901581], [6.1488864, 49.9902995], [6.1489919, 49.9904802], [6.148417, 49.9908737], [6.1479557, 49.9910841], [6.1481568, 49.9912548], [6.1483499, 49.9914066], [6.1484889, 49.9914439], [6.1486685, 49.9916196], [6.1496802, 49.9924027], [6.149835, 49.9927274], [6.1509325, 49.9929067], [6.1514915, 49.9921533], [6.1519139, 49.9915838], [6.1523638, 49.9909398], [6.1529048, 49.9900364], [6.1532255, 49.9895392], [6.1534891, 49.9892998], [6.1539403, 49.9890674], [6.1542382, 49.98886], [6.1549294, 49.9882491], [6.1552473, 49.9880016], [6.1554256, 49.9878628], [6.1559851, 49.9875633], [6.1571422, 49.9870592], [6.1575338, 49.9869764], [6.1578172, 49.9869624], [6.1592726, 49.9868029], [6.159354, 49.9867986], [6.159347, 49.9867384]]]}}]}