{"type": "FeatureCollection", "features": [{"type": "Feature", "properties": {"name": "Schlënnerdall - Molberlay", "kind": "nature_reserve"}, "geometry": {"type": "Polygon", "coordinates": [[[6.0841919, 49.9881295], [6.0845327, 49.9882407], [6.0849009, 49.9876913], [6.085137, 49.9872333], [6.0845614, 49.9870419], [6.0844606, 49.9870132], [6.0842022, 49.9869315], [6.0840968, 49.9868749], [6.0839099, 49.9867332], [6.0838677, 49.9865819], [6.0838484, 49.9863933], [6.0840399, 49.9863887], [6.084074, 49.9863879], [6.0840661, 49.9859504], [6.0835105, 49.9856569], [6.0835798, 49.985573], [6.0831527, 49.9853994], [6.0820538, 49.9855881], [6.0816944, 49.9853035], [6.081595, 49.9846325], [6.0814413, 49.9841709], [6.081854, 49.9840971], [6.0817665, 49.9839357], [6.0825665, 49.984209], [6.0828692, 49.9842515], [6.0828531, 49.9841428], [6.0828019, 49.9838936], [6.0830664, 49.9839518], [6.0831267, 49.9838721], [6.0836673, 49.983742], [6.0838696, 49.983672], [6.0841352, 49.9836686], [6.0850715, 49.9841661], [6.0850431, 49.9840454], [6.0850016, 49.9834011], [6.0848964, 49.9833781], [6.084748, 49.9834221], [6.084536, 49.9833551], [6.0847628, 49.982939], [6.0849439, 49.9824431], [6.0849906, 49.982156], [6.084711, 49.982197], [6.084103, 49.982554], [6.0839741, 49.9825801], [6.0838442, 49.9825771], [6.0837831, 49.9825642], [6.0833309, 49.9823155], [6.0837649, 49.9816097], [6.0834499, 49.9815251], [6.0835122, 49.9811864], [6.0837449, 49.9804532], [6.0833758, 49.9803466], [6.0828209, 49.9801431], [6.0834029, 49.9796154], [6.083588, 49.979417], [6.0838026, 49.9792411], [6.0839608, 49.9793463], [6.0842371, 49.979716], [6.0853263, 49.9804104], [6.0855914, 49.979898], [6.0853479, 49.9797256], [6.0853389, 49.979624], [6.0853563, 49.9794718], [6.0866065, 49.9790444], [6.0861416, 49.978447], [6.086073, 49.978436], [6.086031, 49.978428], [6.0860157, 49.978405], [6.0860577, 49.978207], [6.085986, 49.9781846], [6.0854573, 49.9771807], [6.0857928, 49.9768073], [6.0864419, 49.9761173], [6.0867986, 49.9756895], [6.0868946, 49.9755288], [6.086557, 49.9754819], [6.0860196, 49.9752272], [6.0860598, 49.9750868], [6.0855404, 49.9748175], [6.0847418, 49.9746419], [6.08437, 49.9745679], [6.0837644, 49.9744473], [6.0831231, 49.9738942], [6.0831179, 49.9735241], [6.0832656, 49.9731511], [6.0834794, 49.9730624], [6.084095, 49.9731818], [6.0845678, 49.9731999], [6.0851231, 49.9733177], [6.0852377, 49.9730557], [6.0853936, 49.9724679], [6.0852429, 49.972431], [6.0850878, 49.9723796], [6.0852883, 49.9722729], [6.0863379, 49.9722961], [6.0862781, 49.971971], [6.0863651, 49.9715141], [6.0865065, 49.9711016], [6.086041, 49.9710716], [6.086407, 49.9705186], [6.0846806, 49.969639], [6.0839451, 49.9695505], [6.0832795, 49.9694957], [6.0828231, 49.9694514], [6.0822281, 49.9692084], [6.081949, 49.969012], [6.0818448, 49.9689298], [6.0815061, 49.9686109], [6.0817356, 49.9682863], [6.082491, 49.9678679], [6.083317, 49.9677213], [6.083738, 49.9677992], [6.0838269, 49.9677054], [6.083772, 49.9675545], [6.0837766, 49.9675095], [6.0839648, 49.9673074], [6.0840505, 49.9672082], [6.0840809, 49.9671706], [6.0839286, 49.967145], [6.0835027, 49.9670786], [6.0825991, 49.9669937], [6.0820377, 49.9669626], [6.0819988, 49.9672323], [6.0811509, 49.9672569], [6.08055, 49.9672113], [6.080307, 49.9671626], [6.0801747, 49.9670954], [6.0790199, 49.9677675], [6.0780888, 49.9682436], [6.0783725, 49.9684506], [6.0784004, 49.9687819], [6.0783577, 49.9688487], [6.0782528, 49.9689036], [6.0778655, 49.9690154], [6.0775073, 49.9690508], [6.0770555, 49.9690433], [6.0765029, 49.9689586], [6.0763171, 49.9689135], [6.0756985, 49.9686899], [6.0754335, 49.9685639], [6.075212, 49.9684117], [6.0749535, 49.9681667], [6.0748452, 49.9680447], [6.074773, 49.9678643], [6.0747834, 49.9677522], [6.0749174, 49.9674344], [6.0750322, 49.9673549], [6.0751659, 49.9672592], [6.0752571, 49.9671755], [6.0754894, 49.9670617], [6.0759594, 49.9668532], [6.0760659, 49.966817], [6.0761324, 49.9667943], [6.0777128, 49.9659655], [6.0782977, 49.9658051], [6.0788347, 49.965531], [6.0791674, 49.9656314], [6.0794026, 49.9654931], [6.0784242, 49.9649539], [6.0762583, 49.9649593], [6.0753671, 49.9648592], [6.0749771, 49.9648172], [6.0747333, 49.9650386], [6.074574, 49.9650722], [6.0738604, 49.9650961], [6.0737553, 49.9650889], [6.0734833, 49.9650408], [6.0733384, 49.9649879], [6.0730899, 49.9648113], [6.0728567, 49.9646353], [6.0733744, 49.9643578], [6.0733613, 49.9642847], [6.0732427, 49.9640895], [6.073133, 49.9639564], [6.0730307, 49.9636619], [6.0730258, 49.9635843], [6.0730762, 49.963467], [6.0735788, 49.9632981], [6.0737593, 49.963214], [6.0738257, 49.9631676], [6.0739951, 49.9629462], [6.0740321, 49.9628564], [6.0740523, 49.9625439], [6.0738526, 49.9624335], [6.0732631, 49.9621028], [6.0728055, 49.9619258], [6.0727572, 49.9617412], [6.0719776, 49.9617096], [6.0710621, 49.9615178], [6.0706893, 49.9614841], [6.0703513, 49.9614211], [6.0701261, 49.9613536], [6.0696525, 49.9610817], [6.0692837, 49.960702], [6.0691629, 49.9604406], [6.0686841, 49.9599071], [6.0693643, 49.9597475], [6.0694638, 49.9594934], [6.0694704, 49.9594765], [6.0698095, 49.9596689], [6.070114, 49.9597768], [6.0702414, 49.9598358], [6.070554, 49.9599201], [6.0721489, 49.9603504], [6.0722734, 49.9602255], [6.0730461, 49.9602949], [6.0753375, 49.9607163], [6.076102, 49.9606956], [6.0775606, 49.9611385], [6.0774762, 49.9612583], [6.0787817, 49.9617481], [6.0795678, 49.9622979], [6.0797037, 49.9622539], [6.0808631, 49.9630629], [6.0811053, 49.9632161], [6.081559, 49.9634079], [6.0829489, 49.9636048], [6.0834265, 49.9634967], [6.0838954, 49.9634765], [6.0850803, 49.9634009], [6.0855922, 49.9633466], [6.0856788, 49.9633092], [6.085952, 49.9631857], [6.0861183, 49.9630821], [6.0861981, 49.96302], [6.0862669, 49.9629511], [6.0863102, 49.9628932], [6.0863413, 49.9628332], [6.0859658, 49.9627972], [6.0858893, 49.9627861], [6.0857069, 49.9627428], [6.0855272, 49.9626859], [6.0855327, 49.962671], [6.0856631, 49.9623194], [6.0856736, 49.9622692], [6.08505, 49.9621834], [6.0849062, 49.9621747], [6.0847603, 49.9621813], [6.0844716, 49.9622066], [6.0843062, 49.9617796], [6.0841969, 49.9610362], [6.0838884, 49.961045], [6.0835907, 49.9605152], [6.0835665, 49.9604238], [6.0835733, 49.9603253], [6.0836944, 49.9600326], [6.0841225, 49.9592736], [6.0843169, 49.9592459], [6.0842629, 49.9589532], [6.0833644, 49.9588422], [6.0831447, 49.9588933], [6.082824, 49.9588643], [6.0826555, 49.9588491], [6.0821923, 49.9590974], [6.0818171, 49.9590296], [6.081401, 49.9589056], [6.0803754, 49.9585268], [6.0796773, 49.9582686], [6.0793231, 49.9581099], [6.0793241, 49.9581446], [6.0792375, 49.9581413], [6.0791872, 49.9580813], [6.079163, 49.9579898], [6.0786793, 49.9580231], [6.0786824, 49.957983], [6.0788338, 49.9577767], [6.0790113, 49.9576423], [6.0790289, 49.957629], [6.079136, 49.9575449], [6.0791515, 49.9575084], [6.079145, 49.9574555], [6.0790765, 49.9573514], [6.0789443, 49.9572387], [6.0782181, 49.9568521], [6.0781404, 49.9567846], [6.0780724, 49.9567442], [6.0780371, 49.956682], [6.0780405, 49.9566434], [6.0780871, 49.956587], [6.0782706, 49.9564521], [6.0786002, 49.9565231], [6.0789599, 49.9565827], [6.0794902, 49.956632], [6.0798965, 49.9566463], [6.0802353, 49.9566163], [6.0809504, 49.956542], [6.0813902, 49.9565019], [6.0816432, 49.9565168], [6.081875, 49.9565416], [6.0821374, 49.9565543], [6.0826377, 49.9565677], [6.0828603, 49.9562305], [6.0828792, 49.9561916], [6.082835, 49.9561551], [6.080558, 49.9552057], [6.0803631, 49.9551525], [6.0804286, 49.9550732], [6.0792512, 49.9547856], [6.0788839, 49.9547323], [6.0784696, 49.9546721], [6.0780367, 49.9546029], [6.0778885, 49.954579], [6.0775382, 49.9543976], [6.0773373, 49.9541473], [6.0773309, 49.9541394], [6.0773, 49.9540952], [6.0775709, 49.9539215], [6.0776466, 49.9538728], [6.0778441, 49.9536975], [6.0778773, 49.9536516], [6.0779537, 49.9534852], [6.0779955, 49.9533385], [6.0780211, 49.9532086], [6.0780803, 49.9525232], [6.0780768, 49.9524721], [6.0780491, 49.9524298], [6.0780105, 49.9524093], [6.0776372, 49.9522445], [6.0775025, 49.9521836], [6.0772846, 49.9523982], [6.0769118, 49.9525484], [6.0746393, 49.9525804], [6.0742473, 49.9526352], [6.073796, 49.9528555], [6.0741401, 49.9532381], [6.0735905, 49.9534191], [6.0732227, 49.9534926], [6.0725813, 49.9535431], [6.0722407, 49.9537284], [6.0722099, 49.9537853], [6.0720082, 49.9542795], [6.0718896, 49.9543254], [6.0713102, 49.9543746], [6.0707845, 49.9544014], [6.0701076, 49.9542846], [6.0696417, 49.95415], [6.0695839, 49.9541189], [6.069721, 49.9540243], [6.069147, 49.9537361], [6.0689513, 49.9536237], [6.068622, 49.9533914], [6.0684577, 49.9532534], [6.0683465, 49.9532722], [6.0682757, 49.9531712], [6.068194, 49.9530406], [6.0681646, 49.952987], [6.0681317, 49.9529206], [6.0680924, 49.9527964], [6.0680609, 49.9526586], [6.0680504, 49.9525787], [6.0680485, 49.9524046], [6.0680879, 49.9521092], [6.0681272, 49.9519686], [6.0681633, 49.9518823], [6.0682379, 49.9517361], [6.0682793, 49.9516883], [6.0684134, 49.9515828], [6.0685586, 49.9515137], [6.0687072, 49.9514634], [6.0688228, 49.9514485], [6.0689652, 49.9514588], [6.0691396, 49.9514878], [6.0699961, 49.9516676], [6.0705201, 49.9517893], [6.070825, 49.9518588], [6.0709225, 49.9518749], [6.0714488, 49.9519615], [6.0714934, 49.951975], [6.0715847, 49.9519524], [6.0717205, 49.9518998], [6.0718332, 49.9518326], [6.0719501, 49.9517059], [6.0721274, 49.9514944], [6.0724584, 49.9511194], [6.0728271, 49.9511471], [6.0731433, 49.9511268], [6.0736046, 49.9511358], [6.0739413, 49.9511262], [6.0744074, 49.951113], [6.0749588, 49.9510922], [6.0751261, 49.9509747], [6.0750829, 49.9508842], [6.0749188, 49.9505395], [6.0747849, 49.950489], [6.0743585, 49.9503829], [6.0742313, 49.9501999], [6.0738518, 49.9497585], [6.0733285, 49.9492448], [6.0735485, 49.9492492], [6.0738356, 49.9492595], [6.0741127, 49.9492694], [6.0747834, 49.9493029], [6.0752292, 49.9493218], [6.0755152, 49.949362], [6.0756004, 49.9493007], [6.0757735, 49.9491873], [6.0763219, 49.9488986], [6.0766817, 49.9486242], [6.076789, 49.9485423], [6.0767325, 49.9484316], [6.0767145, 49.9483811], [6.0769057, 49.9482515], [6.0769469, 49.9482311], [6.0770496, 49.9481803], [6.0771326, 49.9481382], [6.0762621, 49.9477254], [6.075669, 49.9474425], [6.075295, 49.9472574], [6.0749486, 49.9470898], [6.0747514, 49.9470154], [6.0746592, 49.9469807], [6.0745635, 49.946946], [6.0743278, 49.9471978], [6.0730898, 49.9467515], [6.0732905, 49.9464859], [6.0719524, 49.9460975], [6.0713236, 49.9458065], [6.0708798, 49.9454733], [6.0705384, 49.9456128], [6.0703604, 49.9456518], [6.0700648, 49.9453931], [6.0698288, 49.9451257], [6.0697453, 49.9449774], [6.0697165, 49.9449022], [6.0696902, 49.9448022], [6.0696705, 49.9446854], [6.0696647, 49.9445532], [6.0696454, 49.9439947], [6.0696166, 49.9433004], [6.0697457, 49.9432958], [6.0697237, 49.9431311], [6.0697157, 49.942942], [6.0697175, 49.9426358], [6.0696023, 49.9426446], [6.0693884, 49.9426659], [6.0693254, 49.9426531], [6.0692942, 49.9426406], [6.06911, 49.9424835], [6.0689523, 49.9423021], [6.0689061, 49.9422241], [6.0690115, 49.9419239], [6.0692366, 49.941902], [6.0692054, 49.9415558], [6.0691765, 49.9411658], [6.0689334, 49.9403668], [6.0692466, 49.9402956], [6.0697004, 49.9401924], [6.0699563, 49.9404731], [6.0701779, 49.9405425], [6.0702819, 49.9409822], [6.0704654, 49.9414273], [6.0705587, 49.941756], [6.0706047, 49.9420115], [6.0705693, 49.9420222], [6.070584, 49.9421148], [6.0707891, 49.9421485], [6.0708671, 49.9422798], [6.0710621, 49.9425951], [6.0711193, 49.9426983], [6.0708777, 49.9426914], [6.0709691, 49.9427463], [6.0713472, 49.9429688], [6.0717407, 49.9432009], [6.0719303, 49.9433081], [6.0720485, 49.9433623], [6.0724032, 49.9435406], [6.0726708, 49.9432756], [6.0732059, 49.9435815], [6.0733918, 49.9437144], [6.0736196, 49.9438859], [6.0737442, 49.9438666], [6.0743112, 49.9437788], [6.0746806, 49.9436813], [6.0752616, 49.9435647], [6.0754887, 49.9430853], [6.0759027, 49.9431815], [6.0759397, 49.9431395], [6.0760895, 49.9429738], [6.0756613, 49.942882], [6.0752906, 49.9427904], [6.0751338, 49.9427396], [6.0747396, 49.9425966], [6.0746253, 49.9425437], [6.0745602, 49.942513], [6.0744374, 49.942455], [6.0743244, 49.9423814], [6.0742243, 49.942305], [6.0741337, 49.9422043], [6.0740996, 49.9421315], [6.0740753, 49.9419723], [6.0746448, 49.9417804], [6.0745879, 49.9416916], [6.0745764, 49.9415043], [6.074621, 49.941399], [6.0747587, 49.9412281], [6.0748748, 49.9411566], [6.074869, 49.9411232], [6.0749649, 49.9410905], [6.0752524, 49.9410732], [6.0762405, 49.9412061], [6.0761905, 49.9413954], [6.0770568, 49.9415855], [6.0778144, 49.9418052], [6.0781172, 49.9419017], [6.078092, 49.9419493], [6.0780269, 49.9420726], [6.0792289, 49.9423912], [6.0793953, 49.9423245], [6.0796663, 49.9423773], [6.0796394, 49.9423491], [6.0796223, 49.9423311], [6.0795598, 49.9422655], [6.0797714, 49.9422781], [6.0801268, 49.9422896], [6.0801771, 49.9421497], [6.0802442, 49.9421489], [6.080248, 49.9420763], [6.0802473, 49.9418719], [6.0806188, 49.9418874], [6.0813714, 49.9418441], [6.0809572, 49.9414595], [6.0808147, 49.9413552], [6.0804249, 49.9410922], [6.0802942, 49.9408258], [6.080018, 49.9402665], [6.0797987, 49.9397774], [6.0794359, 49.9391893], [6.0792911, 49.9388786], [6.0792113, 49.938751], [6.0791033, 49.9385782], [6.0790282, 49.93834], [6.0792311, 49.9382355], [6.0791643, 49.9381028], [6.0791793, 49.9379579], [6.0792774, 49.9378317], [6.0794936, 49.9377211], [6.079869, 49.9376773], [6.0810894, 49.9376154], [6.0812627, 49.9376148], [6.0813942, 49.9376219], [6.0817066, 49.9376387], [6.0821634, 49.9376818], [6.0824568, 49.9377019], [6.0825654, 49.9372161], [6.0825729, 49.9371827], [6.0821272, 49.9371421], [6.0823327, 49.9369262], [6.0827762, 49.9369731], [6.0826879, 49.9367217], [6.08235, 49.9364779], [6.0823876, 49.9364054], [6.0827316, 49.9362141], [6.0826298, 49.9361781], [6.0820001, 49.9359011], [6.0817552, 49.9357998], [6.0813287, 49.9356675], [6.0806586, 49.9355086], [6.0805411, 49.9354729], [6.0799811, 49.9353249], [6.0786125, 49.9348121], [6.0770072, 49.9343874], [6.0768034, 49.9343538], [6.0764646, 49.9343128], [6.0761502, 49.9342821], [6.07565, 49.9342899], [6.0753751, 49.9342692], [6.0750974, 49.9342212], [6.0754417, 49.9339467], [6.0749943, 49.9337225], [6.0748457, 49.9336157], [6.074602, 49.933376], [6.0743656, 49.933178], [6.073942, 49.933357], [6.07374, 49.933914], [6.073515, 49.933956], [6.073332, 49.933994], [6.072569, 49.93419], [6.071313, 49.9345031], [6.071321, 49.9346454], [6.0714895, 49.9348098], [6.0717266, 49.9349542], [6.0730883, 49.935394], [6.0730657, 49.9354231], [6.0734198, 49.9355108], [6.0735962, 49.9355427], [6.0739556, 49.9356038], [6.0740582, 49.9356542], [6.0741181, 49.9357466], [6.0741621, 49.9358507], [6.0740738, 49.9359225], [6.0739496, 49.935897], [6.0738799, 49.9359057], [6.0732052, 49.9358886], [6.0721832, 49.9358084], [6.0716911, 49.935764], [6.0712305, 49.9357229], [6.0709682, 49.9357159], [6.0709027, 49.9355815], [6.0708287, 49.935467], [6.0704371, 49.9351333], [6.070185, 49.9348958], [6.0697773, 49.9347569], [6.0695171, 49.9347422], [6.0690845, 49.9346665], [6.0687152, 49.9346706], [6.0683598, 49.9347396], [6.0682399, 49.9348007], [6.0681278, 49.9348579], [6.0679758, 49.9348876], [6.0679202, 49.9347768], [6.0678428, 49.9346533], [6.0678405, 49.9345477], [6.0678515, 49.9344608], [6.0679963, 49.9342899], [6.0681442, 49.9341665], [6.0683046, 49.9340731], [6.0684602, 49.9339653], [6.0680866, 49.9335952], [6.0686347, 49.9333921], [6.0681278, 49.9333464], [6.0670388, 49.9331893], [6.0660738, 49.9330188], [6.0652307, 49.9330318], [6.0648631, 49.933086], [6.0637236, 49.9331487], [6.0635832, 49.9330698], [6.0633695, 49.9331055], [6.0633742, 49.9332601], [6.0632735, 49.9333389], [6.0629739, 49.9334923], [6.0629028, 49.9334595], [6.0627459, 49.9334871], [6.0625373, 49.9335216], [6.0625378, 49.9336341], [6.0618085, 49.9340914], [6.0614541, 49.9344172], [6.0607339, 49.9350726], [6.0607601, 49.9352309], [6.0604216, 49.9355611], [6.0602451, 49.936159], [6.0602446, 49.936764], [6.0602525, 49.9369097], [6.0602548, 49.9372137], [6.0602214, 49.9373151], [6.0600315, 49.9374449], [6.0597137, 49.9376012], [6.0593328, 49.9379067], [6.0591912, 49.9383137], [6.0591773, 49.9383634], [6.0591692, 49.9387422], [6.059357, 49.9391038], [6.0591584, 49.9392558], [6.0589412, 49.9396045], [6.0584891, 49.9398315], [6.0582438, 49.9399817], [6.0580619, 49.9401226], [6.0578779, 49.9402694], [6.0576886, 49.940386], [6.0577581, 49.9404643], [6.0578646, 49.9406231], [6.0579386, 49.9405682], [6.0582733, 49.940427], [6.0585576, 49.940793], [6.0584933, 49.9408741], [6.0585696, 49.9409557], [6.0583354, 49.9410454], [6.0583766, 49.9410675], [6.0586975, 49.941198], [6.0593564, 49.9409725], [6.0594025, 49.9410847], [6.0596524, 49.9412338], [6.059728, 49.9412895], [6.0600087, 49.9415301], [6.0599968, 49.9416334], [6.0598512, 49.941682], [6.0598075, 49.9416966], [6.059464, 49.9418113], [6.0583994, 49.9419104], [6.0582696, 49.9418954], [6.0582281, 49.9418444], [6.0581507, 49.9415135], [6.0581399, 49.9414672], [6.058131, 49.9414292], [6.057511, 49.9414691], [6.0568204, 49.9413307], [6.056301, 49.9412708], [6.0536009, 49.9414161], [6.05337, 49.9416452], [6.0533168, 49.9417632], [6.0532093, 49.9419599], [6.0532909, 49.9421255], [6.0537457, 49.9425019], [6.0538517, 49.9426374], [6.0536492, 49.9427099], [6.0534802, 49.9427453], [6.0534348, 49.9427727], [6.0535786, 49.9429002], [6.0537365, 49.9431527], [6.054064, 49.9435935], [6.0542793, 49.9442115], [6.0545357, 49.9440813], [6.0547301, 49.9443342], [6.0552961, 49.9447381], [6.0556638, 49.9451883], [6.0561247, 49.9458003], [6.0560149, 49.9458842], [6.0560023, 49.945895], [6.0559747, 49.9459187], [6.0563213, 49.9461982], [6.0565124, 49.9464011], [6.0565795, 49.9465358], [6.0566295, 49.9464601], [6.056829, 49.9460313], [6.0568949, 49.9460393], [6.0576435, 49.9460918], [6.0582911, 49.9460083], [6.0587807, 49.9460405], [6.0587829, 49.9462044], [6.0586211, 49.9465427], [6.0581873, 49.9472655], [6.0584558, 49.9477365], [6.0587516, 49.9477876], [6.059019, 49.9479493], [6.0591273, 49.9480616], [6.0592399, 49.9481967], [6.0592335, 49.948367], [6.0591, 49.948822], [6.0593018, 49.9492543], [6.0582048, 49.9493287], [6.0575134, 49.9495175], [6.0567807, 49.949746], [6.0568142, 49.9499376], [6.0569601, 49.9500798], [6.0571195, 49.9500852], [6.0572402, 49.9501757], [6.0573574, 49.9504823], [6.0569259, 49.9507007], [6.0575071, 49.9512671], [6.0572659, 49.9514841], [6.0573462, 49.951975], [6.0574404, 49.9519997], [6.0574723, 49.9520296], [6.0567805, 49.9518778], [6.0566203, 49.9520985], [6.0557586, 49.9519251], [6.0556704, 49.9519108], [6.0554905, 49.9523426], [6.0548887, 49.9534681], [6.0546513, 49.9537526], [6.0544753, 49.9539587], [6.0552156, 49.9540606], [6.0557386, 49.9540606], [6.055922, 49.9544648], [6.0559775, 49.9546937], [6.0559449, 49.9550578], [6.0558296, 49.9551901], [6.0556367, 49.9553082], [6.0558097, 49.9554282], [6.0560471, 49.9554653], [6.0555707, 49.9556737], [6.0552583, 49.9557892], [6.0551633, 49.9559795], [6.0551807, 49.9562341], [6.0551656, 49.9565219], [6.0547036, 49.9563487], [6.0542102, 49.9560176], [6.0540565, 49.9558443], [6.053055, 49.9553152], [6.0527225, 49.9555947], [6.0527869, 49.9557129], [6.0525602, 49.9558458], [6.0523711, 49.9559571], [6.0517354, 49.956681], [6.0511453, 49.9570861], [6.0509039, 49.9573255], [6.0506907, 49.9576293], [6.0504171, 49.958052], [6.0503474, 49.9582125], [6.0503152, 49.9583816], [6.0503974, 49.9585039], [6.0504269, 49.9585997], [6.0506978, 49.9589922], [6.0510535, 49.9595251], [6.0517252, 49.9591108], [6.0517684, 49.959082], [6.0520023, 49.9591633], [6.0524654, 49.9593632], [6.0527094, 49.9595306], [6.0527756, 49.9595848], [6.0529158, 49.9597561], [6.0528284, 49.9598121], [6.051923, 49.9604427], [6.0517596, 49.9605318], [6.0518656, 49.9608795], [6.0518792, 49.9611706], [6.0518662, 49.9613513], [6.051869, 49.9614506], [6.0528235, 49.9610579], [6.0532837, 49.9607967], [6.0546914, 49.961366], [6.0552924, 49.9615365], [6.0554168, 49.961862], [6.0553583, 49.9620398], [6.0554052, 49.9621761], [6.0554596, 49.9624289], [6.0556757, 49.9624119], [6.0557361, 49.9624513], [6.0564068, 49.9627832], [6.0567604, 49.9628522], [6.0577131, 49.9635672], [6.0577233, 49.9635749], [6.0577483, 49.9635753], [6.0583511, 49.9633032], [6.0584847, 49.9632223], [6.0586944, 49.9630543], [6.0589311, 49.9628045], [6.0594461, 49.9625522], [6.0596065, 49.9624601], [6.0596864, 49.9623634], [6.0599, 49.9624973], [6.0603052, 49.9627485], [6.0602196, 49.9628004], [6.0596593, 49.9631326], [6.0593681, 49.9632931], [6.0592287, 49.963348], [6.058632, 49.9636649], [6.0581552, 49.9640812], [6.0581328, 49.9641269], [6.057746, 49.9640789], [6.0577427, 49.9639353], [6.0577154, 49.9638262], [6.0575961, 49.9636497], [6.0568054, 49.9639111], [6.0571552, 49.9646798], [6.0573696, 49.9649307], [6.0578676, 49.9655135], [6.0583904, 49.9654636], [6.0584664, 49.9654563], [6.0586217, 49.9658164], [6.0589184, 49.9665048], [6.0594139, 49.9662411], [6.0594693, 49.9663759], [6.0597114, 49.9663954], [6.0604556, 49.96634], [6.0604516, 49.9663041], [6.0598859, 49.9660317], [6.0596825, 49.9660441], [6.0598284, 49.9658859], [6.0604308, 49.9656488], [6.060687, 49.9662878], [6.0607036, 49.9663415], [6.0607226, 49.966383], [6.0610954, 49.9662783], [6.0612766, 49.96611], [6.0614725, 49.965784], [6.0614986, 49.9656543], [6.0612571, 49.9650841], [6.0616769, 49.9649386], [6.0618218, 49.9648235], [6.062202, 49.96447], [6.0628438, 49.9641464], [6.0633454, 49.9637461], [6.0639033, 49.9634243], [6.0644672, 49.9636977], [6.0648591, 49.9640321], [6.0653034, 49.9645415], [6.0653537, 49.9647375], [6.065539, 49.9645655], [6.0678292, 49.9656295], [6.0677944, 49.9660772], [6.065959, 49.9656687], [6.0653876, 49.9657501], [6.0648145, 49.9657142], [6.0647035, 49.9660405], [6.0638765, 49.9661407], [6.0636975, 49.9660841], [6.063615, 49.9660094], [6.0632333, 49.9664946], [6.0629869, 49.9668874], [6.063003, 49.9670077], [6.0629517, 49.9670623], [6.0627245, 49.9671282], [6.062221, 49.9677701], [6.0622082, 49.9677983], [6.0622001, 49.9678348], [6.0619686, 49.9683992], [6.0617987, 49.9685392], [6.0615927, 49.9685944], [6.0613148, 49.9686214], [6.0608578, 49.9687215], [6.0605123, 49.9688035], [6.0603069, 49.968927], [6.0602928, 49.9692031], [6.0603567, 49.9693615], [6.0606388, 49.9696916], [6.0606971, 49.9703816], [6.0607672, 49.9706598], [6.0609638, 49.9707022], [6.0614467, 49.9706974], [6.0617782, 49.9706737], [6.0619792, 49.9707138], [6.0621213, 49.970782], [6.0625883, 49.9714596], [6.0625094, 49.9716342], [6.0624338, 49.9718015], [6.0622973, 49.971965], [6.0620162, 49.9720596], [6.0620864, 49.9722443], [6.0621763, 49.9724088], [6.0623909, 49.9726023], [6.0638312, 49.9736557], [6.0639272, 49.9739102], [6.0639702, 49.9743577], [6.0639186, 49.974545], [6.0636526, 49.9748821], [6.0643271, 49.9752419], [6.0641259, 49.9753946], [6.0639309, 49.9755119], [6.0634219, 49.9757516], [6.0625679, 49.9760198], [6.0623986, 49.9761157], [6.0622406, 49.9762052], [6.0620862, 49.976252], [6.0617809, 49.9762595], [6.0616291, 49.976255], [6.0615607, 49.9762198], [6.0614832, 49.97629], [6.061412, 49.9764461], [6.0614386, 49.9764811], [6.0621117, 49.976511], [6.0624863, 49.9765069], [6.0631045, 49.9765927], [6.0638674, 49.9765306], [6.0636798, 49.9767649], [6.0635024, 49.9769864], [6.0632459, 49.9774118], [6.0632362, 49.9776567], [6.0632942, 49.9779933], [6.0633773, 49.9780015], [6.0633945, 49.9782692], [6.0638416, 49.9783228], [6.063957, 49.9781626], [6.0640129, 49.9780799], [6.0640877, 49.9779201], [6.0641162, 49.9778263], [6.0641361, 49.9777499], [6.0641478, 49.977705], [6.0641926, 49.9775331], [6.0642443, 49.9774416], [6.0642799, 49.9773761], [6.0643522, 49.9773313], [6.0646285, 49.977261], [6.0646185, 49.9772496], [6.0645297, 49.9771484], [6.0650236, 49.9770545], [6.0651083, 49.9770042], [6.065117, 49.9769525], [6.0650858, 49.976872], [6.0648896, 49.976636], [6.065249, 49.9767254], [6.0656095, 49.9767585], [6.0656682, 49.9763174], [6.0657769, 49.9762142], [6.0659448, 49.975835], [6.0660387, 49.9755994], [6.0655584, 49.9754419], [6.0656916, 49.9751704], [6.0658019, 49.9743006], [6.0661143, 49.9746337], [6.0665542, 49.9749197], [6.0671305, 49.9751923], [6.0679545, 49.9756397], [6.0684243, 49.9757806], [6.068699, 49.9760642], [6.0687216, 49.9762327], [6.0684248, 49.9764108], [6.067884, 49.9769076], [6.0677209, 49.9771228], [6.0676601, 49.9773665], [6.0679518, 49.9774291], [6.0684274, 49.9774349], [6.068719, 49.9773317], [6.0692397, 49.9771583], [6.0693669, 49.9770739], [6.0692181, 49.9770104], [6.0696551, 49.9764921], [6.0697683, 49.9761811], [6.0697067, 49.9757524], [6.0691492, 49.975686], [6.0689268, 49.9754716], [6.0685628, 49.9751495], [6.0676258, 49.9744603], [6.0675436, 49.9743916], [6.0675377, 49.9743596], [6.0677938, 49.97429], [6.0678471, 49.9738988], [6.0678281, 49.9734183], [6.0677498, 49.9732717], [6.0675125, 49.9730292], [6.0671916, 49.9727595], [6.0672239, 49.9727376], [6.0674189, 49.9725904], [6.0677689, 49.972264], [6.0670206, 49.971987], [6.0675007, 49.9714437], [6.067488, 49.971389], [6.067366, 49.9713752], [6.0674581, 49.9707099], [6.0676265, 49.9702613], [6.0678293, 49.9698873], [6.0683069, 49.9695281], [6.0684414, 49.9695193], [6.0691114, 49.969908], [6.0699484, 49.9703906], [6.0700316, 49.9704385], [6.0700908, 49.9707236], [6.0703017, 49.9709884], [6.0703979, 49.9711092], [6.0709035, 49.971346], [6.0716974, 49.9716738], [6.0720294, 49.971852], [6.0722767, 49.9720382], [6.0717422, 49.9724215], [6.0716005, 49.9725523], [6.0713516, 49.9727068], [6.0712228, 49.9730877], [6.0715171, 49.9729675], [6.0718151, 49.9732368], [6.0720431, 49.9732663], [6.072496, 49.9733819], [6.0725974, 49.9734395], [6.0724847, 49.973561], [6.0724249, 49.9736241], [6.0721974, 49.9738647], [6.072133, 49.9739908], [6.0733951, 49.9743544], [6.0734106, 49.9744754], [6.0732098, 49.9747962], [6.0728842, 49.9751516], [6.0727592, 49.9752847], [6.0727829, 49.9754144], [6.0728965, 49.9760354], [6.0730632, 49.9763408], [6.0731437, 49.9764191], [6.0732667, 49.9765228], [6.073663, 49.9765994], [6.0740637, 49.9765526], [6.0744181, 49.9766412], [6.0749669, 49.9769465], [6.0762613, 49.977837], [6.0765204, 49.978032], [6.0763517, 49.9782422], [6.0761395, 49.9782735], [6.0759866, 49.9781708], [6.0759757, 49.9780704], [6.0749256, 49.9781734], [6.0745452, 49.9782232], [6.0743031, 49.9782608], [6.074523, 49.9788399], [6.0741548, 49.9788973], [6.0740318, 49.9789217], [6.073248, 49.9790913], [6.0731231, 49.9791616], [6.0725169, 49.9792879], [6.0721616, 49.9793135], [6.0721546, 49.9793985], [6.0721616, 49.9794507], [6.0721884, 49.9795002], [6.0722718, 49.9794895], [6.0728034, 49.9794504], [6.0728618, 49.9796007], [6.0731468, 49.980295], [6.0724381, 49.980328], [6.0722276, 49.9806556], [6.0720897, 49.9808761], [6.0721241, 49.9810472], [6.0722927, 49.9812556], [6.0726773, 49.9814161], [6.0731326, 49.9814791], [6.0736789, 49.9817924], [6.0740125, 49.982106], [6.0740651, 49.9823162], [6.0740548, 49.9824455], [6.0743484, 49.9824266], [6.0744522, 49.9826488], [6.0744488, 49.9828165], [6.0744083, 49.9828695], [6.075571, 49.9830733], [6.0755195, 49.9831895], [6.0758419, 49.9832424], [6.0763228, 49.9833273], [6.0767474, 49.9834286], [6.0769505, 49.9835016], [6.0770324, 49.9835975], [6.0771333, 49.983806], [6.0773147, 49.9837932], [6.0773351, 49.983961], [6.0773792, 49.9841626], [6.0775101, 49.9844378], [6.077718, 49.9847749], [6.0777542, 49.9849328], [6.0777663, 49.9850027], [6.0777498, 49.9850711], [6.0776899, 49.9851026], [6.0782143, 49.9852516], [6.0787842, 49.9853941], [6.0791476, 49.9854371], [6.0790994, 49.9857459], [6.0791167, 49.9860474], [6.0790898, 49.9863727], [6.0793891, 49.9864508], [6.0797028, 49.986232], [6.0797063, 49.9862292], [6.0799473, 49.986032], [6.0805007, 49.9863495], [6.0808335, 49.9865005], [6.0809943, 49.9866332], [6.0811068, 49.9870759], [6.0810827, 49.9871977], [6.0810111, 49.9872865], [6.0807668, 49.9874324], [6.0806778, 49.9875506], [6.080659, 49.987636], [6.080777, 49.9876515], [6.0808307, 49.9876332], [6.0813094, 49.9875748], [6.0813553, 49.9874581], [6.0813849, 49.9874673], [6.0814852, 49.9874768], [6.0815378, 49.9874946], [6.0816186, 49.9875219], [6.0820405, 49.9876642], [6.082193, 49.9877265], [6.0822925, 49.9877887], [6.0820525, 49.9880338], [6.0824513, 49.9881983], [6.0827489, 49.9883874], [6.0829926, 49.9882387], [6.0831159, 49.9881808], [6.0831956, 49.9881504], [6.0834543, 49.9880519], [6.0837897, 49.9884351], [6.0841919, 49.9881295]]]}}]}